{"type": "FeatureCollection", "features": [{"type": "Feature", "properties": {"name": "마우리아 왕조", "name_en": "Maurya Empire", "period": "기원전 3세기(아소카왕 시기 최대)", "kind": "국가", "legend": "마우리아 왕조의 최대 영역", "map_title": "마우리아 왕조의 영역과 석주", "source": "미래엔 세계사 교과서 1권 34쪽", "volume": 1, "page": 34, "coast_snap": "Natural Earth 10m 해안선에 맞춤", "border_snap": "현대 국경(Natural Earth 10m)에 맞춘 구간 약 1126 km"}, "geometry": {"type": "MultiPolygon", "coordinates": [[[[80.8685, 15.81197], [80.87916, 15.84007], [80.88836, 15.84673], [80.93727, 15.81891], [80.98316, 15.78075], [80.98853, 15.77074], [80.98495, 15.76198], [80.97168, 15.75048], [80.94256, 15.74109], [80.91799, 15.75512], [80.8685, 15.81197]]], [[[88.14599, 21.64375], [88.13941, 21.63032], [88.12981, 21.62596], [88.09156, 21.63654], [88.06349, 21.63668], [88.05178, 21.6416], [88.04315, 21.65762], [88.04403, 21.68111], [88.08996, 21.8085], [88.11931, 21.85952], [88.14674, 21.86985], [88.16699, 21.76519], [88.16341, 21.70548], [88.13258, 21.68496], [88.1444, 21.65758], [88.14599, 21.64375]]], [[[88.09426, 21.93788], [88.10573, 21.94757], [88.1189, 21.945], [88.13257, 21.92048], [88.125, 21.88866], [88.10499, 21.86115], [88.0809, 21.84936], [88.07229, 21.85676], [88.07107, 21.87337], [88.07744, 21.90489], [88.09426, 21.93788]]], [[[67.45802, 24.06273], [67.48527, 24.04849], [67.46518, 24.0406], [67.45395, 24.01341], [67.4267, 24.00759], [67.40944, 24.01351], [67.39341, 24.02807], [67.3755, 24.06273], [67.39039, 24.04926], [67.41326, 24.04877], [67.45802, 24.06273]]], [[[61.92154, 25.52617], [62.05262, 25.56707], [62.09079, 25.57356], [62.2166, 25.57772], [62.22394, 25.58148], [62.53789, 26.07499], [62.64732, 26.27015], [62.74147, 26.47248], [62.88557, 26.90211], [62.91913, 26.97807], [62.91103, 27.21444], [63.00378, 27.22878], [63.05618, 27.2432], [63.1123, 27.2432], [63.16698, 27.2587], [63.1771, 27.25844], [63.24764, 27.48333], [63.28786, 27.5362], [63.52949, 27.82582], [63.69927, 28.08406], [64.00292, 28.62551], [64.16186, 28.8943], [64.34077, 29.15068], [64.5071, 29.33801], [64.52, 29.57006], [64.82031, 29.56789], [64.98661, 29.54156], [65.03637, 29.54016], [65.14515, 29.56789], [65.08626, 29.792], [65.11412, 29.8122], [65.19895, 29.88766], [65.25001, 29.94539], [65.29455, 30.0069], [65.33403, 30.07202], [65.49581, 30.3977], [65.64735, 30.62009], [65.83885, 30.82755], [66.01611, 30.98581], [66.10253, 31.05852], [66.77251, 31.58829], [66.99432, 31.7873], [67.30476, 32.12664], [67.44708, 32.25947], [67.61006, 32.39515], [67.78593, 32.53], [67.96792, 32.66128], [68.47886, 33.00472], [68.69418, 33.13206], [68.80604, 33.18999], [69.03599, 33.29737], [69.46641, 33.47485], [69.77418, 33.57516], [69.95752, 33.75269], [69.93132, 33.80644], [69.90755, 33.83561], [69.89876, 33.8515], [69.88543, 33.88946], [69.87649, 33.90256], [69.84719, 33.92695], [69.84109, 33.9418], [69.87199, 33.97152], [69.87261, 34.01723], [69.88925, 34.03121], [69.91602, 34.03888], [69.96909, 34.04573], [70.00284, 34.04379], [70.21885, 33.98069], [70.27559, 33.97617], [70.3099, 33.96167], [70.32819, 33.95728], [70.40896, 33.95441], [70.49149, 33.93961], [70.52198, 33.9387], [70.65618, 33.95475], [70.68594, 33.9545], [70.70338, 34.18278], [70.81305, 34.2674], [71.01983, 34.41444], [70.99151, 34.44307], [70.97084, 34.46888], [70.96123, 34.48761], [70.95565, 34.51001], [70.95699, 34.532], [70.96867, 34.54973], [70.98583, 34.55619], [71.04753, 34.55112], [71.06582, 34.55846], [71.07657, 34.57851], [71.07988, 34.6029], [71.06877, 34.64595], [71.07016, 34.66124], [71.0806, 34.67292], [71.15093, 34.72031], [71.18954, 34.73705], [71.20308, 34.74816], [71.25563, 34.81023], [71.27082, 34.84428], [71.28948, 34.87503], [71.32493, 34.89756], [71.45996, 34.94267], [71.46957, 34.9497], [71.48538, 34.9835], [71.49334, 34.99414], [71.51132, 35.00872], [71.51298, 35.01812], [71.5075, 35.0282], [71.50895, 35.07202], [71.53499, 35.09858], [71.60414, 35.13817], [71.62925, 35.1701], [71.63793, 35.18969], [71.91847, 35.15148], [71.96713, 35.17979], [72.23258, 35.31701], [72.49117, 35.44224], [72.67261, 35.5153], [72.85044, 35.55767], [73.02282, 35.57342], [73.19589, 35.56692], [73.36511, 35.54241], [73.53332, 35.50382], [73.70035, 35.45528], [74.28965, 35.26582], [74.42677, 35.21107], [74.55125, 35.14599], [74.65487, 35.06761], [74.72886, 34.97411], [74.75054, 34.90964], [74.70518, 34.68169], [75.01778, 34.62972], [75.01977, 34.40431], [75.13835, 34.33353], [75.28752, 34.27268], [75.62783, 34.15715], [75.81064, 34.08053], [75.98107, 33.97593], [76.12074, 33.84763], [76.24163, 33.69581], [76.34399, 33.53213], [76.43469, 33.36113], [76.60298, 33.02063], [76.69081, 32.86443], [76.75143, 32.77233], [76.81807, 32.68248], [76.96358, 32.51633], [77.04415, 32.43782], [77.13064, 32.36196], [77.21982, 32.29154], [77.31235, 32.22578], [77.58298, 32.0465], [77.70634, 31.94546], [77.76041, 31.88895], [77.80759, 31.8274], [77.85153, 31.75317], [77.91937, 31.61448], [77.95469, 31.55647], [78.00272, 31.50441], [78.06621, 31.46437], [78.15051, 31.43697], [78.26829, 31.42274], [78.42614, 31.42558], [78.69538, 31.4881], [78.733, 31.46774], [78.76256, 31.44511], [78.76008, 31.41204], [78.74551, 31.37354], [78.73848, 31.33499], [78.7451, 31.30812], [78.78447, 31.28827], [78.82199, 31.2937], [78.86199, 31.29148], [78.92101, 31.26969], [78.94028, 31.30158], [78.95955, 31.32512], [78.9888, 31.34326], [79.01553, 31.3834], [79.04994, 31.42295], [79.07021, 31.46138], [79.07799, 31.46166], [79.1314, 31.43843], [79.17922, 31.3938], [79.19244, 31.36979], [79.20763, 31.35137], [79.23832, 31.32966], [79.23924, 31.31172], [79.25411, 31.29901], [79.26202, 31.27851], [79.24843, 31.2567], [79.25286, 31.24544], [79.27832, 31.24004], [79.28832, 31.22547], [79.30321, 31.1831], [79.30216, 31.16345], [79.31942, 31.14228], [79.36705, 31.11156], [79.37234, 31.09407], [79.38836, 31.06947], [79.39498, 31.03671], [79.40159, 31.02364], [79.41441, 31.02038], [79.44634, 31.02379], [79.46164, 31.0211], [79.47642, 31.01402], [79.49761, 30.98121], [79.5127, 30.96617], [79.52965, 30.95356], [79.57781, 30.93837], [79.58949, 30.94023], [79.63031, 30.9625], [79.6885, 30.96741], [79.73904, 30.97925], [79.8335, 30.96152], [79.85035, 30.95449], [79.86286, 30.94152], [79.88043, 30.91284], [79.90316, 30.89021], [79.93489, 30.87254], [80.00559, 30.84727], [80.02863, 30.83078], [80.06253, 30.78479], [80.0922, 30.7745], [80.10925, 30.77812], [80.14067, 30.79321], [80.1571, 30.79316], [80.1693, 30.78525], [80.19607, 30.7481], [80.22459, 30.73409], [80.23141, 30.72495], [80.20702, 30.68614], [80.19989, 30.68071], [80.17292, 30.67916], [80.16661, 30.67441], [80.16692, 30.6619], [80.19989, 30.62588], [80.2033, 30.60635], [80.17984, 30.55948], [80.185, 30.31985], [80.19998, 30.27468], [80.2406, 30.08689], [80.25692, 29.98408], [80.39523, 29.77658], [80.36897, 29.75793], [80.3543, 29.73028], [80.3544, 29.70488], [80.38675, 29.62682], [80.3852, 29.60484], [80.37332, 29.58419], [80.35078, 29.56207], [80.32722, 29.54859], [80.3236, 29.54166], [80.32722, 29.52484], [80.31151, 29.50812], [80.29115, 29.49461], [80.26624, 29.47213], [80.26345, 29.45924], [80.25746, 29.45006], [80.22831, 29.44172], [80.21767, 29.43464], [80.21374, 29.41689], [80.22097, 29.40012], [80.24216, 29.36741], [80.2495, 29.327], [80.25498, 29.31664], [80.27275, 29.31571], [80.28009, 29.31015], [80.28094, 29.30419], [80.54006, 29.31871], [80.60998, 29.2417], [80.72255, 29.13937], [80.83713, 29.05788], [80.9418, 29.00915], [81.03248, 28.99889], [81.07335, 29.00762], [81.24906, 29.07461], [81.28611, 29.08073], [81.32397, 29.07956], [81.38134, 29.06405], [81.42473, 29.03676], [81.4576, 29.0006], [81.53007, 28.87666], [81.56031, 28.83815], [81.60262, 28.80536], [81.68153, 28.77122], [81.77826, 28.74706], [81.87887, 28.73213], [82.29925, 28.69502], [82.38782, 28.67767], [82.51474, 28.63666], [82.63022, 28.58386], [82.7341, 28.52291], [82.83062, 28.45589], [83.11465, 28.23664], [83.22251, 28.16124], [83.33825, 28.09469], [83.46099, 28.03906], [83.59541, 27.98915], [83.72862, 27.9468], [84.12113, 27.83671], [84.48315, 27.72334], [84.96077, 27.55769], [85.19525, 27.46511], [85.42584, 27.36416], [85.65284, 27.25348], [85.87603, 27.13197], [86.18889, 26.93897], [86.28062, 26.88848], [86.36334, 26.85826], [86.50678, 26.82705], [86.56605, 26.80003], [86.7321, 26.68269], [86.87597, 26.49492], [86.90713, 26.51151], [86.97245, 26.53197], [87.02991, 26.57977], [87.04133, 26.58019], [87.29283, 26.64281], [87.31175, 26.64175], [87.39834, 26.42229], [87.41645, 26.42697], [87.44963, 26.42862], [87.48032, 26.4234], [87.55205, 26.38671], [87.58698, 26.37803], [87.62398, 26.39291], [87.65964, 26.41751], [87.68119, 26.42423], [87.7109, 26.40568], [87.72754, 26.40376], [87.74222, 26.41048], [87.75617, 26.44691], [87.76899, 26.45146], [87.80444, 26.43735], [87.8216, 26.43751], [87.85208, 26.46066], [87.86981, 26.46464], [87.87069, 26.46071], [87.8973, 26.44345], [87.91477, 26.40826], [87.92898, 26.39643], [87.96122, 26.37896], [87.97549, 26.36656], [88.14137, 26.0905], [88.14116, 26.07546], [88.15641, 26.06141], [88.1579, 26.05045], [88.15103, 26.03133], [88.12587, 26.0134], [88.10654, 25.97997], [88.08804, 25.92322], [88.0744, 25.90814], [88.08204, 25.86385], [88.08897, 25.84866], [88.08757, 25.83098], [88.10334, 25.81481], [88.11491, 25.78726], [88.12773, 25.77491], [88.14643, 25.77574], [88.18271, 25.79243], [88.22746, 25.80427], [88.25992, 25.78902], [88.32027, 25.72525], [88.39298, 25.68076], [88.41944, 25.65378], [88.42378, 25.59224], [88.18641, 25.51828], [88.2087, 25.38385], [88.21667, 25.30107], [88.43578, 25.18034], [88.43148, 25.17304], [88.43417, 25.11666], [88.4258, 25.05106], [88.41412, 25.02152], [88.39102, 24.99509], [88.38786, 24.96876], [88.37567, 24.94561], [88.34089, 24.90414], [88.32275, 24.87468], [88.31361, 24.8683], [88.24276, 24.8806], [88.24188, 24.89877], [88.23284, 24.91827], [88.21878, 24.93515], [88.20245, 24.9453], [88.18302, 24.94698], [88.16452, 24.94111], [88.11491, 24.91641], [88.13806, 24.8635], [88.14096, 24.84458], [88.11739, 24.81926], [88.10778, 24.8011], [88.09481, 24.80311], [88.08824, 24.79614], [88.08401, 24.77045], [88.07698, 24.76118], [88.05321, 24.75498], [88.04846, 24.71121], [88.03543, 24.69382], [88.02716, 24.67573], [88.02179, 24.6456], [88.05724, 24.6341], [88.06726, 24.61367], [88.08184, 24.59987], [88.08499, 24.59388], [88.08602, 24.53672], [88.09879, 24.52248], [88.10995, 24.50099], [88.13878, 24.49525], [88.31874, 24.40906], [88.20224, 24.19396], [88.17405, 24.02459], [88.0834, 23.58221], [88.05823, 23.43146], [88.03972, 23.27566], [88.02998, 23.11297], [88.03106, 22.93395], [88.04279, 22.76778], [88.11111, 22.74008], [88.14228, 22.72284], [88.199, 22.68053], [88.26297, 22.61209], [88.28361, 22.58017], [88.30776, 22.52834], [88.33763, 22.50541], [88.40024, 22.47448], [88.45129, 22.50762], [88.48332, 22.09804], [88.47471, 22.02986], [88.45205, 21.9641], [88.41622, 21.90363], [88.37662, 21.85673], [88.40919, 21.65253], [88.4129, 21.60159], [88.39309, 21.60026], [88.38356, 21.63142], [88.38284, 21.67133], [88.39259, 21.69855], [88.35565, 21.68499], [88.3462, 21.68862], [88.33123, 21.71906], [88.32472, 21.70136], [88.3274, 21.69111], [88.34571, 21.67059], [88.34876, 21.65012], [88.33545, 21.6158], [88.32179, 21.60567], [88.30975, 21.61018], [88.30445, 21.63345], [88.30201, 21.74518], [88.29819, 21.76411], [88.28981, 21.78022], [88.27312, 21.79792], [88.26157, 21.79865], [88.26417, 21.7753], [88.29542, 21.67658], [88.29705, 21.65388], [88.28338, 21.6092], [88.30062, 21.58934], [88.30582, 21.57168], [88.27898, 21.55517], [88.25441, 21.55468], [88.24929, 21.5583], [88.23748, 21.60171], [88.22438, 21.61302], [88.20827, 21.60299], [88.18937, 21.64207], [88.18093, 21.68496], [88.20346, 21.72435], [88.21046, 21.74726], [88.20144, 21.77432], [88.20973, 21.78856], [88.20379, 21.80541], [88.15408, 21.88809], [88.15943, 21.90616], [88.14675, 21.95922], [88.15636, 21.99102], [88.22242, 22.07795], [88.21275, 22.10005], [88.19801, 22.16779], [88.16529, 22.185], [88.08132, 22.21736], [88.07732, 22.24042], [88.04347, 22.22477], [88.02703, 22.22786], [88.00905, 22.24043], [87.97268, 22.28319], [87.95069, 22.35619], [87.94044, 22.41303], [87.92799, 22.42422], [87.90659, 22.42475], [87.90659, 22.41861], [87.92292, 22.39758], [87.9358, 22.35517], [87.94752, 22.27766], [87.96534, 22.24482], [87.99195, 22.21589], [88.00847, 22.2049], [88.09547, 22.19123], [88.13258, 22.17914], [88.16105, 22.15635], [88.1735, 22.11689], [88.1643, 22.0898], [88.14063, 22.06013], [88.11094, 22.03473], [88.08472, 22.02071], [88.0486, 22.02074], [88.04314, 22.01728], [88.05078, 21.98501], [88.0324, 21.95718], [87.98352, 21.85402], [87.97046, 21.8365], [87.89918, 21.79483], [87.89273, 21.77415], [87.86719, 21.75081], [87.83425, 21.72948], [87.75571, 21.69172], [87.70358, 21.65545], [87.68385, 21.65015], [87.62135, 21.65062], [87.55352, 21.63321], [87.46876, 21.6114], [87.34157, 21.56236], [87.29347, 21.55367], [87.25611, 21.562], [87.23544, 21.55456], [87.20094, 21.55199], [87.11305, 21.50796], [87.06373, 21.475], [86.91765, 21.32738], [86.86695, 21.25605], [86.83725, 21.17471], [86.844, 21.08222], [86.95204, 20.84936], [86.96566, 20.80598], [86.95386, 20.7806], [86.93629, 20.7875], [86.91652, 20.78807], [86.87875, 20.78059], [86.88933, 20.76447], [86.91066, 20.75641], [86.97999, 20.75555], [86.98657, 20.75185], [86.99999, 20.72821], [86.9987, 20.71113], [86.98862, 20.70426], [86.96119, 20.71284], [86.94825, 20.70905], [86.9402, 20.69798], [86.96115, 20.69506], [86.97429, 20.68439], [86.98649, 20.68438], [86.99488, 20.67072], [87.01938, 20.68037], [87.04317, 20.69793], [87.00345, 20.65695], [86.97624, 20.6379], [86.92319, 20.62173], [86.77418, 20.51195], [86.75148, 20.48916], [86.7339, 20.46223], [86.72462, 20.43195], [86.72047, 20.36848], [86.76979, 20.40069], [86.78875, 20.39012], [86.79616, 20.4373], [86.80981, 20.41511], [86.79419, 20.37817], [86.76831, 20.34346], [86.75148, 20.32807], [86.70167, 20.30378], [86.6937, 20.29393], [86.70167, 20.28465], [86.75456, 20.31438], [86.71723, 20.2868], [86.62818, 20.23526], [86.51148, 20.19746], [86.49513, 20.18407], [86.47884, 20.12934], [86.46852, 20.10928], [86.46712, 20.09468], [86.41504, 20.03633], [86.39145, 20.02021], [86.40414, 20.00263], [86.42624, 19.99916], [86.39723, 19.98287], [86.34841, 20.00887], [86.2754, 20.06737], [86.20916, 20.06664], [86.17304, 20.10221], [86.1631, 20.13483], [86.1587, 20.14313], [86.15252, 20.14313], [86.14503, 20.12202], [86.15431, 20.08999], [86.16774, 20.07294], [86.23024, 20.03531], [86.26857, 20.02643], [86.28907, 20.02643], [86.29591, 20.00658], [86.31495, 19.98688], [86.34156, 19.97988], [86.37238, 19.96499], [86.26856, 19.91035], [86.11158, 19.8557], [86.08904, 19.84424], [86.07838, 19.84358], [86.05665, 19.85688], [86.03207, 19.84151], [85.88912, 19.80305], [85.84636, 19.79584], [85.78883, 19.7657], [85.73439, 19.76362], [85.71485, 19.75423], [85.68458, 19.74775], [85.62429, 19.71859], [85.63795, 19.73163], [85.61427, 19.72793], [85.54916, 19.69062], [85.48021, 19.66629], [85.4568, 19.66333], [85.44989, 19.6667], [85.44679, 19.69062], [85.43044, 19.69173], [85.42702, 19.70408], [85.43686, 19.70466], [85.45086, 19.71629], [85.52198, 19.73907], [85.52555, 19.73401], [85.51499, 19.71113], [85.57651, 19.74584], [85.56326, 19.75691], [85.57032, 19.77318], [85.56716, 19.79187], [85.57032, 19.87564], [85.47682, 19.90103], [85.46355, 19.9029], [85.44012, 19.89623], [85.41627, 19.87979], [85.37432, 19.83763], [85.31959, 19.79366], [85.29029, 19.78994], [85.26808, 19.78002], [85.22096, 19.73603], [85.20338, 19.70726], [85.20654, 19.68379], [85.18995, 19.67097], [85.17513, 19.63691], [85.15016, 19.61347], [85.14015, 19.59658], [85.13933, 19.57978], [85.15137, 19.56777], [85.15137, 19.5603], [85.1229, 19.54902], [85.10288, 19.52961], [85.10874, 19.50678], [85.11549, 19.50747], [85.12403, 19.51934], [85.12874, 19.5095], [85.12867, 19.48798], [85.12403, 19.47834], [85.13575, 19.48159], [85.15138, 19.49884], [85.18556, 19.50568], [85.20289, 19.51716], [85.19631, 19.53848], [85.19924, 19.55409], [85.21453, 19.54727], [85.23325, 19.5541], [85.19305, 19.57393], [85.19305, 19.58079], [85.2129, 19.58112], [85.2326, 19.60154], [85.24757, 19.60871], [85.24757, 19.61494], [85.23732, 19.62056], [85.23326, 19.63255], [85.24758, 19.65647], [85.30909, 19.64224], [85.3506, 19.67763], [85.38307, 19.67609], [85.39145, 19.6906], [85.40316, 19.67129], [85.40527, 19.64595], [85.38461, 19.63597], [85.37794, 19.61494], [85.35231, 19.59943], [85.33678, 19.5961], [85.32643, 19.6188], [85.31837, 19.61953], [85.31105, 19.6105], [85.30908, 19.59505], [85.28842, 19.60126], [85.3025, 19.58666], [85.30584, 19.58015], [85.30291, 19.57392], [85.33058, 19.5764], [85.57644, 19.69059], [85.46349, 19.6311], [85.33668, 19.57518], [85.28541, 19.53629], [85.24057, 19.51805], [85.18043, 19.475], [85.0695, 19.37214], [84.99586, 19.32331], [84.87208, 19.21987], [84.79102, 19.1206], [84.77516, 19.1153], [84.73878, 19.14765], [84.72096, 19.11424], [84.71998, 19.10163], [84.74049, 19.07368], [84.761, 19.10162], [84.78003, 19.09707], [84.75115, 19.0539], [84.74091, 19.02796], [84.66522, 18.9303], [84.63087, 18.91572], [84.54786, 18.79609], [84.54183, 18.77579], [84.44825, 18.68065], [84.43262, 18.6457], [84.42385, 18.63664], [84.37045, 18.6013], [84.34945, 18.56982], [84.33286, 18.5537], [84.30633, 18.54369], [84.28175, 18.52558], [84.24692, 18.52558], [84.23764, 18.51093], [84.24936, 18.50165], [84.27101, 18.50019], [84.34987, 18.55287], [84.28793, 18.50576], [84.24008, 18.46076], [84.23047, 18.44624], [84.18832, 18.41804], [84.17448, 18.39985], [84.14389, 18.37482], [84.13281, 18.34342], [84.12403, 18.33381], [84.11294, 18.29814], [84.07715, 18.27144], [83.77516, 18.13959], [83.61394, 18.04515], [83.58229, 18.01911], [83.55664, 17.97346], [83.52612, 17.94254], [83.48658, 17.9169], [83.47291, 17.9025], [83.46558, 17.90251], [83.45191, 17.92292], [83.44898, 17.90689], [83.45296, 17.86848], [83.43116, 17.85423], [83.41773, 17.80622], [83.40251, 17.78472], [83.34145, 17.71758], [83.2986, 17.69013], [83.28468, 17.69636], [83.27638, 17.71308], [83.26824, 17.71748], [83.24692, 17.71625], [83.24204, 17.70653], [83.24928, 17.69538], [83.29249, 17.67748], [83.29859, 17.67279], [83.29907, 17.6643], [83.24692, 17.63423], [83.2129, 17.63491], [83.23388, 17.60773], [83.23893, 17.59297], [83.20924, 17.58369], [83.17139, 17.55981], [83.08823, 17.53071], [83.05323, 17.5065], [83.01987, 17.49091], [82.97584, 17.45369], [82.94549, 17.4431], [82.89682, 17.40934], [82.88869, 17.41015], [82.88331, 17.42207], [82.83765, 17.39278], [82.7964, 17.38304], [82.75814, 17.35921], [82.71852, 17.34862], [82.47486, 17.20596], [82.45191, 17.18244], [82.42286, 17.13997], [82.38771, 17.12694], [82.37037, 17.11009], [82.34204, 17.0732], [82.29933, 17.03034], [82.29167, 16.99844], [82.2527, 16.92919], [82.25074, 16.90786], [82.25514, 16.88532], [82.26791, 16.8675], [82.29834, 16.85846], [82.31422, 16.84662], [82.33465, 16.85406], [82.35206, 16.8454], [82.36248, 16.85908], [82.35743, 16.92487], [82.34891, 16.95643], [82.36116, 16.93602], [82.36651, 16.90882], [82.36556, 16.81159], [82.35206, 16.7613], [82.34595, 16.70612], [82.3382, 16.67859], [82.31422, 16.62816], [82.31283, 16.60815], [82.30395, 16.60644], [82.29933, 16.61009], [82.29379, 16.62564], [82.28688, 16.62816], [82.28094, 16.62084], [82.28549, 16.60651], [82.30736, 16.57978], [82.25904, 16.5655], [82.20346, 16.51269], [82.1229, 16.47736], [82.06881, 16.44438], [82.03736, 16.44766], [81.99268, 16.40844], [81.95623, 16.40717], [81.94808, 16.39156], [81.94076, 16.38838], [81.89991, 16.38581], [81.86166, 16.37539], [81.78321, 16.33857], [81.76275, 16.32253], [81.7116, 16.31221], [81.69606, 16.31494], [81.65626, 16.33735], [81.6364, 16.33272], [81.62094, 16.3395], [81.58477, 16.34216], [81.56814, 16.34639], [81.5739, 16.35834], [81.56918, 16.36758], [81.55698, 16.37303], [81.54021, 16.37368], [81.54907, 16.35237], [81.53598, 16.35005], [81.49586, 16.36066], [81.47535, 16.35863], [81.41669, 16.34017], [81.42823, 16.36567], [81.41139, 16.38251], [81.39894, 16.38264], [81.37574, 16.36751], [81.35963, 16.37433], [81.31739, 16.3675], [81.25961, 16.33271], [81.24855, 16.32014], [81.2596, 16.28864], [81.25423, 16.27152], [81.23032, 16.2436], [81.21851, 16.19945], [81.19028, 16.13886], [81.18002, 16.08674], [81.16196, 16.05707], [81.15602, 16.03852], [81.15543, 15.9855], [81.14974, 15.96964], [81.1351, 15.9665], [81.08822, 15.92122], [81.02687, 15.88085], [80.99887, 15.84675], [80.99838, 15.8347], [81.0192, 15.79238], [81.01904, 15.78417], [81.01254, 15.77783], [80.99586, 15.78433], [80.94947, 15.82787], [80.92164, 15.83861], [80.91001, 15.85268], [80.90268, 15.89082], [80.90895, 15.98347], [80.8965, 16.03107], [80.89226, 16.02094], [80.8965, 16.01057], [80.889, 16.00374], [80.87534, 16.0174], [80.89129, 15.97826], [80.89576, 15.93602], [80.89015, 15.89525], [80.85572, 15.8227], [80.83013, 15.74737], [80.82007, 15.72688], [80.80715, 15.7164], [80.80836, 15.80394], [80.80274, 15.84243], [80.77613, 15.88426], [80.7601, 15.89297], [80.69044, 15.90071], [80.67018, 15.9077], [80.6631, 15.9007], [80.66283, 15.88936], [80.61842, 15.88768], [80.57114, 15.86873], [80.56072, 15.88085], [80.55388, 15.88084], [80.52615, 15.8571], [80.49187, 15.83927], [80.46909, 15.83466], [80.43628, 15.80831], [80.39332, 15.79702], [80.35963, 15.77582], [80.27963, 15.70067], [80.26319, 15.67455], [80.21949, 15.56745], [80.21745, 15.54817], [80.20134, 15.5183], [80.1976, 15.50308], [80.21118, 15.49665], [80.18374, 15.45216], [80.1268, 15.38813], [80.09059, 15.30488], [80.0824, 15.20441], [80.05299, 15.0926], [80.05454, 15.01415], [80.06153, 14.97468], [80.07341, 14.94204], [80.07301, 14.92056], [80.10509, 14.76417], [80.10816, 14.71434], [80.11695, 14.69815], [80.15983, 14.66266], [80.16635, 14.62816], [80.17846, 14.60578], [80.17594, 14.59297], [80.16968, 14.58585], [80.14186, 14.57123], [80.14918, 14.56501], [80.19019, 14.57122], [80.19694, 14.56501], [80.1902, 14.54759], [80.17596, 14.46874], [80.17871, 14.38965], [80.17497, 14.34455], [80.15943, 14.32477], [80.12818, 14.25655], [80.08717, 14.25031], [80.07007, 14.2292], [80.05502, 14.22158], [80.04664, 14.20661], [80.05063, 14.19611], [80.0735, 14.20185], [80.10663, 14.23403], [80.1211, 14.24201], [80.13558, 14.22919], [80.12338, 14.19351], [80.12582, 14.1485], [80.14612, 14.04564], [80.07981, 14.05463], [80.04473, 14.06455], [79.97796, 14.09452], [79.94734, 14.11409], [79.86835, 14.18022], [79.79908, 14.2203], [79.74592, 14.26783], [79.70948, 14.31042], [79.70186, 14.30864], [79.65996, 14.27164], [79.61626, 14.24586], [79.56738, 14.22756], [79.51605, 14.21712], [79.4632, 14.21381], [79.40962, 14.21713], [79.35639, 14.22668], [79.3043, 14.24218], [79.25481, 14.26244], [79.16172, 14.31326], [79.07222, 14.37565], [78.81646, 14.5784], [78.72419, 14.63775], [78.67276, 14.66446], [78.5689, 14.70327], [78.44437, 14.72434], [78.3056, 14.72318], [78.17213, 14.70396], [78.03853, 14.67309], [77.76133, 14.59553], [77.62211, 14.561], [77.48148, 14.53658], [77.36168, 14.52182], [77.28082, 14.50062], [77.24955, 14.48635], [77.20902, 14.45998], [77.00453, 14.27074], [76.89072, 14.19155], [76.76828, 14.12572], [76.63694, 14.07304], [76.50502, 14.0365], [76.36587, 14.01472], [76.22985, 14.01022], [76.09779, 14.02294], [75.95835, 14.05467], [75.57529, 14.16967], [75.41497, 14.2072], [75.25665, 14.23711], [75.09712, 14.26061], [74.88559, 14.28165], [74.87673, 14.2741], [74.87518, 14.21002], [74.86175, 14.14393], [74.89632, 14.09528], [74.91506, 14.06192], [74.91538, 14.05449], [74.89011, 14.02913], [74.83301, 13.98652], [74.76775, 13.95525], [74.73332, 13.94455], [74.66255, 13.93333], [74.56107, 13.93263], [74.50474, 14.01025], [74.49546, 14.0304], [74.49537, 14.07152], [74.47487, 14.1057], [74.47316, 14.16169], [74.46746, 14.18138], [74.43874, 14.22013], [74.42906, 14.24043], [74.43337, 14.26337], [74.44703, 14.25397], [74.47104, 14.24868], [74.50896, 14.25031], [74.50001, 14.25796], [74.42795, 14.28374], [74.41538, 14.3011], [74.41261, 14.34479], [74.39699, 14.37275], [74.39422, 14.41079], [74.38161, 14.43123], [74.37428, 14.46727], [74.35386, 14.50508], [74.3519, 14.53022], [74.36702, 14.51235], [74.38884, 14.46271], [74.40724, 14.46198], [74.39764, 14.4754], [74.40114, 14.47971], [74.42774, 14.47626], [74.38543, 14.52412], [74.37242, 14.53021], [74.37924, 14.54458], [74.36834, 14.54971], [74.35873, 14.54459], [74.35548, 14.55707], [74.35874, 14.57123], [74.34295, 14.56367], [74.33905, 14.52401], [74.32488, 14.51725], [74.30983, 14.51945], [74.30056, 14.52741], [74.30356, 14.53766], [74.29592, 14.56501], [74.29519, 14.5873], [74.30738, 14.60187], [74.33904, 14.60594], [74.33904, 14.61278], [74.3239, 14.6186], [74.28712, 14.60596], [74.27574, 14.61037], [74.26809, 14.61994], [74.26687, 14.63129], [74.27621, 14.64008], [74.26923, 14.65893], [74.26319, 14.70161], [74.25294, 14.71894], [74.23406, 14.73408], [74.22047, 14.73811], [74.20875, 14.73184], [74.19435, 14.71582], [74.17384, 14.74994], [74.15334, 14.74995], [74.14584, 14.76362], [74.11134, 14.78035], [74.09646, 14.79337], [74.09133, 14.81141], [74.10914, 14.80264], [74.11402, 14.80842], [74.11869, 14.83187], [74.14047, 14.83877], [74.15154, 14.8351], [74.15952, 14.82567], [74.17897, 14.85626], [74.20777, 14.86659], [74.23308, 14.86457], [74.2352, 14.87653], [74.2112, 14.88736], [74.20802, 14.90082], [74.19751, 14.89087], [74.16619, 14.87653], [74.14088, 14.85269], [74.12501, 14.84585], [74.11183, 14.84619], [74.10305, 14.85693], [74.09116, 14.8876], [74.03599, 14.9213], [74.0303, 14.93521], [74.03598, 14.97964], [74.03126, 14.99531], [73.99579, 15.0107], [73.97299, 15.05687], [73.96437, 15.06464], [73.91311, 15.07893], [73.92898, 15.12058], [73.93703, 15.13043], [73.95826, 15.14313], [73.96217, 15.15205], [73.95411, 15.16828], [73.94728, 15.16085], [73.89129, 15.34321], [73.88258, 15.35529], [73.82741, 15.36519], [73.8104, 15.3776], [73.78291, 15.40789], [73.83937, 15.40404], [73.86012, 15.40785], [73.88494, 15.39802], [73.89959, 15.40789], [73.93336, 15.39541], [73.94532, 15.38569], [73.95411, 15.36628], [73.96778, 15.37376], [73.93702, 15.41132], [73.92758, 15.41739], [73.88592, 15.43521], [73.85858, 15.43522], [73.84156, 15.44888], [73.80616, 15.45222], [73.79641, 15.44889], [73.79519, 15.46076], [73.80048, 15.475], [73.81756, 15.49665], [73.87224, 15.51093], [73.85955, 15.52117], [73.86598, 15.53758], [73.78639, 15.49219], [73.7665, 15.49721], [73.75124, 15.51313], [73.75611, 15.53758], [73.7368, 15.57198], [73.73708, 15.59853], [73.76043, 15.63203], [73.83814, 15.65428], [73.83814, 15.66112], [73.78387, 15.65913], [73.72828, 15.61959], [73.71828, 15.62715], [73.69803, 15.66261], [73.6859, 15.70429], [73.68679, 15.71313], [73.70086, 15.72321], [73.65623, 15.73024], [73.64626, 15.73689], [73.64625, 15.79214], [73.63884, 15.81721], [73.60467, 15.88084], [73.58758, 15.9029], [73.51023, 15.96747], [73.49099, 15.99348], [73.48733, 16.01423], [73.51596, 16.0174], [73.51596, 16.02485], [73.4839, 16.02823], [73.47251, 16.03637], [73.46485, 16.05166], [73.4503, 16.05911], [73.44704, 16.06891], [73.4607, 16.08633], [73.46339, 16.15957], [73.48797, 16.18936], [73.46502, 16.18228], [73.45281, 16.16657], [73.44703, 16.11364], [73.44024, 16.16171], [73.4402, 16.20234], [73.43523, 16.21784], [73.41993, 16.21664], [73.41346, 16.22419], [73.37868, 16.33271], [73.37867, 16.35692], [73.35826, 16.36751], [73.36444, 16.3893], [73.38494, 16.4016], [73.35207, 16.41812], [73.34133, 16.43208], [73.334, 16.46817], [73.31918, 16.50975], [73.30585, 16.52266], [73.30305, 16.53281], [73.30731, 16.56316], [73.344, 16.52359], [73.37867, 16.5183], [73.36231, 16.52546], [73.35085, 16.53814], [73.37127, 16.55927], [73.35402, 16.55964], [73.33623, 16.56578], [73.32278, 16.57617], [73.31464, 16.59943], [73.35825, 16.62067], [73.35841, 16.60395], [73.36305, 16.59683], [73.36866, 16.59903], [73.37127, 16.61018], [73.36647, 16.62808], [73.35426, 16.63467], [73.33888, 16.63166], [73.32351, 16.62068], [73.31213, 16.64494], [73.31244, 16.65814], [73.3235, 16.6791], [73.32162, 16.69245], [73.30031, 16.71321], [73.28957, 16.74022], [73.30445, 16.79352], [73.30372, 16.81314], [73.29689, 16.80566], [73.28664, 16.82087], [73.27468, 16.84883], [73.26939, 16.87563], [73.27955, 16.88764], [73.26939, 16.92919], [73.27053, 16.94501], [73.2894, 16.98383], [73.26239, 16.99698], [73.2547, 17.00657], [73.26271, 17.01854], [73.25124, 17.03218], [73.25149, 17.04242], [73.25896, 17.04408], [73.26938, 17.03164], [73.27735, 17.05467], [73.27573, 17.0786], [73.25515, 17.121], [73.26197, 17.13496], [73.26059, 17.15054], [73.23619, 17.19921], [73.23601, 17.22061], [73.21804, 17.25324], [73.21485, 17.26874], [73.18704, 17.30596], [73.23121, 17.27928], [73.24903, 17.28486], [73.23472, 17.30232], [73.19597, 17.36937], [73.17059, 17.38972], [73.16531, 17.41303], [73.1854, 17.44188], [73.17336, 17.45743], [73.18067, 17.47769], [73.16554, 17.5034], [73.1317, 17.53938], [73.126, 17.55655], [73.12795, 17.56468], [73.16342, 17.56949], [73.20069, 17.58649], [73.13918, 17.60078], [73.12819, 17.61156], [73.12143, 17.62623], [73.1203, 17.64203], [73.12615, 17.65542], [73.10549, 17.68891], [73.12322, 17.72333], [73.1233, 17.73578], [73.10989, 17.75829], [73.10133, 17.79633], [73.07945, 17.82462], [73.0652, 17.87836], [73.01858, 17.95173], [73.01711, 17.97211], [73.03541, 17.99185], [73.0187, 17.99264], [73.00865, 18.00024], [73.00523, 18.01236], [73.00896, 18.02609], [73.04225, 18.04898], [73.04347, 18.06696], [73.02272, 18.05769], [73.00881, 18.03902], [72.98733, 18.06656], [72.98098, 18.08055], [72.98813, 18.09602], [72.9761, 18.11864], [72.9673, 18.19599], [72.95485, 18.21752], [72.92695, 18.22395], [72.93995, 18.25129], [72.93329, 18.26659], [72.93996, 18.28602], [72.95313, 18.28131], [72.97267, 18.2447], [73.01246, 18.24314], [73.05095, 18.22747], [73.06349, 18.21035], [73.04762, 18.20116], [73.04762, 18.18879], [73.05746, 18.18561], [73.07154, 18.20409], [73.07398, 18.22419], [73.06529, 18.25755], [73.07154, 18.27302], [73.05698, 18.28095], [73.01225, 18.27925], [72.99489, 18.2836], [72.97739, 18.29508], [72.96804, 18.31061], [72.97478, 18.32758], [72.95876, 18.32812], [72.9336, 18.35493], [72.91733, 18.3564], [72.91262, 18.36116], [72.91017, 18.39924], [72.89142, 18.4296], [72.89143, 18.48058], [72.89577, 18.50299], [72.90724, 18.52358], [72.92466, 18.53562], [72.94694, 18.53226], [72.96111, 18.51773], [72.99024, 18.46996], [73.0088, 18.45051], [73.01498, 18.46996], [72.98878, 18.48994], [72.97788, 18.52411], [72.9603, 18.55467], [72.95021, 18.56037], [72.92115, 18.55489], [72.91018, 18.55899], [72.88217, 18.63548], [72.86452, 18.64892], [72.85533, 18.68114], [72.85176, 18.71945], [72.8524, 18.76992], [72.86546, 18.79921], [72.87916, 18.80735], [72.90203, 18.79951], [72.91261, 18.79999], [72.92693, 18.82663], [72.97477, 18.77948], [72.96632, 18.76142], [72.96957, 18.74698], [72.98064, 18.73676], [72.99513, 18.73102], [72.98806, 18.75385], [72.99171, 18.77936], [73.00246, 18.80145], [73.01629, 18.81362], [72.98797, 18.82495], [72.9813, 18.83272], [72.97479, 18.84833], [72.9817, 18.87149], [72.97218, 18.87425], [72.94614, 18.85831], [72.91628, 18.87052], [72.89683, 18.89448], [72.91261, 18.92347], [72.92807, 18.91136], [72.93458, 18.9208], [72.93679, 18.94741], [72.94923, 18.95148], [72.97722, 18.94843], [72.98829, 18.96442], [72.95364, 18.96442], [72.95363, 18.97125], [73.04664, 18.99518], [73.05681, 19.01533], [73.03981, 19.01752], [72.9883, 18.99861], [72.98358, 19.01044], [72.9878, 19.03693], [72.98098, 19.04637], [72.99187, 19.06721], [72.97381, 19.07857], [72.96731, 19.09101], [72.97478, 19.16307], [72.9673, 19.16307], [72.95003, 19.12792], [72.93556, 19.11506], [72.93392, 19.08031], [72.92693, 19.06684], [72.94336, 19.05512], [72.93425, 19.03409], [72.89146, 18.99179], [72.88526, 19.02587], [72.86931, 19.01142], [72.83627, 18.95913], [72.82129, 18.90331], [72.81251, 18.89746], [72.80276, 18.90982], [72.80738, 18.94282], [72.80274, 18.95759], [72.79591, 18.95759], [72.77541, 18.93653], [72.77037, 18.94819], [72.80242, 18.99966], [72.80276, 19.04017], [72.81707, 19.0327], [72.82423, 19.05353], [72.8213, 19.06318], [72.80959, 19.06685], [72.82309, 19.10847], [72.80959, 19.14633], [72.82309, 19.16926], [72.81804, 19.17536], [72.81121, 19.17552], [72.79216, 19.15047], [72.78493, 19.15039], [72.7816, 19.15965], [72.8025, 19.21162], [72.83009, 19.25243], [72.81512, 19.25365], [72.7894, 19.21735], [72.77541, 19.20468], [72.77226, 19.26545], [72.77565, 19.29902], [72.78542, 19.3139], [72.83937, 19.31907], [72.86704, 19.3168], [72.88551, 19.29605], [72.93035, 19.28657], [72.95973, 19.29483], [72.97267, 19.29369], [72.98829, 19.27912], [73.01051, 19.22431], [73.02662, 19.20551], [73.04965, 19.21772], [73.03004, 19.22773], [73.02914, 19.25934], [72.9878, 19.30069], [72.97096, 19.30703], [72.91676, 19.30337], [72.89894, 19.30703], [72.85532, 19.3395], [72.83692, 19.34805], [72.81853, 19.33027], [72.80212, 19.33193], [72.78762, 19.34521], [72.76357, 19.38], [72.7482, 19.44456], [72.74685, 19.46796], [72.75442, 19.48175], [72.87916, 19.53237], [72.8567, 19.54133], [72.81593, 19.52852], [72.79591, 19.52681], [72.78127, 19.53657], [72.77068, 19.56615], [72.74195, 19.5808], [72.73455, 19.5808], [72.74072, 19.56074], [72.73455, 19.54662], [72.75476, 19.52721], [72.75561, 19.51936], [72.74919, 19.51261], [72.74155, 19.51603], [72.72252, 19.53629], [72.7108, 19.58759], [72.71803, 19.60668], [72.70965, 19.64997], [72.68671, 19.72478], [72.69995, 19.71417], [72.70777, 19.69746], [72.72641, 19.7058], [72.71405, 19.74583], [72.7173, 19.75152], [72.73129, 19.75458], [72.73276, 19.77973], [72.72828, 19.79365], [72.69011, 19.74898], [72.67792, 19.74658], [72.67986, 19.80048], [72.65009, 19.84199], [72.6492, 19.85178], [72.66424, 19.88158], [72.66522, 19.95294], [72.68434, 19.96402], [72.70338, 19.99763], [72.70777, 20.01276], [72.71026, 20.08275], [72.72828, 20.12946], [72.73765, 20.18427], [72.75229, 20.20376], [72.75563, 20.21516], [72.7444, 20.2194], [72.74197, 20.22505], [72.74823, 20.28034], [72.77752, 20.33006], [72.7816, 20.35227], [72.79819, 20.35932], [72.81707, 20.37592], [72.82945, 20.43793], [72.87916, 20.51244], [72.88648, 20.53156], [72.89145, 20.57514], [72.88528, 20.61921], [72.88845, 20.62848], [72.9026, 20.64191], [72.90943, 20.69868], [72.90797, 20.71833], [72.89895, 20.73216], [72.94028, 20.75943], [72.94679, 20.75947], [72.945, 20.77001], [72.91945, 20.78743], [72.92498, 20.81061], [72.91944, 20.82152], [72.90024, 20.79915], [72.88576, 20.80712], [72.88015, 20.8299], [72.88844, 20.85196], [72.9004, 20.86811], [72.89381, 20.87006], [72.8812, 20.86567], [72.83695, 20.83587], [72.84588, 20.85179], [72.85427, 20.88715], [72.86492, 20.89728], [72.8367, 20.92992], [72.85646, 20.94797], [72.88648, 20.9621], [72.88844, 20.98261], [72.8327, 20.97237], [72.81609, 20.99901], [72.78742, 21.00701], [72.77199, 21.02388], [72.76687, 21.03855], [72.78395, 21.04042], [72.82309, 21.03384], [72.84498, 21.03832], [72.84986, 21.048], [72.80958, 21.13003], [72.75563, 21.10958], [72.74195, 21.12324], [72.73561, 21.11074], [72.73454, 21.09248], [72.70038, 21.07479], [72.70583, 21.10635], [72.72869, 21.1481], [72.71404, 21.16413], [72.70655, 21.15771], [72.6867, 21.15815], [72.67644, 21.15363], [72.6727, 21.14574], [72.67123, 21.09981], [72.6587, 21.0976], [72.63787, 21.08541], [72.62966, 21.08797], [72.61501, 21.10587], [72.6155, 21.11981], [72.63039, 21.13596], [72.71177, 21.19402], [72.72104, 21.1988], [72.73455, 21.19892], [72.72364, 21.20913], [72.68768, 21.22046], [72.67319, 21.23908], [72.64699, 21.25361], [72.64576, 21.27338], [72.61827, 21.25308], [72.60214, 21.27744], [72.59791, 21.30756], [72.58678, 21.34121], [72.59054, 21.34855], [72.63852, 21.35716], [72.64576, 21.36278], [72.63868, 21.37124], [72.59409, 21.36278], [72.57912, 21.36694], [72.56765, 21.37642], [72.56464, 21.3858], [72.6351, 21.40746], [72.72828, 21.46581], [72.74708, 21.45287], [72.75262, 21.46357], [72.74855, 21.47964], [72.73829, 21.48286], [72.66505, 21.45722], [72.61247, 21.42187], [72.58369, 21.41744], [72.61965, 21.48736], [72.65105, 21.50702], [72.69033, 21.5408], [72.70395, 21.5484], [72.72682, 21.55317], [72.7732, 21.58051], [72.78907, 21.59553], [72.8104, 21.63507], [72.8229, 21.64382], [72.87159, 21.63654], [72.88966, 21.64053], [72.93556, 21.65835], [72.96534, 21.67878], [73.02247, 21.69855], [73.08497, 21.72968], [73.11695, 21.73725], [73.13201, 21.7578], [73.12615, 21.76683], [73.11883, 21.76472], [73.084, 21.7464], [73.04664, 21.73334], [73.02247, 21.71601], [72.99147, 21.70844], [72.95021, 21.68915], [72.92716, 21.685], [72.85816, 21.69497], [72.81918, 21.67505], [72.79811, 21.67354], [72.73325, 21.68749], [72.67644, 21.67814], [72.61606, 21.68545], [72.55008, 21.66678], [72.53469, 21.67293], [72.52851, 21.69514], [72.55633, 21.77432], [72.56691, 21.84934], [72.58546, 21.85887], [72.61859, 21.92525], [72.63405, 21.93748], [72.65189, 21.94102], [72.69012, 21.93879], [72.70232, 21.94758], [72.71404, 21.98298], [72.73455, 21.98656], [72.73455, 21.99404], [72.70777, 21.99405], [72.70094, 21.98892], [72.69354, 21.97233], [72.62306, 21.96662], [72.6027, 21.9436], [72.58205, 21.92835], [72.54274, 21.91085], [72.53324, 21.92053], [72.50173, 21.97602], [72.52223, 22.05427], [72.51955, 22.08844], [72.53004, 22.10749], [72.536, 22.14078], [72.54229, 22.15689], [72.57562, 22.19464], [72.59051, 22.20502], [72.61389, 22.21168], [72.63445, 22.21039], [72.6819, 22.18159], [72.70802, 22.1857], [72.72925, 22.17743], [72.74822, 22.16405], [72.79022, 22.21723], [72.81227, 22.23411], [72.84742, 22.24041], [72.89723, 22.21304], [72.91603, 22.22309], [72.92213, 22.23652], [72.9227, 22.25458], [72.91749, 22.27143], [72.90577, 22.2814], [72.89947, 22.26909], [72.88608, 22.26241], [72.86974, 22.2624], [72.83863, 22.27656], [72.81821, 22.27342], [72.7566, 22.24373], [72.72658, 22.24894], [72.65943, 22.27391], [72.62501, 22.2714], [72.60662, 22.28384], [72.57374, 22.28824], [72.55307, 22.28246], [72.50171, 22.24043], [72.46616, 22.23258], [72.45705, 22.23673], [72.45486, 22.2453], [72.46697, 22.25585], [72.46388, 22.26398], [72.44874, 22.26683], [72.41375, 22.24633], [72.39186, 22.25349], [72.38108, 22.28975], [72.38039, 22.3124], [72.40496, 22.33295], [72.40805, 22.35346], [72.39723, 22.36677], [72.37135, 22.3559], [72.36101, 22.34345], [72.3405, 22.30321], [72.32829, 22.26074], [72.30909, 22.25724], [72.27516, 22.26033], [72.2632, 22.27637], [72.26466, 22.29523], [72.24041, 22.30191], [72.20851, 22.30044], [72.20094, 22.29145], [72.20631, 22.27391], [72.16179, 22.28095], [72.14877, 22.2779], [72.16603, 22.26032], [72.19068, 22.25129], [72.20924, 22.25943], [72.24041, 22.28824], [72.2461, 22.27558], [72.23414, 22.24356], [72.23911, 22.23892], [72.26832, 22.22675], [72.30648, 22.22955], [72.31722, 22.18488], [72.30762, 22.07901], [72.29566, 22.05118], [72.29176, 22.05341], [72.27515, 22.02754], [72.25765, 22.01216], [72.23732, 22.00703], [72.22096, 22.01097], [72.21648, 22.0078], [72.21436, 21.99405], [72.20631, 21.99405], [72.19988, 22.00699], [72.18636, 21.98656], [72.1731, 21.97566], [72.16343, 21.97322], [72.1517, 21.99388], [72.13429, 22.00458], [72.11378, 22.01056], [72.09702, 22.00702], [72.12809, 21.98354], [72.12484, 21.97233], [72.11492, 21.9694], [72.07651, 21.97972], [72.10449, 21.95922], [72.10205, 21.94506], [72.0962, 21.94303], [72.07325, 21.9545], [72.05519, 21.95352], [72.03842, 21.94758], [72.02866, 21.93879], [72.1045, 21.91767], [72.15647, 21.92584], [72.14536, 21.91767], [72.14536, 21.91083], [72.15918, 21.9046], [72.15235, 21.89785], [72.16976, 21.89044], [72.16, 21.86591], [72.16943, 21.84138], [72.16188, 21.83919], [72.13088, 21.84627], [72.09848, 21.88052], [72.07765, 21.89444], [72.05795, 21.89875], [72.04933, 21.88044], [72.08643, 21.86562], [72.10449, 21.83577], [72.08676, 21.83028], [72.0631, 21.83433], [72.00416, 21.85773], [71.99732, 21.85493], [71.99464, 21.8395], [71.9961, 21.79951], [72.00148, 21.78791], [72.02181, 21.80095], [72.02182, 21.77432], [72.0739, 21.78871], [72.1032, 21.77521], [72.11744, 21.7766], [72.16624, 21.79381], [72.17106, 21.79095], [72.17701, 21.76667], [72.1958, 21.75779], [72.20239, 21.74811], [72.21437, 21.71284], [72.22381, 21.70059], [72.24041, 21.69172], [72.27173, 21.69089], [72.27833, 21.67194], [72.29565, 21.65387], [72.29883, 21.62629], [72.29565, 21.61604], [72.27516, 21.59553], [72.24219, 21.48078], [72.21989, 21.44474], [72.16684, 21.39208], [72.15161, 21.36018], [72.1045, 21.31501], [72.11149, 21.29609], [72.10775, 21.28999], [72.09702, 21.28766], [72.10254, 21.2744], [72.09937, 21.26496], [72.09397, 21.25866], [72.0554, 21.26157], [72.04711, 21.25656], [72.05794, 21.17075], [71.99073, 21.13639], [71.92628, 21.13003], [71.80616, 21.06208], [71.76294, 21.03231], [71.74366, 21.02759], [71.71762, 21.03205], [71.68335, 21.01147], [71.63998, 20.99681], [71.5835, 20.95825], [71.54959, 20.95125], [71.56935, 20.97919], [71.55112, 20.97358], [71.49342, 20.92915], [71.48439, 20.91714], [71.48071, 20.90038], [71.46224, 20.88533], [71.37842, 20.85954], [71.31861, 20.84931], [71.14063, 20.7657], [71.11695, 20.76691], [71.11011, 20.75948], [71.09547, 20.76374], [71.06234, 20.73897], [71.02418, 20.74453], [71.00766, 20.7416], [71.00082, 20.72216], [70.98243, 20.71016], [70.8399, 20.7019], [70.80161, 20.70906], [70.77459, 20.72736], [70.74025, 20.7185], [70.69858, 20.74641], [70.54152, 20.80786], [70.48414, 20.84394], [70.45143, 20.85591], [70.39877, 20.90351], [70.33669, 20.92708], [70.29998, 20.95856], [70.26353, 20.98042], [70.15219, 21.07852], [70.05446, 21.15317], [69.95826, 21.27334], [69.91146, 21.3152], [69.84518, 21.38938], [69.81472, 21.43367], [69.8086, 21.46581], [69.78852, 21.46943], [69.75656, 21.49026], [69.62973, 21.61603], [69.56806, 21.65028], [69.51979, 21.70478], [69.49937, 21.72021], [69.47853, 21.75263], [69.44631, 21.76631], [69.42728, 21.7814], [69.39765, 21.81545], [69.39179, 21.83218], [69.39519, 21.86131], [69.39088, 21.8767], [69.36761, 21.85605], [69.35548, 21.85319], [69.3362, 21.86246], [69.24391, 21.94595], [69.19858, 21.97958], [69.15065, 22.0412], [69.10305, 22.07637], [69.09205, 22.0996], [69.04819, 22.1579], [68.99416, 22.20393], [68.98048, 22.23554], [68.9446, 22.29507], [68.94403, 22.31826], [68.96062, 22.34951], [68.96771, 22.38743], [68.9831, 22.41914], [69.0075, 22.44317], [69.07358, 22.48187], [69.08138, 22.48053], [69.0852, 22.47288], [69.08227, 22.45955], [69.07447, 22.44946], [69.056, 22.44184], [69.04819, 22.43159], [69.07179, 22.39948], [69.09742, 22.39887], [69.12273, 22.41106], [69.14698, 22.40485], [69.17856, 22.42763], [69.18824, 22.42641], [69.20215, 22.41486], [69.20573, 22.39867], [69.18214, 22.36644], [69.1853, 22.34968], [69.16969, 22.32795], [69.17384, 22.3083], [69.19044, 22.2923], [69.21208, 22.28139], [69.21209, 22.27391], [69.28647, 22.28461], [69.3357, 22.30614], [69.34645, 22.32489], [69.35988, 22.32916], [69.4354, 22.33039], [69.47967, 22.34223], [69.5027, 22.37225], [69.51987, 22.37763], [69.52564, 22.39208], [69.51373, 22.43135], [69.51597, 22.44814], [69.53077, 22.44611], [69.54785, 22.45208], [69.56167, 22.39182], [69.5547, 22.37763], [69.61606, 22.3559], [69.61989, 22.37104], [69.62973, 22.38376], [69.64039, 22.37596], [69.66945, 22.40924], [69.69939, 22.40428], [69.73341, 22.48003], [69.79493, 22.41861], [69.80698, 22.42097], [69.82229, 22.45209], [69.83327, 22.46381], [69.86378, 22.46577], [69.88478, 22.47358], [69.97299, 22.54144], [69.99627, 22.54145], [70.02085, 22.55511], [70.05882, 22.55839], [70.1447, 22.5478], [70.17848, 22.56196], [70.2073, 22.61497], [70.23487, 22.64887], [70.2674, 22.70615], [70.3191, 22.77827], [70.32325, 22.78766], [70.32253, 22.82266], [70.34295, 22.84317], [70.37527, 22.90265], [70.40463, 22.9195], [70.43687, 22.95489], [70.45338, 22.96661], [70.48634, 22.96369], [70.50473, 22.97956], [70.52719, 23.02359], [70.52849, 23.04706], [70.52369, 23.07038], [70.50294, 23.1044], [70.48422, 23.12214], [70.46713, 23.12971], [70.45112, 23.10583], [70.41066, 23.086], [70.39877, 23.06904], [70.40105, 23.0454], [70.41097, 23.02318], [70.40187, 22.99925], [70.40161, 22.95385], [70.39242, 22.94087], [70.36354, 22.93871], [70.34669, 22.93131], [70.32569, 22.94501], [70.30348, 22.93815], [70.29176, 22.95303], [70.2693, 22.95857], [70.24969, 22.98745], [70.23308, 23.00015], [70.23193, 22.97492], [70.22201, 22.95918], [70.20411, 22.95223], [70.17848, 22.95303], [70.1631, 22.94897], [70.14747, 22.96605], [70.12906, 22.96934], [70.12501, 22.97598], [70.13063, 22.99396], [70.10955, 22.95917], [70.13232, 22.94106], [70.13541, 22.93001], [70.06178, 22.9182], [69.99691, 22.8938], [69.94068, 22.88614], [69.88429, 22.86784], [69.83318, 22.85847], [69.78012, 22.82746], [69.7601, 22.80834], [69.72884, 22.75484], [69.71583, 22.74691], [69.65382, 22.76048], [69.58571, 22.76119], [69.55698, 22.77851], [69.4998, 22.78175], [69.47218, 22.79466], [69.42466, 22.80428], [69.40594, 22.81367], [69.37257, 22.81901], [69.33814, 22.83308], [69.23878, 22.84196], [69.20219, 22.85216], [69.13543, 22.88848], [69.03989, 22.95051], [68.86603, 23.02009], [68.65407, 23.15779], [68.64967, 23.18085], [68.62258, 23.19156], [68.59989, 23.22525], [68.59574, 23.24034], [68.60939, 23.22671], [68.62013, 23.24543], [68.62306, 23.26765], [68.60531, 23.2596], [68.57781, 23.25528], [68.55226, 23.25972], [68.54104, 23.27823], [68.56105, 23.3161], [68.59913, 23.32225], [68.60694, 23.32559], [68.60304, 23.33283], [68.57106, 23.34639], [68.56105, 23.36392], [68.54102, 23.35701], [68.52069, 23.36921], [68.51511, 23.37725], [68.51516, 23.39931], [68.52955, 23.41193], [68.54103, 23.41169], [68.53012, 23.42569], [68.51321, 23.41853], [68.50148, 23.42328], [68.49048, 23.40934], [68.47535, 23.40486], [68.46259, 23.40913], [68.45884, 23.41983], [68.4655, 23.44579], [68.44044, 23.43428], [68.43093, 23.4366], [68.42369, 23.44579], [68.44744, 23.48745], [68.46562, 23.50529], [68.48585, 23.51411], [68.48129, 23.52513], [68.46803, 23.51984], [68.45867, 23.52147], [68.43735, 23.54881], [68.44744, 23.51634], [68.44695, 23.503], [68.43116, 23.49361], [68.41164, 23.49471], [68.40611, 23.50874], [68.41082, 23.54881], [68.40497, 23.5976], [68.40888, 23.62132], [68.4275, 23.6314], [68.47153, 23.61864], [68.49147, 23.61884], [68.49269, 23.6376], [68.48618, 23.64142], [68.46877, 23.64082], [68.46552, 23.65526], [68.46942, 23.65924], [68.50473, 23.67421], [68.53354, 23.67919], [68.58365, 23.7354], [68.60174, 23.74867], [68.63787, 23.76154], [68.65457, 23.79905], [68.67075, 23.81573], [68.7256, 23.81892], [68.74513, 23.83307], [68.76881, 23.84113], [68.82162, 23.8784], [68.80567, 23.88443], [68.78004, 23.8741], [68.76694, 23.8784], [68.74024, 23.85347], [68.71778, 23.84102], [68.63347, 23.83308], [68.62306, 23.82441], [68.59868, 23.78177], [68.5547, 23.76854], [68.51001, 23.7441], [68.47283, 23.73749], [68.42774, 23.7143], [68.34197, 23.62397], [68.35156, 23.61782], [68.34888, 23.60342], [68.32732, 23.58691], [68.31764, 23.58614], [68.29412, 23.5904], [68.23081, 23.58809], [68.18161, 23.59404], [68.1574, 23.60082], [68.14342, 23.6127], [68.15009, 23.63141], [68.17433, 23.63142], [68.18426, 23.65192], [68.19809, 23.65908], [68.20932, 23.66273], [68.22006, 23.65924], [68.23268, 23.64501], [68.24514, 23.65913], [68.27589, 23.66584], [68.28045, 23.68598], [68.25896, 23.67471], [68.24101, 23.67402], [68.20876, 23.69624], [68.1975, 23.71479], [68.19776, 23.77481], [68.16815, 23.74748], [68.16376, 23.75772], [68.16603, 23.77318], [68.17563, 23.79824], [68.18312, 23.84345], [68.15748, 23.9051], [68.15748, 23.86416], [68.17058, 23.83991], [68.14332, 23.76114], [68.14422, 23.74315], [68.15747, 23.69624], [68.1491, 23.69454], [68.10222, 23.73383], [68.09888, 23.70931], [68.08172, 23.7087], [68.06277, 23.72314], [68.05397, 23.74392], [68.07439, 23.76484], [68.07326, 23.78343], [68.08173, 23.80564], [68.10222, 23.80952], [68.10222, 23.81574], [68.07269, 23.84169], [68.05943, 23.86189], [68.0539, 23.88467], [68.06373, 23.92316], [68.0477, 23.92122], [68.01352, 23.93928], [68.04152, 23.85224], [68.05387, 23.82941], [68.02455, 23.7748], [68.01352, 23.76855], [67.99415, 23.81118], [67.97193, 23.80208], [67.95086, 23.80891], [67.94167, 23.81587], [67.93425, 23.83299], [67.90993, 23.83626], [67.90464, 23.84626], [67.90594, 23.85928], [67.89991, 23.86758], [67.89194, 23.86957], [67.86891, 23.85051], [67.86329, 23.90282], [67.85523, 23.91193], [67.83903, 23.82339], [67.83171, 23.80953], [67.7735, 23.82103], [67.7186, 23.84369], [67.74106, 23.82307], [67.74365, 23.80879], [67.73226, 23.79524], [67.71567, 23.79171], [67.63161, 23.80346], [67.63072, 23.82477], [67.64291, 23.85049], [67.65105, 23.90705], [67.65659, 23.91938], [67.6504, 23.93305], [67.63803, 23.91592], [67.63738, 23.87425], [67.62924, 23.85668], [67.61451, 23.85009], [67.59963, 23.85424], [67.58952, 23.86634], [67.58839, 23.88467], [67.57455, 23.87178], [67.54664, 23.89826], [67.53256, 23.89916], [67.53012, 23.89126], [67.54661, 23.87101], [67.49106, 23.88313], [67.47872, 23.89138], [67.50262, 23.89289], [67.51254, 23.89826], [67.54054, 23.93928], [67.50904, 23.92326], [67.49888, 23.92561], [67.49696, 23.93586], [67.50636, 23.97403], [67.4512, 23.9877], [67.46811, 24.02196], [67.4782, 24.03242], [67.4922, 24.02802], [67.51987, 24.04507], [67.5298, 24.05492], [67.53305, 24.07026], [67.50978, 24.05207], [67.48911, 24.0541], [67.44068, 24.07026], [67.38356, 24.0668], [67.35402, 24.07088], [67.34133, 24.08638], [67.33709, 24.11896], [67.29565, 24.19903], [67.29233, 24.26187], [67.27916, 24.28124], [67.29282, 24.30296], [67.28599, 24.32957], [67.30592, 24.34284], [67.33644, 24.34642], [67.36248, 24.34394], [67.32537, 24.35761], [67.28297, 24.35762], [67.27167, 24.36909], [67.27362, 24.39509], [67.28663, 24.43952], [67.25881, 24.41911], [67.25685, 24.44497], [67.24684, 24.46796], [67.21096, 24.50845], [67.2308, 24.52509], [67.22674, 24.53238], [67.20412, 24.53511], [67.19471, 24.54711], [67.18362, 24.5903], [67.21811, 24.58242], [67.25262, 24.59032], [67.209, 24.61376], [67.19044, 24.61766], [67.15992, 24.61226], [67.15212, 24.61572], [67.1496, 24.63508], [67.15693, 24.66266], [67.1754, 24.68851], [67.20011, 24.71074], [67.25294, 24.74038], [67.25554, 24.74799], [67.23268, 24.77074], [67.17628, 24.75776], [67.16734, 24.76017], [67.15602, 24.79157], [67.13966, 24.80329], [67.09995, 24.79708], [67.08123, 24.80329], [67.07374, 24.7958], [67.08251, 24.77417], [67.06374, 24.7817], [67.02296, 24.81004], [66.98732, 24.82222], [66.9651, 24.84357], [66.95769, 24.84357], [66.95786, 24.82543], [66.96508, 24.81006], [66.94118, 24.81258], [66.88209, 24.85102], [66.85377, 24.85224], [66.8025, 24.83956], [66.77963, 24.85102], [66.71632, 24.84154], [66.6797, 24.83056], [66.65416, 24.83919], [66.65691, 24.85888], [66.67702, 24.87953], [66.70444, 24.89204], [66.70444, 24.89887], [66.68134, 24.91056], [66.68134, 24.94888], [66.69703, 25.02546], [66.69961, 25.08548], [66.71345, 25.12057], [66.73227, 25.14326], [66.73797, 25.15949], [66.73715, 25.1811], [66.72146, 25.2126], [66.71754, 25.23119], [66.71022, 25.23924], [66.67408, 25.26903], [66.64805, 25.2834], [66.59522, 25.33023], [66.56073, 25.34968], [66.54788, 25.36563], [66.55373, 25.38543], [66.57928, 25.37938], [66.59116, 25.3996], [66.58709, 25.42622], [66.56423, 25.43945], [66.55056, 25.4571], [66.53102, 25.51813], [66.51271, 25.50838], [66.50587, 25.52204], [66.49285, 25.51806], [66.47788, 25.5493], [66.44411, 25.58251], [66.43702, 25.59772], [66.41212, 25.59057], [66.38771, 25.59245], [66.37258, 25.60391], [66.3755, 25.62568], [66.35869, 25.61451], [66.33855, 25.60811], [66.30323, 25.60458], [66.25815, 25.61201], [66.23975, 25.59993], [66.20395, 25.59321], [66.18344, 25.58161], [66.16717, 25.56607], [66.13737, 25.51383], [66.10963, 25.49543], [66.09441, 25.47484], [66.1211, 25.47517], [66.21306, 25.49136], [66.24156, 25.51845], [66.2588, 25.52485], [66.25816, 25.54311], [66.30912, 25.55399], [66.33643, 25.55336], [66.34831, 25.5462], [66.35271, 25.53555], [66.38851, 25.52203], [66.42319, 25.48102], [66.43727, 25.49127], [66.45623, 25.49603], [66.47584, 25.4933], [66.49218, 25.48102], [66.45753, 25.45376], [66.49789, 25.43048], [66.51155, 25.41421], [66.49838, 25.39852], [66.48367, 25.40067], [66.43702, 25.43325], [66.35955, 25.46524], [66.31186, 25.47492], [66.27866, 25.46736], [66.2518, 25.47289], [66.15919, 25.44694], [66.06902, 25.44623], [66.00434, 25.42959], [65.92471, 25.41864], [65.85841, 25.41755], [65.76539, 25.37801], [65.72438, 25.37116], [65.67164, 25.34741], [65.65211, 25.34448], [65.46778, 25.38544], [65.40073, 25.3667], [65.38235, 25.37117], [65.39536, 25.39228], [65.33619, 25.38532], [65.29233, 25.36499], [65.25978, 25.38044], [65.23227, 25.37067], [65.21111, 25.34785], [65.18786, 25.31089], [65.17998, 25.30357], [65.15528, 25.2961], [65.08961, 25.30558], [65.05885, 25.31452], [64.98064, 25.31661], [64.92066, 25.32705], [64.88966, 25.32835], [64.86109, 25.31661], [64.83912, 25.32534], [64.8073, 25.32852], [64.7444, 25.32404], [64.71852, 25.3144], [64.69597, 25.29759], [64.67856, 25.2768], [64.66863, 25.25511], [64.66277, 25.22907], [64.66863, 25.20673], [64.70915, 25.19065], [64.7102, 25.1794], [64.65504, 25.16573], [64.60037, 25.17317], [64.62696, 25.21162], [64.6277, 25.22846], [64.61061, 25.2517], [64.56544, 25.27025], [64.5184, 25.27558], [64.5066, 25.26691], [64.49203, 25.24568], [64.4393, 25.23461], [64.4175, 25.24092], [64.38282, 25.27147], [64.36069, 25.28303], [64.26605, 25.29858], [64.24464, 25.3166], [64.18393, 25.31868], [64.0945, 25.33589], [64.09475, 25.34992], [64.10694, 25.38544], [64.08352, 25.40351], [64.07961, 25.4162], [64.08376, 25.42674], [64.09376, 25.43179], [64.11744, 25.43324], [64.14088, 25.42886], [64.15089, 25.43211], [64.15528, 25.44693], [64.15073, 25.4514], [64.12729, 25.45376], [64.05674, 25.44174], [64.04542, 25.45034], [63.98959, 25.42544], [63.97657, 25.41279], [63.99708, 25.41962], [64.00424, 25.40205], [64.01173, 25.39728], [64.03517, 25.41619], [64.04883, 25.41648], [64.07959, 25.36498], [64.06674, 25.34627], [64.05974, 25.34456], [63.98733, 25.33833], [63.96974, 25.34447], [63.94387, 25.33495], [63.90659, 25.34122], [63.80494, 25.37499], [63.7378, 25.38532], [63.66993, 25.38361], [63.60467, 25.37442], [63.57252, 25.36498], [63.53761, 25.34447], [63.51051, 25.3166], [63.49577, 25.29141], [63.4852, 25.28434], [63.46949, 25.28925], [63.4817, 25.26016], [63.51872, 25.22085], [63.51172, 25.20027], [63.5005, 25.19368], [63.46877, 25.19906], [63.41114, 25.22248], [63.37696, 25.22777], [63.30789, 25.2204], [63.17848, 25.25804], [63.14405, 25.26093], [63.11313, 25.25511], [63.05095, 25.2242], [63.02784, 25.22037], [62.9421, 25.22783], [62.77052, 25.26191], [62.60496, 25.266], [62.47718, 25.25906], [62.46502, 25.23725], [62.46762, 25.22354], [62.4894, 25.21418], [62.46949, 25.20674], [62.44435, 25.21394], [62.41383, 25.20653], [62.3659, 25.17939], [62.34311, 25.15546], [62.33619, 25.13984], [62.33912, 25.12474], [62.35199, 25.11283], [62.38723, 25.10157], [62.38104, 25.08758], [62.29022, 25.09], [62.25608, 25.09863], [62.29079, 25.12474], [62.31528, 25.13019], [62.31813, 25.14183], [62.29748, 25.18513], [62.25422, 25.21203], [62.19181, 25.22008], [62.14519, 25.21841], [62.08003, 25.19715], [62.05899, 25.16164], [62.07308, 25.15057], [62.07783, 25.12771], [62.09716, 25.10713], [62.07555, 25.10076], [61.9295, 25.10956], [61.88111, 25.10301], [61.85743, 25.06684], [61.84733, 25.03792], [61.83522, 25.0384], [61.79047, 25.01778], [61.7551, 25.0135], [61.72956, 25.02179], [61.72007, 25.03744], [61.72577, 25.0589], [61.73585, 25.06952], [61.72862, 25.08327], [61.73244, 25.09161], [61.76002, 25.11538], [61.76679, 25.14565], [61.7837, 25.17316], [61.78305, 25.18797], [61.77955, 25.19107], [61.76686, 25.18622], [61.74952, 25.17318], [61.69418, 25.20051], [61.6242, 25.20441], [61.61217, 25.20052], [61.58918, 25.20204], [61.61438, 25.275], [61.70957, 25.47148], [61.76504, 25.55756], [61.78397, 25.54952], [61.85954, 25.54214], [61.92154, 25.52617]]]]}}]}