{"type": "FeatureCollection", "features": [{"type": "Feature", "properties": {"name": "류큐(오키나와현)", "name_en": "Ryukyu (Okinawa Prefecture)", "period": "1879년", "kind": "기타", "legend": "류큐 합병 - 오키나와현 설치(1879)", "map_title": "일본의 대외 팽창", "source": "미래엔 세계사 교과서 3권 167쪽", "volume": 3, "page": 167, "coast_snap": "Natural Earth 10m 해안선에 맞춤", "group": "류큐", "map_folder": "3권_p167_일본의 대외 팽창"}, "geometry": {"type": "MultiPolygon", "coordinates": [[[[127.35352, 26.15401], [127.34994, 26.15589], [127.35453, 26.18222], [127.36506, 26.21817], [127.36963, 26.21458], [127.3708, 26.20295], [127.36108, 26.16401], [127.35352, 26.15401]]], [[[127.93946, 26.23955], [127.93401, 26.25202], [127.94085, 26.26202], [127.94507, 26.26076], [127.94596, 26.2519], [127.93946, 26.23955]]], [[[127.9952, 26.36722], [127.9891, 26.35847], [127.9782, 26.35482], [127.96772, 26.35969], [127.973, 26.3764], [127.98707, 26.38405], [127.99026, 26.38052], [127.9887, 26.37478], [127.9952, 26.36722]]], [[[127.71827, 26.27407], [127.73129, 26.28937], [127.74187, 26.32054], [127.72073, 26.40648], [127.72252, 26.42991], [127.73114, 26.43972], [127.7811, 26.44123], [127.80519, 26.44758], [127.83059, 26.48842], [127.86427, 26.50567], [127.90268, 26.51642], [127.93751, 26.53213], [127.96022, 26.56411], [127.96241, 26.58198], [127.9559, 26.59479], [127.9406, 26.60248], [127.8943, 26.60929], [127.8856, 26.62019], [127.88575, 26.65351], [127.87828, 26.69452], [127.96461, 26.69716], [127.98731, 26.69293], [128.00122, 26.68024], [127.98854, 26.65298], [127.99562, 26.63923], [128.0149, 26.63483], [128.05738, 26.64476], [128.1111, 26.67402], [128.1033, 26.69123], [128.11135, 26.70343], [128.15235, 26.73151], [128.16197, 26.75714], [128.17612, 26.76252], [128.18801, 26.7805], [128.22592, 26.80097], [128.2544, 26.86441], [128.25507, 26.88627], [128.33138, 26.81342], [128.33764, 26.79694], [128.32984, 26.78034], [128.33764, 26.76431], [128.30974, 26.72118], [128.30811, 26.70088], [128.29664, 26.70132], [128.26441, 26.65242], [128.24333, 26.6333], [128.21713, 26.62565], [128.17221, 26.62348], [128.15886, 26.6188], [128.14283, 26.60175], [128.13209, 26.58124], [128.14575, 26.57343], [128.13835, 26.55403], [128.09034, 26.54268], [128.07163, 26.54402], [128.05592, 26.55048], [127.98413, 26.47847], [127.95094, 26.4667], [127.94706, 26.45105], [127.94003, 26.44774], [127.87062, 26.44741], [127.85174, 26.44123], [127.83888, 26.42524], [127.84303, 26.41747], [127.86475, 26.40647], [127.87827, 26.35187], [127.91991, 26.30964], [127.90187, 26.30501], [127.84083, 26.32392], [127.8283, 26.31623], [127.77101, 26.2165], [127.7684, 26.19766], [127.7754, 26.18513], [127.80991, 26.18918], [127.82356, 26.18675], [127.79688, 26.13972], [127.77572, 26.12178], [127.75489, 26.12531], [127.74171, 26.11563], [127.72512, 26.08951], [127.71013, 26.08439], [127.65172, 26.08439], [127.65707, 26.12177], [127.63593, 26.19135], [127.63844, 26.21472], [127.65846, 26.21235], [127.67775, 26.23062], [127.70021, 26.2761], [127.71827, 26.27407]]], [[[127.78566, 26.70259], [127.75857, 26.71288], [127.75466, 26.72858], [127.76881, 26.73402], [127.79575, 26.73151], [127.80981, 26.73541], [127.8112, 26.70699], [127.78566, 26.70259]]], [[[127.95345, 26.91385], [127.93711, 26.91284], [127.91997, 26.92191], [127.91856, 26.94216], [127.92621, 26.95127], [127.94589, 26.9516], [127.95638, 26.94102], [127.95345, 26.91385]]], [[[128.43241, 27.02175], [128.40137, 27.03705], [128.39626, 27.04741], [128.4149, 27.03548], [128.43241, 27.02175]]], [[[127.92582, 27.00977], [127.98203, 27.07333], [127.99745, 27.08044], [127.97561, 27.0396], [127.95215, 27.0183], [127.92582, 27.00977]]], [[[128.63877, 27.42629], [128.65041, 27.43471], [128.70069, 27.45481], [128.70686, 27.44863], [128.69759, 27.43574], [128.65907, 27.41273], [128.63877, 27.42629]]], [[[128.97731, 27.83662], [128.98878, 27.8111], [129.02466, 27.78607], [129.02955, 27.77348], [129.02425, 27.75658], [128.9895, 27.70747], [128.96089, 27.68589], [128.94703, 27.68139], [128.92946, 27.68672], [128.91635, 27.72236], [128.89455, 27.72822], [128.89089, 27.74189], [128.89926, 27.76952], [128.87893, 27.82477], [128.89455, 27.8913], [128.94703, 27.91412], [128.96549, 27.89435], [128.97731, 27.83662]]], [[[129.23626, 28.0351], [129.26579, 28.03497], [129.26888, 28.03164], [129.26529, 28.01241], [129.26002, 28.00631], [129.24318, 28.01887], [129.21161, 28.02307], [129.2077, 28.04226], [129.21591, 28.05145], [129.23626, 28.0351]]], [[[129.15048, 28.01497], [129.14667, 28.01534], [129.14545, 28.0314], [129.15141, 28.04857], [129.16847, 28.06638], [129.17448, 28.05256], [129.16756, 28.03278], [129.16416, 28.02485], [129.15048, 28.01497]]], [[[129.22153, 28.17601], [129.2326, 28.17072], [129.26928, 28.17486], [129.2505, 28.15103], [129.2518, 28.14378], [129.29928, 28.11993], [129.32553, 28.12347], [129.34733, 28.10691], [129.35042, 28.0865], [129.32399, 28.07861], [129.30079, 28.10053], [129.29054, 28.09516], [129.29069, 28.08882], [129.27915, 28.07711], [129.26303, 28.09911], [129.22145, 28.09912], [129.21412, 28.14008], [129.18703, 28.175], [129.18085, 28.19025], [129.19581, 28.19545], [129.2277, 28.19525], [129.22153, 28.17601]]], [[[129.27084, 28.25536], [129.29038, 28.28408], [129.25368, 28.28459], [129.23952, 28.29036], [129.22773, 28.30459], [129.26393, 28.32883], [129.29567, 28.33637], [129.33132, 28.36602], [129.38063, 28.36677], [129.39959, 28.37173], [129.41335, 28.39328], [129.4323, 28.38691], [129.45094, 28.39204], [129.46616, 28.40485], [129.47535, 28.42127], [129.48243, 28.41104], [129.51637, 28.3933], [129.53364, 28.43063], [129.56081, 28.45111], [129.62621, 28.48271], [129.61394, 28.44798], [129.61647, 28.43854], [129.6325, 28.43488], [129.64405, 28.43976], [129.67335, 28.48273], [129.66726, 28.50299], [129.67311, 28.50982], [129.68775, 28.50897], [129.698, 28.49485], [129.70753, 28.46214], [129.72168, 28.44403], [129.71599, 28.42915], [129.69386, 28.4287], [129.6814, 28.42099], [129.61931, 28.40078], [129.61117, 28.38313], [129.58155, 28.37067], [129.55396, 28.32844], [129.53346, 28.31883], [129.49886, 28.28751], [129.48731, 28.28255], [129.46119, 28.29169], [129.44744, 28.29092], [129.45483, 28.27725], [129.44787, 28.26647], [129.42018, 28.24994], [129.46793, 28.21577], [129.41543, 28.18586], [129.40651, 28.18448], [129.40153, 28.16333], [129.3711, 28.16722], [129.35182, 28.16055], [129.36443, 28.15404], [129.37451, 28.14004], [129.37939, 28.12596], [129.37598, 28.11959], [129.28662, 28.17795], [129.2803, 28.1905], [129.28077, 28.21857], [129.2693, 28.22944], [129.25635, 28.21468], [129.24244, 28.21431], [129.20786, 28.22944], [129.15895, 28.24064], [129.14578, 28.24995], [129.14577, 28.25616], [129.16285, 28.26263], [129.18051, 28.25617], [129.20883, 28.26422], [129.24138, 28.25633], [129.27084, 28.25536]]], [[[129.9782, 28.28377], [129.95677, 28.28481], [129.91361, 28.29711], [129.9756, 28.34324], [130.03027, 28.37346], [130.03101, 28.35651], [130.02161, 28.33158], [129.99544, 28.29093], [129.9782, 28.28377]]]]}}]}