{"type": "FeatureCollection", "features": [{"type": "Feature", "properties": {"name": "우간다", "name_en": "Uganda", "period": "1913년경", "kind": "식민지", "legend": "우간다", "map_title": "제국주의 열강의 아프리카 분할(1913년경)", "source": "미래엔 세계사 교과서 3권 156쪽", "volume": 3, "page": 156, "note": "영국령", "coast_snap": "Natural Earth 10m 해안선에 맞춤", "border_snap": "현대 국경(Natural Earth 10m)에 맞춘 구간 약 1472 km", "group": "우간다", "map_folder": "3권_p156_제국주의 열강의 아프리카 분할(1913년경)"}, "geometry": {"type": "Polygon", "coordinates": [[[31.3972, -0.44281], [31.41778, -0.49727], [31.46278, -0.58782], [31.47024, -1.00257], [30.82838, -1.00257], [30.81246, -0.99472], [30.77712, -0.98583], [30.7395, -1.00547], [30.70157, -1.01746], [30.6871, -1.025], [30.63863, -1.07337], [30.61454, -1.06582], [30.59274, -1.06345], [30.51166, -1.07337], [30.49342, -1.06024], [30.48101, -1.05911], [30.43202, -1.06055], [30.40319, -1.07037], [30.35275, -1.06076], [30.33745, -1.06624], [29.61193, -0.83733], [29.61336, -0.80383], [29.6022, -0.74378], [29.61554, -0.64415], [29.62928, -0.62978], [29.63057, -0.62203], [29.61884, -0.59939], [29.22814, -0.49327], [29.32727, 0.43445], [29.53735, 0.77226], [29.59598, 1.18806], [30.06294, 1.54149], [30.54201, 2.06515], [30.83634, 2.35634], [30.80968, 2.39236], [30.80492, 2.43437], [30.795, 2.44011], [30.72492, 2.44078], [30.71056, 2.44512], [30.70766, 2.46228], [30.73702, 2.51954], [30.73526, 2.59307], [30.75893, 2.63379], [30.7643, 2.65839], [30.79769, 2.74836], [30.80161, 2.76908], [30.82187, 2.77616], [30.82869, 2.78608], [30.85339, 2.85337], [30.85484, 2.89321], [30.84399, 2.93279], [30.82094, 2.97315], [30.80363, 2.98907], [30.75707, 3.02147], [30.74508, 3.0363], [30.74384, 3.05547], [30.74787, 3.07671], [30.79648, 3.2228], [30.56225, 3.60136], [30.54302, 3.61291], [30.55491, 3.63639], [30.56225, 3.67533], [30.56287, 3.69487], [30.53889, 3.84155], [30.52525, 3.86754], [30.90223, 4.18781], [30.96876, 4.16303], [31.14149, 3.78512], [31.16758, 3.7924], [31.21482, 3.79235], [31.25574, 3.78667], [31.29502, 3.77419], [31.48362, 4.14415], [31.54483, 4.17456], [31.5588, 4.16407], [31.77788, 3.81643], [31.80703, 3.80372], [31.82964, 3.78476], [32.10105, 4.09306], [32.71699, 4.19133], [32.97097, 3.87281], [32.97957, 3.8792], [32.99724, 3.88553], [33.01724, 3.87718], [33.14349, 3.77409], [33.16447, 3.76305], [33.19542, 3.75706], [33.44734, 3.74437], [33.49065, 3.74975], [33.53261, 3.77429], [33.93392, 4.17637], [33.96606, 4.10002], [34.04095, 4.12042], [34.06927, 4.08802], [34.07237, 4.07642], [34.06979, 4.04136], [34.06152, 4.01792], [34.0611, 4.00777], [34.06896, 3.99188], [34.1071, 3.9595], [34.10958, 3.94335], [34.08622, 3.89467], [34.08477, 3.87734], [34.10803, 3.86894], [34.16342, 3.8862], [34.18285, 3.8861], [34.20497, 3.87455], [34.20756, 3.86088], [34.1967, 3.84739], [34.14895, 3.82269], [34.15081, 3.81721], [34.16652, 3.81132], [34.17903, 3.7961], [34.15908, 3.78336], [34.15247, 3.77564], [34.16518, 3.77083], [34.17365, 3.7714], [34.24094, 3.78362], [34.24156, 3.77874], [34.26378, 3.75006], [34.27887, 3.70972], [34.29044, 3.70316], [34.30987, 3.7267], [34.33706, 3.73458], [34.35504, 3.72737], [34.38749, 3.69275], [34.42501, 3.67719], [34.43969, 3.66774], [34.4464, 3.6467], [34.44392, 3.56629], [34.43452, 3.52622], [34.4155, 3.49702], [34.38687, 3.48563], [34.38129, 3.47687], [34.38212, 3.46604], [34.39855, 3.43364], [34.38398, 3.38835], [34.38656, 3.37638], [34.41116, 3.34471], [34.42408, 3.30481], [34.434, 3.18203], [34.44485, 3.15914], [34.46573, 3.14586], [34.51286, 3.13237], [34.53384, 3.11847], [34.54562, 3.09738], [34.57466, 2.94613], [34.58469, 2.92871], [34.61642, 2.89342], [34.63141, 2.86954], [34.6405, 2.86014], [34.65414, 2.85652], [34.67812, 2.87156], [34.68505, 2.88096], [34.69652, 2.86773], [34.73011, 2.85285], [34.73693, 2.84437], [34.76132, 2.77249], [34.77651, 2.68562], [34.81868, 2.59798], [34.82809, 2.58878], [34.84183, 2.58775], [34.85651, 2.60346], [34.8656, 2.60486], [34.87563, 2.59121], [34.88131, 2.54145], [34.8871, 2.52238], [34.91439, 2.49437], [34.92358, 2.47732], [34.9209, 2.45463], [34.90612, 2.43691], [34.86788, 2.41148], [34.85909, 2.38678], [34.8656, 2.34751], [34.96751, 2.10191], [34.96761, 2.08256], [34.95666, 2.01851], [34.96203, 1.97781], [34.96916, 1.96029], [35.00141, 1.928], [35.00647, 1.91686], [35.00275, 1.90614], [34.98405, 1.88247], [34.9797, 1.8703], [34.97867, 1.67594], [34.97268, 1.65424], [34.93371, 1.57569], [34.91356, 1.56156], [34.88255, 1.55223], [34.8595, 1.51792], [34.83842, 1.43717], [34.77899, 1.38855], [34.78271, 1.35299], [34.80008, 1.31232], [34.81052, 1.27253], [34.79791, 1.23192], [34.76607, 1.2175], [34.6838, 1.20908], [34.66303, 1.19636], [34.62893, 1.1636], [34.58045, 1.15254], [34.57363, 1.13425], [34.57198, 1.11172], [34.56123, 1.09337], [34.54035, 1.08939], [34.52402, 1.09864], [34.50749, 1.10252], [34.48702, 1.08247], [34.46883, 1.04423], [34.46366, 1.02294], [34.46304, 0.97808], [34.45715, 0.95762], [34.43121, 0.89354], [34.40238, 0.85607], [34.38801, 0.81582], [34.37085, 0.80021], [34.30667, 0.76807], [34.2984, 0.75928], [34.2923, 0.72373], [34.27618, 0.68084], [34.2521, 0.655], [34.21975, 0.63857], [34.17913, 0.62389], [34.14957, 0.60363], [34.13242, 0.57283], [34.10441, 0.46225], [34.07568, 0.42225], [33.698, 0.56758], [33.63659, 0.58916], [33.54298, 0.61171], [33.45268, 0.61188], [33.20877, 0.59499], [33.1192, 0.59823], [33.09907, 0.60733], [33.07514, 0.62512], [32.99357, 0.69888], [32.93186, 0.7403], [32.90002, 0.72563], [32.87374, 0.703], [32.76278, 0.56972], [32.7376, 0.544], [32.71504, 0.52868], [32.67342, 0.52102], [32.60713, 0.51904], [32.18957, 0.53587], [31.98982, 0.44693], [31.71464, 0.304], [31.65679, 0.26807], [31.62941, 0.2428], [31.64643, 0.19954], [31.71382, 0.0749], [31.72235, 0.0488], [31.72166, 0.02859], [31.6987, -0.01503], [31.66066, -0.06789], [31.45718, -0.31174], [31.41828, -0.36518], [31.39127, -0.41426], [31.3972, -0.44281]]]}}]}