{"type": "FeatureCollection", "features": [{"type": "Feature", "properties": {"name": "인도령 카슈미르", "name_en": "Indian-administered Kashmir", "period": "1947년 이후(2019년 기준)", "kind": "기타", "legend": "인도령 카슈미르", "map_title": "카슈미르 분쟁 지역", "source": "미래엔 세계사 교과서 4권 204쪽", "volume": 4, "page": 204, "coast_snap": "Natural Earth 10m 해안선에 맞춤", "border_snap": "현대 국경(Natural Earth 10m)에 맞춘 구간 약 1490 km", "group": "인도령 카슈미르", "map_folder": "4권_p204_카슈미르 분쟁 지역"}, "geometry": {"type": "Polygon", "coordinates": [[[77.91754, 32.67242], [77.70352, 32.91974], [77.37823, 32.79376], [76.8957, 33.11338], [76.74601, 33.07614], [76.61357, 33.23197], [76.33085, 33.20272], [76.35047, 32.9872], [75.95355, 32.90312], [76.08333, 32.55561], [75.96574, 32.41066], [75.83009, 32.36262], [75.35716, 32.26869], [75.35295, 32.28439], [75.32691, 32.31247], [75.23017, 32.3802], [75.19616, 32.3973], [75.12599, 32.41174], [75.09219, 32.42934], [75.05488, 32.45554], [75.02367, 32.46626], [74.9907, 32.46337], [74.94843, 32.44877], [74.90698, 32.44518], [74.83815, 32.47487], [74.79939, 32.47267], [74.76353, 32.46267], [74.72498, 32.46081], [74.68932, 32.47135], [74.66255, 32.49838], [74.63258, 32.56817], [74.62958, 32.58809], [74.65604, 32.64067], [74.65728, 32.66059], [74.65015, 32.70124], [74.64974, 32.72315], [74.65697, 32.74534], [74.68229, 32.78733], [74.68912, 32.80883], [74.68529, 32.83123], [74.67175, 32.84058], [74.65356, 32.83743], [74.63589, 32.82208], [74.61408, 32.7704], [74.59341, 32.75787], [74.52096, 32.74529], [74.50091, 32.74601], [74.48448, 32.75353], [74.45533, 32.7786], [74.43869, 32.78598], [74.41895, 32.78462], [74.38639, 32.76777], [74.36769, 32.76353], [74.34619, 32.76689], [74.32934, 32.77642], [74.31632, 32.79108], [74.3065, 32.80991], [74.33379, 32.84926], [74.33668, 32.87014], [74.32449, 32.9214], [74.32201, 32.97205], [74.31126, 32.99429], [74.62177, 33.30816], [74.61617, 33.32448], [74.1409, 33.43442], [74.15778, 33.49424], [74.14155, 33.54937], [74.08812, 33.58529], [74.02425, 33.61425], [73.9767, 33.64839], [73.96833, 33.66208], [73.96079, 33.69229], [73.96616, 33.73453], [73.9767, 33.75892], [74.01133, 33.81047], [74.03458, 33.82861], [74.14228, 33.84424], [74.17752, 33.85755], [74.21255, 33.87842], [74.23953, 33.90101], [74.26247, 33.92995], [74.27229, 33.96214], [74.25968, 33.99439], [74.22837, 34.01289], [74.19209, 34.01185], [74.15426, 34.0041], [74.1184, 34.00252], [74.06528, 34.01834], [74.04502, 34.01942], [73.9767, 34.00459], [73.9458, 34.00979], [73.91624, 34.02795], [73.89371, 34.0543], [73.88441, 34.0842], [73.8933, 34.11474], [73.91686, 34.13526], [73.9767, 34.16156], [73.99541, 34.17644], [73.9983, 34.1968], [73.99055, 34.21851], [73.9767, 34.23755], [73.95438, 34.28719], [73.93774, 34.30421], [73.90746, 34.3068], [73.87904, 34.30429], [73.8533, 34.30742], [73.80421, 34.32749], [73.78271, 34.34682], [73.77486, 34.37095], [73.77982, 34.39607], [73.79625, 34.41855], [73.8316, 34.4364], [73.84038, 34.44441], [73.84555, 34.45648], [73.847, 34.49433], [73.86312, 34.51707], [73.91097, 34.54497], [73.92596, 34.56497], [73.92544, 34.59339], [73.91748, 34.61928], [73.91934, 34.64254], [73.94859, 34.66274], [73.96223, 34.66817], [74.12088, 34.69085], [74.14682, 34.70186], [74.22175, 34.74775], [74.28583, 34.76889], [74.34888, 34.77343], [74.41213, 34.76449], [74.66493, 34.68832], [75.01778, 34.62972], [75.111, 34.63365], [75.17632, 34.64538], [75.21291, 34.64497], [75.23688, 34.63189], [75.26748, 34.5983], [75.30696, 34.57401], [75.34809, 34.55722], [75.61164, 34.49836], [75.65557, 34.49697], [75.71365, 34.50851], [75.77711, 34.50381], [75.79582, 34.50792], [75.81618, 34.52167], [75.87395, 34.57138], [75.93927, 34.61205], [75.97338, 34.62233], [76.00748, 34.66512], [76.0234, 34.67716], [76.05833, 34.68341], [76.12179, 34.66088], [76.15497, 34.66166], [76.26204, 34.68465], [76.39992, 34.75075], [76.43816, 34.76289], [76.4765, 34.75778], [76.51991, 34.73111], [76.53582, 34.7262], [76.55319, 34.72584], [76.63959, 34.74114], [76.65261, 34.74698], [76.74387, 34.81927], [76.75328, 34.83834], [76.74956, 34.89208], [76.75762, 34.91513], [76.78201, 34.93089], [76.96668, 35.27296], [76.94385, 35.31792], [77.11936, 35.3753], [77.30806, 35.41787], [77.34941, 35.38021], [77.41576, 35.29839], [77.3501, 35.26489], [77.61732, 34.9058], [77.68312, 34.7761], [77.74556, 34.66812], [77.76469, 34.64311], [78.24774, 34.73694], [78.27319, 34.65887], [78.29603, 34.62466], [78.3353, 34.59438], [78.37943, 34.57867], [78.60732, 34.54647], [78.66458, 34.52642], [78.75068, 34.47128], [78.80173, 34.41501], [78.83925, 34.39689], [78.88586, 34.38576], [78.92214, 34.3723], [78.95118, 34.34917], [78.97619, 34.30917], [78.98539, 34.28636], [78.98849, 34.26313], [78.98549, 34.2399], [78.97619, 34.21716], [78.90323, 34.15812], [78.80607, 34.12298], [78.73011, 34.07926], [78.72112, 33.99439], [78.77031, 33.87235], [78.78726, 33.80843], [78.79408, 33.74391], [78.78137, 33.55278], [78.8009, 33.49424], [78.82426, 33.46106], [78.91769, 33.38626], [78.96499, 33.34425], [79.02304, 33.31798], [79.05328, 33.30787], [79.07505, 33.29574], [79.09803, 33.28766], [79.15021, 33.29256], [79.26006, 33.29178], [79.34031, 33.27513], [79.42008, 33.27517], [79.4561, 33.2504], [79.42348, 33.15783], [79.37317, 33.11214], [79.38106, 33.06177], [79.39927, 33.02688], [79.33979, 33.01326], [79.33359, 32.99429], [79.37846, 32.97888], [79.41409, 32.97205], [79.47109, 32.90896], [79.56409, 32.79393], [79.61391, 32.76503], [79.62067, 32.72872], [79.57617, 32.67065], [79.5312, 32.64832], [79.51574, 32.60812], [79.4435, 32.53477], [79.40682, 32.52968], [79.37948, 32.57645], [79.32047, 32.59227], [79.28741, 32.53258], [79.23561, 32.5043], [79.21525, 32.50791], [79.19117, 32.50427], [79.13287, 32.48546], [79.11293, 32.47239], [79.1029, 32.44986], [79.09174, 32.39056], [79.07531, 32.37079], [79.02818, 32.37709], [78.97619, 32.36162], [78.94343, 32.34637], [78.91129, 32.35474], [78.88152, 32.37627], [78.85568, 32.40045], [78.77145, 32.46166], [78.75471, 32.49381], [78.73693, 32.54579], [78.73497, 32.56065], [78.74913, 32.59587], [78.75099, 32.61279], [78.73683, 32.62984], [78.71326, 32.63752], [78.69445, 32.62966], [78.66489, 32.59902], [78.64774, 32.58597], [78.63017, 32.57801], [78.58986, 32.56992], [78.44754, 32.56626], [78.40816, 32.55838], [78.38481, 32.54755], [77.91754, 32.67242]]]}}]}