{"type": "FeatureCollection", "features": [{"type": "Feature", "properties": {"name": "상", "name_en": "Shang dynasty", "period": "기원전 1600–1046년경", "kind": "국가", "legend": "상의 세력 범위", "map_title": "상과 주의 세력 범위", "source": "미래엔 세계사 교과서 1권 19쪽", "volume": 1, "page": 19, "coast_snap": "Natural Earth 10m 해안선에 맞춤", "group": "상", "map_folder": "1권_p019_상과 주의 세력 범위"}, "geometry": {"type": "MultiPolygon", "coordinates": [[[[117.56596, 38.6125], [117.66805, 38.44616], [117.71608, 38.37851], [117.80389, 38.29402], [117.83717, 38.2709], [117.94169, 38.23394], [117.97754, 38.19484], [117.989, 38.19855], [118.00719, 38.197], [118.05372, 38.17325], [118.05777, 38.16108], [118.05241, 38.15366], [118.06521, 38.14308], [118.08481, 38.13874], [118.11923, 38.15228], [118.14609, 38.14248], [118.21608, 38.14492], [118.44925, 38.10771], [118.51229, 38.08807], [118.54298, 38.06834], [118.57301, 38.0799], [118.61562, 38.12498], [118.65488, 38.14569], [118.76006, 38.15511], [118.8401, 38.15256], [118.95002, 38.09726], [118.92481, 38.05777], [118.94198, 38.04938], [118.95614, 38.03359], [118.9734, 37.99649], [118.99659, 37.96312], [119.0484, 37.94797], [119.09248, 37.91277], [119.11694, 37.85327], [119.1557, 37.82396], [119.20683, 37.80283], [119.24307, 37.76948], [119.25958, 37.71585], [119.25565, 37.67188], [119.21774, 37.67526], [119.18931, 37.70074], [119.12014, 37.73751], [119.06947, 37.74063], [119.03713, 37.72209], [119.01074, 37.65376], [118.97665, 37.61091], [118.95786, 37.5314], [118.94459, 37.37812], [118.94947, 37.33617], [118.96119, 37.29564], [118.97242, 37.28067], [119.01473, 37.26983], [119.0586, 37.22761], [119.11499, 37.20111], [119.14552, 37.17886], [119.28712, 37.13727], [119.44117, 37.12055], [119.47511, 37.13328], [119.52451, 37.13906], [119.56349, 37.14178], [119.67684, 37.13874], [119.6794, 37.05384], [119.66051, 36.95679], [119.63288, 36.89796], [119.59064, 36.83132], [119.52951, 36.76808], [119.42292, 36.76088], [119.22695, 36.78051], [119.12569, 36.80105], [119.11385, 36.79601], [119.05556, 36.58039], [118.95197, 36.13629], [118.90886, 35.97254], [118.81373, 35.65413], [118.69505, 35.29088], [118.58756, 34.90067], [118.53414, 34.73028], [118.45922, 34.5657], [118.3554, 34.3554], [118.13345, 33.97637], [117.87781, 33.60216], [117.72577, 33.40159], [117.56891, 33.20424], [117.40886, 33.01045], [117.08362, 32.63268], [116.75635, 32.26601], [116.47971, 31.96247], [116.24735, 31.72099], [116.12634, 31.60555], [116.00087, 31.49539], [115.86984, 31.3916], [115.7332, 31.29613], [115.58941, 31.20979], [115.43759, 31.13468], [115.27827, 31.07296], [115.11266, 31.02607], [114.94354, 30.99579], [114.77262, 30.98322], [114.59943, 30.98952], [114.42809, 31.01569], [114.25719, 31.06318], [114.0686, 31.14229], [113.89208, 31.24217], [113.72544, 31.35895], [113.56655, 31.48898], [113.41349, 31.6285], [112.96681, 32.06936], [112.63547, 32.34147], [112.25747, 32.56372], [111.83869, 32.73883], [111.38504, 32.87447], [110.91062, 32.97912], [110.43055, 33.06243], [109.29435, 33.22814], [109.08551, 33.26571], [108.87827, 33.31063], [108.67324, 33.36451], [108.47268, 33.42871], [108.27777, 33.50481], [108.09001, 33.59447], [107.91132, 33.69902], [107.74145, 33.82229], [107.59059, 33.95837], [107.45876, 34.10604], [107.34907, 34.26105], [107.26227, 34.42198], [107.20043, 34.58576], [107.16536, 34.74971], [107.15886, 34.9113], [107.18482, 35.08459], [107.2408, 35.24653], [107.32281, 35.39889], [107.42693, 35.54258], [107.54845, 35.67769], [107.68337, 35.80537], [107.82802, 35.927], [107.97815, 36.04325], [108.32848, 36.28253], [108.70339, 36.50446], [109.09211, 36.72049], [109.48125, 36.9414], [109.85729, 37.17844], [110.20963, 37.44399], [110.53387, 37.75247], [110.83245, 38.11958], [111.04571, 38.43034], [111.41621, 38.94244], [111.63767, 39.23004], [111.86184, 39.4945], [112.13414, 39.79562], [112.41128, 40.05136], [112.69519, 40.30075], [113.32393, 40.72334], [114.02637, 41.04272], [114.81337, 41.23385], [115.69522, 41.26938], [116.0397, 41.24435], [116.37908, 41.2017], [116.54424, 41.1714], [116.70469, 41.13387], [116.85968, 41.08803], [117.00714, 41.03316], [117.24835, 40.92151], [117.46311, 40.79944], [117.65435, 40.66684], [117.82364, 40.52427], [117.9729, 40.37195], [118.1042, 40.20963], [118.21874, 40.03818], [118.31941, 39.85652], [118.364, 39.75356], [118.39623, 39.64885], [118.42509, 39.50576], [118.4356, 39.50178], [118.55883, 39.51783], [118.62983, 39.52068], [118.71635, 39.55151], [118.77514, 39.51099], [118.80462, 39.48407], [118.85285, 39.42377], [118.87085, 39.39135], [118.89403, 39.32361], [118.89913, 39.238], [118.8895, 39.17436], [118.88065, 39.17281], [118.88551, 39.18525], [118.87143, 39.2001], [118.87379, 39.21381], [118.85898, 39.20751], [118.84052, 39.17564], [118.79568, 39.15173], [118.72778, 39.14726], [118.61936, 39.16104], [118.59015, 39.14832], [118.52711, 39.14924], [118.51938, 39.13935], [118.52913, 39.12466], [118.48709, 39.10203], [118.46911, 39.09779], [118.34427, 39.03072], [118.3261, 39.03094], [118.30013, 39.04056], [118.26786, 39.04301], [118.23529, 39.05311], [118.20713, 39.07671], [118.17094, 39.13525], [118.14053, 39.17283], [118.0964, 39.20239], [118.04538, 39.21897], [118.02802, 39.2198], [117.93116, 39.2121], [117.88559, 39.20112], [117.75732, 39.11446], [117.73756, 39.1064], [117.71542, 39.1114], [117.71827, 39.093], [117.75147, 39.06791], [117.77525, 38.98106], [117.7295, 38.98436], [117.70192, 38.99531], [117.70875, 38.98102], [117.584, 38.81159], [117.57626, 38.77375], [117.57321, 38.71375], [117.55878, 38.69094], [117.56046, 38.6571], [117.54355, 38.62132], [117.56596, 38.6125]]], [[[117.78929, 38.90464], [117.71867, 38.92127], [117.69712, 38.93478], [117.71371, 38.96644], [117.7315, 38.95447], [117.76912, 38.94391], [117.76213, 38.92928], [117.7782, 38.92708], [117.78564, 38.93845], [117.81478, 38.93045], [117.81085, 38.91467], [117.78929, 38.90464]]], [[[117.88004, 38.93054], [117.73323, 38.96429], [117.72045, 38.97394], [117.72995, 38.97672], [117.80885, 38.96423], [117.82138, 38.95799], [117.87939, 38.94655], [117.88004, 38.93054]]], [[[118.52637, 39.04668], [118.55972, 39.00312], [118.57781, 39.00862], [118.62871, 39.04855], [118.61465, 39.06764], [118.63274, 39.07457], [118.64866, 39.05585], [118.64872, 39.04465], [118.59431, 38.97221], [118.5143, 38.91945], [118.5027, 38.91904], [118.4803, 38.93482], [118.4909, 38.94319], [118.47071, 38.97055], [118.46954, 39.00656], [118.4785, 39.04285], [118.4882, 39.05048], [118.52637, 39.04668]]], [[[117.81969, 38.97742], [117.80323, 38.97961], [117.79122, 38.98928], [117.77335, 39.04757], [117.79598, 39.04987], [117.81079, 39.02719], [117.82676, 38.98394], [117.81969, 38.97742]]]]}}]}