{"type": "FeatureCollection", "features": [{"type": "Feature", "properties": {"name": "벼의 이모작 지역", "name_en": "Double-cropping rice areas", "period": null, "kind": "기타", "legend": "벼의 이모작 지역", "map_title": "송대 산업의 발달과 동아시아 교역의 증대", "source": "미래엔 세계사 교과서 2권 78쪽", "volume": 2, "page": 78, "coast_snap": "Natural Earth 10m 해안선에 맞춤"}, "geometry": {"type": "MultiPolygon", "coordinates": [[[[110.36899, 20.84884], [110.39414, 20.80873], [110.34443, 20.81392], [110.34181, 20.82152], [110.33848, 20.815], [110.30777, 20.82203], [110.25336, 20.84135], [110.28712, 20.84203], [110.31967, 20.85992], [110.33578, 20.85882], [110.34181, 20.84203], [110.34864, 20.84885], [110.3611, 20.83588], [110.36899, 20.84884]]], [[[110.60954, 20.89729], [110.5892, 20.8835], [110.5757, 20.88883], [110.54755, 20.91771], [110.58982, 20.95947], [110.60269, 20.96489], [110.59588, 20.95873], [110.62793, 20.94863], [110.63248, 20.93667], [110.62438, 20.91502], [110.60954, 20.89729]]], [[[110.27313, 21.06109], [110.29021, 21.05427], [110.30991, 21.05292], [110.32692, 21.05744], [110.33522, 21.06859], [110.30795, 21.06086], [110.29542, 21.06306], [110.28738, 21.07444], [110.34262, 21.07465], [110.37135, 21.08096], [110.38982, 21.09587], [110.40821, 21.04824], [110.41774, 21.0406], [110.4232, 21.05141], [110.43214, 21.05727], [110.47283, 21.06167], [110.50709, 21.08221], [110.52637, 21.08209], [110.53882, 21.07306], [110.54557, 21.05736], [110.54752, 21.03726], [110.54385, 21.023], [110.52076, 20.97236], [110.52604, 20.9416], [110.51694, 20.93766], [110.50799, 20.94038], [110.50271, 20.9475], [110.49969, 20.96866], [110.49301, 20.97797], [110.45769, 21.00121], [110.44142, 21.00584], [110.36305, 21.00584], [110.29867, 20.98067], [110.26661, 20.97265], [110.24588, 20.98603], [110.26189, 20.99299], [110.26539, 21.00434], [110.25929, 21.017], [110.24588, 21.02757], [110.28736, 21.03384], [110.28736, 21.04059], [110.2707, 21.04486], [110.27313, 21.06109]]], [[[110.54754, 21.15672], [110.55494, 21.15672], [110.57732, 21.19098], [110.59381, 21.20265], [110.61694, 21.19891], [110.61694, 21.19148], [110.59946, 21.17829], [110.56519, 21.11262], [110.54322, 21.10498], [110.52051, 21.11197], [110.50588, 21.12686], [110.50709, 21.1437], [110.489, 21.15011], [110.47918, 21.16413], [110.47291, 21.16413], [110.47917, 21.15047], [110.46144, 21.15108], [110.44948, 21.15624], [110.44533, 21.16568], [110.45192, 21.17845], [110.41774, 21.17848], [110.41774, 21.18463], [110.43434, 21.18659], [110.46217, 21.20515], [110.4878, 21.20864], [110.49983, 21.20629], [110.49627, 21.19522], [110.46339, 21.19074], [110.47918, 21.18464], [110.50416, 21.18769], [110.53232, 21.20333], [110.54965, 21.20245], [110.56861, 21.19147], [110.55006, 21.16844], [110.54754, 21.15672]]], [[[111.94516, 21.65013], [111.96244, 21.65758], [111.98951, 21.65777], [111.99984, 21.65399], [112.00732, 21.64394], [111.99984, 21.62117], [111.98145, 21.61206], [111.90968, 21.60053], [111.89747, 21.59553], [111.86329, 21.56828], [111.82244, 21.56201], [111.80935, 21.5655], [111.84205, 21.60684], [111.84506, 21.62397], [111.83531, 21.64394], [111.8838, 21.65013], [111.92823, 21.66444], [111.94516, 21.65013]]], [[[112.63795, 21.66446], [112.6499, 21.64932], [112.65039, 21.64046], [112.62379, 21.63329], [112.61646, 21.61922], [112.60719, 21.61605], [112.5797, 21.61558], [112.55592, 21.62344], [112.53492, 21.59554], [112.52541, 21.59887], [112.51931, 21.60668], [112.51825, 21.61676], [112.52427, 21.62689], [112.55982, 21.64838], [112.56788, 21.66063], [112.55594, 21.67812], [112.57781, 21.68301], [112.64535, 21.71282], [112.65454, 21.69847], [112.63795, 21.66446]]], [[[112.82114, 21.7748], [112.8501, 21.77432], [112.844, 21.77432], [112.86255, 21.76943], [112.86816, 21.75755], [112.86255, 21.7456], [112.8318, 21.73591], [112.79754, 21.70588], [112.81055, 21.65762], [112.79444, 21.62311], [112.79347, 21.60822], [112.81054, 21.5893], [112.79965, 21.5791], [112.76168, 21.58358], [112.75367, 21.60737], [112.73716, 21.61262], [112.7344, 21.62873], [112.76759, 21.66348], [112.77442, 21.69172], [112.73689, 21.68115], [112.71559, 21.68025], [112.70624, 21.68838], [112.71169, 21.70254], [112.74782, 21.73333], [112.7649, 21.73176], [112.77752, 21.77264], [112.79566, 21.76683], [112.82114, 21.7748]]], [[[113.16554, 21.85334], [113.14869, 21.84261], [113.13121, 21.85037], [113.13568, 21.86496], [113.14633, 21.86245], [113.15594, 21.87274], [113.17587, 21.86213], [113.18767, 21.86903], [113.19092, 21.86335], [113.18002, 21.85034], [113.16554, 21.85334]]], [[[113.00377, 21.86953], [113.02445, 21.88077], [113.03532, 21.87844], [113.03882, 21.86563], [113.03451, 21.8553], [113.02052, 21.85484], [113.01734, 21.84953], [113.00377, 21.86953]]], [[[113.22585, 21.90083], [113.2217, 21.91413], [113.23171, 21.93447], [113.25766, 21.94659], [113.26782, 21.9433], [113.28564, 21.91812], [113.26788, 21.88665], [113.25847, 21.88045], [113.22585, 21.90083]]], [[[112.87941, 21.8752], [112.85157, 21.94831], [112.84083, 21.96092], [112.82602, 21.96613], [112.81479, 21.96158], [112.80038, 21.94718], [112.78859, 21.95181], [112.74374, 21.93195], [112.73763, 21.89688], [112.73064, 21.89047], [112.70045, 21.89033], [112.68555, 21.86987], [112.64511, 21.84935], [112.64745, 21.82247], [112.63306, 21.79581], [112.608, 21.7751], [112.57911, 21.76684], [112.55088, 21.77286], [112.44321, 21.82845], [112.42595, 21.84534], [112.41506, 21.86848], [112.41115, 21.90119], [112.42417, 21.91778], [112.48146, 21.94465], [112.49366, 21.96613], [112.43601, 21.9456], [112.4048, 21.94287], [112.39064, 21.95552], [112.37634, 21.98679], [112.39747, 22.06851], [112.37818, 22.05842], [112.36484, 22.03449], [112.35654, 21.97972], [112.37013, 21.93879], [112.39063, 21.90119], [112.38844, 21.86225], [112.39795, 21.85057], [112.40108, 21.83771], [112.40429, 21.81151], [112.4021, 21.80142], [112.39283, 21.78514], [112.38794, 21.7561], [112.36329, 21.73335], [112.28644, 21.70888], [112.24489, 21.70654], [112.22682, 21.72964], [112.1824, 21.753], [112.19898, 21.78681], [112.20314, 21.80671], [112.20094, 21.82673], [112.19264, 21.84317], [112.18221, 21.82315], [112.17269, 21.81445], [112.08554, 21.7961], [112.02817, 21.79736], [112.01304, 21.8044], [112.0071, 21.81867], [112.01295, 21.83462], [112.03736, 21.86249], [112.04127, 21.88418], [112.03443, 21.88418], [112.01881, 21.85981], [111.99317, 21.83418], [111.96926, 21.82406], [111.95167, 21.86498], [111.93409, 21.89045], [111.91188, 21.91356], [111.89039, 21.92512], [111.89064, 21.86738], [111.90406, 21.81525], [111.92066, 21.80004], [111.94638, 21.78588], [111.97511, 21.77619], [112.00024, 21.77431], [111.99176, 21.76371], [111.90577, 21.71589], [111.90413, 21.70173], [111.88409, 21.68272], [111.86766, 21.67672], [111.83889, 21.67814], [111.83694, 21.68529], [111.8423, 21.69904], [111.85377, 21.70742], [111.87672, 21.69855], [111.87534, 21.7097], [111.86061, 21.7215], [111.84938, 21.72582], [111.83608, 21.71718], [111.82935, 21.72892], [111.82895, 21.74921], [111.83505, 21.76683], [111.82228, 21.7521], [111.80667, 21.74333], [111.79396, 21.74454], [111.78793, 21.76], [111.75791, 21.75333], [111.72584, 21.76683], [111.72119, 21.76264], [111.70094, 21.76838], [111.67807, 21.78116], [111.69557, 21.76142], [111.76058, 21.72581], [111.77246, 21.70547], [111.77962, 21.67544], [111.77368, 21.65014], [111.74692, 21.64395], [111.77245, 21.63521], [111.78792, 21.61604], [111.72857, 21.61634], [111.7129, 21.62344], [111.69044, 21.60383], [111.66577, 21.55867], [111.65151, 21.54108], [111.63067, 21.52992], [111.61973, 21.53303], [111.60646, 21.54462], [111.59108, 21.57575], [111.58188, 21.58185], [111.58204, 21.55549], [111.59554, 21.53409], [111.53786, 21.52046], [111.52719, 21.53408], [111.52101, 21.53408], [111.5166, 21.52457], [111.50448, 21.51822], [111.47609, 21.51363], [111.46812, 21.51826], [111.46715, 21.52923], [111.47267, 21.55459], [111.45534, 21.55119], [111.44427, 21.56344], [111.43222, 21.60297], [111.41212, 21.57632], [111.41114, 21.56826], [111.41554, 21.55769], [111.43798, 21.5341], [111.3628, 21.54121], [111.3497, 21.52668], [111.37648, 21.5327], [111.40429, 21.52668], [111.3628, 21.50678], [111.34411, 21.48733], [111.29269, 21.45077], [111.26734, 21.43937], [111.25297, 21.44473], [111.26905, 21.45214], [111.30128, 21.49934], [111.23219, 21.52456], [111.21266, 21.52045], [111.20631, 21.53205], [111.19239, 21.5312], [111.15797, 21.52045], [111.15797, 21.51362], [111.17163, 21.51362], [111.16497, 21.50601], [111.17164, 21.49934], [111.19882, 21.50779], [111.2263, 21.49934], [111.16163, 21.47639], [111.14365, 21.46582], [111.13404, 21.47162], [111.0884, 21.47265], [111.08841, 21.48014], [111.12998, 21.49311], [111.12379, 21.50678], [111.10768, 21.4958], [111.08839, 21.49311], [111.07937, 21.49788], [111.07545, 21.51362], [111.03443, 21.53148], [111.0276, 21.54092], [111.02328, 21.52783], [110.98593, 21.51362], [110.9957, 21.50764], [111.00221, 21.48994], [111.01392, 21.48565], [111.00131, 21.46288], [110.99244, 21.45498], [110.97975, 21.45214], [110.97975, 21.44473], [111.00815, 21.4499], [111.01694, 21.45807], [111.02686, 21.47931], [111.04205, 21.4845], [111.0586, 21.48309], [111.06859, 21.47265], [111.04371, 21.46939], [110.99293, 21.42488], [110.96591, 21.43285], [110.86989, 21.38326], [110.80616, 21.4016], [110.79054, 21.40375], [110.76816, 21.39753], [110.74399, 21.38255], [110.70484, 21.34854], [110.67628, 21.30964], [110.65707, 21.26041], [110.65089, 21.2604], [110.6548, 21.3146], [110.66285, 21.33723], [110.67758, 21.34854], [110.66456, 21.34838], [110.65553, 21.34276], [110.64333, 21.32186], [110.64186, 21.33731], [110.63185, 21.35537], [110.63648, 21.37027], [110.67164, 21.38129], [110.69239, 21.39916], [110.72462, 21.40314], [110.75538, 21.4134], [110.76637, 21.44473], [110.76002, 21.44473], [110.72731, 21.41889], [110.63559, 21.38105], [110.61671, 21.3454], [110.61573, 21.30121], [110.64331, 21.25293], [110.63648, 21.23018], [110.61696, 21.2297], [110.57521, 21.24673], [110.5887, 21.22558], [110.48146, 21.21719], [110.46323, 21.21214], [110.43116, 21.19147], [110.42433, 21.19147], [110.43735, 21.23924], [110.4258, 21.26923], [110.43735, 21.27338], [110.43312, 21.28286], [110.42435, 21.28766], [110.43735, 21.29389], [110.46632, 21.28343], [110.47267, 21.27338], [110.47885, 21.27338], [110.48634, 21.30134], [110.46608, 21.29609], [110.44484, 21.30134], [110.44484, 21.30756], [110.48634, 21.32868], [110.48634, 21.33552], [110.47267, 21.33491], [110.46534, 21.32868], [110.46534, 21.34854], [110.43394, 21.30879], [110.42434, 21.32868], [110.42393, 21.34162], [110.43735, 21.39753], [110.43116, 21.39753], [110.41953, 21.37744], [110.40097, 21.38703], [110.36899, 21.42487], [110.3895, 21.44473], [110.3895, 21.45213], [110.35849, 21.43574], [110.39437, 21.364], [110.38949, 21.32869], [110.37648, 21.33552], [110.38265, 21.32186], [110.36818, 21.32534], [110.34498, 21.33885], [110.32814, 21.34227], [110.32814, 21.33552], [110.3567, 21.31916], [110.36629, 21.3061], [110.3628, 21.28766], [110.38499, 21.2709], [110.41057, 21.23256], [110.39413, 21.16274], [110.34742, 21.13321], [110.33374, 21.11637], [110.2693, 21.08918], [110.21884, 21.02759], [110.21023, 21.03458], [110.20558, 21.04938], [110.2046, 21.08222], [110.19557, 21.07128], [110.17794, 21.02034], [110.15687, 20.98622], [110.14308, 20.99226], [110.14308, 20.98603], [110.15478, 20.97728], [110.14926, 20.92398], [110.15779, 20.90029], [110.11724, 20.93938], [110.09437, 20.96825], [109.99566, 21.13753], [109.97227, 21.18704], [109.90869, 21.36129], [109.92408, 21.36278], [109.92408, 21.37027], [109.90481, 21.39069], [109.91758, 21.4138], [109.94052, 21.4372], [109.95126, 21.4584], [109.93345, 21.45381], [109.92458, 21.46504], [109.92726, 21.4798], [109.94443, 21.48566], [109.94443, 21.49311], [109.88061, 21.48182], [109.87682, 21.56213], [109.88963, 21.63186], [109.91654, 21.69753], [109.93514, 21.72841], [109.9816, 21.78434], [110.05298, 21.8391], [110.10377, 21.82199], [110.13701, 21.80611], [110.19656, 21.76752], [110.23484, 21.78433], [110.24709, 21.92908], [110.30297, 22.16417], [110.34526, 22.40813], [110.43966, 22.63896], [110.52983, 22.87715], [110.65496, 23.0888], [110.84229, 23.31968], [111.01344, 23.46828], [111.2246, 23.58084], [111.32537, 23.58042], [111.7288, 23.3211], [112.0915, 23.24132], [112.64016, 23.28763], [112.95174, 23.26867], [113.05003, 23.25392], [113.05649, 23.2573], [113.10305, 23.3194], [113.1568, 23.36693], [113.20635, 23.40087], [113.27238, 23.4323], [113.3082, 23.44371], [113.38119, 23.45656], [113.4645, 23.45584], [113.50351, 23.47549], [113.57153, 23.499], [113.64078, 23.5143], [113.71136, 23.52176], [113.71237, 23.53177], [113.63258, 23.66631], [113.36357, 23.83619], [113.65252, 23.95262], [113.94075, 24.02267], [114.23791, 24.04937], [114.73221, 24.02837], [115.06195, 24.02214], [115.38925, 24.05676], [115.8969, 24.18416], [116.4041, 24.32002], [116.86299, 24.51306], [117.15411, 24.64401], [117.67199, 24.95347], [118.04135, 25.1866], [118.16314, 25.29034], [118.27646, 25.39685], [118.38224, 25.50612], [118.73166, 25.97855], [118.73225, 25.98598], [118.71137, 26.03354], [118.69573, 26.10292], [118.6936, 26.1451], [118.70096, 26.21493], [118.71044, 26.24962], [118.73988, 26.31445], [118.76011, 26.34518], [118.80916, 26.39956], [118.83842, 26.4237], [118.89745, 26.45996], [118.94983, 26.46789], [119.05176, 26.50459], [119.16367, 26.50288], [119.1685, 26.51177], [119.15517, 26.55271], [119.16588, 26.55721], [119.21687, 26.60519], [119.28029, 26.64732], [119.55483, 26.80527], [119.62372, 26.83051], [119.66051, 26.83886], [119.73449, 26.84603], [119.79957, 26.84183], [119.78199, 26.82852], [119.7706, 26.81053], [119.76523, 26.79409], [119.77059, 26.75902], [119.76644, 26.74495], [119.75619, 26.73775], [119.74301, 26.73714], [119.73025, 26.74291], [119.73268, 26.76341], [119.72608, 26.78653], [119.71201, 26.80793], [119.69239, 26.81737], [119.6858, 26.812], [119.67628, 26.78587], [119.67799, 26.76313], [119.72738, 26.71792], [119.73022, 26.70474], [119.72494, 26.69783], [119.69614, 26.7082], [119.64601, 26.75332], [119.62656, 26.7491], [119.62038, 26.76557], [119.62184, 26.78677], [119.60605, 26.79694], [119.58456, 26.79462], [119.57553, 26.78803], [119.57942, 26.77644], [119.55763, 26.75877], [119.55209, 26.74909], [119.55152, 26.72516], [119.55893, 26.7082], [119.57081, 26.70327], [119.59595, 26.7033], [119.60604, 26.69452], [119.60822, 26.68332], [119.59992, 26.64628], [119.55893, 26.66657], [119.54444, 26.6625], [119.54111, 26.65632], [119.55421, 26.61518], [119.59237, 26.59088], [119.59986, 26.57038], [119.60605, 26.57038], [119.61912, 26.58796], [119.67506, 26.61879], [119.70094, 26.60859], [119.7352, 26.61196], [119.74219, 26.60862], [119.74291, 26.60198], [119.73642, 26.59146], [119.78491, 26.57782], [119.78491, 26.55051], [119.7706, 26.56411], [119.76173, 26.55073], [119.76588, 26.53437], [119.77915, 26.5207], [119.79858, 26.51577], [119.78492, 26.50202], [119.80225, 26.48944], [119.81764, 26.46232], [119.81227, 26.43378], [119.79176, 26.43378], [119.79176, 26.41332], [119.76198, 26.40747], [119.75204, 26.43146], [119.73764, 26.44367], [119.6898, 26.45947], [119.66456, 26.49213], [119.65366, 26.49803], [119.64095, 26.48217], [119.62037, 26.46798], [119.59986, 26.4748], [119.5796, 26.47089], [119.5713, 26.46572], [119.56642, 26.4549], [119.57309, 26.43781], [119.59409, 26.43358], [119.6163, 26.4374], [119.63087, 26.4487], [119.64844, 26.43744], [119.6543, 26.42902], [119.65553, 26.35562], [119.66529, 26.34016], [119.68872, 26.33758], [119.6819, 26.31712], [119.73569, 26.32221], [119.74708, 26.32762], [119.74839, 26.35887], [119.75441, 26.37204], [119.7706, 26.36494], [119.78012, 26.37499], [119.79176, 26.40648], [119.82575, 26.42693], [119.85132, 26.39281], [119.8401, 26.37857], [119.85581, 26.37762], [119.89479, 26.35871], [119.94995, 26.37229], [119.94995, 26.36494], [119.87745, 26.31339], [119.85475, 26.32754], [119.82675, 26.32835], [119.80112, 26.31757], [119.78492, 26.29662], [119.80541, 26.29043], [119.79273, 26.2841], [119.76442, 26.29662], [119.73267, 26.28507], [119.6736, 26.2805], [119.65431, 26.27241], [119.63412, 26.25507], [119.66821, 26.24201], [119.66481, 26.23164], [119.66821, 26.22151], [119.63697, 26.21166], [119.62501, 26.20295], [119.61353, 26.1822], [119.60011, 26.17634], [119.59181, 26.16641], [119.59985, 26.14582], [119.56113, 26.12499], [119.53736, 26.09683], [119.47316, 25.99714], [119.45851, 25.98249], [119.43556, 25.98136], [119.41505, 26.00926], [119.37338, 26.02228], [119.32692, 26.04804], [119.27711, 26.05292], [119.26124, 26.06053], [119.21583, 26.10008], [119.16115, 26.11165], [119.12021, 26.13593], [119.09352, 26.14582], [119.09352, 26.13959], [119.13648, 26.10293], [119.15732, 26.09077], [119.18149, 26.09862], [119.19516, 26.08759], [119.209, 26.0434], [119.24301, 25.99502], [119.24684, 25.96723], [119.29615, 25.95696], [119.32984, 25.94428], [119.34669, 25.94038], [119.37753, 25.94139], [119.40976, 25.94986], [119.44093, 25.96381], [119.49, 25.99421], [119.50001, 26.0102], [119.50424, 26.03596], [119.51905, 26.0445], [119.55429, 26.04564], [119.56642, 26.05023], [119.61939, 26.02351], [119.64845, 26.01545], [119.67506, 26.02227], [119.70055, 25.99538], [119.69897, 25.97256], [119.67504, 25.9261], [119.6543, 25.90694], [119.62355, 25.8994], [119.61647, 25.89265], [119.59986, 25.84421], [119.58408, 25.87694], [119.57423, 25.88491], [119.56642, 25.87206], [119.57789, 25.86237], [119.58302, 25.82022], [119.60791, 25.80516], [119.60605, 25.76903], [119.62085, 25.76032], [119.59645, 25.73151], [119.58993, 25.68717], [119.5726, 25.67969], [119.5643, 25.68968], [119.53541, 25.70588], [119.5228, 25.7058], [119.51734, 25.69018], [119.48707, 25.68732], [119.47706, 25.67969], [119.44907, 25.68716], [119.46705, 25.61392], [119.48323, 25.62565], [119.48105, 25.58047], [119.49244, 25.56476], [119.51734, 25.55679], [119.53443, 25.57586], [119.55844, 25.56379], [119.56813, 25.56904], [119.57941, 25.58459], [119.56837, 25.54743], [119.57228, 25.53343], [119.59309, 25.52948], [119.58302, 25.51732], [119.56642, 25.51581], [119.58164, 25.50926], [119.59983, 25.50836], [119.58741, 25.49872], [119.5726, 25.4947], [119.5726, 25.48786], [119.60359, 25.49115], [119.59986, 25.47484], [119.62219, 25.46952], [119.62789, 25.46157], [119.61402, 25.43879], [119.63412, 25.43325], [119.64526, 25.41047], [119.64599, 25.39257], [119.63729, 25.378], [119.62037, 25.36498], [119.65452, 25.35814], [119.57946, 25.34448], [119.58791, 25.36078], [119.59986, 25.37116], [119.57799, 25.41869], [119.59311, 25.43944], [119.57602, 25.46735], [119.56153, 25.46328], [119.55209, 25.45378], [119.53858, 25.46117], [119.53598, 25.41914], [119.542, 25.41279], [119.55615, 25.41046], [119.55819, 25.40461], [119.54444, 25.37719], [119.48327, 25.37117], [119.49781, 25.3994], [119.50424, 25.42988], [119.49221, 25.44038], [119.49074, 25.44693], [119.50734, 25.47443], [119.46616, 25.47484], [119.44684, 25.43892], [119.43557, 25.44693], [119.43313, 25.45954], [119.44907, 25.50528], [119.4419, 25.50951], [119.36598, 25.52071], [119.35654, 25.52692], [119.35288, 25.53974], [119.35605, 25.55073], [119.38087, 25.59089], [119.36036, 25.5773], [119.35289, 25.58466], [119.35629, 25.60004], [119.34303, 25.6092], [119.3226, 25.61103], [119.30519, 25.60456], [119.32136, 25.58735], [119.31055, 25.57788], [119.27784, 25.57046], [119.27198, 25.55752], [119.2688, 25.52693], [119.23759, 25.48158], [119.21528, 25.47034], [119.18336, 25.46499], [119.12885, 25.4301], [119.10255, 25.42032], [119.10963, 25.40681], [119.15699, 25.36261], [119.17319, 25.32514], [119.18312, 25.32941], [119.19239, 25.34203], [119.19533, 25.35813], [119.20337, 25.35813], [119.22315, 25.31661], [119.20151, 25.30634], [119.18149, 25.28925], [119.20126, 25.25971], [119.22584, 25.27969], [119.24122, 25.31257], [119.24302, 25.33021], [119.26515, 25.31757], [119.27369, 25.31859], [119.27785, 25.33021], [119.29833, 25.3166], [119.29135, 25.3166], [119.31886, 25.27936], [119.3475, 25.26776], [119.35286, 25.25849], [119.34424, 25.24239], [119.32374, 25.23799], [119.28126, 25.24144], [119.27247, 25.23176], [119.28882, 25.18912], [119.28125, 25.1794], [119.25588, 25.17593], [119.24275, 25.18999], [119.22938, 25.19322], [119.17563, 25.17651], [119.14198, 25.22098], [119.1161, 25.21378], [119.10179, 25.19663], [119.10418, 25.18295], [119.1338, 25.13841], [119.14657, 25.14373], [119.15307, 25.13971], [119.1499, 25.13159], [119.1338, 25.12475], [119.09327, 25.13565], [119.08546, 25.12474], [119.0991, 25.11117], [119.0648, 25.12475], [119.07919, 25.15209], [119.06471, 25.16254], [119.05323, 25.15762], [119.04591, 25.14305], [119.04444, 25.12477], [119.02908, 25.14053], [119.03404, 25.15867], [119.0691, 25.20368], [119.06886, 25.21674], [119.05738, 25.225], [119.03476, 25.22777], [118.98732, 25.22225], [118.96935, 25.22639], [118.98, 25.24485], [119.02495, 25.25929], [119.0273, 25.27824], [118.98365, 25.28303], [118.89649, 25.25751], [118.87558, 25.24384], [118.86484, 25.22797], [118.88404, 25.22036], [118.91113, 25.21722], [118.91382, 25.20869], [118.90927, 25.19571], [118.91529, 25.17939], [118.93276, 25.19446], [118.94825, 25.19716], [118.96314, 25.19366], [118.97461, 25.18256], [118.97217, 25.17207], [118.94898, 25.13695], [118.94906, 25.11897], [118.94296, 25.10884], [118.9214, 25.1014], [118.88559, 25.10615], [118.85768, 25.09805], [118.84897, 25.08662], [118.84913, 25.0738], [118.86012, 25.05655], [118.87794, 25.04072], [118.93513, 25.02236], [118.92832, 25.01488], [118.9537, 25.003], [118.96705, 25.00454], [118.97999, 25.01179], [118.99733, 25.05352], [119.00415, 25.05023], [118.99941, 25.02379], [118.98325, 24.9951], [118.99732, 24.95344], [119.01764, 24.96025], [119.00883, 24.9472], [118.99268, 24.93697], [118.97707, 24.93404], [118.96372, 24.95441], [118.91163, 24.95344], [118.90113, 24.93781], [118.90992, 24.90717], [118.93417, 24.88605], [118.96998, 24.89886], [118.97322, 24.89378], [118.96998, 24.8852], [118.97495, 24.88386], [118.97615, 24.87776], [118.95199, 24.87076], [118.92441, 24.86995], [118.89817, 24.87575], [118.86671, 24.89102], [118.82594, 24.87776], [118.79208, 24.8911], [118.7776, 24.8852], [118.78011, 24.86783], [118.76197, 24.85799], [118.71583, 24.84365], [118.69981, 24.85155], [118.6981, 24.85952], [118.70778, 24.87726], [118.72975, 24.8852], [118.7295, 24.90054], [118.72047, 24.9169], [118.69557, 24.94042], [118.69751, 24.90681], [118.69556, 24.89888], [118.6888, 24.89576], [118.68434, 24.91528], [118.68808, 24.92617], [118.66774, 24.95344], [118.64039, 24.9156], [118.67342, 24.88664], [118.67114, 24.87467], [118.65121, 24.8669], [118.62409, 24.86784], [118.57203, 24.8852], [118.6128, 24.85578], [118.6199, 24.84333], [118.61793, 24.80532], [118.63795, 24.77212], [118.64381, 24.7822], [118.66774, 24.78217], [118.68653, 24.79279], [118.70176, 24.81003], [118.71509, 24.79832], [118.71998, 24.76935], [118.74342, 24.77532], [118.76294, 24.76268], [118.76392, 24.7517], [118.74683, 24.7207], [118.73203, 24.71646], [118.69873, 24.67602], [118.68559, 24.66663], [118.65406, 24.69343], [118.6421, 24.6787], [118.636, 24.66376], [118.63356, 24.62788], [118.64023, 24.61693], [118.66414, 24.61224], [118.66149, 24.59052], [118.64657, 24.56843], [118.62045, 24.54549], [118.59083, 24.52807], [118.55398, 24.51806], [118.55089, 24.53731], [118.55446, 24.5532], [118.57814, 24.56021], [118.57114, 24.569], [118.50123, 24.60814], [118.47487, 24.61433], [118.44532, 24.62897], [118.42807, 24.63133], [118.43466, 24.659], [118.43124, 24.69969], [118.40089, 24.67231], [118.42188, 24.62451], [118.40479, 24.60665], [118.37989, 24.59025], [118.35165, 24.58236], [118.32504, 24.59032], [118.30714, 24.58833], [118.28403, 24.5978], [118.27295, 24.57442], [118.26319, 24.57039], [118.24985, 24.57612], [118.24178, 24.54378], [118.21901, 24.54146], [118.19436, 24.55647], [118.18117, 24.57612], [118.18166, 24.5978], [118.20509, 24.5987], [118.21583, 24.60399], [118.21518, 24.61481], [118.2037, 24.62153], [118.17434, 24.62451], [118.18759, 24.65738], [118.18141, 24.67276], [118.16049, 24.69343], [118.15747, 24.66267], [118.14145, 24.65697], [118.13738, 24.6336], [118.1128, 24.5978], [118.11035, 24.58406], [118.10337, 24.58479], [118.0923, 24.5978], [118.04444, 24.61766], [118.03696, 24.5978], [118.04476, 24.576], [118.03736, 24.56062], [118.02109, 24.55501], [118.00295, 24.56245], [118.00929, 24.58072], [117.99244, 24.57148], [117.97486, 24.55272], [117.97877, 24.54255], [118.02101, 24.53648], [118.04403, 24.52826], [118.0581, 24.51585], [118.03671, 24.49088], [118.00937, 24.48554], [117.99952, 24.47085], [118.02026, 24.45465], [118.02173, 24.44576], [117.99611, 24.44698], [117.91188, 24.47895], [117.86769, 24.48957], [117.82594, 24.48046], [117.88486, 24.46866], [117.9011, 24.45321], [117.81568, 24.47162], [117.79127, 24.46748], [117.79127, 24.46064], [117.8746, 24.39631], [117.90732, 24.38491], [117.98935, 24.39476], [118.03012, 24.41282], [118.04297, 24.40668], [118.04744, 24.39887], [118.04077, 24.36563], [118.02394, 24.35078], [118.01588, 24.32685], [118.02418, 24.32355], [118.05299, 24.3469], [118.07179, 24.34885], [118.09058, 24.34145], [118.10231, 24.31428], [118.11963, 24.29926], [118.12646, 24.26204], [118.10874, 24.26105], [118.08473, 24.2491], [118.07179, 24.25458], [118.02393, 24.20674], [117.98927, 24.1931], [117.97876, 24.1621], [117.96787, 24.15983], [117.95851, 24.20307], [117.94361, 24.21259], [117.93214, 24.20795], [117.90732, 24.18626], [117.93238, 24.17828], [117.93774, 24.16169], [117.9305, 24.1411], [117.89576, 24.08662], [117.89365, 24.07331], [117.89941, 24.04019], [117.89364, 24.02803], [117.86232, 24.03522], [117.83912, 24.02363], [117.77198, 23.95893], [117.75863, 23.91548], [117.74805, 23.90755], [117.73659, 23.90812], [117.72927, 23.91938], [117.7379, 23.9505], [117.79135, 24.00153], [117.79811, 24.0218], [117.78647, 24.02814], [117.76173, 24.01485], [117.75711, 24.0249], [117.77613, 24.0373], [117.76328, 24.07026], [117.75709, 24.07026], [117.75001, 24.0373], [117.72413, 24.03377], [117.69223, 24.04654], [117.66708, 24.06273], [117.67099, 24.048], [117.6797, 24.03905], [117.70875, 24.03547], [117.68849, 23.9975], [117.68727, 23.97907], [117.69507, 23.95356], [117.64863, 23.90923], [117.6336, 23.87416], [117.62554, 23.84015], [117.62601, 23.81223], [117.63925, 23.7941], [117.6194, 23.77481], [117.59168, 23.73709], [117.58747, 23.77778], [117.60201, 23.79895], [117.59816, 23.85244], [117.58237, 23.88931], [117.57106, 23.90327], [117.55673, 23.91324], [117.53736, 23.91938], [117.47462, 23.92097], [117.45485, 23.9256], [117.43019, 23.94375], [117.4166, 23.94684], [117.40707, 23.93305], [117.40968, 23.9134], [117.46852, 23.91193], [117.49958, 23.87407], [117.49006, 23.83258], [117.46347, 23.7883], [117.43433, 23.77593], [117.38242, 23.79523], [117.36891, 23.79263], [117.34555, 23.76855], [117.31911, 23.76163], [117.29257, 23.7895], [117.27735, 23.78221], [117.29231, 23.76215], [117.27192, 23.72131], [117.27623, 23.68775], [117.26796, 23.67979], [117.26365, 23.65542], [117.27911, 23.63627], [117.25692, 23.61552], [117.23897, 23.60549], [117.23554, 23.63982], [117.24409, 23.65755], [117.2295, 23.69282], [117.20851, 23.66494], [117.21725, 23.65227], [117.2192, 23.62964], [117.15083, 23.60687], [117.12845, 23.57236], [117.09946, 23.55432], [117.08423, 23.55062], [117.07842, 23.56461], [117.08356, 23.58895], [117.07601, 23.60463], [117.07788, 23.63883], [117.06841, 23.65127], [117.03427, 23.66132], [117.02345, 23.65868], [117.01831, 23.6479], [116.98536, 23.64023], [116.96505, 23.61543], [116.95073, 23.61089], [116.92759, 23.62475], [116.91757, 23.63793], [116.94093, 23.65868], [116.9275, 23.6645], [116.91652, 23.66275], [116.90088, 23.63446], [116.87745, 23.61835], [116.87208, 23.60688], [116.88403, 23.58661], [116.88336, 23.55988], [116.85499, 23.52489], [116.8497, 23.5113], [116.85426, 23.49738], [116.87261, 23.4738], [116.86662, 23.45024], [116.77322, 23.34944], [116.74631, 23.34924], [116.69288, 23.35993], [116.65785, 23.35446], [116.56895, 23.39103], [116.55788, 23.40176], [116.55348, 23.41425], [116.54322, 23.42121], [116.53175, 23.42255], [116.5232, 23.41852], [116.5232, 23.37751], [116.53321, 23.36188], [116.57301, 23.32368], [116.58798, 23.31611], [116.60841, 23.32045], [116.64189, 23.31884], [116.661, 23.33722], [116.69099, 23.33896], [116.70941, 23.31977], [116.72707, 23.31612], [116.73012, 23.33074], [116.74863, 23.32628], [116.76562, 23.29735], [116.77711, 23.24038], [116.78618, 23.23572], [116.79427, 23.23961], [116.8048, 23.23612], [116.78394, 23.2124], [116.70558, 23.2766], [116.66725, 23.28132], [116.67921, 23.27139], [116.709, 23.25853], [116.71508, 23.24381], [116.67117, 23.21464], [116.64675, 23.163], [116.63703, 23.16403], [116.6293, 23.17397], [116.61523, 23.17836], [116.61815, 23.22148], [116.61151, 23.23873], [116.56998, 23.24697], [116.50888, 23.23412], [116.50929, 23.21638], [116.52699, 23.20062], [116.5642, 23.22299], [116.60295, 23.21773], [116.6045, 23.20956], [116.6015, 23.19658], [116.56992, 23.17769], [116.54512, 23.14478], [116.53365, 23.10914], [116.55164, 23.08672], [116.5485, 23.0664], [116.56324, 23.01878], [116.54785, 23.00605], [116.52194, 22.99841], [116.51846, 22.96746], [116.49468, 22.93936], [116.45851, 22.94742], [116.37961, 22.92899], [116.35305, 22.93807], [116.33825, 22.95186], [116.29849, 22.96326], [116.28906, 22.97894], [116.26226, 22.97374], [116.21363, 22.98282], [116.20102, 22.97346], [116.23487, 22.96027], [116.25229, 22.95905], [116.26938, 22.96662], [116.28145, 22.95786], [116.24618, 22.9316], [116.22101, 22.91901], [116.17098, 22.86447], [116.1448, 22.84776], [116.0957, 22.82591], [116.08469, 22.84977], [116.09125, 22.86841], [116.12372, 22.89473], [116.08701, 22.90656], [116.0421, 22.93292], [116.04188, 22.92232], [116.08724, 22.88969], [116.07618, 22.86787], [116.04786, 22.8518], [116.03745, 22.8509], [116.01179, 22.83805], [115.99672, 22.83668], [115.96608, 22.81721], [115.95801, 22.80475], [115.93326, 22.80599], [115.90374, 22.78939], [115.8835, 22.79462], [115.84321, 22.77003], [115.82595, 22.74665], [115.81026, 22.7461], [115.79782, 22.75446], [115.78805, 22.79783], [115.79502, 22.80027], [115.80649, 22.77827], [115.81357, 22.77627], [115.81276, 22.79955], [115.80478, 22.81509], [115.76324, 22.84149], [115.73687, 22.85167], [115.69705, 22.85068], [115.70358, 22.86932], [115.68428, 22.87779], [115.68248, 22.88817], [115.69265, 22.90008], [115.70517, 22.90736], [115.72128, 22.90453], [115.73373, 22.93187], [115.73032, 22.93423], [115.69199, 22.92902], [115.65333, 22.89375], [115.57789, 22.87726], [115.56056, 22.84931], [115.53989, 22.85293], [115.53298, 22.86205], [115.54762, 22.89541], [115.50563, 22.89778], [115.46827, 22.9265], [115.45094, 22.93187], [115.44239, 22.92967], [115.43831, 22.92037], [115.43018, 22.91821], [115.40602, 22.92504], [115.42726, 22.90062], [115.44614, 22.89997], [115.45542, 22.90973], [115.4642, 22.91201], [115.483, 22.90184], [115.49609, 22.88031], [115.49414, 22.86078], [115.46803, 22.85676], [115.46803, 22.84931], [115.50563, 22.8493], [115.53036, 22.83832], [115.55942, 22.83609], [115.57789, 22.84317], [115.6006, 22.86187], [115.61204, 22.86358], [115.59132, 22.84748], [115.53897, 22.7889], [115.52702, 22.76704], [115.52394, 22.74177], [115.55559, 22.71437], [115.56733, 22.74727], [115.58618, 22.74509], [115.59, 22.73741], [115.56251, 22.70563], [115.56422, 22.68488], [115.57498, 22.66833], [115.53616, 22.66813], [115.46482, 22.70103], [115.43826, 22.7006], [115.42126, 22.69025], [115.3943, 22.68969], [115.37351, 22.69419], [115.34839, 22.71719], [115.33849, 22.7331], [115.35068, 22.74689], [115.38893, 22.74689], [115.42413, 22.76199], [115.41121, 22.78827], [115.38624, 22.7829], [115.36399, 22.76365], [115.33057, 22.78854], [115.28914, 22.79155], [115.2334, 22.78822], [115.23278, 22.80533], [115.32016, 22.85053], [115.3248, 22.85956], [115.30943, 22.86937], [115.31715, 22.90453], [115.3038, 22.90302], [115.27223, 22.87385], [115.24561, 22.83536], [115.23146, 22.83008], [115.21729, 22.83489], [115.19601, 22.8319], [115.17294, 22.82119], [115.18026, 22.78482], [115.15828, 22.79243], [115.15057, 22.80963], [115.13288, 22.81145], [115.11138, 22.8021], [115.06548, 22.79599], [115.04566, 22.77586], [115.03662, 22.75374], [115.01783, 22.73704], [115.03078, 22.71732], [115.02889, 22.70839], [114.99877, 22.7022], [114.98534, 22.68932], [114.95984, 22.69613], [114.95467, 22.70354], [114.95658, 22.71574], [114.94166, 22.75385], [114.92677, 22.76118], [114.91675, 22.74406], [114.90312, 22.74893], [114.88906, 22.76375], [114.87672, 22.76796], [114.86252, 22.76322], [114.88187, 22.74752], [114.8862, 22.73608], [114.87814, 22.72964], [114.88074, 22.72147], [114.89045, 22.71406], [114.90286, 22.71393], [114.91, 22.7236], [114.92672, 22.71692], [114.96662, 22.67649], [114.93873, 22.65729], [114.90194, 22.59806], [114.90521, 22.57844], [114.9191, 22.56116], [114.89596, 22.54753], [114.88365, 22.55093], [114.88023, 22.55911], [114.88923, 22.57289], [114.88682, 22.59087], [114.86582, 22.60175], [114.83223, 22.60208], [114.80641, 22.59252], [114.77461, 22.59769], [114.75415, 22.58973], [114.74379, 22.60941], [114.73746, 22.66904], [114.74999, 22.67872], [114.75378, 22.69339], [114.73889, 22.71065], [114.74196, 22.73265], [114.75255, 22.74965], [114.80202, 22.77337], [114.81324, 22.77485], [114.82125, 22.79056], [114.81695, 22.80039], [114.78476, 22.81586], [114.77524, 22.81582], [114.75488, 22.78169], [114.73414, 22.7758], [114.71673, 22.7908], [114.69548, 22.79264], [114.6838, 22.78134], [114.64548, 22.76701], [114.63778, 22.75508], [114.5796, 22.73338], [114.56332, 22.73273], [114.57108, 22.70236], [114.55209, 22.69454], [114.54225, 22.69531], [114.52206, 22.70596], [114.52377, 22.68722], [114.49958, 22.65311], [114.50661, 22.64652], [114.54822, 22.64454], [114.58252, 22.65525], [114.59033, 22.64387], [114.57765, 22.63589], [114.56087, 22.6088], [114.52914, 22.59833], [114.51393, 22.58735], [114.49537, 22.56196], [114.50204, 22.55085], [114.50929, 22.54955], [114.52955, 22.55512], [114.53697, 22.56704], [114.54322, 22.56939], [114.55478, 22.55732], [114.59306, 22.542], [114.61141, 22.52884], [114.61767, 22.51415], [114.60751, 22.50439], [114.57053, 22.4843], [114.54216, 22.47799], [114.51581, 22.45265], [114.50156, 22.4521], [114.48513, 22.46834], [114.48325, 22.48456], [114.47683, 22.4899], [114.48015, 22.50015], [114.47642, 22.50942], [114.48699, 22.52192], [114.47958, 22.54621], [114.45574, 22.5705], [114.44036, 22.56869], [114.43304, 22.59109], [114.4087, 22.61164], [114.3956, 22.61351], [114.34026, 22.5979], [114.32846, 22.60546], [114.32455, 22.59855], [114.31715, 22.60236], [114.30535, 22.59418], [114.30713, 22.58544], [114.30217, 22.58296], [114.27621, 22.58796], [114.22983, 22.55581], [114.23471, 22.55618], [114.21485, 22.53449], [114.20997, 22.53449], [114.20932, 22.52371], [114.2304, 22.53294], [114.24203, 22.5502], [114.24903, 22.54784], [114.25456, 22.55096], [114.25765, 22.54783], [114.25327, 22.53946], [114.25921, 22.5408], [114.27003, 22.52558], [114.27801, 22.52984], [114.27768, 22.51166], [114.28517, 22.51118], [114.28924, 22.50519], [114.29851, 22.501], [114.33277, 22.51193], [114.33512, 22.50642], [114.30543, 22.48302], [114.28045, 22.47289], [114.25375, 22.45178], [114.24595, 22.45178], [114.23121, 22.46979], [114.21713, 22.46735], [114.21176, 22.47057], [114.21095, 22.4573], [114.21712, 22.44796], [114.20224, 22.45808], [114.16749, 22.44807], [114.21175, 22.42059], [114.20997, 22.41275], [114.21485, 22.40888], [114.20932, 22.39867], [114.21559, 22.40034], [114.23822, 22.43536], [114.26719, 22.43072], [114.26718, 22.41596], [114.27255, 22.40965], [114.27646, 22.41983], [114.28899, 22.42601], [114.27647, 22.44399], [114.30161, 22.45653], [114.30081, 22.46504], [114.32373, 22.48004], [114.32504, 22.47521], [114.33072, 22.4741], [114.32504, 22.46426], [114.33569, 22.46173], [114.33806, 22.44636], [114.33277, 22.44001], [114.33741, 22.43159], [114.34278, 22.43769], [114.34758, 22.42292], [114.35231, 22.42369], [114.35157, 22.44098], [114.35987, 22.46117], [114.36784, 22.45498], [114.37021, 22.44001], [114.39974, 22.43614], [114.40128, 22.41276], [114.38176, 22.41905], [114.37021, 22.39798], [114.37501, 22.40054], [114.38493, 22.38735], [114.38973, 22.36596], [114.37639, 22.37063], [114.37949, 22.36209], [114.37568, 22.35368], [114.36085, 22.34577], [114.35759, 22.33244], [114.35231, 22.3395], [114.35231, 22.35192], [114.34196, 22.34578], [114.33277, 22.35977], [114.33432, 22.37531], [114.3204, 22.38076], [114.31861, 22.38939], [114.30006, 22.38158], [114.28598, 22.39098], [114.278, 22.39098], [114.26873, 22.37845], [114.2798, 22.35501], [114.27645, 22.34806], [114.26718, 22.35578], [114.26637, 22.36595], [114.25839, 22.36209], [114.25554, 22.3559], [114.2658, 22.34634], [114.27255, 22.32071], [114.29126, 22.31655], [114.29208, 22.30516], [114.30388, 22.3067], [114.3116, 22.29731], [114.2977, 22.28563], [114.28899, 22.28718], [114.28956, 22.27391], [114.30005, 22.27704], [114.30314, 22.26919], [114.30314, 22.26216], [114.29672, 22.25829], [114.27833, 22.27047], [114.2798, 22.27936], [114.27337, 22.29576], [114.26482, 22.30195], [114.26637, 22.31599], [114.25554, 22.32233], [114.25302, 22.29578], [114.23894, 22.28168], [114.21176, 22.31057], [114.21485, 22.30117], [114.19549, 22.31826], [114.18653, 22.30874], [114.19142, 22.2989], [114.18369, 22.30195], [114.18165, 22.29442], [114.17189, 22.28872], [114.15952, 22.32225], [114.12436, 22.34223], [114.12355, 22.33716], [114.11337, 22.35269], [114.11101, 22.36595], [114.10483, 22.36986], [114.0975, 22.36302], [114.07911, 22.36595], [114.06723, 22.359], [114.05795, 22.36131], [114.02052, 22.35037], [114.01499, 22.35347], [114.01498, 22.359], [113.99863, 22.35901], [113.98268, 22.36678], [113.97063, 22.38707], [113.96437, 22.38068], [113.97462, 22.37206], [113.95493, 22.36986], [113.94483, 22.3621], [113.91441, 22.37613], [113.9183, 22.38784], [113.897, 22.40876], [113.90944, 22.4186], [113.93068, 22.41983], [113.94101, 22.42678], [113.95412, 22.44948], [113.97755, 22.45885], [113.99863, 22.48854], [114.0127, 22.4861], [114.01116, 22.47289], [114.02988, 22.47826], [114.03062, 22.4955], [114.05795, 22.50487], [114.06577, 22.51586], [114.0853, 22.52294], [114.08237, 22.52936], [114.07968, 22.52375], [114.05844, 22.517], [114.05527, 22.50694], [114.042, 22.50678], [114.03541, 22.51423], [113.99928, 22.53063], [113.97061, 22.53373], [113.9638, 22.53811], [113.96028, 22.52847], [113.95194, 22.52384], [113.94775, 22.49041], [113.91033, 22.48583], [113.90967, 22.47765], [113.89035, 22.45273], [113.88148, 22.47333], [113.87428, 22.47839], [113.86617, 22.51148], [113.89389, 22.52114], [113.87989, 22.53669], [113.84361, 22.56211], [113.82221, 22.58749], [113.79917, 22.631], [113.79357, 22.66161], [113.77294, 22.67245], [113.76466, 22.73481], [113.75807, 22.7534], [113.7444, 22.76118], [113.71217, 22.76333], [113.69972, 22.76118], [113.68458, 22.7469], [113.67238, 22.74691], [113.65359, 22.75874], [113.66261, 22.79808], [113.65528, 22.81924], [113.63273, 22.85284], [113.6172, 22.89029], [113.61012, 22.86205], [113.61718, 22.83628], [113.60557, 22.84724], [113.60233, 22.86656], [113.61036, 22.90453], [113.59799, 22.88964], [113.59604, 22.88058], [113.59231, 22.88907], [113.61134, 22.93378], [113.62436, 22.99921], [113.63819, 23.0349], [113.63071, 23.0349], [113.61671, 23.00788], [113.5967, 22.91822], [113.59506, 22.94477], [113.6041, 22.97346], [113.60507, 23.00141], [113.6172, 23.0349], [113.59921, 23.00922], [113.58668, 22.95356], [113.57621, 22.93876], [113.58383, 22.97846], [113.58302, 23.02123], [113.55413, 22.98777], [113.54201, 22.98653], [113.53267, 22.99598], [113.52834, 23.03803], [113.53639, 23.06314], [113.55641, 23.08413], [113.58212, 23.09846], [113.63722, 23.10912], [113.69199, 23.13254], [113.72022, 23.13793], [113.75807, 23.12157], [113.78443, 23.13174], [113.83009, 23.1175], [113.81324, 23.12979], [113.76108, 23.13793], [113.71982, 23.15534], [113.70314, 23.15778], [113.67392, 23.15046], [113.62648, 23.11799], [113.59327, 23.11066], [113.542, 23.08641], [113.53688, 23.07502], [113.50933, 23.06222], [113.49419, 23.06283], [113.44516, 23.08934], [113.41749, 23.09699], [113.39869, 23.08332], [113.41928, 23.0655], [113.45143, 23.06231], [113.48121, 23.0515], [113.5023, 23.02042], [113.50383, 22.98983], [113.48097, 22.9357], [113.48397, 22.92427], [113.47372, 22.91821], [113.42994, 22.93134], [113.33652, 22.89777], [113.30763, 22.89411], [113.21298, 22.91201], [113.21298, 22.90453], [113.25807, 22.89777], [113.29225, 22.87726], [113.35043, 22.88972], [113.36792, 22.88068], [113.44003, 22.80414], [113.49421, 22.77485], [113.45192, 22.75511], [113.43954, 22.73945], [113.42604, 22.74942], [113.37753, 22.7674], [113.39503, 22.7482], [113.45362, 22.72573], [113.46632, 22.7165], [113.47633, 22.69986], [113.55302, 22.63849], [113.56384, 22.61444], [113.59916, 22.57518], [113.59472, 22.52339], [113.56251, 22.48041], [113.54636, 22.43758], [113.55157, 22.39584], [113.55812, 22.38076], [113.58164, 22.37132], [113.61034, 22.37018], [113.59796, 22.34336], [113.61748, 22.36619], [113.70023, 22.38257], [113.76559, 22.35881], [113.71365, 22.29096], [113.57467, 22.29046], [113.57721, 22.26664], [113.58998, 22.25341], [113.58765, 22.23789], [113.5612, 22.23373], [113.55286, 22.21901], [113.53858, 22.22175], [113.52296, 22.21304], [113.52988, 22.20226], [113.48374, 22.15515], [113.45903, 22.15816], [113.42564, 22.18623], [113.41188, 22.22553], [113.36452, 22.26777], [113.3602, 22.29316], [113.35157, 22.30834], [113.3032, 22.3437], [113.27638, 22.37206], [113.25563, 22.40388], [113.24269, 22.45747], [113.23194, 22.47907], [113.17758, 22.56411], [113.16529, 22.57559], [113.16017, 22.48762], [113.2273, 22.42527], [113.32851, 22.26848], [113.3542, 22.24332], [113.40195, 22.17958], [113.35084, 22.17154], [113.32545, 22.18366], [113.30274, 22.1833], [113.2821, 22.14525], [113.27353, 22.13837], [113.26344, 22.13703], [113.25099, 22.11567], [113.24659, 22.10346], [113.25587, 22.08267], [113.24715, 22.05428], [113.23056, 22.04316], [113.19469, 22.0464], [113.17831, 22.04091], [113.15747, 22.02471], [113.13964, 22.03686], [113.11887, 22.06584], [113.11066, 22.09896], [113.12452, 22.13109], [113.11826, 22.14375], [113.12745, 22.16096], [113.1133, 22.18741], [113.11061, 22.21931], [113.08505, 22.20759], [113.07728, 22.14727], [113.05803, 22.12128], [113.02661, 22.14321], [113.02064, 22.12598], [113.0221, 22.10115], [113.0161, 22.05771], [113.02272, 22.00253], [113.01897, 21.97702], [113.02861, 21.96115], [113.02561, 21.94943], [113.01667, 21.94254], [112.98935, 21.93732], [112.97957, 21.90119], [112.95707, 21.87566], [112.91159, 21.8563], [112.87941, 21.8752]]], [[[113.18816, 21.96], [113.1828, 21.96049], [113.18004, 21.97077], [113.19239, 22.03376], [113.20004, 22.03844], [113.2491, 22.03835], [113.23951, 22.0233], [113.24902, 22.00476], [113.22332, 22.00056], [113.20159, 21.98876], [113.19613, 21.9672], [113.18816, 21.96]]], [[[113.41259, 22.07598], [113.41032, 22.06355], [113.39145, 22.02753], [113.40161, 22.01845], [113.40575, 22.00704], [113.3235, 22.01196], [113.30943, 22.02412], [113.3436, 22.0685], [113.37273, 22.08015], [113.37778, 22.08901], [113.38266, 22.08957], [113.3899, 22.07469], [113.39894, 22.06851], [113.41259, 22.07598]]], [[[113.51889, 22.12725], [113.5271, 22.12587], [113.53272, 22.12031], [113.52711, 22.10611], [113.53256, 22.09536], [113.54747, 22.09242], [113.5389, 22.08211], [113.48493, 22.0714], [113.47024, 22.07763], [113.47348, 22.09854], [113.466, 22.10152], [113.46487, 22.10814], [113.47175, 22.11414], [113.51889, 22.12725]]], [[[113.31513, 22.15408], [113.32308, 22.15789], [113.32797, 22.14582], [113.34722, 22.15644], [113.36474, 22.1579], [113.33632, 22.10071], [113.31364, 22.07641], [113.28907, 22.06852], [113.26881, 22.08832], [113.26417, 22.10493], [113.27174, 22.12002], [113.29868, 22.12857], [113.31513, 22.15408]]], [[[113.57488, 22.13504], [113.58594, 22.13193], [113.58748, 22.12487], [113.57748, 22.12665], [113.57797, 22.12093], [113.57404, 22.11938], [113.56674, 22.12336], [113.56632, 22.1077], [113.55738, 22.11115], [113.5468, 22.10537], [113.54111, 22.11327], [113.54526, 22.11424], [113.54233, 22.14073], [113.53229, 22.15274], [113.53445, 22.1612], [113.55291, 22.16583], [113.57407, 22.16053], [113.57179, 22.1529], [113.56324, 22.15058], [113.56023, 22.14155], [113.57252, 22.13732], [113.57796, 22.13963], [113.57488, 22.13504]]], [[[113.52019, 22.18488], [113.53525, 22.20755], [113.5337, 22.21076], [113.52735, 22.20755], [113.52434, 22.21255], [113.53525, 22.21463], [113.53891, 22.22077], [113.55389, 22.21129], [113.5568, 22.20356], [113.54843, 22.20205], [113.55071, 22.19896], [113.55712, 22.20245], [113.55071, 22.19587], [113.55151, 22.18957], [113.52476, 22.17374], [113.52019, 22.18488]]], [[[113.93304, 22.32224], [113.93613, 22.31843], [113.94254, 22.32223], [113.93149, 22.29271], [113.92368, 22.31344], [113.93304, 22.32224]]], [[[113.64234, 22.4002], [113.62119, 22.39143], [113.61228, 22.39797], [113.61183, 22.43046], [113.62338, 22.43986], [113.64959, 22.43856], [113.65786, 22.43202], [113.65329, 22.41374], [113.64242, 22.41142], [113.64234, 22.4002]]], [[[113.63567, 22.65647], [113.6451, 22.62511], [113.64182, 22.60163], [113.62802, 22.5958], [113.60262, 22.61153], [113.56243, 22.65568], [113.47651, 22.71951], [113.47655, 22.73126], [113.5255, 22.74486], [113.54676, 22.74187], [113.5595, 22.73499], [113.5732, 22.7007], [113.60393, 22.68494], [113.63567, 22.65647]]], [[[113.59457, 22.7561], [113.57985, 22.75374], [113.55828, 22.75789], [113.54462, 22.76879], [113.52858, 22.80215], [113.52117, 22.78792], [113.50612, 22.79805], [113.4808, 22.84931], [113.47397, 22.84931], [113.47315, 22.8254], [113.45591, 22.83077], [113.40226, 22.88272], [113.39618, 22.8981], [113.40512, 22.90811], [113.43295, 22.912], [113.47559, 22.90069], [113.4878, 22.8928], [113.52602, 22.84781], [113.54672, 22.83487], [113.573, 22.83005], [113.58766, 22.79462], [113.60286, 22.77244], [113.60278, 22.76265], [113.59457, 22.7561]]], [[[113.52377, 22.89669], [113.50997, 22.92122], [113.50575, 22.95161], [113.51538, 22.96921], [113.52921, 22.95924], [113.52919, 22.94859], [113.54513, 22.93776], [113.55359, 22.91128], [113.55353, 22.88582], [113.54501, 22.87997], [113.52377, 22.89669]]], [[[114.20674, 22.02579], [114.29298, 22.05781], [114.2986, 22.06712], [114.31006, 22.06858], [114.30727, 22.0582], [114.26869, 22.0351], [114.22242, 22.02168], [114.20674, 22.02579]]], [[[114.26636, 22.17869], [114.26946, 22.16479], [114.25612, 22.15459], [114.25068, 22.16234], [114.26636, 22.17869]]], [[[114.24286, 22.18496], [114.25374, 22.18651], [114.25611, 22.18187], [114.24286, 22.17557], [114.24286, 22.18496]]], [[[113.98374, 22.19896], [113.99065, 22.19208], [113.9891, 22.18652], [113.97757, 22.19343], [113.98374, 22.19896]]], [[[114.0252, 22.20576], [114.0345, 22.20522], [114.03142, 22.19588], [114.02678, 22.19896], [114.01581, 22.1919], [114.015, 22.19818], [114.0252, 22.20576]]], [[[114.13909, 22.19111], [114.14534, 22.17871], [114.11087, 22.17708], [114.11411, 22.21613], [114.10427, 22.21598], [114.10669, 22.23557], [114.11328, 22.23334], [114.12574, 22.21345], [114.13281, 22.21612], [114.13282, 22.20995], [114.12574, 22.20523], [114.15461, 22.2036], [114.13909, 22.19111]]], [[[114.15634, 22.23176], [114.14436, 22.23668], [114.14218, 22.24189], [114.15634, 22.23884], [114.15634, 22.23176]]], [[[114.24368, 22.20128], [114.23276, 22.21149], [114.2295, 22.23359], [114.22267, 22.23884], [114.21681, 22.23432], [114.22267, 22.23253], [114.22267, 22.22476], [114.21176, 22.21613], [114.21867, 22.20601], [114.21559, 22.19896], [114.21948, 22.19189], [114.2077, 22.18957], [114.20606, 22.20523], [114.20932, 22.20755], [114.20655, 22.21239], [114.19608, 22.20756], [114.19143, 22.20995], [114.19606, 22.21532], [114.18907, 22.21923], [114.1937, 22.22553], [114.19142, 22.23098], [114.18271, 22.23254], [114.18385, 22.24103], [114.16489, 22.22786], [114.16098, 22.24038], [114.12909, 22.24889], [114.11883, 22.26919], [114.11257, 22.27152], [114.11334, 22.27759], [114.13909, 22.28871], [114.1657, 22.27936], [114.17888, 22.27936], [114.19679, 22.29186], [114.21559, 22.28563], [114.22177, 22.27936], [114.23585, 22.27782], [114.25148, 22.25883], [114.25146, 22.24889], [114.24529, 22.24189], [114.25374, 22.22399], [114.24903, 22.2224], [114.2561, 22.20361], [114.24368, 22.20128]]], [[[114.28826, 22.23254], [114.28135, 22.23884], [114.28289, 22.24968], [114.29599, 22.25442], [114.29839, 22.24246], [114.28826, 22.23254]]], [[[114.02053, 22.2552], [114.04225, 22.25597], [114.04273, 22.2412], [114.03835, 22.24121], [114.02053, 22.2552]]], [[[114.01889, 22.26459], [113.99537, 22.26777], [114.00725, 22.25211], [113.99244, 22.2412], [114.01497, 22.22708], [114.00016, 22.21615], [113.98195, 22.20824], [113.98064, 22.23725], [113.94565, 22.23725], [113.9284, 22.22399], [113.92148, 22.22399], [113.9183, 22.21922], [113.92838, 22.21691], [113.92838, 22.21077], [113.91911, 22.20503], [113.90627, 22.20402], [113.89405, 22.21534], [113.89251, 22.2224], [113.84668, 22.19717], [113.83922, 22.20491], [113.83921, 22.23419], [113.84921, 22.2342], [113.84923, 22.24412], [113.85678, 22.246], [113.85678, 22.25226], [113.85061, 22.25678], [113.86761, 22.27073], [113.8768, 22.27228], [113.89251, 22.2927], [113.92148, 22.29186], [113.9284, 22.28486], [113.96193, 22.30116], [113.97674, 22.29808], [113.98374, 22.30902], [113.99244, 22.31057], [113.99953, 22.32225], [114.01716, 22.33538], [114.02052, 22.32852], [114.04379, 22.34577], [114.05486, 22.33633], [114.04808, 22.32162], [114.03142, 22.32457], [114.02962, 22.309], [114.01271, 22.31135], [114.01271, 22.29808], [114.02213, 22.3019], [114.01759, 22.28905], [114.01889, 22.26459]]], [[[114.31952, 22.32381], [114.31633, 22.33633], [114.32887, 22.33714], [114.33122, 22.32612], [114.31952, 22.32381]]], [[[114.10482, 22.32613], [114.08905, 22.32227], [114.08713, 22.33719], [114.07911, 22.34964], [114.07911, 22.35578], [114.0853, 22.359], [114.10255, 22.35346], [114.10874, 22.34024], [114.10482, 22.32613]]], [[[114.3078, 22.34257], [114.30315, 22.36522], [114.31088, 22.37612], [114.31634, 22.37613], [114.31951, 22.359], [114.32887, 22.35037], [114.32887, 22.34256], [114.3078, 22.34257]]], [[[114.29599, 22.34884], [114.28972, 22.35346], [114.28901, 22.36908], [114.29282, 22.3714], [114.29599, 22.34884]]], [[[114.36312, 22.4861], [114.3654, 22.47444], [114.35914, 22.46581], [114.35305, 22.48066], [114.35833, 22.48687], [114.36312, 22.4861]]], [[[114.30852, 22.52602], [114.31706, 22.51816], [114.30006, 22.50641], [114.29363, 22.5128], [114.30315, 22.51427], [114.30852, 22.52602]]], [[[114.28899, 22.5408], [114.28599, 22.54707], [114.28918, 22.55625], [114.2977, 22.5502], [114.30852, 22.55405], [114.3163, 22.55174], [114.29518, 22.54784], [114.30077, 22.53528], [114.28899, 22.5408]]], [[[117.063, 23.47845], [117.09033, 23.46108], [117.10215, 23.46799], [117.10895, 23.48228], [117.12561, 23.48269], [117.12257, 23.46552], [117.13408, 23.46046], [117.14178, 23.44965], [117.13735, 23.41957], [117.12877, 23.39938], [117.08288, 23.41114], [117.0489, 23.40472], [117.00401, 23.41976], [116.94811, 23.42182], [116.943, 23.43006], [116.96748, 23.45303], [116.98219, 23.45945], [117.00026, 23.44156], [117.01002, 23.43895], [117.03758, 23.4469], [117.04909, 23.47407], [117.063, 23.47845]]], [[[116.93605, 23.53555], [116.95777, 23.54491], [116.97435, 23.55937], [117.00513, 23.56292], [117.00927, 23.555], [116.9878, 23.52412], [116.97096, 23.51465], [116.95094, 23.51741], [116.93728, 23.52628], [116.93605, 23.53555]]], [[[116.94914, 23.5912], [116.96697, 23.60082], [116.97114, 23.59396], [116.96062, 23.57412], [116.95826, 23.54735], [116.92947, 23.53954], [116.92376, 23.54345], [116.91889, 23.555], [116.94597, 23.57449], [116.94914, 23.5912]]], [[[117.49594, 23.72016], [117.48416, 23.71079], [117.47654, 23.68943], [117.47982, 23.66268], [117.46722, 23.65795], [117.44484, 23.66494], [117.43267, 23.66012], [117.42115, 23.64646], [117.41538, 23.60822], [117.42383, 23.60199], [117.43154, 23.58264], [117.37446, 23.57267], [117.3205, 23.57403], [117.33783, 23.59645], [117.36912, 23.62236], [117.39373, 23.67919], [117.3755, 23.6894], [117.36394, 23.69147], [117.34645, 23.68477], [117.34052, 23.68896], [117.34247, 23.69965], [117.37669, 23.72886], [117.37567, 23.7473], [117.37924, 23.74681], [117.37275, 23.76674], [117.38592, 23.77415], [117.40431, 23.77416], [117.41358, 23.77167], [117.41977, 23.7543], [117.44778, 23.74225], [117.4689, 23.75308], [117.50395, 23.74992], [117.52665, 23.7401], [117.51618, 23.71629], [117.49594, 23.72016]]], [[[118.22023, 24.40755], [118.20901, 24.41161], [118.23293, 24.4506], [118.24903, 24.45282], [118.2627, 24.4418], [118.26253, 24.43098], [118.24016, 24.41284], [118.22023, 24.40755]]], [[[118.16391, 24.47191], [118.15381, 24.43709], [118.13648, 24.42928], [118.11403, 24.43062], [118.09206, 24.43848], [118.07357, 24.45256], [118.07001, 24.46027], [118.07224, 24.46759], [118.10304, 24.47988], [118.10621, 24.49413], [118.08229, 24.48233], [118.07473, 24.48396], [118.07204, 24.49787], [118.09255, 24.5562], [118.11135, 24.54599], [118.1631, 24.53197], [118.1814, 24.53509], [118.18929, 24.50308], [118.18872, 24.49413], [118.18099, 24.48367], [118.16391, 24.47191]]], [[[118.38141, 24.47351], [118.3854, 24.50381], [118.39422, 24.52268], [118.42237, 24.52793], [118.44958, 24.50552], [118.46734, 24.46183], [118.46335, 24.43153], [118.44878, 24.41553], [118.4229, 24.4303], [118.40362, 24.43601], [118.37286, 24.4332], [118.34576, 24.41758], [118.33098, 24.39649], [118.31822, 24.39056], [118.28395, 24.40128], [118.27957, 24.40843], [118.28886, 24.41998], [118.29233, 24.44062], [118.28209, 24.47736], [118.31666, 24.49334], [118.35481, 24.47056], [118.38141, 24.47351]]], [[[118.29771, 24.56143], [118.30713, 24.56751], [118.32398, 24.56915], [118.33382, 24.56354], [118.33268, 24.54784], [118.32651, 24.54325], [118.29771, 24.56143]]], [[[118.77337, 24.50488], [118.87136, 24.63362], [118.96061, 24.76656], [119.04762, 24.65895], [119.03608, 24.61109], [118.87517, 24.49996], [118.77337, 24.50488]]], [[[119.47607, 24.99489], [119.47363, 24.98087], [119.4629, 24.97591], [119.45795, 24.98005], [119.46039, 24.99078], [119.47607, 24.99489]]], [[[119.12143, 25.02747], [119.10501, 25.04844], [119.11826, 25.06167], [119.10925, 25.08073], [119.15414, 25.10268], [119.1569, 25.10065], [119.13608, 25.07941], [119.14355, 25.05561], [119.12412, 25.03661], [119.12143, 25.02747]]], [[[119.5228, 25.20844], [119.55129, 25.20944], [119.56754, 25.2049], [119.5534, 25.19526], [119.54819, 25.18598], [119.54866, 25.17244], [119.54216, 25.16536], [119.52899, 25.16536], [119.51735, 25.17146], [119.51093, 25.18232], [119.51271, 25.1988], [119.50327, 25.2038], [119.48894, 25.19629], [119.46101, 25.20349], [119.44948, 25.21435], [119.44469, 25.22907], [119.44655, 25.23598], [119.47039, 25.25217], [119.47587, 25.25062], [119.4917, 25.24139], [119.50262, 25.22102], [119.5228, 25.20844]]], [[[119.82623, 25.5474], [119.81861, 25.5458], [119.8047, 25.53262], [119.79884, 25.51581], [119.80641, 25.49584], [119.83968, 25.47914], [119.84651, 25.46118], [119.82106, 25.46752], [119.79461, 25.46304], [119.77198, 25.45059], [119.75782, 25.43325], [119.75733, 25.40495], [119.72199, 25.4139], [119.70388, 25.42358], [119.69306, 25.43765], [119.69778, 25.4566], [119.71176, 25.46955], [119.70997, 25.48786], [119.68922, 25.48047], [119.66848, 25.48786], [119.68621, 25.50771], [119.74855, 25.50259], [119.76637, 25.50625], [119.77833, 25.52204], [119.7588, 25.53075], [119.72633, 25.52514], [119.71617, 25.53632], [119.73048, 25.581], [119.72706, 25.59089], [119.71876, 25.59125], [119.70265, 25.57732], [119.69273, 25.59423], [119.69875, 25.61261], [119.73048, 25.64615], [119.74545, 25.64908], [119.76329, 25.65938], [119.78173, 25.65916], [119.77589, 25.63573], [119.78028, 25.61742], [119.792, 25.60456], [119.80372, 25.61073], [119.81348, 25.60882], [119.82904, 25.59441], [119.86545, 25.62451], [119.99129, 25.43871], [120.04328, 25.31949], [119.96024, 25.34031], [119.88501, 25.46275], [119.82623, 25.5474]]], [[[119.30515, 25.54353], [119.33172, 25.57126], [119.34328, 25.5733], [119.35206, 25.55223], [119.33058, 25.46735], [119.33496, 25.43798], [119.29689, 25.42293], [119.2816, 25.46382], [119.28151, 25.48289], [119.30515, 25.54353]]], [[[119.66539, 25.64428], [119.67709, 25.65565], [119.681, 25.65184], [119.71704, 25.66391], [119.71876, 25.64557], [119.71453, 25.64024], [119.67661, 25.63647], [119.66539, 25.64428]]], [[[119.57187, 25.64025], [119.59621, 25.66835], [119.608, 25.66966], [119.60679, 25.65865], [119.57772, 25.63159], [119.56342, 25.637], [119.55911, 25.64366], [119.56545, 25.64902], [119.57187, 25.64025]]], [[[119.99007, 25.96929], [119.98942, 25.96146], [119.96658, 25.94744], [119.97585, 25.96673], [119.98528, 25.96487], [119.99007, 25.96929]]], [[[119.94199, 25.98089], [119.95238, 25.97606], [119.93735, 25.96489], [119.92858, 25.97667], [119.94199, 25.98089]]], [[[119.24334, 26.05707], [119.25758, 26.04755], [119.3698, 26.01423], [119.40118, 25.99606], [119.40495, 25.97794], [119.39063, 25.967], [119.38112, 25.967], [119.29054, 25.99527], [119.25757, 26.00147], [119.24684, 26.02656], [119.21778, 26.05903], [119.20924, 26.09858], [119.2212, 26.08954], [119.24334, 26.05707]]], [[[119.57488, 26.11953], [119.59936, 26.12811], [119.62695, 26.10789], [119.64404, 26.07844], [119.63884, 26.07051], [119.62037, 26.06421], [119.56529, 26.08048], [119.55397, 26.09566], [119.57488, 26.11953]]], [[[119.96427, 26.16055], [119.95345, 26.14969], [119.92628, 26.13899], [119.91669, 26.14481], [119.91376, 26.15298], [119.91961, 26.16933], [119.92358, 26.16986], [119.92457, 26.1625], [119.93686, 26.15811], [119.95363, 26.16684], [119.96403, 26.16693], [119.96427, 26.16055]]], [[[119.98129, 26.21524], [119.97103, 26.19239], [119.96511, 26.20002], [119.96898, 26.22024], [119.99407, 26.23305], [120.00358, 26.23179], [120.01416, 26.22036], [120.01351, 26.20582], [119.99887, 26.21939], [119.98129, 26.21524]]], [[[120.03542, 26.52105], [120.06185, 26.52443], [120.06543, 26.51687], [120.06079, 26.50105], [120.03143, 26.49353], [120.02794, 26.49637], [120.03542, 26.52105]]], [[[120.16358, 26.59902], [120.16097, 26.57735], [120.12859, 26.55607], [120.1164, 26.56972], [120.13413, 26.58242], [120.14984, 26.60553], [120.16358, 26.59902]]], [[[119.76491, 26.60884], [119.76044, 26.61628], [119.7702, 26.62701], [119.79461, 26.63218], [119.81363, 26.6236], [119.8073, 26.61295], [119.79274, 26.61514], [119.7754, 26.60392], [119.76491, 26.60884]]], [[[119.97683, 26.67401], [119.98634, 26.67963], [120.01148, 26.72116], [120.03232, 26.71662], [120.032, 26.72858], [120.05779, 26.76078], [120.12109, 26.70654], [120.10768, 26.70132], [120.10206, 26.68915], [120.10361, 26.67528], [120.1207, 26.64606], [120.13436, 26.65349], [120.13436, 26.64607], [120.08042, 26.61743], [120.07522, 26.62149], [120.07651, 26.63011], [120.08668, 26.63923], [120.07968, 26.64606], [120.01517, 26.61136], [119.95997, 26.61127], [119.94874, 26.60615], [119.94117, 26.59333], [119.93563, 26.56046], [119.88428, 26.52319], [119.84718, 26.52364], [119.83571, 26.5314], [119.83263, 26.55048], [119.83596, 26.5615], [119.85377, 26.56411], [119.85378, 26.59829], [119.86851, 26.61005], [119.92897, 26.62564], [119.98414, 26.65351], [119.97683, 26.67401]]], [[[119.74919, 26.66345], [119.72234, 26.65009], [119.7155, 26.64168], [119.69662, 26.6385], [119.67449, 26.64423], [119.66408, 26.64111], [119.65513, 26.66112], [119.65765, 26.66807], [119.71599, 26.66835], [119.72698, 26.66267], [119.73529, 26.67737], [119.75074, 26.67934], [119.75643, 26.67487], [119.74919, 26.66345]]], [[[119.90447, 26.68618], [119.90594, 26.69237], [119.94409, 26.69537], [119.93556, 26.67748], [119.94238, 26.6631], [119.93214, 26.67048], [119.92645, 26.66903], [119.9236, 26.67914], [119.90447, 26.68618]]], [[[119.92407, 26.73249], [119.90187, 26.71011], [119.88803, 26.68724], [119.90161, 26.65974], [119.85695, 26.65352], [119.85377, 26.68769], [119.82919, 26.71499], [119.79177, 26.68771], [119.80227, 26.76679], [119.81154, 26.77577], [119.8401, 26.79003], [119.81577, 26.79759], [119.79177, 26.79004], [119.79738, 26.81639], [119.83696, 26.8362], [119.92234, 26.82127], [120.00502, 26.79103], [119.9463, 26.79694], [119.92514, 26.79218], [119.92368, 26.78124], [119.93562, 26.75902], [119.92407, 26.73249]]]]}}]}