{"type": "FeatureCollection", "features": [{"type": "Feature", "properties": {"name": "파키스탄령 카슈미르", "name_en": "Pakistan-administered Kashmir", "period": "1947년 이후(2019년 기준)", "kind": "기타", "legend": "파키스탄령 카슈미르", "map_title": "카슈미르 분쟁 지역", "source": "미래엔 세계사 교과서 4권 204쪽", "volume": 4, "page": 204, "coast_snap": "Natural Earth 10m 해안선에 맞춤", "border_snap": "현대 국경(Natural Earth 10m)에 맞춘 구간 약 1786 km", "group": "파키스탄령 카슈미르", "map_folder": "4권_p204_카슈미르 분쟁 지역"}, "geometry": {"type": "MultiPolygon", "coordinates": [[[[74.6169, 33.31996], [74.31126, 32.99429], [74.28397, 33.00881], [74.19085, 33.02209], [74.15385, 33.04018], [74.09845, 33.10483], [74.06579, 33.1326], [74.02941, 33.15415], [74.00234, 33.17769], [73.98849, 33.20862], [73.99179, 33.25257], [74.00172, 33.27017], [74.01784, 33.27949], [74.05536, 33.29203], [74.072, 33.30228], [74.09597, 33.32848], [74.13628, 33.41801], [74.14393, 33.44515], [74.61043, 33.3365], [74.6169, 33.31996]]], [[[73.58773, 34.94571], [73.60206, 34.97817], [73.61553, 34.99145], [73.67198, 35.0097], [73.78116, 35.028], [73.83247, 35.04323], [73.90943, 35.09702], [74.01565, 35.18828], [74.17428, 35.33762], [74.17864, 35.34692], [74.17575, 35.35656], [74.04334, 35.52949], [73.91127, 35.52694], [73.78208, 35.51491], [73.72756, 35.62891], [73.69628, 35.70667], [73.68511, 35.78041], [73.69133, 35.81431], [73.57984, 35.88257], [73.46393, 35.94549], [73.34416, 36.00277], [73.19262, 36.06572], [73.15194, 36.09223], [73.13212, 36.13268], [73.08463, 36.4168], [72.74061, 36.29689], [72.61744, 36.36765], [72.45411, 36.75796], [72.51674, 36.8006], [72.56521, 36.8206], [72.6296, 36.83295], [72.69585, 36.83672], [72.77936, 36.8268], [72.86773, 36.83042], [72.94586, 36.85222], [72.97676, 36.84209], [72.99051, 36.84158], [73.02627, 36.85946], [73.0425, 36.86426], [73.19184, 36.87703], [73.2675, 36.86654], [73.33178, 36.88209], [73.37974, 36.87925], [73.44588, 36.88648], [73.50934, 36.87868], [73.64008, 36.89664], [73.69484, 36.89473], [73.70923, 37.21701], [73.71998, 37.21755], [73.74612, 37.23054], [73.78395, 37.22589], [73.79821, 37.22853], [73.83625, 37.25675], [73.8564, 37.26158], [73.89929, 37.26548], [73.95562, 37.28677], [74.05215, 37.31225], [74.11824, 37.32286], [74.36614, 37.14776], [74.38257, 37.12657], [74.4144, 37.10784], [74.47662, 37.08314], [74.49702, 37.0616], [74.57735, 37.03285], [74.62607, 37.04275], [74.66245, 37.05448], [74.67795, 37.05169], [74.69222, 37.03588], [74.71919, 37.01645], [74.79257, 37.01516], [74.82451, 36.99412], [74.85324, 36.95898], [74.86089, 36.94689], [74.86678, 36.91656], [74.87236, 36.9071], [74.8858, 36.91144], [74.892, 36.92098], [74.90078, 36.94992], [74.9105, 36.96255], [74.94233, 36.977], [74.97685, 36.98428], [75.01447, 36.98449], [75.10015, 36.99412], [75.11855, 36.99123], [75.13281, 36.9847], [75.16123, 36.96421], [75.19513, 36.94888], [75.31347, 36.92875], [75.3513, 36.91578], [75.37796, 36.89429], [75.3945, 36.86426], [75.41052, 36.74732], [75.43191, 36.72293], [75.49258, 36.72071], [75.49888, 36.72763], [75.50798, 36.74763], [75.57051, 36.76675], [75.64978, 36.75404], [75.72874, 36.72319], [75.79055, 36.68784], [75.84977, 36.64474], [75.87478, 36.61947], [75.97658, 36.46263], [75.98743, 36.42119], [75.96862, 36.34181], [75.96883, 36.30197], [75.97658, 36.28698], [76.01193, 36.24812], [76.01441, 36.2304], [75.9834, 36.21541], [75.97007, 36.20234], [75.96914, 36.19169], [75.97741, 36.17376], [75.97658, 36.16275], [75.97152, 36.155], [75.91457, 36.12389], [75.90144, 36.11361], [75.89431, 36.09738], [75.9, 36.06348], [75.92232, 36.03165], [75.95302, 36.00726], [75.98433, 35.99563], [76.06143, 35.9916], [76.08996, 35.97812], [76.11466, 35.94179], [76.12376, 35.90349], [76.12779, 35.8621], [76.13812, 35.82665], [76.16603, 35.80624], [76.1898, 35.805], [76.26039, 35.81782], [76.29656, 35.8095], [76.31196, 35.80965], [76.34886, 35.83099], [76.3841, 35.8282], [76.40312, 35.83099], [76.42245, 35.8543], [76.43206, 35.8605], [76.4765, 35.86525], [76.50017, 35.87151], [76.53717, 35.90251], [76.55546, 35.89786], [76.56528, 35.86546], [76.55112, 35.78402], [76.57076, 35.75126], [76.60424, 35.7357], [76.67669, 35.71379], [76.70904, 35.69405], [76.74542, 35.65503], [76.81213, 35.57769], [76.91865, 35.36748], [77.14126, 35.52538], [76.94384, 35.31794], [76.96669, 35.27293], [76.78201, 34.93089], [76.75762, 34.91513], [76.74956, 34.89208], [76.75328, 34.83834], [76.74387, 34.81927], [76.65261, 34.74698], [76.63959, 34.74114], [76.55319, 34.72584], [76.53582, 34.7262], [76.51991, 34.73111], [76.4765, 34.75778], [76.43816, 34.76289], [76.39992, 34.75075], [76.26204, 34.68465], [76.15497, 34.66166], [76.12179, 34.66088], [76.05833, 34.68341], [76.0234, 34.67716], [76.00748, 34.66512], [75.97338, 34.62233], [75.93927, 34.61205], [75.87395, 34.57138], [75.81618, 34.52167], [75.79582, 34.50792], [75.77711, 34.50381], [75.71365, 34.50852], [75.65557, 34.49697], [75.61164, 34.49836], [75.34809, 34.55722], [75.30696, 34.57401], [75.26748, 34.5983], [75.23688, 34.63189], [75.21291, 34.64497], [75.17632, 34.64538], [75.111, 34.63365], [75.01778, 34.62972], [74.66493, 34.68832], [74.41213, 34.76449], [74.34888, 34.77343], [74.28583, 34.76889], [74.22175, 34.74775], [74.14682, 34.70186], [74.12088, 34.69085], [73.96223, 34.66817], [73.94859, 34.66274], [73.91934, 34.64254], [73.58773, 34.94571]]]]}}]}