{"type": "FeatureCollection", "features": [{"type": "Feature", "properties": {"name": "만리장성(서부 구간)", "category": "경계선", "period": "기원전 2세기", "legend": "만리장성", "map_title": "한 무제의 대외 팽창 정책", "source": "미래엔 세계사 교과서 1권 25쪽", "volume": 1, "page": 25}, "geometry": {"type": "LineString", "coordinates": [[98.54002, 40.61363], [99.69382, 40.16963], [100.84576, 39.80897], [102.05274, 39.62315], [103.44118, 40.466], [104.36974, 41.15712], [105.56559, 41.55683], [106.81544, 41.87227], [108.06439, 42.07448], [109.34999, 42.17592], [110.64381, 42.169], [111.88588, 42.14595], [113.12288, 42.15895], [114.37518, 42.2102], [115.63443, 42.28319], [116.88792, 42.38244], [118.13695, 42.51407], [118.86073, 42.60647], [119.33691, 42.67271], [120.0467, 42.75629], [120.51566, 42.82051], [120.99893, 42.83673], [121.72543, 42.87639], [122.19673, 42.84513], [122.91692, 42.80975]]}}, {"type": "Feature", "properties": {"name": "만리장성(남쪽 갈래)", "category": "경계선", "period": "기원전 2세기", "legend": "만리장성", "map_title": "한 무제의 대외 팽창 정책", "source": "미래엔 세계사 교과서 1권 25쪽", "volume": 1, "page": 25}, "geometry": {"type": "LineString", "coordinates": [[103.05444, 40.00314], [103.00241, 39.50146], [102.79497, 38.51883], [102.61956, 37.56805]]}}, {"type": "Feature", "properties": {"name": "흉노 축출 1", "category": "진격로", "period": "기원전 2세기", "legend": "흉노 축출", "map_title": "한 무제의 대외 팽창 정책", "source": "미래엔 세계사 교과서 1권 25쪽", "volume": 1, "page": 25}, "geometry": {"type": "LineString", "coordinates": [[99.17545, 40.86053], [99.40937, 41.41633], [99.7274, 42.15692], [100.05145, 42.89771], [100.46361, 43.82514]]}}, {"type": "Feature", "properties": {"name": "흉노 축출 2", "category": "진격로", "period": "기원전 2세기", "legend": "흉노 축출", "map_title": "한 무제의 대외 팽창 정책", "source": "미래엔 세계사 교과서 1권 25쪽", "volume": 1, "page": 25}, "geometry": {"type": "LineString", "coordinates": [[102.59978, 39.66635], [102.57485, 40.65243], [102.56807, 41.24425], [102.56712, 41.63891], [102.56902, 42.03372], [102.57715, 42.62638], [102.59138, 43.21985], [102.61136, 43.81446]]}}, {"type": "Feature", "properties": {"name": "흉노 축출 3", "category": "진격로", "period": "기원전 2세기", "legend": "흉노 축출", "map_title": "한 무제의 대외 팽창 정책", "source": "미래엔 세계사 교과서 1권 25쪽", "volume": 1, "page": 25}, "geometry": {"type": "LineString", "coordinates": [[106.40215, 41.37758], [105.92401, 42.06436], [105.56848, 42.58409], [105.09984, 43.28291], [104.7531, 43.81118]]}}]}