{"type": "FeatureCollection", "features": [{"type": "Feature", "properties": {"map_title": "청대의 중국", "source": "미래엔 세계사 교과서 3권 119쪽", "volume": 3, "page": 119, "name": "청(번부)", "name_en": "Qing dependencies (Fanbu)", "period": "18세기 후반", "kind": "국가", "legend": "번부", "coast_snap": "Natural Earth 10m 해안선에 맞춤", "border_snap": "현대 국경(Natural Earth 10m)에 맞춘 구간 약 1734 km", "group": "청(번부)", "map_folder": "3권_p119_청대의 중국"}, "geometry": {"type": "Polygon", "coordinates": [[[95.76126, 28.15265], [95.81295, 28.12442], [95.66432, 28.17094], [95.71383, 28.16501], [95.6117, 28.18693], [95.66431, 28.17083], [95.6394, 28.17359], [95.64013, 28.15497], [95.62978, 28.13258], [95.58773, 28.08303], [95.51558, 28.0214], [95.41325, 27.94893], [95.34339, 27.8875], [95.30938, 27.86479], [95.28278, 27.85342], [95.18553, 27.84551], [95.13747, 27.83636], [94.9891, 27.69635], [94.86122, 27.60413], [94.83856, 27.5594], [94.80884, 27.47258], [94.76666, 27.42462], [94.75294, 27.40049], [94.73078, 27.39285], [94.72422, 27.38501], [94.71795, 27.36463], [94.71878, 27.32897], [93.52219, 27.34504], [92.34532, 27.3479], [92.08878, 27.29234], [92.0236, 27.44678], [91.97509, 27.47243], [92.03484, 27.60996], [92.03724, 27.62688], [91.98235, 27.7322], [91.53824, 27.59774], [91.18049, 27.58116], [91.14708, 27.74956], [91.08912, 27.97093], [91.05194, 27.96279], [91.00884, 27.96677], [90.97515, 27.98209], [90.90952, 28.03266], [90.85092, 28.04403], [90.7887, 28.04749], [90.7269, 28.0617], [90.6839, 28.08707], [90.66747, 28.09033], [90.65104, 28.087], [90.62189, 28.07297], [90.57528, 28.06583], [90.59029, 27.83865], [90.48556, 27.78787], [90.33599, 27.89198], [89.70613, 27.84333], [89.69723, 27.91186], [89.51503, 28.0819], [89.49534, 28.068], [89.47534, 28.06134], [89.45881, 28.0478], [89.4264, 28.00287], [89.20075, 28.10847], [89.12131, 28.11533], [89.05804, 28.07078], [88.81771, 27.99488], [88.81967, 27.97734], [88.80975, 27.9445], [88.81068, 27.92786], [88.8189, 27.9152], [88.84277, 27.89241], [88.85156, 27.87716], [88.85507, 27.85918], [88.85388, 27.84368], [88.80567, 27.65511], [88.78309, 27.62204], [88.55388, 27.71315], [88.47543, 27.65707], [88.44632, 27.62924], [88.39591, 27.56642], [88.29017, 27.38541], [88.03931, 27.42949], [88.04163, 27.43807], [88.02809, 27.45512], [88.0221, 27.48424], [88.02334, 27.49491], [88.04876, 27.54535], [87.75423, 27.81945], [87.72682, 27.80776], [87.70047, 27.80564], [87.65995, 27.81988], [87.63608, 27.82365], [87.58998, 27.80461], [87.57334, 27.80502], [87.56507, 27.81086], [87.55133, 27.83189], [87.53159, 27.8368], [87.47557, 27.8267], [87.38679, 27.8044], [87.36912, 27.80394], [87.36912, 27.81908], [87.38069, 27.83582], [87.38534, 27.84941], [87.36385, 27.85525], [87.33584, 27.84636], [87.31393, 27.82859], [87.29052, 27.81608], [87.2329, 27.82972], [87.182, 27.8245], [87.1558, 27.8258], [87.11001, 27.59641], [87.00615, 27.54612], [85.93421, 27.44703], [85.27302, 27.71299], [84.96276, 27.53099], [84.63578, 27.75282], [84.50957, 27.49949], [83.93112, 27.90905], [83.45087, 27.9373], [83.40323, 28.30362], [82.94716, 28.23612], [82.17061, 28.5895], [82.11317, 28.95773], [81.85981, 29.05067], [81.42856, 28.9067], [80.97576, 29.30722], [80.34479, 29.62], [79.70917, 29.92857], [79.57353, 30.05943], [79.46333, 30.12415], [79.37024, 30.14149], [79.28564, 30.13024], [79.20071, 30.10913], [79.10657, 30.09692], [78.99418, 30.11229], [78.8543, 30.17392], [78.79614, 30.21002], [78.56987, 30.36837], [78.44701, 30.43901], [78.3798, 30.46796], [78.33476, 30.48185], [78.14998, 30.50884], [78.06276, 30.52708], [78.0224, 30.54289], [77.95201, 30.58206], [77.88587, 30.62834], [77.76244, 30.73628], [77.58499, 30.91432], [77.47106, 31.01801], [77.38708, 31.08078], [77.29617, 31.13331], [77.18093, 31.17662], [77.06528, 31.19975], [76.94995, 31.21007], [76.723, 31.22176], [76.6126, 31.2379], [76.50498, 31.27076], [76.40063, 31.32771], [76.33833, 31.38592], [76.27915, 31.46502], [76.09678, 31.74858], [76.02663, 31.83213], [75.94798, 31.89698], [75.85863, 31.93522], [75.79714, 31.93997], [75.74206, 31.92694], [75.69135, 31.90116], [75.54494, 31.79743], [75.49116, 31.77079], [75.43143, 31.75643], [75.35472, 31.75486], [75.28533, 31.76538], [75.22118, 31.78564], [75.16024, 31.81326], [75.11007, 31.84142], [74.96786, 32.03789], [74.95566, 32.03221], [74.93137, 32.02983], [74.90884, 32.0319], [74.8891, 32.0289], [74.87319, 32.01169], [74.82864, 32.02544], [74.81128, 32.00373], [74.80249, 31.96885], [74.78368, 31.94286], [74.76301, 31.93898], [74.69842, 31.95025], [74.50828, 32.11372], [74.4719, 32.12856], [74.36007, 32.18475], [74.26246, 32.25003], [74.17755, 32.33089], [74.1038, 32.43377], [74.03965, 32.5651], [73.94415, 32.81327], [73.90306, 32.90461], [73.85478, 32.99453], [73.79776, 33.07958], [73.73049, 33.15633], [73.65144, 33.22134], [73.55537, 33.27636], [73.46591, 33.31202], [73.30356, 33.35889], [73.22902, 33.38686], [73.15776, 33.42905], [73.08888, 33.49381], [73.02147, 33.58948], [72.84157, 33.87957], [72.73884, 34.02599], [72.63739, 34.1544], [72.50219, 34.30411], [72.36606, 34.42886], [72.2166, 34.53945], [72.05275, 34.63238], [71.89537, 34.69922], [71.56366, 34.81507], [71.40432, 34.8773], [71.25925, 34.95127], [71.13586, 35.04366], [71.04159, 35.16115], [70.98397, 35.31039], [70.97143, 35.43211], [70.98615, 35.53023], [71.01697, 35.61246], [71.08212, 35.75987], [71.09406, 35.84033], [71.07729, 35.93544], [71.0206, 36.05272], [70.98026, 36.09907], [70.9236, 36.14281], [70.79123, 36.22889], [70.73046, 36.27441], [70.68324, 36.32376], [70.65707, 36.37858], [70.65946, 36.4405], [70.69358, 36.50862], [70.74248, 36.54523], [70.80192, 36.55895], [70.86771, 36.55838], [71.00169, 36.54872], [71.06158, 36.55689], [71.1112, 36.5852], [71.18467, 36.67999], [71.20326, 36.76579], [71.17688, 36.84417], [71.11552, 36.91664], [71.02918, 36.98467], [70.72094, 37.17709], [70.65971, 37.2216], [70.55785, 37.31451], [70.51623, 37.36361], [70.44906, 37.46881], [70.24608, 37.62127], [70.24096, 37.61714], [70.21647, 37.61714], [70.19942, 37.57928], [70.1927, 37.57603], [70.15787, 37.54143], [70.12914, 37.53228], [70.09906, 37.53657], [70.06919, 37.5452], [70.0417, 37.54885], [70.048, 37.54143], [70.00759, 37.54885], [69.9895, 37.56732], [69.9554, 37.57548], [69.93524, 37.60566], [69.91881, 37.61714], [69.89525, 37.61817], [69.85329, 37.60122], [69.823, 37.59295], [69.80223, 37.58151], [69.78445, 37.59042], [69.75427, 37.59667], [69.72957, 37.59409], [69.6873, 37.57959], [69.66498, 37.57616], [69.52866, 37.58603], [69.50866, 37.57897], [69.49145, 37.53699], [69.46974, 37.52014], [69.42541, 37.49425], [69.23522, 37.65583], [69.19607, 37.64539], [69.12228, 37.63918], [69.06787, 37.64665], [69.01205, 37.66147], [68.74697, 37.76662], [68.56556, 37.82034], [68.49028, 37.83143], [68.24873, 37.94895], [68.23302, 37.9398], [68.21773, 37.93608], [68.17111, 37.93107], [68.13995, 37.9227], [68.12223, 37.90833], [68.07965, 37.80627], [68.05019, 37.76041], [67.97733, 37.67974], [67.92338, 37.63879], [67.87186, 37.5868], [67.82922, 37.52794], [67.80122, 37.46645], [67.79734, 37.42443], [67.81718, 37.34542], [67.81963, 37.29632], [67.72587, 37.23354], [67.6775, 37.23354], [67.64464, 37.25122], [67.63316, 37.25406], [67.59229, 37.24719], [67.57218, 37.22316], [67.56138, 37.2199], [67.545, 37.23153], [67.52614, 37.27289], [67.50314, 37.28196], [67.48237, 37.27736], [67.43111, 37.23977], [67.39116, 37.21959], [67.31959, 37.20843], [67.28145, 37.18866], [67.25913, 37.18515], [67.23675, 37.19241], [67.22528, 37.2077], [67.20797, 37.24346], [67.18782, 37.25824], [67.14348, 37.27186], [67.12332, 37.28196], [67.11392, 37.29718], [67.09738, 37.34059], [67.08508, 37.34963], [67.2137, 37.5566], [67.28642, 37.75413], [67.30391, 37.84227], [67.30508, 37.93288], [67.2885, 38.15173], [67.28044, 38.53514], [67.27011, 38.63048], [67.25153, 38.72607], [67.15093, 39.02524], [67.09689, 39.21585], [67.02347, 39.4282], [67.00643, 39.50078], [66.99976, 39.57156], [67.00745, 39.63891], [67.0335, 39.70123], [67.08015, 39.74949], [67.24007, 39.87536], [67.29493, 39.906], [67.33659, 39.92134], [67.37831, 39.93043], [67.46303, 39.93216], [67.55127, 39.91583], [67.7308, 39.86327], [67.8161, 39.84934], [67.85943, 39.84792], [67.95044, 39.85938], [68.03274, 39.88605], [68.09784, 39.92527], [68.13382, 39.96032], [68.19878, 40.04778], [68.24626, 40.13709], [68.2776, 40.22796], [68.2942, 40.32006], [68.2969, 40.3976], [68.43091, 40.597], [68.2261, 40.67886], [68.15892, 40.71912], [68.0675, 40.788], [68.03707, 40.80108], [67.99748, 40.80754], [67.99092, 40.8111], [67.99407, 40.81896], [68.00306, 40.82516], [68.0382, 40.8372], [68.05474, 40.84722], [68.08058, 40.87296], [68.11076, 40.93166], [68.12058, 40.9653], [68.12088, 40.99383], [68.10786, 41.01026], [68.0997, 41.01362], [68.13132, 41.02964], [68.11892, 41.03403], [68.12145, 41.04328], [68.11737, 41.06674], [68.09598, 41.06514], [68.08213, 41.04272], [68.07138, 41.05331], [68.05908, 41.05476], [68.03438, 41.04272], [68.02115, 41.05915], [68.01319, 41.09785], [68.00306, 41.11563], [67.95893, 41.15945], [67.94948, 41.17191], [67.93743, 41.20038], [68.2184, 41.2893], [68.2234, 41.30595], [68.27117, 41.39995], [68.33864, 41.48592], [68.40882, 41.53972], [68.49808, 41.58405], [68.69804, 41.66427], [68.79091, 41.71012], [68.86716, 41.76646], [68.91789, 41.83832], [68.93418, 41.93066], [68.90663, 42.03168], [68.83948, 42.10581], [68.74309, 42.16052], [68.62793, 42.20322], [68.38335, 42.2823], [68.27493, 42.33358], [68.18975, 42.40265], [68.14792, 42.47147], [68.13449, 42.53922], [68.14275, 42.6713], [68.13929, 42.73548], [68.11392, 42.79837], [68.05393, 42.85991], [67.94659, 42.92002], [67.83251, 42.95759], [67.71508, 42.97485], [67.59545, 42.97621], [67.47471, 42.96607], [67.11662, 42.91095], [67.00196, 42.89917], [66.73765, 42.90193], [66.52408, 42.94375], [66.34971, 43.01846], [66.20328, 43.11964], [66.07361, 43.24087], [65.81975, 43.51739], [65.49288, 43.8247], [65.35098, 43.97524], [65.25508, 44.1148], [65.21301, 44.2468], [65.23272, 44.37457], [65.32222, 44.50136], [65.48966, 44.63024], [65.7434, 44.76404], [65.95445, 44.85547], [66.17172, 44.94131], [67.06426, 45.26409], [67.28379, 45.34853], [67.49813, 45.43802], [67.63071, 45.50422], [67.94192, 45.68219], [68.19779, 45.80189], [68.37243, 45.89596], [68.53923, 45.99533], [68.95675, 46.26134], [69.15943, 46.37543], [69.54452, 46.56307], [69.65446, 46.60976], [69.83703, 46.67781], [69.90138, 46.71076], [69.94416, 46.741], [70.00427, 46.79363], [70.03698, 46.83143], [70.0493, 46.85632], [70.04905, 46.89572], [69.98815, 46.98875], [69.98188, 47.03583], [70.00021, 47.07936], [70.03815, 47.11962], [70.09072, 47.15687], [70.15288, 47.19143], [70.45943, 47.33458], [70.57985, 47.38358], [70.70695, 47.42626], [70.83988, 47.45994], [70.97777, 47.48196], [71.11969, 47.48967], [71.2647, 47.48045], [71.41184, 47.45165], [71.70887, 47.37221], [72.01783, 47.3017], [72.17604, 47.27594], [72.33639, 47.25979], [72.49866, 47.2557], [72.69876, 47.27112], [72.90944, 47.31754], [72.99165, 47.32856], [73.22417, 47.34117], [73.53005, 47.37953], [73.81899, 47.39875], [74.00703, 47.39647], [74.12658, 47.3847], [74.48998, 47.33241], [74.61101, 47.31969], [74.73119, 47.31452], [74.85008, 47.31998], [75.04652, 47.34512], [75.3159, 47.39275], [75.40377, 47.41342], [75.58338, 47.48018], [75.74643, 47.50107], [75.79659, 47.51313], [75.84295, 47.5348], [75.87709, 47.5606], [75.90008, 47.58958], [75.91304, 47.62079], [75.91705, 47.65327], [75.90256, 47.71821], [75.81119, 47.86704], [75.80494, 47.89999], [75.80924, 47.97974], [75.79854, 48.01364], [75.7635, 48.07093], [75.75836, 48.10151], [75.76296, 48.11956], [75.78797, 48.1598], [75.84951, 48.21896], [76.01204, 48.34362], [76.11334, 48.4046], [76.2323, 48.45396], [76.30183, 48.47375], [76.59584, 48.52918], [76.71035, 48.54565], [76.81744, 48.55297], [76.98416, 48.53542], [77.13987, 48.54856], [77.24258, 48.56551], [77.6363, 48.65608], [77.7389, 48.67289], [77.98404, 48.69156], [78.21804, 48.71939], [78.32283, 48.73978], [78.52878, 48.79682], [78.79781, 48.89538], [78.89079, 48.9417], [78.93836, 48.98691], [78.96621, 49.02362], [79.08386, 49.21831], [79.11672, 49.2548], [79.20511, 49.31862], [79.31667, 49.36738], [79.44535, 49.40517], [79.87308, 49.49358], [80.00937, 49.52852], [80.13247, 49.57313], [80.37147, 49.68428], [80.47701, 49.74398], [80.56351, 49.80801], [80.62364, 49.8776], [80.65002, 49.95394], [80.63523, 50.03826], [80.57179, 50.13172], [80.54259, 50.15858], [80.40064, 50.2482], [80.33907, 50.29988], [80.31676, 50.33186], [80.30343, 50.36382], [80.30088, 50.38975], [80.30802, 50.41122], [80.32381, 50.42975], [80.452, 50.5055], [80.53851, 50.56468], [80.60723, 50.62819], [80.66082, 50.69539], [80.70192, 50.76566], [80.72691, 50.82385], [80.43905, 50.95813], [80.45941, 50.99265], [80.46499, 51.02578], [80.46447, 51.04371], [80.46106, 51.05895], [80.45166, 51.0735], [80.41052, 51.10484], [80.40711, 51.11722], [80.40763, 51.13574], [80.41342, 51.16843], [80.422, 51.18757], [80.4344, 51.20062], [80.45207, 51.20793], [80.47615, 51.20964], [80.56131, 51.20209], [80.59925, 51.20855], [80.61247, 51.23388], [80.61413, 51.24966], [80.62147, 51.26455], [80.64503, 51.28925], [80.40966, 51.46], [80.39035, 51.52894], [80.38202, 51.59006], [80.38834, 51.64218], [80.41304, 51.68411], [80.4598, 51.71463], [80.53231, 51.73255], [80.63422, 51.7366], [81.1584, 51.68258], [81.28413, 51.67463], [81.40911, 51.67196], [81.53412, 51.67584], [81.65998, 51.68751], [81.78747, 51.70823], [81.9806, 51.75521], [82.05064, 51.767], [82.21387, 51.77532], [82.26275, 51.78252], [82.31407, 51.79888], [82.3529, 51.81952], [82.3813, 51.84367], [82.41487, 51.89938], [82.43768, 51.98982], [82.48044, 52.07106], [82.56059, 52.14022], [82.67046, 52.19923], [82.80235, 52.25001], [82.94849, 52.29453], [83.39485, 52.41056], [83.69869, 52.49634], [83.85457, 52.5438], [84.00548, 52.59575], [84.14575, 52.65333], [84.26963, 52.71765], [84.37138, 52.78989], [84.44523, 52.87122], [84.50509, 52.9701], [84.54821, 53.00524], [84.58279, 53.02168], [84.69458, 53.05561], [84.76035, 53.06819], [84.89417, 53.08334], [85.16772, 53.10328], [85.2339, 53.11332], [85.27983, 53.12626], [85.31113, 53.14169], [85.37302, 53.19858], [85.40166, 53.21964], [85.44367, 53.24101], [85.73678, 53.30607], [86.07928, 53.29237], [86.45291, 53.21914], [86.83973, 53.1059], [87.90963, 52.72332], [88.18308, 52.6477], [88.31668, 52.62431], [88.81109, 52.55201], [88.9761, 52.52147], [89.12573, 52.48491], [89.25072, 52.44072], [89.34186, 52.38728], [89.41077, 52.3091], [89.42539, 52.24059], [89.40268, 52.17906], [89.31231, 52.06613], [89.27804, 52.00933], [89.27319, 51.94875], [89.31428, 51.88172], [89.38261, 51.83021], [89.48559, 51.77459], [89.61332, 51.7177], [89.75598, 51.66238], [89.90388, 51.61149], [90.04735, 51.56791], [90.17684, 51.53454], [90.28284, 51.51429], [90.46341, 51.49501], [90.59227, 51.49362], [90.68544, 51.50693], [90.7588, 51.53168], [90.90946, 51.60254], [91.01844, 51.64204], [91.17101, 51.6798], [91.25461, 51.68923], [91.3442, 51.68873], [91.63162, 51.67183], [91.72807, 51.67586], [91.82215, 51.69213], [91.91225, 51.7251], [92.04343, 51.81758], [92.08379, 51.91087], [92.06765, 52.00385], [92.02957, 52.09539], [92.00435, 52.18437], [92.02706, 52.26971], [92.13296, 52.35033], [92.35743, 52.42505], [92.44229, 52.43799], [92.52982, 52.43997], [92.71107, 52.43153], [92.80392, 52.43137], [92.89773, 52.44077], [92.99218, 52.46488], [93.08695, 52.50889], [93.20055, 52.58447], [93.27059, 52.64794], [93.34665, 52.7491], [93.38623, 52.7921], [93.4493, 52.83362], [93.55279, 52.87635], [93.71363, 52.92299], [93.84459, 52.94542], [93.97314, 52.952], [94.21165, 52.95243], [94.31619, 52.9638], [94.40739, 52.99431], [94.48265, 53.05284], [94.53932, 53.14829], [94.65972, 53.07916], [94.81529, 53.05549], [94.9935, 53.0642], [95.18177, 53.09235], [95.5373, 53.15478], [95.67856, 53.16286], [95.77793, 53.13795], [95.85277, 53.0856], [95.91915, 53.02894], [96.09839, 52.8507], [96.16175, 52.79434], [96.23205, 52.74237], [96.31235, 52.69651], [96.44192, 52.64218], [96.56099, 52.60864], [96.67357, 52.59014], [97.01119, 52.5676], [97.13626, 52.55196], [97.27368, 52.5227], [97.41997, 52.47609], [97.56556, 52.41474], [97.70739, 52.3419], [97.8425, 52.2608], [97.96799, 52.17465], [98.08108, 52.08667], [98.17903, 52.00003], [98.23253, 51.94526], [98.39561, 51.73739], [98.33222, 51.71832], [98.27352, 51.65483], [98.22825, 51.58342], [98.22432, 51.56001], [98.23383, 51.51652], [98.2299, 51.49288], [98.22039, 51.4752], [98.46782, 51.25326], [98.60993, 51.18666], [98.77717, 51.13924], [98.96252, 51.10422], [99.3591, 51.04451], [99.55584, 51.00649], [100.1562, 50.85768], [100.38764, 50.8074], [100.51048, 50.78558], [100.56032, 50.78178], [100.61039, 50.78478], [100.76752, 50.80632], [100.82397, 50.80828], [100.88326, 50.80295], [100.94585, 50.78752], [101.10061, 50.70372], [101.16707, 50.59761], [101.17635, 50.47815], [101.14609, 50.23493], [101.16656, 50.1289], [101.24999, 50.04511], [101.42537, 49.99262], [102.10184, 49.89718], [102.14902, 49.8235], [102.50191, 49.77368], [102.68287, 49.80926], [103.09034, 49.81044], [103.31133, 49.90986], [103.41022, 49.93667], [103.57788, 50.1406], [103.60141, 50.13353], [103.66807, 50.13121], [103.78527, 50.18614], [103.84542, 50.18469], [103.97399, 50.14872], [104.03952, 50.14118], [104.12168, 50.14826], [104.19812, 50.17001], [104.24747, 50.2066], [104.26896, 50.22887], [104.32136, 50.2543], [104.37723, 50.28918], [104.4058, 50.30055], [104.47412, 50.31326], [104.57696, 50.30949], [104.61044, 50.31419], [104.63246, 50.32375], [104.67188, 50.3483], [104.69705, 50.35321], [104.78955, 50.35264], [104.81849, 50.35832], [104.879, 50.3839], [104.90159, 50.38979], [104.93425, 50.39326], [105.0501, 50.38349], [105.07933, 50.15988], [105.32693, 50.08725], [105.75847, 50.17379], [106.07249, 50.08369], [106.17335, 49.97178], [106.4818, 49.92444], [107.17319, 49.9419], [107.14259, 49.67686], [107.75344, 49.45569], [108.03212, 49.58974], [108.12645, 49.54716], [108.20991, 49.54023], [108.23637, 49.53248], [108.25053, 49.5224], [108.27714, 49.48251], [108.33486, 49.43636], [108.47367, 49.35642], [108.53806, 49.32743], [108.60844, 49.32366], [108.75107, 49.34117], [108.85897, 49.34056], [108.93049, 49.34882], [109.03296, 49.3279], [109.05802, 49.32908], [109.1606, 49.34665], [109.28669, 49.33854], [109.41123, 49.30319], [109.45071, 49.30593], [109.46208, 49.30045], [109.47438, 49.26914], [109.51624, 49.25591], [109.72853, 49.26645], [109.86941, 49.47309], [109.9706, 49.51479], [110.2842, 49.44105], [110.70856, 49.53501], [111.141, 49.71], [112.10136, 49.85302], [112.5176, 49.97647], [112.86193, 49.94619], [113.26332, 50.08383], [113.40624, 50.30825], [113.96321, 50.53749], [114.82093, 50.84553], [115.52486, 50.81847], [115.87793, 50.60375], [116.17843, 50.48798], [116.59241, 50.45709], [117.23475, 50.61385], [117.70539, 50.52289], [117.85734, 50.38764], [117.93032, 50.34838], [118.01891, 50.31358], [117.79335, 50.04621], [117.67528, 49.91386], [117.42867, 49.6521], [117.16831, 49.39467], [116.73569, 48.99086], [116.55818, 48.80153], [116.48249, 48.70441], [116.4185, 48.60521], [116.36839, 48.5036], [116.336, 48.39905], [116.3245, 48.29292], [116.33459, 48.18773], [116.36697, 48.08594], [116.30057, 47.85442], [116.42889, 47.83514], [116.49969, 47.83636], [116.75166, 47.87413], [116.82205, 47.8763], [116.85326, 47.87212], [117.04736, 47.81946], [117.06968, 47.81016], [117.31711, 47.65407], [117.36083, 47.65087], [117.39989, 47.68567], [117.43648, 47.7305], [117.47286, 47.75724], [117.52722, 47.78649], [117.63484, 47.88263], [117.91607, 47.76019], [117.98946, 47.77513], [117.97444, 47.99804], [117.99717, 47.99999], [118.06404, 48.01958], [118.12254, 48.02751], [118.18248, 48.02821], [118.20625, 48.0233], [118.25431, 48.00286], [118.28005, 47.99813], [118.4728, 47.98945], [118.54225, 47.96625], [118.60525, 47.91467], [118.63468, 47.88175], [118.94467, 47.99989], [119.09013, 48.02915], [119.45227, 48.07173], [119.92218, 48.0503], [120.26411, 47.94104], [120.51613, 47.77463], [120.90855, 47.38886], [121.12937, 47.22735], [121.42097, 47.12462], [121.82533, 47.10835], [121.92456, 47.11862], [122.11843, 47.15235], [122.59521, 47.26353], [122.76787, 47.29424], [122.94392, 47.31634], [123.12206, 47.32983], [123.30104, 47.33472], [123.47958, 47.33104], [123.65638, 47.31884], [123.7557, 47.30705], [123.83016, 47.29815], [123.99966, 47.26904], [124.27385, 47.20356], [124.80322, 47.0514], [125.07579, 46.98749], [125.34251, 46.94759], [125.60215, 46.93131], [125.85591, 46.93617], [126.10487, 46.95975], [126.35007, 46.99965], [126.59253, 47.05349], [126.8332, 47.11892], [127.07305, 47.19361], [127.19936, 47.24026], [127.39099, 47.3259], [127.47533, 47.35829], [127.56465, 47.3793], [127.6684, 47.38561], [127.7959, 47.37396], [127.95633, 47.34107], [128.07568, 47.3015], [128.18057, 47.2477], [128.27218, 47.18296], [128.35173, 47.11055], [128.42048, 47.03371], [128.47971, 46.95568], [128.57484, 46.80885], [128.68276, 46.62454], [128.72987, 46.53114], [128.76899, 46.43695], [128.79757, 46.34199], [128.81313, 46.24626], [128.81319, 46.14978], [128.79527, 46.05254], [128.75417, 45.95506], [128.68798, 45.85989], [128.59924, 45.77002], [128.49033, 45.68843], [128.36363, 45.6181], [128.22136, 45.56207], [128.06574, 45.52337], [127.89895, 45.5051], [127.60184, 45.48415], [127.37735, 45.44774], [127.22352, 45.39584], [127.13789, 45.32844], [127.11771, 45.24564], [127.15996, 45.14759], [127.26135, 45.03454], [127.47783, 44.85509], [127.52475, 44.79706], [127.55653, 44.73534], [127.57054, 44.67251], [127.56419, 44.61113], [127.53481, 44.55371], [127.47969, 44.50276], [127.3961, 44.46079], [127.29984, 44.43484], [127.1976, 44.42269], [126.7675, 44.41986], [126.66466, 44.4072], [126.56778, 44.38029], [126.45421, 44.31572], [126.40429, 44.23884], [126.40213, 44.15227], [126.43173, 44.05856], [126.52223, 43.85954], [126.55128, 43.75881], [126.54838, 43.66011], [126.51398, 43.58494], [126.45255, 43.51517], [126.36843, 43.45064], [126.26593, 43.39125], [126.14936, 43.33693], [126.02302, 43.28761], [125.75861, 43.20378], [125.39444, 43.10738], [125.02322, 43.02119], [124.64637, 42.94549], [124.26566, 42.8805], [123.8832, 42.82635], [123.50143, 42.78314], [123.12298, 42.75098], [122.75041, 42.72997], [122.42884, 42.72015], [121.49643, 42.70788], [121.19533, 42.69822], [120.94407, 42.68293], [120.6055, 42.65006], [120.31674, 42.6047], [119.9511, 42.51987], [119.60206, 42.41093], [119.26615, 42.28372], [118.29501, 41.85698], [117.96793, 41.72355], [117.63158, 41.60723], [117.1557, 41.48578], [116.66506, 41.40321], [116.16694, 41.34839], [115.44075, 41.2952], [114.69244, 41.23537], [114.21957, 41.18911], [113.75891, 41.13094], [113.3081, 41.05587], [112.86751, 40.95958], [112.44284, 40.8398], [112.03996, 40.69434], [111.66496, 40.52098], [111.32408, 40.31745], [111.02366, 40.08132], [110.77009, 39.80989], [110.63645, 39.62135], [110.51711, 39.42342], [110.29127, 39.01876], [110.16945, 38.82196], [110.03132, 38.63563], [109.8691, 38.46498], [109.67495, 38.31518], [109.51966, 38.22833], [109.35066, 38.15887], [109.1707, 38.10716], [108.98258, 38.07356], [108.78906, 38.0584], [108.59294, 38.06199], [108.39704, 38.08463], [108.20411, 38.12661], [108.01736, 38.18776], [107.83983, 38.26636], [107.67361, 38.3606], [107.52081, 38.46874], [107.38356, 38.58902], [107.26404, 38.71973], [107.16446, 38.85921], [107.08705, 39.00577], [107.00533, 39.19733], [106.97287, 39.25905], [106.9345, 39.31692], [106.88818, 39.36928], [106.83192, 39.41451], [106.76373, 39.45092], [106.67171, 39.47759], [106.57754, 39.48344], [106.48437, 39.47089], [106.39537, 39.44231], [106.31364, 39.40007], [106.24234, 39.34657], [106.18454, 39.28416], [106.14334, 39.2152], [106.11778, 39.14281], [106.10332, 39.06853], [106.09798, 38.99269], [106.10664, 38.83779], [106.13835, 38.60284], [106.14272, 38.51489], [106.13346, 38.45807], [106.12316, 38.43146], [106.08793, 38.38404], [106.04307, 38.35318], [105.99031, 38.33387], [105.93132, 38.32358], [105.86778, 38.31975], [105.66658, 38.32142], [105.60162, 38.31787], [105.48573, 38.29464], [105.38193, 38.25233], [105.28681, 38.196], [105.019, 37.99375], [104.92408, 37.9322], [104.82056, 37.8821], [104.72635, 37.85337], [104.62664, 37.83775], [104.52392, 37.83483], [104.42066, 37.84423], [104.31936, 37.86551], [104.22248, 37.89832], [104.13251, 37.94222], [104.05195, 37.99682], [103.98356, 38.06095], [103.92904, 38.13218], [103.88884, 38.20851], [103.86343, 38.28797], [103.85328, 38.3686], [103.85889, 38.44844], [103.88074, 38.52553], [103.91933, 38.59794], [104.01889, 38.72286], [104.05315, 38.77468], [104.06617, 38.80214], [104.08002, 38.91201], [104.03718, 39.01235], [103.94819, 39.10017], [103.82368, 39.17253], [103.67437, 39.22651], [103.51109, 39.25922], [103.34476, 39.26779], [103.18637, 39.24938], [103.03939, 39.20985], [102.89852, 39.15976], [102.49065, 38.98682], [102.35213, 38.93529], [102.20853, 38.89366], [102.05751, 38.86605], [101.9419, 38.85676], [101.82531, 38.85642], [101.70794, 38.86353], [101.47173, 38.89402], [101.11745, 38.95793], [100.87871, 38.99503], [100.75808, 39.0075], [100.63806, 39.01403], [100.51976, 39.01321], [100.40433, 39.00365], [100.29288, 38.98392], [100.18657, 38.9526], [100.08967, 38.90658], [100.00753, 38.84597], [99.94284, 38.77414], [99.89827, 38.69452], [99.87642, 38.61052], [99.87988, 38.52556], [99.91118, 38.44308], [99.97287, 38.36655], [100.05709, 38.30443], [100.15408, 38.25915], [100.26121, 38.22726], [100.37582, 38.20529], [100.85569, 38.14737], [101.10404, 38.07604], [101.32217, 37.95963], [101.50365, 37.80763], [101.6424, 37.62957], [101.73258, 37.43513], [101.7686, 37.23408], [101.74504, 37.03636], [101.65664, 36.85193], [101.70367, 36.78776], [101.72729, 36.74679], [101.72924, 36.7226], [101.71116, 36.70869], [101.55312, 36.66353], [101.38308, 36.58491], [101.09115, 36.48896], [101.0008, 36.45355], [100.92197, 36.41036], [100.85947, 36.35576], [100.81808, 36.28609], [100.80539, 36.19949], [100.82881, 36.11689], [100.88229, 36.03971], [100.95979, 35.96936], [101.05537, 35.90725], [101.16314, 35.8548], [101.27725, 35.81347], [101.3919, 35.78474], [101.6252, 35.74106], [101.74238, 35.71566], [101.85552, 35.68459], [101.96124, 35.6454], [102.05619, 35.59564], [102.13702, 35.53283], [102.20036, 35.45452], [102.23592, 35.38212], [102.25799, 35.30587], [102.26926, 35.22689], [102.27236, 35.14628], [102.2559, 34.82995], [102.25748, 34.78043], [102.26437, 34.75132], [102.29391, 34.70436], [102.33983, 34.66717], [102.39647, 34.63643], [102.51928, 34.58105], [102.57413, 34.5498], [102.61701, 34.51181], [102.64226, 34.46379], [102.65239, 34.38038], [102.66294, 34.35423], [102.68595, 34.32856], [102.73599, 34.29374], [102.79953, 34.22764], [102.84776, 34.13214], [102.88043, 34.01656], [102.89743, 33.89021], [102.89874, 33.76249], [102.88441, 33.64279], [102.85456, 33.54053], [102.80933, 33.46513], [102.70819, 33.3946], [102.59078, 33.37829], [102.46297, 33.40442], [102.33054, 33.46125], [102.19938, 33.53711], [101.87443, 33.76366], [101.76668, 33.82748], [101.64835, 33.88192], [101.52425, 33.92365], [101.39926, 33.94932], [101.27826, 33.95566], [101.16614, 33.93942], [101.06778, 33.89733], [101.01458, 33.84988], [100.98801, 33.82614], [100.94706, 33.76068], [100.89911, 33.65533], [100.8615, 33.58825], [100.83727, 33.5577], [100.77636, 33.50754], [100.70403, 33.47483], [100.62313, 33.4579], [100.53649, 33.4551], [100.44689, 33.46477], [100.35716, 33.48527], [100.27006, 33.51496], [100.18844, 33.55224], [100.1185, 33.59116], [99.98662, 33.67962], [99.86687, 33.78099], [99.81211, 33.83603], [99.76106, 33.89371], [99.61119, 34.09099], [99.55394, 34.15826], [99.49241, 34.2191], [99.42641, 34.26936], [99.35574, 34.30487], [99.28023, 34.32146], [99.19976, 34.31497], [99.12341, 34.28257], [99.07294, 34.23058], [99.04521, 34.1633], [99.03709, 34.08495], [99.04541, 33.99978], [99.06706, 33.91203], [99.09894, 33.82594], [99.13801, 33.74578], [99.08405, 33.71465], [99.02315, 33.70279], [98.95669, 33.70574], [98.88606, 33.71904], [98.66323, 33.77627], [98.5902, 33.78624], [98.49527, 33.78073], [98.40962, 33.7533], [98.33464, 33.70736], [98.27164, 33.64633], [98.22188, 33.57363], [98.18659, 33.49268], [98.16696, 33.40693], [98.16421, 33.3198], [98.17605, 33.23397], [98.19792, 33.14966], [98.2641, 32.98459], [98.43353, 32.66235], [98.50753, 32.49608], [98.53559, 32.4101], [98.55526, 32.32349], [98.56472, 32.23719], [98.56222, 32.15217], [98.54597, 32.06933], [98.51422, 31.98965], [98.37938, 31.7813], [98.33479, 31.66728], [98.32073, 31.55534], [98.33272, 31.44607], [98.36633, 31.33998], [98.4172, 31.23758], [98.48099, 31.13939], [98.55342, 31.04589], [98.70806, 30.86541], [98.77999, 30.76663], [98.84465, 30.66222], [98.90068, 30.55319], [98.9467, 30.44051], [98.98142, 30.32516], [99.00351, 30.20812], [99.01169, 30.09036], [99.04342, 29.33754], [99.09065, 28.96236], [99.09267, 28.886], [99.08816, 28.80832], [99.06057, 28.58097], [99.06349, 28.48275], [99.07694, 28.41858], [99.10164, 28.35872], [99.13928, 28.30604], [99.19323, 28.25088], [99.21411, 28.21166], [99.21555, 28.16723], [99.1756, 28.03532], [99.17611, 27.94988], [99.2033, 27.76546], [99.27671, 27.47309], [99.29855, 27.26788], [99.28635, 27.1473], [98.39251, 27.19793], [98.36338, 27.29569], [98.3286, 27.52287], [98.2947, 27.53662], [98.27569, 27.5701], [98.2544, 27.64813], [98.23806, 27.68022], [98.20437, 27.7273], [98.20179, 27.73655], [98.2115, 27.76032], [98.19786, 27.78063], [98.20065, 27.8136], [98.19662, 27.82319], [98.16241, 27.84285], [98.14577, 27.86073], [98.14009, 27.87856], [98.17667, 27.89812], [98.17729, 27.91292], [98.16582, 27.92969], [98.14898, 27.94455], [98.11352, 27.9617], [98.10712, 27.97307], [97.84988, 28.01753], [97.69897, 28.15986], [97.60304, 28.09634], [97.56434, 28.06385], [97.50152, 27.99127], [97.47584, 27.9487], [97.43202, 27.84485], [97.3993, 27.72578], [97.38669, 27.65113], [97.3898, 27.54474], [97.38247, 27.49634], [97.37013, 27.47281], [97.34955, 27.44951], [97.29614, 27.46645], [97.18945, 27.51447], [96.86789, 27.68537], [96.76978, 27.75059], [96.58322, 27.88973], [96.50126, 27.93479], [96.42184, 27.96085], [96.29081, 27.98512], [96.2149, 27.98858], [96.10754, 27.97641], [96.06253, 27.97913], [96.00795, 27.99983], [95.9369, 28.03956], [95.78934, 28.14524], [95.76126, 28.15265]]]}}]}