{"type": "FeatureCollection", "features": [{"type": "Feature", "properties": {"name": "이집트 신왕국", "name_en": "New Kingdom of Egypt", "period": "기원전 1550–1070년경(최대 영역)", "kind": "국가", "legend": "이집트(신왕국의 최대 영역)", "map_title": "이집트 문명의 영역", "source": "미래엔 세계사 교과서 1권 17쪽", "volume": 1, "page": 17, "coast_snap": "Natural Earth 10m 해안선에 맞춤", "border_snap": "현대 국경(Natural Earth 10m)에 맞춘 구간 약 536 km"}, "geometry": {"type": "MultiPolygon", "coordinates": [[[[33.95509, 26.79003], [33.97559, 26.79002], [34.00293, 26.73163], [34.00358, 26.70822], [33.9896, 26.72029], [33.95509, 26.79003]]], [[[24.00489, 32.05292], [24.06788, 32.01118], [24.09067, 32.00576], [24.28115, 32.00754], [24.54607, 31.99144], [24.63624, 32.01488], [24.67026, 32.03241], [24.71062, 32.02558], [24.73373, 32.03314], [24.79176, 32.00776], [24.82439, 32.00299], [24.86541, 31.98933], [24.98169, 31.96791], [25.01791, 31.94904], [25.03336, 31.91633], [25.02223, 31.85468], [25.02955, 31.8369], [25.06392, 31.80387], [25.11686, 31.73798], [25.13673, 31.69257], [25.15625, 31.66307], [25.14942, 31.64887], [25.16179, 31.58356], [25.17286, 31.55158], [25.19093, 31.53148], [25.21258, 31.52635], [25.26343, 31.52366], [25.30209, 31.50654], [25.3685, 31.51226], [25.40187, 31.50316], [25.42041, 31.51224], [25.47389, 31.52049], [25.63648, 31.5607], [25.82407, 31.61493], [25.86883, 31.62091], [25.96652, 31.61662], [26.36215, 31.52192], [26.65041, 31.48878], [26.68312, 31.47622], [26.75318, 31.47748], [26.82472, 31.44782], [26.86573, 31.43684], [26.91163, 31.43651], [26.94793, 31.44822], [26.9655, 31.44964], [26.99643, 31.4287], [27.02702, 31.42226], [27.05437, 31.40864], [27.11736, 31.39045], [27.18529, 31.38429], [27.20997, 31.37811], [27.22625, 31.36766], [27.24611, 31.38128], [27.32748, 31.37921], [27.34228, 31.36823], [27.3423, 31.35399], [27.3623, 31.33051], [27.36378, 31.3155], [27.39357, 31.25471], [27.4463, 31.22321], [27.58774, 31.1931], [27.60987, 31.20318], [27.66033, 31.18024], [27.71949, 31.18928], [27.83547, 31.23785], [27.85287, 31.24029], [27.86328, 31.23354], [27.86844, 31.21956], [27.86988, 31.19977], [27.8903, 31.15542], [27.89715, 31.11441], [27.92693, 31.09903], [27.97511, 31.09308], [28.15455, 31.09332], [28.20387, 31.0705], [28.23386, 31.0734], [28.31837, 31.0598], [28.33863, 31.06411], [28.38209, 31.08274], [28.40496, 31.08648], [28.42432, 31.08343], [28.44244, 31.07628], [28.47853, 31.05183], [28.5276, 31.05011], [28.73247, 30.98414], [28.78777, 30.95966], [28.81202, 30.95676], [28.81803, 30.95115], [28.82887, 30.91519], [28.8357, 30.91079], [28.85456, 30.90585], [29.02809, 30.82705], [29.18922, 30.83324], [29.21892, 30.83804], [29.50327, 30.95669], [29.55633, 30.99091], [29.60377, 31.01203], [29.61889, 31.02942], [29.76596, 31.12157], [29.78151, 31.14792], [29.80934, 31.14232], [29.83839, 31.15412], [29.88461, 31.18952], [29.87566, 31.20087], [29.86356, 31.19637], [29.87697, 31.21356], [29.88477, 31.21376], [29.89088, 31.20319], [29.8982, 31.20319], [29.95623, 31.25006], [29.98316, 31.26325], [30.0033, 31.28723], [30.02508, 31.29487], [30.04908, 31.31306], [30.04169, 31.31548], [30.04226, 31.3205], [30.06958, 31.33346], [30.06666, 31.30488], [30.0949, 31.28559], [30.136, 31.27485], [30.17262, 31.27143], [30.1447, 31.25161], [30.14405, 31.24657], [30.15209, 31.24413], [30.14015, 31.23725], [30.14373, 31.22948], [30.16521, 31.21678], [30.20678, 31.23792], [30.20167, 31.22651], [30.2072, 31.22089], [30.22047, 31.2202], [30.25457, 31.25161], [30.2614, 31.24413], [30.26881, 31.26529], [30.27506, 31.26529], [30.27662, 31.2464], [30.28875, 31.23794], [30.30299, 31.27143], [30.28761, 31.27822], [30.24091, 31.2653], [30.2409, 31.27143], [30.25457, 31.27143], [30.25457, 31.27827], [30.23846, 31.27399], [30.17946, 31.27144], [30.17945, 31.27823], [30.21656, 31.28644], [30.25172, 31.30341], [30.31284, 31.35057], [30.33448, 31.38101], [30.3484, 31.42133], [30.35239, 31.4632], [30.34394, 31.49798], [30.35076, 31.49799], [30.36459, 31.46011], [30.37843, 31.44668], [30.39861, 31.44334], [30.37062, 31.46162], [30.35572, 31.49112], [30.36216, 31.50872], [30.42563, 31.47362], [30.45639, 31.46271], [30.49252, 31.45922], [30.53582, 31.46385], [30.67652, 31.49616], [30.97389, 31.58672], [30.97388, 31.57991], [30.86638, 31.54829], [30.7361, 31.48872], [30.69337, 31.46386], [30.66603, 31.45702], [30.6281, 31.43432], [30.55787, 31.42219], [30.54265, 31.40241], [30.54265, 31.39497], [30.56324, 31.3902], [30.58323, 31.39497], [30.59864, 31.38736], [30.62672, 31.38866], [30.65382, 31.39582], [30.66603, 31.4055], [30.67507, 31.42156], [30.69507, 31.41689], [30.72755, 31.38813], [30.73439, 31.38813], [30.74074, 31.4055], [30.75621, 31.42299], [30.77467, 31.43683], [30.79851, 31.44647], [30.83741, 31.42914], [30.87371, 31.43451], [30.88574, 31.42914], [30.87843, 31.42699], [30.87892, 31.42227], [30.89243, 31.41909], [30.90943, 31.42381], [30.93971, 31.44334], [30.93329, 31.44514], [30.93971, 31.457], [30.97396, 31.44407], [30.98072, 31.43651], [30.99692, 31.45112], [31.00807, 31.47134], [31.00231, 31.47984], [31.02174, 31.49799], [31.0233, 31.51382], [31.02915, 31.51849], [31.07154, 31.51724], [31.09742, 31.50483], [31.10157, 31.4925], [31.11915, 31.49311], [31.12924, 31.50446], [31.11111, 31.51227], [31.13038, 31.51699], [31.11109, 31.53974], [31.07081, 31.56537], [31.0232, 31.58299], [30.97804, 31.5843], [31.01238, 31.5969], [31.09742, 31.60789], [31.12892, 31.60486], [31.22124, 31.57979], [31.37831, 31.51861], [31.41961, 31.49116], [31.52369, 31.44965], [31.55681, 31.44334], [31.59742, 31.44449], [31.7483, 31.48159], [31.83791, 31.52533], [31.87436, 31.53558], [31.91293, 31.53489], [31.94483, 31.52093], [31.9642, 31.48241], [31.99577, 31.44574], [32.00904, 31.41718], [32.02491, 31.40005], [32.05698, 31.37515], [32.10425, 31.36147], [32.12916, 31.33739], [32.19953, 31.29509], [32.16876, 31.30083], [32.07011, 31.35399], [32.08009, 31.35399], [32.09059, 31.34715], [32.08351, 31.35883], [32.05601, 31.36287], [32.04396, 31.37515], [32.0066, 31.39533], [31.99498, 31.39498], [31.98569, 31.42036], [31.9683, 31.4365], [31.9935, 31.43781], [31.91798, 31.52399], [31.8895, 31.53205], [31.87891, 31.51851], [31.86525, 31.52534], [31.86523, 31.51228], [31.85092, 31.5185], [31.84474, 31.49799], [31.86523, 31.49799], [31.85971, 31.48688], [31.875, 31.46332], [31.87208, 31.44961], [31.8789, 31.44961], [31.8789, 31.44335], [31.87208, 31.44334], [31.8789, 31.42915], [31.87208, 31.42914], [31.86207, 31.45059], [31.8379, 31.45702], [31.84164, 31.4645], [31.83041, 31.45881], [31.82423, 31.44334], [31.83375, 31.44379], [31.8379, 31.44961], [31.85841, 31.44334], [31.85841, 31.43651], [31.85092, 31.43651], [31.85483, 31.42316], [31.8789, 31.41608], [31.86166, 31.40763], [31.8379, 31.41608], [31.83855, 31.41083], [31.83041, 31.40864], [31.84472, 31.39497], [31.83074, 31.37979], [31.82789, 31.36835], [31.83692, 31.36188], [31.8584, 31.36147], [31.8584, 31.354], [31.82504, 31.36066], [31.81056, 31.354], [31.80388, 31.36005], [31.79721, 31.35952], [31.79021, 31.34345], [31.80273, 31.33129], [31.79021, 31.32665], [31.79589, 31.31099], [31.76905, 31.29877], [31.76694, 31.28465], [31.7732, 31.27587], [31.78419, 31.27338], [31.7964, 31.27827], [31.79023, 31.28509], [31.82078, 31.27815], [31.82861, 31.27411], [31.83416, 31.25161], [31.86101, 31.24237], [31.88575, 31.22362], [31.89355, 31.24013], [31.90624, 31.25159], [31.90064, 31.23607], [31.90625, 31.22362], [31.89259, 31.22362], [31.89259, 31.21678], [31.90624, 31.21678], [31.89845, 31.20991], [31.89943, 31.20319], [31.91293, 31.21064], [31.91977, 31.20319], [31.91977, 31.21063], [31.9266, 31.21063], [31.92164, 31.19648], [31.92644, 31.187], [31.93474, 31.18757], [31.94027, 31.20318], [31.95192, 31.20458], [31.98658, 31.23028], [32.00925, 31.22362], [31.99497, 31.22362], [31.99497, 31.21678], [32.00929, 31.21064], [32.0228, 31.22361], [32.03711, 31.21678], [32.02963, 31.18952], [32.04394, 31.19635], [32.04036, 31.18232], [32.02963, 31.17585], [32.03688, 31.1503], [32.01612, 31.13491], [32.01612, 31.12808], [32.03517, 31.12971], [32.04396, 31.14175], [32.05013, 31.14174], [32.05454, 31.12299], [32.07007, 31.1144], [32.07007, 31.10693], [32.05258, 31.10078], [32.04396, 31.08649], [32.05698, 31.07966], [32.06683, 31.08499], [32.08378, 31.0844], [32.09059, 31.07966], [32.09059, 31.07345], [32.08375, 31.07343], [32.08375, 31.06599], [32.10646, 31.05337], [32.1198, 31.05292], [32.13209, 31.0598], [32.13209, 31.06599], [32.11744, 31.06631], [32.10744, 31.07283], [32.098, 31.09332], [32.14633, 31.07966], [32.13837, 31.09332], [32.15943, 31.09333], [32.15943, 31.10078], [32.15286, 31.10659], [32.16627, 31.11439], [32.16684, 31.10834], [32.17994, 31.10692], [32.17604, 31.11781], [32.18386, 31.12493], [32.19483, 31.12579], [32.20574, 31.1092], [32.23414, 31.10488], [32.24822, 31.10692], [32.27223, 31.11888], [32.28346, 31.13654], [32.28053, 31.15498], [32.26249, 31.16961], [32.28981, 31.16962], [32.2951, 31.21337], [32.28981, 31.23046], [32.27297, 31.24885], [32.27053, 31.25755], [32.28297, 31.26529], [32.24676, 31.27924], [32.22633, 31.28205], [32.21413, 31.27828], [32.20705, 31.29506], [32.30023, 31.28148], [32.31381, 31.27269], [32.33138, 31.27142], [32.33383, 31.25471], [32.34425, 31.24189], [32.35914, 31.23347], [32.39009, 31.22635], [32.42018, 31.19636], [32.4812, 31.14886], [32.50953, 31.10692], [32.56568, 31.07054], [32.60157, 31.06098], [32.64552, 31.0598], [32.68751, 31.06444], [32.76197, 31.0812], [32.85076, 31.1188], [32.92042, 31.15541], [32.92726, 31.15541], [32.92726, 31.14794], [32.89536, 31.1374], [32.8396, 31.10123], [32.80714, 31.09333], [32.75245, 31.07137], [32.66651, 31.05231], [32.715, 31.05231], [32.71502, 31.04556], [32.70069, 31.03872], [32.73129, 31.03876], [32.74285, 31.04263], [32.74922, 31.05231], [32.75537, 31.0523], [32.7562, 31.04654], [32.76954, 31.04556], [32.83107, 31.07965], [32.88282, 31.09357], [32.89308, 31.10076], [32.91774, 31.09223], [32.9144, 31.08731], [32.90675, 31.08649], [32.90675, 31.07966], [32.91725, 31.08283], [32.94093, 31.09333], [32.94093, 31.10078], [32.91358, 31.10078], [32.9136, 31.10691], [32.92709, 31.11179], [32.94421, 31.10778], [32.95948, 31.09846], [32.96876, 31.08649], [32.97511, 31.06599], [32.96127, 31.06599], [32.99448, 31.05557], [33.00994, 31.0563], [33.02345, 31.06599], [33.02345, 31.07343], [33.00914, 31.07966], [33.00914, 31.0865], [33.05746, 31.10078], [33.05251, 31.1083], [33.0643, 31.13491], [33.05746, 31.13491], [33.03028, 31.11441], [33.02377, 31.10773], [33.03027, 31.10077], [32.99415, 31.09846], [32.95446, 31.10691], [32.98463, 31.10952], [33.03029, 31.16217], [33.07862, 31.17585], [33.09784, 31.19155], [33.10939, 31.19643], [33.12646, 31.19635], [33.12646, 31.18953], [33.09864, 31.18952], [33.09864, 31.1833], [33.1111, 31.17536], [33.15771, 31.11787], [33.15357, 31.11238], [33.12648, 31.10078], [33.12403, 31.10757], [33.11899, 31.10692], [33.11899, 31.10078], [33.13574, 31.09076], [33.14469, 31.07786], [33.1443, 31.06257], [33.13331, 31.04556], [33.18767, 31.06167], [33.22145, 31.0598], [33.22145, 31.06599], [33.20777, 31.07343], [33.20094, 31.07343], [33.20094, 31.06599], [33.19483, 31.06599], [33.19485, 31.07342], [33.2479, 31.09125], [33.26247, 31.10077], [33.26979, 31.10078], [33.26246, 31.09333], [33.26979, 31.08649], [33.28541, 31.09272], [33.29656, 31.07966], [33.30397, 31.07966], [33.30323, 31.0998], [33.31764, 31.10078], [33.30812, 31.10513], [33.27723, 31.10691], [33.38648, 31.11441], [33.37771, 31.13255], [33.40642, 31.13727], [33.40644, 31.15542], [33.42066, 31.14794], [33.44093, 31.15119], [33.49952, 31.12808], [33.57252, 31.12156], [33.59205, 31.11441], [33.59206, 31.12127], [33.61476, 31.11538], [33.64796, 31.11726], [33.85434, 31.16348], [34.04705, 31.22919], [34.22267, 31.32665], [34.28142, 31.3767], [34.30162, 31.40769], [34.3484, 31.43765], [34.36818, 31.46816], [34.44337, 31.53457], [34.47877, 31.57827], [34.48952, 31.6004], [34.51393, 31.62714], [34.60963, 31.76553], [34.69313, 31.92631], [34.71193, 31.95161], [34.74334, 32.03986], [34.74335, 32.06036], [34.75701, 32.0666], [34.83766, 32.28071], [34.9041, 32.56042], [34.90984, 32.57026], [34.92091, 32.62824], [34.91914, 32.64297], [34.94207, 32.72451], [34.94753, 32.81415], [34.9555, 32.83418], [34.97047, 32.84137], [35.00343, 32.82754], [35.02768, 32.82661], [35.06707, 32.86685], [35.0796, 32.90583], [35.07781, 32.91787], [35.06545, 32.92309], [35.07154, 32.93793], [35.07843, 32.99857], [35.0962, 33.05036], [35.09215, 33.06769], [35.10646, 33.08076], [35.09964, 33.08759], [35.10524, 33.08902], [35.10646, 33.09504], [35.10046, 33.09567], [35.09963, 33.10126], [35.12532, 33.13237], [35.14763, 33.14033], [35.16782, 33.17015], [35.16181, 33.17694], [35.17107, 33.17658], [35.17465, 33.17015], [35.20476, 33.2248], [35.20916, 33.25463], [35.18834, 33.28001], [35.20973, 33.2934], [35.22478, 33.312], [35.24366, 33.3557], [35.25051, 33.40973], [35.27508, 33.44497], [35.27102, 33.4575], [35.32301, 33.49091], [35.34913, 33.51386], [35.36258, 33.55657], [35.40064, 33.64313], [35.3944, 33.64997], [35.40992, 33.66128], [35.42165, 33.70233], [35.43849, 33.71137], [35.43795, 33.7236], [35.47731, 33.8039], [35.48325, 33.87246], [35.47048, 33.90209], [35.47585, 33.90997], [35.48658, 33.91298], [35.51734, 33.90253], [35.57203, 33.90998], [35.59311, 33.94477], [35.59197, 33.95043], [35.58572, 33.95092], [35.6134, 33.99296], [35.63673, 33.99531], [35.64088, 33.99942], [35.64039, 34.00853], [35.62722, 34.01985], [35.62698, 34.04426], [35.64332, 34.08808], [35.64772, 34.11913], [35.63033, 34.15304], [35.62722, 34.20112], [35.64772, 34.22215], [35.65296, 34.28459], [35.66512, 34.31114], [35.68873, 34.3283], [35.70582, 34.3166], [35.75075, 34.38979], [35.80616, 34.41498], [35.82358, 34.43452], [35.80544, 34.45869], [35.80544, 34.4649], [35.82398, 34.46084], [35.90333, 34.47797], [35.98317, 34.53864], [35.98878, 34.55272], [35.98683, 34.6208], [35.93118, 34.74096], [35.92897, 34.79072], [35.90847, 34.82177], [35.86689, 34.92422], [35.8729, 34.92691], [35.88136, 34.94497], [35.87356, 34.95832], [35.87892, 34.97016], [35.87356, 34.97883], [35.89536, 35.00678], [35.90056, 35.02192], [35.88788, 35.06135], [35.88788, 35.1092], [35.9411, 35.18037], [35.96241, 35.19794], [35.9533, 35.2248], [35.91531, 35.28791], [35.92897, 35.32148], [35.91671, 35.40306], [35.91896, 35.41767], [35.86061, 35.47907], [35.8301, 35.49348], [35.81837, 35.50894], [35.78126, 35.49959], [35.77053, 35.50422], [35.77809, 35.54116], [35.73709, 35.56168], [35.74334, 35.5821], [35.72341, 35.57593], [35.7234, 35.58189], [35.76336, 35.59829], [35.77849, 35.61274], [35.78435, 35.63056], [35.77118, 35.66779], [35.77663, 35.67511], [35.80006, 35.68146], [35.84034, 35.74746], [35.83595, 35.78998], [35.81186, 35.83539], [35.79862, 35.84967], [35.84685, 35.84723], [35.87086, 35.85179], [35.88103, 35.86668], [35.88528, 35.88597], [35.96608, 35.99363], [35.97674, 36.00096], [35.97543, 36.0185], [35.94842, 36.08784], [35.85234, 36.21337], [35.84099, 36.24453], [35.79861, 36.28169], [35.78738, 36.30427], [35.78876, 36.32025], [35.82448, 36.36106], [35.85678, 36.36978], [35.87356, 36.39769], [35.90846, 36.41816], [35.91872, 36.44818], [35.9424, 36.46433], [35.99024, 36.47964], [36.04494, 36.53765], [36.05543, 36.53828], [36.18914, 36.60399], [36.21616, 36.65778], [36.21559, 36.67048], [36.20246, 36.69963], [36.19874, 36.78457], [36.18898, 36.80174], [36.12989, 36.86929], [36.10947, 36.88582], [36.17214, 36.8931], [36.21686, 36.89358], [36.36243, 36.87754], [36.63986, 36.82809], [36.64327, 36.80365], [36.60327, 36.74696], [36.5947, 36.68582], [36.58281, 36.66241], [36.56927, 36.62014], [36.57, 36.5757], [36.56534, 36.5325], [36.53548, 36.494], [36.53124, 36.47901], [36.53382, 36.46248], [36.55274, 36.40817], [36.56503, 36.39561], [36.5857, 36.38703], [36.59335, 36.37349], [36.59428, 36.35711], [36.58219, 36.33308], [36.57764, 36.33287], [36.58777, 36.32481], [36.62074, 36.32202], [36.63707, 36.3168], [36.64865, 36.3059], [36.89652, 36.42642], [37.01261, 36.39124], [37.16116, 36.3317], [37.30125, 36.25949], [37.43113, 36.17435], [37.5353, 36.08755], [37.55016, 36.07514], [37.65214, 35.96689], [37.73648, 35.85157], [37.80328, 35.73036], [37.85176, 35.60631], [37.88256, 35.47918], [37.8951, 35.3526], [37.88952, 35.22647], [37.83195, 34.99006], [37.72533, 34.76778], [37.58108, 34.55441], [37.409, 34.34381], [37.01702, 33.90466], [36.81864, 33.6664], [36.63983, 33.41467], [36.55456, 33.26739], [36.48154, 33.11739], [36.44993, 33.04118], [36.36637, 32.81139], [36.2988, 32.57829], [36.19793, 32.18979], [36.14731, 32.01841], [36.08691, 31.84389], [36.01708, 31.66881], [35.9382, 31.49625], [35.85054, 31.32906], [35.75426, 31.17014], [35.71226, 31.1111], [35.44258, 31.12825], [35.43849, 31.10374], [35.39157, 31.02395], [35.38516, 30.99465], [35.38526, 30.96328], [35.3741, 30.94514], [35.33493, 30.91259], [35.32222, 30.88995], [35.31664, 30.82282], [35.31085, 30.81331], [35.28614, 30.79233], [35.27953, 30.78024], [35.26382, 30.71978], [35.20532, 30.6171], [35.16212, 30.49468], [35.15737, 30.47085], [35.14, 30.43018], [35.14, 30.40615], [34.88293, 30.36651], [34.62481, 30.28153], [34.73321, 30.01259], [34.74137, 29.94024], [34.47661, 29.88759], [34.46699, 29.8722], [34.35497, 29.64796], [34.25029, 29.39809], [34.16157, 29.1256], [34.09804, 28.84079], [34.06534, 28.55521], [34.05995, 28.34687], [34.06894, 28.33948], [34.11944, 28.34006], [34.19849, 28.32942], [34.23674, 28.31901], [34.3084, 28.28871], [34.34198, 28.26866], [34.40054, 28.22122], [34.45006, 28.16046], [34.43872, 28.10985], [34.42675, 28.08154], [34.44401, 28.05354], [34.42742, 27.98306], [34.43488, 27.97558], [34.40073, 27.96874], [34.38998, 27.94527], [34.37696, 27.93818], [34.37085, 27.92366], [34.33131, 27.91413], [34.3387, 27.90669], [34.32096, 27.86128], [34.31128, 27.85205], [34.30446, 27.85205], [34.28639, 27.86441], [34.27947, 27.85834], [34.27271, 27.83617], [34.26352, 27.82477], [34.27172, 27.81245], [34.25929, 27.80184], [34.2393, 27.79409], [34.21412, 27.79149], [34.2212, 27.76984], [34.25732, 27.76951], [34.25732, 27.76334], [34.24985, 27.76333], [34.24985, 27.7565], [34.2635, 27.73604], [34.24985, 27.74283], [34.25123, 27.73725], [34.25734, 27.73603], [34.25732, 27.72859], [34.24986, 27.72859], [34.22755, 27.7582], [34.18979, 27.78677], [34.07846, 27.8007], [34.05467, 27.8144], [33.98756, 27.88666], [33.97381, 27.88924], [33.91676, 27.93574], [33.90398, 27.9418], [33.89088, 27.94253], [33.87941, 27.93465], [33.86557, 27.96133], [33.8589, 27.95516], [33.80422, 27.99605], [33.79371, 28.01313], [33.76337, 28.024], [33.76393, 28.04902], [33.71601, 28.07527], [33.71551, 28.09292], [33.68448, 28.12417], [33.67264, 28.14579], [33.67457, 28.16055], [33.66033, 28.17487], [33.65406, 28.17487], [33.65406, 28.1674], [33.64666, 28.1674], [33.63478, 28.18131], [33.61818, 28.2333], [33.6128, 28.24063], [33.60565, 28.23629], [33.56471, 28.2971], [33.43394, 28.36641], [33.40016, 28.41446], [33.369, 28.44233], [33.36915, 28.44794], [33.30519, 28.48974], [33.29478, 28.49942], [33.27882, 28.52753], [33.25621, 28.54414], [33.26246, 28.55158], [33.26246, 28.54414], [33.26979, 28.54414], [33.26295, 28.57705], [33.2461, 28.5795], [33.23764, 28.56611], [33.2562, 28.55158], [33.23944, 28.5566], [33.2287, 28.56941], [33.21901, 28.628], [33.19485, 28.67512], [33.22828, 28.76386], [33.21015, 28.78507], [33.20476, 28.80516], [33.18101, 28.81851], [33.17459, 28.83698], [33.16733, 28.90016], [33.17758, 28.91836], [33.16587, 28.97606], [33.17791, 28.98957], [33.17075, 29.00308], [33.15919, 29.01411], [33.1531, 29.01338], [33.14503, 29.03172], [33.13648, 29.03461], [33.12648, 29.03141], [33.11606, 29.04312], [33.07863, 29.06489], [33.06121, 29.10139], [33.04022, 29.11812], [33.02345, 29.14061], [33.00913, 29.14741], [33.00294, 29.16112], [32.95786, 29.20209], [32.91952, 29.21768], [32.8856, 29.24307], [32.86834, 29.29743], [32.84597, 29.30834], [32.83955, 29.31601], [32.81741, 29.35977], [32.82106, 29.39704], [32.81723, 29.41405], [32.7903, 29.42545], [32.74157, 29.45596], [32.7492, 29.45596], [32.74537, 29.46312], [32.72853, 29.46963], [32.73536, 29.47728], [32.73471, 29.48383], [32.72853, 29.48383], [32.72145, 29.46748], [32.72851, 29.45597], [32.71503, 29.45597], [32.7225, 29.49274], [32.72413, 29.53954], [32.71241, 29.58047], [32.68085, 29.59993], [32.68686, 29.61815], [32.68088, 29.66163], [32.69386, 29.70604], [32.69068, 29.73363], [32.65644, 29.77709], [32.64845, 29.79462], [32.6255, 29.81525], [32.60452, 29.82417], [32.60956, 29.83388], [32.6255, 29.84634], [32.62534, 29.87425], [32.61248, 29.89374], [32.57156, 29.9289], [32.58432, 29.93871], [32.57781, 29.9488], [32.58546, 29.95246], [32.56162, 29.97639], [32.57781, 29.98355], [32.57781, 30.01142], [32.57154, 30.01142], [32.55746, 29.97647], [32.57049, 29.95576], [32.57154, 29.94257], [32.56415, 29.94258], [32.56178, 29.95523], [32.55397, 29.9621], [32.54274, 29.96255], [32.53004, 29.95622], [32.51344, 29.96158], [32.49391, 29.95063], [32.4769, 29.9322], [32.46795, 29.91523], [32.46681, 29.89688], [32.47291, 29.88198], [32.48699, 29.87157], [32.50951, 29.86684], [32.49155, 29.85407], [32.39283, 29.73436], [32.36394, 29.68822], [32.35808, 29.67194], [32.35736, 29.63036], [32.35156, 29.61368], [32.33766, 29.59992], [32.33766, 29.59248], [32.34846, 29.58486], [32.36855, 29.55738], [32.3768, 29.53608], [32.45119, 29.48741], [32.49733, 29.44009], [32.52873, 29.42351], [32.55718, 29.39762], [32.58122, 29.36912], [32.59138, 29.34971], [32.60548, 29.29194], [32.61866, 29.26118], [32.63232, 29.24307], [32.62867, 29.21894], [32.65895, 29.11055], [32.65967, 29.0891], [32.63892, 29.06135], [32.62818, 29.05703], [32.62468, 29.04816], [32.63232, 29.03758], [32.6255, 28.97272], [32.67334, 28.92153], [32.68084, 28.88056], [32.70752, 28.85634], [32.7492, 28.80484], [32.78451, 28.79938], [32.80689, 28.77814], [32.82073, 28.74761], [32.86891, 28.57892], [32.92725, 28.55157], [32.96342, 28.51787], [32.97291, 28.49982], [33.00293, 28.48948], [33.01303, 28.46304], [33.04176, 28.41413], [33.05078, 28.40692], [33.04957, 28.40135], [33.04322, 28.40078], [33.08757, 28.36859], [33.10654, 28.3473], [33.10532, 28.32563], [33.11971, 28.30894], [33.12647, 28.2875], [33.20052, 28.21136], [33.21217, 28.18993], [33.24194, 28.17486], [33.24936, 28.14289], [33.28321, 28.13238], [33.31642, 28.09638], [33.33813, 28.08543], [33.33611, 28.05679], [33.3436, 28.0506], [33.36605, 28.05067], [33.37468, 28.03587], [33.44192, 28.0164], [33.51253, 27.95905], [33.53541, 27.91641], [33.55437, 27.89647], [33.57616, 27.85049], [33.59204, 27.79126], [33.57155, 27.79126], [33.56007, 27.81342], [33.48894, 27.84589], [33.48219, 27.84589], [33.47348, 27.82319], [33.48219, 27.80492], [33.51172, 27.77509], [33.52272, 27.7519], [33.55144, 27.76161], [33.55786, 27.75991], [33.55249, 27.73188], [33.53679, 27.70808], [33.55047, 27.69505], [33.57495, 27.68137], [33.59204, 27.65347], [33.59204, 27.64665], [33.55787, 27.68138], [33.55047, 27.68138], [33.55786, 27.65966], [33.55048, 27.65966], [33.5442, 27.67919], [33.52654, 27.67756], [33.50717, 27.66372], [33.49635, 27.64663], [33.51984, 27.63565], [33.56469, 27.57152], [33.55828, 27.55712], [33.55787, 27.53677], [33.61817, 27.50811], [33.63298, 27.49583], [33.64039, 27.45482], [33.67114, 27.42039], [33.68482, 27.3557], [33.69166, 27.34186], [33.72478, 27.31371], [33.82518, 27.25983], [33.83838, 27.24258], [33.83838, 27.19416], [33.82472, 27.18049], [33.83676, 27.12075], [33.84718, 27.107], [33.88314, 27.08079], [33.90137, 27.05874], [33.90868, 27.04215], [33.89373, 27.04393], [33.89389, 27.0279], [33.90089, 27.01423], [33.921, 26.98917], [33.95167, 26.93098], [33.99097, 26.90741], [33.996, 26.89678], [34.00358, 26.84917], [33.99623, 26.83806], [33.97967, 26.83712], [33.95965, 26.8498], [33.94825, 26.831], [33.94581, 26.79999], [33.9519, 26.74336], [33.93214, 26.6826], [33.94142, 26.65351], [33.95541, 26.64301], [34.0034, 26.62574], [34.014, 26.61163], [34.02394, 26.58072], [34.05639, 26.5423], [34.07054, 26.51509], [34.10483, 26.42666], [34.17749, 26.31484], [34.26197, 26.13947], [34.30102, 26.08779], [34.33872, 26.00178], [34.41728, 25.90341], [34.43474, 25.86188], [34.5018, 25.77163], [34.54673, 25.72475], [34.58145, 25.66262], [34.63346, 25.5694], [34.64715, 25.52204], [34.67139, 25.47972], [34.68189, 25.4287], [34.69996, 25.40103], [34.74333, 25.3513], [34.76499, 25.29609], [34.79492, 25.25438], [34.8069, 25.21162], [34.93913, 25.00336], [34.94304, 24.97126], [34.95373, 24.94414], [34.98975, 24.90501], [34.99391, 24.84931], [35.00221, 24.81562], [35.01026, 24.80443], [35.06362, 24.76389], [35.08072, 24.73541], [35.10955, 24.64379], [35.14601, 24.5859], [35.16026, 24.57461], [35.16064, 24.5585], [35.14444, 24.52767], [35.14456, 24.50021], [35.18571, 24.48565], [35.23546, 24.40013], [35.3704, 24.30625], [35.39171, 24.28294], [35.42864, 24.18595], [35.45593, 24.15874], [35.49383, 24.1089], [35.51051, 24.11123], [35.49379, 24.13896], [35.5039, 24.14053], [35.52419, 24.12128], [35.55205, 24.11049], [35.58836, 24.07583], [35.60272, 24.0481], [35.60526, 24.01882], [35.63563, 24.00186], [35.66685, 24.00724], [35.71728, 23.99341], [35.73856, 23.98331], [35.75374, 23.96865], [35.77482, 23.92391], [35.79252, 23.90229], [35.78578, 23.89306], [35.75036, 23.93242], [35.73601, 23.93321], [35.68452, 23.91093], [35.64575, 23.92556], [35.59854, 23.92943], [35.57999, 23.93636], [35.56178, 23.95718], [35.55145, 23.9604], [35.55055, 23.96548], [35.51393, 23.97712], [35.50492, 23.971], [35.49122, 23.94758], [35.48387, 23.91779], [35.49064, 23.87], [35.47477, 23.79792], [35.48322, 23.77249], [35.50171, 23.76869], [35.51014, 23.75638], [35.50611, 23.73457], [35.51021, 23.68392], [35.50368, 23.55589], [35.48943, 23.49702], [35.49334, 23.48237], [35.52432, 23.43872], [35.54742, 23.39428], [35.55143, 23.37751], [35.5503, 23.33023], [35.57468, 23.21256], [35.62096, 23.13949], [35.65463, 23.07375], [35.66782, 22.98261], [35.67506, 22.96662], [35.6953, 22.93213], [35.73707, 22.88398], [35.76368, 22.87043], [35.72342, 22.93186], [35.74293, 22.93129], [35.7557, 22.9223], [35.77105, 22.8906], [35.78492, 22.8332], [35.80127, 22.82257], [35.84755, 22.76299], [35.88596, 22.7357], [35.94019, 22.71661], [35.96949, 22.69798], [36.1203, 22.67574], [36.19776, 22.65168], [36.22608, 22.63543], [36.27466, 22.59235], [36.2904, 22.56839], [36.29637, 22.522], [36.31342, 22.49161], [36.37726, 22.44409], [36.31567, 22.38414], [36.2534, 22.34526], [36.11884, 22.29088], [36.02776, 22.24845], [35.9633, 22.33276], [35.91471, 22.33897], [35.82497, 22.36335], [35.67383, 22.43384], [35.665, 22.43339], [35.57212, 22.35763], [35.44455, 22.23255], [35.43299, 21.99559], [35.12491, 21.99561], [35.11711, 21.76776], [35.07543, 21.68959], [34.99828, 21.51915], [34.93209, 21.35259], [34.87138, 21.18323], [34.81635, 21.01112], [34.76739, 20.83703], [34.72474, 20.66107], [34.6888, 20.48456], [34.65952, 20.30662], [34.63721, 20.12856], [34.54748, 19.22161], [34.48607, 18.84099], [34.38735, 18.50473], [34.2324, 18.20875], [34.09618, 18.05466], [33.16341, 18.02591], [31.32832, 17.96088], [30.29679, 17.9168], [29.30337, 17.86738], [28.99398, 18.08955], [28.74325, 18.35382], [28.53695, 18.6561], [28.36964, 18.98723], [28.23504, 19.34009], [28.12822, 19.70462], [28.04324, 20.07322], [27.97455, 20.43714], [27.9152, 20.81007], [27.75408, 21.9591], [27.68865, 22.34371], [27.60869, 22.72385], [27.50856, 23.09773], [27.38248, 23.46242], [27.28451, 23.71742], [26.89478, 24.71952], [26.51816, 25.66929], [26.21743, 26.41457], [25.91227, 27.15894], [25.24211, 28.75744], [24.98126, 28.77412], [24.98125, 29.18137], [24.97432, 29.23894], [24.95665, 29.29268], [24.87376, 29.46833], [24.86384, 29.5029], [24.86156, 29.54156], [24.87055, 29.61401], [24.87066, 29.63835], [24.85619, 29.67948], [24.80493, 29.7548], [24.79821, 29.79643], [24.81495, 29.84857], [24.81619, 29.86841], [24.81164, 29.89089], [24.72555, 30.07837], [24.69733, 30.12261], [24.68834, 30.14416], [24.68865, 30.18276], [24.70467, 30.2179], [24.74612, 30.28275], [24.76286, 30.31707], [24.52695, 30.43418], [24.43819, 30.63244], [24.32286, 30.92288], [24.16917, 31.28177], [24.03954, 31.64455], [24.03233, 31.64963], [23.95556, 31.66437], [23.87868, 31.68977], [23.74512, 31.76276], [23.6707, 31.81337], [23.62477, 31.82261], [23.52156, 31.82203], [23.44124, 32.03363], [23.42388, 32.10098], [23.42093, 32.13598], [23.42464, 32.18923], [23.53165, 32.18139], [23.66969, 32.18325], [23.84054, 32.14905], [23.99869, 32.0939], [23.97071, 32.0666], [24.00489, 32.05292]]], [[[34.0311, 27.45149], [34.00709, 27.47606], [33.97633, 27.48724], [33.95631, 27.50438], [33.93377, 27.49471], [33.9245, 27.50142], [33.91366, 27.5235], [33.93332, 27.53637], [33.96412, 27.53411], [33.99391, 27.51431], [34.02848, 27.50201], [34.03842, 27.46662], [34.05127, 27.45482], [34.05127, 27.44865], [34.0311, 27.45149]]], [[[34.53113, 27.92561], [34.51809, 27.93042], [34.49636, 27.95515], [34.49781, 27.96874], [34.48953, 27.99604], [34.49322, 28.00095], [34.49635, 27.99604], [34.50786, 28.01205], [34.51407, 27.98949], [34.50685, 27.98623], [34.50318, 27.97557], [34.51189, 27.96748], [34.52034, 27.96667], [34.53113, 27.92561]]], [[[32.97706, 31.09125], [32.98308, 31.08991], [32.98922, 31.07365], [32.97511, 31.08649], [32.96974, 31.08658], [32.97706, 31.09125]]], [[[33.29868, 31.21279], [33.26986, 31.21678], [33.30111, 31.21588], [33.35255, 31.19489], [33.40601, 31.18446], [33.43295, 31.17206], [33.47584, 31.1418], [33.45436, 31.15469], [33.29868, 31.21279]]], [[[33.10255, 31.22675], [33.07643, 31.21874], [32.9559, 31.16315], [32.93476, 31.14796], [32.94647, 31.16327], [33.0669, 31.21743], [33.10475, 31.24029], [33.26245, 31.22361], [33.25611, 31.21932], [33.2435, 31.21932], [33.15309, 31.23176], [33.11899, 31.22363], [33.10255, 31.22675]]], [[[35.59855, 36.59144], [35.55252, 36.58824], [35.60796, 36.65072], [35.60865, 36.64688], [35.62208, 36.65424], [35.6668, 36.69614], [35.69554, 36.7062], [35.65219, 36.66673], [35.63315, 36.63093], [35.63134, 36.60717], [35.59855, 36.59144]]], [[[36.20086, 22.65168], [36.18531, 22.67292], [36.17025, 22.6838], [36.19434, 22.68532], [36.20678, 22.65986], [36.20086, 22.65168]]], [[[36.04209, 22.72087], [36.03835, 22.73717], [36.05582, 22.76053], [36.06624, 22.76689], [36.0617, 22.7554], [36.06665, 22.72815], [36.0616, 22.72999], [36.05568, 22.74327], [36.0433, 22.73188], [36.04704, 22.72611], [36.04209, 22.72087]]], [[[36.21795, 22.7934], [36.214, 22.81356], [36.2238, 22.80259], [36.22185, 22.79267], [36.25014, 22.78949], [36.20656, 22.7843], [36.19683, 22.79091], [36.21795, 22.7934]]], [[[35.71834, 23.19863], [35.71923, 23.19183], [35.68809, 23.20963], [35.67384, 23.2248], [35.6635, 23.22606], [35.66082, 23.22099], [35.63648, 23.22789], [35.62517, 23.22634], [35.60882, 23.21145], [35.60076, 23.21621], [35.61929, 23.20207], [35.58969, 23.21105], [35.59042, 23.21629], [35.58221, 23.22663], [35.64031, 23.23224], [35.6482, 23.23667], [35.67685, 23.23037], [35.69615, 23.23674], [35.70409, 23.22098], [35.69907, 23.22386], [35.69793, 23.22045], [35.71834, 23.19863]]], [[[36.19028, 23.59294], [36.18532, 23.60192], [36.18411, 23.62404], [36.20638, 23.61456], [36.20459, 23.60151], [36.19028, 23.59294]]], [[[35.69509, 36.72364], [35.70913, 36.71987], [35.66992, 36.70521], [35.67437, 36.70886], [35.69509, 36.72364]]], [[[35.84355, 36.80647], [35.80543, 36.7751], [35.76271, 36.76757], [35.79937, 36.78768], [35.84355, 36.80647]]]]}}]}