{"type": "FeatureCollection", "features": [{"type": "Feature", "properties": {"map_title": "제1차 세계 대전 전후의 유럽", "source": "미래엔 세계사 교과서 4권 184쪽", "volume": 4, "page": 184, "legend": "제1차 세계 대전 이후 일시적 자치 또는 독립된 지역", "name": "아르메니아", "name_en": "Armenia", "period": "1918–1920", "kind": "기타", "phase": "전후", "group": "아르메니아", "coast_snap": "Natural Earth 10m 해안선에 맞춤", "border_snap": "현대 국경(Natural Earth 10m)에 맞춘 구간 약 398 km", "map_folder": "4권_p184_제1차 세계 대전 전후의 유럽"}, "geometry": {"type": "Polygon", "coordinates": [[[45.63003, 38.72413], [45.56524, 38.62131], [45.46471, 38.47464], [45.50913, 38.2502], [45.53906, 38.02545], [45.62437, 37.9896], [45.67385, 37.82014], [45.66341, 37.6338], [45.66537, 37.51932], [45.62614, 37.37751], [45.54456, 37.11881], [45.32084, 37.13794], [44.96873, 37.17724], [44.71831, 37.2134], [44.68969, 37.17221], [44.62893, 37.17902], [44.61028, 37.17835], [44.57824, 37.16642], [44.53938, 37.14368], [44.50341, 37.11662], [44.47923, 37.092], [44.45442, 37.07634], [44.42807, 37.06477], [44.34311, 37.04244], [44.33515, 37.03115], [44.33164, 37.01547], [44.30663, 36.97723], [44.29722, 36.96994], [44.28482, 36.96917], [44.24327, 36.97777], [44.23428, 36.98366], [44.18746, 37.06694], [44.18002, 37.08761], [44.18064, 37.10892], [44.18922, 37.12921], [44.20596, 37.14662], [44.24012, 37.15797], [44.24834, 37.16967], [44.24963, 37.17944], [44.24353, 37.21383], [44.23501, 37.23677], [44.22317, 37.25406], [44.20689, 37.26752], [44.18447, 37.27917], [44.08804, 37.31116], [44.03559, 37.31824], [43.99037, 37.3125], [43.95378, 37.28747], [43.92417, 37.25308], [43.89363, 37.22491], [43.83999, 37.21711], [43.82201, 37.20238], [43.8094, 37.19969], [43.77064, 37.22584], [43.74692, 37.23065], [43.72082, 37.23261], [43.6183, 37.22698], [43.59422, 37.22946], [43.5689, 37.2377], [43.54244, 37.2523], [43.58502, 37.47788], [43.23027, 37.6145], [42.77542, 37.81291], [42.33207, 38.01684], [42.15347, 38.08573], [41.96998, 38.14724], [41.78168, 38.20293], [40.74335, 38.45544], [40.50792, 38.52291], [40.29091, 38.59347], [40.08772, 38.66588], [39.69748, 38.81372], [39.30696, 38.95096], [39.16579, 39.00655], [39.05907, 39.06667], [38.97406, 39.13231], [38.90315, 39.20203], [38.77061, 39.34636], [38.68846, 39.41903], [38.57974, 39.49035], [38.5073, 39.52021], [38.18896, 39.6045], [38.07452, 39.63996], [37.97194, 39.68156], [37.89265, 39.72959], [37.85041, 39.78274], [37.8488, 39.79579], [37.85287, 39.81186], [37.87393, 39.84527], [37.95472, 39.9273], [38.12429, 39.89097], [38.26131, 39.85501], [38.27409, 39.845], [38.28659, 39.81586], [38.31081, 39.80562], [38.39477, 39.8059], [38.69239, 39.83188], [38.76671, 39.82389], [38.89284, 39.80007], [38.96738, 39.79382], [39.05117, 39.80872], [39.24383, 39.85998], [39.4587, 39.92762], [39.69116, 40.01153], [39.74541, 40.01572], [39.78813, 40.01046], [39.78855, 40.00223], [39.76993, 39.97406], [39.77376, 39.9608], [39.83203, 39.94315], [39.89667, 39.93571], [39.97075, 39.94257], [40.228, 39.99444], [40.27263, 40.01443], [40.33742, 40.08306], [40.37524, 40.10318], [40.43688, 40.12238], [40.76815, 40.19878], [41.0076, 40.26181], [41.123, 40.28258], [41.29967, 40.34104], [41.51198, 40.39123], [41.56956, 40.41392], [41.6017, 40.43208], [41.70657, 40.5158], [41.75055, 40.54521], [41.80304, 40.57143], [41.94439, 40.62308], [42.05056, 40.63215], [42.20499, 40.63197], [42.22368, 40.63982], [42.28234, 40.69594], [42.31061, 40.71088], [42.35252, 40.71989], [42.47684, 40.73486], [42.52984, 40.74906], [42.54426, 40.75902], [42.57466, 40.80138], [42.57811, 40.82637], [42.60866, 40.82771], [42.61577, 40.83613], [42.59345, 40.86491], [42.53633, 40.90657], [42.51505, 40.9352], [42.52076, 40.94285], [42.51785, 40.95049], [42.48171, 40.99586], [42.46145, 41.03071], [42.45702, 41.05037], [42.46158, 41.06481], [42.48047, 41.07399], [42.51156, 41.07815], [42.51899, 41.08332], [42.51509, 41.12117], [42.60493, 41.11253], [42.68398, 41.11395], [42.71895, 41.12374], [42.75953, 41.15858], [42.79051, 41.1647], [42.82674, 41.15564], [43.10314, 41.2488], [43.13032, 41.24229], [43.17202, 41.24234], [43.19223, 41.22498], [43.2162, 41.18054], [43.23062, 41.17263], [43.32261, 41.19206], [43.35175, 41.19361], [43.38327, 41.1872], [43.41056, 41.17516], [43.43759, 41.1562], [43.4518, 41.13258], [43.44304, 41.11257], [43.49199, 41.07675], [43.44861, 41.04418], [43.46048, 41.02287], [43.4796, 41.00913], [43.52239, 41.00448], [43.56543, 40.98815], [43.60486, 40.96334], [43.63618, 40.93352], [43.64765, 40.91389], [43.65954, 40.85198], [43.66977, 40.83213], [43.71132, 40.78165], [43.72062, 40.76289], [43.7254, 40.7296], [44.04222, 40.73691], [44.1498, 40.71059], [44.27764, 40.66533], [44.37379, 40.60954], [44.58318, 40.43773], [44.62842, 40.40834], [44.80044, 40.32467], [44.88207, 40.27411], [44.91272, 40.2456], [44.93508, 40.21505], [44.95907, 40.15162], [44.96288, 40.12056], [44.95958, 40.06436], [44.93487, 39.98577], [45.02041, 39.76693], [45.03351, 39.77039], [45.06751, 39.75721], [45.14126, 39.6844], [45.15154, 39.66771], [45.15588, 39.64921], [45.15422, 39.62585], [45.14441, 39.58983], [45.14833, 39.57526], [45.16792, 39.56555], [45.20477, 39.57231], [45.23319, 39.59273], [45.25995, 39.5997], [45.29106, 39.56585], [45.31298, 39.53381], [45.32755, 39.52927], [45.37488, 39.52586], [45.39235, 39.51878], [45.42408, 39.49371], [45.44609, 39.48751], [45.47927, 39.49718], [45.55968, 39.53681], [45.58645, 39.54539], [45.71466, 39.56947], [45.73786, 39.56978], [45.76545, 39.56157], [45.78809, 39.54896], [45.79708, 39.53635], [45.79403, 39.49387], [45.80308, 39.44819], [45.79863, 39.43243], [45.76499, 39.38948], [45.75863, 39.36948], [45.767, 39.35439], [45.82374, 39.34308], [45.8872, 39.29967], [45.95883, 39.27244], [45.97924, 39.2573], [45.98808, 39.2419], [45.98601, 39.23469], [45.95511, 39.20324], [45.94901, 39.17779], [45.9581, 39.15151], [45.96358, 39.1445], [45.81666, 39.06242], [45.74274, 38.91523], [45.63003, 38.72413]]]}}, {"type": "Feature", "properties": {"name": "아르메니아", "name_en": "Armenia", "period": "1991년", "kind": "국가", "legend": "독립 국가 연합(CIS, 1991년 기준)", "map_title": "소련의 해체와 동유럽의 변화", "source": "미래엔 세계사 교과서 4권 201쪽", "volume": 4, "page": 201, "geometry_source": "Natural Earth 10m 국가 경계", "group": "아르메니아", "map_folder": "4권_p201_소련의 해체와 동유럽의 변화"}, "geometry": {"type": "MultiPolygon", "coordinates": [[[[45.0394, 41.23118], [45.02932, 41.2101], [45.03485, 41.19769], [45.05201, 41.19211], [45.11733, 41.19206], [45.13443, 41.18787], [45.18678, 41.15687], [45.19975, 41.14266], [45.20104, 41.12674], [45.16673, 41.10778], [45.06782, 41.11093], [45.05718, 41.07879], [45.07004, 41.06209], [45.0917, 41.05103], [45.11102, 41.04954], [45.11712, 41.06142], [45.12002, 41.07961], [45.13655, 41.0729], [45.16921, 41.04716], [45.18968, 41.03755], [45.22161, 41.01445], [45.26874, 41.01026], [45.31256, 40.99662], [45.33535, 40.99383], [45.39152, 41.01507], [45.41912, 41.01734], [45.42522, 40.99368], [45.41643, 40.96133], [45.42873, 40.9512], [45.45281, 40.94639], [45.47927, 40.92991], [45.53787, 40.8759], [45.55823, 40.87094], [45.5818, 40.86965], [45.59916, 40.86268], [45.60097, 40.84056], [45.58221, 40.79937], [45.55586, 40.77658], [45.43793, 40.73338], [45.39881, 40.70894], [45.37364, 40.6753], [45.37354, 40.63271], [45.3878, 40.60951], [45.42723, 40.58295], [45.44465, 40.56636], [45.45545, 40.52363], [45.48542, 40.50528], [45.52619, 40.44105], [45.58541, 40.39872], [45.81837, 40.2978], [45.86168, 40.26127], [45.88173, 40.26044], [45.92462, 40.26617], [45.93919, 40.26028], [45.95356, 40.24959], [45.97924, 40.22359], [45.9811, 40.20597], [45.96296, 40.14169], [45.95077, 40.11719], [45.9317, 40.09755], [45.90953, 40.08267], [45.89402, 40.02908], [45.8872, 40.01844], [45.87377, 40.00975], [45.8039, 40.00448], [45.63957, 40.02541], [45.57627, 39.99389], [45.57942, 39.97017], [45.61115, 39.95916], [45.71543, 39.9509], [45.74277, 39.94051], [45.76442, 39.92206], [45.81682, 39.83917], [45.86188, 39.80455], [45.91614, 39.78315], [45.97924, 39.76848], [46.00658, 39.74791], [46.04513, 39.68755], [46.07655, 39.66812], [46.11448, 39.65965], [46.13168, 39.65215], [46.1461, 39.63846], [46.16956, 39.6041], [46.18424, 39.59324], [46.20646, 39.58792], [46.24119, 39.5935], [46.3095, 39.62053], [46.34371, 39.61862], [46.35787, 39.60968], [46.38144, 39.58503], [46.39642, 39.57666], [46.41616, 39.57402], [46.47931, 39.57867], [46.49544, 39.57593], [46.51202, 39.56756], [46.52427, 39.55464], [46.52727, 39.53816], [46.51828, 39.52544], [46.49202, 39.5102], [46.49171, 39.49366], [46.49859, 39.48312], [46.49823, 39.47377], [46.49141, 39.46643], [46.47931, 39.46188], [46.40572, 39.45119], [46.374, 39.43599], [46.36087, 39.41026], [46.37462, 39.37884], [46.40738, 39.35915], [46.47931, 39.33424], [46.49528, 39.32401], [46.50794, 39.29357], [46.51766, 39.27884], [46.54184, 39.25905], [46.59114, 39.23107], [46.60261, 39.21549], [46.59383, 39.21213], [46.57279, 39.21151], [46.52644, 39.18583], [46.51414, 39.18443], [46.45337, 39.20841], [46.41833, 39.21192], [46.39529, 39.19518], [46.39627, 39.16443], [46.42185, 39.14464], [46.45513, 39.12994], [46.47931, 39.11477], [46.49192, 39.0819], [46.4975, 39.05353], [46.49461, 39.02553], [46.4758, 38.97561], [46.47507, 38.95106], [46.47931, 38.93938], [46.51404, 38.88218], [46.37823, 38.92471], [46.34335, 38.91747], [46.29131, 38.91393], [46.20248, 38.87055], [46.13587, 38.8637], [46.07758, 38.95049], [46.02549, 39.06377], [46.00523, 39.09544], [45.9581, 39.15151], [45.94901, 39.17779], [45.95511, 39.20324], [45.98601, 39.23469], [45.98808, 39.24189], [45.9858, 39.24944], [45.95883, 39.27244], [45.8872, 39.29967], [45.82375, 39.34308], [45.767, 39.35439], [45.75863, 39.36948], [45.76499, 39.38948], [45.79863, 39.43243], [45.80307, 39.44819], [45.79403, 39.49387], [45.79708, 39.53635], [45.78809, 39.54896], [45.76545, 39.56157], [45.73786, 39.56978], [45.71466, 39.56947], [45.58645, 39.54539], [45.55968, 39.53681], [45.47927, 39.49718], [45.45746, 39.48927], [45.43483, 39.48886], [45.42408, 39.49371], [45.39235, 39.51878], [45.37488, 39.52586], [45.32755, 39.52927], [45.31298, 39.53381], [45.29106, 39.56585], [45.25995, 39.5997], [45.23319, 39.59273], [45.20477, 39.57231], [45.16792, 39.56555], [45.14833, 39.57526], [45.14441, 39.58983], [45.15422, 39.62585], [45.15588, 39.64921], [45.15154, 39.66771], [45.14126, 39.6844], [45.06751, 39.75721], [45.03351, 39.77039], [44.99599, 39.76047], [44.95909, 39.73851], [44.92716, 39.72471], [44.89305, 39.7184], [44.84933, 39.71892], [44.80293, 39.71241], [44.77456, 39.7028], [44.75911, 39.72311], [44.69203, 39.79302], [44.68242, 39.79721], [44.66619, 39.79638], [44.64769, 39.80512], [44.61152, 39.83731], [44.59819, 39.83101], [44.59447, 39.83679], [44.59106, 39.85783], [44.56749, 39.87302], [44.55912, 39.89689], [44.54785, 39.91147], [44.52217, 39.93353], [44.46435, 39.97229], [44.32565, 40.03466], [44.28906, 40.0434], [44.25526, 40.0434], [44.13548, 40.02231], [44.127, 40.02448], [44.11429, 40.03394], [44.10447, 40.03596], [44.08313, 40.03161], [44.04835, 40.01286], [44.03243, 40.00862], [43.91213, 40.02433], [43.80278, 40.07073], [43.71121, 40.09073], [43.66543, 40.11016], [43.65251, 40.139], [43.66636, 40.14892], [43.71163, 40.15646], [43.72139, 40.16938], [43.71493, 40.18065], [43.68372, 40.2101], [43.67307, 40.22773], [43.69137, 40.23863], [43.67597, 40.26597], [43.63148, 40.3103], [43.60445, 40.32979], [43.59422, 40.34544], [43.60104, 40.36183], [43.60957, 40.37299], [43.62533, 40.41335], [43.62533, 40.42017], [43.58486, 40.44658], [43.56363, 40.46471], [43.55949, 40.47789], [43.5937, 40.509], [43.6153, 40.52042], [43.63897, 40.52259], [43.63148, 40.53686], [43.65251, 40.52941], [43.65147, 40.55339], [43.66481, 40.57406], [43.70718, 40.61194], [43.69953, 40.63457], [43.7264, 40.66899], [43.72935, 40.6771], [43.72062, 40.76289], [43.71132, 40.78165], [43.66977, 40.83213], [43.65954, 40.85198], [43.64765, 40.91389], [43.63618, 40.93352], [43.60486, 40.96334], [43.56543, 40.98815], [43.52239, 41.00447], [43.4796, 41.00913], [43.46048, 41.02287], [43.44456, 41.05145], [43.43629, 41.08323], [43.44043, 41.10659], [43.46032, 41.10452], [43.52414, 41.12281], [43.56662, 41.12405], [43.72971, 41.10669], [43.75416, 41.10824], [43.77374, 41.11449], [43.82035, 41.1455], [43.86324, 41.15899], [43.95585, 41.16049], [44.00112, 41.16886], [44.04132, 41.18255], [44.06127, 41.18415], [44.10364, 41.17516], [44.12473, 41.17806], [44.14436, 41.18607], [44.16007, 41.1979], [44.16845, 41.22358], [44.18033, 41.22994], [44.19098, 41.23004], [44.21811, 41.22157], [44.26648, 41.1962], [44.28498, 41.19087], [44.30849, 41.19382], [44.33309, 41.21035], [44.34492, 41.21325], [44.35727, 41.21216], [44.4106, 41.18772], [44.43246, 41.18167], [44.45494, 41.18048], [44.47923, 41.18581], [44.50589, 41.20658], [44.51664, 41.20684], [44.53101, 41.18147], [44.55152, 41.17702], [44.56625, 41.18694], [44.59137, 41.21578], [44.61286, 41.22312], [44.63312, 41.22105], [44.67493, 41.20849], [44.82153, 41.20622], [44.84778, 41.20891], [44.85771, 41.21935], [44.84706, 41.23077], [44.80954, 41.24441], [44.80127, 41.25852], [44.82071, 41.27335], [44.91724, 41.26177], [44.95517, 41.2627], [45.0024, 41.29045], [45.0394, 41.23118]], [[45.22047, 40.97905], [45.19185, 40.99781], [45.18378, 40.99791], [45.17717, 40.99383], [45.18678, 40.97083], [45.20993, 40.96799], [45.22047, 40.97905]], [[44.96395, 41.07377], [44.9607, 41.05992], [44.96695, 41.04483], [44.97946, 41.03264], [45.01573, 41.02323], [45.02999, 41.04628], [45.01888, 41.07491], [44.97946, 41.08204], [44.96395, 41.07377]]], [[[45.47927, 40.60982], [45.47328, 40.61943], [45.47131, 40.62987], [45.47338, 40.64031], [45.47927, 40.65023], [45.49178, 40.65711], [45.50557, 40.66021], [45.53467, 40.65892], [45.56071, 40.64765], [45.54717, 40.62155], [45.51369, 40.60197], [45.47927, 40.60982]]]]}}]}