{"type": "FeatureCollection", "features": [{"type": "Feature", "properties": {"name": "에스파냐", "name_en": "Spain", "period": "1993년 가입", "kind": "국가", "legend": "1993 마스트리흐트 조약으로 유럽 연합 창설(12개국)", "accession_year": 1993, "map_title": "유럽 연합 회원국(2023년 기준)", "source": "미래엔 세계사 교과서 4권 206쪽", "volume": 4, "page": 206, "geometry_source": "Natural Earth 10m 국가 경계"}, "geometry": {"type": "MultiPolygon", "coordinates": [[[[4.3073, 39.91055], [4.32879, 39.88345], [4.33709, 39.86717], [4.33033, 39.86717], [4.31975, 39.87922], [4.30291, 39.8876], [4.30006, 39.82176], [4.24814, 39.81647], [4.17718, 39.84333], [4.01507, 39.92577], [3.98137, 39.93606], [3.94134, 39.93675], [3.86931, 39.92552], [3.83066, 39.93606], [3.83912, 39.97557], [3.85052, 39.98387], [3.81292, 40.00121], [3.8034, 40.01317], [3.80315, 40.01813], [3.8095, 40.03539], [3.82187, 40.04763], [3.89153, 40.05956], [3.91546, 40.05199], [4.01189, 40.05956], [4.05201, 40.05817], [4.07757, 40.06428], [4.10507, 40.07941], [4.10784, 40.06761], [4.13909, 40.04592], [4.13486, 40.03571], [4.13543, 40.02822], [4.14226, 40.02481], [4.15594, 40.03465], [4.16578, 40.04592], [4.16383, 40.06057], [4.1705, 40.0646], [4.17652, 40.05923], [4.17262, 40.04592], [4.17864, 40.03885], [4.20672, 40.02481], [4.22722, 40.00491], [4.25457, 39.99746], [4.2649, 39.9864], [4.27337, 39.96996], [4.27239, 39.95535], [4.25457, 39.94969], [4.27011, 39.94375], [4.29802, 39.94196], [4.3073, 39.91055]]], [[[3.38315, 39.77794], [3.43979, 39.75198], [3.47438, 39.7497], [3.46852, 39.73933], [3.47438, 39.71552], [3.46144, 39.70006], [3.46754, 39.68757], [3.45387, 39.65969], [3.44321, 39.64578], [3.4131, 39.63508], [3.40187, 39.62324], [3.39869, 39.60773], [3.40602, 39.59199], [3.36541, 39.56306], [3.32325, 39.52387], [3.29176, 39.47577], [3.28248, 39.42011], [3.26881, 39.42756], [3.25262, 39.38618], [3.22104, 39.35989], [3.12941, 39.31574], [3.09099, 39.29007], [3.07911, 39.27688], [3.0608, 39.26907], [3.02931, 39.30463], [3.00131, 39.31769], [2.99138, 39.34728], [2.95883, 39.36323], [2.93816, 39.36437], [2.91261, 39.35867], [2.82545, 39.36359], [2.78663, 39.37592], [2.76173, 39.40021], [2.75123, 39.45478], [2.73658, 39.4621], [2.73951, 39.4783], [2.75489, 39.50263], [2.7435, 39.52338], [2.7151, 39.54352], [2.68165, 39.55866], [2.65528, 39.56472], [2.63347, 39.55927], [2.5691, 39.53152], [2.55567, 39.52005], [2.54493, 39.49299], [2.52019, 39.47285], [2.49269, 39.47024], [2.47169, 39.49791], [2.46901, 39.50589], [2.47218, 39.51215], [2.48064, 39.51622], [2.45395, 39.53742], [2.43816, 39.52521], [2.43116, 39.5277], [2.42596, 39.53742], [2.39186, 39.52375], [2.38209, 39.52924], [2.37371, 39.54719], [2.35564, 39.55866], [2.35076, 39.57648], [2.35174, 39.59675], [2.35768, 39.61188], [2.42937, 39.64667], [2.45045, 39.65034], [2.46827, 39.65937], [2.51759, 39.70014], [2.5324, 39.70637], [2.56967, 39.71308], [2.61769, 39.7497], [2.63136, 39.77013], [2.65187, 39.77013], [2.71062, 39.81855], [2.74741, 39.83161], [2.78484, 39.85672], [2.80323, 39.8616], [2.81324, 39.87259], [2.8436, 39.87259], [2.87306, 39.88349], [2.93328, 39.9145], [2.96412, 39.92097], [3.02027, 39.92516], [3.07569, 39.9361], [3.17945, 39.96878], [3.19313, 39.95511], [3.20134, 39.96052], [3.2142, 39.95511], [3.14088, 39.92809], [3.11549, 39.90876], [3.09693, 39.91352], [3.09474, 39.88121], [3.13022, 39.87641], [3.2068, 39.89301], [3.2068, 39.88683], [3.19679, 39.88121], [3.19646, 39.86713], [3.18718, 39.85436], [3.16521, 39.84589], [3.13356, 39.83955], [3.12631, 39.83185], [3.12485, 39.8111], [3.13648, 39.78876], [3.16261, 39.76911], [3.19483, 39.75499], [3.22389, 39.7497], [3.29249, 39.7497], [3.30991, 39.75507], [3.34034, 39.779], [3.3545, 39.78437], [3.38315, 39.77794]]], [[[-1.79408, 43.38602], [-1.79691, 43.34113], [-1.76823, 43.33092], [-1.75578, 43.31855], [-1.75242, 43.29909], [-1.74736, 43.291], [-1.68302, 43.30493], [-1.65491, 43.29754], [-1.64504, 43.29237], [-1.64798, 43.28155], [-1.63904, 43.25568], [-1.62189, 43.247], [-1.59848, 43.247], [-1.58757, 43.2516], [-1.57398, 43.27744], [-1.55905, 43.28408], [-1.5392, 43.28356], [-1.50809, 43.27676], [-1.46639, 43.26077], [-1.43223, 43.26501], [-1.4035, 43.24333], [-1.39968, 43.20674], [-1.41053, 43.1669], [-1.42577, 43.13528], [-1.48784, 43.08182], [-1.47528, 43.06014], [-1.45714, 43.04507], [-1.43502, 43.03572], [-1.41053, 43.03092], [-1.38314, 43.02921], [-1.36614, 43.03332], [-1.35761, 43.04683], [-1.35518, 43.07303], [-1.34826, 43.09308], [-1.33105, 43.10734], [-1.30862, 43.11357], [-1.28604, 43.10918], [-1.30697, 43.09598], [-1.31508, 43.08288], [-1.31059, 43.06949], [-1.29369, 43.0552], [-1.27488, 43.04683], [-1.2169, 43.03926], [-1.18253, 43.02528], [-1.14993, 43.00572], [-1.11241, 43.00825], [-1.0797, 42.9934], [-1.02849, 42.98671], [-1.01629, 42.97624], [-0.98146, 42.95704], [-0.94322, 42.9479], [-0.86353, 42.94306], [-0.78643, 42.95327], [-0.75967, 42.9465], [-0.74091, 42.9109], [-0.74587, 42.89392], [-0.74029, 42.8848], [-0.73011, 42.87751], [-0.70039, 42.87643], [-0.6483, 42.84979], [-0.60949, 42.81144], [-0.61016, 42.79909], [-0.58293, 42.79584], [-0.57714, 42.78979], [-0.57869, 42.77734], [-0.56903, 42.77264], [-0.53565, 42.78421], [-0.53389, 42.80801], [-0.50841, 42.80749], [-0.45446, 42.78891], [-0.42392, 42.79067], [-0.39974, 42.80132], [-0.35168, 42.82925], [-0.343, 42.82274], [-0.33517, 42.82496], [-0.32279, 42.8425], [-0.30742, 42.83183], [-0.24703, 42.80483], [-0.23515, 42.78623], [-0.20836, 42.78388], [-0.16141, 42.79535], [-0.16363, 42.77798], [-0.15779, 42.7607], [-0.14572, 42.74589], [-0.12311, 42.73036], [-0.11903, 42.71685], [-0.09575, 42.71068], [-0.07841, 42.69667], [-0.03893, 42.68515], [-0.00431, 42.68753], [0.07284, 42.70848], [0.13418, 42.71522], [0.15294, 42.7246], [0.16917, 42.72646], [0.22239, 42.71621], [0.23836, 42.71037], [0.25981, 42.68238], [0.27539, 42.66869], [0.29024, 42.67029], [0.31831, 42.69954], [0.33603, 42.71269], [0.35417, 42.7175], [0.38182, 42.70011], [0.3844, 42.68858], [0.38928, 42.68515], [0.40928, 42.68225], [0.46693, 42.69044], [0.48351, 42.6853], [0.60816, 42.68799], [0.64361, 42.68448], [0.65673, 42.68799], [0.66542, 42.69866], [0.66645, 42.71476], [0.65963, 42.7299], [0.64764, 42.74104], [0.63348, 42.74478], [0.6433, 42.75907], [0.65074, 42.76339], [0.63968, 42.77468], [0.65374, 42.80269], [0.65157, 42.82405], [0.65632, 42.83842], [0.67937, 42.84511], [0.70676, 42.84658], [0.72433, 42.84529], [0.77631, 42.83245], [0.8129, 42.83162], [0.8561, 42.81276], [0.88577, 42.80424], [0.91036, 42.78767], [0.92111, 42.78437], [0.95026, 42.79612], [0.98292, 42.78036], [1.06818, 42.77612], [1.08906, 42.77132], [1.10673, 42.75961], [1.13433, 42.71597], [1.15149, 42.70672], [1.16254, 42.70569], [1.19593, 42.71365], [1.31912, 42.71336], [1.34258, 42.70866], [1.33824, 42.69445], [1.34331, 42.69044], [1.36108, 42.68672], [1.39798, 42.64363], [1.41483, 42.60934], [1.4293, 42.59539], [1.41927, 42.57926], [1.41803, 42.56983], [1.4264, 42.56565], [1.4263, 42.5618], [1.40976, 42.54061], [1.40646, 42.52924], [1.42899, 42.53146], [1.44656, 42.51989], [1.44997, 42.50407], [1.43023, 42.49356], [1.40759, 42.48676], [1.43643, 42.45348], [1.43643, 42.44095], [1.4479, 42.43465], [1.51663, 42.4295], [1.52821, 42.43423], [1.54443, 42.45036], [1.60748, 42.45643], [1.63952, 42.46643], [1.65399, 42.49653], [1.67424, 42.49051], [1.68634, 42.49061], [1.6975, 42.49446], [1.70701, 42.50278], [1.71197, 42.49929], [1.71217, 42.49371], [1.73057, 42.48805], [1.79269, 42.48172], [1.81367, 42.47524], [1.86979, 42.44679], [1.91196, 42.44196], [1.92746, 42.43689], [1.9411, 42.4201], [1.95423, 42.38269], [1.96374, 42.36723], [1.99567, 42.34868], [2.00921, 42.34708], [2.05169, 42.35235], [2.06326, 42.35791], [2.10399, 42.38483], [2.12104, 42.41062], [2.13695, 42.41622], [2.18419, 42.41181], [2.24599, 42.42612], [2.27741, 42.42863], [2.31731, 42.40961], [2.37549, 42.38933], [2.42252, 42.38369], [2.42986, 42.36754], [2.44557, 42.35196], [2.46489, 42.34062], [2.51481, 42.32566], [2.52525, 42.32589], [2.53197, 42.33078], [2.54034, 42.34698], [2.54809, 42.35225], [2.56742, 42.35264], [2.63543, 42.33788], [2.66219, 42.33902], [2.66178, 42.34336], [2.64938, 42.35372], [2.64028, 42.37284], [2.64824, 42.38147], [2.69041, 42.40617], [2.70808, 42.41289], [2.72855, 42.41403], [2.76772, 42.40956], [2.78859, 42.41201], [2.85081, 42.44837], [2.90083, 42.45126], [2.9337, 42.47022], [2.96605, 42.461], [2.9831, 42.46932], [3.02961, 42.46565], [3.04388, 42.44527], [3.05359, 42.43764], [3.08615, 42.42718], [3.13782, 42.42594], [3.18097, 42.43148], [3.17018, 42.39659], [3.17449, 42.38089], [3.17449, 42.3638], [3.18735, 42.34951], [3.20419, 42.33959], [3.24985, 42.34321], [3.26303, 42.32921], [3.26987, 42.32921], [3.28061, 42.33686], [3.29371, 42.33499], [3.31772, 42.32298], [3.29404, 42.28803], [3.28704, 42.26293], [3.27036, 42.25011], [3.26303, 42.23985], [3.24716, 42.24571], [3.21013, 42.23973], [3.17872, 42.2497], [3.17018, 42.25967], [3.15162, 42.25682], [3.1303, 42.23973], [3.11883, 42.21833], [3.11647, 42.15843], [3.12249, 42.14049], [3.1386, 42.12763], [3.17311, 42.11201], [3.2145, 42.06833], [3.21301, 42.05599], [3.19986, 42.04619], [3.1959, 42.03312], [3.20786, 41.99002], [3.23056, 41.97301], [3.23569, 41.96552], [3.23219, 41.94603], [3.20745, 41.91393], [3.19492, 41.88829], [3.15016, 41.84535], [3.11683, 41.84757], [3.07863, 41.82662], [3.06906, 41.79908], [3.04034, 41.78689], [2.95094, 41.73428], [2.93299, 41.71246], [2.84018, 41.69465], [2.82016, 41.68195], [2.81316, 41.67032], [2.792, 41.66901], [2.7785, 41.64558], [2.65187, 41.60529], [2.44947, 41.53522], [2.42897, 41.51895], [2.37135, 41.4892], [2.29672, 41.46532], [2.26735, 41.44864], [2.24041, 41.42097], [2.19191, 41.35676], [2.16326, 41.32665], [2.13054, 41.30366], [2.06031, 41.2746], [2.01971, 41.26586], [1.95135, 41.26069], [1.88413, 41.2475], [1.85401, 41.23599], [1.81984, 41.23713], [1.62436, 41.19217], [1.53924, 41.18744], [1.2881, 41.11628], [1.21778, 41.10468], [1.21005, 41.09988], [1.1836, 41.06257], [1.17294, 41.05866], [1.14169, 41.07172], [1.09767, 41.07087], [1.05567, 41.06489], [1.01743, 41.05179], [0.99041, 41.0397], [0.87745, 40.95478], [0.82276, 40.8996], [0.7142, 40.81521], [0.69483, 40.786], [0.75017, 40.76557], [0.76238, 40.76606], [0.76726, 40.77102], [0.76352, 40.77839], [0.75017, 40.786], [0.76694, 40.78502], [0.78053, 40.77949], [0.81593, 40.7484], [0.84181, 40.73212], [0.85418, 40.73314], [0.87371, 40.72793], [0.87241, 40.7071], [0.85808, 40.68626], [0.84832, 40.67536], [0.78403, 40.66096], [0.75636, 40.64224], [0.70704, 40.5834], [0.67709, 40.56517], [0.64796, 40.55691], [0.6159, 40.55345], [0.59246, 40.5821], [0.64064, 40.58686], [0.66318, 40.57473], [0.69622, 40.59036], [0.73268, 40.63373], [0.71249, 40.63618], [0.68222, 40.63422], [0.59978, 40.61371], [0.58017, 40.60366], [0.56349, 40.59003], [0.54851, 40.57233], [0.50131, 40.4842], [0.45265, 40.43407], [0.44614, 40.40843], [0.42026, 40.38825], [0.3506, 40.2849], [0.29884, 40.24677], [0.26474, 40.20978], [0.20525, 40.17154], [0.14454, 40.07884], [0.11704, 40.05634], [0.06617, 40.03193], [0.0405, 40.00288], [-0.00292, 39.93195], [-0.02868, 39.9018], [-0.0913, 39.84793], [-0.19449, 39.71544], [-0.19982, 39.70494], [-0.20214, 39.68085], [-0.20893, 39.66409], [-0.25744, 39.61624], [-0.26956, 39.5987], [-0.28148, 39.56936], [-0.31273, 39.534], [-0.32335, 39.51622], [-0.33059, 39.48041], [-0.32747, 39.43068], [-0.32067, 39.38813], [-0.30134, 39.32201], [-0.2387, 39.21545], [-0.21549, 39.18184], [-0.24218, 39.16627], [-0.2267, 39.11178], [-0.21003, 39.07869], [-0.15803, 39.00214], [-0.12068, 38.95112], [-0.10595, 38.93651], [-0.06859, 38.9134], [-0.031, 38.88276], [-0.00975, 38.8697], [0.01743, 38.86433], [0.06308, 38.86078], [0.11101, 38.84992], [0.15398, 38.831], [0.18531, 38.80353], [0.17091, 38.79609], [0.18287, 38.79181], [0.21787, 38.76813], [0.22771, 38.77021], [0.23406, 38.75788], [0.23455, 38.74226], [0.22771, 38.73457], [0.19207, 38.73041], [0.17677, 38.72403], [0.16261, 38.71353], [0.14503, 38.68635], [0.11858, 38.68281], [0.08302, 38.66096], [0.07313, 38.64521], [0.08058, 38.63101], [0.06044, 38.63483], [0.01503, 38.62474], [-0.01476, 38.62442], [-0.0288, 38.62067], [-0.04296, 38.61172], [-0.05476, 38.59528], [-0.05362, 38.56696], [-0.06005, 38.55272], [-0.07543, 38.53994], [-0.0902, 38.53535], [-0.13174, 38.53535], [-0.17699, 38.52725], [-0.20214, 38.5196], [-0.23396, 38.50165], [-0.32942, 38.47004], [-0.34455, 38.46162], [-0.35082, 38.45002], [-0.39517, 38.41376], [-0.40608, 38.39887], [-0.40998, 38.36896], [-0.41369, 38.36481], [-0.46019, 38.36005], [-0.47057, 38.35187], [-0.47436, 38.33674], [-0.50984, 38.33837], [-0.51879, 38.29865], [-0.50402, 38.20722], [-0.51545, 38.1955], [-0.53287, 38.19217], [-0.56884, 38.1942], [-0.59138, 38.18964], [-0.60949, 38.17805], [-0.62369, 38.16242], [-0.63439, 38.14582], [-0.64501, 38.11603], [-0.65453, 37.98933], [-0.6634, 37.98029], [-0.68993, 37.97215], [-0.70885, 37.95629], [-0.71841, 37.94302], [-0.75862, 37.86335], [-0.76073, 37.84707], [-0.75609, 37.80606], [-0.76073, 37.79613], [-0.78799, 37.82282], [-0.81241, 37.77009], [-0.82555, 37.76138], [-0.84781, 37.75609], [-0.85611, 37.7425], [-0.85261, 37.72378], [-0.81981, 37.6767], [-0.80993, 37.6669], [-0.75479, 37.6413], [-0.73485, 37.63935], [-0.72647, 37.65152], [-0.708, 37.64301], [-0.70124, 37.63133], [-0.70531, 37.61953], [-0.73664, 37.59943], [-0.74568, 37.59943], [-0.75451, 37.60431], [-0.80797, 37.58845], [-0.83642, 37.5764], [-0.88671, 37.57429], [-0.92516, 37.55589], [-0.9735, 37.5764], [-1.00642, 37.58145], [-1.08776, 37.58088], [-1.10342, 37.5764], [-1.11465, 37.56867], [-1.11999, 37.55903], [-1.10577, 37.53213], [-1.16706, 37.54375], [-1.17858, 37.56388], [-1.19973, 37.56656], [-1.2427, 37.5792], [-1.25767, 37.56701], [-1.26167, 37.55766], [-1.32374, 37.56199], [-1.36917, 37.54137], [-1.41369, 37.50654], [-1.43037, 37.49811], [-1.45556, 37.4927], [-1.4709, 37.48224], [-1.47667, 37.47272], [-1.48835, 37.43321], [-1.49694, 37.4278], [-1.515, 37.43321], [-1.54373, 37.41498], [-1.56774, 37.40994], [-1.61872, 37.39228], [-1.64162, 37.38104], [-1.64591, 37.36925], [-1.65284, 37.36126], [-1.67089, 37.36331], [-1.68016, 37.35444], [-1.68578, 37.33698], [-1.69896, 37.31643], [-1.7285, 37.28242], [-1.78722, 37.23522], [-1.81273, 37.20706], [-1.83035, 37.16637], [-1.83776, 37.13162], [-1.84984, 37.10444], [-1.85521, 37.07661], [-1.885, 37.01549], [-1.90612, 36.98762], [-1.90697, 36.97529], [-1.89867, 36.95006], [-1.90034, 36.94119], [-1.91287, 36.93354], [-1.9414, 36.92988], [-1.98892, 36.9005], [-2.0028, 36.88703], [-2.01305, 36.84577], [-2.05687, 36.81009], [-2.07116, 36.77534], [-2.10082, 36.76516], [-2.11107, 36.74612], [-2.1267, 36.7364], [-2.16613, 36.72757], [-2.20364, 36.73713], [-2.23168, 36.76008], [-2.25613, 36.78738], [-2.28279, 36.81009], [-2.31835, 36.82791], [-2.33914, 36.83425], [-2.36168, 36.83678], [-2.38024, 36.83377], [-2.41271, 36.82001], [-2.43309, 36.81627], [-2.48143, 36.82994], [-2.56078, 36.81879], [-2.57689, 36.81131], [-2.61718, 36.72842], [-2.65888, 36.69481], [-2.68436, 36.68598], [-2.71825, 36.68203], [-2.73619, 36.6874], [-2.75666, 36.68037], [-2.8026, 36.7073], [-2.82099, 36.71389], [-2.82999, 36.71174], [-2.83906, 36.70242], [-2.84826, 36.70022], [-2.85875, 36.70494], [-2.8861, 36.7344], [-2.91397, 36.75031], [-2.93326, 36.75165], [-2.98772, 36.73711], [-3.07645, 36.74976], [-3.15671, 36.74453], [-3.2279, 36.75483], [-3.32958, 36.7449], [-3.37877, 36.71389], [-3.41515, 36.69552], [-3.4776, 36.6961], [-3.51596, 36.72105], [-3.53606, 36.71841], [-3.54983, 36.71237], [-3.5864, 36.72658], [-3.6011, 36.74255], [-3.66567, 36.73937], [-3.67982, 36.72881], [-3.73128, 36.7241], [-3.83854, 36.75197], [-3.96096, 36.72679], [-4.05671, 36.74799], [-4.07996, 36.74356], [-4.11017, 36.72573], [-4.22472, 36.71239], [-4.40319, 36.72386], [-4.42032, 36.71988], [-4.43326, 36.71068], [-4.46687, 36.66303], [-4.49112, 36.63666], [-4.49535, 36.62055], [-4.52483, 36.58071], [-4.5878, 36.57382], [-4.61502, 36.53056], [-4.65925, 36.50764], [-4.72277, 36.49299], [-4.76423, 36.49396], [-4.90266, 36.50654], [-4.91218, 36.50401], [-4.99417, 36.45709], [-5.06249, 36.45222], [-5.10871, 36.42902], [-5.15762, 36.42194], [-5.18655, 36.4112], [-5.22712, 36.35794], [-5.22794, 36.34854], [-5.25365, 36.29711], [-5.27412, 36.28254], [-5.2906, 36.27741], [-5.28531, 36.26081], [-5.33406, 36.18781], [-5.33877, 36.14112], [-5.35839, 36.14111], [-5.36661, 36.16315], [-5.38252, 36.17231], [-5.40608, 36.17923], [-5.42544, 36.17976], [-5.4287, 36.16999], [-5.4379, 36.16148], [-5.44233, 36.14879], [-5.44148, 36.13455], [-5.43489, 36.12153], [-5.43989, 36.1142], [-5.43716, 36.0987], [-5.4287, 36.0808], [-5.43183, 36.06957], [-5.43863, 36.06281], [-5.4455, 36.05744], [-5.61177, 36.00646], [-5.62971, 36.03677], [-5.68936, 36.06712], [-5.71312, 36.05996], [-5.73388, 36.06566], [-5.75365, 36.07559], [-5.79605, 36.08552], [-5.81127, 36.09683], [-5.83275, 36.12238], [-5.8979, 36.1739], [-5.91718, 36.18407], [-5.93895, 36.18382], [-5.98355, 36.17699], [-6.03677, 36.18952], [-6.06249, 36.21723], [-6.08218, 36.25068], [-6.10473, 36.28071], [-6.15945, 36.30431], [-6.1752, 36.35358], [-6.18419, 36.37071], [-6.21837, 36.40245], [-6.25711, 36.47643], [-6.27961, 36.5113], [-6.31001, 36.53413], [-6.29768, 36.53876], [-6.28938, 36.5373], [-6.25752, 36.51378], [-6.24897, 36.50475], [-6.2541, 36.49628], [-6.23147, 36.47268], [-6.21906, 36.47496], [-6.2115, 36.48054], [-6.17935, 36.51354], [-6.20682, 36.5089], [-6.22436, 36.51085], [-6.23245, 36.52619], [-6.22602, 36.55667], [-6.23489, 36.57575], [-6.28319, 36.61237], [-6.29385, 36.61685], [-6.36172, 36.62055], [-6.37979, 36.62425], [-6.39468, 36.63691], [-6.40697, 36.6767], [-6.43155, 36.71459], [-6.4379, 36.7333], [-6.43334, 36.75121], [-6.41454, 36.76765], [-6.35888, 36.78583], [-6.34561, 36.79499], [-6.33519, 36.81826], [-6.34374, 36.85993], [-6.33821, 36.88373], [-6.30435, 36.90721], [-6.22326, 36.90233], [-6.19481, 36.93212], [-6.21402, 36.9217], [-6.23965, 36.9134], [-6.26504, 36.91291], [-6.28356, 36.92593], [-6.32592, 36.91266], [-6.34472, 36.90127], [-6.35245, 36.88028], [-6.34667, 36.81989], [-6.35245, 36.80858], [-6.38801, 36.80817], [-6.41625, 36.83779], [-6.44864, 36.9042], [-6.4711, 36.93561], [-6.49958, 36.95966], [-6.74486, 37.10139], [-6.77147, 37.11278], [-6.81176, 37.12373], [-6.85302, 37.15111], [-6.89289, 37.16657], [-6.91088, 37.18895], [-6.91763, 37.21507], [-6.91076, 37.22761], [-6.89875, 37.23578], [-6.85269, 37.29523], [-6.90347, 37.24958], [-6.93114, 37.23387], [-6.96255, 37.23383], [-6.96255, 37.22761], [-6.93008, 37.18317], [-6.92846, 37.17235], [-6.94164, 37.17109], [-7.02937, 37.20551], [-7.10104, 37.22425], [-7.12735, 37.21475], [-7.09899, 37.2119], [-7.08556, 37.20649], [-7.32787, 37.20157], [-7.34309, 37.19623], [-7.3629, 37.18171], [-7.38142, 37.17992], [-7.41442, 37.19282], [-7.43424, 37.25933], [-7.42758, 37.27452], [-7.43745, 37.30734], [-7.44499, 37.38676], [-7.46225, 37.41787], [-7.46003, 37.42914], [-7.46887, 37.47557], [-7.47595, 37.49425], [-7.50633, 37.51812], [-7.51543, 37.52934], [-7.52367, 37.55567], [-7.52912, 37.5567], [-7.52969, 37.56717], [-7.51584, 37.58094], [-7.51253, 37.59037], [-7.51434, 37.6014], [-7.50489, 37.60639], [-7.47161, 37.6369], [-7.45755, 37.70008], [-7.44401, 37.73015], [-7.42634, 37.75062], [-7.33441, 37.81193], [-7.30686, 37.85077], [-7.2958, 37.88487], [-7.27389, 37.93154], [-7.26862, 37.94924], [-7.2727, 37.97701], [-7.26583, 37.98295], [-7.23405, 37.98807], [-7.2233, 37.99383], [-7.18527, 37.98869], [-7.15974, 37.9968], [-7.14191, 38.01158], [-7.13199, 38.03238], [-7.12326, 38.04001], [-7.10594, 38.03866], [-7.04936, 38.02021], [-7.02398, 38.02256], [-7.01577, 38.04683], [-7.00636, 38.05933], [-6.99763, 38.08961], [-6.97898, 38.11995], [-6.9475, 38.19664], [-6.9642, 38.20614], [-6.9921, 38.20428], [-7.01815, 38.19803], [-7.02641, 38.19963], [-7.03871, 38.18622], [-7.06305, 38.17754], [-7.10351, 38.17359], [-7.12687, 38.1909], [-7.16718, 38.27208], [-7.19633, 38.29216], [-7.21136, 38.31753], [-7.31715, 38.42458], [-7.35921, 38.44636], [-7.33518, 38.46944], [-7.33409, 38.48101], [-7.34562, 38.49414], [-7.3358, 38.50587], [-7.31771, 38.55625], [-7.27586, 38.60382], [-7.27043, 38.6177], [-7.27353, 38.62539], [-7.28604, 38.63191], [-7.29095, 38.63816], [-7.29296, 38.65627], [-7.28407, 38.71325], [-7.27043, 38.73751], [-7.21152, 38.77536], [-7.19643, 38.77999], [-7.17974, 38.79089], [-7.1662, 38.80342], [-7.16062, 38.8129], [-7.15101, 38.81929], [-7.10486, 38.82719], [-7.08868, 38.83337], [-7.05608, 38.85515], [-7.05727, 38.86944], [-7.0522, 38.88499], [-7.06605, 38.9046], [-7.0445, 38.91863], [-7.02212, 38.94287], [-6.97329, 39.01395], [-6.97489, 39.02302], [-6.98631, 39.03007], [-6.97939, 39.04718], [-6.98569, 39.06676], [-6.9997, 39.0847], [-7.01577, 39.09681], [-7.03882, 39.10914], [-7.06491, 39.11477], [-7.09127, 39.11245], [-7.12729, 39.09748], [-7.15721, 39.10544], [-7.16749, 39.11348], [-7.16889, 39.12185], [-7.15793, 39.14138], [-7.15581, 39.15151], [-7.16806, 39.17063], [-7.21932, 39.18484], [-7.24413, 39.19564], [-7.25808, 39.2113], [-7.26578, 39.23135], [-7.26433, 39.25233], [-7.25084, 39.27063], [-7.30045, 39.31791], [-7.31926, 39.32954], [-7.32665, 39.34132], [-7.33141, 39.36261], [-7.33193, 39.38473], [-7.31885, 39.41325], [-7.31363, 39.4361], [-7.31353, 39.45744], [-7.32092, 39.46741], [-7.36293, 39.47609], [-7.38417, 39.484], [-7.39941, 39.49366], [-7.40892, 39.51557], [-7.41755, 39.5242], [-7.45135, 39.53785], [-7.46809, 39.55025], [-7.49786, 39.58105], [-7.51584, 39.59376], [-7.55729, 39.6798], [-7.34143, 39.67184], [-7.29275, 39.68332], [-7.25286, 39.68233], [-7.23576, 39.68652], [-7.21405, 39.67618], [-7.18289, 39.6751], [-7.03577, 39.68926], [-7.02114, 39.69401], [-7.00962, 39.71546], [-7.01334, 39.73892], [-6.99303, 39.77421], [-7.00027, 39.80253], [-6.99303, 39.81607], [-6.98523, 39.82114], [-6.95283, 39.83287], [-6.92766, 39.86191], [-6.92177, 39.89715], [-6.92523, 39.91793], [-6.90952, 39.93198], [-6.89975, 39.96562], [-6.90161, 39.97648], [-6.89691, 39.98712], [-6.87971, 40.00919], [-6.91991, 40.06489], [-6.95572, 40.10293], [-6.97717, 40.11342], [-7.01577, 40.11905], [-7.02765, 40.13264], [-7.03484, 40.16675], [-7.0431, 40.18137], [-7.03458, 40.19305], [-7.02476, 40.2162], [-7.01577, 40.2255], [-6.95469, 40.25336], [-6.89645, 40.25548], [-6.87805, 40.26524], [-6.8702, 40.29553], [-6.81196, 40.33232], [-6.79444, 40.3564], [-6.82808, 40.38059], [-6.85128, 40.40952], [-6.85712, 40.44213], [-6.83867, 40.47722], [-6.81532, 40.50254], [-6.81252, 40.51463], [-6.81806, 40.53189], [-6.84839, 40.56476], [-6.85046, 40.58223], [-6.84446, 40.59778], [-6.82131, 40.63018], [-6.81428, 40.64718], [-6.81625, 40.67716], [-6.83914, 40.75751], [-6.83914, 40.77689], [-6.83351, 40.79782], [-6.83805, 40.81493], [-6.83666, 40.84025], [-6.82033, 40.84423], [-6.81619, 40.85683], [-6.82116, 40.87006], [-6.83206, 40.8759], [-6.84704, 40.8789], [-6.85526, 40.88722], [-6.88518, 40.94892], [-6.89924, 40.96675], [-6.94042, 41.00339], [-6.94249, 41.016], [-6.93179, 41.02913], [-6.92787, 41.04794], [-6.90684, 41.0561], [-6.84529, 41.05191], [-6.818, 41.05414], [-6.80436, 41.06442], [-6.76478, 41.10886], [-6.75651, 41.12705], [-6.75899, 41.15175], [-6.75522, 41.15883], [-6.74224, 41.17144], [-6.70695, 41.19433], [-6.69377, 41.21738], [-6.64664, 41.26761], [-6.5635, 41.27071], [-6.49585, 41.29495], [-6.46314, 41.31412], [-6.431, 41.33903], [-6.39958, 41.37747], [-6.37917, 41.37747], [-6.37555, 41.39081], [-6.37617, 41.39685], [-6.37917, 41.39732], [-6.35235, 41.40926], [-6.32113, 41.41101], [-6.32103, 41.41959], [-6.28294, 41.46563], [-6.28589, 41.48687], [-6.27953, 41.497], [-6.25364, 41.51752], [-6.20595, 41.57028], [-6.23008, 41.5949], [-6.27225, 41.62823], [-6.3171, 41.65015], [-6.36594, 41.66361], [-6.46082, 41.67655], [-6.47436, 41.66593], [-6.50303, 41.65309], [-6.51342, 41.65092], [-6.54153, 41.6589], [-6.55528, 41.6749], [-6.56308, 41.71304], [-6.5774, 41.73973], [-6.56014, 41.76688], [-6.53575, 41.84858], [-6.52422, 41.86742], [-6.56789, 41.87587], [-6.5758, 41.8829], [-6.56763, 41.92607], [-6.57166, 41.94261], [-6.58515, 41.95465], [-6.60949, 41.96232], [-6.62282, 41.94096], [-6.65677, 41.93308], [-6.72798, 41.93085], [-6.7579, 41.93757], [-6.79439, 41.97971], [-6.82493, 41.98377], [-6.83123, 41.95395], [-6.85495, 41.94295], [-6.91712, 41.9391], [-6.94513, 41.94336], [-6.96952, 41.9577], [-6.99236, 41.96638], [-7.01577, 41.95367], [-7.05127, 41.94201], [-7.08274, 41.95279], [-7.11318, 41.97243], [-7.14537, 41.98749], [-7.15974, 41.98573], [-7.17731, 41.97837], [-7.19994, 41.96372], [-7.20211, 41.94974], [-7.19565, 41.91736], [-7.19793, 41.9015], [-7.21865, 41.87905], [-7.25146, 41.8637], [-7.32247, 41.84541], [-7.39192, 41.84205], [-7.40541, 41.8352], [-7.44272, 41.80595], [-7.44696, 41.82184], [-7.45657, 41.83923], [-7.46938, 41.85254], [-7.51584, 41.86499], [-7.52328, 41.86016], [-7.52633, 41.84737], [-7.53155, 41.84016], [-7.54669, 41.83205], [-7.5884, 41.82422], [-7.60607, 41.82554], [-7.62219, 41.83233], [-7.62281, 41.84174], [-7.60736, 41.87318], [-7.66116, 41.87491], [-7.70637, 41.89625], [-7.72203, 41.89925], [-7.75014, 41.88838], [-7.81215, 41.87714], [-7.83923, 41.87837], [-7.84972, 41.87577], [-7.86481, 41.85789], [-7.89659, 41.85794], [-7.9061, 41.91385], [-7.92579, 41.90817], [-7.93535, 41.87995], [-7.94476, 41.86695], [-7.97943, 41.86861], [-7.99364, 41.86367], [-8.01571, 41.84189], [-8.04857, 41.81639], [-8.09348, 41.80673], [-8.17957, 41.8107], [-8.17539, 41.8366], [-8.17704, 41.84985], [-8.18459, 41.85773], [-8.2204, 41.8682], [-8.23171, 41.88605], [-8.23022, 41.90468], [-8.22071, 41.92271], [-8.18213, 41.96542], [-8.15296, 41.98682], [-8.10803, 42.0109], [-8.09736, 42.02348], [-8.09508, 42.04092], [-8.1032, 42.05581], [-8.11844, 42.06686], [-8.13761, 42.07291], [-8.15839, 42.07139], [-8.1913, 42.06209], [-8.20402, 42.06955], [-8.20738, 42.08578], [-8.20433, 42.1288], [-8.22236, 42.15363], [-8.25233, 42.13758], [-8.27068, 42.132], [-8.29538, 42.13009], [-8.32995, 42.10844], [-8.34675, 42.10169], [-8.50121, 42.08309], [-8.52002, 42.07772], [-8.55443, 42.06007], [-8.57281, 42.05441], [-8.62688, 42.05103], [-8.64389, 42.04149], [-8.65257, 42.03144], [-8.67081, 41.99981], [-8.69127, 41.98961], [-8.71701, 41.98377], [-8.7508, 41.96898], [-8.77709, 41.93716], [-8.7954, 41.92569], [-8.83283, 41.91397], [-8.86465, 41.8889], [-8.88126, 41.8933], [-8.87873, 41.90713], [-8.89859, 42.10175], [-8.8955, 42.11909], [-8.88459, 42.12604], [-8.84496, 42.12661], [-8.82653, 42.13052], [-8.81908, 42.13972], [-8.82372, 42.14761], [-8.84276, 42.15445], [-8.84699, 42.16083], [-8.81599, 42.17451], [-8.80578, 42.1975], [-8.79064, 42.20453], [-8.77196, 42.22223], [-8.71955, 42.25235], [-8.70189, 42.25853], [-8.66991, 42.28091], [-8.65201, 42.28632], [-8.62515, 42.30195], [-8.62165, 42.31021], [-8.62271, 42.34748], [-8.63476, 42.34638], [-8.64989, 42.3356], [-8.67479, 42.29902], [-8.71984, 42.28758], [-8.77392, 42.26899], [-8.78498, 42.26008], [-8.8483, 42.26097], [-8.8675, 42.25641], [-8.85342, 42.29108], [-8.85326, 42.30484], [-8.84699, 42.30484], [-8.833, 42.28913], [-8.82722, 42.2967], [-8.82653, 42.32905], [-8.83072, 42.34162], [-8.81286, 42.34638], [-8.77693, 42.34016], [-8.77196, 42.34272], [-8.76464, 42.3557], [-8.72688, 42.38874], [-8.66251, 42.42691], [-8.65526, 42.44135], [-8.66438, 42.43797], [-8.68253, 42.44135], [-8.69449, 42.43964], [-8.75764, 42.40721], [-8.81103, 42.4007], [-8.84358, 42.40371], [-8.8675, 42.4147], [-8.87572, 42.42597], [-8.88024, 42.44501], [-8.88801, 42.45563], [-8.90095, 42.46101], [-8.93545, 42.4654], [-8.94262, 42.46931], [-8.93505, 42.47907], [-8.91674, 42.48762], [-8.88126, 42.49657], [-8.86901, 42.49339], [-8.86083, 42.48501], [-8.86116, 42.47557], [-8.87434, 42.46931], [-8.85155, 42.46076], [-8.83699, 42.45893], [-8.82653, 42.46186], [-8.8225, 42.47236], [-8.82506, 42.49494], [-8.81286, 42.50275], [-8.82518, 42.53742], [-8.82653, 42.55463], [-8.82299, 42.56952], [-8.81383, 42.58145], [-8.80158, 42.5893], [-8.7884, 42.59219], [-8.7755, 42.60472], [-8.73876, 42.66608], [-8.73095, 42.68842], [-8.73717, 42.68842], [-8.7539, 42.65689], [-8.76732, 42.64517], [-8.78498, 42.64057], [-8.80382, 42.64594], [-8.82624, 42.67414], [-8.83951, 42.68244], [-8.8546, 42.66157], [-8.857, 42.64912], [-8.84699, 42.64057], [-8.86876, 42.6175], [-8.88052, 42.6118], [-8.89485, 42.6201], [-8.88947, 42.6306], [-8.90343, 42.62547], [-8.93639, 42.60643], [-8.92223, 42.59369], [-8.93399, 42.58682], [-8.96988, 42.57917], [-8.98078, 42.55121], [-8.98917, 42.5489], [-9.01154, 42.53071], [-9.02636, 42.54312], [-9.03336, 42.57811], [-9.05582, 42.58539], [-9.07087, 42.59614], [-9.06574, 42.62031], [-9.05142, 42.64594], [-9.03881, 42.66108], [-9.03946, 42.67304], [-9.03014, 42.70771], [-9.00626, 42.73383], [-8.96312, 42.75129], [-8.93737, 42.77778], [-8.92223, 42.78811], [-8.89826, 42.7923], [-8.89135, 42.79934], [-8.88492, 42.81501], [-8.88768, 42.83112], [-8.90844, 42.83946], [-8.91259, 42.8166], [-8.92809, 42.80252], [-8.95104, 42.79511], [-8.97737, 42.7923], [-9.02819, 42.79788], [-9.04894, 42.79474], [-9.04564, 42.77802], [-9.06867, 42.75971], [-9.08129, 42.75483], [-9.10025, 42.75751], [-9.11343, 42.76606], [-9.135, 42.81277], [-9.12255, 42.81261], [-9.11319, 42.81635], [-9.10025, 42.83328], [-9.10839, 42.84484], [-9.14123, 42.85745], [-9.14867, 42.88447], [-9.13752, 42.89606], [-9.13451, 42.91755], [-9.16788, 42.92683], [-9.18346, 42.94526], [-9.19587, 42.94933], [-9.19587, 42.94314], [-9.19001, 42.9324], [-9.19579, 42.92658], [-9.21007, 42.92573], [-9.21434, 42.93903], [-9.22423, 42.94021], [-9.24425, 42.92878], [-9.26842, 42.8913], [-9.27306, 42.89334], [-9.28295, 42.91661], [-9.29198, 42.92263], [-9.29198, 42.92878], [-9.26476, 42.98033], [-9.26183, 42.99449], [-9.25097, 43.01679], [-9.27213, 43.03128], [-9.27953, 43.055], [-9.27111, 43.06049], [-9.25792, 43.0609], [-9.25109, 43.06977], [-9.24572, 43.088], [-9.22232, 43.10273], [-9.2176, 43.11445], [-9.20295, 43.10505], [-9.18981, 43.10232], [-9.17683, 43.10558], [-9.16226, 43.11445], [-9.1503, 43.12958], [-9.14123, 43.13487], [-9.10774, 43.14114], [-9.10774, 43.14851], [-9.14708, 43.1387], [-9.16332, 43.13976], [-9.16226, 43.14851], [-9.1942, 43.13654], [-9.20836, 43.13788], [-9.2176, 43.15534], [-9.17007, 43.18875], [-9.13793, 43.20152], [-9.10041, 43.18952], [-9.08316, 43.18977], [-9.0524, 43.19636], [-9.02697, 43.21015], [-9.01675, 43.22386], [-9.01154, 43.23876], [-9.00406, 43.23876], [-8.98575, 43.22687], [-8.95897, 43.22748], [-8.93253, 43.2353], [-8.91527, 43.24502], [-8.93639, 43.24409], [-8.94815, 43.24994], [-8.96312, 43.27228], [-8.97981, 43.27692], [-8.98803, 43.28303], [-8.93049, 43.29975], [-8.88801, 43.32075], [-8.8566, 43.32689], [-8.84118, 43.33893], [-8.82999, 43.34121], [-8.81701, 43.33584], [-8.78555, 43.31244], [-8.6931, 43.2934], [-8.63003, 43.31586], [-8.59252, 43.3242], [-8.55842, 43.31322], [-8.50597, 43.33153], [-8.49755, 43.33779], [-8.49425, 43.34663], [-8.48607, 43.35431], [-8.47598, 43.35969], [-8.45572, 43.36335], [-8.44302, 43.37531], [-8.38829, 43.38589], [-8.38467, 43.37271], [-8.37572, 43.36298], [-8.35359, 43.34862], [-8.34081, 43.35993], [-8.33727, 43.36904], [-8.33991, 43.39273], [-8.33072, 43.40567], [-8.31062, 43.40314], [-8.2672, 43.38593], [-8.25056, 43.35489], [-8.21728, 43.32832], [-8.21019, 43.31322], [-8.20246, 43.32925], [-8.20295, 43.34467], [-8.21019, 43.37531], [-8.20963, 43.39069], [-8.20482, 43.39973], [-8.1754, 43.41633], [-8.19506, 43.42325], [-8.24714, 43.42308], [-8.26476, 43.42731], [-8.28873, 43.44623], [-8.30517, 43.45108], [-8.28649, 43.46198], [-8.17878, 43.47329], [-8.16698, 43.48457], [-8.16857, 43.49201], [-8.19652, 43.48517], [-8.25731, 43.47773], [-8.24372, 43.48517], [-8.25731, 43.49201], [-8.26919, 43.47895], [-8.28897, 43.47297], [-8.33312, 43.4715], [-8.32535, 43.48676], [-8.31664, 43.52289], [-8.30517, 43.51935], [-8.2921, 43.53294], [-8.30822, 43.54633], [-8.31322, 43.55634], [-8.31265, 43.56712], [-8.26098, 43.56452], [-8.23225, 43.57551], [-8.08666, 43.65648], [-8.083, 43.64545], [-8.07461, 43.63963], [-8.06355, 43.63886], [-8.05187, 43.64281], [-8.06554, 43.64281], [-8.06554, 43.64908], [-8.05187, 43.65648], [-8.07116, 43.66787], [-8.07396, 43.67853], [-8.05932, 43.70942], [-8.01098, 43.71174], [-7.98119, 43.71784], [-7.95295, 43.73013], [-7.92813, 43.74677], [-7.90856, 43.76634], [-7.88085, 43.76325], [-7.86905, 43.74885], [-7.86148, 43.73119], [-7.84651, 43.71796], [-7.84651, 43.71174], [-7.86758, 43.71796], [-7.87926, 43.70051], [-7.87979, 43.69196], [-7.87377, 43.68447], [-7.8841, 43.67862], [-7.89489, 43.68447], [-7.90856, 43.67699], [-7.90856, 43.67015], [-7.85839, 43.6682], [-7.84923, 43.6756], [-7.86758, 43.69745], [-7.85603, 43.70344], [-7.84386, 43.7038], [-7.81916, 43.69745], [-7.82604, 43.71174], [-7.812, 43.72309], [-7.77379, 43.74258], [-7.73404, 43.75007], [-7.71276, 43.76069], [-7.69571, 43.77489], [-7.68554, 43.79344], [-7.67129, 43.78286], [-7.66832, 43.77253], [-7.69563, 43.74592], [-7.69616, 43.73151], [-7.69156, 43.72724], [-7.67516, 43.73163], [-7.67248, 43.74384], [-7.64102, 43.75267], [-7.6376, 43.73908], [-7.61303, 43.70429], [-7.61596, 43.68854], [-7.60717, 43.69111], [-7.59459, 43.70368], [-7.58641, 43.71796], [-7.57429, 43.71455], [-7.55578, 43.72761], [-7.54141, 43.73163], [-7.49014, 43.72533], [-7.40762, 43.69123], [-7.36705, 43.68008], [-7.30411, 43.59858], [-7.25674, 43.58161], [-7.27107, 43.56863], [-7.27107, 43.56114], [-7.25772, 43.55667], [-7.23009, 43.56863], [-7.21544, 43.56867], [-7.15697, 43.55927], [-7.09586, 43.56098], [-7.07934, 43.56863], [-7.06159, 43.56159], [-7.0443, 43.55939], [-7.03234, 43.553], [-7.03087, 43.53323], [-7.04841, 43.51044], [-7.05362, 43.49653], [-7.04459, 43.47919], [-7.03832, 43.47919], [-7.02375, 43.52582], [-7.01037, 43.53323], [-7.00137, 43.55667], [-6.94396, 43.56598], [-6.84594, 43.56863], [-6.83072, 43.56513], [-6.77082, 43.56863], [-6.72964, 43.55976], [-6.70373, 43.55756], [-6.64867, 43.57905], [-6.59773, 43.57522], [-6.54662, 43.56184], [-6.51012, 43.54747], [-6.48827, 43.55512], [-6.46296, 43.55496], [-6.46911, 43.57538], [-6.41763, 43.56114], [-6.36612, 43.56863], [-6.31461, 43.56863], [-6.24999, 43.58405], [-6.2364, 43.59431], [-6.22277, 43.59589], [-6.19099, 43.57856], [-6.17805, 43.57538], [-6.10041, 43.5692], [-6.08495, 43.57538], [-6.06916, 43.56969], [-6.02351, 43.58845], [-5.90738, 43.58845], [-5.90217, 43.59752], [-5.91308, 43.61286], [-5.90062, 43.62324], [-5.90738, 43.63683], [-5.87515, 43.63679], [-5.86351, 43.64142], [-5.8522, 43.66295], [-5.83633, 43.66222], [-5.80382, 43.6505], [-5.78234, 43.63703], [-5.72741, 43.58955], [-5.70885, 43.56863], [-5.70198, 43.56863], [-5.69677, 43.58283], [-5.6892, 43.57856], [-5.67748, 43.56114], [-5.6256, 43.55496], [-5.42422, 43.56114], [-5.39387, 43.55524], [-5.39074, 43.54133], [-5.40355, 43.52542], [-5.42081, 43.51337], [-5.41393, 43.50654], [-5.37243, 43.52021], [-5.3568, 43.5386], [-5.34195, 43.54064], [-5.29988, 43.53766], [-5.28401, 43.53347], [-5.2119, 43.49836], [-5.17789, 43.48937], [-5.09166, 43.48627], [-5.0677, 43.48139], [-5.05704, 43.46861], [-5.04503, 43.47431], [-4.97517, 43.45877], [-4.95254, 43.47008], [-4.94103, 43.47175], [-4.90762, 43.46064], [-4.83654, 43.44977], [-4.73493, 43.4171], [-4.50817, 43.40245], [-4.48168, 43.38361], [-4.4608, 43.39871], [-4.43253, 43.40261], [-4.4049, 43.397], [-4.38557, 43.38361], [-4.37926, 43.38361], [-4.36876, 43.39619], [-4.35936, 43.39968], [-4.31281, 43.39578], [-4.18859, 43.40538], [-4.16096, 43.42117], [-4.09773, 43.43561], [-4.02921, 43.43826], [-4.02343, 43.44094], [-4.0209, 43.45038], [-4.01277, 43.4525], [-3.98143, 43.43826], [-3.97647, 43.44294], [-3.96101, 43.4451], [-3.9746, 43.4525], [-3.9746, 43.45877], [-3.94005, 43.47712], [-3.92272, 43.48261], [-3.90632, 43.47919], [-3.89379, 43.48489], [-3.88585, 43.47919], [-3.8568, 43.49238], [-3.82673, 43.49702], [-3.79703, 43.49274], [-3.76915, 43.47919], [-3.81265, 43.46487], [-3.83096, 43.456], [-3.84431, 43.4451], [-3.82384, 43.43077], [-3.83153, 43.42906], [-3.83129, 43.42459], [-3.81119, 43.42548], [-3.7965, 43.43077], [-3.77229, 43.4525], [-3.7635, 43.45026], [-3.75414, 43.4405], [-3.74498, 43.43826], [-3.74071, 43.44233], [-3.74303, 43.45136], [-3.75552, 43.46552], [-3.75552, 43.47175], [-3.72887, 43.46552], [-3.72716, 43.47053], [-3.72142, 43.47175], [-3.72887, 43.47919], [-3.71793, 43.48273], [-3.68838, 43.48424], [-3.65608, 43.50068], [-3.57942, 43.51826], [-3.55435, 43.51691], [-3.55626, 43.4997], [-3.53905, 43.49897], [-3.50536, 43.47919], [-3.43663, 43.47049], [-3.43151, 43.46686], [-3.42715, 43.45563], [-3.42862, 43.44685], [-3.44701, 43.4451], [-3.47004, 43.45417], [-3.47777, 43.44306], [-3.5017, 43.43077], [-3.4818, 43.42805], [-3.47045, 43.41678], [-3.46109, 43.41246], [-3.44701, 43.43077], [-3.43619, 43.41901], [-3.42223, 43.41808], [-3.39249, 43.42459], [-3.33031, 43.41035], [-3.26895, 43.40412], [-3.21052, 43.38984], [-3.20002, 43.38553], [-3.17691, 43.36624], [-3.1315, 43.35578], [-3.11238, 43.35407], [-3.08951, 43.36689], [-3.05785, 43.35236], [-3.00817, 43.32091], [-3.00817, 43.32844], [-3.02929, 43.37617], [-3.02432, 43.38093], [-3.01098, 43.38414], [-2.99942, 43.39435], [-2.95592, 43.41385], [-2.93993, 43.4171], [-2.93993, 43.42459], [-2.94668, 43.42459], [-2.94668, 43.43077], [-2.93008, 43.43793], [-2.90526, 43.43989], [-2.85424, 43.43826], [-2.807, 43.44168], [-2.76863, 43.4525], [-2.75585, 43.45026], [-2.7152, 43.42451], [-2.70653, 43.41368], [-2.69494, 43.38862], [-2.69103, 43.36754], [-2.67927, 43.38984], [-2.67781, 43.40619], [-2.67296, 43.41035], [-2.6612, 43.41193], [-2.60692, 43.40188], [-2.5489, 43.38361], [-2.50601, 43.37714], [-2.48351, 43.37063], [-2.46443, 43.34923], [-2.36742, 43.3157], [-2.32706, 43.30683], [-2.28466, 43.30349], [-2.19628, 43.31477], [-2.17447, 43.29743], [-2.16222, 43.29426], [-2.14485, 43.30109], [-2.14005, 43.2989], [-2.13484, 43.28958], [-2.1278, 43.28742], [-2.09887, 43.30414], [-2.06554, 43.3096], [-1.99462, 43.32844], [-1.96036, 43.34309], [-1.94563, 43.34264], [-1.93371, 43.33564], [-1.92658, 43.32587], [-1.91869, 43.32099], [-1.90465, 43.32844], [-1.92569, 43.34264], [-1.88492, 43.35602], [-1.8474, 43.38093], [-1.81127, 43.39509], [-1.79408, 43.38602]]], [[[2.98231, 39.13918], [2.96215, 39.11606], [2.93087, 39.11818], [2.91361, 39.15196], [2.94042, 39.17193], [2.98058, 39.18556], [2.98537, 39.16618], [2.98231, 39.13918]]], [[[1.96063, 42.44371], [1.94751, 42.45123], [1.94565, 42.46382], [1.9566, 42.48177], [1.96797, 42.4857], [1.9995, 42.4439], [1.98616, 42.44126], [1.96063, 42.44371]]], [[[1.60084, 39.08238], [1.60694, 39.06236], [1.62306, 39.0292], [1.60646, 39.02839], [1.59327, 39.02025], [1.58465, 39.00743], [1.58139, 38.99193], [1.57618, 38.98583], [1.54119, 38.96776], [1.50978, 38.93016], [1.46949, 38.91026], [1.45867, 38.90013], [1.445, 38.91315], [1.42856, 38.89659], [1.41473, 38.89062], [1.40414, 38.85676], [1.40311, 38.83228], [1.37065, 38.83181], [1.36085, 38.85191], [1.34352, 38.86237], [1.32887, 38.8579], [1.30779, 38.8579], [1.3003, 38.87047], [1.28346, 38.87462], [1.26661, 38.87035], [1.25994, 38.8579], [1.2282, 38.87462], [1.21664, 38.88508], [1.21217, 38.90322], [1.22429, 38.92735], [1.22755, 38.942], [1.21843, 38.95409], [1.23683, 38.96516], [1.24822, 38.96638], [1.25994, 38.96092], [1.27687, 38.968], [1.30096, 38.96776], [1.29225, 39.00987], [1.29282, 39.03327], [1.30445, 39.04344], [1.31756, 39.04759], [1.33253, 39.05724], [1.35678, 39.07762], [1.36305, 39.07762], [1.37224, 39.0714], [1.39194, 39.08332], [1.40333, 39.07762], [1.42319, 39.09056], [1.45069, 39.10179], [1.47869, 39.10773], [1.49952, 39.10489], [1.50864, 39.11437], [1.52272, 39.11888], [1.53712, 39.11803], [1.56039, 39.10582], [1.58969, 39.10277], [1.60597, 39.0913], [1.60084, 39.08238]]], [[[1.56568, 38.69149], [1.58237, 38.67491], [1.58139, 38.65306], [1.55749, 38.64884], [1.52345, 38.6494], [1.45809, 38.68134], [1.42905, 38.66494], [1.41279, 38.64645], [1.39698, 38.63865], [1.38295, 38.64206], [1.38755, 38.66238], [1.38346, 38.67], [1.38347, 38.68041], [1.39332, 38.69627], [1.39373, 38.70421], [1.38282, 38.71158], [1.401, 38.73033], [1.40803, 38.72449], [1.41814, 38.72789], [1.42791, 38.73937], [1.43133, 38.75487], [1.43539, 38.75536], [1.43751, 38.74925], [1.48609, 38.69457], [1.52638, 38.67777], [1.56568, 38.69149]]], [[[-0.74185, 37.72553], [-0.74014, 37.70246], [-0.72647, 37.66519], [-0.7469, 37.68378], [-0.75451, 37.7744], [-0.74942, 37.77489], [-0.73274, 37.74775], [-0.74185, 37.72553]]], [[[-2.42939, 35.18604], [-2.4265, 35.18211], [-2.43141, 35.17877], [-2.43586, 35.18119], [-2.43424, 35.18523], [-2.42939, 35.18604]]], [[[-2.94782, 35.32978], [-2.91291, 35.27692], [-2.94305, 35.26787], [-2.96377, 35.28622], [-2.96692, 35.31387], [-2.94782, 35.32978]]], [[[-3.90127, 35.21762], [-3.89982, 35.21728], [-3.90131, 35.21732], [-3.90127, 35.21762]]], [[[-3.90296, 35.21531], [-3.90253, 35.21479], [-3.90313, 35.21504], [-3.90296, 35.21531]]], [[[-4.30105, 35.1729], [-4.2969, 35.17225], [-4.30189, 35.17266], [-4.30105, 35.1729]]], [[[-5.3629, 35.86381], [-5.3784, 35.88169], [-5.39886, 35.9245], [-5.3662, 35.92475], [-5.32738, 35.90424], [-5.30932, 35.90082], [-5.28307, 35.91169], [-5.29186, 35.89053], [-5.33556, 35.86237], [-5.34073, 35.84736], [-5.3629, 35.86381]]], [[[-5.41597, 35.91353], [-5.41789, 35.91087], [-5.42084, 35.91427], [-5.41877, 35.9156], [-5.41597, 35.91353]]]]}}]}