{"type": "FeatureCollection", "features": [{"type": "Feature", "properties": {"name": "핀란드", "name_en": "Finland", "period": "1995년 가입", "kind": "국가", "legend": "1995 스웨덴, 오스트리아, 핀란드 가입", "accession_year": 1995, "map_title": "유럽 연합 회원국(2023년 기준)", "source": "미래엔 세계사 교과서 4권 206쪽", "volume": 4, "page": 206, "geometry_source": "Natural Earth 10m 국가 경계"}, "geometry": {"type": "MultiPolygon", "coordinates": [[[[28.83346, 68.98447], [28.71326, 68.96804], [28.45623, 68.90014], [28.41023, 68.89853], [28.41313, 68.88009], [28.42677, 68.87058], [28.44424, 68.86582], [28.64567, 68.87166], [28.72825, 68.86505], [28.80148, 68.83549], [28.74727, 68.76014], [28.71637, 68.72795], [28.45995, 68.54243], [28.44791, 68.52972], [28.44744, 68.51489], [28.46098, 68.49107], [28.66376, 68.204], [28.69032, 68.18318], [28.72722, 68.17269], [29.29866, 68.08179], [29.33085, 68.07269], [29.36015, 68.05673], [29.65119, 67.82356], [29.71382, 67.7925], [30.00941, 67.68584], [29.98786, 67.67246], [29.97768, 67.66223], [29.97345, 67.64931], [29.96466, 67.58471], [29.95991, 67.57159], [29.93345, 67.52637], [29.91624, 67.50813], [29.51983, 67.29817], [29.50846, 67.28809], [29.49068, 67.26298], [29.4294, 67.23277], [29.09991, 66.99113], [29.05154, 66.9078], [29.08916, 66.83755], [29.32222, 66.68006], [29.36397, 66.62459], [29.3924, 66.60529], [29.39643, 66.58663], [29.40134, 66.57622], [29.40945, 66.56847], [29.52448, 66.49121], [29.5342, 66.47403], [29.55166, 66.4128], [29.5697, 66.37817], [29.59321, 66.34593], [29.65088, 66.28789], [29.79237, 66.18087], [29.87536, 66.13359], [29.90017, 66.10806], [29.92053, 66.06863], [29.94885, 65.99127], [29.95846, 65.97388], [29.99794, 65.93153], [30.03928, 65.86539], [30.07515, 65.82281], [30.08352, 65.80461], [30.11173, 65.71201], [30.11628, 65.68721], [30.1139, 65.6655], [30.0985, 65.65638], [30.06471, 65.66168], [30.00301, 65.67814], [29.76426, 65.64809], [29.70287, 65.62938], [29.73232, 65.60871], [29.80674, 65.58486], [29.83857, 65.56489], [29.82576, 65.55197], [29.74545, 65.5114], [29.72633, 65.49151], [29.71816, 65.45417], [29.73057, 65.36536], [29.72013, 65.32909], [29.61512, 65.2694], [29.58009, 65.2354], [29.6267, 65.21522], [29.76684, 65.21736], [29.8332, 65.20501], [29.83929, 65.1669], [29.80911, 65.14522], [29.80819, 65.1353], [29.82033, 65.12652], [29.8502, 65.1215], [29.8456, 65.10802], [29.82048, 65.09365], [29.66783, 65.07794], [29.62732, 65.06223], [29.59838, 65.03438], [29.58815, 64.99143], [29.63362, 64.90715], [29.69832, 64.83914], [29.78028, 64.79558], [29.87785, 64.78483], [30.06254, 64.78416], [30.10191, 64.77548], [30.11886, 64.76793], [30.12041, 64.76158], [30.11111, 64.74442], [30.10682, 64.72561], [30.10915, 64.72008], [30.13137, 64.70122], [30.17054, 64.68169], [30.1878, 64.66236], [30.18082, 64.64277], [30.16041, 64.62608], [30.13643, 64.61539], [29.9658, 64.57864], [29.95484, 64.56898], [29.96849, 64.56283], [29.97004, 64.54542], [29.98079, 64.52676], [29.97898, 64.51834], [29.99153, 64.51322], [29.99339, 64.51074], [29.9905, 64.50418], [30.03577, 64.49147], [30.07039, 64.47188], [30.0628, 64.44842], [30.04104, 64.42294], [30.03246, 64.39695], [30.05298, 64.37809], [30.09313, 64.36124], [30.16444, 64.34191], [30.32113, 64.31768], [30.37048, 64.30083], [30.44598, 64.25076], [30.50344, 64.24378], [30.5362, 64.23468], [30.55848, 64.2197], [30.55026, 64.19887], [30.53248, 64.17918], [30.53279, 64.16254], [30.56214, 64.1274], [30.58643, 64.08467], [30.58049, 64.05108], [30.55233, 64.02173], [30.50933, 63.99139], [30.32857, 63.896], [30.26557, 63.83068], [30.20155, 63.79265], [30.05127, 63.76376], [29.98079, 63.74154], [30.00115, 63.71534], [30.24247, 63.58181], [30.38045, 63.53245], [30.44143, 63.49158], [30.46107, 63.47287], [30.48866, 63.46212], [30.82094, 63.37567], [30.97494, 63.28916], [31.17782, 63.22524], [31.20397, 63.21268], [31.22567, 63.19604], [31.23306, 63.17573], [31.23425, 63.15723], [31.24076, 63.13573], [31.25084, 63.11548], [31.26277, 63.10059], [31.28851, 63.08473], [31.35155, 63.0622], [31.38034, 63.04794], [31.44447, 63.00194], [31.48064, 62.98634], [31.50545, 62.9682], [31.53583, 62.91952], [31.56952, 62.90593], [31.44126, 62.7887], [31.41057, 62.74653], [31.36334, 62.65158], [31.34701, 62.62933], [31.30277, 62.59602], [31.28406, 62.57298], [31.26009, 62.52484], [31.24376, 62.50334], [31.22216, 62.49172], [31.16862, 62.47601], [31.15296, 62.46735], [31.12335, 62.43482], [30.98062, 62.3588], [30.96708, 62.34819], [30.94186, 62.31459], [30.92564, 62.30212], [30.90755, 62.29289], [30.79381, 62.253], [30.70384, 62.21039], [30.64772, 62.19277], [30.63501, 62.18401], [30.60721, 62.15127], [30.4807, 62.06768], [30.33957, 61.99167], [29.97768, 61.72817], [29.84224, 61.66016], [29.82188, 61.64458], [29.79806, 61.60965], [29.77914, 61.59311], [29.63512, 61.5111], [29.60427, 61.49919], [29.53973, 61.48496], [29.51704, 61.47506], [29.49906, 61.45925], [29.4634, 61.41382], [29.3184, 61.33843], [29.28925, 61.31621], [29.26227, 61.29052], [29.20316, 61.2459], [29.13009, 61.21342], [28.98085, 61.1681], [28.92638, 61.14795], [28.85548, 61.11268], [28.7976, 61.09684], [28.75016, 61.06136], [28.68898, 61.02739], [28.67068, 61.01248], [28.65373, 60.99176], [28.61456, 60.96194], [28.5264, 60.95023], [28.48093, 60.93346], [28.33592, 60.85939], [28.24394, 60.79159], [28.14813, 60.75771], [27.98101, 60.64948], [27.89295, 60.60426], [27.80787, 60.55305], [27.7776, 60.57368], [27.76206, 60.58015], [27.73951, 60.57416], [27.75318, 60.55988], [27.73618, 60.55557], [27.73341, 60.54426], [27.74057, 60.53059], [27.75318, 60.51895], [27.73268, 60.51211], [27.75318, 60.50585], [27.71843, 60.48847], [27.70541, 60.48542], [27.63649, 60.49226], [27.64576, 60.50357], [27.67661, 60.51118], [27.69166, 60.51895], [27.63217, 60.52167], [27.61598, 60.51211], [27.60825, 60.49994], [27.61085, 60.49213], [27.62965, 60.47114], [27.59246, 60.47736], [27.50847, 60.51386], [27.47267, 60.50585], [27.48634, 60.50194], [27.49318, 60.49226], [27.47267, 60.47797], [27.49301, 60.4702], [27.50668, 60.45746], [27.4568, 60.46369], [27.36931, 60.49787], [27.32521, 60.50585], [27.24879, 60.50788], [27.23243, 60.51211], [27.23081, 60.52631], [27.2566, 60.52945], [27.30812, 60.52578], [27.28492, 60.53653], [27.21193, 60.55988], [27.22771, 60.57958], [27.21461, 60.58495], [27.19174, 60.57974], [27.17775, 60.56733], [27.18385, 60.55219], [27.19703, 60.53706], [27.20069, 60.52326], [27.17775, 60.51211], [27.17579, 60.52513], [27.16969, 60.52863], [27.14991, 60.52578], [27.13771, 60.52904], [27.12403, 60.54352], [27.11256, 60.54682], [27.10564, 60.54361], [27.09571, 60.5292], [27.08839, 60.52578], [27.07895, 60.52863], [27.05437, 60.54682], [27.03338, 60.54181], [27.02443, 60.53608], [27.02711, 60.51992], [27.01173, 60.50947], [26.99822, 60.48802], [26.9769, 60.48355], [26.93141, 60.48542], [26.95558, 60.46931], [26.96534, 60.45848], [26.96241, 60.44721], [26.91472, 60.47456], [26.82309, 60.45775], [26.79363, 60.45746], [26.80649, 60.47053], [26.81471, 60.48542], [26.79705, 60.48591], [26.75685, 60.47663], [26.74244, 60.468], [26.73902, 60.46088], [26.73902, 60.43696], [26.70143, 60.41991], [26.68735, 60.41816], [26.63592, 60.45063], [26.59441, 60.4523], [26.57716, 60.44733], [26.57447, 60.43696], [26.5534, 60.43301], [26.52735, 60.43989], [26.50196, 60.45307], [26.48268, 60.468], [26.47486, 60.48725], [26.49147, 60.49811], [26.51726, 60.50581], [26.53663, 60.51553], [26.56365, 60.54336], [26.56764, 60.54995], [26.56446, 60.57258], [26.56739, 60.58096], [26.57984, 60.59138], [26.62501, 60.60961], [26.66668, 60.60643], [26.75318, 60.57416], [26.73178, 60.61286], [26.69923, 60.6402], [26.65919, 60.6518], [26.61549, 60.64305], [26.59181, 60.62857], [26.46583, 60.50812], [26.45623, 60.47456], [26.48569, 60.44379], [26.46941, 60.42748], [26.45151, 60.41649], [26.42335, 60.41633], [26.41635, 60.41193], [26.42416, 60.39598], [26.4026, 60.40266], [26.38331, 60.41649], [26.38453, 60.40485], [26.3812, 60.39875], [26.35141, 60.39281], [26.34832, 60.37873], [26.34205, 60.37556], [26.32399, 60.383], [26.29916, 60.41592], [26.29021, 60.42333], [26.24562, 60.45087], [26.23178, 60.45063], [26.22934, 60.43842], [26.24293, 60.42426], [26.27345, 60.40217], [26.17897, 60.41063], [26.17042, 60.40965], [26.14243, 60.39598], [26.09457, 60.42333], [26.04916, 60.43749], [26.01368, 60.46259], [25.98097, 60.47577], [25.9463, 60.4842], [25.91725, 60.48542], [25.91725, 60.47797], [25.97185, 60.46491], [26.00375, 60.4405], [26.02898, 60.43334], [26.03614, 60.42475], [26.04005, 60.40595], [26.03248, 60.40062], [26.00685, 60.40054], [26.01222, 60.38858], [26.0232, 60.38068], [26.06056, 60.36811], [26.08863, 60.34394], [26.10141, 60.34138], [26.10816, 60.33592], [26.10646, 60.32404], [26.09986, 60.31208], [26.09132, 60.30663], [26.04005, 60.29979], [26.03883, 60.32266], [25.99708, 60.35493], [26.00587, 60.36811], [25.9935, 60.36783], [25.96803, 60.35505], [25.95655, 60.35602], [25.88836, 60.38915], [25.84205, 60.40217], [25.8777, 60.37792], [25.91725, 60.36127], [25.90724, 60.34097], [25.88429, 60.32001], [25.88307, 60.30663], [25.89243, 60.29157], [25.92123, 60.26529], [25.93019, 60.24518], [25.89487, 60.24958], [25.86883, 60.26569], [25.87623, 60.27253], [25.86101, 60.284], [25.80055, 60.29295], [25.77036, 60.31415], [25.75375, 60.32075], [25.73902, 60.31346], [25.74537, 60.2958], [25.78093, 60.28266], [25.84889, 60.26569], [25.78053, 60.25141], [25.78053, 60.24518], [25.76197, 60.24038], [25.73552, 60.24726], [25.65577, 60.29304], [25.64967, 60.29979], [25.65089, 60.31346], [25.65854, 60.32274], [25.67058, 60.32746], [25.64967, 60.33393], [25.64967, 60.34138], [25.70436, 60.34138], [25.6902, 60.36286], [25.66863, 60.36465], [25.60271, 60.33857], [25.52613, 60.32709], [25.52613, 60.32095], [25.54127, 60.31635], [25.54656, 60.30585], [25.54509, 60.2923], [25.54038, 60.27871], [25.52223, 60.27139], [25.51686, 60.25454], [25.50278, 60.24616], [25.36166, 60.24518], [25.36345, 60.26008], [25.35092, 60.26724], [25.31381, 60.27253], [25.3213, 60.25141], [25.29054, 60.24592], [25.19752, 60.24518], [25.19215, 60.24384], [25.19093, 60.22846], [25.1858, 60.22313], [25.15626, 60.23216], [25.15504, 60.22378], [25.19125, 60.21235], [25.20395, 60.20425], [25.18141, 60.20051], [25.19711, 60.19062], [25.17701, 60.1833], [25.11704, 60.17573], [25.09474, 60.17634], [25.10157, 60.19062], [25.0586, 60.17731], [25.04786, 60.16889], [25.06739, 60.16266], [25.06105, 60.15656], [25.04526, 60.15681], [25.02931, 60.14785], [25.01075, 60.15135], [24.99789, 60.16266], [25.01075, 60.16987], [25.0215, 60.18399], [25.02589, 60.19945], [25.01905, 60.21109], [24.99879, 60.21284], [24.98455, 60.19945], [24.96119, 60.15156], [24.95094, 60.14346], [24.86573, 60.14012], [24.84522, 60.14374], [24.83416, 60.15583], [24.87094, 60.16169], [24.86883, 60.17976], [24.84246, 60.19465], [24.80681, 60.19062], [24.82732, 60.16266], [24.77263, 60.14216], [24.72096, 60.13841], [24.6797, 60.13011], [24.67335, 60.12543], [24.67115, 60.11823], [24.67481, 60.10554], [24.67026, 60.10122], [24.65642, 60.10098], [24.64959, 60.10957], [24.64226, 60.1291], [24.63063, 60.1363], [24.55405, 60.15595], [24.549, 60.15278], [24.56039, 60.14216], [24.59083, 60.13223], [24.59685, 60.12727], [24.58766, 60.11481], [24.54802, 60.09968], [24.54038, 60.08755], [24.60816, 60.10122], [24.59425, 60.08495], [24.57399, 60.07392], [24.59449, 60.06647], [24.59449, 60.06025], [24.52703, 60.03535], [24.48764, 60.00581], [24.46811, 59.99641], [24.44565, 59.99226], [24.41627, 59.99136], [24.42433, 60.00507], [24.46412, 60.04658], [24.44614, 60.04751], [24.42091, 60.03547], [24.37477, 60.00495], [24.36769, 60.02204], [24.35027, 60.01655], [24.32976, 60.00336], [24.31267, 59.9975], [24.3191, 60.01415], [24.35768, 60.03604], [24.36085, 60.0624], [24.36793, 60.07392], [24.31967, 60.07583], [24.29591, 60.07221], [24.27858, 60.06025], [24.29225, 60.0528], [24.25245, 60.03974], [24.17652, 60.04804], [24.15846, 60.04304], [24.15797, 60.03449], [24.18295, 60.02546], [24.16424, 60.01944], [24.11476, 60.03229], [24.10597, 60.03193], [24.06813, 60.02058], [24.05836, 60.02041], [24.0464, 60.02546], [24.02817, 60.00935], [24.00961, 60.01056], [24.00261, 60.02098], [24.01922, 60.03229], [24.01922, 60.03974], [24.00082, 60.03827], [23.97071, 60.01179], [23.95533, 60.00357], [23.94068, 59.99934], [23.87306, 59.99307], [23.79949, 59.95661], [23.77125, 59.96796], [23.60759, 59.95661], [23.59449, 59.96113], [23.58383, 59.97333], [23.5735, 59.97769], [23.49545, 59.96809], [23.45297, 59.95726], [23.42945, 59.95661], [23.4406, 59.97183], [23.48357, 60.0113], [23.4983, 60.01927], [23.52711, 60.02383], [23.54086, 60.02912], [23.54274, 60.03604], [23.53614, 60.04499], [23.53435, 60.0537], [23.53736, 60.06306], [23.54615, 60.07392], [23.4983, 60.0633], [23.47877, 60.03612], [23.45379, 60.02798], [23.43971, 59.99445], [23.40797, 59.98041], [23.365, 59.94538], [23.32643, 59.92304], [23.23715, 59.89802], [23.22234, 59.88622], [23.22218, 59.86783], [23.23316, 59.852], [23.25131, 59.84797], [23.25131, 59.84113], [23.08058, 59.82685], [23.06813, 59.82079], [23.00685, 59.82616], [22.90512, 59.81123], [22.88819, 59.81318], [22.90602, 59.81965], [22.93141, 59.84284], [22.94614, 59.84797], [22.98658, 59.85195], [23.12745, 59.88638], [23.16814, 59.8889], [23.16114, 59.91022], [23.16586, 59.91767], [23.22242, 59.91608], [23.24708, 59.92243], [23.26889, 59.93623], [23.29371, 59.95869], [23.32643, 60.00935], [23.33286, 60.02985], [23.31593, 60.02241], [23.24977, 59.94847], [23.2234, 59.92988], [23.20362, 59.92988], [23.20973, 59.94355], [23.18881, 59.95018], [23.17807, 59.94892], [23.16814, 59.94355], [23.17123, 59.93643], [23.13185, 59.94294], [23.12094, 59.93358], [23.11785, 59.92377], [23.11069, 59.92328], [23.10369, 59.92967], [23.1006, 59.94042], [23.11134, 59.97427], [23.12818, 59.9831], [23.20362, 59.9975], [23.24138, 60.03311], [23.25758, 60.03974], [23.20509, 60.04971], [23.10621, 60.03905], [23.05942, 60.03974], [23.03549, 60.04458], [23.01336, 60.05158], [22.99692, 60.06208], [22.99073, 60.07734], [22.99724, 60.08967], [23.04591, 60.12165], [23.0254, 60.13532], [23.00489, 60.10737], [22.96949, 60.09439], [22.96827, 60.11083], [22.95867, 60.12157], [22.94256, 60.12739], [22.90789, 60.13178], [22.87468, 60.1496], [22.88478, 60.15986], [22.88559, 60.16934], [22.87916, 60.17748], [22.8672, 60.18374], [22.92156, 60.23115], [22.94288, 60.24518], [23.00758, 60.277], [23.0254, 60.29295], [23.0381, 60.31916], [23.04591, 60.32709], [23.08286, 60.34589], [23.08058, 60.35505], [23.06031, 60.35733], [23.03419, 60.34394], [23.01059, 60.32396], [22.99806, 60.30663], [22.94117, 60.31647], [22.87713, 60.30109], [22.73618, 60.23819], [22.61118, 60.21996], [22.5534, 60.20502], [22.52508, 60.20425], [22.53981, 60.21357], [22.59343, 60.23216], [22.5735, 60.23493], [22.57203, 60.24266], [22.59034, 60.26227], [22.60109, 60.26821], [22.64812, 60.27871], [22.5984, 60.27578], [22.57456, 60.27082], [22.52735, 60.25214], [22.50359, 60.24706], [22.44947, 60.24518], [22.45777, 60.25239], [22.45916, 60.26496], [22.46941, 60.27692], [22.48748, 60.28498], [22.5088, 60.30109], [22.54029, 60.319], [22.54566, 60.33393], [22.59636, 60.36367], [22.62761, 60.37539], [22.63136, 60.38955], [22.62428, 60.39908], [22.58082, 60.37592], [22.54347, 60.37255], [22.46306, 60.37556], [22.48357, 60.40217], [22.32618, 60.38239], [22.29152, 60.38264], [22.24952, 60.40461], [22.18149, 60.43049], [22.16114, 60.43464], [22.11671, 60.43696], [22.11101, 60.44408], [22.10816, 60.45685], [22.10109, 60.46214], [22.06446, 60.43635], [22.04705, 60.43879], [22.01808, 60.45746], [22.01808, 60.47114], [22.00172, 60.47012], [21.98194, 60.47675], [21.97918, 60.48078], [21.9839, 60.49226], [21.93539, 60.49226], [21.95037, 60.51895], [21.93165, 60.52497], [21.90317, 60.52888], [21.87403, 60.52953], [21.85353, 60.52578], [21.84392, 60.51553], [21.84848, 60.50373], [21.87403, 60.47797], [21.82862, 60.48542], [21.806, 60.48599], [21.78533, 60.47797], [21.78956, 60.4951], [21.80299, 60.52513], [21.80787, 60.57559], [21.81959, 60.58503], [21.84604, 60.58784], [21.83326, 60.5965], [21.82846, 60.60639], [21.8309, 60.61713], [21.84051, 60.62873], [21.77394, 60.60395], [21.75424, 60.59097], [21.73178, 60.58173], [21.67897, 60.57648], [21.66179, 60.56733], [21.66017, 60.55907], [21.66896, 60.54523], [21.65561, 60.52595], [21.65431, 60.50898], [21.64145, 60.49575], [21.61207, 60.48884], [21.57984, 60.48786], [21.55812, 60.49226], [21.58375, 60.50503], [21.56967, 60.52643], [21.51775, 60.56733], [21.53346, 60.56806], [21.57862, 60.55988], [21.57862, 60.56733], [21.55502, 60.57217], [21.48609, 60.57416], [21.44264, 60.56733], [21.40854, 60.58039], [21.40854, 60.58784], [21.4284, 60.59406], [21.41481, 60.6083], [21.46266, 60.60175], [21.46998, 60.6083], [21.42156, 60.62873], [21.39991, 60.6341], [21.37965, 60.64704], [21.35328, 60.67658], [21.35621, 60.68439], [21.35328, 60.69017], [21.42595, 60.67963], [21.43897, 60.68033], [21.44565, 60.69286], [21.44093, 60.70303], [21.42213, 60.725], [21.46998, 60.725], [21.46998, 60.73115], [21.42709, 60.73652], [21.38738, 60.75235], [21.40333, 60.75825], [21.42213, 60.7591], [21.40024, 60.77456], [21.38771, 60.77924], [21.37428, 60.77961], [21.38087, 60.7934], [21.37428, 60.8076], [21.36085, 60.81623], [21.34645, 60.81314], [21.32887, 60.82754], [21.32594, 60.83487], [21.33644, 60.84471], [21.31853, 60.86469], [21.33253, 60.86835], [21.38234, 60.86319], [21.40789, 60.86457], [21.4284, 60.8758], [21.40593, 60.88202], [21.38087, 60.88202], [21.37371, 60.88459], [21.35328, 60.90253], [21.3908, 60.91681], [21.41619, 60.90322], [21.4284, 60.90253], [21.41277, 60.9335], [21.39259, 60.93903], [21.38054, 60.95771], [21.3357, 61.00458], [21.31853, 61.01236], [21.33904, 61.0266], [21.31153, 61.03754], [21.30209, 61.04605], [21.29868, 61.06013], [21.32032, 61.06021], [21.36427, 61.04474], [21.38738, 61.04027], [21.40886, 61.04328], [21.40772, 61.05073], [21.39137, 61.05793], [21.36695, 61.06013], [21.39527, 61.0694], [21.45387, 61.055], [21.48227, 61.06013], [21.46827, 61.06684], [21.45484, 61.07819], [21.45045, 61.09077], [21.46315, 61.10114], [21.44606, 61.13516], [21.43523, 61.14273], [21.46998, 61.14956], [21.45582, 61.15021], [21.44264, 61.15575], [21.45631, 61.16999], [21.44264, 61.16999], [21.45582, 61.17617], [21.47104, 61.17817], [21.50343, 61.17744], [21.49659, 61.19111], [21.52662, 61.19969], [21.55812, 61.20417], [21.54347, 61.22508], [21.5241, 61.23461], [21.47609, 61.24575], [21.48561, 61.25617], [21.50831, 61.26683], [21.50343, 61.27985], [21.54444, 61.27985], [21.542, 61.29271], [21.54444, 61.32087], [21.542, 61.32689], [21.53419, 61.3295], [21.53077, 61.33446], [21.53175, 61.34968], [21.52426, 61.37531], [21.50343, 61.38911], [21.4489, 61.40278], [21.47788, 61.41157], [21.54168, 61.40839], [21.57244, 61.41641], [21.54225, 61.44212], [21.51027, 61.45799], [21.44207, 61.47504], [21.42213, 61.48534], [21.55568, 61.47516], [21.59213, 61.48534], [21.5656, 61.51948], [21.55095, 61.5218], [21.52426, 61.5174], [21.51027, 61.51948], [21.46998, 61.54682], [21.46013, 61.5624], [21.48227, 61.56786], [21.50799, 61.57014], [21.62338, 61.54588], [21.68686, 61.52448], [21.71632, 61.51948], [21.71632, 61.52692], [21.64812, 61.56029], [21.61427, 61.58543], [21.59181, 61.62812], [21.5525, 61.64077], [21.53761, 61.64985], [21.53614, 61.65803], [21.54412, 61.67284], [21.54103, 61.68024], [21.51775, 61.70506], [21.51775, 61.71125], [21.53631, 61.7082], [21.57032, 61.69501], [21.58595, 61.69766], [21.55934, 61.71332], [21.48927, 61.73696], [21.46998, 61.75971], [21.47267, 61.77192], [21.48902, 61.79914], [21.48609, 61.81118], [21.45558, 61.81997], [21.44459, 61.82632], [21.4489, 61.84162], [21.40317, 61.87641], [21.39422, 61.88939], [21.41196, 61.90009], [21.41407, 61.90689], [21.39356, 61.91324], [21.38722, 61.93041], [21.38054, 61.93781], [21.31251, 61.93985], [21.27752, 61.95148], [21.29493, 61.97134], [21.28053, 61.97956], [21.23658, 61.98501], [21.27622, 62.0502], [21.28435, 62.07494], [21.28907, 62.12157], [21.2964, 62.13044], [21.31227, 62.10912], [21.32911, 62.13813], [21.33253, 62.15257], [21.32594, 62.16376], [21.34034, 62.17573], [21.3711, 62.18647], [21.38396, 62.19449], [21.3899, 62.20816], [21.38087, 62.21784], [21.35328, 62.232], [21.37428, 62.26679], [21.35231, 62.26602], [21.32936, 62.24144], [21.31227, 62.232], [21.33277, 62.29409], [21.33351, 62.34056], [21.33904, 62.35554], [21.28533, 62.34528], [21.27068, 62.34931], [21.26246, 62.3592], [21.26043, 62.37197], [21.26531, 62.3852], [21.27752, 62.39647], [21.27068, 62.41079], [21.20509, 62.35969], [21.2024, 62.34919], [21.21608, 62.33503], [21.19435, 62.33706], [21.18979, 62.35244], [21.2024, 62.39033], [21.18133, 62.39647], [21.18946, 62.40839], [21.2024, 62.41763], [21.18605, 62.42357], [21.16676, 62.42133], [21.1478, 62.4138], [21.13356, 62.40396], [21.13136, 62.41669], [21.14918, 62.44709], [21.15455, 62.46479], [21.12428, 62.45482], [21.11638, 62.46015], [21.11305, 62.47842], [21.11557, 62.4958], [21.12428, 62.51], [21.13787, 62.5207], [21.15455, 62.52749], [21.12672, 62.55414], [21.18816, 62.58487], [21.20924, 62.5821], [21.19353, 62.6009], [21.12159, 62.60944], [21.10621, 62.62303], [21.08326, 62.6127], [21.0652, 62.59577], [21.06788, 62.6201], [21.08318, 62.65925], [21.07895, 62.67829], [21.09889, 62.68089], [21.12574, 62.69017], [21.14967, 62.7038], [21.16082, 62.71931], [21.16017, 62.73017], [21.14039, 62.7329], [21.11647, 62.74966], [21.10792, 62.76703], [21.11354, 62.78119], [21.12908, 62.79084], [21.15089, 62.79438], [21.17107, 62.78461], [21.18336, 62.78238], [21.18881, 62.79068], [21.21608, 62.81485], [21.22674, 62.85847], [21.24342, 62.86945], [21.26743, 62.86904], [21.3357, 62.85545], [21.3567, 62.85952], [21.3908, 62.88032], [21.42213, 62.9418], [21.46315, 62.9514], [21.44654, 62.98701], [21.44077, 63.03779], [21.4441, 63.04092], [21.45631, 63.04755], [21.46705, 63.04792], [21.48048, 63.04304], [21.48227, 63.05817], [21.49513, 63.07172], [21.52345, 63.06395], [21.5652, 63.04076], [21.59547, 63.03486], [21.62574, 63.02387], [21.65675, 63.01789], [21.68849, 63.02709], [21.64568, 63.05524], [21.57911, 63.08373], [21.55958, 63.09512], [21.55323, 63.10859], [21.57244, 63.12336], [21.54591, 63.11791], [21.53199, 63.1197], [21.52084, 63.12678], [21.51677, 63.1376], [21.51612, 63.15546], [21.50343, 63.15746], [21.51051, 63.1684], [21.52223, 63.17207], [21.55193, 63.17113], [21.55193, 63.17792], [21.51287, 63.185], [21.50099, 63.19245], [21.49659, 63.20897], [21.50489, 63.21743], [21.52377, 63.22541], [21.55812, 63.23261], [21.61541, 63.20392], [21.64723, 63.19766], [21.66798, 63.21955], [21.71469, 63.20234], [21.74236, 63.19965], [21.76417, 63.20588], [21.70265, 63.21955], [21.70265, 63.22577], [21.74366, 63.23941], [21.75807, 63.24152], [21.79835, 63.23941], [21.8213, 63.24372], [21.86988, 63.25943], [21.89454, 63.26048], [21.88445, 63.24543], [21.88266, 63.23591], [21.89145, 63.1966], [21.8899, 63.18818], [21.88087, 63.17792], [21.90553, 63.17544], [21.9839, 63.14321], [21.97218, 63.16498], [21.9559, 63.18476], [21.9944, 63.19644], [22.0044, 63.20588], [22.01596, 63.232], [22.02475, 63.23941], [22.04314, 63.24559], [22.05356, 63.24091], [22.07203, 63.22577], [22.08758, 63.22577], [22.12721, 63.23941], [22.15919, 63.23176], [22.17506, 63.23261], [22.18019, 63.2355], [22.1819, 63.24681], [22.20297, 63.23941], [22.24464, 63.26708], [22.26637, 63.28535], [22.27809, 63.30146], [22.28492, 63.30146], [22.30763, 63.27587], [22.33009, 63.28384], [22.35222, 63.30561], [22.37371, 63.32136], [22.36394, 63.32689], [22.34693, 63.34927], [22.33383, 63.35969], [22.30535, 63.37271], [22.2505, 63.41132], [22.21827, 63.41437], [22.20582, 63.42032], [22.19557, 63.43122], [22.19093, 63.45844], [22.21339, 63.47089], [22.24676, 63.46963], [22.30494, 63.43586], [22.36695, 63.42829], [22.40162, 63.41816], [22.31821, 63.46052], [22.27996, 63.48762], [22.27125, 63.51374], [22.28142, 63.52619], [22.29225, 63.52973], [22.33741, 63.52334], [22.33709, 63.51362], [22.33123, 63.50235], [22.33334, 63.49323], [22.35548, 63.48749], [22.38022, 63.48542], [22.39682, 63.47695], [22.39479, 63.45234], [22.4074, 63.45694], [22.4358, 63.47281], [22.4358, 63.47956], [22.4284, 63.48876], [22.43149, 63.49738], [22.44549, 63.51813], [22.46306, 63.55476], [22.49318, 63.57347], [22.49724, 63.58576], [22.50343, 63.5871], [22.54566, 63.57518], [22.53777, 63.58771], [22.49724, 63.62299], [22.51441, 63.63597], [22.53199, 63.64411], [22.52508, 63.6577], [22.56739, 63.65314], [22.5857, 63.65705], [22.59343, 63.67451], [22.58904, 63.70332], [22.61329, 63.69929], [22.63706, 63.68309], [22.64487, 63.69855], [22.65406, 63.70376], [22.6753, 63.70238], [22.70232, 63.68342], [22.70704, 63.67133], [22.70265, 63.6577], [22.73406, 63.62759], [22.74049, 63.62299], [22.77345, 63.62751], [22.81023, 63.64374], [22.82927, 63.64623], [22.83302, 63.65436], [22.83351, 63.6673], [22.84034, 63.67764], [22.85548, 63.68716], [22.88697, 63.69522], [22.90187, 63.70551], [22.83302, 63.72602], [22.90187, 63.72602], [22.87468, 63.74653], [22.9004, 63.74006], [22.91472, 63.7392], [22.92579, 63.74339], [22.92921, 63.76435], [22.90772, 63.77241], [22.89877, 63.78327], [22.90252, 63.79487], [22.92237, 63.8017], [22.94288, 63.80048], [22.95484, 63.79328], [22.97315, 63.77098], [22.99, 63.7613], [23.00066, 63.76362], [23.0018, 63.77375], [22.99073, 63.7875], [22.99464, 63.80073], [22.99073, 63.81538], [23.04762, 63.8413], [23.06284, 63.85297], [23.07496, 63.85737], [23.12135, 63.84956], [23.15349, 63.86347], [23.14161, 63.86945], [23.14186, 63.87596], [23.16733, 63.88695], [23.19793, 63.89061], [23.27524, 63.8889], [23.30649, 63.89423], [23.32643, 63.91096], [23.35076, 63.89883], [23.37281, 63.90062], [23.41578, 63.92463], [23.37086, 63.94652], [23.37086, 63.956], [23.37875, 63.96894], [23.36744, 63.99726], [23.3816, 64.04816], [23.3965, 64.05614], [23.41521, 64.05622], [23.44996, 64.04816], [23.47731, 64.0351], [23.5066, 64.04165], [23.53834, 64.03189], [23.6045, 64.02765], [23.6198, 64.03803], [23.60597, 64.0611], [23.56609, 64.09658], [23.57358, 64.10725], [23.58546, 64.10855], [23.61443, 64.10342], [23.62208, 64.10712], [23.65602, 64.13007], [23.66033, 64.1433], [23.72364, 64.17853], [23.71681, 64.17853], [23.72438, 64.20893], [23.73569, 64.21621], [23.75766, 64.20954], [23.77272, 64.20893], [23.8191, 64.22065], [23.83351, 64.22687], [23.86109, 64.26789], [23.8816, 64.2661], [23.94337, 64.24677], [23.92758, 64.27119], [23.92514, 64.28547], [23.92905, 64.30142], [23.94093, 64.31655], [23.9712, 64.33515], [23.98422, 64.3498], [23.9961, 64.37987], [24.0044, 64.38911], [24.0254, 64.39765], [24.06861, 64.40559], [24.08473, 64.41474], [24.08058, 64.43171], [24.10483, 64.43122], [24.11549, 64.4348], [24.12501, 64.44233], [24.12916, 64.44082], [24.16928, 64.45222], [24.20574, 64.45222], [24.21079, 64.456], [24.21225, 64.48102], [24.21778, 64.48701], [24.2295, 64.48916], [24.25758, 64.48599], [24.26889, 64.49006], [24.28598, 64.51496], [24.34409, 64.53075], [24.36109, 64.54841], [24.35499, 64.57241], [24.37387, 64.57954], [24.37452, 64.58779], [24.36793, 64.59687], [24.3755, 64.61726], [24.38266, 64.62865], [24.40886, 64.65144], [24.42286, 64.67561], [24.44117, 64.6811], [24.47096, 64.69929], [24.53028, 64.71784], [24.54607, 64.73338], [24.5324, 64.74771], [24.5324, 64.75385], [24.54371, 64.76472], [24.58766, 64.78119], [24.55006, 64.79658], [24.53842, 64.80532], [24.55665, 64.80915], [24.57838, 64.80793], [24.65854, 64.78864], [24.66831, 64.78913], [24.67652, 64.79487], [24.67677, 64.79955], [24.6657, 64.80707], [24.66277, 64.81257], [24.67066, 64.82974], [24.68963, 64.8347], [24.7317, 64.83584], [24.73634, 64.85537], [24.77312, 64.86579], [24.89698, 64.87311], [25.07374, 64.91608], [25.09474, 64.91836], [25.11231, 64.91446], [25.12973, 64.89378], [25.14324, 64.88422], [25.16668, 64.88841], [25.17726, 64.88422], [25.18727, 64.86066], [25.21762, 64.84146], [25.25929, 64.83584], [25.25929, 64.82958], [25.24155, 64.82811], [25.22511, 64.82274], [25.25953, 64.81647], [25.35483, 64.82958], [25.36215, 64.83307], [25.35043, 64.85171], [25.35182, 64.86066], [25.3685, 64.89851], [25.35955, 64.91112], [25.34783, 64.91157], [25.3213, 64.90473], [25.30633, 64.90888], [25.2798, 64.92231], [25.24122, 64.92902], [25.22348, 64.93891], [25.19093, 64.96678], [25.21144, 64.98041], [25.20395, 64.98664], [25.22096, 64.99055], [25.32163, 64.98359], [25.3991, 64.95189], [25.42156, 64.94888], [25.43816, 64.95307], [25.44353, 64.96678], [25.43629, 64.98029], [25.41676, 64.9986], [25.42311, 65.01459], [25.4131, 65.02448], [25.41627, 65.03506], [25.38087, 65.05598], [25.36997, 65.08442], [25.35548, 65.0965], [25.32407, 65.10981], [25.21144, 65.12377], [25.21827, 65.14574], [25.22584, 65.15664], [25.25929, 65.17219], [25.27263, 65.18041], [25.28248, 65.19139], [25.28565, 65.20478], [25.2798, 65.21996], [25.30445, 65.21967], [25.32748, 65.22687], [25.30014, 65.23363], [25.31381, 65.25414], [25.2798, 65.26097], [25.2942, 65.27115], [25.30787, 65.30215], [25.3213, 65.31623], [25.30698, 65.32982], [25.32244, 65.33356], [25.33497, 65.34349], [25.26612, 65.37763], [25.3213, 65.38508], [25.35548, 65.41181], [25.34449, 65.42853], [25.35865, 65.46552], [25.35182, 65.48412], [25.32358, 65.50678], [25.29371, 65.52509], [25.219, 65.55728], [25.19711, 65.56265], [25.14682, 65.55903], [25.12485, 65.5611], [25.10157, 65.57689], [25.08546, 65.60517], [25.07423, 65.61416], [25.06072, 65.61726], [25.03582, 65.61416], [25.00489, 65.62702], [24.9572, 65.62279], [24.93718, 65.62409], [24.89552, 65.65135], [24.85914, 65.65913], [24.81951, 65.66218], [24.78028, 65.65973], [24.74529, 65.65135], [24.7068, 65.63329], [24.68702, 65.63154], [24.67579, 65.63544], [24.67107, 65.64496], [24.66774, 65.69086], [24.65968, 65.69505], [24.59653, 65.70917], [24.584, 65.71686], [24.55486, 65.7451], [24.55047, 65.7635], [24.56039, 65.78913], [24.57537, 65.80817], [24.63201, 65.86058], [24.64576, 65.87946], [24.67026, 65.89159], [24.6976, 65.89448], [24.70753, 65.89924], [24.71062, 65.91209], [24.69459, 65.904], [24.64226, 65.89159], [24.61793, 65.88923], [24.61451, 65.86616], [24.58717, 65.85431], [24.54363, 65.80899], [24.51881, 65.79605], [24.45297, 65.79694], [24.43051, 65.78913], [24.42286, 65.7766], [24.4048, 65.76923], [24.35711, 65.7792], [24.31666, 65.80223], [24.27784, 65.80939], [24.23829, 65.8227], [24.2483, 65.80903], [24.25123, 65.79413], [24.24431, 65.78156], [24.22462, 65.77489], [24.20623, 65.77875], [24.18824, 65.79023], [24.1631, 65.81586], [24.16341, 65.84079], [24.12445, 65.8689], [24.10233, 65.90859], [24.05479, 65.94791], [24.05531, 65.98517], [24.02978, 66.03499], [24.01965, 66.04894], [23.97459, 66.07282], [23.91144, 66.14862], [23.88932, 66.16111], [23.78555, 66.17669], [23.75, 66.18966], [23.72416, 66.20663], [23.68944, 66.25699], [23.68065, 66.28298], [23.66598, 66.30546], [23.66277, 66.31652], [23.66443, 66.32639], [23.67641, 66.35001], [23.67704, 66.36362], [23.66587, 66.40556], [23.64665, 66.42406], [23.64231, 66.43626], [23.65244, 66.45884], [23.67683, 66.47401], [23.73109, 66.48716], [23.73109, 66.50312], [23.78587, 66.51842], [23.80612, 66.52814], [23.80767, 66.53925], [23.86121, 66.5546], [23.88188, 66.56354], [23.89149, 66.57888], [23.89325, 66.59604], [23.88188, 66.6318], [23.89904, 66.66637], [23.90317, 66.68632], [23.90296, 66.70688], [23.8917, 66.74358], [23.89242, 66.75091], [23.92477, 66.77298], [23.93924, 66.79112], [23.98441, 66.79298], [23.99919, 66.79629], [24.00404, 66.8052], [24.00125, 66.81243], [23.96084, 66.86189], [23.93335, 66.88876], [23.87361, 66.92465], [23.81667, 66.9755], [23.79207, 66.98893], [23.76168, 66.99428], [23.7438, 67.00103], [23.72034, 67.01687], [23.67673, 67.05849], [23.67259, 67.0657], [23.6666, 67.09792], [23.58133, 67.15314], [23.57399, 67.17303], [23.59756, 67.19027], [23.61492, 67.21399], [23.59673, 67.21797], [23.59146, 67.22502], [23.59456, 67.24442], [23.60272, 67.26026], [23.62226, 67.26902], [23.73543, 67.28969], [23.76323, 67.30649], [23.78566, 67.33752], [23.75145, 67.34623], [23.75135, 67.36953], [23.76323, 67.39754], [23.76519, 67.42007], [23.75259, 67.42731], [23.66267, 67.43622], [23.59456, 67.45361], [23.55384, 67.45201], [23.51425, 67.44482], [23.47715, 67.44382], [23.44366, 67.46103], [23.43126, 67.48552], [23.44346, 67.50472], [23.46599, 67.52244], [23.48469, 67.54296], [23.47343, 67.555], [23.53544, 67.57701], [23.55353, 67.58704], [23.55032, 67.61091], [23.54257, 67.62667], [23.5188, 67.65282], [23.51074, 67.66926], [23.49948, 67.709], [23.48842, 67.72481], [23.48459, 67.73716], [23.48469, 67.79623], [23.47674, 67.84134], [23.48128, 67.86464], [23.49885, 67.88216], [23.53255, 67.89317], [23.60334, 67.90299], [23.63611, 67.91348], [23.66122, 67.93286], [23.66215, 67.95043], [23.64314, 67.96319], [23.57368, 67.97332], [23.48469, 68.0159], [23.383, 68.05125], [23.33091, 68.12778], [23.30652, 68.14561], [23.2721, 68.14499], [23.18725, 68.12225], [23.16565, 68.12204], [23.15169, 68.13026], [23.14942, 68.13941], [23.15975, 68.17873], [23.15851, 68.18669], [23.14942, 68.19403], [23.15521, 68.21744], [23.14001, 68.23418], [23.09485, 68.25553], [23.08162, 68.26529], [23.06694, 68.29025], [23.05216, 68.29821], [22.90375, 68.33661], [22.87512, 68.35107], [22.83337, 68.38477], [22.80825, 68.3949], [22.74862, 68.38549], [22.71906, 68.39877], [22.69022, 68.41675], [22.66221, 68.4274], [22.60764, 68.42492], [22.56517, 68.43629], [22.52134, 68.4382], [22.45685, 68.45179], [22.37799, 68.45412], [22.37396, 68.45634], [22.37458, 68.46616], [22.37107, 68.46838], [22.30306, 68.47613], [22.07217, 68.47701], [22.03837, 68.48828], [22.0361, 68.50652], [22.01212, 68.51644], [21.96985, 68.54083], [21.96396, 68.54693], [21.91921, 68.56822], [21.7371, 68.58791], [21.71684, 68.61922], [21.66155, 68.63354], [21.57246, 68.66739], [21.49567, 68.6755], [21.46363, 68.68687], [21.42125, 68.72749], [21.40637, 68.74888], [21.38591, 68.75384], [21.3054, 68.7558], [21.29372, 68.76821], [21.27573, 68.77642], [21.21662, 68.81725], [21.07213, 68.86944], [20.90573, 68.89461], [20.88454, 68.9067], [20.88764, 68.92706], [20.91782, 68.93295], [20.93426, 68.94902], [20.93457, 68.96695], [20.91121, 68.9807], [20.86398, 68.98628], [20.79535, 69.01124], [20.67546, 69.01817], [20.62317, 69.03636], [20.7166, 69.09878], [20.7444, 69.10436], [21.03254, 69.04101], [21.07151, 69.03667], [21.099, 69.0438], [21.15636, 69.08762], [21.03358, 69.18121], [21.07967, 69.23014], [21.09838, 69.2395], [21.31356, 69.29143], [21.63881, 69.27138], [21.66289, 69.26322], [22.02308, 69.01202], [22.16074, 68.9561], [22.17439, 68.9437], [22.18865, 68.91864], [22.20023, 68.90846], [22.27722, 68.85745], [22.35681, 68.83275], [22.37138, 68.82262], [22.3967, 68.73183], [22.40921, 68.71291], [22.42874, 68.71007], [22.54294, 68.72604], [22.57013, 68.72681], [22.59648, 68.72464], [22.85166, 68.67571], [23.0193, 68.68671], [23.07149, 68.68087], [23.09795, 68.67012], [23.17536, 68.62165], [23.19758, 68.61804], [23.48159, 68.68563], [23.64158, 68.69498], [23.73481, 68.71545], [23.76798, 68.75596], [23.78721, 68.79978], [23.85263, 68.81668], [23.92901, 68.81621], [24.13117, 68.77617], [24.16372, 68.75482], [24.18688, 68.74454], [24.3325, 68.70862], [24.66343, 68.66609], [24.75418, 68.63788], [24.82963, 68.59411], [24.86094, 68.56341], [24.87924, 68.55483], [24.90518, 68.55695], [24.92709, 68.57039], [24.95179, 68.60506], [24.98125, 68.61509], [25.00688, 68.61457], [25.07096, 68.63142], [25.11757, 68.63767], [25.13245, 68.64765], [25.14423, 68.66801], [25.13214, 68.67658], [25.13276, 68.68268], [25.14309, 68.69596], [25.14485, 68.74263], [25.14961, 68.76464], [25.16273, 68.78459], [25.20128, 68.81265], [25.38722, 68.87456], [25.43393, 68.88386], [25.48106, 68.88773], [25.60245, 68.87213], [25.62777, 68.87414], [25.65164, 68.8835], [25.67841, 68.91254], [25.69485, 68.92561], [25.72637, 68.94246], [25.73743, 68.95254], [25.7427, 68.96587], [25.75386, 68.97837], [25.79582, 68.99331], [25.80471, 69.00612], [25.80109, 69.01315], [25.76585, 69.03067], [25.76513, 69.04338], [25.75024, 69.05925], [25.74941, 69.06555], [25.75903, 69.08204], [25.76047, 69.11516], [25.76998, 69.12741], [25.77122, 69.13511], [25.73412, 69.19133], [25.73722, 69.2182], [25.77453, 69.29882], [25.78662, 69.31277], [25.87737, 69.37081], [25.8414, 69.41778], [25.86579, 69.44098], [25.88667, 69.45519], [25.88574, 69.47912], [25.89214, 69.4909], [25.90641, 69.50186], [25.88667, 69.52087], [25.90021, 69.53204], [25.96026, 69.54868], [25.9862, 69.56542], [26.00397, 69.58718], [26.00511, 69.61084], [25.98113, 69.63348], [25.96439, 69.64267], [25.9617, 69.65255], [25.98134, 69.67487], [26.00511, 69.68934], [26.03198, 69.69668], [26.18143, 69.71125], [26.19828, 69.71544], [26.26825, 69.75827], [26.31682, 69.79491], [26.41873, 69.83563], [26.44787, 69.85605], [26.43588, 69.87424], [26.48105, 69.8994], [26.50069, 69.91832], [26.53386, 69.92524], [26.70698, 69.93506], [26.77189, 69.92839], [26.86459, 69.93808], [26.8957, 69.93434], [26.9511, 69.92015], [27.00753, 69.92245], [27.08122, 69.90294], [27.10034, 69.90175], [27.3118, 69.92948], [27.35242, 69.9487], [27.32317, 69.95968], [27.33454, 69.96862], [27.38094, 69.97426], [27.44523, 70.00322], [27.56331, 70.02358], [27.57091, 70.04089], [27.61256, 70.06206], [27.66506, 70.06828], [27.79218, 70.05893], [27.86691, 70.07531], [27.89729, 70.07068], [27.92716, 70.05327], [27.98101, 70.0096], [28.16736, 69.89434], [28.18927, 69.88604], [28.38119, 69.8562], [28.37974, 69.82235], [28.40455, 69.80225], [28.44269, 69.79145], [29.13122, 69.6742], [29.14714, 69.66391], [29.20316, 69.58599], [29.34454, 69.46439], [29.22925, 69.37685], [28.86478, 69.2166], [28.85217, 69.20353], [28.84411, 69.18126], [28.82695, 69.10684], [28.82757, 69.09077], [28.83961, 69.08028], [28.95408, 69.02726], [28.83346, 68.98447]]], [[[26.60206, 60.44652], [26.6526, 60.42691], [26.64967, 60.42154], [26.63649, 60.41486], [26.57309, 60.40534], [26.55893, 60.39741], [26.54859, 60.37836], [26.53834, 60.37808], [26.52613, 60.38516], [26.50717, 60.40347], [26.51344, 60.41128], [26.56088, 60.41681], [26.57472, 60.42178], [26.58074, 60.42739], [26.58025, 60.43464], [26.58497, 60.44107], [26.59343, 60.44595], [26.60206, 60.44652]]], [[[25.82203, 60.2163], [25.84059, 60.21882], [25.87623, 60.21723], [25.86313, 60.20425], [25.83562, 60.19603], [25.82065, 60.19721], [25.81422, 60.20767], [25.82203, 60.2163]]], [[[25.59205, 60.24258], [25.57016, 60.25804], [25.56446, 60.27827], [25.58172, 60.29637], [25.59832, 60.29072], [25.68442, 60.24518], [25.67701, 60.23835], [25.64373, 60.2281], [25.6338, 60.21833], [25.636, 60.20425], [25.60336, 60.2154], [25.62233, 60.23835], [25.59205, 60.24258]]], [[[25.03359, 65.05751], [25.06182, 65.04348], [25.02801, 65.03462], [24.96222, 65.03478], [24.87738, 65.04525], [24.81966, 65.04328], [24.80155, 65.02427], [24.72237, 65.00347], [24.75078, 64.97597], [24.81239, 64.97919], [24.82732, 64.97297], [24.81609, 64.96809], [24.78012, 64.96678], [24.75213, 64.95311], [24.73471, 64.95091], [24.71315, 64.95173], [24.70069, 64.95816], [24.71062, 64.97297], [24.68393, 64.99657], [24.65838, 64.97199], [24.6316, 64.96784], [24.57901, 65.00954], [24.56275, 65.03718], [24.65419, 65.08022], [24.74089, 65.08327], [24.83451, 65.0948], [24.8831, 65.0869], [24.89698, 65.07242], [24.87301, 65.06583], [24.88284, 65.05914], [24.90652, 65.06048], [24.99344, 65.0551], [25.03359, 65.05751]]], [[[23.92351, 59.96931], [23.92009, 59.96776], [23.92042, 59.95942], [23.9087, 59.9538], [23.89601, 59.95429], [23.89422, 59.94969], [23.88608, 59.94798], [23.87078, 59.94672], [23.84742, 59.95466], [23.85402, 59.96288], [23.87029, 59.97281], [23.89226, 59.97651], [23.91521, 59.97346], [23.92351, 59.96931]]], [[[22.96168, 60.1044], [22.96315, 60.09687], [22.95729, 60.08885], [22.94679, 60.0847], [22.93686, 60.08389], [22.93198, 60.08588], [22.93328, 60.08975], [22.92791, 60.08991], [22.89894, 60.081], [22.84547, 60.08222], [22.84506, 60.08576], [22.85662, 60.09162], [22.8733, 60.10985], [22.89161, 60.11909], [22.917, 60.12507], [22.93767, 60.12434], [22.95004, 60.11864], [22.96168, 60.1044]]], [[[22.86573, 60.26533], [22.89096, 60.28555], [22.92075, 60.2967], [22.95639, 60.29295], [22.94947, 60.27045], [22.93043, 60.25723], [22.88453, 60.2353], [22.86687, 60.20746], [22.83985, 60.20112], [22.83351, 60.19306], [22.834, 60.18207], [22.84034, 60.17011], [22.81935, 60.16266], [22.84034, 60.15583], [22.83302, 60.14216], [22.84685, 60.11103], [22.81316, 60.0821], [22.73048, 60.04658], [22.73048, 60.03974], [22.74578, 60.03848], [22.75799, 60.03229], [22.74822, 60.02619], [22.72983, 60.00495], [22.70541, 60.0069], [22.69484, 60.00511], [22.68214, 59.9975], [22.65496, 60.03229], [22.64625, 60.02192], [22.60841, 60.00015], [22.60532, 59.99592], [22.60646, 59.98452], [22.60027, 59.98452], [22.6019, 59.99848], [22.59897, 60.00804], [22.59148, 60.01093], [22.57911, 60.00495], [22.57488, 60.01703], [22.58961, 60.03278], [22.59343, 60.04658], [22.54623, 60.02082], [22.52996, 60.00825], [22.4699, 59.9975], [22.46957, 60.02367], [22.47731, 60.04658], [22.47145, 60.05899], [22.47633, 60.08222], [22.47364, 60.09097], [22.46176, 60.09756], [22.43483, 60.10513], [22.42213, 60.11481], [22.44304, 60.11872], [22.48048, 60.13231], [22.50082, 60.13532], [22.60027, 60.13532], [22.60027, 60.14216], [22.41521, 60.1496], [22.42612, 60.17133], [22.43393, 60.19941], [22.44809, 60.22138], [22.47731, 60.22468], [22.4559, 60.20002], [22.45102, 60.18854], [22.46648, 60.18374], [22.56658, 60.19331], [22.62062, 60.21109], [22.81495, 60.227], [22.84352, 60.24177], [22.86573, 60.26533]]], [[[22.91774, 60.06867], [22.92661, 60.06538], [22.91961, 60.05834], [22.91684, 60.04922], [22.90659, 60.0384], [22.8934, 60.03315], [22.88006, 60.01105], [22.87224, 60.00605], [22.85955, 60.01142], [22.85109, 60.0279], [22.85572, 60.04133], [22.88331, 60.04312], [22.8838, 60.04808], [22.85515, 60.05557], [22.86329, 60.06257], [22.88738, 60.06778], [22.91774, 60.06867]]], [[[22.82342, 63.77924], [22.82887, 63.77631], [22.82114, 63.77147], [22.8191, 63.76325], [22.80209, 63.73819], [22.78207, 63.74482], [22.77719, 63.74177], [22.78045, 63.73432], [22.77605, 63.72818], [22.73959, 63.72053], [22.71925, 63.72663], [22.70289, 63.7364], [22.68149, 63.76341], [22.70297, 63.76976], [22.73731, 63.78559], [22.76384, 63.79145], [22.78175, 63.79043], [22.8003, 63.77607], [22.80795, 63.77953], [22.82342, 63.77924]]], [[[22.49855, 59.87763], [22.51287, 59.87373], [22.50506, 59.86872], [22.4437, 59.85147], [22.42775, 59.84951], [22.41603, 59.85293], [22.41383, 59.86123], [22.42189, 59.86567], [22.45704, 59.87299], [22.49855, 59.87763]]], [[[22.36988, 60.31452], [22.3506, 60.31367], [22.31284, 60.32095], [22.32936, 60.33735], [22.35027, 60.34785], [22.37371, 60.35342], [22.3982, 60.35505], [22.40187, 60.3531], [22.40162, 60.34138], [22.42897, 60.33393], [22.469, 60.33153], [22.47731, 60.32095], [22.45444, 60.30891], [22.4253, 60.29906], [22.39479, 60.29316], [22.36744, 60.29295], [22.37989, 60.3061], [22.38795, 60.32095], [22.36988, 60.31452]]], [[[22.40187, 60.07575], [22.41179, 60.08519], [22.43043, 60.08185], [22.44947, 60.06647], [22.44972, 60.02953], [22.44801, 60.01236], [22.44264, 59.9975], [22.4358, 59.9975], [22.42563, 60.0069], [22.40952, 60.00935], [22.39454, 60.00503], [22.38795, 59.99445], [22.38282, 59.99258], [22.3532, 60.03229], [22.34889, 60.06322], [22.35483, 60.07563], [22.37062, 60.08076], [22.38266, 60.07453], [22.38722, 60.05166], [22.40838, 60.0528], [22.40187, 60.07575]]], [[[22.37501, 60.20405], [22.38559, 60.19526], [22.36793, 60.17739], [22.32, 60.16405], [22.3191, 60.1601], [22.33326, 60.15404], [22.33693, 60.14851], [22.29868, 60.14688], [22.28834, 60.14985], [22.29217, 60.15205], [22.29078, 60.16462], [22.29819, 60.17255], [22.29933, 60.1822], [22.30454, 60.18879], [22.37501, 60.20405]]], [[[22.13201, 60.31566], [22.24977, 60.31147], [22.3213, 60.29707], [22.33961, 60.2862], [22.33717, 60.27448], [22.3318, 60.26944], [22.31284, 60.26569], [22.28981, 60.27314], [22.261, 60.25886], [22.21551, 60.25312], [22.20086, 60.25434], [22.21664, 60.26569], [22.20395, 60.27631], [22.18116, 60.28132], [22.14088, 60.27871], [22.1819, 60.27871], [22.16334, 60.25922], [22.13689, 60.2624], [22.10963, 60.27131], [22.08009, 60.26948], [22.07667, 60.28352], [22.08383, 60.30146], [22.10678, 60.31346], [22.13201, 60.31566]]], [[[22.28956, 60.35798], [22.19109, 60.34174], [22.17018, 60.34418], [22.15724, 60.35187], [22.15707, 60.3583], [22.16424, 60.36164], [22.25571, 60.37417], [22.28492, 60.37499], [22.29965, 60.36758], [22.28956, 60.35798]]], [[[22.22242, 60.22386], [22.24586, 60.24307], [22.27166, 60.253], [22.29176, 60.24518], [22.29689, 60.22126], [22.2693, 60.19587], [22.23227, 60.18496], [22.20924, 60.20425], [22.22242, 60.22386]]], [[[22.13649, 63.25056], [22.08546, 63.26179], [22.07936, 63.2663], [22.08318, 63.27045], [22.06707, 63.279], [22.0687, 63.28388], [22.08334, 63.28803], [22.08888, 63.29462], [22.06918, 63.31855], [22.1102, 63.32892], [22.13209, 63.32591], [22.15821, 63.31102], [22.16359, 63.31171], [22.1644, 63.31672], [22.16969, 63.31916], [22.19565, 63.30976], [22.20802, 63.31794], [22.21534, 63.33295], [22.22169, 63.33857], [22.23129, 63.33881], [22.23894, 63.31379], [22.24627, 63.30707], [22.22267, 63.27998], [22.20867, 63.27326], [22.18727, 63.27351], [22.1565, 63.28856], [22.11443, 63.28417], [22.15854, 63.27408], [22.1631, 63.26333], [22.15724, 63.25654], [22.13649, 63.25056]]], [[[22.20753, 60.37556], [22.11248, 60.35293], [22.10426, 60.35415], [22.12208, 60.37165], [22.13787, 60.3791], [22.20623, 60.38255], [22.20753, 60.37556]]], [[[21.94899, 63.33381], [21.94728, 63.33796], [21.95623, 63.34931], [21.99643, 63.38471], [22.03028, 63.38337], [22.05983, 63.38837], [22.07944, 63.38349], [22.09604, 63.38349], [22.09604, 63.38032], [22.07944, 63.37686], [22.08513, 63.36701], [22.07618, 63.36005], [22.05934, 63.35786], [22.02687, 63.36616], [22.01271, 63.36371], [21.99708, 63.34846], [21.98414, 63.34113], [21.96608, 63.33316], [21.94899, 63.33381]]], [[[22.07203, 60.19676], [22.01124, 60.17011], [22.03785, 60.15583], [22.00929, 60.13727], [21.97771, 60.13548], [21.95069, 60.14908], [21.93539, 60.17634], [21.99757, 60.19062], [22.04176, 60.21141], [22.05893, 60.21109], [22.07203, 60.19676]]], [[[22.03346, 63.32209], [22.0608, 63.30215], [22.05812, 63.29487], [22.04664, 63.28217], [22.0298, 63.27741], [22.01384, 63.27774], [22.00709, 63.28107], [22.00815, 63.28824], [22.00457, 63.29116], [21.99781, 63.28901], [21.99464, 63.2801], [21.98992, 63.27757], [21.97828, 63.28001], [21.97438, 63.28681], [21.97771, 63.29865], [21.98902, 63.31037], [22.00229, 63.31342], [22.02182, 63.3072], [22.02996, 63.30842], [22.00758, 63.3249], [22.01856, 63.32624], [22.03346, 63.32209]]], [[[21.99977, 60.12848], [22.01238, 60.12275], [22.00734, 60.11547], [21.98764, 60.11205], [21.94386, 60.11347], [21.92994, 60.12458], [21.93572, 60.13129], [21.96209, 60.13788], [21.97722, 60.13076], [21.99977, 60.12848]]], [[[21.99578, 60.2873], [21.97291, 60.28535], [21.99635, 60.29613], [22.00831, 60.29731], [22.00603, 60.29214], [21.99578, 60.2873]]], [[[21.97967, 60.3286], [21.96062, 60.32754], [21.92172, 60.33393], [21.90789, 60.32673], [21.90138, 60.32709], [21.90138, 60.34138], [21.86842, 60.35395], [21.83741, 60.35757], [21.81446, 60.36424], [21.79412, 60.37397], [21.78533, 60.38544], [21.79225, 60.39696], [21.80885, 60.40522], [21.84604, 60.40965], [21.84604, 60.41649], [21.79835, 60.44379], [21.80812, 60.4667], [21.81788, 60.47199], [21.83237, 60.47114], [21.89234, 60.4492], [21.90138, 60.44038], [21.90463, 60.43163], [21.91285, 60.42646], [21.93198, 60.42333], [21.95037, 60.40217], [21.95037, 60.39598], [21.90699, 60.40176], [21.89454, 60.39598], [21.95037, 60.37556], [21.94223, 60.36811], [21.97486, 60.36945], [21.98862, 60.36591], [21.99757, 60.35505], [21.96339, 60.3476], [21.9795, 60.3426], [21.99757, 60.34138], [21.99757, 60.33393], [21.97967, 60.3286]]], [[[21.94459, 60.27709], [21.90968, 60.2801], [21.89601, 60.2897], [21.88494, 60.2895], [21.87534, 60.30488], [21.87973, 60.31053], [21.90854, 60.30939], [21.92547, 60.31265], [21.97381, 60.30931], [21.97535, 60.30256], [21.95688, 60.2814], [21.94459, 60.27709]]], [[[21.79957, 60.1966], [21.85353, 60.19676], [21.88771, 60.18374], [21.88771, 60.17634], [21.86573, 60.17642], [21.84604, 60.17011], [21.86785, 60.15583], [21.79152, 60.15583], [21.82618, 60.1496], [21.79656, 60.14138], [21.80568, 60.13532], [21.78321, 60.12324], [21.75213, 60.11518], [21.72022, 60.11371], [21.69581, 60.12165], [21.70688, 60.12958], [21.70265, 60.14216], [21.7225, 60.1496], [21.7225, 60.15583], [21.70509, 60.16071], [21.70818, 60.17178], [21.72348, 60.18358], [21.74366, 60.19062], [21.79957, 60.1966]]], [[[21.76051, 60.51203], [21.70069, 60.4597], [21.688, 60.45531], [21.68165, 60.46491], [21.69093, 60.48408], [21.7142, 60.50861], [21.74187, 60.52643], [21.76417, 60.52578], [21.76051, 60.51203]]], [[[21.5298, 60.15941], [21.57106, 60.17036], [21.61451, 60.16889], [21.65431, 60.15583], [21.64747, 60.14509], [21.61329, 60.1291], [21.63022, 60.12848], [21.63697, 60.12368], [21.6351, 60.11616], [21.62631, 60.10737], [21.61313, 60.10212], [21.57203, 60.10737], [21.51441, 60.09736], [21.48227, 60.11481], [21.4992, 60.12108], [21.51856, 60.12287], [21.55812, 60.12165], [21.549, 60.13345], [21.53305, 60.13703], [21.49659, 60.13532], [21.5298, 60.15941]]], [[[21.59742, 60.25702], [21.62672, 60.25259], [21.62159, 60.24311], [21.61012, 60.23485], [21.60174, 60.22256], [21.57789, 60.22163], [21.56349, 60.22622], [21.56227, 60.23994], [21.57106, 60.25593], [21.58693, 60.26935], [21.60467, 60.26879], [21.60678, 60.26069], [21.59742, 60.25702]]], [[[21.52394, 61.63312], [21.52613, 61.6291], [21.52198, 61.62543], [21.51466, 61.62494], [21.50782, 61.61807], [21.47836, 61.62084], [21.46193, 61.62617], [21.45997, 61.62934], [21.47096, 61.63032], [21.48455, 61.64045], [21.52394, 61.63312]]], [[[21.41098, 60.54291], [21.46193, 60.53937], [21.48227, 60.52578], [21.47071, 60.52375], [21.46315, 60.52578], [21.45631, 60.50678], [21.45753, 60.49852], [21.46315, 60.49226], [21.44646, 60.49335], [21.4336, 60.48908], [21.43068, 60.48115], [21.44264, 60.47114], [21.41765, 60.47769], [21.39226, 60.48998], [21.37127, 60.50837], [21.36012, 60.53319], [21.34693, 60.52289], [21.33611, 60.51944], [21.32862, 60.52534], [21.32594, 60.54316], [21.33383, 60.55736], [21.35255, 60.56184], [21.39422, 60.55988], [21.41098, 60.54291]]], [[[21.36891, 60.1966], [21.39438, 60.19086], [21.4489, 60.19062], [21.4489, 60.18374], [21.40935, 60.18452], [21.39422, 60.17866], [21.38738, 60.16266], [21.38054, 60.16266], [21.37224, 60.17036], [21.35711, 60.17446], [21.32569, 60.17634], [21.31056, 60.17939], [21.28972, 60.19086], [21.27068, 60.19062], [21.28517, 60.20384], [21.30641, 60.2097], [21.35328, 60.21109], [21.36891, 60.1966]]], [[[21.38917, 61.19221], [21.43165, 61.17145], [21.38884, 61.18098], [21.3694, 61.17609], [21.35239, 61.17601], [21.34669, 61.17756], [21.34978, 61.17805], [21.34295, 61.19062], [21.34645, 61.19627], [21.35743, 61.19977], [21.35678, 61.20258], [21.36313, 61.20856], [21.38006, 61.21402], [21.39137, 61.20962], [21.38575, 61.20099], [21.38917, 61.19221]]], [[[21.41521, 63.23347], [21.41481, 63.22044], [21.41961, 63.20869], [21.4284, 63.19843], [21.37745, 63.19013], [21.36394, 63.19367], [21.38054, 63.20588], [21.3628, 63.20624], [21.29119, 63.17792], [21.29119, 63.17113], [21.31853, 63.16494], [21.30152, 63.15615], [21.28346, 63.15192], [21.24342, 63.1507], [21.23113, 63.15839], [21.20737, 63.18334], [21.18881, 63.1916], [21.16163, 63.18195], [21.14723, 63.1822], [21.13356, 63.19843], [21.15455, 63.19843], [21.15455, 63.20588], [21.14161, 63.21068], [21.10279, 63.23599], [21.07895, 63.28779], [21.12029, 63.27196], [21.15943, 63.27375], [21.19947, 63.28071], [21.24342, 63.28099], [21.24342, 63.27481], [21.22722, 63.27163], [21.21518, 63.26386], [21.19508, 63.23941], [21.19947, 63.23029], [21.19508, 63.22577], [21.20948, 63.22138], [21.26441, 63.21955], [21.28679, 63.21137], [21.29493, 63.21581], [21.29786, 63.22305], [21.29038, 63.2342], [21.29119, 63.23941], [21.31577, 63.25194], [21.35597, 63.26073], [21.39633, 63.26069], [21.42213, 63.24681], [21.41521, 63.23347]]], [[[21.31528, 63.30402], [21.30592, 63.30589], [21.27752, 63.30146], [21.22918, 63.3288], [21.23878, 63.33438], [21.27662, 63.34077], [21.31105, 63.35562], [21.34596, 63.36376], [21.37428, 63.34927], [21.37387, 63.3334], [21.35825, 63.31566], [21.31853, 63.28779], [21.31528, 63.30402]]], [[[21.2317, 60.88202], [21.2024, 60.88947], [21.22779, 60.89973], [21.27662, 60.88911], [21.29868, 60.8957], [21.29119, 60.90998], [21.31227, 60.923], [21.28321, 60.94282], [21.26482, 60.94961], [21.24342, 60.95087], [21.27003, 60.96796], [21.285, 60.97199], [21.30494, 60.97138], [21.33709, 60.94672], [21.37428, 60.93041], [21.32789, 60.91014], [21.32594, 60.88947], [21.31813, 60.88019], [21.29737, 60.87914], [21.27524, 60.88329], [21.2317, 60.88202]]], [[[21.35231, 60.37043], [21.35711, 60.35814], [21.35532, 60.35179], [21.33839, 60.3531], [21.33367, 60.35602], [21.334, 60.36298], [21.33106, 60.36518], [21.30388, 60.36424], [21.29444, 60.37051], [21.29615, 60.37759], [21.30779, 60.38959], [21.31984, 60.39151], [21.33806, 60.38337], [21.35231, 60.37043]]], [[[21.30014, 60.48774], [21.26596, 60.49006], [21.25025, 60.49844], [21.26059, 60.51972], [21.25294, 60.5314], [21.23845, 60.54194], [21.22918, 60.55988], [21.25025, 60.55988], [21.27849, 60.5423], [21.30494, 60.51895], [21.30763, 60.50959], [21.32488, 60.48208], [21.30014, 60.48774]]], [[[21.28102, 60.56635], [21.27329, 60.57282], [21.26441, 60.58784], [21.23316, 60.5939], [21.22291, 60.60147], [21.21388, 60.61636], [21.21909, 60.62263], [21.24342, 60.62873], [21.25327, 60.6435], [21.25929, 60.64753], [21.27068, 60.64305], [21.27491, 60.62678], [21.29119, 60.61514], [21.27833, 60.58613], [21.2815, 60.57563], [21.29868, 60.57416], [21.29868, 60.56733], [21.28102, 60.56635]]], [[[21.26734, 60.85106], [21.26759, 60.83779], [21.26319, 60.83027], [21.20981, 60.84528], [21.20533, 60.84325], [21.18629, 60.85651], [21.18946, 60.86054], [21.20655, 60.86319], [21.22153, 60.85895], [21.22657, 60.84711], [21.23536, 60.84862], [21.24586, 60.84602], [21.25953, 60.8531], [21.26734, 60.85106]]], [[[21.19142, 62.95392], [21.16814, 62.94599], [21.14666, 62.95327], [21.136, 62.96296], [21.13649, 62.96723], [21.14186, 62.96825], [21.15056, 62.96357], [21.15935, 62.97541], [21.14039, 62.98457], [21.13185, 62.99283], [21.13038, 63.0008], [21.13624, 63.00658], [21.15162, 63.01032], [21.15984, 63.00434], [21.18474, 62.99942], [21.20737, 62.98615], [21.21599, 62.97516], [21.22193, 62.95136], [21.21656, 62.94709], [21.20851, 62.94623], [21.19142, 62.95392]]]]}}]}