{"type": "FeatureCollection", "features": [{"type": "Feature", "properties": {"name": "프랑스", "name_en": "France", "period": "1993년 가입", "kind": "국가", "legend": "1993 마스트리흐트 조약으로 유럽 연합 창설(12개국)", "accession_year": 1993, "map_title": "유럽 연합 회원국(2023년 기준)", "source": "미래엔 세계사 교과서 4권 206쪽", "volume": 4, "page": 206, "geometry_source": "Natural Earth 10m 국가 경계"}, "geometry": {"type": "MultiPolygon", "coordinates": [[[[8.57407, 42.21992], [8.54526, 42.23286], [8.54949, 42.24226], [8.58627, 42.24335], [8.61085, 42.25462], [8.65113, 42.2604], [8.68084, 42.27277], [8.68775, 42.27293], [8.68873, 42.28095], [8.67205, 42.29116], [8.63478, 42.30484], [8.62517, 42.31916], [8.6111, 42.31005], [8.60532, 42.31045], [8.59986, 42.32193], [8.63478, 42.33893], [8.6128, 42.35244], [8.59156, 42.35114], [8.55209, 42.33893], [8.55958, 42.34638], [8.54965, 42.36579], [8.54908, 42.3771], [8.55209, 42.3867], [8.5608, 42.38166], [8.57049, 42.38178], [8.58627, 42.39297], [8.59864, 42.3876], [8.60727, 42.40721], [8.61866, 42.41958], [8.65089, 42.42328], [8.65952, 42.42988], [8.66139, 42.45189], [8.67677, 42.47248], [8.65707, 42.48005], [8.66749, 42.50971], [8.68043, 42.52106], [8.71656, 42.53071], [8.71078, 42.54011], [8.71632, 42.562], [8.70916, 42.57172], [8.70916, 42.57917], [8.71974, 42.57599], [8.72348, 42.5655], [8.74, 42.57233], [8.77125, 42.55805], [8.78696, 42.562], [8.79884, 42.57176], [8.80747, 42.58511], [8.81284, 42.5996], [8.80543, 42.60643], [8.84303, 42.60806], [8.9065, 42.63247], [9.01832, 42.65013], [9.04998, 42.66218], [9.05299, 42.68159], [9.11785, 42.732], [9.16521, 42.73517], [9.23683, 42.72256], [9.26466, 42.70889], [9.27613, 42.69416], [9.28533, 42.67475], [9.29217, 42.67475], [9.32789, 42.72004], [9.34254, 42.74909], [9.33302, 42.77094], [9.34099, 42.79011], [9.33546, 42.8076], [9.30568, 42.83926], [9.33302, 42.86713], [9.33286, 42.8758], [9.32634, 42.88532], [9.33025, 42.90355], [9.3602, 42.92862], [9.35572, 42.93651], [9.3602, 42.94912], [9.34995, 42.95722], [9.34343, 42.97309], [9.34181, 42.99067], [9.34669, 43.00373], [9.36305, 43.01154], [9.40431, 43.01166], [9.42237, 43.0174], [9.43556, 43.00373], [9.46404, 42.99006], [9.46404, 42.98261], [9.45558, 42.97456], [9.45387, 42.96381], [9.45875, 42.95234], [9.47006, 42.94229], [9.46551, 42.92353], [9.48439, 42.83242], [9.48276, 42.80231], [9.45037, 42.70889], [9.45037, 42.65363], [9.44288, 42.64057], [9.45655, 42.63443], [9.46168, 42.61982], [9.45655, 42.60643], [9.46461, 42.60163], [9.4769, 42.57917], [9.51189, 42.5655], [9.50912, 42.57998], [9.48959, 42.61262], [9.51857, 42.58096], [9.52809, 42.56354], [9.53224, 42.54438], [9.53004, 42.48631], [9.53338, 42.45624], [9.54591, 42.43513], [9.53541, 42.40819], [9.53224, 42.37373], [9.53696, 42.35318], [9.55543, 42.31428], [9.55958, 42.29458], [9.55226, 42.17015], [9.55958, 42.14655], [9.55274, 42.11302], [9.54558, 42.10399], [9.51857, 42.08511], [9.49244, 42.04776], [9.42384, 41.97354], [9.4087, 41.96223], [9.40317, 41.95295], [9.40284, 41.91743], [9.3943, 41.84797], [9.40301, 41.77973], [9.40162, 41.70645], [9.39861, 41.70148], [9.3812, 41.69269], [9.37224, 41.68391], [9.36703, 41.67422], [9.38071, 41.67422], [9.37794, 41.65644], [9.37306, 41.64517], [9.36362, 41.64004], [9.34522, 41.64033], [9.34213, 41.63467], [9.34669, 41.61957], [9.31821, 41.62714], [9.29217, 41.62641], [9.29396, 41.61762], [9.27858, 41.59837], [9.29217, 41.59162], [9.32504, 41.60195], [9.34506, 41.60448], [9.35418, 41.5954], [9.3506, 41.5812], [9.34108, 41.56928], [9.32667, 41.5611], [9.30909, 41.55817], [9.29965, 41.55329], [9.28199, 41.53327], [9.26466, 41.53083], [9.26987, 41.51679], [9.26466, 41.50288], [9.27622, 41.49942], [9.27914, 41.49164], [9.27475, 41.48286], [9.26466, 41.47614], [9.27084, 41.46874], [9.22804, 41.45002], [9.2107, 41.44823], [9.2107, 41.44086], [9.22006, 41.43505], [9.22332, 41.42731], [9.21998, 41.41962], [9.2107, 41.41352], [9.2107, 41.40729], [9.25034, 41.4278], [9.23878, 41.3959], [9.22316, 41.3725], [9.20672, 41.36591], [9.19386, 41.36913], [9.16912, 41.38618], [9.15333, 41.39134], [9.12224, 41.39496], [9.09645, 41.40351], [9.10727, 41.42927], [9.12135, 41.43464], [9.10515, 41.4455], [9.0809, 41.45319], [9.06658, 41.4619], [9.07985, 41.47614], [9.07985, 41.48237], [9.06821, 41.47948], [9.03875, 41.4619], [9.03199, 41.46874], [9.03875, 41.47614], [9.01832, 41.46874], [9.00099, 41.48306], [8.95102, 41.49189], [8.93572, 41.4892], [8.90691, 41.50731], [8.88364, 41.51118], [8.87371, 41.52338], [8.8484, 41.52611], [8.83961, 41.53083], [8.85328, 41.53766], [8.85328, 41.54385], [8.83334, 41.55073], [8.80991, 41.55268], [8.79176, 41.56123], [8.7964, 41.58055], [8.79322, 41.58731], [8.77809, 41.59162], [8.792, 41.62515], [8.80177, 41.63907], [8.81902, 41.63264], [8.87257, 41.65107], [8.88111, 41.65713], [8.88575, 41.67088], [8.91066, 41.68382], [8.9227, 41.69465], [8.89918, 41.69546], [8.83644, 41.70893], [8.78883, 41.71255], [8.77613, 41.7224], [8.78492, 41.7425], [8.7601, 41.74266], [8.71909, 41.7307], [8.69557, 41.72944], [8.70297, 41.7425], [8.68873, 41.74177], [8.65512, 41.7499], [8.66822, 41.75487], [8.6963, 41.7582], [8.70916, 41.76358], [8.71754, 41.77204], [8.72202, 41.78242], [8.72022, 41.79169], [8.70916, 41.79707], [8.70916, 41.80451], [8.73194, 41.80459], [8.75229, 41.8098], [8.78492, 41.82441], [8.78004, 41.83393], [8.77231, 41.8404], [8.75082, 41.84553], [8.7837, 41.85358], [8.79176, 41.85912], [8.78175, 41.87368], [8.77809, 41.87279], [8.8034, 41.90054], [8.80543, 41.90693], [8.79176, 41.91376], [8.78142, 41.92878], [8.76441, 41.93427], [8.7444, 41.93281], [8.7103, 41.91877], [8.68873, 41.91376], [8.62989, 41.90864], [8.61427, 41.90078], [8.60727, 41.91376], [8.61866, 41.93049], [8.61443, 41.94408], [8.58627, 41.96898], [8.63551, 41.97264], [8.65504, 41.9787], [8.66879, 41.99632], [8.6561, 42.00288], [8.66456, 42.01447], [8.68434, 42.02558], [8.74342, 42.04413], [8.74497, 42.05659], [8.73911, 42.06342], [8.72348, 42.07209], [8.69923, 42.10932], [8.68881, 42.11115], [8.6609, 42.10545], [8.65512, 42.10932], [8.64772, 42.12202], [8.62957, 42.13007], [8.58627, 42.13349], [8.59376, 42.14655], [8.57814, 42.1542], [8.55958, 42.154], [8.56967, 42.15559], [8.59376, 42.16706], [8.59376, 42.17451], [8.56577, 42.17451], [8.56577, 42.1813], [8.57765, 42.18488], [8.5818, 42.19452], [8.57781, 42.20441], [8.56577, 42.20856], [8.57407, 42.21992]]], [[[9.48211, 42.6201], [9.47682, 42.61909], [9.45655, 42.64741], [9.48211, 42.6201]]], [[[2.53703, 51.06461], [2.54706, 51.02048], [2.55698, 51.00118], [2.59274, 50.97611], [2.60845, 50.96113], [2.61165, 50.94123], [2.58271, 50.92067], [2.57693, 50.91152], [2.59667, 50.86765], [2.58675, 50.84542], [2.60659, 50.83483], [2.62044, 50.81649], [2.64245, 50.81245], [2.67873, 50.81323], [2.69186, 50.80884], [2.70663, 50.78879], [2.74384, 50.7662], [2.76823, 50.73324], [2.78673, 50.72337], [2.88688, 50.69665], [2.90011, 50.70311], [2.93019, 50.73623], [2.94838, 50.74869], [2.97142, 50.75783], [3.1033, 50.78408], [3.12925, 50.77907], [3.1462, 50.76889], [3.17668, 50.73411], [3.18898, 50.7151], [3.19694, 50.70921], [3.22443, 50.70517], [3.23239, 50.69593], [3.24376, 50.6721], [3.22981, 50.65541], [3.23787, 50.62647], [3.26433, 50.5702], [3.26588, 50.53831], [3.27104, 50.52694], [3.29988, 50.50746], [3.36107, 50.48979], [3.38535, 50.49165], [3.42917, 50.50183], [3.46287, 50.51914], [3.47713, 50.51986], [3.4915, 50.51707], [3.49801, 50.51185], [3.49646, 50.50379], [3.48674, 50.49268], [3.49914, 50.48679], [3.56374, 50.48653], [3.60829, 50.47651], [3.62813, 50.46436], [3.64436, 50.4455], [3.65283, 50.40685], [3.65293, 50.36018], [3.66172, 50.31931], [3.69686, 50.29822], [3.70079, 50.30468], [3.70844, 50.30634], [3.73345, 50.33724], [3.74151, 50.34313], [3.75505, 50.34633], [3.79866, 50.34845], [3.84021, 50.3452], [3.89592, 50.3253], [3.91855, 50.32546], [3.98211, 50.34261], [4.0033, 50.34406], [4.02273, 50.33812], [4.05591, 50.31455], [4.09787, 50.29481], [4.12526, 50.25714], [4.14365, 50.25161], [4.15099, 50.25626], [4.15027, 50.26954], [4.16277, 50.27295], [4.1976, 50.25848], [4.2037, 50.25197], [4.20132, 50.24153], [4.16794, 50.22246], [4.15275, 50.20453], [4.14737, 50.18634], [4.12815, 50.14624], [4.12577, 50.12816], [4.13993, 50.12356], [4.17063, 50.13048], [4.18055, 50.12723], [4.1974, 50.08408], [4.21032, 50.06671], [4.21001, 50.06015], [4.16288, 50.0418], [4.13735, 50.02506], [4.12815, 50.00579], [4.13291, 50.00449], [4.13962, 49.97452], [4.13166, 49.97499], [4.20112, 49.95302], [4.2776, 49.96016], [4.43511, 49.93225], [4.46477, 49.93561], [4.60419, 49.98021], [4.64584, 49.9845], [4.6567, 49.98909], [4.6659, 50.00052], [4.67292, 50.01638], [4.68057, 50.04832], [4.67344, 50.0662], [4.68192, 50.08392], [4.78857, 50.15337], [4.81555, 50.16133], [4.8201, 50.14645], [4.83136, 50.1434], [4.86268, 50.14759], [4.87188, 50.13978], [4.86289, 50.08408], [4.85214, 50.09162], [4.84604, 50.09069], [4.82723, 50.06408], [4.82671, 50.03602], [4.78826, 49.97426], [4.78392, 49.95829], [4.79726, 49.94429], [4.84459, 49.93173], [4.8602, 49.91334], [4.86196, 49.90031], [4.85937, 49.89168], [4.84893, 49.87107], [4.83674, 49.85913], [4.83488, 49.85303], [4.84924, 49.83158], [4.84904, 49.79417], [4.85803, 49.78657], [4.88418, 49.78415], [4.95001, 49.79639], [4.97099, 49.79707], [4.98908, 49.79055], [5.02629, 49.76673], [5.04623, 49.75939], [5.08189, 49.75273], [5.09378, 49.74534], [5.13636, 49.70534], [5.16943, 49.6872], [5.19248, 49.68281], [5.23764, 49.69097], [5.25924, 49.69134], [5.29945, 49.6625], [5.30637, 49.64751], [5.29376, 49.64054], [5.29066, 49.62638], [5.29304, 49.61718], [5.2979, 49.61325], [5.32167, 49.61258], [5.3349, 49.62581], [5.38347, 49.6133], [5.40208, 49.60245], [5.45024, 49.54576], [5.45437, 49.53662], [5.44993, 49.50783], [5.45613, 49.49894], [5.47773, 49.49522], [5.5476, 49.52344], [5.57892, 49.51393], [5.60227, 49.51372], [5.60785, 49.52494], [5.61974, 49.53553], [5.64465, 49.5438], [5.71028, 49.53109], [5.72268, 49.5346], [5.7356, 49.54571], [5.74635, 49.54943], [5.79068, 49.53775], [5.8221, 49.51052], [5.83957, 49.49987], [5.86469, 49.49217], [5.92814, 49.4823], [5.94695, 49.46995], [5.9607, 49.44132], [5.97806, 49.4451], [6.06333, 49.44846], [6.07801, 49.45202], [6.08772, 49.46163], [6.09981, 49.46463], [6.10198, 49.47641], [6.10726, 49.48251], [6.1426, 49.48608], [6.13609, 49.49527], [6.19355, 49.49941], [6.22198, 49.49744], [6.24937, 49.49031], [6.29877, 49.46623], [6.32533, 49.45672], [6.35386, 49.45476], [6.39168, 49.4667], [6.40274, 49.46546], [6.49452, 49.43554], [6.51167, 49.42474], [6.52056, 49.40815], [6.51881, 49.40215], [6.57431, 49.36179], [6.57772, 49.3558], [6.57338, 49.34774], [6.5556, 49.34717], [6.55012, 49.33802], [6.55643, 49.3264], [6.63968, 49.27115], [6.6403, 49.25276], [6.66376, 49.24387], [6.6806, 49.20749], [6.70252, 49.21364], [6.70882, 49.19777], [6.70097, 49.17287], [6.71378, 49.15886], [6.72556, 49.15555], [6.77011, 49.1553], [6.80907, 49.14584], [6.82179, 49.14775], [6.83904, 49.16279], [6.82768, 49.19555], [6.83346, 49.20945], [6.84349, 49.21105], [6.88524, 49.2048], [6.91439, 49.20666], [6.92545, 49.20558], [6.98787, 49.18243], [7.00947, 49.1817], [7.00896, 49.14641], [7.02053, 49.11897], [7.04255, 49.1076], [7.07324, 49.12031], [7.07479, 49.12537], [7.07076, 49.13612], [7.07986, 49.14201], [7.12357, 49.12331], [7.15499, 49.11442], [7.24119, 49.1139], [7.27437, 49.10501], [7.29711, 49.12811], [7.334, 49.13416], [7.35095, 49.15917], [7.39105, 49.17002], [7.41048, 49.16894], [7.41482, 49.15778], [7.45803, 49.15586], [7.47611, 49.15152], [7.48273, 49.13705], [7.47105, 49.12832], [7.4851, 49.11871], [7.52086, 49.08367], [7.54267, 49.07458], [7.58639, 49.06956], [7.60861, 49.06197], [7.62566, 49.043], [7.63497, 49.03778], [7.64881, 49.03572], [7.68509, 49.0428], [7.72695, 49.03566], [7.77367, 49.04812], [7.85686, 49.03225], [7.9319, 49.03484], [8.09044, 48.97918], [8.18873, 48.96575], [8.20031, 48.95856], [8.17933, 48.9427], [8.14811, 48.90373], [8.10274, 48.82131], [8.09034, 48.80751], [8.04755, 48.79103], [8.03876, 48.79077], [8.02729, 48.78002], [8.02295, 48.76509], [8.01727, 48.76183], [7.97014, 48.75728], [7.96487, 48.74834], [7.96363, 48.72928], [7.95918, 48.72137], [7.89593, 48.67651], [7.88063, 48.66773], [7.85242, 48.65868], [7.81025, 48.61502], [7.80178, 48.58236], [7.80167, 48.54758], [7.81346, 48.52634], [7.81346, 48.51947], [7.77646, 48.49818], [7.77129, 48.48911], [7.76922, 48.47007], [7.75072, 48.44441], [7.73832, 48.40661], [7.73718, 48.39348], [7.74038, 48.38144], [7.75196, 48.35534], [7.75072, 48.34137], [7.73697, 48.32666], [7.70245, 48.31119], [7.68716, 48.25292], [7.67662, 48.2384], [7.61336, 48.17921], [7.60675, 48.16698], [7.60479, 48.15257], [7.58567, 48.12973], [7.57264, 48.09497], [7.57574, 48.05371], [7.61895, 48.00265], [7.62112, 47.97144], [7.61161, 47.9594], [7.58494, 47.94041], [7.57957, 47.92705], [7.57895, 47.90633], [7.559, 47.88271], [7.559, 47.86902], [7.56417, 47.85041], [7.562, 47.83923], [7.54288, 47.82943], [7.52862, 47.79703], [7.52593, 47.78316], [7.53833, 47.74815], [7.53781, 47.73182], [7.51187, 47.70732], [7.51787, 47.67502], [7.52179, 47.67043], [7.53657, 47.66521], [7.55011, 47.65244], [7.57264, 47.622], [7.59032, 47.60795], [7.59249, 47.59841], [7.58603, 47.58462], [7.52634, 47.56645], [7.48273, 47.54227], [7.50515, 47.53302], [7.50546, 47.52302], [7.50112, 47.51731], [7.47694, 47.51488], [7.47776, 47.5077], [7.48593, 47.49839], [7.48448, 47.49294], [7.46743, 47.48191], [7.42599, 47.4925], [7.41431, 47.49018], [7.41441, 47.48403], [7.42764, 47.47075], [7.42929, 47.46511], [7.42609, 47.45576], [7.40635, 47.43824], [7.37855, 47.43065], [7.30909, 47.43266], [7.28263, 47.42889], [7.23809, 47.4168], [7.23034, 47.41902], [7.21938, 47.42848], [7.19003, 47.43473], [7.16833, 47.44356], [7.16264, 47.4599], [7.18083, 47.48826], [7.15365, 47.4864], [7.10373, 47.49627], [7.05391, 47.49038], [7.02797, 47.49294], [7.00978, 47.49925], [6.9733, 47.48909], [6.97578, 47.47796], [6.99097, 47.45222], [6.98343, 47.4438], [6.96855, 47.43519], [6.95232, 47.42884], [6.92607, 47.42486], [6.92452, 47.406], [6.89878, 47.39571], [6.884, 47.38259], [6.8716, 47.36695], [6.86664, 47.35417], [6.9856, 47.36212], [7.004, 47.36814], [7.03386, 47.35065], [7.0443, 47.3405], [7.03655, 47.32952], [7.00648, 47.31936], [6.9919, 47.30595], [6.97743, 47.30373], [6.95862, 47.29055], [6.95222, 47.27004], [6.95625, 47.24523], [6.88834, 47.21131], [6.8593, 47.19092], [6.84028, 47.16953], [6.77476, 47.12818], [6.74479, 47.12105], [6.74603, 47.10395], [6.72794, 47.09713], [6.72422, 47.09077], [6.69911, 47.08462], [6.6897, 47.07829], [6.67626, 47.0624], [6.68825, 47.04385], [6.66541, 47.02129], [6.5987, 46.98654], [6.49111, 46.96339], [6.44264, 46.94416], [6.42775, 46.90908], [6.44522, 46.88262], [6.44842, 46.87156], [6.44677, 46.85771], [6.43426, 46.83955], [6.41711, 46.80216], [6.43261, 46.78598], [6.43302, 46.76911], [6.4292, 46.76082], [6.40739, 46.7457], [6.37422, 46.73361], [6.33794, 46.70741], [6.26631, 46.68036], [6.13185, 46.59561], [6.11842, 46.58346], [6.12152, 46.57028], [6.1457, 46.55163], [6.11036, 46.52083], [6.07552, 46.47959], [6.06416, 46.47112], [6.06023, 46.4599], [6.06478, 46.45107], [6.06757, 46.4336], [6.06571, 46.42701], [6.05424, 46.41942], [6.10818, 46.3965], [6.12286, 46.38554], [6.13506, 46.3704], [6.1364, 46.35934], [6.10074, 46.30141], [6.09361, 46.27309], [6.09403, 46.25304], [6.08969, 46.24638], [6.06188, 46.24116], [6.04287, 46.24307], [5.98292, 46.22271], [5.95853, 46.21196], [5.95481, 46.19992], [5.96525, 46.18623], [5.98292, 46.17083], [5.95884, 46.13047], [5.98292, 46.14044], [6.02829, 46.14793], [6.07387, 46.14917], [6.10787, 46.13863], [6.14033, 46.15021], [6.19138, 46.1917], [6.25536, 46.22111], [6.2812, 46.24007], [6.27603, 46.26312], [6.269, 46.26524], [6.25226, 46.25992], [6.23758, 46.26793], [6.21412, 46.31547], [6.2195, 46.32911], [6.2691, 46.37503], [6.30156, 46.39448], [6.33236, 46.40138], [6.36522, 46.40244], [6.39768, 46.40818], [6.48294, 46.44859], [6.54702, 46.45737], [6.61368, 46.4559], [6.76267, 46.42926], [6.77772, 46.42411], [6.78706, 46.41417], [6.78923, 46.3952], [6.7821, 46.37846], [6.75574, 46.35707], [6.75037, 46.34552], [6.76949, 46.32268], [6.80494, 46.29661], [6.82768, 46.26948], [6.79223, 46.22168], [6.77486, 46.18586], [6.76566, 46.1516], [6.77435, 46.13481], [6.85393, 46.12261], [6.86922, 46.11233], [6.86819, 46.10468], [6.84855, 46.08504], [6.85134, 46.08602], [6.8531, 46.0761], [6.85093, 46.04964], [6.86922, 46.04406], [6.89238, 46.05559], [6.91511, 46.04861], [6.98767, 45.99311], [7.00978, 45.9434], [7.02208, 45.92526], [7.00772, 45.92051], [6.99718, 45.91131], [6.98281, 45.88578], [6.96917, 45.86976], [6.94901, 45.85782], [6.90509, 45.84537], [6.87346, 45.8448], [6.87066, 45.82827], [6.86444, 45.82689], [6.85856, 45.83346], [6.84336, 45.83864], [6.8008, 45.82646], [6.78809, 45.81173], [6.78272, 45.79529], [6.78468, 45.75959], [6.79595, 45.71814], [6.8161, 45.69685], [6.84307, 45.68274], [6.88256, 45.67551], [6.91863, 45.65256], [6.95108, 45.64678], [6.96338, 45.64073], [6.96948, 45.62585], [6.95294, 45.59427], [6.9549, 45.58621], [6.96979, 45.56699], [6.97526, 45.52565], [6.98281, 45.51112], [7.02849, 45.49314], [7.072, 45.47004], [7.09681, 45.43542], [7.16068, 45.41092], [7.15965, 45.39847], [7.15076, 45.38323], [7.13009, 45.35708], [7.09257, 45.32395], [7.09763, 45.29496], [7.10838, 45.27491], [7.10838, 45.2592], [7.0812, 45.24308], [7.05547, 45.21368], [7.02973, 45.2282], [6.99449, 45.22132], [6.95873, 45.2098], [6.94581, 45.20107], [6.92844, 45.17957], [6.91377, 45.17016], [6.87346, 45.16593], [6.86819, 45.15745], [6.87863, 45.14743], [6.87667, 45.14122], [6.84411, 45.13012], [6.80814, 45.13911], [6.77145, 45.15316], [6.73642, 45.15735], [6.70221, 45.14122], [6.66738, 45.13962], [6.6327, 45.12552], [6.61461, 45.11477], [6.60273, 45.10345], [6.6203, 45.08443], [6.63658, 45.07446], [6.63968, 45.05038], [6.65167, 45.03565], [6.66221, 45.02924], [6.69724, 45.02692], [6.7235, 45.01338], [6.7299, 44.9847], [6.72794, 44.92873], [6.74541, 44.9078], [6.77817, 44.88765], [6.84711, 44.85907], [6.86602, 44.85566], [6.91532, 44.86269], [6.93268, 44.86166], [6.98281, 44.84698], [7.00079, 44.83297], [7.0071, 44.82207], [7.00596, 44.81153], [6.99841, 44.79375], [7.00978, 44.7721], [7.01898, 44.73887], [7.04937, 44.69789], [7.05516, 44.68487], [7.03728, 44.68461], [7.0012, 44.69226], [6.98281, 44.69216], [6.95986, 44.68317], [6.94147, 44.66699], [6.93434, 44.64668], [6.9456, 44.62544], [6.93165, 44.61795], [6.89734, 44.57542], [6.84638, 44.54746], [6.83574, 44.53403], [6.83884, 44.50292], [6.86127, 44.47491], [6.9178, 44.43631], [6.88421, 44.42303], [6.87718, 44.4144], [6.86612, 44.37212], [6.86984, 44.36293], [6.90385, 44.33001], [6.92121, 44.30215], [6.95924, 44.27735], [6.9734, 44.24945], [6.98281, 44.24175], [6.99614, 44.23782], [7.03345, 44.24293], [7.04606, 44.2403], [7.10487, 44.21777], [7.14497, 44.20723], [7.25132, 44.16004], [7.3093, 44.14749], [7.3216, 44.13188], [7.331, 44.12527], [7.38082, 44.12294], [7.55476, 44.15906], [7.5836, 44.16072], [7.62473, 44.1801], [7.65564, 44.17606], [7.64189, 44.14356], [7.65409, 44.12496], [7.6762, 44.10899], [7.69191, 44.08465], [7.68995, 44.06734], [7.65336, 44.03969], [7.63093, 43.99354], [7.60861, 43.97561], [7.55693, 43.94409], [7.53678, 43.92078], [7.49348, 43.88624], [7.47787, 43.86552], [7.48273, 43.84022], [7.50229, 43.79222], [7.48911, 43.78547], [7.47641, 43.78449], [7.47641, 43.76463], [7.46266, 43.76211], [7.43745, 43.74336], [7.42625, 43.75546], [7.40697, 43.76351], [7.38754, 43.7579], [7.37265, 43.74583], [7.36575, 43.72273], [7.3423, 43.70783], [7.33053, 43.68642], [7.3009, 43.68769], [7.28025, 43.69333], [7.25727, 43.69165], [7.24167, 43.68487], [7.22851, 43.6742], [7.23181, 43.66347], [7.2138, 43.64867], [7.20379, 43.64436], [7.19668, 43.65692], [7.17765, 43.66011], [7.15162, 43.65477], [7.13657, 43.64118], [7.12615, 43.60583], [7.13892, 43.55402], [7.12551, 43.54777], [7.11294, 43.56454], [7.10432, 43.56829], [7.08843, 43.56867], [7.07105, 43.56081], [7.0372, 43.53626], [7.03063, 43.54789], [6.9756, 43.54695], [6.96209, 43.54011], [6.9452, 43.52725], [6.94089, 43.51246], [6.95381, 43.50462], [6.9543, 43.50011], [6.92508, 43.47276], [6.92037, 43.44901], [6.89824, 43.438], [6.89403, 43.42763], [6.87107, 43.42609], [6.86296, 43.43936], [6.85799, 43.43618], [6.8561, 43.42873], [6.86014, 43.41587], [6.84667, 43.41258], [6.81884, 43.41607], [6.78305, 43.40863], [6.77297, 43.41845], [6.75709, 43.42269], [6.73115, 43.40785], [6.73282, 43.38208], [6.71778, 43.36689], [6.71784, 43.3506], [6.67457, 43.34638], [6.66131, 43.32233], [6.62463, 43.29591], [6.59724, 43.28401], [6.59089, 43.2689], [6.61167, 43.26429], [6.67236, 43.2762], [6.69337, 43.27297], [6.69802, 43.26546], [6.68539, 43.24804], [6.66836, 43.23954], [6.6654, 43.22129], [6.6798, 43.20155], [6.64039, 43.18183], [6.60987, 43.17341], [6.59946, 43.17499], [6.59327, 43.18773], [6.58128, 43.18437], [6.53991, 43.1822], [6.53643, 43.17254], [6.52671, 43.16057], [6.50568, 43.15097], [6.47916, 43.15606], [6.42202, 43.15234], [6.40168, 43.14694], [6.37854, 43.13608], [6.36608, 43.11863], [6.37537, 43.09084], [6.34226, 43.09076], [6.32569, 43.10419], [6.28037, 43.11867], [6.25347, 43.12087], [6.2197, 43.11655], [6.1932, 43.10877], [6.16293, 43.0926], [6.15317, 43.07197], [6.15277, 43.04811], [6.17133, 43.04232], [6.18542, 43.04544], [6.18007, 43.03592], [6.09769, 43.03126], [6.08852, 43.03485], [6.11925, 43.04515], [6.13207, 43.05264], [6.12909, 43.07136], [6.10966, 43.08432], [6.02701, 43.0782], [6.01652, 43.09894], [5.99173, 43.10235], [5.95865, 43.10217], [5.93409, 43.11359], [5.94093, 43.13402], [5.90854, 43.13129], [5.87941, 43.12043], [5.89625, 43.11542], [5.91061, 43.0932], [5.95138, 43.07998], [5.94029, 43.07091], [5.88796, 43.07223], [5.87534, 43.06879], [5.85661, 43.04483], [5.81896, 43.05347], [5.79024, 43.06993], [5.78187, 43.07912], [5.81808, 43.09909], [5.81147, 43.10672], [5.78341, 43.1146], [5.77613, 43.13081], [5.74101, 43.13206], [5.6963, 43.14688], [5.68767, 43.16885], [5.67392, 43.17989], [5.65522, 43.18559], [5.63421, 43.18723], [5.6229, 43.17673], [5.61242, 43.16043], [5.58826, 43.16798], [5.57271, 43.16915], [5.54725, 43.19386], [5.53784, 43.20739], [5.52495, 43.21263], [5.50418, 43.20566], [5.39531, 43.21234], [5.37034, 43.20786], [5.34698, 43.2159], [5.35377, 43.2438], [5.36915, 43.27041], [5.35734, 43.28034], [5.35597, 43.29206], [5.33888, 43.33429], [5.29417, 43.35547], [5.23828, 43.32804], [5.16324, 43.32931], [5.12517, 43.32577], [5.0648, 43.32802], [5.03402, 43.33548], [5.01394, 43.35792], [5.00557, 43.38163], [5.02613, 43.40933], [5.05714, 43.42207], [5.14617, 43.42207], [5.17384, 43.42829], [5.19288, 43.43952], [5.21355, 43.45783], [5.22633, 43.48029], [5.22283, 43.50397], [5.19361, 43.48994], [5.16554, 43.48249], [5.13999, 43.48578], [5.11842, 43.50397], [5.11085, 43.5279], [5.10572, 43.53303], [5.08497, 43.53815], [5.05372, 43.53815], [5.02914, 43.55858], [5.02231, 43.55219], [5.00929, 43.51765], [5.01466, 43.49873], [5.02369, 43.49047], [5.0503, 43.47671], [5.06227, 43.45165], [5.05112, 43.42927], [5.0276, 43.41698], [4.99847, 43.4147], [4.98308, 43.41706], [4.92848, 43.44013], [4.89259, 43.42536], [4.86817, 43.42145], [4.85841, 43.41523], [4.85027, 43.40143], [4.86489, 43.3779], [4.86753, 43.36511], [4.901, 43.36697], [4.87719, 43.35078], [4.85578, 43.34178], [4.85082, 43.35893], [4.83326, 43.38199], [4.79176, 43.39912], [4.75782, 43.42235], [4.74244, 43.44872], [4.74496, 43.50739], [4.74244, 43.52448], [4.72584, 43.55679], [4.71192, 43.57152], [4.69459, 43.57909], [4.69459, 43.5729], [4.72438, 43.5384], [4.72877, 43.5279], [4.72877, 43.4562], [4.74252, 43.42255], [4.76971, 43.40192], [4.80006, 43.38605], [4.82302, 43.36717], [4.82028, 43.34636], [4.66589, 43.34754], [4.59234, 43.35989], [4.56629, 43.37109], [4.56554, 43.38795], [4.5857, 43.40424], [4.58804, 43.41689], [4.57959, 43.43007], [4.55521, 43.44327], [4.51303, 43.4558], [4.40942, 43.44774], [4.2059, 43.45991], [4.18165, 43.46377], [4.16033, 43.4715], [4.13282, 43.48705], [4.1172, 43.51048], [4.13282, 43.53278], [4.10532, 43.55187], [4.04746, 43.55614], [3.9909, 43.55085], [3.95297, 43.53994], [3.73992, 43.41283], [3.62216, 43.3749], [3.58969, 43.35489], [3.51336, 43.28107], [3.49236, 43.27432], [3.4524, 43.28876], [3.38543, 43.28392], [3.31772, 43.26309], [3.24431, 43.21943], [3.22096, 43.19522], [3.17872, 43.16523], [3.15447, 43.13528], [3.11402, 43.10631], [3.0704, 43.02692], [3.03899, 42.94278], [3.04184, 42.93281], [3.0547, 42.92711], [3.05608, 42.90713], [3.04046, 42.79019], [3.03899, 42.75027], [3.04331, 42.7246], [3.03761, 42.68321], [3.04184, 42.62906], [3.05185, 42.55488], [3.06609, 42.54206], [3.13738, 42.52493], [3.14593, 42.51496], [3.14308, 42.49213], [3.17587, 42.45649], [3.18097, 42.43148], [3.13782, 42.42594], [3.08615, 42.42718], [3.05359, 42.43764], [3.04388, 42.44527], [3.02961, 42.46565], [2.9831, 42.46932], [2.96605, 42.461], [2.9337, 42.47022], [2.90083, 42.45126], [2.85081, 42.44837], [2.78859, 42.41201], [2.76772, 42.40956], [2.72855, 42.41403], [2.70808, 42.41289], [2.69041, 42.40617], [2.64824, 42.38147], [2.64028, 42.37284], [2.64938, 42.35372], [2.66178, 42.34336], [2.66219, 42.33902], [2.63543, 42.33788], [2.56742, 42.35264], [2.54809, 42.35225], [2.54034, 42.34698], [2.53197, 42.33078], [2.52525, 42.32589], [2.51481, 42.32566], [2.46489, 42.34062], [2.44557, 42.35196], [2.42986, 42.36754], [2.42252, 42.38369], [2.37549, 42.38933], [2.31731, 42.40961], [2.27741, 42.42863], [2.24599, 42.42612], [2.18419, 42.41181], [2.13695, 42.41622], [2.12104, 42.41062], [2.10399, 42.38483], [2.05169, 42.35235], [2.00921, 42.34708], [1.99567, 42.34868], [1.96374, 42.36723], [1.95423, 42.38269], [1.9411, 42.4201], [1.92746, 42.43689], [1.91196, 42.44196], [1.86979, 42.44679], [1.81367, 42.47524], [1.79269, 42.48172], [1.73057, 42.48805], [1.71217, 42.49371], [1.71197, 42.49929], [1.70701, 42.50278], [1.71062, 42.52774], [1.72168, 42.54852], [1.73998, 42.56164], [1.76509, 42.56337], [1.75269, 42.57668], [1.72943, 42.582], [1.71331, 42.58955], [1.72199, 42.60986], [1.6083, 42.61812], [1.54309, 42.64936], [1.52779, 42.64854], [1.49844, 42.64024], [1.46681, 42.64146], [1.45141, 42.60205], [1.4293, 42.59539], [1.41483, 42.60934], [1.39798, 42.64363], [1.36108, 42.68672], [1.34331, 42.69044], [1.33824, 42.69445], [1.34258, 42.70866], [1.31912, 42.71336], [1.19593, 42.71365], [1.16254, 42.70569], [1.15149, 42.70672], [1.13433, 42.71597], [1.10673, 42.75961], [1.08906, 42.77132], [1.06818, 42.77612], [0.98292, 42.78036], [0.95026, 42.79612], [0.92111, 42.78437], [0.91036, 42.78767], [0.88577, 42.80424], [0.8561, 42.81276], [0.8129, 42.83162], [0.77631, 42.83245], [0.72433, 42.84529], [0.70676, 42.84658], [0.67937, 42.84511], [0.65632, 42.83842], [0.65157, 42.82405], [0.65374, 42.80269], [0.63968, 42.77468], [0.65074, 42.76339], [0.6433, 42.75907], [0.63348, 42.74478], [0.64764, 42.74104], [0.65963, 42.7299], [0.66645, 42.71476], [0.66542, 42.69866], [0.65673, 42.68799], [0.64361, 42.68448], [0.60816, 42.68799], [0.48351, 42.6853], [0.46693, 42.69044], [0.40928, 42.68225], [0.38928, 42.68515], [0.3844, 42.68858], [0.38182, 42.70011], [0.35417, 42.7175], [0.33603, 42.71269], [0.31831, 42.69954], [0.29024, 42.67029], [0.27539, 42.66869], [0.25981, 42.68238], [0.23836, 42.71037], [0.22239, 42.71621], [0.16917, 42.72646], [0.15294, 42.7246], [0.13418, 42.71522], [0.07284, 42.70848], [-0.00431, 42.68753], [-0.03893, 42.68515], [-0.07841, 42.69667], [-0.09575, 42.71068], [-0.11903, 42.71685], [-0.12311, 42.73036], [-0.14572, 42.74589], [-0.15779, 42.7607], [-0.16363, 42.77798], [-0.16141, 42.79535], [-0.20836, 42.78388], [-0.23515, 42.78623], [-0.24703, 42.80483], [-0.30742, 42.83183], [-0.32279, 42.8425], [-0.33517, 42.82496], [-0.343, 42.82274], [-0.35168, 42.82925], [-0.39974, 42.80132], [-0.42392, 42.79067], [-0.45446, 42.78891], [-0.50841, 42.80749], [-0.53389, 42.80801], [-0.53565, 42.78421], [-0.56903, 42.77264], [-0.57869, 42.77734], [-0.57714, 42.78979], [-0.58293, 42.79584], [-0.61016, 42.79909], [-0.60949, 42.81144], [-0.6483, 42.84979], [-0.70039, 42.87643], [-0.73011, 42.87751], [-0.74029, 42.8848], [-0.74587, 42.89392], [-0.74091, 42.9109], [-0.75967, 42.9465], [-0.78643, 42.95327], [-0.86353, 42.94306], [-0.94322, 42.9479], [-0.98146, 42.95704], [-1.01629, 42.97624], [-1.02849, 42.98671], [-1.0797, 42.9934], [-1.11241, 43.00825], [-1.14993, 43.00572], [-1.18253, 43.02528], [-1.2169, 43.03926], [-1.27488, 43.04683], [-1.29369, 43.0552], [-1.31059, 43.06949], [-1.31508, 43.08288], [-1.30697, 43.09598], [-1.28604, 43.10918], [-1.30862, 43.11357], [-1.33105, 43.10734], [-1.34826, 43.09308], [-1.35518, 43.07303], [-1.35761, 43.04683], [-1.36614, 43.03332], [-1.38314, 43.02921], [-1.41053, 43.03092], [-1.43502, 43.03572], [-1.45714, 43.04507], [-1.47528, 43.06014], [-1.48784, 43.08182], [-1.42577, 43.13528], [-1.41053, 43.1669], [-1.39968, 43.20674], [-1.4035, 43.24333], [-1.43223, 43.26501], [-1.46639, 43.26077], [-1.50809, 43.27676], [-1.5392, 43.28356], [-1.55905, 43.28408], [-1.57398, 43.27744], [-1.58757, 43.2516], [-1.59848, 43.247], [-1.62189, 43.247], [-1.63904, 43.25568], [-1.64798, 43.28155], [-1.64504, 43.29237], [-1.65491, 43.29754], [-1.68302, 43.30493], [-1.74736, 43.291], [-1.75242, 43.29909], [-1.75578, 43.31855], [-1.76823, 43.33092], [-1.79691, 43.34113], [-1.79645, 43.37438], [-1.79408, 43.38602], [-1.7755, 43.37617], [-1.76797, 43.38361], [-1.74962, 43.38923], [-1.661, 43.39968], [-1.63781, 43.42377], [-1.59675, 43.44253], [-1.5664, 43.48216], [-1.56208, 43.49339], [-1.51399, 43.53864], [-1.47688, 43.58006], [-1.47004, 43.61152], [-1.44595, 43.66844], [-1.40494, 43.83234], [-1.38117, 43.88959], [-1.3461, 44.01919], [-1.28157, 44.30219], [-1.25414, 44.44245], [-1.2473, 44.50454], [-1.25829, 44.54755], [-1.25723, 44.55606], [-1.23078, 44.58356], [-1.20629, 44.64789], [-1.18651, 44.66547], [-1.16145, 44.66616], [-1.10021, 44.65534], [-1.06501, 44.65913], [-1.04475, 44.66942], [-1.04442, 44.68464], [-1.06916, 44.70319], [-1.05549, 44.70319], [-1.0653, 44.71748], [-1.14086, 44.76813], [-1.16535, 44.77871], [-1.17223, 44.77827], [-1.18859, 44.75585], [-1.23363, 44.70685], [-1.24494, 44.66275], [-1.26036, 44.62743], [-1.19945, 45.12084], [-1.15787, 45.27912], [-1.13996, 45.49006], [-1.1337, 45.50483], [-1.0996, 45.55353], [-1.08528, 45.56904], [-1.06916, 45.57331], [-1.05858, 45.56965], [-1.05622, 45.56513], [-1.05736, 45.54633], [-1.06233, 45.53242], [-1.03995, 45.50727], [-0.97297, 45.47053], [-0.91527, 45.45043], [-0.79418, 45.35541], [-0.76618, 45.32608], [-0.75451, 45.29588], [-0.75194, 45.27595], [-0.73868, 45.23871], [-0.71597, 45.13451], [-0.6822, 45.07648], [-0.64818, 45.04491], [-0.60985, 45.01846], [-0.57779, 45.00507], [-0.56896, 44.99799], [-0.5607, 44.98542], [-0.55919, 44.97614], [-0.56208, 44.96015], [-0.55651, 44.91852], [-0.54817, 44.90229], [-0.53466, 44.89496], [-0.54239, 44.9372], [-0.54845, 44.94953], [-0.53897, 44.97651], [-0.55036, 44.9982], [-0.57258, 45.01431], [-0.59618, 45.02464], [-0.53942, 45.01952], [-0.51643, 45.01138], [-0.49376, 44.99799], [-0.51895, 45.02945], [-0.55875, 45.04344], [-0.60216, 45.05345], [-0.63777, 45.07306], [-0.65599, 45.09911], [-0.66869, 45.13081], [-0.70665, 45.32241], [-0.71972, 45.36107], [-0.75304, 45.42406], [-0.79548, 45.47712], [-0.84179, 45.51455], [-0.98351, 45.58698], [-0.99087, 45.61005], [-0.99722, 45.61433], [-1.03026, 45.62287], [-1.08381, 45.66039], [-1.1328, 45.6717], [-1.14932, 45.6789], [-1.17561, 45.70026], [-1.1942, 45.71019], [-1.22936, 45.70478], [-1.2473, 45.70991], [-1.23013, 45.77961], [-1.23029, 45.79243], [-1.16381, 45.80671], [-1.14428, 45.8061], [-1.08056, 45.7534], [-1.05724, 45.74022], [-0.98717, 45.71735], [-1.00963, 45.73517], [-1.09948, 45.78604], [-1.12536, 45.80768], [-1.13069, 45.81672], [-1.13659, 45.84325], [-1.15172, 45.86815], [-1.14061, 45.8723], [-1.11254, 45.89566], [-1.09703, 45.90229], [-1.07335, 45.90436], [-1.06916, 45.91596], [-1.07042, 45.92634], [-1.08975, 45.95075], [-1.06916, 45.96434], [-1.08556, 45.97199], [-1.09659, 45.98542], [-1.11075, 46.01838], [-1.08975, 46.0082], [-1.07299, 46.00747], [-1.05972, 46.01577], [-1.04869, 46.03266], [-1.04869, 46.0388], [-1.06517, 46.05158], [-1.08422, 46.05654], [-1.08874, 46.07477], [-1.09602, 46.08837], [-1.09703, 46.10155], [-1.1136, 46.10615], [-1.12902, 46.11579], [-1.1289, 46.12006], [-1.11701, 46.12824], [-1.15209, 46.14387], [-1.15172, 46.15619], [-1.20019, 46.15913], [-1.20971, 46.16616], [-1.2108, 46.17455], [-1.20442, 46.18431], [-1.18517, 46.19717], [-1.19054, 46.2163], [-1.1796, 46.22948], [-1.11075, 46.25922], [-1.10265, 46.27196], [-1.11075, 46.30268], [-1.13248, 46.32412], [-1.17724, 46.32616], [-1.21435, 46.3107], [-1.21321, 46.27912], [-1.2401, 46.28425], [-1.27741, 46.31952], [-1.30346, 46.32388], [-1.33422, 46.33674], [-1.35684, 46.35033], [-1.37023, 46.35419], [-1.42333, 46.34248], [-1.44872, 46.34341], [-1.45958, 46.36473], [-1.46548, 46.38996], [-1.48144, 46.40819], [-1.50446, 46.41934], [-1.53189, 46.42308], [-1.59878, 46.42504], [-1.62564, 46.43114], [-1.61718, 46.44355], [-1.63345, 46.45429], [-1.68676, 46.46088], [-1.72029, 46.48127], [-1.74861, 46.48656], [-1.76114, 46.49201], [-1.78917, 46.53294], [-1.78889, 46.52045], [-1.78173, 46.49543], [-1.786, 46.49095], [-1.7954, 46.49453], [-1.8048, 46.50361], [-1.82706, 46.57697], [-1.82266, 46.59439], [-1.83869, 46.59907], [-1.85741, 46.63532], [-1.89977, 46.66625], [-1.9099, 46.6918], [-1.92317, 46.69916], [-1.95645, 46.70429], [-1.965, 46.71039], [-1.99462, 46.75202], [-2.05028, 46.79206], [-2.08129, 46.80736], [-2.10717, 46.81346], [-2.11876, 46.81997], [-2.12609, 46.8356], [-2.13003, 46.85468], [-2.12877, 46.89346], [-2.12198, 46.90371], [-2.09634, 46.91649], [-2.10216, 46.93065], [-2.08747, 46.94123], [-2.04922, 46.95746], [-2.03702, 46.97256], [-2.02017, 47.00861], [-2.00829, 47.02635], [-1.99071, 47.03539], [-1.99258, 47.05231], [-2.00377, 47.07001], [-2.03002, 47.09211], [-2.09016, 47.11518], [-2.20547, 47.1291], [-2.24112, 47.14248], [-2.20539, 47.1612], [-2.17284, 47.16437], [-2.16519, 47.16787], [-2.15868, 47.2045], [-2.1693, 47.22016], [-2.17211, 47.23526], [-2.16698, 47.25922], [-2.16055, 47.27119], [-2.15168, 47.27969], [-2.12767, 47.28681], [-2.03563, 47.29328], [-2.01456, 47.30012], [-1.99914, 47.28856], [-1.94786, 47.27936], [-1.93249, 47.27969], [-1.93936, 47.28644], [-1.91706, 47.28417], [-1.89843, 47.27342], [-1.91885, 47.27342], [-1.91885, 47.26602], [-1.87784, 47.24551], [-1.83625, 47.23994], [-1.80394, 47.21898], [-1.781, 47.21198], [-1.72704, 47.21076], [-1.74722, 47.21992], [-1.78824, 47.22557], [-1.80565, 47.23526], [-1.83593, 47.25975], [-1.87116, 47.27969], [-1.90563, 47.29393], [-1.94929, 47.30012], [-1.95816, 47.30239], [-1.97216, 47.31216], [-2.01012, 47.31973], [-2.1481, 47.31322], [-2.17956, 47.30012], [-2.19595, 47.27993], [-2.20629, 47.27342], [-2.23607, 47.26748], [-2.25943, 47.25161], [-2.27839, 47.24641], [-2.29808, 47.24665], [-2.31607, 47.25165], [-2.35534, 47.2801], [-2.37141, 47.28644], [-2.4049, 47.28644], [-2.41283, 47.28172], [-2.41918, 47.26602], [-2.44839, 47.26659], [-2.54198, 47.30012], [-2.54198, 47.30695], [-2.51903, 47.30463], [-2.47606, 47.29068], [-2.45336, 47.29328], [-2.43619, 47.30703], [-2.44538, 47.32038], [-2.48062, 47.34789], [-2.49425, 47.34174], [-2.48892, 47.33039], [-2.49425, 47.32062], [-2.5017, 47.32062], [-2.50333, 47.3496], [-2.5148, 47.36494], [-2.55639, 47.38325], [-2.4768, 47.41568], [-2.43904, 47.40998], [-2.44103, 47.40445], [-2.4464, 47.40253], [-2.43904, 47.39631], [-2.42943, 47.40388], [-2.39501, 47.41698], [-2.39183, 47.42365], [-2.43175, 47.42617], [-2.44815, 47.43061], [-2.43904, 47.44477], [-2.45531, 47.45222], [-2.47619, 47.45376], [-2.48892, 47.45917], [-2.48062, 47.47822], [-2.49474, 47.4912], [-2.48363, 47.49795], [-2.42121, 47.50023], [-2.38467, 47.50715], [-2.36392, 47.50617], [-2.38012, 47.50922], [-2.42536, 47.50617], [-2.5017, 47.52668], [-2.51749, 47.52839], [-2.56322, 47.51984], [-2.6007, 47.51984], [-2.62169, 47.51341], [-2.63199, 47.51984], [-2.61693, 47.52172], [-2.59936, 47.52912], [-2.58446, 47.54047], [-2.57681, 47.55394], [-2.59227, 47.54365], [-2.63825, 47.54027], [-2.62393, 47.53718], [-2.61779, 47.52668], [-2.64306, 47.52643], [-2.66552, 47.53352], [-2.6671, 47.50959], [-2.68073, 47.50422], [-2.71402, 47.5124], [-2.7307, 47.51162], [-2.78279, 47.49942], [-2.81713, 47.49921], [-2.84366, 47.5124], [-2.86897, 47.54218], [-2.89293, 47.54767], [-2.89208, 47.55394], [-2.90925, 47.55842], [-2.89257, 47.5666], [-2.86531, 47.56664], [-2.85058, 47.54654], [-2.84366, 47.54654], [-2.83243, 47.55402], [-2.8164, 47.54654], [-2.80956, 47.56761], [-2.79402, 47.55512], [-2.76867, 47.54955], [-2.74144, 47.55134], [-2.7202, 47.56078], [-2.72765, 47.56761], [-2.68863, 47.6044], [-2.68399, 47.62299], [-2.70653, 47.64273], [-2.70653, 47.63654], [-2.69693, 47.62979], [-2.69563, 47.62336], [-2.70157, 47.61835], [-2.71402, 47.61603], [-2.69978, 47.6092], [-2.70861, 47.60228], [-2.7202, 47.60175], [-2.72533, 47.60737], [-2.77538, 47.6291], [-2.73449, 47.62226], [-2.74633, 47.63386], [-2.75821, 47.63907], [-2.78913, 47.64273], [-2.77538, 47.63654], [-2.79605, 47.62987], [-2.84773, 47.62617], [-2.85798, 47.61913], [-2.86677, 47.60716], [-2.91942, 47.59553], [-2.91942, 47.60175], [-2.91267, 47.60175], [-2.91267, 47.6092], [-2.93993, 47.60175], [-2.94481, 47.62409], [-2.94164, 47.63182], [-2.93309, 47.63654], [-2.9475, 47.63691], [-2.958, 47.64216], [-2.96459, 47.65143], [-2.96719, 47.6638], [-2.97468, 47.6638], [-2.96719, 47.63654], [-2.96719, 47.61262], [-2.96361, 47.60261], [-2.9547, 47.59154], [-2.93309, 47.57445], [-2.93993, 47.56078], [-2.95295, 47.57445], [-2.96129, 47.57054], [-2.9945, 47.59553], [-2.9886, 47.58226], [-2.99421, 47.57608], [-3.00341, 47.57868], [-3.01179, 47.60716], [-3.01822, 47.60566], [-3.02172, 47.59455], [-3.0157, 47.58124], [-3.0358, 47.58332], [-3.04239, 47.58808], [-3.07384, 47.57648], [-3.08975, 47.57551], [-3.10375, 47.58124], [-3.09073, 47.58808], [-3.11205, 47.59919], [-3.12328, 47.59878], [-3.1317, 47.58808], [-3.11803, 47.58124], [-3.1289, 47.54759], [-3.12328, 47.51899], [-3.10676, 47.4958], [-3.08454, 47.47822], [-3.11913, 47.48261], [-3.12548, 47.47822], [-3.1317, 47.47822], [-3.14538, 47.5161], [-3.14322, 47.52705], [-3.13386, 47.54393], [-3.1317, 47.55744], [-3.13418, 47.58076], [-3.14118, 47.59805], [-3.16649, 47.62226], [-3.19668, 47.63349], [-3.20059, 47.63959], [-3.19839, 47.65257], [-3.18635, 47.68061], [-3.11119, 47.70417], [-3.11718, 47.71503], [-3.11803, 47.73212], [-3.13915, 47.72468], [-3.13915, 47.75259], [-3.14538, 47.75259], [-3.15319, 47.74201], [-3.17736, 47.74852], [-3.19319, 47.74641], [-3.17919, 47.74274], [-3.16967, 47.73542], [-3.15909, 47.71101], [-3.16503, 47.70954], [-3.16649, 47.70417], [-3.17837, 47.71003], [-3.19323, 47.69994], [-3.20739, 47.69733], [-3.19319, 47.68374], [-3.20714, 47.67914], [-3.21508, 47.66059], [-3.22419, 47.6564], [-3.26207, 47.68374], [-3.33153, 47.69672], [-3.35827, 47.69733], [-3.3402, 47.7023], [-3.32242, 47.70099], [-3.28262, 47.69115], [-3.28262, 47.69733], [-3.29845, 47.70384], [-3.31627, 47.70808], [-3.35827, 47.71101], [-3.35827, 47.71845], [-3.34512, 47.72126], [-3.34398, 47.73554], [-3.34057, 47.73949], [-3.31729, 47.73896], [-3.2954, 47.77302], [-3.28262, 47.77993], [-3.28262, 47.78734], [-3.33178, 47.75251], [-3.36217, 47.74042], [-3.38317, 47.73705], [-3.36925, 47.7298], [-3.36449, 47.72468], [-3.36449, 47.71845], [-3.44644, 47.70458], [-3.46068, 47.70759], [-3.49486, 47.73896], [-3.52831, 47.77993], [-3.5393, 47.77375], [-3.59097, 47.77993], [-3.62515, 47.77993], [-3.64904, 47.79361], [-3.68692, 47.7923], [-3.70617, 47.79694], [-3.71459, 47.81061], [-3.72322, 47.81338], [-3.77538, 47.79361], [-3.78991, 47.80321], [-3.85171, 47.80101], [-3.87222, 47.82832], [-3.88646, 47.83747], [-3.88996, 47.84345], [-3.88585, 47.85505], [-3.89452, 47.85529], [-3.9132, 47.86245], [-3.91633, 47.87336], [-3.93513, 47.88788], [-3.96182, 47.89997], [-3.98827, 47.90347], [-3.97924, 47.883], [-3.98648, 47.86791], [-4.0089, 47.85126], [-4.02921, 47.85505], [-4.01122, 47.85594], [-4.00544, 47.8605], [-4.00194, 47.86929], [-4.03156, 47.86371], [-4.03669, 47.85505], [-4.06493, 47.8708], [-4.10656, 47.88011], [-4.11929, 47.89191], [-4.12914, 47.90762], [-4.13219, 47.9239], [-4.14273, 47.91201], [-4.13683, 47.89692], [-4.1112, 47.87547], [-4.1112, 47.86929], [-4.13362, 47.8662], [-4.15274, 47.85505], [-4.17162, 47.87702], [-4.18562, 47.87442], [-4.18847, 47.86213], [-4.1739, 47.85505], [-4.18004, 47.84821], [-4.18004, 47.84199], [-4.15274, 47.84199], [-4.15274, 47.83446], [-4.18521, 47.81338], [-4.22517, 47.80244], [-4.37182, 47.8072], [-4.37182, 47.83446], [-4.34765, 47.83832], [-4.34386, 47.84512], [-4.34732, 47.86294], [-4.36221, 47.88858], [-4.37198, 47.91584], [-4.38695, 47.93407], [-4.43464, 47.97565], [-4.53327, 48.02631], [-4.57201, 48.00593], [-4.60196, 48.02558], [-4.65298, 48.02631], [-4.72814, 48.0406], [-4.71646, 48.05024], [-4.7008, 48.07477], [-4.6837, 48.06733], [-4.36193, 48.11571], [-4.30476, 48.10407], [-4.28991, 48.10822], [-4.28539, 48.11538], [-4.27571, 48.14362], [-4.28018, 48.15493], [-4.29434, 48.16706], [-4.30236, 48.19636], [-4.31583, 48.20551], [-4.36612, 48.21516], [-4.37243, 48.22004], [-4.37926, 48.23237], [-4.40437, 48.22614], [-4.45763, 48.24897], [-4.48546, 48.24262], [-4.51399, 48.20209], [-4.53165, 48.18309], [-4.55748, 48.17719], [-4.54377, 48.20506], [-4.55504, 48.21654], [-4.56363, 48.23237], [-4.55867, 48.24421], [-4.54719, 48.25259], [-4.55407, 48.26276], [-4.62633, 48.26655], [-4.62369, 48.27705], [-4.62633, 48.28706], [-4.61539, 48.29108], [-4.58788, 48.28706], [-4.57519, 48.29002], [-4.57291, 48.29682], [-4.57726, 48.30752], [-4.55948, 48.33869], [-4.5467, 48.34683], [-4.53014, 48.34162], [-4.5432, 48.30467], [-4.51553, 48.29584], [-4.4265, 48.30004], [-4.40197, 48.28856], [-4.38899, 48.28706], [-4.3297, 48.29702], [-4.2626, 48.30004], [-4.27522, 48.29401], [-4.28991, 48.29385], [-4.26936, 48.2884], [-4.18749, 48.30004], [-4.18749, 48.30752], [-4.21882, 48.30606], [-4.23054, 48.30988], [-4.23473, 48.32172], [-4.24397, 48.31391], [-4.25772, 48.31135], [-4.27017, 48.31468], [-4.27571, 48.32486], [-4.3247, 48.32172], [-4.31631, 48.3308], [-4.30362, 48.33539], [-4.29849, 48.34382], [-4.2694, 48.36274], [-4.28629, 48.36254], [-4.30899, 48.35155], [-4.3247, 48.34846], [-4.3247, 48.35529], [-4.31729, 48.35529], [-4.31729, 48.36274], [-4.3247, 48.36274], [-4.33772, 48.34846], [-4.35261, 48.35273], [-4.38419, 48.33812], [-4.40661, 48.33539], [-4.39916, 48.34162], [-4.40661, 48.34846], [-4.4265, 48.33885], [-4.45373, 48.33539], [-4.45373, 48.34162], [-4.3966, 48.38776], [-4.28991, 48.43159], [-4.35896, 48.41112], [-4.4265, 48.40371], [-4.45751, 48.39484], [-4.52062, 48.36831], [-4.56957, 48.3603], [-4.59936, 48.35016], [-4.61889, 48.34846], [-4.69054, 48.36274], [-4.69408, 48.35944], [-4.69567, 48.34496], [-4.7045, 48.34162], [-4.75499, 48.34199], [-4.76838, 48.3454], [-4.77717, 48.35562], [-4.78336, 48.37641], [-4.76476, 48.37763], [-4.76635, 48.39045], [-4.78336, 48.41739], [-4.7849, 48.43618], [-4.77986, 48.4549], [-4.76806, 48.46865], [-4.74926, 48.4726], [-4.74926, 48.47883], [-4.77465, 48.49128], [-4.76456, 48.52021], [-4.72199, 48.56818], [-4.7008, 48.56074], [-4.70824, 48.56818], [-4.69229, 48.57551], [-4.64249, 48.58185], [-4.62304, 48.57819], [-4.58983, 48.56574], [-4.57726, 48.56818], [-4.60049, 48.58934], [-4.60774, 48.60301], [-4.59464, 48.60912], [-4.54882, 48.60122], [-4.53014, 48.60171], [-4.55748, 48.60912], [-4.5526, 48.61652], [-4.56363, 48.62344], [-4.56363, 48.62962], [-4.48546, 48.62962], [-4.46288, 48.63231], [-4.4298, 48.64281], [-4.40661, 48.64326], [-4.4265, 48.65009], [-4.4265, 48.65754], [-4.39806, 48.66096], [-4.34325, 48.67886], [-4.31729, 48.67805], [-4.29914, 48.66364], [-4.30651, 48.64155], [-4.28311, 48.64326], [-4.24205, 48.65754], [-4.20714, 48.64997], [-4.19376, 48.65009], [-4.19376, 48.65754], [-4.213, 48.6612], [-4.20775, 48.67137], [-4.1739, 48.69111], [-4.13146, 48.69916], [-4.10871, 48.69815], [-4.09069, 48.69111], [-4.08479, 48.69717], [-4.07925, 48.69693], [-4.07022, 48.68488], [-4.06404, 48.68488], [-4.05329, 48.69554], [-4.05264, 48.70307], [-4.05655, 48.71214], [-3.97399, 48.73282], [-3.96776, 48.72956], [-3.97387, 48.71279], [-3.97273, 48.70771], [-3.96101, 48.70474], [-3.96101, 48.69855], [-3.96776, 48.69855], [-3.96776, 48.69111], [-3.95775, 48.68684], [-3.95104, 48.67939], [-3.94953, 48.66934], [-3.95474, 48.65754], [-3.92658, 48.67617], [-3.91194, 48.68122], [-3.892, 48.67805], [-3.90632, 48.6706], [-3.90632, 48.66437], [-3.89419, 48.65355], [-3.86465, 48.64102], [-3.85171, 48.62962], [-3.84431, 48.63646], [-3.85171, 48.64326], [-3.84431, 48.65009], [-3.85245, 48.66454], [-3.8579, 48.68488], [-3.85171, 48.68488], [-3.83747, 48.6706], [-3.84008, 48.68806], [-3.83715, 48.70726], [-3.82925, 48.71845], [-3.81697, 48.71214], [-3.81046, 48.7215], [-3.81013, 48.73322], [-3.79711, 48.72118], [-3.77843, 48.71735], [-3.73192, 48.71898], [-3.68663, 48.69855], [-3.63817, 48.70474], [-3.63854, 48.68781], [-3.614, 48.68268], [-3.58479, 48.68281], [-3.57055, 48.68797], [-3.58454, 48.72639], [-3.58047, 48.73322], [-3.52831, 48.73949], [-3.54284, 48.74567], [-3.57738, 48.77424], [-3.58153, 48.7906], [-3.5714, 48.79906], [-3.54259, 48.80781], [-3.51529, 48.84195], [-3.49983, 48.83698], [-3.46813, 48.83568], [-3.43358, 48.82221], [-3.41975, 48.82144], [-3.43334, 48.80781], [-3.39761, 48.80732], [-3.37182, 48.8225], [-3.28747, 48.84345], [-3.27579, 48.84935], [-3.25951, 48.84772], [-3.22973, 48.87226], [-3.21361, 48.86982], [-3.20714, 48.85541], [-3.20775, 48.83592], [-3.21495, 48.81786], [-3.2279, 48.80781], [-3.22053, 48.79413], [-3.21687, 48.80679], [-3.20873, 48.81635], [-3.17882, 48.84101], [-3.14538, 48.86237], [-3.135, 48.8592], [-3.11644, 48.87409], [-3.10375, 48.87665], [-3.09146, 48.87128], [-3.08434, 48.86221], [-3.08373, 48.85171], [-3.09073, 48.84195], [-3.09073, 48.83568], [-3.07706, 48.82827], [-3.08462, 48.82014], [-3.09752, 48.79413], [-3.12548, 48.7674], [-3.12548, 48.75995], [-3.11803, 48.75995], [-3.08503, 48.805], [-3.0655, 48.82396], [-3.04918, 48.82144], [-3.02872, 48.8288], [-3.00817, 48.82144], [-3.0157, 48.8146], [-3.00939, 48.81371], [-3.00817, 48.80781], [-3.04239, 48.79413], [-3.04239, 48.78791], [-3.02929, 48.78046], [-3.00365, 48.77387], [-2.95295, 48.77228], [-2.93309, 48.7674], [-2.93309, 48.74632], [-2.94668, 48.73949], [-2.94668, 48.73322], [-2.91397, 48.7165], [-2.89867, 48.70478], [-2.89208, 48.69477], [-2.82698, 48.65754], [-2.81143, 48.61457], [-2.8164, 48.60493], [-2.81298, 48.59858], [-2.77107, 48.57917], [-2.71402, 48.56074], [-2.72102, 48.54462], [-2.73449, 48.534], [-2.71312, 48.5301], [-2.68236, 48.50902], [-2.68025, 48.53278], [-2.67614, 48.54023], [-2.63634, 48.5388], [-2.62003, 48.54361], [-2.6007, 48.5576], [-2.56941, 48.58869], [-2.47362, 48.62596], [-2.45954, 48.63646], [-2.45954, 48.64326], [-2.48746, 48.65009], [-2.44286, 48.65908], [-2.42105, 48.65697], [-2.41226, 48.64326], [-2.38622, 48.65009], [-2.35607, 48.66327], [-2.32999, 48.68037], [-2.31607, 48.69855], [-2.31249, 48.68696], [-2.30533, 48.67963], [-2.29524, 48.67658], [-2.28197, 48.67805], [-2.28197, 48.6706], [-2.28942, 48.66657], [-2.3024, 48.65009], [-2.33031, 48.62962], [-2.31265, 48.62018], [-2.27359, 48.64265], [-2.25097, 48.65009], [-2.2462, 48.64472], [-2.23729, 48.61591], [-2.22594, 48.61237], [-2.21923, 48.60366], [-2.21369, 48.58185], [-2.20279, 48.58588], [-2.19555, 48.59345], [-2.19213, 48.60375], [-2.19262, 48.61591], [-2.18297, 48.58877], [-2.17406, 48.58295], [-2.15909, 48.58869], [-2.15909, 48.59544], [-2.17211, 48.60171], [-2.16104, 48.61302], [-2.14932, 48.61888], [-2.13703, 48.61799], [-2.12434, 48.60912], [-2.13663, 48.62214], [-2.14485, 48.63646], [-2.10021, 48.64692], [-2.05236, 48.65009], [-2.02872, 48.6197], [-2.02204, 48.59894], [-2.01325, 48.59162], [-2.00088, 48.58869], [-2.00829, 48.57502], [-1.98249, 48.54898], [-1.97639, 48.53563], [-1.98029, 48.51358], [-1.93936, 48.534], [-1.96728, 48.54707], [-1.9619, 48.55492], [-1.97663, 48.5727], [-1.98029, 48.58869], [-1.9735, 48.58869], [-1.95295, 48.57502], [-1.96036, 48.58662], [-1.96939, 48.59276], [-1.99112, 48.59544], [-2.00048, 48.6013], [-2.02872, 48.64326], [-2.01814, 48.66035], [-1.9877, 48.67377], [-1.98591, 48.68789], [-1.97696, 48.69111], [-1.93936, 48.69111], [-1.94563, 48.69855], [-1.84374, 48.71214], [-1.84691, 48.70344], [-1.83633, 48.69111], [-1.86119, 48.66421], [-1.86095, 48.64086], [-1.83821, 48.62376], [-1.79601, 48.61591], [-1.72281, 48.6153], [-1.64395, 48.62344], [-1.59569, 48.64094], [-1.5797, 48.64326], [-1.50056, 48.63646], [-1.39314, 48.65241], [-1.35656, 48.64326], [-1.3723, 48.66059], [-1.3946, 48.66828], [-1.43285, 48.6706], [-1.43773, 48.66445], [-1.44327, 48.66283], [-1.44709, 48.6739], [-1.4558, 48.68342], [-1.49022, 48.69013], [-1.50267, 48.6955], [-1.50796, 48.70161], [-1.51647, 48.72516], [-1.55362, 48.74714], [-1.56208, 48.77082], [-1.56257, 48.79849], [-1.56676, 48.82217], [-1.57885, 48.83784], [-1.60293, 48.84195], [-1.60293, 48.84935], [-1.5891, 48.85358], [-1.57852, 48.86262], [-1.57185, 48.87421], [-1.56371, 48.92211], [-1.55704, 48.93232], [-1.54841, 48.92381], [-1.54279, 48.93525], [-1.54198, 48.94408], [-1.54703, 48.94969], [-1.55899, 48.95181], [-1.56306, 48.95759], [-1.55224, 49.01545], [-1.54577, 49.03034], [-1.53234, 49.03514], [-1.50796, 49.02753], [-1.50796, 49.03368], [-1.52725, 49.03978], [-1.54971, 49.03978], [-1.56843, 49.03266], [-1.57946, 49.01317], [-1.59358, 49.029], [-1.59675, 49.03742], [-1.59594, 49.06126], [-1.58935, 49.0821], [-1.60342, 49.08397], [-1.60875, 49.0915], [-1.60774, 49.10273], [-1.59594, 49.12848], [-1.56949, 49.14354], [-1.58178, 49.14985], [-1.58935, 49.14354], [-1.60448, 49.17821], [-1.61042, 49.21589], [-1.60265, 49.22541], [-1.58446, 49.22626], [-1.54841, 49.21931], [-1.54841, 49.22549], [-1.59529, 49.23786], [-1.61685, 49.23823], [-1.62466, 49.21931], [-1.64053, 49.23151], [-1.65709, 49.26838], [-1.67186, 49.2801], [-1.65819, 49.28754], [-1.68692, 49.30244], [-1.69909, 49.31354], [-1.70665, 49.32917], [-1.68619, 49.32917], [-1.68619, 49.33535], [-1.69913, 49.35586], [-1.70665, 49.35586], [-1.71475, 49.33853], [-1.73327, 49.34626], [-1.75573, 49.36245], [-1.7755, 49.3701], [-1.76797, 49.38373], [-1.80679, 49.37686], [-1.81648, 49.38373], [-1.81957, 49.3968], [-1.81578, 49.43085], [-1.81941, 49.45205], [-1.83821, 49.47582], [-1.84374, 49.4936], [-1.88467, 49.53091], [-1.87841, 49.54487], [-1.85017, 49.56171], [-1.84374, 49.57185], [-1.83951, 49.61978], [-1.86058, 49.65477], [-1.8695, 49.66169], [-1.9016, 49.66584], [-1.94563, 49.67797], [-1.93765, 49.70157], [-1.93956, 49.71646], [-1.93521, 49.72411], [-1.90836, 49.72639], [-1.8673, 49.71271], [-1.83943, 49.7154], [-1.82462, 49.70844], [-1.81648, 49.69164], [-1.79601, 49.69164], [-1.774, 49.68671], [-1.70775, 49.68016], [-1.63305, 49.66352], [-1.61718, 49.66429], [-1.61392, 49.65225], [-1.60668, 49.65005], [-1.59732, 49.65229], [-1.58373, 49.66206], [-1.57286, 49.66429], [-1.54039, 49.65778], [-1.52843, 49.65746], [-1.51146, 49.66254], [-1.49592, 49.67219], [-1.47012, 49.69505], [-1.45572, 49.70222], [-1.40949, 49.71158], [-1.39126, 49.71271], [-1.26305, 49.6955], [-1.25414, 49.67178], [-1.23225, 49.64142], [-1.22777, 49.62409], [-1.25333, 49.61225], [-1.26403, 49.58926], [-1.2862, 49.58893], [-1.30142, 49.58177], [-1.30626, 49.55809], [-1.29361, 49.5384], [-1.27652, 49.52074], [-1.26159, 49.49315], [-1.18529, 49.43037], [-1.17569, 49.41523], [-1.17223, 49.39338], [-1.17422, 49.38239], [-1.18517, 49.3664], [-1.182, 49.35619], [-1.15172, 49.3627], [-1.12287, 49.34544], [-1.10342, 49.34903], [-1.10342, 49.35586], [-1.11376, 49.36579], [-1.10635, 49.37946], [-1.08959, 49.39155], [-1.07225, 49.3968], [-0.94042, 49.39228], [-0.82213, 49.3627], [-0.65079, 49.35586], [-0.60798, 49.3474], [-0.58336, 49.34589], [-0.54695, 49.35895], [-0.52253, 49.35529], [-0.47948, 49.34276], [-0.41112, 49.34276], [-0.36343, 49.32502], [-0.3131, 49.31733], [-0.21947, 49.2801], [-0.19408, 49.29523], [-0.03384, 49.32005], [0.01287, 49.33462], [0.04029, 49.35041], [0.06308, 49.35448], [0.07195, 49.35928], [0.09596, 49.38373], [0.16236, 49.41519], [0.41131, 49.45205], [0.45729, 49.46743], [0.47657, 49.47866], [0.49317, 49.4936], [0.42213, 49.46442], [0.33961, 49.45673], [0.25685, 49.46406], [0.18531, 49.47997], [0.14731, 49.48094], [0.10442, 49.4936], [0.09278, 49.50926], [0.07862, 49.51553], [0.07537, 49.52408], [0.07659, 49.53498], [0.07968, 49.54218], [0.13087, 49.6035], [0.17091, 49.69164], [0.18588, 49.70319], [0.23585, 49.72931], [0.24676, 49.72944], [0.25685, 49.73591], [0.38746, 49.77505], [0.39763, 49.78437], [0.5228, 49.83295], [0.55738, 49.83979], [0.59669, 49.85724], [0.67482, 49.8758], [0.76092, 49.87507], [1.17262, 49.96101], [1.19695, 49.97358], [1.2212, 49.97899], [1.261, 50.00751], [1.39129, 50.07518], [1.45582, 50.1236], [1.46453, 50.13215], [1.48683, 50.18505], [1.52101, 50.21467], [1.55535, 50.21772], [1.65431, 50.18659], [1.66407, 50.18708], [1.67254, 50.19253], [1.67254, 50.19937], [1.65528, 50.20051], [1.64454, 50.21239], [1.66505, 50.21239], [1.66505, 50.21979], [1.6255, 50.22431], [1.61004, 50.23224], [1.59392, 50.25629], [1.55112, 50.26968], [1.54151, 50.2779], [1.54314, 50.31], [1.55152, 50.34907], [1.57203, 50.37568], [1.61036, 50.37067], [1.61036, 50.3769], [1.55519, 50.40477], [1.55519, 50.41157], [1.5735, 50.44538], [1.57423, 50.49238], [1.57927, 50.53315], [1.61036, 50.54816], [1.58334, 50.57469], [1.57789, 50.58861], [1.57358, 50.63556], [1.56316, 50.67829], [1.56267, 50.69896], [1.56764, 50.71674], [1.58872, 50.75629], [1.60011, 50.77098], [1.60564, 50.79002], [1.59929, 50.81293], [1.58318, 50.8498], [1.58058, 50.8688], [1.60483, 50.88105], [1.65333, 50.88911], [1.69907, 50.9256], [1.72983, 50.94391], [1.9214, 50.99677], [1.9393, 50.99445], [1.97348, 51.00715], [2.13404, 51.01996], [2.31609, 51.05903], [2.38445, 51.05533], [2.46608, 51.06879], [2.5218, 51.08754], [2.53703, 51.06461]], [[1.98616, 42.44126], [1.9995, 42.4439], [1.96797, 42.4857], [1.9566, 42.48177], [1.94565, 42.46382], [1.94751, 42.45123], [1.96063, 42.44371], [1.98616, 42.44126]]], [[[6.24188, 43.02565], [6.251, 43.0173], [6.25221, 43.00263], [6.20249, 42.98713], [6.16619, 42.99966], [6.16472, 43.00507], [6.17514, 43.00898], [6.20297, 43.008], [6.21502, 43.01472], [6.23339, 43.01558], [6.23504, 43.02241], [6.24188, 43.02565]]], [[[-1.22436, 45.93505], [-1.18517, 45.91596], [-1.17772, 45.90693], [-1.1761, 45.89875], [-1.18419, 45.85635], [-1.19457, 45.83006], [-1.20922, 45.81415], [-1.22688, 45.81977], [-1.2412, 45.85456], [-1.26036, 45.88182], [-1.319, 45.92813], [-1.34016, 45.93867], [-1.36172, 45.95673], [-1.37833, 45.97598], [-1.37165, 45.99531], [-1.40494, 46.05317], [-1.37389, 46.05024], [-1.33991, 46.03783], [-1.30871, 46.02025], [-1.28515, 46.00165], [-1.27383, 45.99763], [-1.24763, 46.00178], [-1.23363, 45.99168], [-1.22956, 45.97923], [-1.23046, 45.9582], [-1.21939, 45.95075], [-1.21939, 45.94391], [-1.22436, 45.93505]]], [[[-1.28628, 46.1601], [-1.33609, 46.16722], [-1.43285, 46.21084], [-1.48892, 46.20336], [-1.50426, 46.20767], [-1.55582, 46.24555], [-1.55582, 46.25178], [-1.49812, 46.26191], [-1.48009, 46.25922], [-1.46789, 46.2499], [-1.46744, 46.24396], [-1.47387, 46.2381], [-1.50796, 46.24555], [-1.49055, 46.22443], [-1.46418, 46.22492], [-1.41112, 46.2381], [-1.41112, 46.23127], [-1.42536, 46.23127], [-1.42536, 46.22382], [-1.40876, 46.21825], [-1.3081, 46.20694], [-1.28474, 46.19644], [-1.26574, 46.18098], [-1.25414, 46.16242], [-1.2814, 46.15619], [-1.28628, 46.1601]]], [[[-2.18981, 46.97724], [-2.15575, 46.96491], [-2.14485, 46.95746], [-2.13768, 46.92316], [-2.14257, 46.90986], [-2.15909, 46.91649], [-2.17369, 46.93915], [-2.19481, 46.96186], [-2.2202, 46.97386], [-2.2473, 46.9643], [-2.26317, 46.9798], [-2.27868, 47.01813], [-2.29564, 47.03319], [-2.2386, 47.03535], [-2.22045, 47.03319], [-2.20002, 47.02436], [-2.19742, 47.01301], [-2.20132, 46.99974], [-2.2001, 46.98542], [-2.18981, 46.97724]]], [[[-2.29821, 46.72016], [-2.27969, 46.71027], [-2.26895, 46.69741], [-2.29137, 46.7036], [-2.37141, 46.70429], [-2.38292, 46.72264], [-2.37515, 46.73163], [-2.3568, 46.73379], [-2.33723, 46.73159], [-2.29821, 46.72016]]], [[[-3.10269, 47.32734], [-3.07274, 47.32832], [-3.06282, 47.32062], [-3.06701, 47.30195], [-3.09362, 47.29662], [-3.1717, 47.30158], [-3.22346, 47.31216], [-3.24096, 47.32062], [-3.23762, 47.33637], [-3.26207, 47.38325], [-3.24962, 47.39521], [-3.24299, 47.39533], [-3.23412, 47.38955], [-3.1765, 47.37149], [-3.1516, 47.35814], [-3.11465, 47.33149], [-3.10269, 47.32734]]], [[[-5.069, 48.48505], [-5.04296, 48.47199], [-5.03661, 48.4726], [-5.03661, 48.46516], [-5.08796, 48.44721], [-5.10554, 48.44465], [-5.10554, 48.45148], [-5.09187, 48.45148], [-5.09777, 48.46133], [-5.10741, 48.46337], [-5.1328, 48.45832], [-5.1328, 48.46516], [-5.09179, 48.48078], [-5.069, 48.48505]]]]}}]}