{"type": "FeatureCollection", "features": [{"type": "Feature", "properties": {"name": "폴란드", "name_en": "Poland", "period": "2004년 가입", "kind": "국가", "legend": "2004 라트비아 등 10개국 가입", "accession_year": 2004, "map_title": "유럽 연합 회원국(2023년 기준)", "source": "미래엔 세계사 교과서 4권 206쪽", "volume": 4, "page": 206, "geometry_source": "Natural Earth 10m 국가 경계"}, "geometry": {"type": "Polygon", "coordinates": [[[18.83743, 49.52695], [18.83454, 49.54762], [18.82017, 49.59026], [18.7993, 49.62638], [18.79258, 49.66079], [18.78844, 49.6686], [18.77346, 49.67583], [18.72767, 49.66891], [18.71506, 49.67382], [18.6824, 49.69578], [18.63734, 49.70033], [18.62401, 49.70637], [18.61771, 49.71387], [18.60768, 49.74296], [18.58412, 49.77438], [18.56675, 49.80477], [18.56634, 49.83158], [18.59383, 49.8522], [18.56727, 49.86145], [18.56293, 49.8737], [18.56541, 49.88905], [18.55921, 49.90719], [18.54443, 49.91298], [18.50505, 49.8967], [18.4818, 49.89664], [18.40749, 49.92316], [18.36883, 49.93204], [18.32852, 49.92884], [18.33493, 49.92543], [18.30692, 49.90967], [18.29245, 49.90781], [18.27261, 49.9183], [18.25587, 49.94605], [18.24398, 49.95173], [18.20874, 49.95829], [18.16202, 49.98124], [18.09815, 49.98904], [18.08513, 49.99876], [18.09164, 50.01721], [18.03325, 50.0418], [18.00245, 50.04677], [18.00689, 50.02413], [18.0287, 50.02413], [18.03573, 50.01721], [18.03748, 50.00723], [18.03242, 50.00284], [17.99986, 49.99659], [17.94157, 49.99276], [17.91212, 49.97581], [17.87573, 49.96868], [17.83936, 49.97364], [17.76329, 50.02522], [17.74303, 50.06056], [17.72257, 50.07514], [17.71947, 50.08087], [17.72267, 50.08635], [17.73197, 50.09147], [17.73197, 50.09488], [17.67761, 50.10774], [17.64836, 50.1018], [17.63275, 50.10635], [17.58418, 50.14588], [17.58211, 50.15317], [17.58945, 50.16324], [17.6004, 50.16681], [17.64867, 50.168], [17.67533, 50.17472], [17.71792, 50.1911], [17.73817, 50.20236], [17.74758, 50.2175], [17.73197, 50.236], [17.72143, 50.24272], [17.71916, 50.2528], [17.73445, 50.28949], [17.70799, 50.31104], [17.69104, 50.31507], [17.68453, 50.31238], [17.67637, 50.2974], [17.64671, 50.27109], [17.62955, 50.2621], [17.6064, 50.25823], [17.517, 50.26835], [17.46935, 50.26556], [17.44, 50.24272], [17.42419, 50.24055], [17.41912, 50.24272], [17.40982, 50.26133], [17.38801, 50.27264], [17.3659, 50.27156], [17.35504, 50.25326], [17.34171, 50.25972], [17.33479, 50.27001], [17.33406, 50.29569], [17.31908, 50.30825], [17.33747, 50.313], [17.3168, 50.31864], [17.26988, 50.31776], [17.24611, 50.32215], [17.21087, 50.33641], [17.20105, 50.34323], [17.19505, 50.35191], [17.18544, 50.37569], [17.18761, 50.37848], [17.17593, 50.38075], [17.1317, 50.37682], [17.08467, 50.39796], [16.98194, 50.41636], [16.95879, 50.4146], [16.91579, 50.43108], [16.89295, 50.43294], [16.86577, 50.4224], [16.86587, 50.40845], [16.89791, 50.37822], [16.90928, 50.35992], [16.92654, 50.31925], [16.94525, 50.30691], [16.96964, 50.29776], [16.98783, 50.28494], [16.99837, 50.26701], [16.99982, 50.24272], [17.01284, 50.23166], [17.01481, 50.21849], [17.0084, 50.20996], [16.99631, 50.2129], [16.98101, 50.22918], [16.96034, 50.23197], [16.95528, 50.21347], [16.919, 50.21709], [16.90701, 50.21177], [16.88096, 50.19156], [16.85761, 50.18774], [16.81771, 50.18676], [16.79528, 50.17441], [16.75425, 50.13229], [16.73203, 50.12195], [16.70123, 50.09493], [16.66062, 50.09302], [16.61865, 50.10702], [16.58424, 50.12743], [16.56667, 50.14221], [16.55726, 50.15472], [16.54589, 50.18882], [16.53504, 50.20774], [16.50476, 50.22799], [16.43779, 50.29796], [16.41557, 50.30794], [16.37102, 50.31838], [16.35324, 50.33352], [16.35076, 50.36065], [16.34374, 50.36995], [16.28865, 50.37186], [16.2625, 50.36442], [16.24493, 50.37682], [16.23201, 50.40261], [16.19956, 50.40628], [16.19015, 50.42416], [16.19801, 50.44002], [16.21795, 50.43713], [16.21124, 50.45129], [16.23201, 50.45677], [16.26498, 50.47165], [16.27997, 50.47987], [16.28772, 50.49278], [16.30343, 50.49604], [16.33547, 50.49036], [16.35262, 50.49278], [16.39118, 50.52183], [16.38838, 50.52126], [16.38962, 50.53485], [16.39831, 50.54849], [16.39448, 50.55934], [16.4259, 50.56756], [16.41681, 50.58663], [16.33164, 50.64404], [16.30095, 50.6551], [16.26829, 50.66042], [16.23201, 50.66089], [16.21909, 50.65913], [16.20452, 50.63634], [16.19232, 50.62658], [16.17548, 50.62409], [16.12866, 50.64404], [16.08649, 50.64678], [16.02448, 50.60859], [15.982, 50.60363], [15.98004, 50.61298], [15.99637, 50.62368], [15.99864, 50.63557], [15.99316, 50.64936], [15.97146, 50.67861], [15.95802, 50.68688], [15.94149, 50.68838], [15.88227, 50.67422], [15.84816, 50.67515], [15.79762, 50.72977], [15.79224, 50.74269], [15.76744, 50.74419], [15.68435, 50.73143], [15.6738, 50.73354], [15.65324, 50.75096], [15.64187, 50.75577], [15.44177, 50.80021], [15.40012, 50.79799], [15.37026, 50.77261], [15.3561, 50.77546], [15.34969, 50.78372], [15.35299, 50.81297], [15.34101, 50.83173], [15.28778, 50.85488], [15.26535, 50.88227], [15.25605, 50.89989], [15.25305, 50.9141], [15.26008, 50.9325], [15.26876, 50.94299], [15.2698, 50.95265], [15.25378, 50.96903], [15.22711, 50.97741], [15.17016, 50.97798], [15.16076, 50.99265], [15.15611, 51.00784], [15.14443, 51.01156], [15.13151, 51.00583], [15.11921, 50.98247], [15.10795, 50.98102], [15.08211, 50.99275], [15.07363, 51.00262], [15.02299, 51.00965], [15.00397, 51.02069], [14.99653, 51.00784], [14.96098, 50.99265], [14.96522, 50.98133], [14.98144, 50.97322], [14.99663, 50.95922], [14.99777, 50.93017], [14.98206, 50.91467], [14.98113, 50.90909], [14.98413, 50.8677], [14.98206, 50.85907], [14.86786, 50.86439], [14.83168, 50.85798], [14.81039, 50.85845], [14.8105, 50.87705], [14.82465, 50.89183], [14.86021, 50.91684], [14.95529, 51.06404], [14.96025, 51.10458], [14.98, 51.1228], [14.9832, 51.16091], [14.99136, 51.18897], [15.0049, 51.21561], [15.02206, 51.23677], [15.01431, 51.24266], [15.01948, 51.27168], [15.0049, 51.29129], [14.98227, 51.30801], [14.96377, 51.32839], [14.95664, 51.35322], [14.94692, 51.42291], [14.9554, 51.43541], [14.94506, 51.44919], [14.91095, 51.46898], [14.8414, 51.48443], [14.79747, 51.5021], [14.73216, 51.51582], [14.71004, 51.53024], [14.70456, 51.54799], [14.71272, 51.56742], [14.73216, 51.58662], [14.74394, 51.60664], [14.74228, 51.63297], [14.73246, 51.65835], [14.71955, 51.67563], [14.67097, 51.70077], [14.64844, 51.71721], [14.6381, 51.74263], [14.63418, 51.76901], [14.62033, 51.78054], [14.60224, 51.78831], [14.58581, 51.80389], [14.58281, 51.82508], [14.59594, 51.84242], [14.6533, 51.87862], [14.67169, 51.89389], [14.68709, 51.9119], [14.69557, 51.93146], [14.69908, 51.99251], [14.72606, 52.02644], [14.73536, 52.05403], [14.7614, 52.07667], [14.69639, 52.10669], [14.68637, 52.12103], [14.69247, 52.14697], [14.70322, 52.16516], [14.70704, 52.17945], [14.69257, 52.19338], [14.69257, 52.19958], [14.7121, 52.21544], [14.71241, 52.23591], [14.69691, 52.25348], [14.64048, 52.26505], [14.60658, 52.27575], [14.58415, 52.29123], [14.59015, 52.30942], [14.56917, 52.33851], [14.5454, 52.38215], [14.53982, 52.42187], [14.59159, 52.4498], [14.61578, 52.47328], [14.63232, 52.49674], [14.62767, 52.50742], [14.60906, 52.5178], [14.61681, 52.54103], [14.64482, 52.57692], [14.61371, 52.59253], [14.54994, 52.63619], [14.4901, 52.65064], [14.46137, 52.67456], [14.43192, 52.68609], [14.39771, 52.72712], [14.3822, 52.73815], [14.27595, 52.78572], [14.24867, 52.79458], [14.21601, 52.81799], [14.19596, 52.82337], [14.15276, 52.82833], [14.1354, 52.8366], [14.12392, 52.85065], [14.15048, 52.86463], [14.16082, 52.87675], [14.16495, 52.89566], [14.14449, 52.95992], [14.19286, 52.98165], [14.25373, 53.00088], [14.31264, 53.02922], [14.34334, 53.04862], [14.35678, 53.06668], [14.38954, 53.13167], [14.37786, 53.17655], [14.38065, 53.18986], [14.38778, 53.20208], [14.41559, 53.22099], [14.44163, 53.25184], [14.40329, 53.27879], [14.39801, 53.31522], [14.37032, 53.3923], [14.35988, 53.44408], [14.3389, 53.46521], [14.32846, 53.48609], [14.30417, 53.50852], [14.29694, 53.52914], [14.29704, 53.59776], [14.27606, 53.63662], [14.26097, 53.65621], [14.2651, 53.67176], [14.2639, 53.69998], [14.29168, 53.70527], [14.30486, 53.71255], [14.30616, 53.72069], [14.28858, 53.72797], [14.30161, 53.73485], [14.28858, 53.74164], [14.2942, 53.74909], [14.33041, 53.7342], [14.34205, 53.71491], [14.38356, 53.70063], [14.41456, 53.68236], [14.45867, 53.67788], [14.51238, 53.66645], [14.53102, 53.65778], [14.59059, 53.59837], [14.59588, 53.6013], [14.59702, 53.61734], [14.60157, 53.62665], [14.62379, 53.63923], [14.62379, 53.65282], [14.57594, 53.65965], [14.54493, 53.70405], [14.55144, 53.72614], [14.57594, 53.76952], [14.58741, 53.76349], [14.60825, 53.76903], [14.62379, 53.76952], [14.61671, 53.79474], [14.63063, 53.85151], [14.62379, 53.85151], [14.62135, 53.83955], [14.61354, 53.83161], [14.58961, 53.81733], [14.59588, 53.81049], [14.58709, 53.81265], [14.5691, 53.82416], [14.58961, 53.83784], [14.57586, 53.8548], [14.55209, 53.86278], [14.44117, 53.86962], [14.42555, 53.87983], [14.43816, 53.89932], [14.4319, 53.90615], [14.42205, 53.89614], [14.41424, 53.89472], [14.39381, 53.89932], [14.3851, 53.89728], [14.36305, 53.87938], [14.39291, 53.87596], [14.40919, 53.87157], [14.41765, 53.86514], [14.4157, 53.85301], [14.40528, 53.84418], [14.39259, 53.84072], [14.38356, 53.84467], [14.35621, 53.83446], [14.3283, 53.831], [14.3283, 53.82416], [14.34205, 53.82099], [14.34132, 53.81891], [14.31886, 53.81818], [14.27467, 53.8308], [14.22657, 53.87197], [14.20082, 53.87816], [14.19276, 53.89377], [14.17529, 53.90648], [14.19307, 53.91149], [14.21005, 53.93846], [14.26808, 53.92182], [14.36703, 53.91698], [14.40675, 53.92182], [14.44557, 53.93403], [14.51735, 53.96524], [14.78191, 54.03461], [15.0101, 54.06981], [15.28834, 54.13886], [15.66578, 54.19843], [15.85971, 54.24999], [16.02084, 54.26179], [16.13152, 54.28352], [16.11891, 54.27603], [16.06935, 54.26301], [16.09108, 54.25397], [16.17921, 54.26301], [16.17921, 54.26919], [16.17237, 54.26919], [16.17237, 54.2766], [16.22006, 54.2766], [16.21957, 54.28148], [16.21323, 54.28352], [16.21518, 54.29963], [16.19215, 54.30028], [16.13771, 54.29027], [16.21355, 54.31611], [16.2754, 54.35859], [16.26287, 54.34369], [16.23178, 54.32258], [16.27491, 54.33047], [16.28883, 54.34024], [16.3239, 54.34992], [16.33676, 54.35859], [16.32488, 54.37311], [16.30502, 54.37348], [16.28159, 54.35859], [16.32399, 54.40131], [16.43979, 54.48827], [16.43442, 54.47236], [16.44451, 54.46988], [16.46062, 54.47346], [16.4734, 54.48212], [16.47975, 54.49555], [16.47389, 54.49966], [16.44606, 54.48827], [16.46656, 54.51215], [16.50131, 54.53242], [16.56959, 54.5572], [16.77849, 54.57514], [16.85963, 54.59394], [16.90219, 54.59813], [16.93995, 54.60602], [17.03582, 54.66706], [17.33741, 54.74901], [17.71567, 54.79043], [17.88543, 54.82412], [18.15235, 54.83832], [18.3169, 54.83832], [18.33953, 54.83348], [18.37582, 54.81513], [18.41017, 54.8083], [18.75172, 54.69009], [18.81397, 54.64321], [18.83432, 54.61668], [18.8353, 54.6031], [18.81764, 54.59813], [18.80226, 54.61603], [18.78403, 54.62352], [18.77182, 54.64228], [18.75538, 54.65449], [18.70777, 54.70124], [18.65455, 54.71015], [18.64503, 54.71955], [18.61671, 54.72525], [18.55698, 54.74901], [18.49822, 54.76537], [18.48878, 54.77318], [18.45631, 54.78766], [18.44777, 54.78998], [18.43556, 54.78681], [18.42921, 54.78168], [18.4131, 54.74653], [18.4131, 54.73192], [18.44777, 54.71825], [18.47446, 54.68757], [18.47039, 54.66673], [18.48194, 54.65961], [18.47592, 54.64008], [18.48731, 54.63178], [18.50636, 54.6341], [18.52296, 54.64655], [18.5171, 54.62995], [18.52516, 54.61668], [18.53761, 54.60545], [18.57065, 54.55036], [18.56674, 54.52741], [18.56756, 54.48786], [18.57407, 54.45038], [18.58806, 54.43366], [18.60377, 54.43061], [18.63429, 54.41694], [18.68002, 54.40998], [18.69435, 54.40453], [18.7173, 54.38202], [18.88592, 54.35016], [18.92319, 54.34854], [18.95436, 54.35859], [18.97462, 54.34976], [19.00213, 54.34492], [19.37721, 54.37763], [19.45997, 54.40103], [19.49928, 54.4064], [19.53102, 54.41494], [19.59254, 54.45238], [19.60955, 54.45673], [19.63077, 54.44665], [19.68028, 54.43668], [22.69839, 54.34294], [22.76722, 54.35627], [22.78603, 54.36521], [22.8127, 54.3941], [22.8376, 54.40092], [22.85889, 54.39921], [22.91884, 54.38113], [22.96266, 54.3817], [22.9733, 54.37539], [22.98974, 54.35338], [23.001, 54.34888], [23.03532, 54.3465], [23.04162, 54.34097], [23.03222, 54.32015], [23.03211, 54.30955], [23.0501, 54.29483], [23.07304, 54.29488], [23.11707, 54.30346], [23.13526, 54.29829], [23.19727, 54.26785], [23.23541, 54.25416], [23.31602, 54.23628], [23.35447, 54.21705], [23.39147, 54.1801], [23.4325, 54.16931], [23.44904, 54.15494], [23.47395, 54.11256], [23.49617, 54.04456], [23.49648, 54.02197], [23.48159, 54.00663], [23.45927, 53.99231], [23.45865, 53.98162], [23.46289, 53.97252], [23.48749, 53.95562], [23.49038, 53.95061], [23.48562, 53.93929], [23.48687, 53.90999], [23.52066, 53.83734], [23.52986, 53.78416], [23.5404, 53.76359], [23.56479, 53.7424], [23.56707, 53.68101], [23.59094, 53.61125], [23.6758, 53.45571], [23.72292, 53.3971], [23.74297, 53.36548], [23.78297, 53.27094], [23.80064, 53.24246], [23.81863, 53.22797], [23.84808, 53.18381], [23.88312, 53.16399], [23.89366, 53.15195], [23.89139, 53.12771], [23.86069, 53.08748], [23.85935, 53.06798], [23.86793, 53.05103], [23.89821, 53.02754], [23.90968, 53.01273], [23.91134, 53.00506], [23.90906, 52.98666], [23.91795, 52.9508], [23.9011, 52.92326], [23.90203, 52.91253], [23.91206, 52.89385], [23.9225, 52.7426], [23.90875, 52.69986], [23.86896, 52.67004], [23.73615, 52.6149], [23.56903, 52.58589], [23.48046, 52.55442], [23.3923, 52.50964], [23.27055, 52.39512], [23.23045, 52.36507], [23.21205, 52.3475], [23.16565, 52.28939], [23.18352, 52.28131], [23.19448, 52.27146], [23.19768, 52.25831], [23.18973, 52.24053], [23.21226, 52.23167], [23.28419, 52.21973], [23.29959, 52.22343], [23.31272, 52.21529], [23.37483, 52.20095], [23.39581, 52.19958], [23.39581, 52.19338], [23.38847, 52.18415], [23.39137, 52.1825], [23.40573, 52.18591], [23.43674, 52.17568], [23.45049, 52.18591], [23.47095, 52.17162], [23.48769, 52.18162], [23.49152, 52.1741], [23.48873, 52.16214], [23.48469, 52.15863], [23.5125, 52.12444], [23.53193, 52.12064], [23.57937, 52.12155], [23.59818, 52.11452], [23.61585, 52.0923], [23.63745, 52.08447], [23.64251, 52.0614], [23.65078, 52.04894], [23.66494, 52.01117], [23.67641, 51.99409], [23.66071, 51.98688], [23.64758, 51.97409], [23.62867, 51.94634], [23.62215, 51.92794], [23.62143, 51.89557], [23.61492, 51.88425], [23.6206, 51.88322], [23.62185, 51.87743], [23.60986, 51.87327], [23.60572, 51.85159], [23.59456, 51.8433], [23.62867, 51.80976], [23.6175, 51.7865], [23.59828, 51.77467], [23.5773, 51.76669], [23.56035, 51.75454], [23.55229, 51.73664], [23.5466, 51.71359], [23.55921, 51.69517], [23.54609, 51.68964], [23.56035, 51.67196], [23.54753, 51.66207], [23.53244, 51.65897], [23.53244, 51.6515], [23.54381, 51.6438], [23.54516, 51.63411], [23.53989, 51.60711], [23.5434, 51.59274], [23.55208, 51.57882], [23.57399, 51.5553], [23.56035, 51.5553], [23.57275, 51.53967], [23.60231, 51.53078], [23.61482, 51.49722], [23.66277, 51.48019], [23.64717, 51.46019], [23.64872, 51.45397], [23.68944, 51.41642], [23.6976, 51.40443], [23.68603, 51.40105], [23.6789, 51.39407], [23.67766, 51.38379], [23.68386, 51.37028], [23.66556, 51.36581], [23.64779, 51.354], [23.63404, 51.3393], [23.62867, 51.32596], [23.63518, 51.3047], [23.65089, 51.29961], [23.67021, 51.29938], [23.68727, 51.2924], [23.74266, 51.21625], [23.76519, 51.19902], [23.81604, 51.17879], [23.86359, 51.14827], [23.87475, 51.13613], [23.85821, 51.13073], [23.85449, 51.12153], [23.86927, 51.10174], [23.89552, 51.07611], [23.90421, 51.06272], [23.91599, 51.02087], [23.91175, 51.00681], [23.944, 50.9942], [23.95505, 50.98356], [23.96436, 50.95322], [23.97934, 50.93751], [24.04694, 50.89803], [24.13024, 50.86894], [24.14316, 50.85643], [24.13086, 50.83907], [24.10047, 50.83499], [24.0673, 50.83483], [24.04694, 50.8291], [24.02048, 50.83855], [23.99288, 50.83623], [23.96994, 50.82517], [23.95764, 50.80801], [23.9595, 50.78889], [23.97428, 50.77618], [23.99795, 50.7692], [24.02585, 50.76703], [24.02585, 50.76083], [24.01283, 50.74331], [24.02688, 50.72802], [24.05417, 50.71716], [24.08104, 50.71298], [24.07494, 50.69019], [24.0828, 50.66916], [24.10843, 50.62988], [24.08528, 50.60441], [24.09541, 50.55686], [24.10254, 50.54363], [24.10771, 50.54084], [24.07505, 50.51428], [24.01066, 50.49278], [24.00776, 50.4485], [23.98131, 50.40478], [23.9287, 50.39083], [23.74752, 50.38938], [23.713, 50.3824], [23.69574, 50.37677], [23.6822, 50.36825], [23.67125, 50.35357], [23.65802, 50.32561], [23.64417, 50.31269], [23.56531, 50.25781], [23.43643, 50.19347], [23.20792, 50.03395], [23.17784, 50.00398], [23.14125, 49.98548], [23.10146, 49.95711], [22.99305, 49.85443], [22.95119, 49.82662], [22.9331, 49.79107], [22.92442, 49.78544], [22.89796, 49.77743], [22.88825, 49.76973], [22.82665, 49.69738], [22.8098, 49.68632], [22.77735, 49.68048], [22.76619, 49.67423], [22.74169, 49.63366], [22.66583, 49.56736], [22.64092, 49.52876], [22.66686, 49.47838], [22.67307, 49.43585], [22.67958, 49.41895], [22.71978, 49.38298], [22.73776, 49.27539], [22.73394, 49.26087], [22.71709, 49.23043], [22.70293, 49.19503], [22.68175, 49.16124], [22.68784, 49.15592], [22.70573, 49.16884], [22.72143, 49.1616], [22.71637, 49.16057], [22.74882, 49.14558], [22.77807, 49.12031], [22.84132, 49.09489], [22.85342, 49.08476], [22.85352, 49.07628], [22.84442, 49.0567], [22.84318, 49.04311], [22.86696, 49.00998], [22.85528, 48.99401], [22.83502, 48.99975], [22.8129, 49.01288], [22.78396, 49.02135], [22.75533, 49.04471], [22.74448, 49.04554], [22.72195, 49.04104], [22.64289, 49.04316], [22.61829, 49.05422], [22.58077, 49.08145], [22.56072, 49.08553], [22.53964, 49.0722], [22.50501, 49.08341], [22.42677, 49.08564], [22.39008, 49.09302], [22.33944, 49.12646], [22.31815, 49.13199], [22.26286, 49.13059], [22.21594, 49.14], [22.20849, 49.14419], [22.20622, 49.15049], [22.20891, 49.16398], [22.19795, 49.17199], [22.15568, 49.17152], [22.11155, 49.18863], [22.04075, 49.19746], [22.01243, 49.21105], [22.00582, 49.24289], [21.99321, 49.27818], [21.96448, 49.30857], [21.92841, 49.33079], [21.87456, 49.34836], [21.83787, 49.37042], [21.81958, 49.37725], [21.79942, 49.37482], [21.75757, 49.34893], [21.74217, 49.35709], [21.70858, 49.39089], [21.69173, 49.40215], [21.65876, 49.40246], [21.6199, 49.42334], [21.60119, 49.42649], [21.52957, 49.42122], [21.49619, 49.41239], [21.48151, 49.41523], [21.42787, 49.4098], [21.33041, 49.42779], [21.27439, 49.44727], [21.26054, 49.44944], [21.24245, 49.44127], [21.21124, 49.41109], [21.19409, 49.4006], [21.17259, 49.39828], [21.12494, 49.42365], [21.10944, 49.42458], [21.06882, 49.41921], [21.05353, 49.41445], [21.03327, 49.39967], [21.04546, 49.39058], [21.06851, 49.38143], [21.08071, 49.36634], [21.07254, 49.35719], [21.01725, 49.35244], [20.99668, 49.33937], [20.96402, 49.3081], [20.94242, 49.29586], [20.91896, 49.29033], [20.90056, 49.2926], [20.8493, 49.3205], [20.79411, 49.32366], [20.7783, 49.3312], [20.68952, 49.4005], [20.60528, 49.40004], [20.59505, 49.39626], [20.56766, 49.37637], [20.544, 49.37084], [20.52209, 49.37435], [20.43754, 49.40252], [20.42194, 49.40019], [20.42214, 49.38298], [20.37047, 49.38169], [20.32954, 49.39177], [20.31765, 49.39161], [20.30742, 49.3866], [20.29647, 49.35694], [20.28437, 49.33864], [20.20717, 49.3342], [20.19198, 49.32862], [20.16035, 49.30562], [20.13586, 49.30888], [20.11105, 49.27586], [20.09844, 49.25286], [20.08604, 49.24304], [20.08036, 49.20811], [20.07002, 49.1831], [20.05049, 49.17323], [20.01731, 49.18387], [19.96574, 49.21565], [19.93793, 49.22511], [19.9059, 49.22279], [19.85422, 49.19126], [19.832, 49.18589], [19.7859, 49.18816], [19.76068, 49.19421], [19.74777, 49.20589], [19.7518, 49.21906], [19.78962, 49.25948], [19.80626, 49.26526], [19.80864, 49.2709], [19.79696, 49.28335], [19.7797, 49.29337], [19.78952, 49.30919], [19.78363, 49.35756], [19.76926, 49.39311], [19.76007, 49.39766], [19.72658, 49.38887], [19.70632, 49.38753], [19.68451, 49.38908], [19.62704, 49.40187], [19.6286, 49.42959], [19.6348, 49.44132], [19.5948, 49.44158], [19.57393, 49.44525], [19.55677, 49.45388], [19.53548, 49.49285], [19.51729, 49.54328], [19.5052, 49.56338], [19.47419, 49.57873], [19.45734, 49.59806], [19.44339, 49.60178], [19.4376, 49.60013], [19.33952, 49.52876], [19.31503, 49.52396], [19.28423, 49.52416], [19.24867, 49.51626], [19.2341, 49.50721], [19.22046, 49.493], [19.20444, 49.46055], [19.21136, 49.45166], [19.20899, 49.44499], [19.18935, 49.4422], [19.17974, 49.41027], [19.1725, 49.40226], [19.11659, 49.39094], [19.10626, 49.3914], [19.0676, 49.40613], [19.04579, 49.40277], [19.00714, 49.3881], [18.96228, 49.38918], [18.9567, 49.40045], [18.96084, 49.43332], [18.95236, 49.47595], [18.96115, 49.49279], [18.93221, 49.50432], [18.8332, 49.51026], [18.83743, 49.52695]]]}}]}