{"type": "FeatureCollection", "features": [{"type": "Feature", "properties": {"map_title": "나폴레옹 시대의 유럽 정세", "source": "미래엔 세계사 교과서 3권 142쪽", "volume": 3, "page": 142, "name": "프랑스의 위성국", "name_en": "French client states", "period": "1812년경", "kind": "국가", "legend": "프랑스의 위성국", "coast_snap": "Natural Earth 10m 해안선에 맞춤", "border_snap": "현대 국경(Natural Earth 10m)에 맞춘 구간 약 2750 km", "group": "프랑스의 위성국", "map_folder": "3권_p142_나폴레옹 시대의 유럽 정세"}, "geometry": {"type": "MultiPolygon", "coordinates": [[[[-5.3662, 35.92474], [-5.32738, 35.90424], [-5.30932, 35.90082], [-5.28309, 35.91167], [-5.29187, 35.89054], [-5.33556, 35.86237], [-5.34569, 35.83259], [-5.31876, 35.70173], [-5.3048, 35.68521], [-5.27677, 35.6852], [-5.27683, 35.66885], [-5.35442, 35.69479], [-5.44852, 35.74577], [-5.48532, 35.77359], [-5.55467, 35.84386], [-5.48718, 35.89716], [-5.44811, 35.91851], [-5.4235, 35.90896], [-5.4142, 35.9094], [-5.40549, 35.92651], [-5.3662, 35.92474]]], [[[-0.73275, 37.74775], [-0.74185, 37.72553], [-0.74014, 37.70246], [-0.7265, 37.66522], [-0.74671, 37.68361], [-0.75449, 37.77439], [-0.74943, 37.77488], [-0.73275, 37.74775]]], [[[2.17727, 38.97593], [2.17878, 38.95613], [2.17386, 38.9294], [2.16537, 38.90703], [2.15007, 38.88338], [2.11875, 38.84305], [2.0809, 38.80128], [2.04198, 38.76701], [2.02079, 38.75362], [1.98625, 38.74243], [1.94305, 38.73622], [1.89516, 38.73506], [1.85998, 38.73968], [1.83494, 38.7525], [1.81158, 38.77275], [1.79455, 38.79489], [1.78862, 38.81432], [1.79323, 38.82893], [1.81255, 38.8546], [1.88225, 38.92098], [2.02964, 38.98982], [2.07547, 39.0055], [2.10161, 39.00686], [2.13083, 39.00277], [2.16783, 38.98855], [2.17727, 38.97593]]], [[[2.94043, 39.17192], [2.98057, 39.18555], [2.98535, 39.16618], [2.98229, 39.13919], [2.96215, 39.11607], [2.93088, 39.11819], [2.91363, 39.15196], [2.94043, 39.17192]]], [[[2.71038, 39.81839], [2.74741, 39.83161], [2.78485, 39.8567], [2.80323, 39.8616], [2.81325, 39.87257], [2.8436, 39.87258], [2.93329, 39.91448], [3.07569, 39.9361], [3.17945, 39.96876], [3.19313, 39.95511], [3.20134, 39.9605], [3.21418, 39.9551], [3.14088, 39.92809], [3.11549, 39.90877], [3.09693, 39.91352], [3.09474, 39.88121], [3.13022, 39.87641], [3.20679, 39.893], [3.20679, 39.88683], [3.19679, 39.88121], [3.19645, 39.86713], [3.18718, 39.85436], [3.13356, 39.83954], [3.12631, 39.83185], [3.12485, 39.8111], [3.13649, 39.78876], [3.16261, 39.76911], [3.19483, 39.75499], [3.22389, 39.7497], [3.29249, 39.7497], [3.30991, 39.75507], [3.34035, 39.77899], [3.3545, 39.78436], [3.38315, 39.77793], [3.43979, 39.75198], [3.47436, 39.74969], [3.46852, 39.73932], [3.47436, 39.71552], [3.46144, 39.70006], [3.46752, 39.68757], [3.45386, 39.6597], [3.4432, 39.64579], [3.4131, 39.63508], [3.40187, 39.62324], [3.39869, 39.60773], [3.406, 39.59199], [3.36541, 39.56306], [3.32325, 39.52387], [3.29176, 39.47578], [3.28247, 39.42013], [3.26881, 39.42756], [3.2526, 39.38618], [3.22103, 39.3599], [3.1294, 39.31574], [3.09099, 39.29007], [3.07911, 39.27689], [3.06081, 39.26908], [3.02931, 39.30463], [3.00133, 39.3177], [2.99138, 39.34728], [2.95883, 39.36323], [2.93816, 39.36437], [2.91261, 39.35868], [2.82576, 39.36358], [2.78664, 39.37593], [2.76174, 39.40022], [2.75123, 39.45478], [2.7366, 39.46211], [2.73953, 39.47829], [2.75489, 39.50263], [2.7435, 39.52338], [2.7151, 39.54352], [2.68165, 39.55866], [2.65528, 39.56472], [2.5691, 39.53152], [2.55568, 39.52005], [2.54492, 39.49299], [2.52039, 39.47301], [2.49269, 39.47025], [2.46902, 39.50589], [2.48064, 39.51622], [2.45395, 39.53742], [2.43816, 39.52523], [2.43117, 39.5277], [2.42595, 39.53742], [2.39186, 39.52376], [2.3821, 39.52925], [2.37371, 39.54719], [2.35565, 39.55867], [2.35077, 39.57648], [2.35769, 39.61188], [2.42909, 39.64654], [2.45045, 39.65034], [2.46827, 39.65937], [2.5176, 39.70013], [2.56967, 39.71308], [2.61769, 39.7497], [2.63137, 39.77012], [2.65187, 39.77013], [2.71038, 39.81839]]], [[[-9.21759, 43.11443], [-9.18981, 43.10232], [-9.16226, 43.11445], [-9.14123, 43.13487], [-9.10774, 43.14114], [-9.10774, 43.14851], [-9.14708, 43.1387], [-9.16331, 43.13977], [-9.16226, 43.14851], [-9.19421, 43.13655], [-9.20807, 43.13786], [-9.21758, 43.15534], [-9.17007, 43.18874], [-9.13793, 43.20151], [-9.10041, 43.18952], [-9.0524, 43.19636], [-9.02697, 43.21015], [-9.01153, 43.23874], [-9.00406, 43.23874], [-8.98575, 43.22687], [-8.95897, 43.22748], [-8.93252, 43.2353], [-8.91527, 43.24502], [-8.93639, 43.24409], [-8.94789, 43.24981], [-8.96312, 43.27228], [-8.988, 43.28302], [-8.93049, 43.29975], [-8.888, 43.32073], [-8.8566, 43.32689], [-8.84117, 43.33892], [-8.82999, 43.3412], [-8.81726, 43.33595], [-8.78555, 43.31244], [-8.76854, 43.30707], [-8.6931, 43.2934], [-8.63003, 43.31585], [-8.59252, 43.32419], [-8.55842, 43.31322], [-8.50597, 43.33153], [-8.48606, 43.35431], [-8.45572, 43.36335], [-8.44302, 43.3753], [-8.38858, 43.38584], [-8.37572, 43.36298], [-8.35359, 43.34862], [-8.34081, 43.35993], [-8.3399, 43.39273], [-8.33071, 43.40565], [-8.31062, 43.40313], [-8.26721, 43.38592], [-8.25056, 43.35488], [-8.21727, 43.32832], [-8.21019, 43.31322], [-8.20246, 43.32925], [-8.20961, 43.39069], [-8.20481, 43.39972], [-8.1754, 43.41633], [-8.19506, 43.42325], [-8.24714, 43.42309], [-8.26446, 43.42724], [-8.28873, 43.44623], [-8.30514, 43.45108], [-8.28649, 43.46198], [-8.17878, 43.47329], [-8.16698, 43.48457], [-8.16857, 43.49201], [-8.25731, 43.47773], [-8.24372, 43.48518], [-8.25731, 43.49201], [-8.26919, 43.47895], [-8.28897, 43.47297], [-8.3331, 43.47151], [-8.31663, 43.52288], [-8.30517, 43.51936], [-8.2921, 43.53295], [-8.30821, 43.54634], [-8.31264, 43.56712], [-8.26098, 43.56452], [-8.23225, 43.57551], [-8.08666, 43.65647], [-8.083, 43.64545], [-8.07462, 43.63964], [-8.05187, 43.64281], [-8.06554, 43.64281], [-8.06554, 43.64906], [-8.05187, 43.65648], [-8.07114, 43.66786], [-8.07395, 43.67853], [-8.05931, 43.70941], [-8.01098, 43.71174], [-7.98119, 43.71784], [-7.95295, 43.73013], [-7.90855, 43.76633], [-7.88086, 43.76324], [-7.86148, 43.73119], [-7.84652, 43.71796], [-7.84651, 43.71174], [-7.86758, 43.71796], [-7.87926, 43.70051], [-7.87378, 43.68448], [-7.8841, 43.67862], [-7.89489, 43.68448], [-7.90856, 43.67699], [-7.90856, 43.67015], [-7.85839, 43.6682], [-7.84923, 43.6756], [-7.86758, 43.69746], [-7.85603, 43.70344], [-7.84386, 43.7038], [-7.81916, 43.69746], [-7.82604, 43.71174], [-7.81229, 43.72285], [-7.77404, 43.74248], [-7.73404, 43.75007], [-7.71276, 43.76069], [-7.69571, 43.77489], [-7.68553, 43.79343], [-7.67131, 43.78286], [-7.66834, 43.77253], [-7.69563, 43.74592], [-7.69156, 43.72724], [-7.67516, 43.73164], [-7.67248, 43.74384], [-7.64103, 43.75266], [-7.6376, 43.73908], [-7.61303, 43.70429], [-7.61596, 43.68854], [-7.60717, 43.69111], [-7.58641, 43.71795], [-7.57429, 43.71455], [-7.55577, 43.7276], [-7.54141, 43.73162], [-7.49015, 43.72532], [-7.40762, 43.69123], [-7.36707, 43.68007], [-7.30411, 43.59858], [-7.25676, 43.58161], [-7.27107, 43.56863], [-7.27107, 43.56114], [-7.25772, 43.55667], [-7.23038, 43.56854], [-7.21579, 43.56867], [-7.15697, 43.55927], [-7.09585, 43.56098], [-7.07933, 43.56862], [-7.04407, 43.55927], [-7.03235, 43.553], [-7.03087, 43.53323], [-7.05362, 43.49653], [-7.04459, 43.47919], [-7.03832, 43.47919], [-7.02375, 43.52582], [-7.01036, 43.53323], [-7.00136, 43.55666], [-6.94423, 43.56594], [-6.77082, 43.56862], [-6.70372, 43.55756], [-6.64837, 43.57902], [-6.59737, 43.57513], [-6.51012, 43.54747], [-6.48852, 43.55508], [-6.46296, 43.55496], [-6.46909, 43.57537], [-6.41763, 43.56114], [-6.36612, 43.56862], [-6.31461, 43.56863], [-6.24999, 43.58405], [-6.23639, 43.5943], [-6.22277, 43.59588], [-6.17805, 43.57538], [-6.10041, 43.5692], [-6.08495, 43.57537], [-6.06916, 43.56969], [-6.0235, 43.58843], [-5.90738, 43.58845], [-5.90217, 43.59752], [-5.91306, 43.61286], [-5.90062, 43.62324], [-5.90736, 43.63682], [-5.87515, 43.63679], [-5.86194, 43.64567], [-5.8068, 43.57273], [-5.77969, 43.50498], [-5.77129, 43.43468], [-5.78347, 43.35938], [-5.77976, 43.35234], [-5.63525, 43.34935], [-5.38767, 43.32649], [-5.2976, 43.32128], [-5.28803, 43.32485], [-5.2676, 43.39483], [-5.25134, 43.42809], [-5.20067, 43.49538], [-5.17789, 43.48937], [-5.09133, 43.48621], [-5.06771, 43.48138], [-5.05704, 43.46861], [-5.04503, 43.4743], [-4.97517, 43.45877], [-4.94103, 43.47174], [-4.90762, 43.46064], [-4.83654, 43.44976], [-4.73493, 43.4171], [-4.50817, 43.40244], [-4.48168, 43.38361], [-4.4608, 43.3987], [-4.43253, 43.40261], [-4.4049, 43.39699], [-4.37926, 43.38361], [-4.36875, 43.39618], [-4.35936, 43.39967], [-4.31281, 43.39578], [-4.18859, 43.40538], [-4.16095, 43.42116], [-4.09795, 43.43556], [-4.02921, 43.43826], [-4.02089, 43.45038], [-4.01277, 43.45249], [-3.98143, 43.43826], [-3.97647, 43.44294], [-3.96101, 43.4451], [-3.97459, 43.45249], [-3.97459, 43.45876], [-3.94004, 43.47711], [-3.92272, 43.4826], [-3.90632, 43.47919], [-3.89379, 43.48488], [-3.88585, 43.47919], [-3.8568, 43.49237], [-3.82673, 43.497], [-3.79703, 43.49273], [-3.76917, 43.47919], [-3.81265, 43.46487], [-3.84431, 43.4451], [-3.82386, 43.43077], [-3.83153, 43.42906], [-3.83129, 43.42459], [-3.81119, 43.42548], [-3.7965, 43.43077], [-3.77228, 43.45249], [-3.74498, 43.43826], [-3.74303, 43.45136], [-3.75552, 43.47174], [-3.72887, 43.46552], [-3.72142, 43.47175], [-3.72886, 43.47919], [-3.71817, 43.48265], [-3.68838, 43.48424], [-3.65607, 43.50067], [-3.57969, 43.51819], [-3.55466, 43.51693], [-3.55626, 43.4997], [-3.53906, 43.49896], [-3.50536, 43.47919], [-3.43152, 43.46686], [-3.42863, 43.44685], [-3.44699, 43.4451], [-3.47004, 43.45417], [-3.478, 43.4429], [-3.5017, 43.43077], [-3.48182, 43.42805], [-3.46109, 43.41246], [-3.44701, 43.43075], [-3.43619, 43.41901], [-3.39249, 43.42458], [-3.33031, 43.41035], [-3.26896, 43.40411], [-3.21053, 43.38983], [-3.17691, 43.36624], [-3.1315, 43.35578], [-3.11238, 43.35407], [-3.08951, 43.36688], [-3.00817, 43.32091], [-3.02927, 43.37616], [-2.99913, 43.39448], [-2.93993, 43.4171], [-2.94667, 43.43077], [-2.93008, 43.43792], [-2.90549, 43.43987], [-2.807, 43.44168], [-2.76862, 43.45249], [-2.7556, 43.45012], [-2.71521, 43.4245], [-2.69494, 43.38862], [-2.69103, 43.36754], [-2.67927, 43.38984], [-2.67779, 43.40619], [-2.6612, 43.41192], [-2.4838, 43.37072], [-2.46443, 43.34923], [-2.36742, 43.3157], [-2.32706, 43.30683], [-2.28466, 43.30349], [-2.19628, 43.31475], [-2.17447, 43.29743], [-2.16222, 43.29426], [-2.14485, 43.30108], [-2.1278, 43.28742], [-2.09886, 43.30413], [-1.99462, 43.32844], [-1.96035, 43.34307], [-1.94537, 43.34249], [-1.91869, 43.32099], [-1.90465, 43.32844], [-1.92568, 43.34263], [-1.88492, 43.35602], [-1.84739, 43.38091], [-1.81127, 43.39507], [-1.7755, 43.37617], [-1.76796, 43.3836], [-1.74962, 43.38921], [-1.69935, 43.39516], [-1.6858, 43.3813], [-1.68222, 43.30486], [-1.64504, 43.29237], [-1.64798, 43.28154], [-1.64633, 43.27279], [-1.63904, 43.25568], [-1.63408, 43.25111], [-1.62189, 43.247], [-1.59848, 43.247], [-1.58757, 43.2516], [-1.57398, 43.27744], [-1.55905, 43.28408], [-1.5392, 43.28356], [-1.50809, 43.27676], [-1.46639, 43.26077], [-1.43223, 43.26501], [-1.4035, 43.24333], [-1.39968, 43.20674], [-1.41053, 43.1669], [-1.42577, 43.13527], [-1.48784, 43.08182], [-1.47528, 43.06014], [-1.45714, 43.04507], [-1.43502, 43.03572], [-1.41053, 43.03091], [-1.38314, 43.02921], [-1.36614, 43.03332], [-1.35761, 43.04683], [-1.35518, 43.07303], [-1.34826, 43.09308], [-1.33105, 43.10734], [-1.30862, 43.11357], [-1.28604, 43.10918], [-1.30697, 43.09598], [-1.31508, 43.08288], [-1.31059, 43.06949], [-1.29369, 43.0552], [-1.27488, 43.04683], [-1.2169, 43.03926], [-1.18253, 43.02528], [-1.14993, 43.00572], [-1.11241, 43.00825], [-1.0797, 42.9934], [-1.02849, 42.9867], [-1.01629, 42.97624], [-0.98146, 42.95704], [-0.94322, 42.9479], [-0.86353, 42.94306], [-0.78643, 42.95327], [-0.75967, 42.9465], [-0.74091, 42.9109], [-0.74587, 42.89392], [-0.74029, 42.8848], [-0.73011, 42.87751], [-0.70039, 42.87643], [-0.6483, 42.84979], [-0.60949, 42.81144], [-0.61017, 42.79909], [-0.58293, 42.79584], [-0.57714, 42.78979], [-0.57869, 42.77734], [-0.56903, 42.77264], [-0.53565, 42.78421], [-0.53389, 42.80801], [-0.50841, 42.80749], [-0.45446, 42.78891], [-0.42392, 42.79067], [-0.35168, 42.82925], [-0.343, 42.82274], [-0.33517, 42.82496], [-0.32279, 42.8425], [-0.30742, 42.83183], [-0.24703, 42.80483], [-0.23515, 42.78623], [-0.20835, 42.78387], [-0.16141, 42.79535], [-0.16363, 42.77798], [-0.15779, 42.7607], [-0.14572, 42.74589], [-0.12311, 42.73036], [-0.11903, 42.71685], [-0.09575, 42.71068], [-0.07841, 42.69667], [-0.03893, 42.68515], [-0.00431, 42.68752], [0.07284, 42.70848], [0.13418, 42.71522], [0.15294, 42.7246], [0.16917, 42.72646], [0.22239, 42.7162], [0.23836, 42.71037], [0.25981, 42.68238], [0.27539, 42.66869], [0.29024, 42.67029], [0.31831, 42.69954], [0.33603, 42.71269], [0.35417, 42.7175], [0.38182, 42.70011], [0.3844, 42.68858], [0.38928, 42.68515], [0.40928, 42.68225], [0.46693, 42.69044], [0.48351, 42.6853], [0.60816, 42.68799], [0.64361, 42.68448], [0.65673, 42.68799], [0.66542, 42.69866], [0.66645, 42.71476], [0.65963, 42.7299], [0.64764, 42.74104], [0.63348, 42.74478], [0.6433, 42.75907], [0.65074, 42.76339], [0.63968, 42.77468], [0.65374, 42.80269], [0.65157, 42.82405], [0.65632, 42.83842], [0.67937, 42.84511], [0.72433, 42.84529], [0.77631, 42.83245], [0.8129, 42.83162], [0.8561, 42.81276], [0.88577, 42.80424], [0.91036, 42.78767], [0.92111, 42.78437], [0.95026, 42.79612], [0.98292, 42.78036], [1.06818, 42.77612], [1.08906, 42.77132], [1.10673, 42.75961], [1.13433, 42.71597], [1.15149, 42.70672], [1.16254, 42.70569], [1.19593, 42.71365], [1.31912, 42.71336], [1.34258, 42.70866], [1.51168, 42.78583], [1.53174, 42.75864], [1.70858, 42.78636], [1.74582, 42.78038], [1.76411, 42.76692], [1.81509, 42.68923], [1.85535, 42.51046], [1.86149, 42.50405], [1.8721, 42.50366], [2.14645, 42.58952], [2.17042, 42.59249], [2.19602, 42.58722], [2.48939, 42.46688], [2.56681, 42.51851], [2.55073, 42.66114], [2.55215, 42.80176], [2.64505, 42.84932], [2.73386, 42.87602], [2.82867, 42.88945], [2.93602, 42.8884], [3.05123, 42.92864], [3.05607, 42.90713], [3.04046, 42.79019], [3.04329, 42.72459], [3.03761, 42.68321], [3.05185, 42.55488], [3.06609, 42.54206], [3.13737, 42.52492], [3.14591, 42.51496], [3.14308, 42.49213], [3.17586, 42.45648], [3.18151, 42.43532], [3.17018, 42.39659], [3.17449, 42.3638], [3.18735, 42.34951], [3.20419, 42.33959], [3.24984, 42.3432], [3.26303, 42.32921], [3.28061, 42.33685], [3.29371, 42.33498], [3.3177, 42.32298], [3.29404, 42.28803], [3.28702, 42.26293], [3.26303, 42.23987], [3.24716, 42.24571], [3.21014, 42.23974], [3.17873, 42.24971], [3.17018, 42.25967], [3.15162, 42.25682], [3.1303, 42.23973], [3.11883, 42.21833], [3.11647, 42.15843], [3.12249, 42.14049], [3.1386, 42.12763], [3.1731, 42.112], [3.21448, 42.06833], [3.21299, 42.05599], [3.19986, 42.04619], [3.1959, 42.03312], [3.20786, 41.99002], [3.23567, 41.96552], [3.23217, 41.94603], [3.1949, 41.8883], [3.15016, 41.84536], [3.11683, 41.84757], [3.07863, 41.82662], [3.06905, 41.79908], [3.04034, 41.78689], [2.95094, 41.73428], [2.93298, 41.71247], [2.84018, 41.69465], [2.82016, 41.68195], [2.81315, 41.67032], [2.792, 41.66901], [2.77849, 41.64559], [2.44947, 41.53522], [2.42896, 41.51896], [2.37134, 41.48921], [2.29672, 41.46532], [2.26735, 41.44864], [2.24041, 41.42097], [2.16325, 41.32665], [2.13054, 41.30366], [2.06031, 41.27462], [2.0197, 41.26586], [1.95135, 41.26069], [1.88412, 41.2475], [1.85401, 41.236], [1.81983, 41.23713], [1.62436, 41.19218], [1.53924, 41.18745], [1.2885, 41.11639], [1.21778, 41.10468], [1.18378, 41.06277], [1.17294, 41.05867], [1.14169, 41.07172], [1.09767, 41.07087], [1.05568, 41.06489], [1.01743, 41.05179], [0.99041, 41.0397], [0.87745, 40.95478], [0.8225, 40.89939], [0.7142, 40.81521], [0.69484, 40.786], [0.75017, 40.76557], [0.76238, 40.76606], [0.76726, 40.77102], [0.75021, 40.78599], [0.76693, 40.78501], [0.78072, 40.77935], [0.84181, 40.73212], [0.87369, 40.72792], [0.87239, 40.7071], [0.85789, 40.68605], [0.84831, 40.67537], [0.78403, 40.66096], [0.75636, 40.64224], [0.70703, 40.58341], [0.6768, 40.56509], [0.6159, 40.55346], [0.59248, 40.58209], [0.64063, 40.58685], [0.66318, 40.57473], [0.69622, 40.59036], [0.73268, 40.63373], [0.68222, 40.63422], [0.59978, 40.61371], [0.56349, 40.59003], [0.54851, 40.57233], [0.5013, 40.48421], [0.45265, 40.43407], [0.44612, 40.40844], [0.42026, 40.38825], [0.35058, 40.28491], [0.29884, 40.24677], [0.26473, 40.20979], [0.20525, 40.17154], [0.14453, 40.07885], [0.11703, 40.05635], [0.06617, 40.03193], [0.0405, 40.00288], [-0.00315, 39.93169], [-0.02868, 39.9018], [-0.0913, 39.84793], [-0.19449, 39.71544], [-0.20894, 39.66409], [-0.25744, 39.61624], [-0.2815, 39.56937], [-0.32335, 39.51622], [-0.33059, 39.48041], [-0.32747, 39.43068], [-0.30134, 39.32201], [-0.21551, 39.18184], [-0.24218, 39.16628], [-0.2267, 39.11178], [-0.21003, 39.07869], [-0.15803, 39.00214], [-0.10595, 38.93651], [-0.00975, 38.8697], [0.06308, 38.86078], [0.11069, 38.84999], [0.15397, 38.83099], [0.18529, 38.80353], [0.17091, 38.79609], [0.21787, 38.76813], [0.2277, 38.7702], [0.23453, 38.74226], [0.2277, 38.73458], [0.19207, 38.73041], [0.17677, 38.72403], [0.16261, 38.71353], [0.14502, 38.68636], [0.11858, 38.68281], [0.08302, 38.66096], [0.07313, 38.64521], [0.08056, 38.63102], [0.06044, 38.63483], [0.01526, 38.62478], [-0.01476, 38.62442], [-0.04296, 38.61172], [-0.05476, 38.59528], [-0.05364, 38.56696], [-0.05995, 38.55294], [-0.07544, 38.53996], [-0.0902, 38.53536], [-0.13174, 38.53535], [-0.17699, 38.52725], [-0.20214, 38.5196], [-0.23425, 38.50156], [-0.32942, 38.47004], [-0.34455, 38.46162], [-0.35083, 38.45003], [-0.39517, 38.41376], [-0.40608, 38.39887], [-0.41369, 38.36482], [-0.46019, 38.36005], [-0.47057, 38.35187], [-0.47437, 38.33675], [-0.50984, 38.33836], [-0.51879, 38.29865], [-0.50403, 38.20722], [-0.51572, 38.19545], [-0.53287, 38.19218], [-0.56884, 38.1942], [-0.59138, 38.18964], [-0.62369, 38.16242], [-0.64501, 38.11603], [-0.65454, 37.98933], [-0.66341, 37.9803], [-0.68993, 37.97215], [-0.71841, 37.94302], [-0.75862, 37.86335], [-0.7561, 37.80606], [-0.76074, 37.79615], [-0.78799, 37.82282], [-0.81242, 37.77009], [-0.82556, 37.76139], [-0.84781, 37.75609], [-0.85611, 37.7425], [-0.85261, 37.72378], [-0.80993, 37.6669], [-0.75479, 37.6413], [-0.73485, 37.63935], [-0.72646, 37.65151], [-0.70801, 37.643], [-0.70126, 37.63133], [-0.70533, 37.61954], [-0.73665, 37.59945], [-0.75451, 37.60432], [-0.83642, 37.57641], [-0.88671, 37.57429], [-0.92516, 37.55591], [-0.9735, 37.5764], [-0.98996, 37.57893], [-1.00642, 37.58145], [-1.08776, 37.58088], [-1.10342, 37.5764], [-1.11998, 37.55903], [-1.10579, 37.53215], [-1.16705, 37.54376], [-1.17858, 37.56388], [-1.2427, 37.5792], [-1.25767, 37.56701], [-1.26168, 37.55767], [-1.32374, 37.56199], [-1.36917, 37.54137], [-1.41394, 37.50641], [-1.45556, 37.4927], [-1.4709, 37.48224], [-1.48836, 37.43322], [-1.49672, 37.42794], [-1.515, 37.43321], [-1.54374, 37.41499], [-1.61872, 37.39228], [-1.64162, 37.38104], [-1.65285, 37.36127], [-1.67089, 37.36331], [-1.68017, 37.35444], [-1.69879, 37.3167], [-1.72836, 37.28258], [-1.78722, 37.23522], [-1.81273, 37.20706], [-1.83035, 37.16637], [-1.85533, 37.07638], [-1.88501, 37.01549], [-1.90612, 36.98762], [-1.90035, 36.94119], [-1.91261, 36.93362], [-1.9414, 36.92988], [-1.98892, 36.9005], [-2.0028, 36.88703], [-2.01306, 36.84578], [-2.05687, 36.81009], [-2.07117, 36.77534], [-2.10082, 36.76516], [-2.11108, 36.74613], [-2.14642, 36.73002], [-2.16613, 36.72758], [-2.20364, 36.73714], [-2.28279, 36.81009], [-2.31835, 36.82791], [-2.36168, 36.83678], [-2.43309, 36.81628], [-2.48143, 36.82994], [-2.56078, 36.81879], [-2.57689, 36.81131], [-2.61738, 36.72825], [-2.65889, 36.69482], [-2.68436, 36.68599], [-2.71825, 36.68205], [-2.73619, 36.68741], [-2.75666, 36.68038], [-2.82099, 36.71389], [-2.84825, 36.70023], [-2.85874, 36.70495], [-2.8861, 36.7344], [-2.91397, 36.75031], [-2.93326, 36.75165], [-2.98772, 36.73712], [-3.07645, 36.74976], [-3.15671, 36.74453], [-3.2279, 36.75483], [-3.32958, 36.7449], [-3.41542, 36.69552], [-3.4776, 36.69611], [-3.51596, 36.72105], [-3.54983, 36.71238], [-3.58639, 36.72659], [-3.6011, 36.74255], [-3.66567, 36.73937], [-3.67983, 36.72882], [-3.73128, 36.72411], [-3.83854, 36.75197], [-3.96096, 36.7268], [-4.05671, 36.74799], [-4.07996, 36.74356], [-4.11018, 36.72574], [-4.22472, 36.7124], [-4.40319, 36.72386], [-4.42032, 36.71988], [-4.43326, 36.71068], [-4.49112, 36.63666], [-4.49537, 36.62056], [-4.52483, 36.58073], [-4.5878, 36.57382], [-4.61503, 36.53056], [-4.65925, 36.50764], [-4.723, 36.49299], [-4.90266, 36.50654], [-4.99417, 36.45711], [-5.06249, 36.45222], [-5.10901, 36.42894], [-5.15762, 36.42194], [-5.18655, 36.4112], [-5.22712, 36.35794], [-5.25366, 36.29711], [-5.27385, 36.28269], [-5.2906, 36.27741], [-5.28532, 36.26081], [-5.33405, 36.18781], [-5.34204, 36.11052], [-5.35024, 36.11929], [-5.36661, 36.16315], [-5.40608, 36.17923], [-5.42544, 36.17976], [-5.44233, 36.14879], [-5.4349, 36.12153], [-5.43989, 36.1142], [-5.43716, 36.0987], [-5.42871, 36.0808], [-5.43842, 36.06302], [-5.44576, 36.05736], [-5.61176, 36.00647], [-5.62971, 36.03677], [-5.66835, 36.05446], [-5.73238, 36.27193], [-5.76742, 36.33055], [-5.78998, 36.39878], [-5.7957, 36.46882], [-5.79209, 36.50451], [-5.77237, 36.57289], [-5.75108, 36.61439], [-5.73889, 36.57279], [-5.73259, 36.5141], [-5.66977, 36.48433], [-5.64843, 36.49153], [-5.63188, 36.5089], [-5.58676, 36.57739], [-5.58973, 36.58489], [-5.71271, 36.67478], [-5.71516, 36.68797], [-5.6962, 36.70208], [-5.69352, 36.70958], [-5.70214, 36.72386], [-5.72979, 36.74752], [-5.77631, 36.77721], [-5.78456, 36.77849], [-5.81949, 36.73576], [-5.82, 36.72782], [-5.77939, 36.67437], [-5.75744, 36.63091], [-5.84112, 36.59024], [-5.92394, 36.56724], [-6.01068, 36.55764], [-6.09807, 36.56181], [-6.18331, 36.57974], [-6.40563, 36.67239], [-6.43788, 36.7333], [-6.43333, 36.7512], [-6.41453, 36.76764], [-6.35888, 36.78583], [-6.34561, 36.79499], [-6.33519, 36.81826], [-6.34374, 36.85993], [-6.33821, 36.88373], [-6.30435, 36.90721], [-6.22326, 36.90233], [-6.19481, 36.93212], [-6.23965, 36.9134], [-6.26505, 36.91291], [-6.28356, 36.92593], [-6.32592, 36.91267], [-6.34472, 36.90127], [-6.35245, 36.88028], [-6.34667, 36.81989], [-6.35245, 36.80858], [-6.388, 36.80818], [-6.41624, 36.8378], [-6.44864, 36.9042], [-6.4711, 36.93561], [-6.49958, 36.95966], [-6.74486, 37.10139], [-6.81175, 37.12373], [-6.85302, 37.15111], [-6.89288, 37.16658], [-6.91088, 37.18895], [-6.91762, 37.21507], [-6.85269, 37.29523], [-6.90347, 37.24958], [-6.93091, 37.23401], [-6.96255, 37.23383], [-6.96255, 37.22761], [-6.93008, 37.18317], [-6.92847, 37.17236], [-6.94164, 37.1711], [-7.02937, 37.20551], [-7.10104, 37.22425], [-7.12735, 37.21475], [-7.08558, 37.2065], [-7.32787, 37.20156], [-7.36291, 37.18172], [-7.38142, 37.17993], [-7.41442, 37.19282], [-7.40022, 37.17853], [-7.40763, 37.16488], [-7.41876, 37.17177], [-7.42731, 37.18554], [-7.41796, 37.20322], [-7.43424, 37.25933], [-7.42758, 37.27452], [-7.43745, 37.30734], [-7.44499, 37.38676], [-7.46225, 37.41787], [-7.46003, 37.42914], [-7.46887, 37.47557], [-7.47595, 37.49425], [-7.50633, 37.51812], [-7.51543, 37.52934], [-7.52367, 37.55567], [-7.52912, 37.5567], [-7.52969, 37.56717], [-7.51584, 37.58094], [-7.51253, 37.59037], [-7.51434, 37.6014], [-7.50489, 37.60639], [-7.47161, 37.6369], [-7.18661, 37.57668], [-7.12337, 37.58414], [-7.02374, 37.62852], [-7.01268, 37.66536], [-6.84167, 37.67799], [-6.82689, 37.69308], [-6.81254, 37.76693], [-6.82332, 37.79895], [-6.8588, 37.83044], [-7.02398, 38.02256], [-7.01577, 38.04683], [-7.00636, 38.05933], [-6.99763, 38.08961], [-6.97897, 38.11995], [-6.9475, 38.19664], [-6.9642, 38.20615], [-6.9921, 38.20428], [-7.01815, 38.19803], [-7.02641, 38.19963], [-7.03871, 38.18622], [-7.06305, 38.17754], [-7.10351, 38.17359], [-7.12687, 38.1909], [-7.16718, 38.27208], [-7.19633, 38.29216], [-7.21136, 38.31753], [-7.31715, 38.42458], [-7.35921, 38.44636], [-7.33518, 38.46944], [-7.3341, 38.48101], [-7.34562, 38.49414], [-7.3358, 38.50587], [-7.31771, 38.55625], [-7.27586, 38.60382], [-7.27043, 38.6177], [-7.27353, 38.62539], [-7.28604, 38.63191], [-7.29095, 38.63816], [-7.29296, 38.65627], [-7.28407, 38.71324], [-7.27043, 38.73751], [-7.21152, 38.77536], [-7.19643, 38.77999], [-7.17974, 38.79089], [-7.1662, 38.80342], [-7.16062, 38.8129], [-7.15101, 38.81928], [-7.10486, 38.82719], [-7.08868, 38.83337], [-7.05608, 38.85515], [-7.05726, 38.86944], [-7.0522, 38.88499], [-7.06605, 38.9046], [-7.0445, 38.91863], [-7.02212, 38.94287], [-6.97329, 39.01395], [-6.97489, 39.02302], [-6.98631, 39.03007], [-6.97939, 39.04718], [-6.98569, 39.06676], [-6.9997, 39.0847], [-7.03882, 39.10914], [-7.06491, 39.11477], [-7.09127, 39.11245], [-7.12729, 39.09748], [-7.15721, 39.10544], [-7.16749, 39.11348], [-7.16889, 39.12185], [-7.15793, 39.14139], [-7.15581, 39.15151], [-7.16806, 39.17063], [-7.21932, 39.18484], [-7.24413, 39.19564], [-7.25808, 39.2113], [-7.26578, 39.23135], [-7.26433, 39.25233], [-7.25085, 39.27063], [-7.30045, 39.31791], [-7.31926, 39.32954], [-7.32665, 39.34132], [-7.33141, 39.36261], [-7.33193, 39.38473], [-7.31885, 39.41325], [-7.31363, 39.4361], [-7.31353, 39.45744], [-7.32092, 39.46741], [-7.36293, 39.47609], [-7.38417, 39.484], [-7.39941, 39.49366], [-7.40892, 39.51557], [-7.41755, 39.5242], [-7.45135, 39.53785], [-7.46809, 39.55025], [-7.49786, 39.58105], [-7.51584, 39.59376], [-7.55729, 39.6798], [-7.34143, 39.67184], [-7.29275, 39.68331], [-7.25286, 39.68233], [-7.23575, 39.68652], [-7.21405, 39.67618], [-7.18289, 39.6751], [-7.03577, 39.68926], [-7.02114, 39.69401], [-7.00962, 39.71546], [-7.01334, 39.73892], [-6.99303, 39.77421], [-7.00027, 39.80253], [-6.99303, 39.81607], [-6.98523, 39.82114], [-6.95283, 39.83287], [-6.92766, 39.86191], [-6.92177, 39.89715], [-6.92523, 39.91793], [-6.90952, 39.93198], [-6.89976, 39.96562], [-6.90162, 39.97648], [-6.89691, 39.98712], [-6.8797, 40.00919], [-6.91991, 40.06489], [-6.95572, 40.10293], [-6.97717, 40.11342], [-7.01577, 40.11905], [-7.02765, 40.13264], [-7.03484, 40.16675], [-7.04311, 40.18137], [-7.03458, 40.19305], [-7.02476, 40.2162], [-7.01577, 40.2255], [-6.95469, 40.25336], [-6.89645, 40.25548], [-6.87805, 40.26524], [-6.8702, 40.29553], [-6.81196, 40.33232], [-6.79444, 40.3564], [-6.82808, 40.38059], [-6.85128, 40.40952], [-6.85712, 40.44213], [-6.83867, 40.47722], [-6.81532, 40.50254], [-6.81252, 40.51463], [-6.81806, 40.53189], [-6.84839, 40.56476], [-6.85046, 40.58223], [-7.14298, 40.63465], [-7.22185, 41.02109], [-7.3755, 41.27315], [-7.26333, 41.26428], [-7.24131, 41.26761], [-7.2265, 41.27976], [-7.11795, 41.446], [-7.03709, 41.43004], [-7.01929, 41.43025], [-6.868, 41.49296], [-6.82487, 41.55397], [-6.55528, 41.6749], [-6.56308, 41.71304], [-6.5774, 41.73973], [-6.56014, 41.76688], [-6.53575, 41.84858], [-6.52422, 41.86742], [-6.56789, 41.87587], [-6.57579, 41.8829], [-6.56763, 41.92607], [-6.57166, 41.94261], [-6.58515, 41.95465], [-6.60949, 41.96232], [-6.62282, 41.94095], [-6.65677, 41.93307], [-6.72798, 41.93085], [-6.7579, 41.93757], [-6.79439, 41.97971], [-6.82493, 41.98377], [-6.83123, 41.95395], [-6.85495, 41.94294], [-6.91712, 41.9391], [-6.94513, 41.94336], [-6.96952, 41.9577], [-6.99236, 41.96638], [-7.01577, 41.95367], [-7.05127, 41.94201], [-7.08274, 41.95279], [-7.11318, 41.97243], [-7.14537, 41.98749], [-7.19641, 42.22251], [-7.22186, 42.24183], [-7.27181, 42.25841], [-7.36031, 42.26203], [-7.48894, 42.31167], [-7.77693, 42.32185], [-7.84847, 42.35048], [-7.88716, 42.35599], [-7.90419, 42.35233], [-7.91621, 42.34329], [-7.95721, 42.26535], [-8.2134, 42.14402], [-8.22236, 42.15363], [-8.25233, 42.13758], [-8.27068, 42.132], [-8.29538, 42.13009], [-8.32995, 42.10844], [-8.34675, 42.10169], [-8.50121, 42.08309], [-8.52002, 42.07772], [-8.55443, 42.06007], [-8.5728, 42.05441], [-8.62689, 42.05103], [-8.64389, 42.04149], [-8.65257, 42.03144], [-8.67081, 41.99982], [-8.69127, 41.98961], [-8.71701, 41.98377], [-8.7508, 41.96898], [-8.76195, 41.95258], [-8.78958, 41.92935], [-8.88349, 41.95408], [-8.89857, 42.10152], [-8.89548, 42.11908], [-8.88459, 42.12603], [-8.82653, 42.13052], [-8.81908, 42.13972], [-8.82372, 42.14761], [-8.84275, 42.15445], [-8.84698, 42.16083], [-8.81599, 42.17451], [-8.80576, 42.19749], [-8.79064, 42.20454], [-8.77177, 42.22235], [-8.70189, 42.25853], [-8.6699, 42.2809], [-8.63174, 42.29682], [-8.62165, 42.31021], [-8.62165, 42.34081], [-8.62645, 42.34833], [-8.64989, 42.3356], [-8.67481, 42.29903], [-8.77392, 42.26899], [-8.78499, 42.26009], [-8.8483, 42.26097], [-8.86748, 42.25643], [-8.85342, 42.29108], [-8.85325, 42.30483], [-8.84697, 42.30481], [-8.833, 42.28913], [-8.82722, 42.2967], [-8.8307, 42.34162], [-8.81286, 42.34637], [-8.77693, 42.34016], [-8.77196, 42.34272], [-8.76462, 42.35569], [-8.7266, 42.38893], [-8.66251, 42.42691], [-8.65526, 42.44135], [-8.66438, 42.43797], [-8.69449, 42.43964], [-8.7579, 42.40716], [-8.8107, 42.40072], [-8.84325, 42.40368], [-8.86749, 42.41471], [-8.88801, 42.45563], [-8.9426, 42.46931], [-8.93504, 42.47906], [-8.91696, 42.48751], [-8.88126, 42.49656], [-8.86902, 42.49338], [-8.86084, 42.48501], [-8.86118, 42.47556], [-8.87434, 42.46931], [-8.85155, 42.46076], [-8.82653, 42.46186], [-8.82505, 42.49494], [-8.81286, 42.50275], [-8.82517, 42.53742], [-8.82297, 42.56952], [-8.81382, 42.58144], [-8.7884, 42.59219], [-8.7755, 42.60472], [-8.73876, 42.66608], [-8.73095, 42.68842], [-8.73717, 42.68842], [-8.7539, 42.65689], [-8.76732, 42.64517], [-8.78498, 42.64058], [-8.80381, 42.64595], [-8.82624, 42.67414], [-8.83951, 42.68244], [-8.8546, 42.66157], [-8.857, 42.64912], [-8.84701, 42.64057], [-8.86877, 42.61751], [-8.88052, 42.61181], [-8.89461, 42.61997], [-8.88947, 42.6306], [-8.93639, 42.60643], [-8.92225, 42.5937], [-8.934, 42.58683], [-8.96988, 42.57917], [-8.9808, 42.55122], [-9.01155, 42.53072], [-9.02634, 42.54312], [-9.03336, 42.57811], [-9.05581, 42.5854], [-9.07086, 42.59614], [-9.06561, 42.62055], [-9.03881, 42.66108], [-9.03013, 42.7077], [-9.00625, 42.73382], [-8.96312, 42.75129], [-8.92223, 42.78811], [-8.89826, 42.7923], [-8.88492, 42.81501], [-8.88769, 42.83112], [-8.90844, 42.83946], [-8.9126, 42.8166], [-8.92809, 42.80252], [-8.95104, 42.79512], [-8.97737, 42.79231], [-9.02819, 42.79788], [-9.04894, 42.79475], [-9.04566, 42.77803], [-9.06844, 42.7599], [-9.08129, 42.75484], [-9.10024, 42.75753], [-9.11342, 42.76607], [-9.13498, 42.81276], [-9.11319, 42.81635], [-9.10025, 42.83328], [-9.10839, 42.84484], [-9.14121, 42.85746], [-9.14866, 42.88447], [-9.13752, 42.89606], [-9.13451, 42.91755], [-9.16787, 42.92683], [-9.18346, 42.94526], [-9.19587, 42.94933], [-9.19001, 42.9324], [-9.1958, 42.92659], [-9.21006, 42.92574], [-9.21434, 42.93903], [-9.22423, 42.94021], [-9.23558, 42.93488], [-9.2517, 42.92023], [-9.26843, 42.89132], [-9.29198, 42.92857], [-9.25097, 43.01679], [-9.27211, 43.03128], [-9.27951, 43.055], [-9.2711, 43.06048], [-9.25792, 43.0609], [-9.2457, 43.08799], [-9.22232, 43.10273], [-9.21759, 43.11443]]], [[[4.10506, 40.0794], [4.10784, 40.06761], [4.13907, 40.04592], [4.13543, 40.02822], [4.14226, 40.02481], [4.16578, 40.04592], [4.16384, 40.06057], [4.1705, 40.06459], [4.17651, 40.05923], [4.17262, 40.04592], [4.17864, 40.03884], [4.20671, 40.0248], [4.22722, 40.00491], [4.25456, 39.99746], [4.26489, 39.98639], [4.27335, 39.96995], [4.27237, 39.95534], [4.25457, 39.94969], [4.27011, 39.94375], [4.29801, 39.94195], [4.3073, 39.91055], [4.33707, 39.86718], [4.33034, 39.86719], [4.31975, 39.87922], [4.30291, 39.8876], [4.30005, 39.82177], [4.24814, 39.81649], [4.17686, 39.84349], [4.01507, 39.92577], [3.98137, 39.93606], [3.94134, 39.93675], [3.86931, 39.92553], [3.83093, 39.93599], [3.83914, 39.97557], [3.85052, 39.98387], [3.81293, 40.00121], [3.80341, 40.01317], [3.80951, 40.03538], [3.82215, 40.04768], [3.89153, 40.05954], [3.91546, 40.05199], [4.01147, 40.05952], [4.05201, 40.05817], [4.07757, 40.06428], [4.10506, 40.0794]]], [[[4.87108, 40.16466], [4.87977, 40.14091], [4.87963, 40.12962], [4.86702, 40.10893], [4.84403, 40.08694], [4.81763, 40.07027], [4.80414, 40.06553], [4.7905, 40.06502], [4.76746, 40.07076], [4.74039, 40.08236], [4.6321, 40.14356], [4.5865, 40.16079], [4.5432, 40.16188], [4.42937, 40.14627], [4.38931, 40.14773], [4.37601, 40.15376], [4.3537, 40.17317], [4.33753, 40.19853], [4.33266, 40.22063], [4.33656, 40.23254], [4.35952, 40.25045], [4.39829, 40.26732], [4.46124, 40.2862], [4.52965, 40.29703], [4.70757, 40.30636], [4.78867, 40.25258], [4.82992, 40.21937], [4.8551, 40.18964], [4.87108, 40.16466]]], [[[-8.7508, 41.96897], [-8.75086, 41.92394], [-8.76985, 41.92596], [-8.76277, 41.93195], [-8.7508, 41.96897]]], [[[6.46763, 47.22737], [6.48814, 47.25542], [6.51492, 47.31412], [6.52661, 47.32594], [6.86664, 47.35417], [6.8716, 47.36696], [6.884, 47.38259], [6.89878, 47.39571], [6.92452, 47.406], [6.92607, 47.42486], [6.95232, 47.42884], [6.98343, 47.4438], [6.99097, 47.45222], [6.97578, 47.47796], [6.9733, 47.48909], [7.00978, 47.49925], [6.97618, 47.728], [7.00816, 47.74505], [7.03186, 47.75176], [7.18851, 47.77391], [7.52593, 47.78316], [7.52862, 47.79703], [7.54288, 47.82943], [7.562, 47.83923], [7.56417, 47.85041], [7.55786, 47.87853], [7.57895, 47.90633], [7.57957, 47.92705], [7.58494, 47.94041], [7.61161, 47.9594], [7.62112, 47.97144], [7.61894, 48.00265], [7.57574, 48.05371], [7.57264, 48.09497], [7.57895, 48.11448], [7.58567, 48.12972], [7.60479, 48.15257], [7.60675, 48.16698], [7.61336, 48.1792], [7.67662, 48.2384], [7.68716, 48.25292], [7.70245, 48.31119], [7.73697, 48.32666], [7.75072, 48.34137], [7.75196, 48.35534], [7.73718, 48.39348], [7.73832, 48.40661], [7.75072, 48.44441], [7.76922, 48.47007], [7.77129, 48.48911], [7.77646, 48.49818], [7.81345, 48.51947], [7.81346, 48.52634], [7.80167, 48.54758], [7.80178, 48.58236], [7.81025, 48.61502], [7.85242, 48.65868], [7.88063, 48.66773], [7.89593, 48.67651], [7.95918, 48.72137], [7.96363, 48.72928], [7.96487, 48.74834], [7.97014, 48.75728], [8.01727, 48.76183], [8.02295, 48.76509], [8.02729, 48.78002], [8.03877, 48.79077], [8.04755, 48.79103], [8.09034, 48.80751], [8.10274, 48.82131], [8.14811, 48.90373], [8.17932, 48.9427], [8.2003, 48.95856], [8.18873, 48.96575], [8.09044, 48.97918], [7.9319, 49.03484], [7.85686, 49.03225], [7.77366, 49.04812], [7.76865, 49.28767], [7.77841, 49.32134], [7.86574, 49.55635], [7.94427, 49.79891], [8.00008, 50.0492], [8.01453, 50.17755], [8.01613, 50.29601], [8.00311, 50.41298], [7.97001, 50.53552], [7.91802, 50.65724], [7.84972, 50.77727], [7.76525, 50.89826], [7.67275, 51.01213], [7.5733, 51.12139], [7.46469, 51.2305], [7.07004, 51.59538], [6.95048, 51.71333], [6.74375, 51.90833], [6.76701, 51.92551], [6.78985, 51.95114], [6.81073, 51.96058], [6.80918, 51.97954], [6.77817, 52.00127], [6.67502, 52.03481], [6.67296, 52.05005], [6.67988, 52.06047], [6.7114, 52.06729], [6.7329, 52.09199], [6.74985, 52.10287], [6.76587, 52.1084], [6.83067, 52.11289], [6.84328, 52.12], [6.8654, 52.1478], [6.88483, 52.16033], [6.92772, 52.17191], [6.94767, 52.18281], [6.98188, 52.214], [7.02632, 52.23064], [7.02911, 52.23578], [7.02074, 52.24526], [7.01185, 52.26663], [7.01247, 52.28495], [7.03976, 52.32862], [7.04823, 52.36507], [7.03418, 52.39078], [6.9733, 52.45137], [6.95149, 52.43747], [6.90023, 52.43192], [6.87201, 52.43473], [6.82034, 52.44683], [6.74117, 52.45367], [6.71481, 52.46155], [6.69507, 52.47561], [6.68898, 52.49052], [6.68401, 52.52599], [6.67172, 52.54168], [6.68825, 52.54258], [6.74375, 52.55971], [6.70396, 52.58307], [6.70365, 52.59139], [6.71016, 52.60865], [6.70179, 52.61912], [6.73703, 52.6347], [6.77052, 52.64103], [6.8654, 52.64196], [6.91842, 52.63219], [6.96772, 52.63666], [7.01847, 52.62599], [7.03666, 52.64738], [7.41316, 52.59481], [7.6961, 52.66724], [7.86115, 52.71736], [8.1798, 52.82826], [8.49092, 52.95069], [8.79874, 53.07891], [9.25607, 53.27584], [9.26231, 53.28247], [9.2578, 53.28961], [9.11752, 53.35694], [9.10431, 53.34961], [9.08243, 53.26491], [9.04818, 53.30999], [9.01885, 53.37777], [9.01249, 53.41327], [9.01719, 53.48322], [9.04501, 53.5521], [9.06719, 53.58476], [9.12676, 53.64503], [9.20609, 53.69781], [9.37258, 53.77404], [9.40268, 53.74242], [9.48469, 53.69009], [9.49838, 53.65986], [9.58237, 53.5913], [9.63722, 53.581], [9.69662, 53.55663], [9.81902, 53.54035], [9.83204, 53.54361], [9.81959, 53.55663], [9.78207, 53.56973], [9.69239, 53.57591], [9.65577, 53.58462], [9.58367, 53.61245], [9.55079, 53.63459], [9.53224, 53.71117], [9.46023, 53.73543], [9.43582, 53.74869], [9.40725, 53.78941], [9.69666, 53.91904], [9.80195, 53.95087], [9.92138, 53.97265], [9.92654, 54.0765], [9.95574, 54.14433], [9.97914, 54.17726], [10.15372, 54.34769], [10.15162, 54.33397], [10.14178, 54.32441], [10.16375, 54.32917], [10.18035, 54.34113], [10.20387, 54.37226], [10.2164, 54.40355], [10.23045, 54.41607], [10.27215, 54.42007], [10.3069, 54.4411], [10.36085, 54.4411], [10.38245, 54.43487], [10.44337, 54.4064], [10.60107, 54.36541], [10.6902, 54.31623], [10.73129, 54.31021], [10.77711, 54.31513], [10.8108, 54.32738], [10.86822, 54.3587], [10.93532, 54.37953], [11.01879, 54.38588], [11.01879, 54.3791], [10.97584, 54.3784], [10.99318, 54.37385], [11.01051, 54.37718], [11.03395, 54.36762], [11.10418, 54.39288], [11.13548, 54.38589], [11.08773, 54.35176], [11.06658, 54.35859], [11.0774, 54.34223], [11.09448, 54.28352], [11.08709, 54.2709], [11.09448, 54.22508], [11.09016, 54.208], [11.06656, 54.18391], [10.95045, 54.13947], [10.91031, 54.10921], [10.89322, 54.10267], [10.83611, 54.09001], [10.82228, 54.09736], [10.80543, 54.09487], [10.75262, 54.05012], [10.75262, 54.04389], [10.78045, 54.00995], [10.79965, 54.00056], [10.82692, 53.99543], [10.87548, 53.99542], [10.88738, 53.96393], [10.90211, 53.96137], [10.92262, 53.96137], [10.9647, 53.98541], [11.00026, 53.9916], [11.05348, 54.00848], [11.17541, 54.01793], [11.19075, 54.01032], [11.20436, 53.98924], [11.23991, 53.98346], [11.24535, 53.97842], [11.24293, 53.94522], [11.25563, 53.94086], [11.29371, 53.94086], [11.33416, 53.96136], [11.35825, 53.94086], [11.3999, 53.94085], [11.4463, 53.90616], [11.45769, 53.90616], [11.47682, 53.9527], [11.47242, 53.96882], [11.49789, 53.98184], [11.49171, 54.00235], [11.52589, 54.02277], [11.51907, 54.03643], [11.55323, 54.03022], [11.5735, 54.03905], [11.59133, 54.06561], [11.6128, 54.0729], [11.62452, 54.08364], [11.62957, 54.09601], [11.62208, 54.09957], [11.62526, 54.10981], [11.6579, 54.14223], [11.68971, 54.15521], [11.72877, 54.1585], [11.81227, 54.14981], [12.05063, 54.17992], [12.08813, 54.19406], [12.09164, 54.114], [12.115, 54.09789], [12.09506, 54.1457], [12.10548, 54.15738], [12.13429, 54.16698], [12.14283, 54.18049], [12.12086, 54.18], [12.10133, 54.17365], [12.1089, 54.18301], [12.1631, 54.21992], [12.18687, 54.24335], [12.2894, 54.27509], [12.34213, 54.30394], [12.37846, 54.34515], [12.43832, 54.39582], [12.51345, 54.48224], [12.53385, 54.48825], [12.53385, 54.48212], [12.52703, 54.48212], [12.54835, 54.46206], [12.59148, 54.45173], [12.8191, 54.45172], [12.85662, 54.44111], [12.87965, 54.44879], [12.90837, 54.44464], [12.92113, 54.4335], [12.89639, 54.4201], [12.87078, 54.41683], [12.76368, 54.4222], [12.69459, 54.43366], [12.67042, 54.42007], [12.6242, 54.42292], [12.61451, 54.41974], [12.6084, 54.40641], [12.60222, 54.4138], [12.58172, 54.4064], [12.58766, 54.39403], [12.6022, 54.39208], [12.59472, 54.3859], [12.57553, 54.39199], [12.55405, 54.39082], [12.53598, 54.38373], [12.52704, 54.37227], [12.51075, 54.38426], [12.49098, 54.39008], [12.45476, 54.39208], [12.43849, 54.38752], [12.41847, 54.36066], [12.42398, 54.34493], [12.39674, 54.35175], [12.3899, 54.34492], [12.39648, 54.33295], [12.3916, 54.32112], [12.37907, 54.31245], [12.36256, 54.31021], [12.38012, 54.27709], [12.36883, 54.26919], [12.41245, 54.25141], [12.43678, 54.24771], [12.45818, 54.25556], [12.44264, 54.25519], [12.41035, 54.26918], [12.41685, 54.28095], [12.4512, 54.30381], [12.47242, 54.31021], [12.47897, 54.33199], [12.56056, 54.35859], [12.54081, 54.36542], [12.54078, 54.37226], [12.55934, 54.37629], [12.57423, 54.37226], [12.57423, 54.3791], [12.59295, 54.36933], [12.62273, 54.37393], [12.67726, 54.39208], [12.67046, 54.40641], [12.70531, 54.41459], [12.71752, 54.4138], [12.71752, 54.40641], [12.70248, 54.40412], [12.69239, 54.39619], [12.68409, 54.37226], [12.7046, 54.3996], [12.72381, 54.38125], [12.73504, 54.37816], [12.74611, 54.38588], [12.75782, 54.37979], [12.76856, 54.38007], [12.78711, 54.39205], [12.79469, 54.37714], [12.81804, 54.35798], [12.85467, 54.35786], [12.87599, 54.36542], [12.90383, 54.3996], [12.96205, 54.42672], [13.03441, 54.38633], [13.07815, 54.35449], [13.08074, 54.33714], [13.1092, 54.3102], [13.11492, 54.28001], [13.15059, 54.27659], [13.15676, 54.26787], [13.1434, 54.26301], [13.15916, 54.26389], [13.1754, 54.23261], [13.19319, 54.16252], [13.18735, 54.09216], [13.15841, 54.0238], [13.09141, 53.94188], [13.24891, 53.84677], [13.30832, 53.77392], [13.29309, 53.70052], [13.18003, 53.62818], [13.07593, 53.59359], [12.95749, 53.56904], [12.83178, 53.5529], [12.56238, 53.53704], [12.17449, 53.52943], [11.76452, 53.53119], [11.6366, 53.52435], [11.52779, 53.5052], [11.4457, 53.46645], [11.40981, 53.40983], [11.42221, 53.32177], [11.47254, 53.23039], [11.54363, 53.14107], [11.63462, 53.05628], [11.74855, 52.97666], [11.87533, 52.9117], [12.01, 52.86323], [12.16465, 52.8284], [12.45292, 52.80432], [12.56222, 52.78948], [12.97519, 52.70412], [13.09298, 52.68661], [13.19651, 52.67787], [13.52115, 52.6751], [13.65219, 52.66919], [13.77678, 52.65344], [14.07212, 52.59497], [14.31503, 52.76825], [14.3822, 52.73815], [14.3977, 52.72712], [14.43191, 52.68609], [14.46137, 52.67456], [14.4901, 52.65064], [14.54994, 52.63619], [14.61371, 52.59253], [14.64482, 52.57692], [15.00996, 52.51663], [15.05743, 52.50649], [15.16078, 52.45427], [15.21416, 52.37262], [15.19628, 52.17102], [15.20617, 52.13755], [15.22462, 52.11434], [15.26499, 52.08542], [15.31151, 52.063], [15.49598, 51.99067], [15.57232, 51.95522], [15.61939, 51.92347], [15.63707, 51.89384], [15.63128, 51.87734], [15.62017, 51.86724], [15.55985, 51.84384], [15.12584, 51.77974], [14.97854, 51.74922], [14.70736, 51.67674], [14.2836, 51.53287], [14.15327, 51.50782], [14.1063, 51.49418], [14.07213, 51.47517], [14.02031, 51.42825], [13.99019, 51.4128], [13.90258, 51.39676], [13.66459, 51.39209], [13.56302, 51.37327], [13.48175, 51.33865], [13.33112, 51.2225], [13.27031, 51.18835], [13.20502, 51.16382], [13.13751, 51.14784], [13.06839, 51.13808], [12.75467, 51.11223], [12.66916, 51.0965], [12.60508, 51.07724], [12.5371, 51.04727], [12.48572, 51.01338], [12.44666, 50.97502], [12.41859, 50.92938], [12.40592, 50.88734], [12.40531, 50.83657], [12.42712, 50.7754], [12.46598, 50.73712], [12.53133, 50.70927], [12.7447, 50.67519], [12.76871, 50.66827], [13.00962, 50.49268], [13.00311, 50.45191], [12.9966, 50.43367], [12.95257, 50.40416], [13.17243, 50.21637], [13.1752, 50.12274], [13.19489, 50.09105], [13.22229, 50.07665], [13.25684, 50.06848], [13.59955, 50.04147], [13.66581, 50.02909], [13.72891, 50.00793], [13.78786, 49.97643], [13.85238, 49.92994], [14.02633, 49.78807], [14.24639, 49.63223], [14.34208, 49.55031], [14.42941, 49.43729], [14.47225, 49.32344], [14.48269, 49.20595], [14.47172, 49.0889], [14.42888, 48.85159], [14.41815, 48.73225], [14.43841, 48.53702], [14.43545, 48.40096], [14.37661, 48.06606], [14.37958, 48.0452], [13.75239, 48.11188], [13.61175, 48.11546], [13.43748, 48.10951], [13.27421, 48.3071], [13.13644, 48.29106], [13.03278, 48.26357], [12.97944, 48.23202], [12.9317, 48.21163], [12.93304, 48.20926], [12.87764, 48.20205], [12.86255, 48.19665], [12.82214, 48.16068], [12.78235, 48.14202], [12.76406, 48.12376], [12.74504, 48.12063], [12.73894, 48.11345], [12.73698, 48.09996], [12.74204, 48.08678], [12.76023, 48.06487], [12.83062, 48.01547], [12.8456, 47.99314], [12.85398, 47.97048], [12.86204, 47.96255], [12.88601, 47.95289], [12.93108, 47.92488], [12.96498, 47.87196], [12.99123, 47.84711], [12.92673, 47.77739], [12.92126, 47.76954], [12.91723, 47.75016], [12.89201, 47.72355], [12.90834, 47.71236], [12.96404, 47.70536], [13.00435, 47.71461], [13.01986, 47.71293], [13.03226, 47.70662], [13.06409, 47.67399], [13.07205, 47.65947], [13.07484, 47.64665], [13.07205, 47.62242], [13.40902, 47.54098], [13.88745, 47.45698], [14.1411, 47.40618], [14.28354, 47.3539], [14.32607, 47.31078], [14.35258, 47.26318], [14.36426, 47.21432], [14.36377, 47.16842], [14.35381, 47.11836], [14.33558, 47.06685], [14.25983, 46.91263], [14.23556, 46.8485], [14.20981, 46.73558], [14.22124, 46.68586], [14.08103, 46.47595], [14.05003, 46.4844], [13.99876, 46.48052], [13.98233, 46.48192], [13.63739, 46.18039], [13.64504, 46.16173], [13.61641, 46.12504], [13.5051, 46.06603], [13.48226, 46.04484], [13.49032, 46.03895], [13.4928, 46.03249], [13.49001, 46.02556], [13.46179, 46.00639], [13.50944, 45.96743], [13.53941, 45.96903], [13.57166, 45.97983], [13.60587, 45.98541], [13.62282, 45.96639], [13.60824, 45.92655], [13.56928, 45.86454], [13.56597, 45.83033], [13.58127, 45.80925], [13.60917, 45.7986], [13.66033, 45.79204], [13.70948, 45.76532], [13.77872, 45.74341], [13.85841, 45.64936], [13.86916, 45.64114], [13.89314, 45.63468], [13.89469, 45.63184], [13.88704, 45.61877], [13.84776, 45.58466], [13.89473, 45.53829], [13.90258, 45.46547], [13.88963, 45.37153], [13.8619, 45.29431], [13.83953, 45.25039], [13.76013, 45.13345], [13.67814, 45.04827], [13.64381, 45.0705], [13.62324, 45.07307], [13.63689, 45.09357], [13.61258, 45.11786], [13.63852, 45.13003], [13.72625, 45.13451], [13.6836, 45.14338], [13.60048, 45.13749], [13.59598, 45.14541], [13.59938, 45.17129], [13.58914, 45.17549], [13.59441, 45.18732], [13.58229, 45.19682], [13.5823, 45.20282], [13.59449, 45.21263], [13.58914, 45.2307], [13.59522, 45.2508], [13.57547, 45.26488], [13.58425, 45.27606], [13.60271, 45.27912], [13.60271, 45.28535], [13.58466, 45.29321], [13.57547, 45.30646], [13.60955, 45.32014], [13.56179, 45.32637], [13.54128, 45.34614], [13.54055, 45.35675], [13.55494, 45.36107], [13.55494, 45.36734], [13.54316, 45.37617], [13.51337, 45.43622], [13.52076, 45.44302], [13.51565, 45.44814], [13.52076, 45.45726], [13.50149, 45.4986], [13.5071, 45.5119], [13.51335, 45.5119], [13.56861, 45.49079], [13.58953, 45.48884], [13.59596, 45.51813], [13.57863, 45.52339], [13.56864, 45.53924], [13.58961, 45.53579], [13.75294, 45.55288], [13.74236, 45.56977], [13.71194, 45.5934], [13.73016, 45.61309], [13.78688, 45.61115], [13.80812, 45.61433], [13.79558, 45.61701], [13.77711, 45.63544], [13.7393, 45.64911], [13.75766, 45.65498], [13.75367, 45.67231], [13.72625, 45.70376], [13.62892, 45.77261], [13.57423, 45.78962], [13.55128, 45.79243], [13.53443, 45.78205], [13.52418, 45.76008], [13.52833, 45.74055], [13.5549, 45.7372], [13.5184, 45.72484], [13.50781, 45.71443], [13.46925, 45.70686], [13.42798, 45.68115], [13.4017, 45.67545], [13.37676, 45.68317], [13.40919, 45.69131], [13.43141, 45.70686], [13.42262, 45.72407], [13.38169, 45.73006], [13.36939, 45.74462], [13.35182, 45.74031], [13.2549, 45.75606], [13.21551, 45.7788], [13.16944, 45.76874], [13.14967, 45.75154], [13.13982, 45.75487], [13.13136, 45.76887], [13.11931, 45.77196], [13.11085, 45.76765], [13.10817, 45.7582], [13.11183, 45.74885], [13.12288, 45.74462], [13.12288, 45.73722], [13.1006, 45.73623], [13.08058, 45.72761], [13.06959, 45.71369], [13.07504, 45.69684], [13.09148, 45.6892], [13.11166, 45.69135], [13.14964, 45.70374], [13.13802, 45.6894], [13.10304, 45.66901], [13.08496, 45.64192], [13.06055, 45.63667], [12.9817, 45.63483], [12.94386, 45.62857], [12.78039, 45.5534], [12.61194, 45.49626], [12.51271, 45.47044], [12.4878, 45.45674], [12.45143, 45.45043], [12.42362, 45.43805], [12.41033, 45.43623], [12.4358, 45.47492], [12.43094, 45.48403], [12.44728, 45.48432], [12.45144, 45.49824], [12.45818, 45.49824], [12.46697, 45.48558], [12.47193, 45.48591], [12.47869, 45.49079], [12.46503, 45.50445], [12.49732, 45.50673], [12.5066, 45.49824], [12.49293, 45.49824], [12.49293, 45.49079], [12.51515, 45.49274], [12.52151, 45.51898], [12.53048, 45.52558], [12.56251, 45.53164], [12.58172, 45.55288], [12.53728, 45.53583], [12.51065, 45.5589], [12.5066, 45.57331], [12.45851, 45.54833], [12.44191, 45.53034], [12.45143, 45.51191], [12.43491, 45.51236], [12.41773, 45.52359], [12.40358, 45.51813], [12.39674, 45.53925], [12.38413, 45.52302], [12.39039, 45.51398], [12.424, 45.50446], [12.42397, 45.49822], [12.3934, 45.49165], [12.38056, 45.49479], [12.38307, 45.50446], [12.35043, 45.50487], [12.30958, 45.48892], [12.27272, 45.46361], [12.2527, 45.43623], [12.2527, 45.43], [12.25894, 45.43], [12.2461, 45.41132], [12.24855, 45.40253], [12.25894, 45.39521], [12.2492, 45.38548], [12.24528, 45.36108], [12.22381, 45.35395], [12.23217, 45.34056], [12.21631, 45.31623], [12.20873, 45.30907], [12.18755, 45.30647], [12.16293, 45.31623], [12.15447, 45.31346], [12.1491, 45.29218], [12.15983, 45.2831], [12.16879, 45.26215], [12.18067, 45.25804], [12.19166, 45.26288], [12.19939, 45.2746], [12.19746, 45.29962], [12.21728, 45.29384], [12.22485, 45.25117], [12.21111, 45.24299], [12.22485, 45.23069], [12.22136, 45.21625], [12.23048, 45.20425], [12.24732, 45.19693], [12.26637, 45.1966], [12.25898, 45.20282], [12.30727, 45.23068], [12.29803, 45.2154], [12.32104, 45.17235], [12.32845, 45.10102], [12.3073, 45.10786], [12.3073, 45.12836], [12.29737, 45.10635], [12.29672, 45.08857], [12.30665, 45.07856], [12.32846, 45.0799], [12.32106, 45.09357], [12.341, 45.08124], [12.37623, 45.03897], [12.37623, 45.03217], [12.35515, 45.02464], [12.36883, 45.01097], [12.38356, 45.02643], [12.38657, 45.03876], [12.36885, 45.06559], [12.41341, 45.04287], [12.41033, 45.03217], [12.44458, 45.01096], [12.48618, 44.97651], [12.4992, 44.98371], [12.4861, 44.98371], [12.48609, 44.99114], [12.50261, 44.99143], [12.51701, 44.98746], [12.53385, 44.97004], [12.52312, 44.95002], [12.52701, 44.94335], [12.5127, 44.92232], [12.49903, 44.92145], [12.4873, 44.86225], [12.44459, 44.82052], [12.424, 44.85464], [12.43922, 44.87759], [12.44304, 44.89008], [12.43832, 44.90111], [12.42693, 44.90498], [12.40691, 44.8913], [12.3921, 44.86839], [12.39161, 44.85883], [12.41652, 44.85114], [12.40821, 44.83625], [12.39674, 44.83348], [12.39674, 44.82665], [12.424, 44.82049], [12.41592, 44.80315], [12.39795, 44.79378], [12.37567, 44.79223], [12.30299, 44.84292], [12.29233, 44.84325], [12.26637, 44.82665], [12.26637, 44.8205], [12.28002, 44.8205], [12.25359, 44.75129], [12.24659, 44.71161], [12.2527, 44.6684], [12.28577, 44.60292], [12.28004, 44.53189], [12.2837, 44.48762], [12.31821, 44.36115], [12.34211, 44.32949], [12.35027, 44.28815], [12.36883, 44.25068], [12.38998, 44.22272], [12.41717, 44.19546], [12.45801, 44.1664], [12.47877, 44.13935], [12.54737, 44.09345], [12.57422, 44.08559], [12.61891, 44.04219], [12.45219, 44.13577], [12.31715, 44.19487], [12.03299, 44.29259], [11.89556, 44.32739], [11.81003, 44.35581], [11.78602, 44.4376], [11.77737, 44.54728], [11.75819, 44.59874], [11.74384, 44.68334], [11.73326, 44.69004], [11.56066, 44.66931], [11.49512, 44.64806], [11.42096, 44.60915], [11.34087, 44.55738], [10.9733, 44.29365], [10.87124, 44.2291], [10.8104, 44.27547], [10.71298, 44.30735], [10.6113, 44.34675], [10.5849, 44.34734], [10.56115, 44.33912], [10.54627, 44.3249], [10.53969, 44.29866], [10.53463, 44.29829], [10.43732, 44.35034], [10.25851, 44.46746], [10.33449, 44.55408], [10.49761, 44.72073], [10.76853, 44.96523], [10.96062, 45.12184], [11.00655, 45.13709], [11.04158, 45.1562], [11.12451, 45.22782], [11.18829, 45.26541], [11.21417, 45.2859], [11.24291, 45.32601], [11.25063, 45.34903], [11.23064, 45.49255], [11.21611, 45.5296], [11.19212, 45.56151], [11.13345, 45.61751], [11.08407, 45.65551], [10.99211, 45.70186], [10.91398, 45.72942], [10.83102, 45.75149], [10.66073, 45.78291], [10.35244, 45.81981], [10.21202, 45.82425], [10.13684, 45.8216], [9.99861, 45.80776], [9.90894, 45.7936], [9.88205, 45.7972], [9.8578, 45.80895], [9.83993, 45.82705], [9.7863, 45.91216], [9.68071, 46.04555], [9.67149, 46.06103], [9.66617, 46.29187], [9.55971, 46.29273], [9.53645, 46.29862], [9.51526, 46.3086], [9.50255, 46.32074], [9.4826, 46.35681], [9.44436, 46.37528], [9.43785, 46.49205], [9.43465, 46.49833], [9.47645, 46.72827], [9.45574, 46.77492], [9.43279, 46.79297], [9.39975, 46.80748], [9.32474, 46.82641], [9.1669, 46.8384], [9.11332, 46.85156], [8.99007, 46.8709], [8.70109, 46.96104], [8.60934, 46.97296], [8.561, 46.96928], [8.53115, 46.96058], [8.50127, 46.94408], [8.39423, 46.86146], [8.37546, 46.83382], [8.36205, 46.82388], [8.26367, 46.80396], [8.23779, 46.79228], [8.22808, 46.78208], [8.22758, 46.75846], [8.23865, 46.73728], [8.25903, 46.71613], [8.3106, 46.67719], [8.39419, 46.45144], [8.34345, 46.44389], [8.31627, 46.43365], [8.29498, 46.41805], [8.2866, 46.40536], [8.29704, 46.39763], [8.29746, 46.38751], [8.29146, 46.37836], [8.27007, 46.36404], [8.24175, 46.35412], [8.19255, 46.30916], [8.17188, 46.29919], [8.12848, 46.29247], [8.10687, 46.28555], [8.08734, 46.2718], [7.8246, 46.40915], [7.75937, 46.40614], [7.73453, 46.40047], [7.70938, 46.38785], [7.69538, 46.37323], [7.68258, 46.33159], [7.6621, 46.31303], [7.64471, 46.30759], [7.56117, 46.30059], [7.47986, 46.27695], [7.4486, 46.28177], [7.41678, 46.3026], [7.40394, 46.32251], [7.38679, 46.37307], [7.21843, 46.41182], [7.18424, 46.4262], [7.14937, 46.44985], [7.13389, 46.46777], [7.12535, 46.49066], [7.13607, 46.56433], [7.12608, 46.60111], [7.10691, 46.62105], [7.04254, 46.66334], [7.01109, 46.69107], [6.91292, 46.81926], [6.66541, 47.02129], [6.5987, 46.98654], [6.49111, 46.96339], [6.39294, 47.17844], [6.44383, 47.20799], [6.46763, 47.22737]], [[13.23537, 46.15413], [13.23331, 46.14145], [13.29644, 46.13422], [13.30739, 46.13765], [13.31007, 46.14417], [13.30451, 46.15092], [13.26866, 46.16024], [13.23537, 46.15413]], [[10.15833, 53.96309], [10.05727, 53.96859], [9.96866, 53.9793], [9.95769, 53.97395], [9.959, 53.96558], [10.02216, 53.92201], [10.0583, 53.88913], [10.17786, 53.84571], [10.2353, 53.81711], [10.25404, 53.81907], [10.25684, 53.82806], [10.20289, 53.88963], [10.15833, 53.96309]]], [[[11.42662, 54.02293], [11.46803, 54.03094], [11.49789, 54.02277], [11.46827, 53.97069], [11.45771, 53.96138], [11.44531, 53.9612], [11.45143, 53.98554], [11.44703, 53.99714], [11.43873, 53.99726], [11.43328, 53.98876], [11.43776, 53.975], [11.4231, 53.96773], [11.40708, 53.96822], [11.37568, 53.98184], [11.39068, 54.00473], [11.42662, 54.02293]]], [[[11.61585, 54.11209], [11.53396, 54.05696], [11.5285, 54.07532], [11.53396, 54.08486], [11.6019, 54.10415], [11.61585, 54.11209]]], [[[11.10135, 54.42349], [11.09864, 54.45165], [11.05812, 54.45527], [11.0325, 54.44734], [11.02573, 54.45881], [11.00849, 54.45467], [11.00573, 54.46845], [11.03399, 54.50902], [11.07294, 54.53118], [11.12126, 54.53595], [11.20654, 54.51446], [11.23999, 54.49555], [11.31419, 54.41382], [11.18849, 54.42617], [11.17018, 54.42007], [11.17902, 54.41422], [11.11265, 54.41524], [11.10135, 54.42349]]], [[[11.78728, 54.83153], [11.77296, 54.82469], [11.78761, 54.80687], [11.84864, 54.77318], [11.85548, 54.7436], [11.83406, 54.72471], [11.81471, 54.7187], [11.80698, 54.70799], [11.84643, 54.69781], [11.84262, 54.67622], [11.81071, 54.65511], [11.76612, 54.64657], [11.61052, 54.66641], [11.56007, 54.65961], [11.51222, 54.64655], [11.47437, 54.62614], [11.45184, 54.62837], [11.35874, 54.66056], [11.2977, 54.69156], [11.18775, 54.73224], [11.03054, 54.76066], [11.0093, 54.77164], [11.0009, 54.78424], [11.07127, 54.80194], [11.19402, 54.81975], [11.28919, 54.82611], [11.4491, 54.81983], [11.5579, 54.82318], [11.59474, 54.8111], [11.5879, 54.82352], [11.72726, 54.81726], [11.77541, 54.83351], [11.78728, 54.83153]]], [[[15.24073, 38.24116], [15.23718, 38.26479], [15.24317, 38.26479], [15.24633, 38.25434], [15.24073, 38.23029], [15.24537, 38.21723], [15.25758, 38.21019], [15.29184, 38.20702], [15.32106, 38.21088], [15.39967, 38.23257], [15.43377, 38.25315], [15.47291, 38.26781], [15.51288, 38.29758], [15.52866, 38.30263], [15.55925, 38.3001], [15.61598, 38.28022], [15.6516, 38.27529], [15.64242, 38.26228], [15.62428, 38.26166], [15.58375, 38.24042], [15.56967, 38.22695], [15.55991, 38.19977], [15.57592, 38.20017], [15.52703, 38.13679], [15.50033, 38.08495], [15.39259, 37.97614], [15.26644, 37.81211], [15.24122, 37.79556], [15.21306, 37.76146], [15.20655, 37.74775], [15.22021, 37.70673], [15.21606, 37.69673], [15.20216, 37.68537], [15.19677, 37.6551], [15.16391, 37.5679], [15.14862, 37.55331], [15.06891, 37.61865], [15.01394, 37.68358], [14.94741, 37.7861], [14.89891, 37.88928], [14.87067, 37.98095], [14.86173, 38.07713], [14.88042, 38.17883], [14.89722, 38.18585], [14.93531, 38.18593], [14.96974, 38.15925], [15.00734, 38.1518], [15.04899, 38.15179], [15.0687, 38.13129], [15.0879, 38.12824], [15.17742, 38.15632], [15.2033, 38.1833], [15.24073, 38.24116]]], [[[15.22965, 38.78303], [15.21746, 38.77303], [15.20607, 38.77522], [15.18704, 38.78901], [15.19439, 38.79819], [15.2186, 38.81194], [15.23925, 38.80402], [15.22965, 38.78303]]], [[[14.20834, 40.53796], [14.19599, 40.54117], [14.19886, 40.55856], [14.21921, 40.56054], [14.26212, 40.55398], [14.25471, 40.54638], [14.20834, 40.53796]]], [[[13.91977, 40.7045], [13.89015, 40.69417], [13.84915, 40.71528], [13.86137, 40.74383], [13.87013, 40.74872], [13.8631, 40.7624], [13.88315, 40.76238], [13.94606, 40.74525], [13.96581, 40.73505], [13.96582, 40.71528], [13.94467, 40.70162], [13.93482, 40.70563], [13.91977, 40.7045]]], [[[14.0041, 40.76219], [14.0174, 40.77023], [14.03531, 40.75984], [14.02182, 40.75719], [14.02588, 40.75032], [14.01352, 40.74754], [14.01708, 40.73727], [14.00587, 40.74689], [14.001, 40.74397], [14.0041, 40.76219]]], [[[13.39967, 43.63565], [13.4734, 43.61201], [13.50441, 43.63275], [13.51611, 43.63173], [13.52101, 43.62271], [13.54321, 43.61322], [13.57887, 43.5729], [13.59791, 43.56952], [13.61556, 43.56048], [13.62451, 43.54719], [13.61695, 43.53132], [13.76026, 43.26374], [13.78027, 43.23652], [13.79078, 43.19208], [13.83487, 43.1271], [13.8487, 43.09145], [13.86541, 43.00731], [13.94467, 42.79829], [14.00123, 42.69843], [14.06323, 42.62482], [14.07537, 42.59882], [14.22055, 42.47016], [14.28419, 42.42829], [14.38737, 42.37294], [14.42905, 42.32172], [14.56023, 42.22565], [14.59588, 42.20856], [14.65349, 42.19107], [14.69369, 42.18536], [14.70923, 42.17548], [14.71704, 42.16006], [14.7295, 42.09911], [14.74073, 42.08462], [14.78041, 42.07513], [14.83546, 42.04414], [14.8711, 42.03181], [14.95156, 42.02112], [14.99365, 42.01064], [15.04518, 41.96898], [15.06316, 41.96429], [15.12338, 41.93427], [15.16538, 41.9278], [15.28175, 41.92803], [15.40056, 41.90778], [15.44606, 41.90693], [15.61134, 41.92803], [15.77443, 41.92121], [16.02711, 41.94407], [16.14046, 41.9199], [16.1609, 41.89265], [16.17919, 41.89329], [16.17604, 41.87739], [16.19217, 41.82163], [16.19287, 41.79092], [16.14575, 41.74886], [16.10719, 41.73762], [16.06315, 41.70149], [16.02751, 41.67993], [15.9253, 41.64004], [15.90008, 41.61465], [15.89137, 41.57685], [15.89633, 41.53644], [15.91179, 41.50288], [15.9336, 41.47944], [15.96111, 41.45946], [16.02166, 41.4278], [16.08513, 41.41266], [16.11411, 41.39289], [16.30127, 41.32793], [16.4603, 41.26264], [16.52067, 41.25014], [16.59392, 41.20698], [16.83031, 41.14638], [16.85141, 41.13296], [16.85816, 41.13296], [16.85816, 41.14035], [16.86442, 41.14036], [16.88527, 41.12397], [17.05739, 41.08175], [17.2028, 41.02112], [17.2762, 40.98031], [17.31006, 40.95477], [17.34791, 40.9121], [17.37769, 40.90228], [17.4134, 40.8812], [17.47608, 40.83015], [17.51221, 40.82029], [17.54835, 40.80195], [17.62161, 40.78752], [17.61997, 40.77911], [17.64499, 40.71436], [17.65161, 40.67895], [17.65107, 40.60884], [17.63252, 40.53878], [17.65838, 40.47075], [17.66484, 40.43806], [17.66603, 40.35721], [17.65264, 40.29811], [17.49391, 40.30745], [17.44044, 40.331], [17.39943, 40.33101], [17.36818, 40.35151], [17.21291, 40.4062], [17.20023, 40.42039], [17.22348, 40.42841], [17.24301, 40.44139], [17.2479, 40.45734], [17.22758, 40.47444], [17.24741, 40.48028], [17.29575, 40.47321], [17.31625, 40.48188], [17.32325, 40.49848], [17.30405, 40.49946], [17.26175, 40.48872], [17.26857, 40.49616], [17.24741, 40.50283], [17.18995, 40.48189], [17.18182, 40.4853], [17.16619, 40.50918], [17.15602, 40.5124], [17.04957, 40.51911], [16.97608, 40.49262], [16.91212, 40.44522], [16.78272, 40.30158], [16.7614, 40.2696], [16.73745, 40.21084], [16.73071, 40.20068], [16.71599, 40.19359], [16.69784, 40.17001], [16.61474, 40.23405], [16.53908, 40.31522], [16.49038, 40.39254], [16.46138, 40.47949], [16.45458, 40.57256], [16.55132, 40.67754], [16.69294, 40.78093], [16.69621, 40.78743], [16.69053, 40.79484], [16.61338, 40.82222], [16.54628, 40.83949], [16.60934, 40.89204], [16.61183, 40.90011], [16.54098, 40.94224], [16.5082, 40.97182], [16.52746, 41.02728], [16.53093, 41.05148], [16.52521, 41.07611], [16.50676, 41.08612], [16.46734, 41.0854], [16.42327, 41.06818], [16.35823, 41.02888], [16.3243, 41.00171], [16.28416, 40.95366], [16.13394, 40.69713], [16.01452, 40.51006], [15.95778, 40.40875], [15.9479, 40.37847], [15.94707, 40.33932], [16.00923, 40.28277], [16.05432, 40.22719], [16.13, 40.15025], [16.13908, 40.15004], [16.14562, 40.15488], [16.16686, 40.21325], [16.21431, 40.28409], [16.25369, 40.22497], [16.27903, 40.15708], [16.28663, 40.08673], [16.26971, 39.99221], [16.33252, 39.93649], [16.40665, 39.85067], [16.44874, 39.78806], [16.4638, 39.75421], [16.48044, 39.68479], [16.47926, 39.61421], [16.46052, 39.54562], [16.44446, 39.51211], [16.40095, 39.4507], [16.3638, 39.41277], [16.37866, 39.28363], [16.3903, 39.27885], [16.49313, 39.29423], [16.58378, 39.29245], [16.67171, 39.27699], [16.71407, 39.26423], [16.79304, 39.22925], [16.88227, 39.17693], [16.97877, 39.10093], [17.0233, 39.04592], [17.05284, 38.99713], [17.07895, 38.92155], [17.04225, 38.91625], [17.02199, 38.90596], [16.99635, 38.92951], [16.98129, 38.9372], [16.95729, 38.94009], [16.83855, 38.9182], [16.72779, 38.87885], [16.68776, 38.85586], [16.67074, 38.84065], [16.61061, 38.81655], [16.58562, 38.79784], [16.57439, 38.78506], [16.56372, 38.75675], [16.53883, 38.72333], [16.53484, 38.6999], [16.54907, 38.68992], [16.55885, 38.59602], [16.57698, 38.52855], [16.56947, 38.42932], [16.56136, 38.41633], [16.52198, 38.38715], [16.50814, 38.37154], [16.49757, 38.36929], [16.46705, 38.34871], [16.43507, 38.33999], [16.33985, 38.30085], [16.30633, 38.27709], [16.16944, 38.14322], [16.15187, 38.11083], [16.12554, 38.00501], [16.11093, 37.97379], [16.09001, 37.94921], [16.06316, 37.93269], [16.00099, 37.91902], [15.94215, 37.93309], [15.76119, 37.9253], [15.73465, 37.93106], [15.68426, 37.95363], [15.64567, 37.98819], [15.63512, 38.0091], [15.63837, 38.02773], [15.65846, 38.04255], [15.62405, 38.09211], [15.62746, 38.10736], [15.6478, 38.14313], [15.63284, 38.22028], [15.65057, 38.24103], [15.6846, 38.2532], [15.78647, 38.27802], [15.81284, 38.3006], [15.82989, 38.35124], [15.9048, 38.47394], [15.91782, 38.51679], [15.91603, 38.55036], [15.90008, 38.57827], [15.83548, 38.62825], [15.83661, 38.64899], [15.84436, 38.6602], [15.9048, 38.67939], [15.96803, 38.71259], [16.00262, 38.7254], [16.04884, 38.72772], [16.12086, 38.72093], [16.1526, 38.7309], [16.17921, 38.74828], [16.20094, 38.77644], [16.2151, 38.81415], [16.22169, 38.85659], [16.21469, 38.91901], [16.2046, 38.93407], [16.18963, 38.94355], [16.16896, 38.94686], [16.15416, 38.95522], [16.08303, 39.07527], [16.03403, 39.34524], [15.9954, 39.43877], [15.95808, 39.47757], [15.93312, 39.51366], [15.8761, 39.55164], [15.86753, 39.56391], [15.8366, 39.65266], [15.80642, 39.6955], [15.78875, 39.79662], [15.78875, 39.7904], [15.78395, 39.81], [15.76972, 39.83015], [15.78191, 39.8686], [15.77443, 39.8911], [15.74156, 39.9296], [15.72804, 39.96418], [15.6789, 40.00886], [15.65162, 40.04365], [15.63039, 40.05769], [15.62428, 40.07779], [15.6102, 40.0732], [15.53492, 40.07779], [15.51313, 40.06768], [15.4953, 40.04673], [15.45981, 40.02936], [15.42959, 39.9998], [15.4101, 39.99398], [15.36095, 39.99891], [15.34317, 40.00416], [15.3143, 40.03376], [15.30275, 40.0362], [15.28305, 40.02986], [15.26125, 40.02937], [15.26125, 40.0362], [15.27915, 40.04768], [15.26344, 40.07372], [15.2339, 40.1], [15.18996, 40.11913], [15.12721, 40.16962], [15.1128, 40.17479], [15.06568, 40.16658], [15.04722, 40.16894], [15.03493, 40.17537], [15.0228, 40.19563], [15.00312, 40.21026], [14.97591, 40.21932], [14.95709, 40.23155], [14.93814, 40.22785], [14.91116, 40.24165], [14.90693, 40.25861], [14.9319, 40.28555], [14.93914, 40.30707], [14.9324, 40.33372], [14.99449, 40.35843], [15.00043, 40.36883], [14.99827, 40.39756], [14.88884, 40.57306], [14.83546, 40.63264], [14.78199, 40.66987], [14.75221, 40.6767], [14.71998, 40.66682], [14.69015, 40.64906], [14.62574, 40.64907], [14.61329, 40.6459], [14.57129, 40.61775], [14.54448, 40.61364], [14.51638, 40.61987], [14.48658, 40.63264], [14.47136, 40.62467], [14.42205, 40.61555], [14.40153, 40.60213], [14.3558, 40.58364], [14.34262, 40.57064], [14.32983, 40.58466], [14.32799, 40.60541], [14.33775, 40.62441], [14.38738, 40.63695], [14.44422, 40.68598], [14.47637, 40.6951], [14.47975, 40.71149], [14.47413, 40.72968], [14.46062, 40.74421], [14.44264, 40.75507], [14.42129, 40.75094], [14.39444, 40.76157], [14.2942, 40.83877], [14.24838, 40.83771], [14.22364, 40.83137], [14.20316, 40.80121], [14.18221, 40.80093], [14.1656, 40.81575], [14.13524, 40.81857], [14.09596, 40.83381], [14.08253, 40.83128], [14.07618, 40.82221], [14.08251, 40.78353], [14.04771, 40.7896], [14.04117, 40.79649], [14.05226, 40.83759], [14.04446, 40.87421], [14.02134, 40.92183], [13.96534, 40.9964], [13.91799, 41.02367], [13.91065, 41.06464], [13.85173, 41.14732], [13.82328, 41.17455], [13.88223, 41.22781], [13.95501, 41.27204], [14.03792, 41.30462], [14.15018, 41.32699], [14.15701, 41.33643], [14.14437, 41.3752], [14.12483, 41.41162], [14.07695, 41.44651], [14.04949, 41.45648], [14.03153, 41.45571], [14.01222, 41.44799], [13.99267, 41.43212], [13.96733, 41.38608], [13.95172, 41.3745], [13.92952, 41.38302], [13.9067, 41.39907], [13.81556, 41.48038], [13.79071, 41.49385], [13.76379, 41.49903], [13.81457, 41.62296], [13.8332, 41.68317], [13.85604, 41.79413], [13.86339, 41.90091], [13.86157, 41.9527], [13.84546, 42.05901], [13.72374, 42.45741], [13.70458, 42.55426], [13.69568, 42.56054], [13.61689, 42.56654], [13.53571, 42.58369], [13.49017, 42.6671], [13.3939, 42.90955], [13.36939, 43.00762], [13.32845, 43.07027], [13.3063, 43.12559], [13.25123, 43.22673], [13.26354, 43.3348], [13.25831, 43.45037], [13.23036, 43.54184], [13.18441, 43.62206], [13.11485, 43.70533], [13.02769, 43.78433], [12.73428, 43.97711], [12.80366, 43.9669], [12.86215, 43.93537], [12.92887, 43.91583], [12.94728, 43.89761], [13.25327, 43.70319], [13.38981, 43.64459], [13.39967, 43.63565]], [[16.52479, 39.21456], [16.52996, 39.20893], [16.54086, 39.20838], [16.60773, 39.23385], [16.60572, 39.24518], [16.56356, 39.2679], [16.5245, 39.27306], [16.51647, 39.26422], [16.52479, 39.21456]]], [[[15.48471, 42.10144], [15.47773, 42.10412], [15.47819, 42.11326], [15.49284, 42.12384], [15.49674, 42.11603], [15.48471, 42.10144]]], [[[12.32802, 45.37244], [12.37184, 45.42487], [12.38917, 45.43354], [12.40748, 45.43065], [12.43085, 45.41571], [12.37623, 45.42255], [12.32147, 45.34804], [12.32802, 45.37244]]], [[[12.31659, 45.44306], [12.32985, 45.4588], [12.34717, 45.4588], [12.36378, 45.44965], [12.36207, 45.43814], [12.33725, 45.42741], [12.32066, 45.42984], [12.31659, 45.44306]]], [[[12.40878, 45.45661], [12.38536, 45.44571], [12.37518, 45.45379], [12.39731, 45.46003], [12.41408, 45.47308], [12.41839, 45.46874], [12.40878, 45.45661]]], [[[19.25262, 51.62957], [19.00587, 51.68209], [18.93578, 51.70335], [18.87669, 51.72856], [18.82418, 51.76086], [18.78142, 51.79944], [18.74428, 51.84775], [18.7127, 51.90442], [18.64738, 52.05965], [18.58824, 52.15268], [18.5385, 52.19974], [18.48184, 52.23606], [18.3943, 52.2739], [18.19896, 52.32296], [17.98591, 52.34643], [17.77513, 52.34988], [17.5602, 52.34114], [17.12964, 52.31284], [16.92064, 52.30599], [16.71632, 52.3122], [16.51505, 52.33541], [16.3297, 52.37272], [16.16193, 52.42267], [16.01347, 52.4838], [15.88444, 52.55588], [15.78038, 52.63516], [15.70122, 52.72135], [15.64999, 52.81069], [15.63289, 52.86932], [15.63073, 52.929], [15.64281, 52.98325], [15.66975, 53.03827], [15.71134, 53.09174], [15.76742, 53.14355], [15.83778, 53.1936], [15.92522, 53.24357], [16.02217, 53.28984], [16.23759, 53.37284], [16.48138, 53.44475], [16.72444, 53.49577], [16.85165, 53.51283], [17.24283, 53.55031], [17.39724, 53.57933], [17.47424, 53.60117], [17.64781, 53.67041], [18.09047, 53.9085], [18.34271, 54.01227], [18.6281, 54.0911], [18.94252, 54.13698], [19.28481, 54.1477], [19.47996, 54.13341], [19.61927, 54.12301], [19.9313, 54.06386], [20.20336, 53.97125], [20.4357, 53.84359], [20.54225, 53.77891], [20.59431, 53.75576], [20.66981, 53.73394], [20.72354, 53.72623], [20.77435, 53.72474], [20.86625, 53.73251], [21.22357, 53.80642], [21.39472, 53.8251], [21.59936, 53.82447], [21.94673, 53.80029], [22.02813, 53.79883], [22.11159, 53.80462], [22.16882, 53.81513], [22.23579, 53.8385], [22.29205, 53.86891], [22.40678, 53.95127], [22.46657, 53.98294], [22.52954, 54.00698], [22.67018, 54.03959], [23.07886, 54.09124], [23.3753, 54.10509], [23.77317, 54.10068], [23.90472, 53.94606], [23.82834, 53.92007], [23.56569, 53.71815], [23.56707, 53.68101], [23.59094, 53.61125], [23.67579, 53.4557], [23.72292, 53.3971], [23.74297, 53.36548], [23.78297, 53.27094], [23.80065, 53.24246], [23.81863, 53.22797], [23.84808, 53.18381], [23.88312, 53.16399], [23.89366, 53.15195], [23.89139, 53.12771], [23.86069, 53.08748], [23.85935, 53.06798], [23.86793, 53.05103], [23.89821, 53.02754], [23.90968, 53.01273], [23.90906, 52.98666], [23.91795, 52.9508], [23.9011, 52.92326], [23.90203, 52.91253], [23.90948, 52.9015], [23.91249, 52.88759], [24.28832, 52.88636], [24.36191, 52.85753], [24.5602, 52.76211], [24.72622, 52.66201], [24.80094, 52.60813], [24.9382, 52.49054], [25.033, 52.38028], [25.10499, 52.25986], [25.14253, 52.17809], [25.15997, 51.94934], [25.1833, 51.94975], [25.35197, 51.92148], [25.44949, 51.92051], [25.45902, 51.68437], [25.47446, 51.66948], [25.62928, 51.56962], [25.7139, 51.52688], [25.97163, 51.40799], [26.31774, 51.25593], [26.14034, 51.27281], [25.39566, 51.20694], [25.01175, 51.18736], [24.82064, 51.18612], [24.62422, 51.19238], [24.37946, 51.21024], [24.22694, 51.23364], [24.07583, 51.27412], [23.93466, 51.33249], [23.68372, 51.47227], [23.61696, 51.50435], [23.54643, 51.53182], [23.47907, 51.55125], [23.35542, 51.57079], [23.24221, 51.56937], [23.13799, 51.54537], [23.06012, 51.50806], [22.98774, 51.45885], [22.85583, 51.35609], [22.78196, 51.31132], [22.67321, 51.27144], [22.5473, 51.24731], [22.40675, 51.23489], [22.25622, 51.23096], [21.80901, 51.23662], [21.66987, 51.23249], [21.60828, 51.22544], [21.5454, 51.21081], [21.49572, 51.19353], [21.31407, 51.10736], [21.26097, 51.08727], [21.20938, 51.07219], [21.10426, 51.05042], [20.9925, 51.03541], [20.88054, 51.02538], [20.07012, 50.97526], [19.9421, 51.18181], [19.86575, 51.28172], [19.77574, 51.37576], [19.66418, 51.46447], [19.53395, 51.53918], [19.38685, 51.59691], [19.25262, 51.62957]]], [[[11.96899, 54.56978], [11.94908, 54.5686], [11.92825, 54.58397], [11.92368, 54.59813], [11.86917, 54.65961], [11.87062, 54.68036], [11.91017, 54.72167], [11.87584, 54.72973], [11.87233, 54.73994], [11.88282, 54.75641], [11.80909, 54.80492], [11.80096, 54.81786], [11.79669, 54.84051], [11.87118, 54.86026], [11.99243, 54.87837], [12.11832, 54.88188], [12.17016, 54.84455], [12.17016, 54.83833], [12.06715, 54.78681], [12.0227, 54.7353], [11.97527, 54.70799], [11.9607, 54.69408], [11.97143, 54.60562], [11.96899, 54.56978]]], [[[23.47987, 55.39783], [23.41908, 55.35765], [23.36492, 55.36497], [23.47987, 55.39783]]]]}}]}