{"type": "FeatureCollection", "features": [{"type": "Feature", "properties": {"map_title": "굽타 왕조와 그 영향권", "source": "미래엔 세계사 교과서 1권 36쪽", "volume": 1, "page": 36, "name": "굽타 왕조", "name_en": "Gupta Empire", "period": "320–550년경", "kind": "국가", "legend": "굽타 왕조의 영역", "coast_snap": "Natural Earth 10m 해안선에 맞춤", "border_snap": "현대 국경(Natural Earth 10m)에 맞춘 구간 약 434 km"}, "geometry": {"type": "MultiPolygon", "coordinates": [[[[67.39341, 24.02807], [67.3755, 24.06273], [67.39039, 24.04926], [67.41326, 24.04877], [67.45802, 24.06273], [67.48527, 24.04849], [67.46518, 24.0406], [67.45395, 24.01341], [67.42693, 24.00753], [67.40944, 24.01351], [67.39341, 24.02807]]], [[[66.67702, 24.87953], [66.70444, 24.89204], [66.70444, 24.89887], [66.68134, 24.91056], [66.68134, 24.94888], [66.69703, 25.02546], [66.69955, 25.08506], [66.70437, 25.10406], [66.73227, 25.14326], [66.73797, 25.15949], [66.73715, 25.1811], [66.72146, 25.2126], [66.71754, 25.23119], [66.68843, 25.25722], [66.74625, 25.29241], [66.78179, 25.30794], [66.85567, 25.32877], [66.89468, 25.33426], [66.97208, 25.33472], [67.01116, 25.3297], [67.08536, 25.30977], [67.11225, 25.29843], [67.11934, 25.29025], [67.12945, 25.29202], [67.25199, 25.41454], [67.32577, 25.50107], [67.52881, 25.78991], [67.61586, 25.90379], [67.71354, 26.01113], [67.80162, 26.08415], [67.84667, 26.11067], [67.95708, 26.15846], [68.12252, 26.21949], [68.25673, 26.27772], [68.37698, 26.34389], [68.70619, 26.55753], [68.82247, 26.62368], [68.95045, 26.68253], [69.09741, 26.7323], [69.42672, 26.81122], [69.50004, 26.8323], [69.57632, 26.85969], [69.65624, 26.8952], [69.74539, 26.94267], [69.99671, 27.09755], [70.1269, 27.17194], [70.27244, 27.23942], [70.4102, 27.29134], [70.71063, 27.38853], [71.5031, 27.60496], [71.5217, 27.63608], [71.51094, 27.86491], [71.56073, 27.86853], [71.86086, 27.95021], [71.8744, 27.95969], [71.87998, 27.97491], [71.89156, 28.0971], [71.89693, 28.11555], [71.9083, 28.13557], [71.9882, 28.2281], [72.11098, 28.31763], [72.30153, 28.16643], [72.49423, 28.25449], [72.64137, 28.33418], [72.74168, 28.40798], [72.92235, 28.56687], [72.99343, 28.62028], [73.06679, 28.66653], [73.14578, 28.70508], [73.23451, 28.7361], [73.33915, 28.76024], [73.46237, 28.77705], [73.60902, 28.78669], [73.78434, 28.78916], [74.00582, 28.78024], [74.19602, 28.75788], [74.36117, 28.72454], [74.51015, 28.68222], [74.93336, 28.52648], [75.09225, 28.47473], [75.19112, 28.44771], [75.39968, 28.40101], [75.9601, 28.30043], [76.07404, 28.27502], [76.40398, 28.1786], [76.51995, 28.14967], [76.64264, 28.12789], [76.77791, 28.11622], [76.92421, 28.11827], [77.13449, 28.13714], [77.26902, 28.13771], [77.39466, 28.12388], [77.70508, 28.06638], [77.88319, 28.04307], [78.06797, 28.02819], [78.62139, 27.99388], [78.79582, 27.9719], [78.9594, 27.9377], [79.11131, 27.88609], [79.18274, 27.84947], [79.24072, 27.80949], [79.39636, 27.68479], [79.46421, 27.64689], [79.5507, 27.61447], [79.66021, 27.58989], [79.7394, 27.57853], [80.01082, 27.55553], [80.19554, 27.54926], [80.36279, 27.55007], [80.51249, 27.55865], [80.65718, 27.57379], [81.07431, 27.62908], [81.21436, 27.6416], [81.35877, 27.64689], [81.51007, 27.64253], [81.83895, 27.6095], [81.98453, 27.59983], [82.07996, 27.60139], [82.25624, 27.77091], [82.27041, 27.76048], [82.34792, 27.72601], [82.40193, 27.67717], [82.44068, 27.66643], [82.52616, 27.67521], [82.65214, 27.70415], [82.67969, 27.69441], [82.69705, 27.6694], [82.70925, 27.63092], [82.71886, 27.55612], [82.72971, 27.51817], [82.75214, 27.49496], [82.87626, 27.48755], [82.90128, 27.48037], [82.94716, 27.45732], [83.01047, 27.44339], [83.13279, 27.44422], [83.16963, 27.4312], [83.21924, 27.39378], [83.23159, 27.38122], [83.24942, 27.3481], [83.2595, 27.33813], [83.28244, 27.33094], [83.30487, 27.33192], [83.32435, 27.34169], [83.34114, 27.35694], [83.36275, 27.38562], [83.36957, 27.39817], [83.37096, 27.41021], [83.35582, 27.42866], [83.35386, 27.44029], [83.35592, 27.45249], [83.36099, 27.4622], [83.38703, 27.47047], [83.48098, 27.46975], [83.59043, 27.45662], [83.6634, 27.43228], [83.802, 27.36593], [83.84799, 27.35105], [83.8546, 27.34505], [83.86173, 27.35451], [83.87739, 27.36174], [83.87765, 27.36991], [83.87119, 27.38944], [83.84272, 27.41807], [83.83409, 27.43404], [83.85352, 27.44096], [83.89987, 27.44386], [83.92302, 27.44995], [83.97583, 27.43972], [84.00767, 27.44081], [84.02891, 27.45373], [84.0796, 27.50954], [84.09955, 27.51687], [84.11717, 27.51328], [84.12156, 27.49496], [84.13097, 27.48641], [84.16575, 27.47217], [84.1751, 27.46298], [84.18585, 27.43864], [84.19525, 27.43605], [84.22554, 27.44039], [84.23902, 27.43114], [84.24889, 27.41244], [84.2677, 27.38856], [84.28941, 27.37611], [84.35441, 27.36552], [84.32585, 27.13733], [84.37611, 27.11122], [84.62148, 27.05799], [84.62727, 27.03649], [84.64024, 27.02838], [84.7607, 26.99902], [84.77196, 26.99918], [84.7855, 27.00848], [84.80193, 27.01375], [84.81749, 27.0106], [84.82813, 26.99494], [84.85175, 26.98213], [84.90157, 26.96719], [84.92405, 26.95567], [84.93857, 26.9366], [84.95273, 26.89764], [84.97577, 26.88689], [85.00084, 26.88224], [85.01804, 26.87443], [85.01856, 26.8458], [85.04399, 26.84374], [85.10021, 26.86353], [85.12284, 26.8657], [85.16202, 26.85102], [85.16568, 26.78627], [85.19493, 26.75889], [85.09382, 26.54835], [85.43358, 26.25123], [85.76144, 25.92387], [86.2008, 25.45679], [86.29547, 25.34198], [86.35269, 25.24416], [86.38341, 25.15482], [86.39945, 25.0238], [86.39356, 24.99439], [86.3718, 24.98868], [86.33827, 25.00069], [86.21083, 25.07695], [86.17337, 25.09294], [86.1434, 25.0917], [86.11767, 25.05103], [86.12381, 24.97434], [86.15766, 24.8597], [86.21479, 24.71372], [86.29009, 24.54352], [86.68436, 23.73143], [86.80657, 23.46212], [86.84694, 23.35568], [86.88553, 23.15367], [86.90967, 23.07313], [86.92586, 23.03884], [87.02608, 22.862], [87.15798, 22.65414], [87.23603, 22.55738], [87.39303, 22.38714], [87.42885, 22.3399], [87.51521, 22.18831], [87.58709, 22.02447], [87.60028, 22.02355], [87.63194, 22.05874], [87.58784, 22.14293], [87.66851, 22.14522], [87.74382, 22.13282], [87.81463, 22.10712], [87.87832, 22.06936], [87.90706, 22.04619], [87.95681, 21.99224], [87.97703, 21.96232], [88.00601, 21.90148], [87.98364, 21.8542], [87.97046, 21.8365], [87.89918, 21.79483], [87.8929, 21.77433], [87.86719, 21.75081], [87.83371, 21.72918], [87.75571, 21.69172], [87.70378, 21.65551], [87.68385, 21.65015], [87.62135, 21.65062], [87.51961, 21.62449], [87.46876, 21.6114], [87.34157, 21.56236], [87.29347, 21.55367], [87.25611, 21.562], [87.23544, 21.55456], [87.20094, 21.55199], [87.11305, 21.50796], [87.06373, 21.475], [86.91765, 21.32738], [86.86695, 21.25605], [86.83725, 21.17471], [86.844, 21.08222], [86.95175, 20.84996], [86.86345, 20.85065], [86.78952, 20.8666], [86.71989, 20.89604], [86.61007, 20.9674], [86.50562, 21.04983], [86.45756, 21.09509], [86.45252, 21.18637], [86.46229, 21.25747], [86.51398, 21.40142], [86.574, 21.50089], [86.46316, 21.61584], [86.38668, 21.682], [86.30304, 21.73722], [86.20469, 21.78327], [86.10027, 21.81992], [85.99152, 21.84851], [85.87875, 21.87108], [85.55158, 21.92244], [85.4552, 21.94195], [85.35388, 21.97244], [85.25586, 22.01281], [84.97936, 22.15355], [84.90411, 22.18815], [84.79779, 22.22803], [84.70324, 22.24932], [84.48552, 22.28642], [84.40856, 22.31025], [84.34341, 22.34378], [84.28175, 22.39154], [84.21621, 22.45694], [84.03966, 22.65428], [83.92914, 22.76826], [83.77624, 22.90673], [83.58722, 23.05227], [83.37034, 23.18749], [83.13326, 23.29863], [82.88359, 23.37491], [82.63225, 23.407], [82.39119, 23.38723], [82.28378, 23.52374], [82.15536, 23.64164], [82.00459, 23.7393], [81.83024, 23.81533], [81.63054, 23.86852], [81.40724, 23.89722], [81.1552, 23.9007], [80.87726, 23.87744], [80.69684, 23.84453], [80.52895, 23.79561], [80.37143, 23.73432], [80.22085, 23.66407], [79.77651, 23.43409], [79.61896, 23.36255], [79.42811, 23.28995], [79.21869, 23.22268], [78.99554, 23.1609], [78.7649, 23.10518], [78.53179, 23.05571], [78.30181, 23.0128], [77.87267, 22.94654], [77.66048, 22.92653], [77.12358, 22.91749], [76.95885, 22.90187], [76.79319, 22.86592], [76.62022, 22.80113], [76.43618, 22.69982], [75.84338, 22.30234], [75.7057, 22.21912], [75.56367, 22.14492], [75.41369, 22.08186], [75.25124, 22.03214], [74.97066, 21.9801], [74.69073, 21.95813], [74.41314, 21.95692], [73.86995, 21.97006], [73.60803, 21.96192], [73.47544, 21.94571], [73.46927, 21.93447], [73.49488, 21.88292], [73.51341, 21.81724], [73.51839, 21.74903], [73.51147, 21.69185], [73.47954, 21.65188], [73.42434, 21.60339], [73.36014, 21.56586], [73.32541, 21.55167], [73.20225, 21.51504], [73.03844, 21.42918], [72.97205, 21.4063], [72.93714, 21.39916], [72.77228, 21.37509], [72.66951, 21.3705], [72.60987, 21.37457], [72.59409, 21.36279], [72.57867, 21.36718], [72.56765, 21.37642], [72.56464, 21.3858], [72.6351, 21.40746], [72.72828, 21.46581], [72.74708, 21.45287], [72.75262, 21.46357], [72.74855, 21.47964], [72.73829, 21.48286], [72.66505, 21.45722], [72.61247, 21.42187], [72.58369, 21.41744], [72.61965, 21.48736], [72.65105, 21.50702], [72.69033, 21.5408], [72.70395, 21.5484], [72.72682, 21.55317], [72.7732, 21.58051], [72.78907, 21.59553], [72.8104, 21.63507], [72.8229, 21.64381], [72.87159, 21.63654], [72.93556, 21.65835], [72.96534, 21.67878], [73.02247, 21.69855], [73.08497, 21.72968], [73.11695, 21.73725], [73.13201, 21.7578], [73.12615, 21.76683], [73.04664, 21.73334], [73.02247, 21.71601], [72.99147, 21.70844], [72.95021, 21.68915], [72.92716, 21.685], [72.85816, 21.69497], [72.81918, 21.67505], [72.79811, 21.67354], [72.73325, 21.68749], [72.67644, 21.67814], [72.61606, 21.68545], [72.55031, 21.6667], [72.53469, 21.67293], [72.52851, 21.69514], [72.55633, 21.77432], [72.56691, 21.84934], [72.58546, 21.85887], [72.61859, 21.92525], [72.63405, 21.93748], [72.65189, 21.94102], [72.69011, 21.93879], [72.70232, 21.94758], [72.71404, 21.98298], [72.73455, 21.98656], [72.73455, 21.99405], [72.70777, 21.99404], [72.70094, 21.98892], [72.69354, 21.97233], [72.62306, 21.96662], [72.6027, 21.9436], [72.58205, 21.92835], [72.54274, 21.91085], [72.53324, 21.92053], [72.50173, 21.97602], [72.52223, 22.05427], [72.51955, 22.08844], [72.53004, 22.10749], [72.536, 22.14078], [72.54229, 22.15689], [72.57562, 22.19464], [72.59051, 22.20502], [72.61389, 22.21168], [72.63445, 22.21039], [72.6819, 22.18159], [72.70802, 22.1857], [72.72925, 22.17743], [72.74822, 22.16405], [72.79022, 22.21723], [72.81227, 22.23411], [72.84742, 22.24041], [72.89723, 22.21304], [72.91603, 22.22309], [72.92213, 22.23652], [72.9227, 22.25458], [72.91749, 22.27143], [72.90577, 22.2814], [72.89947, 22.26909], [72.88608, 22.26241], [72.86974, 22.2624], [72.83863, 22.27656], [72.81821, 22.27342], [72.7566, 22.24373], [72.72658, 22.24894], [72.65943, 22.27391], [72.62501, 22.2714], [72.60662, 22.28384], [72.57374, 22.28824], [72.55307, 22.28246], [72.50171, 22.24043], [72.46616, 22.23258], [72.45705, 22.23673], [72.45486, 22.2453], [72.46697, 22.25585], [72.46388, 22.26398], [72.44874, 22.26683], [72.41375, 22.24633], [72.39186, 22.25349], [72.38108, 22.28975], [72.38039, 22.3124], [72.40496, 22.33295], [72.40805, 22.35346], [72.39723, 22.36677], [72.37135, 22.3559], [72.36101, 22.34345], [72.34051, 22.30321], [72.32829, 22.26074], [72.30909, 22.25724], [72.27516, 22.26033], [72.2632, 22.27637], [72.26466, 22.29523], [72.24041, 22.30191], [72.20851, 22.30044], [72.20094, 22.29145], [72.20631, 22.27391], [72.16179, 22.28095], [72.14877, 22.2779], [72.16603, 22.26032], [72.19068, 22.25129], [72.20924, 22.25943], [72.24041, 22.28824], [72.2461, 22.27558], [72.23414, 22.24356], [72.26832, 22.22675], [72.30648, 22.22955], [72.31722, 22.18488], [72.30762, 22.07901], [72.29566, 22.05118], [72.29176, 22.05341], [72.27515, 22.02754], [72.25783, 22.0123], [72.23732, 22.00703], [72.22096, 22.01097], [72.21648, 22.0078], [72.21436, 21.99405], [72.20631, 21.99405], [72.19988, 22.00699], [72.18268, 21.98294], [72.16343, 21.97322], [72.1517, 21.99388], [72.13429, 22.00458], [72.11378, 22.01057], [72.09702, 22.00702], [72.12809, 21.98354], [72.12484, 21.97233], [72.11492, 21.9694], [72.07651, 21.97972], [72.10449, 21.95922], [72.10205, 21.94506], [72.0962, 21.94303], [72.07325, 21.9545], [72.05519, 21.95352], [72.03842, 21.94758], [72.02866, 21.93879], [72.1045, 21.91767], [72.15647, 21.92584], [72.14536, 21.91767], [72.14536, 21.91083], [72.15918, 21.9046], [72.15235, 21.89785], [72.16976, 21.89044], [72.16, 21.86591], [72.16943, 21.84138], [72.16188, 21.83919], [72.13088, 21.84627], [72.09848, 21.88052], [72.07765, 21.89444], [72.05795, 21.89875], [72.04933, 21.88044], [72.08643, 21.86562], [72.10449, 21.83577], [72.08676, 21.83028], [72.0631, 21.83433], [72.00416, 21.85773], [71.99732, 21.85493], [71.99415, 21.8122], [72.00148, 21.78791], [72.02181, 21.80095], [72.02182, 21.77432], [72.0739, 21.78871], [72.1032, 21.77521], [72.11744, 21.7766], [72.16602, 21.79392], [72.17106, 21.79095], [72.17701, 21.76667], [72.1958, 21.75779], [72.20239, 21.74811], [72.21437, 21.71284], [72.22381, 21.70059], [72.24041, 21.69172], [72.27173, 21.69089], [72.27833, 21.67194], [72.29565, 21.65387], [72.29877, 21.62606], [72.29565, 21.61604], [72.27516, 21.59553], [72.24209, 21.48061], [72.21989, 21.44474], [72.16684, 21.39208], [72.15161, 21.36018], [72.1045, 21.31501], [72.11149, 21.29609], [72.10775, 21.28999], [72.09702, 21.28766], [72.10254, 21.2744], [72.09083, 21.25292], [72.10449, 21.22215], [72.10458, 21.20491], [72.09083, 21.19148], [72.06666, 21.18134], [72.05502, 21.16837], [71.99073, 21.13639], [71.92628, 21.13003], [71.80616, 21.06208], [71.76294, 21.03231], [71.74366, 21.02759], [71.71762, 21.03205], [71.68335, 21.01147], [71.63998, 20.99681], [71.5835, 20.95825], [71.54959, 20.95125], [71.56935, 20.97919], [71.55112, 20.97358], [71.49342, 20.92915], [71.48439, 20.91714], [71.48071, 20.90038], [71.46224, 20.88533], [71.37842, 20.85954], [71.31861, 20.84931], [71.14063, 20.7657], [71.11695, 20.76691], [71.11011, 20.75948], [71.09547, 20.76374], [71.06234, 20.73897], [71.02418, 20.74453], [71.00766, 20.7416], [71.00082, 20.72216], [70.98243, 20.71016], [70.81967, 20.70296], [70.80161, 20.70906], [70.77459, 20.72736], [70.74025, 20.7185], [70.69858, 20.74641], [70.54173, 20.80776], [70.48414, 20.84394], [70.46284, 20.849], [70.39877, 20.90351], [70.33669, 20.92708], [70.29998, 20.95856], [70.26353, 20.98042], [70.15219, 21.07852], [70.05466, 21.15299], [69.95826, 21.27334], [69.91146, 21.3152], [69.84517, 21.38938], [69.81472, 21.43367], [69.8086, 21.46581], [69.78852, 21.46943], [69.75656, 21.49026], [69.62973, 21.61603], [69.56806, 21.65028], [69.51979, 21.70478], [69.49937, 21.72021], [69.47853, 21.75263], [69.44631, 21.76631], [69.42728, 21.7814], [69.39765, 21.81545], [69.39179, 21.83218], [69.39519, 21.86131], [69.39088, 21.8767], [69.36761, 21.85605], [69.35548, 21.85319], [69.3362, 21.86246], [69.24391, 21.94595], [69.19858, 21.97958], [69.15065, 22.04121], [69.10305, 22.07637], [69.09205, 22.0996], [69.04819, 22.1579], [68.99416, 22.20393], [68.98048, 22.23554], [68.9446, 22.29507], [68.94403, 22.31826], [68.96062, 22.34951], [68.96771, 22.38743], [68.9831, 22.41914], [69.0075, 22.44317], [69.07358, 22.48187], [69.08138, 22.48053], [69.0852, 22.47288], [69.08227, 22.45955], [69.07447, 22.44946], [69.056, 22.44184], [69.04819, 22.43159], [69.07179, 22.39948], [69.09742, 22.39887], [69.12273, 22.41106], [69.14698, 22.40485], [69.17856, 22.42763], [69.18824, 22.42641], [69.20215, 22.41486], [69.20573, 22.39867], [69.18214, 22.36644], [69.1853, 22.34968], [69.16969, 22.32795], [69.17384, 22.3083], [69.19044, 22.2923], [69.21208, 22.28139], [69.21209, 22.27391], [69.28647, 22.28461], [69.3357, 22.30614], [69.34645, 22.32489], [69.35988, 22.32916], [69.4354, 22.33039], [69.47967, 22.34223], [69.5027, 22.37225], [69.51987, 22.37763], [69.52564, 22.39208], [69.51373, 22.43135], [69.51597, 22.44814], [69.53077, 22.44611], [69.54785, 22.45208], [69.56167, 22.39182], [69.5547, 22.37763], [69.61606, 22.3559], [69.61989, 22.37104], [69.62973, 22.38376], [69.64039, 22.37596], [69.66945, 22.40924], [69.69939, 22.40428], [69.73341, 22.48003], [69.79493, 22.41861], [69.80698, 22.42097], [69.82229, 22.45209], [69.83327, 22.46381], [69.86378, 22.46577], [69.88478, 22.47358], [69.97299, 22.54144], [69.99627, 22.54145], [70.02085, 22.55511], [70.05882, 22.55839], [70.1447, 22.5478], [70.17848, 22.56196], [70.2073, 22.61497], [70.23487, 22.64887], [70.2674, 22.70615], [70.3191, 22.77827], [70.32325, 22.78766], [70.32253, 22.82266], [70.34295, 22.84317], [70.37527, 22.90265], [70.40463, 22.9195], [70.43687, 22.95489], [70.45338, 22.96661], [70.48634, 22.96369], [70.50473, 22.97956], [70.52719, 23.02359], [70.52849, 23.04706], [70.52369, 23.07038], [70.50294, 23.1044], [70.48422, 23.12214], [70.46713, 23.12971], [70.45112, 23.10583], [70.41066, 23.086], [70.39877, 23.06904], [70.40105, 23.0454], [70.41097, 23.02318], [70.40187, 22.99925], [70.40161, 22.95384], [70.39242, 22.94087], [70.36354, 22.93871], [70.34669, 22.93131], [70.32569, 22.94501], [70.30348, 22.93815], [70.29176, 22.95303], [70.2693, 22.95857], [70.24968, 22.98745], [70.23308, 23.00015], [70.23193, 22.97492], [70.22201, 22.95918], [70.20411, 22.95223], [70.17848, 22.95303], [70.1631, 22.94897], [70.14747, 22.96605], [70.12906, 22.96933], [70.12501, 22.97598], [70.13063, 22.99396], [70.10955, 22.95917], [70.13232, 22.94106], [70.13541, 22.93001], [70.06178, 22.9182], [69.99691, 22.8938], [69.94068, 22.88614], [69.88429, 22.86784], [69.83318, 22.85847], [69.78012, 22.82746], [69.7601, 22.80834], [69.72884, 22.75484], [69.71583, 22.74691], [69.65382, 22.76048], [69.58571, 22.76119], [69.55698, 22.77851], [69.4998, 22.78175], [69.47218, 22.79466], [69.42466, 22.80428], [69.40593, 22.81367], [69.37257, 22.81901], [69.33815, 22.83308], [69.23878, 22.84196], [69.20192, 22.85225], [69.13543, 22.88848], [69.03989, 22.95051], [68.86623, 23.01997], [68.65407, 23.15779], [68.64967, 23.18085], [68.62258, 23.19156], [68.59989, 23.22524], [68.59574, 23.24034], [68.60939, 23.22671], [68.62013, 23.24543], [68.62306, 23.26765], [68.60531, 23.2596], [68.57781, 23.25528], [68.55226, 23.25972], [68.54104, 23.27823], [68.56105, 23.3161], [68.60694, 23.32559], [68.59205, 23.34007], [68.57106, 23.34639], [68.56105, 23.36392], [68.54102, 23.35701], [68.52057, 23.36937], [68.51511, 23.37725], [68.51516, 23.39931], [68.52955, 23.41193], [68.54103, 23.41169], [68.53639, 23.42133], [68.53012, 23.42569], [68.52215, 23.42475], [68.51321, 23.41853], [68.50148, 23.42328], [68.49048, 23.40934], [68.47535, 23.40486], [68.46259, 23.40913], [68.45884, 23.41983], [68.4655, 23.44579], [68.44044, 23.43428], [68.43093, 23.4366], [68.42369, 23.44579], [68.44744, 23.48745], [68.46562, 23.50529], [68.48585, 23.51411], [68.48129, 23.52513], [68.46803, 23.51984], [68.45867, 23.52147], [68.43735, 23.54881], [68.44744, 23.51634], [68.44695, 23.503], [68.43116, 23.49361], [68.41164, 23.49471], [68.40611, 23.50874], [68.41082, 23.54881], [68.40497, 23.5976], [68.40888, 23.62132], [68.4275, 23.6314], [68.47153, 23.61864], [68.49147, 23.61884], [68.49269, 23.6376], [68.48618, 23.64142], [68.46877, 23.64082], [68.46552, 23.65526], [68.46942, 23.65924], [68.50473, 23.67421], [68.53354, 23.67919], [68.58365, 23.7354], [68.60174, 23.74867], [68.63787, 23.76154], [68.65457, 23.79905], [68.67075, 23.81573], [68.7256, 23.81892], [68.74513, 23.83307], [68.76881, 23.84113], [68.82162, 23.8784], [68.80567, 23.88443], [68.78004, 23.8741], [68.76694, 23.8784], [68.74024, 23.85347], [68.71778, 23.84102], [68.63347, 23.83308], [68.62306, 23.82441], [68.59868, 23.78177], [68.5547, 23.76854], [68.51001, 23.7441], [68.47283, 23.73749], [68.42775, 23.7143], [68.34197, 23.62397], [68.35156, 23.61782], [68.34888, 23.60342], [68.32732, 23.58691], [68.31789, 23.58615], [68.29412, 23.5904], [68.23081, 23.58809], [68.18161, 23.59404], [68.1574, 23.60082], [68.14342, 23.6127], [68.15009, 23.63141], [68.17433, 23.63142], [68.18426, 23.65192], [68.19809, 23.65908], [68.20932, 23.66273], [68.22006, 23.65924], [68.23268, 23.64501], [68.24514, 23.65913], [68.27589, 23.66584], [68.28045, 23.68598], [68.25896, 23.67471], [68.24101, 23.67402], [68.20876, 23.69624], [68.1975, 23.71479], [68.19776, 23.77481], [68.16815, 23.74748], [68.16376, 23.75772], [68.16603, 23.77318], [68.17563, 23.79824], [68.18312, 23.84345], [68.15748, 23.9051], [68.15748, 23.86416], [68.17058, 23.83991], [68.14332, 23.76114], [68.14422, 23.74315], [68.15747, 23.69624], [68.14934, 23.69457], [68.10222, 23.73383], [68.09888, 23.70931], [68.08172, 23.7087], [68.06277, 23.72314], [68.05397, 23.74392], [68.07439, 23.76484], [68.07326, 23.78343], [68.08173, 23.80564], [68.10222, 23.80952], [68.10222, 23.81574], [68.07269, 23.8417], [68.05943, 23.86189], [68.0539, 23.88467], [68.06373, 23.92316], [68.0477, 23.92122], [68.01352, 23.93928], [68.04152, 23.85224], [68.05387, 23.82941], [68.02455, 23.7748], [68.01352, 23.76855], [67.99415, 23.81118], [67.97193, 23.80208], [67.95086, 23.80891], [67.94167, 23.81587], [67.93425, 23.83299], [67.90993, 23.83626], [67.90464, 23.84626], [67.90594, 23.85928], [67.89991, 23.86758], [67.89194, 23.86957], [67.86891, 23.85051], [67.86329, 23.90282], [67.85523, 23.91193], [67.83903, 23.82339], [67.83171, 23.80953], [67.7735, 23.82103], [67.7186, 23.8437], [67.74106, 23.82307], [67.74365, 23.80879], [67.73226, 23.79524], [67.71567, 23.79171], [67.69381, 23.79343], [67.63161, 23.80346], [67.63072, 23.82477], [67.64291, 23.85049], [67.65105, 23.90705], [67.65659, 23.91938], [67.6504, 23.93305], [67.63803, 23.91592], [67.63738, 23.87425], [67.62924, 23.85668], [67.61451, 23.85009], [67.59963, 23.85424], [67.58952, 23.86634], [67.58839, 23.88467], [67.57455, 23.87178], [67.54664, 23.89826], [67.53256, 23.89916], [67.53012, 23.89126], [67.54661, 23.87101], [67.49106, 23.88313], [67.47855, 23.8915], [67.50262, 23.89289], [67.51254, 23.89826], [67.54054, 23.93928], [67.50904, 23.92326], [67.49888, 23.92561], [67.49696, 23.93586], [67.50636, 23.97403], [67.4512, 23.9877], [67.46811, 24.02196], [67.4782, 24.03242], [67.4922, 24.02802], [67.51987, 24.04507], [67.5298, 24.05492], [67.53305, 24.07026], [67.50978, 24.05207], [67.48911, 24.0541], [67.44068, 24.07026], [67.38356, 24.0668], [67.35402, 24.07088], [67.34133, 24.08638], [67.33709, 24.11896], [67.32643, 24.14379], [67.30023, 24.18647], [67.29336, 24.21191], [67.29233, 24.26187], [67.27916, 24.28124], [67.29282, 24.30296], [67.28599, 24.32957], [67.30592, 24.34284], [67.33644, 24.34642], [67.36248, 24.34394], [67.32537, 24.35761], [67.28297, 24.35762], [67.27167, 24.36909], [67.27362, 24.39509], [67.28663, 24.43952], [67.25881, 24.41911], [67.25685, 24.44497], [67.24684, 24.46796], [67.21096, 24.50845], [67.2308, 24.52509], [67.22674, 24.53238], [67.20412, 24.53511], [67.19471, 24.54711], [67.18362, 24.5903], [67.21811, 24.58242], [67.25262, 24.59032], [67.209, 24.61376], [67.19044, 24.61766], [67.15971, 24.61234], [67.15212, 24.61572], [67.14961, 24.63488], [67.15701, 24.6629], [67.17556, 24.6887], [67.20011, 24.71074], [67.25294, 24.74038], [67.25554, 24.74799], [67.24513, 24.76166], [67.23268, 24.77074], [67.17628, 24.75776], [67.16734, 24.76017], [67.15602, 24.79157], [67.13966, 24.80329], [67.09995, 24.79708], [67.08123, 24.80329], [67.07374, 24.7958], [67.08251, 24.77417], [67.06374, 24.7817], [67.02296, 24.81005], [66.98732, 24.82222], [66.9651, 24.84357], [66.95769, 24.84357], [66.95786, 24.82543], [66.96508, 24.81006], [66.94118, 24.81258], [66.88209, 24.85102], [66.85377, 24.85224], [66.8025, 24.83956], [66.77963, 24.85102], [66.71632, 24.84154], [66.6797, 24.83056], [66.65416, 24.83919], [66.65666, 24.85804], [66.67702, 24.87953]], [[86.91462, 21.89648], [86.93034, 21.83733], [86.94054, 21.83135], [86.95772, 21.8394], [86.96123, 21.84698], [86.93134, 21.90379], [86.92006, 21.90589], [86.91462, 21.89648]], [[86.75535, 21.73627], [86.71739, 21.74821], [86.68813, 21.74492], [86.66691, 21.71705], [86.6658, 21.67306], [86.67866, 21.63171], [86.6922, 21.63108], [86.77377, 21.71379], [86.7733, 21.7238], [86.75535, 21.73627]]]]}}]}