{"type": "FeatureCollection", "features": [{"type": "Feature", "properties": {"map_title": "굽타 왕조와 그 영향권", "source": "미래엔 세계사 교과서 1권 36쪽", "volume": 1, "page": 36, "name": "파탈리푸트라", "name_en": "Pataliputra", "category": "수도", "year": null, "coord_source": "실제 위치", "map_lon": 85.13983, "map_lat": 25.60988, "legend": "굽타 왕조의 수도"}, "geometry": {"type": "Point", "coordinates": [85.14, 25.61]}}, {"type": "Feature", "properties": {"map_title": "굽타 왕조와 그 영향권", "source": "미래엔 세계사 교과서 1권 36쪽", "volume": 1, "page": 36, "name": "바라나시", "name_en": "Varanasi", "category": "유적", "year": null, "coord_source": "실제 위치", "map_lon": 83.01996, "map_lat": 25.38001, "legend": "주요 불교 유적"}, "geometry": {"type": "Point", "coordinates": [83.01, 25.32]}}, {"type": "Feature", "properties": {"map_title": "굽타 왕조와 그 영향권", "source": "미래엔 세계사 교과서 1권 36쪽", "volume": 1, "page": 36, "name": "날란다", "name_en": "Nalanda", "category": "유적", "year": null, "coord_source": "실제 위치", "map_lon": 85.44016, "map_lat": 25.14, "legend": "주요 불교 유적"}, "geometry": {"type": "Point", "coordinates": [85.44, 25.14]}}, {"type": "Feature", "properties": {"map_title": "굽타 왕조와 그 영향권", "source": "미래엔 세계사 교과서 1권 36쪽", "volume": 1, "page": 36, "name": "아잔타", "name_en": "Ajanta", "category": "유적", "year": null, "coord_source": "실제 위치", "map_lon": 75.70016, "map_lat": 20.55026, "legend": "주요 불교 유적"}, "geometry": {"type": "Point", "coordinates": [75.7, 20.55]}}, {"type": "Feature", "properties": {"map_title": "굽타 왕조와 그 영향권", "source": "미래엔 세계사 교과서 1권 36쪽", "volume": 1, "page": 36, "name": "엘로라", "name_en": "Ellora", "category": "유적", "year": null, "coord_source": "실제 위치", "map_lon": 75.17982, "map_lat": 20.02978, "legend": "주요 불교 유적"}, "geometry": {"type": "Point", "coordinates": [75.18, 20.03]}}]}