{"type": "FeatureCollection", "features": [{"type": "Feature", "properties": {"map_title": "1939~1941년 사이 유럽에서의 전쟁 상황", "source": "미래엔 세계사 교과서 4권 190쪽", "volume": 4, "page": 190, "legend": "중립국", "name": "아일랜드", "name_en": "Ireland", "period": "1939–1941", "kind": "국가", "group": "중립국", "coast_snap": "Natural Earth 10m 해안선에 맞춤", "border_snap": "현대 국경(Natural Earth 10m)에 맞춘 구간 약 186 km"}, "geometry": {"type": "MultiPolygon", "coordinates": [[[[-7.43962, 54.14693], [-7.41466, 54.14569], [-7.42577, 54.13695], [-7.40396, 54.13504], [-7.39466, 54.12192], [-7.37549, 54.12331], [-7.32696, 54.1136], [-7.31032, 54.11468], [-7.33316, 54.14274], [-7.33316, 54.14941], [-7.32598, 54.15458], [-7.29554, 54.16512], [-7.29213, 54.16264], [-7.29735, 54.1259], [-7.29379, 54.12202], [-7.27074, 54.13225], [-7.26351, 54.14099], [-7.26087, 54.15117], [-7.26537, 54.16114], [-7.24578, 54.16698], [-7.24702, 54.17225], [-7.26113, 54.18088], [-7.24909, 54.19742], [-7.2295, 54.20754], [-7.17473, 54.21607], [-7.15333, 54.22424], [-7.15974, 54.24067], [-7.14589, 54.25209], [-7.18149, 54.26976], [-7.1755, 54.28366], [-7.20904, 54.29343], [-7.21147, 54.30418], [-7.19917, 54.30346], [-7.18465, 54.31663], [-7.19147, 54.32387], [-7.19245, 54.33472], [-7.18563, 54.33694], [-7.15989, 54.33519], [-7.12703, 54.34976], [-7.0785, 54.39472], [-7.04926, 54.41151], [-7.01784, 54.41317], [-6.88602, 54.63408], [-6.7199, 54.67606], [-6.5699, 54.57483], [-6.5734, 54.45332], [-6.53533, 54.4288], [-6.47387, 54.44192], [-6.46531, 54.44877], [-6.51529, 54.52295], [-6.42646, 54.56544], [-6.37382, 54.58387], [-6.26251, 54.61075], [-6.16836, 54.6234], [-6.06429, 54.63006], [-5.9874, 54.62835], [-5.91201, 54.62162], [-5.90738, 54.60562], [-5.89489, 54.6048], [-5.87936, 54.61761], [-5.79626, 54.60382], [-5.68769, 54.57728], [-5.70198, 54.5777], [-5.69736, 54.55142], [-5.71565, 54.53669], [-5.70153, 54.53632], [-5.67406, 54.52367], [-5.63696, 54.52203], [-5.62563, 54.51627], [-5.66393, 54.5102], [-5.67032, 54.50568], [-5.63998, 54.49575], [-5.6446, 54.47211], [-5.6385, 54.46357], [-5.62562, 54.461], [-5.63313, 54.44733], [-5.62562, 54.44111], [-5.66145, 54.37958], [-5.69791, 54.36229], [-5.70885, 54.35175], [-5.62213, 54.37665], [-5.5797, 54.38369], [-5.55053, 54.36542], [-5.5407, 54.32734], [-5.55306, 54.29853], [-5.57951, 54.27571], [-5.61263, 54.25557], [-5.63313, 54.25556], [-5.63998, 54.23506], [-5.65575, 54.22969], [-5.66339, 54.23087], [-5.67882, 54.24616], [-5.73689, 54.24909], [-5.77945, 54.24653], [-5.86205, 54.23054], [-5.86803, 54.21849], [-5.86858, 54.16113], [-5.89381, 54.10469], [-5.91199, 54.0913], [-5.95385, 54.07868], [-5.98498, 54.0592], [-6.04052, 54.03645], [-6.09544, 54.03637], [-6.11288, 54.04388], [-6.11288, 54.05011], [-6.08495, 54.05695], [-6.17429, 54.0743], [-6.18586, 54.09268], [-6.26366, 54.10468], [-6.26989, 54.09793], [-6.20702, 54.06171], [-6.18433, 54.05377], [-6.16991, 54.03962], [-6.1338, 54.03333], [-6.10731, 54.01361], [-6.11101, 54.00129], [-6.14356, 53.97843], [-6.16076, 53.97445], [-6.22277, 53.99543], [-6.23705, 53.99385], [-6.30704, 54.01187], [-6.35985, 54.01602], [-6.35985, 54.00849], [-6.34783, 54.00361], [-6.37296, 53.96442], [-6.37898, 53.9169], [-6.37295, 53.89932], [-6.35082, 53.88142], [-6.31729, 53.87108], [-6.24325, 53.86513], [-6.25499, 53.82221], [-6.24498, 53.80687], [-6.22279, 53.79629], [-6.24328, 53.78254], [-6.24844, 53.75576], [-6.24132, 53.68561], [-6.22989, 53.65656], [-6.22277, 53.64606], [-6.1871, 53.63007], [-6.16979, 53.60566], [-6.09241, 53.57713], [-6.07732, 53.55463], [-6.07496, 53.53974], [-6.08155, 53.52595], [-6.13315, 53.46127], [-6.14086, 53.47114], [-6.15836, 53.47285], [-6.19481, 53.46109], [-6.13062, 53.44261], [-6.12222, 53.41987], [-6.11292, 53.41266], [-6.12654, 53.39899], [-6.11026, 53.39403], [-6.06909, 53.39251], [-6.05087, 53.3854], [-6.06188, 53.36758], [-6.07461, 53.3669], [-6.12279, 53.39277], [-6.13231, 53.39159], [-6.15697, 53.3854], [-6.21532, 53.35806], [-6.21817, 53.34715], [-6.15518, 53.29938], [-6.09701, 53.28554], [-6.10546, 53.2652], [-6.10489, 53.22944], [-6.09923, 53.21467], [-6.07105, 53.18427], [-6.07811, 53.1662], [-6.03041, 53.11103], [-6.0371, 53.1048], [-6.03386, 53.06391], [-6.05162, 53.00926], [-5.99354, 52.95743], [-6.01183, 52.94965], [-6.02186, 52.9309], [-6.03795, 52.91966], [-6.07193, 52.87202], [-6.06446, 52.86457], [-6.10729, 52.83979], [-6.13012, 52.81598], [-6.15388, 52.76838], [-6.14787, 52.74616], [-6.21532, 52.66596], [-6.22057, 52.64728], [-6.20651, 52.58885], [-6.20911, 52.54585], [-6.28267, 52.46739], [-6.31774, 52.44794], [-6.35619, 52.409], [-6.36555, 52.3935], [-6.36613, 52.34446], [-6.39004, 52.35883], [-6.44807, 52.35591], [-6.46886, 52.36001], [-6.46296, 52.378], [-6.49649, 52.36432], [-6.49649, 52.3581], [-6.48144, 52.35464], [-6.45615, 52.33584], [-6.44866, 52.3227], [-6.45499, 52.31224], [-6.42375, 52.30792], [-6.40917, 52.28925], [-6.37297, 52.32267], [-6.38976, 52.2956], [-6.36978, 52.27261], [-6.31837, 52.24079], [-6.34706, 52.19726], [-6.3702, 52.17991], [-6.38658, 52.17936], [-6.39947, 52.1855], [-6.38231, 52.21198], [-6.40005, 52.21092], [-6.42561, 52.1938], [-6.46909, 52.1936], [-6.46911, 52.19977], [-6.44864, 52.19977], [-6.46231, 52.20718], [-6.47256, 52.20698], [-6.48966, 52.19978], [-6.53746, 52.19359], [-6.57975, 52.17822], [-6.59715, 52.1796], [-6.64143, 52.20279], [-6.71557, 52.21662], [-6.78628, 52.21004], [-6.80557, 52.21284], [-6.80557, 52.22036], [-6.77599, 52.23322], [-6.76586, 52.24575], [-6.76403, 52.2613], [-6.79296, 52.24042], [-6.81265, 52.2353], [-6.83226, 52.24079], [-6.8391, 52.23456], [-6.8391, 52.21284], [-6.81859, 52.22036], [-6.83226, 52.19359], [-6.81862, 52.19359], [-6.81861, 52.18619], [-6.83226, 52.18618], [-6.8248, 52.17935], [-6.89708, 52.15204], [-6.93212, 52.12467], [-6.94894, 52.13093], [-6.93975, 52.14321], [-6.90392, 52.1623], [-6.90372, 52.17219], [-6.92101, 52.21284], [-6.93668, 52.22907], [-6.97012, 52.24738], [-6.98473, 52.27863], [-6.99739, 52.28921], [-6.9899, 52.25165], [-6.96949, 52.22036], [-6.98229, 52.19562], [-6.97997, 52.18594], [-6.95517, 52.18617], [-6.95517, 52.17935], [-7.01721, 52.13839], [-7.106, 52.13094], [-7.07185, 52.16572], [-7.10635, 52.173], [-7.12023, 52.17194], [-7.12023, 52.16572], [-7.10603, 52.15204], [-7.13732, 52.15888], [-7.14965, 52.15632], [-7.16748, 52.13838], [-7.18737, 52.13277], [-7.24376, 52.13837], [-7.43546, 52.12568], [-7.50431, 52.1027], [-7.54141, 52.0974], [-7.5553, 52.08492], [-7.56529, 52.08374], [-7.58263, 52.10423], [-7.59996, 52.10102], [-7.61901, 52.09223], [-7.63109, 52.07905], [-7.62735, 52.06269], [-7.61758, 52.07022], [-7.60216, 52.07167], [-7.5468, 52.05926], [-7.54518, 52.055], [-7.55103, 52.0428], [-7.58263, 52.02851], [-7.58993, 51.99116], [-7.63541, 51.97676], [-7.6876, 51.98032], [-7.7542, 52.05547], [-7.78528, 52.12186], [-7.82305, 52.25543], [-7.82179, 52.32545], [-7.81275, 52.36029], [-7.77785, 52.4279], [-7.76283, 52.44635], [-7.49219, 52.48417], [-7.43405, 52.52981], [-7.3344, 52.58356], [-7.3301, 52.58982], [-7.5036, 53.16505], [-7.59289, 53.55948], [-7.64215, 53.90808], [-7.56162, 54.13334], [-7.5023, 54.12512], [-7.48075, 54.12765], [-7.43962, 54.14693]]], [[[-6.1795, 53.35053], [-6.14765, 53.36464], [-6.12598, 53.36612], [-6.17081, 53.34662], [-6.17823, 53.33825], [-6.18569, 53.34259], [-6.1795, 53.35053]]], [[[-6.00476, 53.49454], [-5.99912, 53.48872], [-6.0107, 53.47725], [-6.03366, 53.48721], [-6.02773, 53.49379], [-6.00476, 53.49454]]], [[[-5.6279, 54.55833], [-5.51397, 54.51709], [-5.43358, 54.48128], [-5.43385, 54.46101], [-5.46426, 54.42524], [-5.4574, 54.40868], [-5.46119, 54.39208], [-5.48913, 54.36957], [-5.47487, 54.35859], [-5.48957, 54.3537], [-5.50204, 54.33968], [-5.51577, 54.33809], [-5.52766, 54.34528], [-5.54711, 54.3791], [-5.55899, 54.38264], [-5.57664, 54.40278], [-5.57166, 54.4256], [-5.5487, 54.44282], [-5.54735, 54.48908], [-5.55801, 54.51191], [-5.57531, 54.529], [-5.6279, 54.55833]]], [[[-8.34434, 54.90564], [-8.33632, 55.04548], [-8.33507, 55.03506], [-8.32567, 55.03022], [-8.30517, 55.05805], [-8.3204, 55.10492], [-8.30435, 55.11921], [-8.27846, 55.16054], [-8.26301, 55.16107], [-8.20653, 55.14688], [-8.14128, 55.16054], [-8.15958, 55.13874], [-8.15648, 55.1245], [-8.11485, 55.15472], [-8.02098, 55.18879], [-7.99957, 55.21962], [-7.9768, 55.2219], [-7.95021, 55.21027], [-7.95873, 55.19917], [-8.00414, 55.18098], [-8.00414, 55.17414], [-7.96199, 55.1872], [-7.94904, 55.17984], [-7.90857, 55.18841], [-7.89491, 55.17414], [-7.89879, 55.1564], [-7.8601, 55.1679], [-7.87287, 55.1516], [-7.89489, 55.14688], [-7.89489, 55.14008], [-7.85644, 55.13898], [-7.83471, 55.16498], [-7.83755, 55.17585], [-7.86008, 55.19465], [-7.8661, 55.21491], [-7.7987, 55.25607], [-7.79126, 55.24867], [-7.81574, 55.19465], [-7.80161, 55.18332], [-7.79504, 55.18195], [-7.77074, 55.18842], [-7.7176, 55.16657], [-7.69563, 55.1332], [-7.7025, 55.09907], [-7.6682, 55.1472], [-7.7036, 55.21845], [-7.71605, 55.22191], [-7.72395, 55.21459], [-7.70932, 55.17414], [-7.72313, 55.17573], [-7.75023, 55.19465], [-7.77965, 55.19965], [-7.79174, 55.206], [-7.78816, 55.21857], [-7.7814, 55.22277], [-7.76084, 55.25608], [-7.72509, 55.25267], [-7.66088, 55.27654], [-7.64397, 55.27276], [-7.61141, 55.2414], [-7.61994, 55.2049], [-7.61449, 55.19599], [-7.57276, 55.18097], [-7.56412, 55.15575], [-7.52784, 55.13255], [-7.5258, 55.11616], [-7.54142, 55.09224], [-7.55639, 55.08975], [-7.58643, 55.07112], [-7.64102, 55.05069], [-7.64102, 55.04385], [-7.58117, 55.05043], [-7.56186, 55.0445], [-7.57274, 55.02338], [-7.63418, 54.99543], [-7.68139, 54.96125], [-7.68139, 54.95441], [-7.64338, 54.96528], [-7.54849, 55.01843], [-7.53799, 55.01992], [-7.52935, 55.0307], [-7.46911, 55.04385], [-7.45002, 55.07233], [-7.45442, 55.08625], [-7.47751, 55.09638], [-7.46288, 55.11953], [-7.46288, 55.14346], [-7.51008, 55.18098], [-7.54139, 55.19807], [-7.54953, 55.2154], [-7.54937, 55.22516], [-7.52709, 55.23676], [-7.51623, 55.25414], [-7.51358, 55.27436], [-7.5243, 55.29026], [-7.47859, 55.28392], [-7.46288, 55.29027], [-7.46908, 55.30387], [-7.42797, 55.28657], [-7.40591, 55.28693], [-7.36778, 55.3106], [-7.34752, 55.31428], [-7.3275, 55.3085], [-7.3121, 55.29029], [-7.33996, 55.29027], [-7.32087, 55.28217], [-7.2766, 55.27582], [-7.25674, 55.284], [-7.32067, 55.3133], [-7.35045, 55.33501], [-7.35302, 55.35855], [-7.40019, 55.38027], [-7.38442, 55.38637], [-7.24731, 55.35716], [-7.2092, 55.34523], [-7.12906, 55.28583], [-7.07933, 55.27265], [-7.04148, 55.26876], [-6.9757, 55.24868], [-6.95353, 55.25433], [-6.93958, 55.23908], [-6.9428, 55.21858], [-6.97256, 55.20832], [-7.03409, 55.19685], [-7.09977, 55.16548], [-7.1595, 55.15078], [-7.17284, 55.1435], [-7.23229, 55.09186], [-7.25674, 55.05069], [-7.19696, 55.05778], [-7.19482, 55.05562], [-7.17785, 55.05697], [-7.1339, 55.04385], [-7.09948, 55.04096], [-7.06505, 55.04385], [-7.0537, 55.04873], [-7.0172, 55.07111], [-7.0098, 55.1024], [-6.97492, 55.13544], [-6.96253, 55.19465], [-6.94669, 55.19537], [-6.88378, 55.17414], [-6.75451, 55.1778], [-6.64045, 55.20831], [-6.57128, 55.21125], [-6.52009, 55.24054], [-6.49777, 55.24716], [-6.47595, 55.24867], [-6.41592, 55.23188], [-6.37816, 55.24623], [-6.35324, 55.24267], [-6.23982, 55.20832], [-6.16002, 55.2219], [-6.12084, 55.21783], [-6.10099, 55.21238], [-6.03712, 55.16791], [-6.04266, 55.1076], [-6.21496, 54.98093], [-6.25905, 54.95625], [-6.35797, 54.9151], [-6.45448, 54.88899], [-6.65676, 54.81049], [-6.80419, 54.76156], [-6.85905, 54.74831], [-6.9698, 54.7314], [-7.06208, 54.69844], [-7.09933, 54.6891], [-7.10357, 54.68207], [-7.15633, 54.68386], [-7.54308, 54.74167], [-7.56664, 54.73868], [-7.5854, 54.74472], [-7.61537, 54.73935], [-7.64968, 54.74488], [-7.66751, 54.73878], [-7.70229, 54.71888], [-7.7366, 54.70746], [-7.7705, 54.70602], [-7.80358, 54.71614], [-7.83215, 54.73061], [-7.8459, 54.73103], [-7.88011, 54.71103], [-7.92967, 54.69671], [-7.90714, 54.68669], [-7.91484, 54.67165], [-7.90662, 54.66132], [-7.86435, 54.64907], [-7.84642, 54.63145], [-7.83804, 54.63124], [-7.815, 54.63946], [-7.76916, 54.61801], [-7.75355, 54.6145], [-7.7212, 54.62587], [-7.71056, 54.62426], [-7.70787, 54.60416], [-7.74926, 54.59615], [-7.84884, 54.54091], [-7.88714, 54.53213], [-7.92641, 54.53305], [-8.00219, 54.54344], [-8.0339, 54.52055], [-8.18832, 54.58603], [-8.17252, 54.59447], [-8.17538, 54.61928], [-8.13756, 54.60562], [-8.12084, 54.64655], [-8.12768, 54.65278], [-8.16666, 54.63615], [-8.24085, 54.62657], [-8.2545, 54.63845], [-8.28346, 54.66996], [-8.32408, 54.73589], [-8.34419, 54.83146], [-8.32567, 54.83153], [-8.32567, 54.83832], [-8.34491, 54.84032], [-8.3457, 54.87891], [-8.31265, 54.87934], [-8.32584, 54.88581], [-8.34434, 54.90564]]], [[[-6.21109, 55.29532], [-6.28352, 55.29707], [-6.2364, 55.31134], [-6.17432, 55.30389], [-6.178, 55.28077], [-6.19479, 55.26296], [-6.18798, 55.284], [-6.21109, 55.29532]]], [[[-5.74703, 55.35336], [-5.78097, 55.31136], [-5.79668, 55.3791], [-5.79139, 55.39862], [-5.76443, 55.41157], [-5.71565, 55.4479], [-5.72189, 55.51386], [-5.71341, 55.53155], [-5.70698, 55.49262], [-5.71497, 55.42164], [-5.74703, 55.35336]]], [[[-6.31838, 55.8867], [-6.33821, 55.84577], [-6.33072, 55.82783], [-6.32323, 55.8205], [-6.3109, 55.81843], [-6.31843, 55.84492], [-6.29697, 55.86717], [-6.26479, 55.8854], [-6.22907, 55.89728], [-6.20424, 55.91656], [-6.16222, 55.92845], [-6.14012, 55.94134], [-6.12547, 55.93657], [-6.09923, 55.80101], [-6.07909, 55.78148], [-6.04981, 55.76634], [-6.05826, 55.74274], [-6.0304, 55.72907], [-6.03234, 55.70637], [-6.02353, 55.68188], [-6.04572, 55.67426], [-6.05827, 55.66016], [-6.06444, 55.66763], [-6.08267, 55.65196], [-6.13228, 55.63175], [-6.16003, 55.62666], [-6.20254, 55.63056], [-6.21532, 55.62665], [-6.22718, 55.60161], [-6.26188, 55.58382], [-6.28772, 55.57851], [-6.31132, 55.58345], [-6.32517, 55.60554], [-6.31923, 55.62824], [-6.29746, 55.64247], [-6.24324, 55.66014], [-6.2648, 55.6955], [-6.27709, 55.70401], [-6.32513, 55.71561], [-6.32093, 55.73346], [-6.24999, 55.77684], [-6.30045, 55.78579], [-6.32872, 55.78315], [-6.34903, 55.77342], [-6.3866, 55.72232], [-6.41857, 55.70962], [-6.46297, 55.67447], [-6.49095, 55.67183], [-6.50351, 55.68135], [-6.50242, 55.69766], [-6.48965, 55.7154], [-6.50387, 55.72285], [-6.49297, 55.73947], [-6.44864, 55.77684], [-6.48214, 55.79047], [-6.4608, 55.80321], [-6.44521, 55.84882], [-6.40908, 55.86358], [-6.35448, 55.87743], [-6.33101, 55.88987], [-6.31838, 55.8867]]], [[[-6.07811, 55.83491], [-6.08483, 55.90053], [-6.07621, 55.91429], [-6.02184, 55.88533], [-5.95169, 55.83445], [-5.96208, 55.80476], [-5.98754, 55.79463], [-6.02659, 55.7961], [-6.06239, 55.80948], [-6.07811, 55.83491]]]]}}]}