{"type": "FeatureCollection", "features": [{"type": "Feature", "properties": {"map_title": "1939~1941년 사이 유럽에서의 전쟁 상황", "source": "미래엔 세계사 교과서 4권 190쪽", "volume": 4, "page": 190, "legend": "추축국 영토(1939년 9월)", "name": "독일", "name_en": "Germany", "period": "1939–1941", "kind": "국가", "group": "추축국 영토(1939년 9월)", "coast_snap": "Natural Earth 10m 해안선에 맞춤", "border_snap": "현대 국경(Natural Earth 10m)에 맞춘 구간 약 1412 km"}, "geometry": {"type": "MultiPolygon", "coordinates": [[[[5.38446, 53.41976], [5.40724, 53.42255], [5.43703, 53.43646], [5.58526, 53.45358], [5.56201, 53.43432], [5.5337, 53.42838], [5.47543, 53.42695], [5.48137, 53.41256], [5.42701, 53.40644], [5.38105, 53.39447], [5.38446, 53.41976]]], [[[5.64646, 53.46564], [5.65887, 53.47186], [5.674, 53.46792], [5.91382, 53.47385], [5.95456, 53.46109], [5.85564, 53.44743], [5.75278, 53.44741], [5.67896, 53.43013], [5.65359, 53.43375], [5.6361, 53.44868], [5.64646, 53.46564]]], [[[6.1851, 53.50479], [6.31043, 53.51413], [6.33872, 53.50864], [6.3387, 53.50203], [6.15317, 53.46882], [6.13331, 53.45362], [6.12715, 53.46308], [6.13331, 53.46792], [6.12283, 53.48163], [6.14797, 53.49485], [6.1851, 53.50479]]], [[[6.60602, 53.54775], [6.5857, 53.53336], [6.57051, 53.53812], [6.58359, 53.54807], [6.60602, 53.54775]]], [[[6.44119, 53.55662], [6.45509, 53.55808], [6.50976, 53.5437], [6.49609, 53.53627], [6.46032, 53.5435], [6.44306, 53.55], [6.44119, 53.55662]]], [[[6.66336, 53.58735], [6.65954, 53.5991], [6.74733, 53.61834], [6.78467, 53.62005], [6.79808, 53.60445], [6.72242, 53.59077], [6.72242, 53.58462], [6.74218, 53.57835], [6.75649, 53.56291], [6.72608, 53.57714], [6.69508, 53.57031], [6.67711, 53.57564], [6.66336, 53.58735]]], [[[6.86713, 53.64756], [6.89519, 53.65142], [6.92178, 53.64195], [6.89372, 53.62321], [6.86599, 53.63378], [6.86713, 53.64756]]], [[[6.87387, 53.67277], [6.91082, 53.68365], [7.04705, 53.69415], [7.08539, 53.687], [6.87387, 53.67277]]], [[[7.29574, 53.71101], [7.17397, 53.70143], [7.13319, 53.70808], [7.17897, 53.72406], [7.23257, 53.7294], [7.34619, 53.72796], [7.34669, 53.72323], [7.29574, 53.71101]]], [[[8.17481, 53.737], [8.19593, 53.72798], [8.17172, 53.72557], [8.15089, 53.71431], [8.13071, 53.71845], [8.12014, 53.71432], [8.13267, 53.73403], [8.15271, 53.73913], [8.17481, 53.737]]], [[[7.42124, 53.72115], [7.3666, 53.72798], [7.40103, 53.7365], [7.42261, 53.73419], [7.43554, 53.72797], [7.43237, 53.72407], [7.42124, 53.72115]]], [[[7.47463, 53.75682], [7.60661, 53.76259], [7.6267, 53.75527], [7.62719, 53.75093], [7.5477, 53.75043], [7.51393, 53.74551], [7.51123, 53.72798], [7.48195, 53.72713], [7.47301, 53.73188], [7.46959, 53.74535], [7.47463, 53.75682]]], [[[7.72828, 53.78656], [7.81282, 53.78314], [7.81282, 53.77636], [7.79859, 53.77635], [7.74821, 53.76095], [7.7195, 53.75992], [7.695, 53.76952], [7.67709, 53.75781], [7.66092, 53.76211], [7.6863, 53.78098], [7.72828, 53.78656]]], [[[7.87378, 53.77637], [7.85452, 53.78458], [7.85891, 53.79091], [7.91407, 53.79534], [7.9555, 53.78292], [7.87526, 53.7884], [7.87378, 53.77637]]], [[[7.89919, 54.17818], [7.87993, 54.19391], [7.89453, 54.19464], [7.90414, 54.18043], [7.89919, 54.17818]]], [[[8.27703, 54.7826], [8.28264, 54.83554], [8.29776, 54.83901], [8.29831, 54.77665], [8.29078, 54.74552], [8.28444, 54.74239], [8.27703, 54.7826]]], [[[5.16054, 51.75274], [5.16442, 51.79741], [5.14567, 51.80118], [5.13042, 51.78843], [4.98279, 51.96574], [5.11742, 52.05696], [5.29108, 52.04247], [5.59092, 52.14081], [5.67408, 52.229], [5.66743, 52.23538], [5.56606, 52.27494], [5.84982, 52.48489], [5.81772, 52.65182], [5.56593, 52.65049], [5.57734, 52.78849], [5.84887, 52.82248], [5.8594, 52.83215], [5.90525, 52.94358], [5.89816, 52.95187], [5.79166, 52.97971], [5.65556, 53.02928], [5.55982, 53.0831], [5.46525, 53.1647], [5.43518, 53.20246], [5.44746, 53.22089], [5.50395, 53.25687], [5.54103, 53.26659], [5.59157, 53.30279], [5.65968, 53.31196], [5.6946, 53.33005], [5.85475, 53.3688], [5.89081, 53.38425], [5.91375, 53.3854], [5.98081, 53.40606], [6.27393, 53.41266], [6.31153, 53.39899], [6.34556, 53.41266], [6.49393, 53.43863], [6.73023, 53.46063], [6.82911, 53.45058], [6.84977, 53.44488], [6.86685, 53.43427], [6.90056, 53.35179], [6.93001, 53.34007], [6.94858, 53.32608], [7.02003, 53.30614], [7.03777, 53.30963], [7.05828, 53.30195], [7.08544, 53.30963], [7.08544, 53.30281], [7.0735, 53.29564], [7.08074, 53.26679], [7.1111, 53.25633], [7.19459, 53.24502], [7.21583, 53.2556], [7.23357, 53.27363], [7.23699, 53.28555], [7.22952, 53.29657], [7.25477, 53.31954], [7.29152, 53.32392], [7.36655, 53.3028], [7.34254, 53.32404], [7.30291, 53.33275], [7.07521, 53.3376], [7.03827, 53.34859], [7.02363, 53.37641], [7.0233, 53.45051], [7.05146, 53.5126], [7.05975, 53.5217], [7.11964, 53.5163], [7.14177, 53.53718], [7.13998, 53.54979], [7.13111, 53.55695], [7.08889, 53.57372], [7.08678, 53.58686], [7.10094, 53.59788], [7.13315, 53.61127], [7.2261, 53.66648], [7.30503, 53.68479], [7.45883, 53.69512], [7.48023, 53.68203], [7.50392, 53.67866], [7.65162, 53.69699], [7.95143, 53.7219], [8.03141, 53.70807], [8.02491, 53.67255], [8.05291, 53.6363], [8.09409, 53.60472], [8.1276, 53.59076], [8.11915, 53.57193], [8.15674, 53.56366], [8.16796, 53.55321], [8.16487, 53.53523], [8.15516, 53.5259], [8.11573, 53.51074], [8.07635, 53.50861], [8.05877, 53.50202], [8.08619, 53.45612], [8.09978, 53.44741], [8.12387, 53.454], [8.15234, 53.44977], [8.18668, 53.4295], [8.20533, 53.41071], [8.2365, 53.40672], [8.25945, 53.4123], [8.29282, 53.4405], [8.31512, 53.47492], [8.32049, 53.50922], [8.29151, 53.52936], [8.25221, 53.52311], [8.23123, 53.52522], [8.24889, 53.59027], [8.27069, 53.61285], [8.32969, 53.61802], [8.34847, 53.61285], [8.38771, 53.57714], [8.42807, 53.56477], [8.51343, 53.55475], [8.55209, 53.54361], [8.55209, 53.5362], [8.5062, 53.50796], [8.49, 53.4864], [8.48504, 53.40119], [8.4909, 53.37645], [8.50441, 53.35806], [8.49757, 53.47476], [8.51287, 53.49649], [8.55665, 53.51822], [8.56577, 53.5467], [8.50846, 53.6249], [8.4871, 53.66694], [8.48611, 53.70042], [8.57327, 53.85765], [8.60712, 53.88153], [8.65187, 53.89247], [8.68457, 53.88848], [8.74464, 53.85415], [8.78248, 53.84248], [8.86069, 53.831], [8.90358, 53.83173], [8.97625, 53.84242], [9.01629, 53.84052], [9.03502, 53.85357], [9.11452, 53.86513], [9.19361, 53.86469], [9.2107, 53.87196], [9.22429, 53.86591], [9.27467, 53.86514], [9.30535, 53.84455], [9.40268, 53.74242], [9.48469, 53.69009], [9.49838, 53.65986], [9.56707, 53.5996], [9.60092, 53.58633], [9.63722, 53.581], [9.69662, 53.55663], [9.81902, 53.54035], [9.83204, 53.54361], [9.81959, 53.55663], [9.78207, 53.56973], [9.69239, 53.57591], [9.65577, 53.58462], [9.58367, 53.61245], [9.55079, 53.63459], [9.53224, 53.71117], [9.46023, 53.73543], [9.43582, 53.74869], [9.41237, 53.77892], [9.39668, 53.81102], [9.39519, 53.831], [9.35875, 53.83956], [9.29558, 53.87189], [9.25782, 53.88557], [9.22047, 53.89077], [9.09344, 53.89249], [9.02996, 53.90713], [9.00782, 53.8925], [8.98503, 53.89696], [8.94949, 53.91292], [8.91584, 53.93763], [8.83337, 54.03644], [8.87184, 54.04693], [8.89063, 54.04779], [8.97535, 54.02408], [8.99724, 54.03022], [9.01303, 54.06098], [9.01832, 54.09789], [8.97448, 54.12808], [8.97731, 54.1457], [8.95289, 54.15009], [8.91798, 54.14631], [8.8607, 54.1252], [8.81285, 54.18049], [8.84669, 54.23355], [8.83963, 54.25556], [8.92205, 54.27424], [8.96314, 54.31761], [8.94028, 54.31501], [8.90259, 54.29585], [8.88114, 54.29029], [8.88795, 54.30394], [8.77504, 54.29029], [8.73894, 54.29389], [8.67848, 54.2692], [8.65188, 54.27486], [8.6234, 54.29012], [8.60273, 54.31208], [8.59988, 54.33808], [8.61403, 54.34837], [8.64137, 54.35566], [8.69557, 54.35859], [8.69557, 54.36542], [8.65065, 54.378], [8.63479, 54.36543], [8.62625, 54.37641], [8.6291, 54.38744], [8.64845, 54.40639], [8.66977, 54.40082], [8.75083, 54.4138], [8.86069, 54.4138], [8.88608, 54.41779], [8.94948, 54.44733], [9.00473, 54.46589], [9.01157, 54.50633], [8.9861, 54.52928], [8.90448, 54.58064], [8.87875, 54.60651], [8.85816, 54.60615], [8.82586, 54.59815], [8.81904, 54.60561], [8.85328, 54.61929], [8.81837, 54.67365], [8.80543, 54.68757], [8.72267, 54.72553], [8.68875, 54.7353], [8.69435, 54.76024], [8.64847, 54.81786], [8.64493, 54.8554], [8.67259, 54.8506], [8.7035, 54.88979], [8.73278, 54.88905], [8.80089, 54.90383], [8.82425, 54.9059], [8.90414, 54.89794], [8.98269, 54.87934], [9.19477, 54.8504], [9.21151, 54.84182], [9.21905, 54.81779], [9.22639, 54.80591], [9.24407, 54.80177], [9.33202, 54.80322], [9.36695, 54.81702], [9.38504, 54.81939], [9.40519, 54.80839], [9.42214, 54.80725], [9.51909, 54.57541], [9.53738, 54.5039], [9.6083, 54.46796], [9.68516, 54.41361], [9.74219, 54.35153], [9.78092, 54.27441], [9.85854, 54.23187], [9.94635, 54.19943], [9.95911, 54.20026], [9.96599, 54.20565], [9.98045, 54.27684], [10.0176, 54.34384], [10.07653, 54.40528], [10.17883, 54.47377], [10.20384, 54.461], [10.18393, 54.44937], [10.19703, 54.4101], [10.17708, 54.38427], [10.14178, 54.37226], [10.14826, 54.36518], [10.14178, 54.35859], [10.15553, 54.34341], [10.14178, 54.32441], [10.16375, 54.32917], [10.18035, 54.34113], [10.22439, 54.4138], [10.27215, 54.42007], [10.3069, 54.4411], [10.31837, 54.44329], [10.36117, 54.44101], [10.44337, 54.4064], [10.60107, 54.36541], [10.6902, 54.31623], [10.73129, 54.31021], [10.77711, 54.31513], [10.8108, 54.32738], [10.86822, 54.3587], [10.93532, 54.37953], [11.01879, 54.38588], [11.01879, 54.3791], [10.97584, 54.3784], [10.99317, 54.37385], [11.01051, 54.37718], [11.03395, 54.36762], [11.10418, 54.39288], [11.13548, 54.38589], [11.08773, 54.35176], [11.06658, 54.35859], [11.0774, 54.34223], [11.09448, 54.28352], [11.08709, 54.2709], [11.09448, 54.22508], [11.09016, 54.208], [11.06656, 54.18391], [10.95045, 54.13947], [10.91031, 54.10921], [10.89322, 54.10267], [10.83611, 54.09001], [10.82228, 54.09736], [10.80543, 54.09488], [10.75262, 54.05012], [10.78045, 54.00996], [10.79965, 54.00056], [10.82691, 53.99543], [10.87548, 53.99542], [10.88738, 53.96393], [10.90211, 53.96137], [10.92262, 53.96137], [10.9647, 53.98541], [11.00025, 53.9916], [11.05348, 54.00848], [11.17506, 54.018], [11.19075, 54.01032], [11.20436, 53.98924], [11.23991, 53.98346], [11.24535, 53.97842], [11.24293, 53.94522], [11.25563, 53.94086], [11.29371, 53.94086], [11.33416, 53.96136], [11.35825, 53.94086], [11.3999, 53.94085], [11.43873, 53.90912], [11.45769, 53.90616], [11.47682, 53.9527], [11.47242, 53.96882], [11.4979, 53.98184], [11.49171, 54.00235], [11.52589, 54.02277], [11.51907, 54.03643], [11.55323, 54.03022], [11.5735, 54.03905], [11.59133, 54.06561], [11.6128, 54.0729], [11.62452, 54.08364], [11.62957, 54.09602], [11.62208, 54.09957], [11.62526, 54.10981], [11.6579, 54.14223], [11.68971, 54.15521], [11.72877, 54.1585], [11.81227, 54.14981], [12.05063, 54.17992], [12.08813, 54.19406], [12.09164, 54.114], [12.115, 54.09789], [12.09506, 54.1457], [12.10548, 54.15737], [12.13429, 54.16698], [12.14283, 54.18049], [12.12086, 54.18], [12.10133, 54.17365], [12.1089, 54.18301], [12.1631, 54.21992], [12.18687, 54.24335], [12.2894, 54.27509], [12.34213, 54.30394], [12.37846, 54.34515], [12.43832, 54.39582], [12.48609, 54.44733], [12.50198, 54.47357], [12.53385, 54.48825], [12.53385, 54.48212], [12.52703, 54.48212], [12.54835, 54.46206], [12.59148, 54.45173], [12.8191, 54.45172], [12.85662, 54.44111], [12.87965, 54.44879], [12.90837, 54.44464], [12.92113, 54.4335], [12.89639, 54.4201], [12.87078, 54.41683], [12.76368, 54.4222], [12.69459, 54.43366], [12.67042, 54.42007], [12.6242, 54.42292], [12.61451, 54.41974], [12.6084, 54.40641], [12.60222, 54.4138], [12.58172, 54.4064], [12.58766, 54.39403], [12.6022, 54.39208], [12.59472, 54.3859], [12.57553, 54.392], [12.55405, 54.39082], [12.53598, 54.38373], [12.52704, 54.37227], [12.51075, 54.38426], [12.49098, 54.39008], [12.45476, 54.39208], [12.43849, 54.38752], [12.41847, 54.36066], [12.42398, 54.34493], [12.39674, 54.35175], [12.3899, 54.34492], [12.39648, 54.33295], [12.3916, 54.32112], [12.37907, 54.31245], [12.36256, 54.31021], [12.38012, 54.27709], [12.36883, 54.26919], [12.41245, 54.25141], [12.43678, 54.24771], [12.45818, 54.25556], [12.44264, 54.25519], [12.41035, 54.26919], [12.4263, 54.28961], [12.47242, 54.31021], [12.4787, 54.33185], [12.56056, 54.35859], [12.54081, 54.36542], [12.54078, 54.37226], [12.55934, 54.37629], [12.57423, 54.37226], [12.57423, 54.3791], [12.59295, 54.36933], [12.62273, 54.37393], [12.67726, 54.39208], [12.67044, 54.4064], [12.68084, 54.41088], [12.71752, 54.4138], [12.71752, 54.40641], [12.70248, 54.40412], [12.69239, 54.39619], [12.68409, 54.37226], [12.7046, 54.3996], [12.72381, 54.38125], [12.73504, 54.37816], [12.74611, 54.38588], [12.75782, 54.37979], [12.76857, 54.38007], [12.78711, 54.39205], [12.79469, 54.37714], [12.81804, 54.35798], [12.85467, 54.35786], [12.87599, 54.36542], [12.90383, 54.3996], [12.92937, 54.41437], [12.9691, 54.42938], [13.0088, 54.43805], [13.03416, 54.43366], [13.0215, 54.42646], [13.02858, 54.40184], [13.04038, 54.39208], [13.09553, 54.37226], [13.07667, 54.35252], [13.08074, 54.33714], [13.1092, 54.3102], [13.11492, 54.28002], [13.12599, 54.2766], [13.17065, 54.27659], [13.17066, 54.26919], [13.1434, 54.26301], [13.17612, 54.26484], [13.22836, 54.24738], [13.28881, 54.23427], [13.32179, 54.19452], [13.34887, 54.18048], [13.32154, 54.16682], [13.34653, 54.16694], [13.3838, 54.17812], [13.40347, 54.17365], [13.38299, 54.15314], [13.39479, 54.14891], [13.4087, 54.15461], [13.41772, 54.15313], [13.4651, 54.09846], [13.48357, 54.0913], [13.50709, 54.09105], [13.50709, 54.09789], [13.47928, 54.11836], [13.47928, 54.12518], [13.60271, 54.13947], [13.68345, 54.16803], [13.71192, 54.17364], [13.71467, 54.16406], [13.69825, 54.15933], [13.69825, 54.15314], [13.72902, 54.14374], [13.80812, 54.10468], [13.7732, 54.04633], [13.7461, 54.03644], [13.79762, 53.99893], [13.83862, 53.98631], [13.84864, 53.95555], [13.86722, 53.95457], [13.90602, 53.94306], [13.90756, 53.93354], [13.89014, 53.91291], [13.81853, 53.878], [13.80812, 53.86514], [13.81707, 53.85293], [13.8628, 53.84125], [13.86915, 53.83031], [13.89991, 53.80915], [13.91065, 53.81048], [13.98422, 53.77399], [14.01734, 53.76951], [14.03745, 53.75528], [14.06851, 53.75533], [14.10613, 53.74335], [14.18653, 53.73981], [14.21469, 53.74486], [14.23415, 53.76177], [14.25016, 53.75995], [14.26448, 53.75161], [14.26743, 53.73542], [14.21274, 53.70807], [14.22535, 53.70376], [14.27369, 53.70063], [14.30486, 53.71255], [14.30616, 53.72069], [14.2886, 53.72798], [14.30161, 53.73485], [14.28858, 53.74165], [14.29421, 53.74907], [14.3304, 53.73419], [14.34205, 53.71491], [14.38355, 53.70062], [14.41456, 53.68236], [14.45898, 53.67782], [14.51237, 53.66644], [14.53072, 53.65792], [14.59059, 53.59838], [14.60159, 53.62665], [14.62379, 53.63923], [14.62379, 53.65282], [14.57595, 53.65966], [14.54495, 53.70405], [14.57595, 53.7695], [14.58741, 53.76349], [14.62379, 53.76952], [14.61673, 53.79475], [14.63063, 53.85151], [14.62379, 53.85151], [14.61354, 53.83161], [14.58961, 53.81733], [14.59586, 53.81051], [14.58741, 53.81257], [14.56912, 53.82416], [14.58961, 53.83784], [14.57586, 53.8548], [14.55209, 53.86278], [14.44118, 53.86963], [14.42556, 53.87982], [14.43816, 53.89932], [14.4319, 53.90616], [14.42205, 53.89614], [14.3851, 53.89728], [14.36305, 53.87938], [14.40919, 53.87157], [14.41765, 53.86514], [14.41548, 53.85282], [14.39292, 53.84082], [14.38356, 53.84467], [14.35621, 53.83447], [14.3283, 53.831], [14.3283, 53.82416], [14.34203, 53.82099], [14.3283, 53.81734], [14.27468, 53.8308], [14.22657, 53.87198], [14.20314, 53.87832], [14.08741, 53.87044], [14.06512, 53.87239], [14.04835, 53.87938], [14.02506, 53.86385], [13.99615, 53.85385], [13.93848, 53.84468], [13.87525, 53.84406], [13.8401, 53.85029], [13.82179, 53.86514], [13.85548, 53.87739], [13.88771, 53.88154], [13.93165, 53.89932], [13.93898, 53.92821], [13.90188, 53.9698], [13.90449, 53.99542], [13.95484, 53.99358], [13.97264, 53.98924], [13.96583, 53.98184], [13.95899, 53.94086], [13.97462, 53.95734], [13.98785, 53.96141], [14.02782, 53.96136], [14.01433, 53.94709], [14.04835, 53.94086], [14.04029, 53.95384], [14.05307, 53.97842], [14.05128, 54.00507], [14.03745, 54.02171], [14.01435, 54.01603], [13.9817, 54.05634], [13.94606, 54.0666], [13.92612, 54.06403], [13.91586, 54.05638], [13.9248, 54.03645], [13.90724, 54.02749], [13.89088, 54.01016], [13.85599, 54.00236], [13.8581, 54.01577], [13.87631, 54.03644], [13.8711, 54.04865], [13.86362, 54.04999], [13.82301, 54.03791], [13.79418, 54.01814], [13.7741, 54.02277], [13.78207, 54.04214], [13.80925, 54.0751], [13.81495, 54.10126], [13.80616, 54.11664], [13.75297, 54.15312], [13.76223, 54.16445], [13.77761, 54.17401], [13.79615, 54.17828], [13.81494, 54.17364], [13.85597, 54.11835], [13.8825, 54.10244], [14.0166, 54.06], [14.19239, 53.94611], [14.26808, 53.92182], [14.36704, 53.91698], [14.40675, 53.92182], [14.51772, 53.96534], [14.78163, 54.03454], [15.0101, 54.06981], [15.07662, 54.08639], [15.02479, 53.98761], [14.90995, 53.80916], [14.89525, 53.77642], [14.90446, 53.74136], [14.96173, 53.61875], [14.9699, 53.58339], [14.96864, 53.5134], [14.95938, 53.47857], [14.92376, 53.41095], [14.86759, 53.34952], [14.83163, 53.32102], [14.81079, 53.30875], [14.44163, 53.25184], [14.41559, 53.22099], [14.38778, 53.20208], [14.38065, 53.18986], [14.37786, 53.17655], [14.38954, 53.13167], [14.35678, 53.06668], [14.34334, 53.04862], [14.31264, 53.02922], [14.25373, 53.00088], [14.19286, 52.98165], [14.14449, 52.95992], [14.16495, 52.89566], [14.16082, 52.87675], [14.15049, 52.86463], [14.12392, 52.85065], [13.79518, 52.74215], [13.78663, 52.71386], [13.78527, 52.65324], [13.80977, 52.56744], [13.84587, 52.50424], [13.92875, 52.42536], [14.01384, 52.36735], [14.11143, 52.3149], [14.21642, 52.26671], [14.58415, 52.29123], [14.60658, 52.27575], [14.64048, 52.26505], [14.69691, 52.25348], [14.71241, 52.23591], [14.7121, 52.21544], [14.69257, 52.19958], [14.69257, 52.19338], [14.70704, 52.17945], [14.70322, 52.16516], [14.69247, 52.14697], [14.68637, 52.12103], [14.69639, 52.10669], [14.7614, 52.07667], [14.73536, 52.05403], [14.72606, 52.02644], [14.69908, 51.99251], [14.69574, 51.93446], [15.07737, 51.91681], [15.56474, 51.72907], [15.60793, 51.64624], [15.68681, 51.54568], [15.70021, 51.54538], [15.70822, 51.55209], [15.72395, 51.66728], [15.97821, 51.5773], [16.24424, 51.49668], [16.5268, 51.42594], [17.05281, 51.31384], [17.17829, 51.27888], [17.29768, 51.23717], [17.40907, 51.18648], [17.50919, 51.12485], [17.59305, 51.0517], [17.62375, 51.01466], [17.66595, 50.93976], [17.74925, 50.6978], [17.66634, 50.67232], [17.58966, 50.64124], [17.52223, 50.60515], [17.44849, 50.55036], [17.18761, 50.37848], [17.17593, 50.38075], [17.1317, 50.37682], [17.08467, 50.39796], [16.98194, 50.41636], [16.95879, 50.4146], [16.91579, 50.43108], [16.89295, 50.43294], [16.86577, 50.4224], [16.86587, 50.40845], [16.89791, 50.37822], [16.90928, 50.35992], [16.92654, 50.31926], [16.94525, 50.3069], [16.96964, 50.29776], [16.98783, 50.28494], [16.99837, 50.26701], [16.99982, 50.24272], [17.01284, 50.23166], [17.01481, 50.21849], [17.0084, 50.20996], [17.22151, 50.02072], [17.23369, 49.91854], [17.2441, 49.88022], [17.26198, 49.83601], [17.30201, 49.77317], [16.92782, 49.66389], [16.63633, 49.46416], [16.54457, 49.19288], [16.43879, 49.16929], [16.37282, 49.0547], [16.19202, 48.98514], [15.92505, 48.8226], [15.9081, 48.81971], [15.90707, 48.83025], [15.89963, 48.83475], [15.87575, 48.83309], [15.88599, 48.84203], [15.87761, 48.84167], [15.85922, 48.84916], [15.83328, 48.85201], [15.82832, 48.85712], [15.82428, 48.86942], [15.8185, 48.87232], [15.7879, 48.87226], [15.72682, 48.85495], [15.70378, 48.85495], [15.68135, 48.85847], [15.62995, 48.8776], [15.45805, 48.6674], [15.45127, 48.65125], [15.38938, 48.41096], [15.80378, 48.00477], [15.7403, 47.83743], [15.79082, 47.68885], [15.53784, 47.63127], [15.31637, 47.71871], [15.17095, 47.63231], [15.17731, 47.62115], [15.46534, 47.52012], [15.41949, 47.37391], [15.27776, 47.3391], [15.27028, 47.33111], [15.39316, 47.04883], [15.41706, 46.90608], [15.21336, 46.90432], [15.19168, 46.87343], [15.14744, 46.64323], [15.06195, 46.64956], [15.00439, 46.63684], [14.96718, 46.60026], [14.94795, 46.61927], [14.93359, 46.62114], [14.89773, 46.60555], [14.863, 46.60483], [14.85039, 46.60114], [14.83365, 46.58439], [14.82228, 46.56755], [14.80719, 46.53602], [14.78858, 46.50665], [14.76089, 46.49628], [14.73525, 46.49334], [14.72637, 46.49771], [14.70973, 46.49251], [14.68709, 46.47122], [14.67996, 46.45887], [14.66208, 46.4597], [14.6317, 46.44058], [14.59015, 46.43443], [14.57537, 46.41973], [14.5577, 46.38394], [14.54033, 46.37864], [14.5271, 46.38823], [14.51584, 46.40536], [14.50219, 46.41836], [14.46768, 46.41267], [14.45093, 46.41448], [14.42003, 46.42435], [14.40649, 46.43934], [14.39584, 46.44099], [14.36215, 46.43588], [14.14986, 46.44006], [14.13726, 46.44244], [14.08103, 46.47595], [14.06636, 46.48104], [14.03246, 46.48471], [13.99876, 46.48052], [13.98233, 46.48192], [13.85876, 46.3232], [13.61153, 46.3526], [13.34463, 46.43368], [13.28742, 46.55314], [13.27142, 46.55078], [13.23111, 46.55217], [13.21002, 46.55801], [13.14646, 46.58496], [13.0645, 46.59804], [12.83041, 46.60964], [12.77357, 46.63519], [12.73987, 46.64299], [12.70659, 46.63775], [12.66959, 46.65302], [12.62019, 46.65648], [12.54733, 46.65219], [12.49989, 46.67214], [12.44563, 46.6787], [12.40501, 46.69012], [12.37039, 46.71116], [12.35147, 46.74325], [12.34269, 46.76513], [12.32605, 46.77249], [12.2844, 46.77999], [12.2691, 46.78857], [12.00108, 46.65989], [11.8488, 46.72952], [11.74645, 46.97246], [11.73487, 46.97062], [11.71616, 46.97548], [11.68381, 46.99191], [11.64971, 46.993], [11.59648, 47.00044], [11.57271, 46.99892], [11.52444, 46.98835], [11.50698, 46.993], [11.48941, 47.00421], [11.47184, 47.00708], [11.45292, 47.00088], [11.41117, 46.97049], [11.38058, 46.97155], [11.34947, 46.98194], [11.31381, 46.98726], [11.24374, 46.97925], [11.17449, 46.96385], [11.15661, 46.95652], [11.09191, 46.91244], [11.08364, 46.90014], [11.0731, 46.86497], [11.05429, 46.83415], [11.05284, 46.81492], [11.03331, 46.80557], [11.01088, 46.77921], [10.99693, 46.76911], [10.98267, 46.76774], [10.93089, 46.77399], [10.87043, 46.76407], [10.83415, 46.78025], [10.79508, 46.77689], [10.75478, 46.79076], [10.72294, 46.78645], [10.58168, 46.70912], [10.4274, 46.7174], [10.30811, 46.78642], [10.28447, 46.78801], [10.20142, 46.86683], [10.15781, 46.85161], [10.13197, 46.84657], [10.1113, 46.84712], [10.0681, 46.85662], [10.04557, 46.86556], [10.00691, 46.89076], [9.89994, 46.9144], [9.87514, 46.92742], [9.86243, 46.93977], [9.57409, 46.85302], [9.53186, 46.86949], [9.50219, 46.96207], [9.22193, 47.01953], [9.0647, 47.25788], [9.18118, 47.35969], [9.18193, 47.37776], [9.14269, 47.42335], [9.19694, 47.65614], [9.1834, 47.67042], [9.1281, 47.67042], [9.01659, 47.6789], [8.99767, 47.67384], [8.98176, 47.66216], [8.94538, 47.6543], [8.9062, 47.6518], [8.88171, 47.65614], [8.83779, 47.68084], [8.83768, 47.68779], [8.85608, 47.69068], [8.83024, 47.70719], [8.79758, 47.72003], [8.77071, 47.72086], [8.76172, 47.70125], [8.76988, 47.69507], [8.71707, 47.69456], [8.71263, 47.70869], [8.70043, 47.7235], [8.71976, 47.74732], [8.71314, 47.75742], [8.68193, 47.75874], [8.65702, 47.78812], [8.6441, 47.79101], [8.63501, 47.7846], [8.62984, 47.7628], [8.61744, 47.75732], [8.60762, 47.76225], [8.60162, 47.7946], [8.58312, 47.80024], [8.55822, 47.80117], [8.5423, 47.79502], [8.5516, 47.77926], [8.53651, 47.77409], [8.4715, 47.76706], [8.46365, 47.76391], [8.44546, 47.74318], [8.43791, 47.72319], [8.40195, 47.70709], [8.39213, 47.69952], [8.39099, 47.69213], [8.39771, 47.67629], [8.3913, 47.66546], [8.41197, 47.66105], [8.45827, 47.63988], [8.47605, 47.6404], [8.51967, 47.65735], [8.56824, 47.66293], [8.60731, 47.65629], [8.60162, 47.6326], [8.59511, 47.63482], [8.59356, 47.64257], [8.58033, 47.639], [8.57806, 47.63348], [8.5825, 47.62159], [8.58064, 47.60017], [8.57413, 47.59244], [8.5607, 47.5894], [8.53775, 47.61213], [8.52235, 47.6219], [8.49238, 47.61983], [8.46179, 47.60614], [8.44887, 47.58428], [8.41807, 47.58077], [8.35409, 47.58102], [8.31616, 47.58785], [8.30634, 47.59219], [8.28857, 47.6158], [8.25105, 47.622], [8.18601, 47.6166], [8.11184, 47.84102], [8.07042, 47.86181], [7.93483, 47.83193], [7.92396, 47.82045], [7.97399, 47.62731], [7.76321, 47.66821], [7.49253, 47.62213], [7.3998, 47.66002], [7.2249, 47.61255], [7.13682, 47.65118], [7.03651, 47.79973], [7.07917, 48.07271], [6.98959, 48.18613], [7.06456, 48.46184], [7.11069, 48.79073], [7.19603, 48.88087], [7.26806, 49.10563], [7.24119, 49.1139], [7.15499, 49.11442], [7.12358, 49.12331], [7.07986, 49.14201], [7.07076, 49.13612], [7.07479, 49.12537], [7.07324, 49.12031], [7.04255, 49.1076], [7.02053, 49.11897], [7.00896, 49.14641], [7.00947, 49.1817], [6.98787, 49.18243], [6.92545, 49.20558], [6.91439, 49.20666], [6.88524, 49.2048], [6.84349, 49.21105], [6.83346, 49.20945], [6.82768, 49.19555], [6.83904, 49.16279], [6.82178, 49.14775], [6.80907, 49.14584], [6.77011, 49.15529], [6.72556, 49.15555], [6.71378, 49.15886], [6.70097, 49.17287], [6.70882, 49.19777], [6.70252, 49.21364], [6.68061, 49.20749], [6.66376, 49.24387], [6.6403, 49.25276], [6.63968, 49.27115], [6.55643, 49.3264], [6.55012, 49.33802], [6.5556, 49.34717], [6.57338, 49.34774], [6.57772, 49.3558], [6.57431, 49.36179], [6.52573, 49.39549], [6.51881, 49.40215], [6.52056, 49.40815], [6.51167, 49.42474], [6.49452, 49.43554], [6.40274, 49.46546], [6.39168, 49.4667], [6.35386, 49.45476], [6.32229, 49.35067], [6.29553, 49.3505], [6.11448, 49.45052], [6.0988, 49.44503], [6.07243, 49.38463], [5.96224, 49.40097], [5.87072, 49.52553], [5.83223, 49.55752], [5.84691, 49.57672], [5.82996, 49.58276], [5.84122, 49.58969], [5.862, 49.62276], [5.87988, 49.63485], [5.88546, 49.64353], [5.87988, 49.65775], [5.87264, 49.66172], [5.85259, 49.66322], [5.84577, 49.66658], [5.84226, 49.67392], [5.84877, 49.69273], [5.85735, 49.70043], [5.856, 49.70808], [5.85022, 49.71402], [5.83172, 49.71361], [5.80536, 49.72188], [5.80205, 49.74286], [5.77849, 49.77303], [5.77188, 49.77939], [5.75916, 49.78446], [5.73829, 49.78885], [5.72774, 49.80022], [5.72164, 49.81277], [5.7202, 49.82471], [5.72464, 49.83427], [5.73653, 49.83944], [5.72692, 49.84523], [5.73188, 49.85996], [5.75813, 49.8582], [5.74883, 49.86729], [5.71493, 49.88187], [5.71896, 49.89137], [5.75358, 49.93018], [5.76371, 49.94682], [5.77156, 49.95354], [5.79337, 49.95881], [5.80164, 49.96382], [5.8126, 49.97757], [5.80154, 49.98868], [5.80267, 50.00248], [5.48809, 50.11386], [5.44011, 50.12479], [5.26859, 50.29015], [5.2487, 50.42727], [5.40793, 50.64586], [5.38835, 50.79055], [5.37698, 50.79858], [5.25545, 50.80605], [5.2819, 50.92618], [5.08736, 51.02614], [5.08867, 51.04251], [5.21542, 51.25873], [5.21491, 51.29434], [5.19734, 51.30834], [5.14018, 51.30739], [5.12292, 51.31338], [5.10256, 51.35066], [5.06814, 51.37454], [5.06174, 51.38426], [5.06525, 51.40591], [5.07641, 51.4219], [5.07993, 51.43854], [5.06029, 51.46198], [5.02753, 51.47681], [5.17093, 51.68982], [5.1837, 51.72374], [5.16054, 51.75274]]], [[[11.42662, 54.02293], [11.46803, 54.03094], [11.4979, 54.02277], [11.46827, 53.97069], [11.45771, 53.96139], [11.44534, 53.96114], [11.45143, 53.98554], [11.44703, 53.99714], [11.43873, 53.99726], [11.43328, 53.98876], [11.43776, 53.975], [11.4231, 53.96773], [11.40708, 53.96822], [11.37568, 53.98184], [11.39068, 54.00473], [11.42662, 54.02293]]], [[[8.68295, 54.06611], [8.69286, 54.05679], [8.68612, 54.04224], [8.67345, 54.04471], [8.66287, 54.05354], [8.65889, 54.06428], [8.66444, 54.07478], [8.68196, 54.08042], [8.68295, 54.06611]]], [[[11.6019, 54.10415], [11.61585, 54.11209], [11.55275, 54.07306], [11.53396, 54.05696], [11.52851, 54.0751], [11.53396, 54.08486], [11.6019, 54.10415]]], [[[16.17239, 54.27659], [16.22006, 54.2766], [16.21323, 54.28351], [16.21518, 54.29963], [16.19215, 54.30028], [16.1378, 54.29029], [16.21355, 54.31611], [16.27537, 54.35855], [16.23178, 54.32258], [16.27491, 54.33047], [16.28883, 54.34024], [16.3239, 54.34992], [16.33676, 54.35859], [16.32488, 54.37311], [16.30502, 54.37348], [16.28162, 54.35862], [16.3243, 54.40155], [16.43979, 54.48825], [16.43442, 54.47236], [16.44451, 54.46988], [16.4734, 54.48212], [16.47975, 54.49555], [16.47389, 54.49966], [16.44606, 54.48827], [16.46685, 54.51232], [16.50133, 54.5324], [16.5696, 54.55718], [16.77849, 54.57514], [16.85964, 54.59393], [16.93995, 54.60602], [17.03583, 54.66705], [17.33742, 54.749], [17.71567, 54.79043], [17.88543, 54.82411], [18.15201, 54.83831], [18.3169, 54.83832], [18.33952, 54.83347], [18.37582, 54.81513], [18.41051, 54.80818], [18.75171, 54.69008], [18.81378, 54.64336], [18.83434, 54.61644], [18.83528, 54.6031], [18.81764, 54.59814], [18.80226, 54.61603], [18.78404, 54.62353], [18.77182, 54.64228], [18.70777, 54.70124], [18.65456, 54.71016], [18.64503, 54.71955], [18.61672, 54.72525], [18.55698, 54.74901], [18.49823, 54.76538], [18.44776, 54.78998], [18.42921, 54.78168], [18.41505, 54.75312], [18.4131, 54.73192], [18.44755, 54.7184], [18.47444, 54.68757], [18.47039, 54.66673], [18.48192, 54.65961], [18.47592, 54.64008], [18.48731, 54.63178], [18.50636, 54.6341], [18.52293, 54.64652], [18.5171, 54.62995], [18.57063, 54.55036], [18.56756, 54.48786], [18.57407, 54.45038], [18.58806, 54.43366], [18.63429, 54.41694], [18.69433, 54.40452], [18.7173, 54.38202], [18.88592, 54.35016], [18.92319, 54.34854], [18.95435, 54.35857], [18.97462, 54.34976], [19.00208, 54.34492], [19.37721, 54.37763], [19.45998, 54.40102], [19.53102, 54.41494], [19.59255, 54.45237], [19.62648, 54.46101], [19.6265, 54.46845], [19.73406, 54.5257], [19.83188, 54.59813], [19.88317, 54.65619], [19.89633, 54.66218], [19.90018, 54.68756], [19.95631, 54.7569], [19.95883, 54.79682], [19.92068, 54.88959], [19.94078, 54.93439], [19.97646, 54.96441], [19.99585, 54.96807], [20.0337, 54.94819], [20.07496, 54.9544], [20.14357, 54.95181], [20.20582, 54.95843], [20.36557, 54.94619], [20.40699, 54.95161], [20.48243, 54.97553], [20.63404, 55.04877], [20.80822, 55.17609], [20.82228, 55.18098], [20.95682, 55.31467], [21.00006, 55.29983], [20.98894, 55.29133], [20.9895, 55.27042], [20.94109, 55.24868], [20.93701, 55.23775], [20.9131, 55.23322], [20.90333, 55.22582], [20.90551, 55.21858], [20.89064, 55.21259], [20.88403, 55.19807], [20.83461, 55.15188], [20.77361, 55.11449], [20.68783, 55.05069], [20.55851, 54.98197], [20.53338, 54.97358], [20.53094, 54.96467], [20.55047, 54.94477], [20.57692, 54.93891], [20.76368, 54.94769], [20.80518, 54.94081], [20.86036, 54.91132], [20.96909, 54.89981], [21.03932, 54.904], [21.05592, 54.91444], [21.07895, 54.89981], [21.09067, 54.90156], [21.10622, 54.91351], [21.19028, 54.92691], [21.23015, 54.93891], [21.24342, 54.96125], [21.21937, 55.01345], [21.19508, 55.1354], [21.18134, 55.17109], [21.18141, 55.19366], [21.18883, 55.20831], [21.20167, 55.21441], [21.22291, 55.20148], [21.25904, 55.20498], [21.27133, 55.22028], [21.27276, 55.23893], [21.39366, 55.17995], [21.46449, 55.12777], [21.52123, 55.06339], [21.55458, 54.9989], [21.56637, 54.93259], [21.56314, 54.87891], [21.53228, 54.79886], [21.47181, 54.71289], [21.36547, 54.61224], [21.33171, 54.38545], [20.45404, 54.41266], [20.40845, 54.18607], [20.20214, 54.13581], [19.77023, 54.039], [19.72364, 54.04514], [19.53304, 54.03701], [19.31965, 54.00601], [19.09464, 53.95979], [18.8668, 53.90451], [18.27058, 53.74285], [17.87917, 53.62476], [17.71883, 53.5856], [17.61161, 53.56876], [17.54094, 53.56256], [17.47168, 53.56248], [17.39913, 53.57264], [17.35521, 53.5857], [17.28086, 53.62216], [17.15312, 53.70802], [17.0965, 53.7367], [17.03513, 53.75945], [16.9674, 53.77704], [16.82368, 53.79584], [16.66644, 53.79671], [16.45793, 53.78759], [16.36238, 53.79857], [16.29195, 53.82221], [16.24328, 53.85638], [16.21524, 53.89572], [16.20361, 53.90039], [16.13624, 53.89564], [16.01706, 53.89713], [15.93447, 53.87562], [15.88991, 53.89898], [15.81362, 53.95257], [15.7556, 54.01466], [15.71957, 54.08136], [15.70993, 54.11617], [15.70613, 54.1518], [15.7142, 54.21134], [15.85972, 54.24998], [16.02084, 54.26179], [16.13149, 54.28351], [16.1189, 54.27604], [16.06935, 54.26301], [16.09108, 54.25397], [16.17921, 54.26301], [16.17239, 54.27659]]], [[[13.26686, 54.38589], [13.25115, 54.38691], [13.23929, 54.39363], [13.23441, 54.40339], [13.23902, 54.42007], [13.22536, 54.42085], [13.2116, 54.4311], [13.20143, 54.43366], [13.15702, 54.42684], [13.18182, 54.45302], [13.25953, 54.46845], [13.25955, 54.47529], [13.27312, 54.48212], [13.23326, 54.49308], [13.22537, 54.50195], [13.23276, 54.51626], [13.1854, 54.5083], [13.16604, 54.51912], [13.15887, 54.54068], [13.14347, 54.54292], [13.16674, 54.54942], [13.24293, 54.55598], [13.25953, 54.55378], [13.28826, 54.53994], [13.29786, 54.51968], [13.30925, 54.53482], [13.30106, 54.55036], [13.33367, 54.57307], [13.36939, 54.58514], [13.34205, 54.55036], [13.35385, 54.54987], [13.36313, 54.54291], [13.34889, 54.52367], [13.37485, 54.52558], [13.3838, 54.53189], [13.38982, 54.54291], [13.36313, 54.55036], [13.36313, 54.5572], [13.37671, 54.56463], [13.41731, 54.52456], [13.4109, 54.50943], [13.43068, 54.49274], [13.45558, 54.48749], [13.50709, 54.48827], [13.4997, 54.49575], [13.52076, 54.51626], [13.52076, 54.52367], [13.49968, 54.5572], [13.52076, 54.56464], [13.52076, 54.57079], [13.50831, 54.57038], [13.48658, 54.5572], [13.44142, 54.55721], [13.42384, 54.57453], [13.39902, 54.57977], [13.36915, 54.61213], [13.3318, 54.58784], [13.27358, 54.56107], [13.25327, 54.56464], [13.24978, 54.57648], [13.25687, 54.59491], [13.26988, 54.6118], [13.28395, 54.61929], [13.29347, 54.64228], [13.29054, 54.64655], [13.22516, 54.63489], [13.23098, 54.6533], [13.25401, 54.6651], [13.39047, 54.68812], [13.41871, 54.68841], [13.44506, 54.68007], [13.44506, 54.6739], [13.39088, 54.65054], [13.38299, 54.63638], [13.39454, 54.60444], [13.42457, 54.58515], [13.46632, 54.57689], [13.59596, 54.59136], [13.64046, 54.58567], [13.67065, 54.56623], [13.67705, 54.54028], [13.65112, 54.51627], [13.58481, 54.48652], [13.57545, 54.47187], [13.5879, 54.43757], [13.60955, 54.4138], [13.67741, 54.40081], [13.69797, 54.39219], [13.74195, 54.35049], [13.76641, 54.34491], [13.74008, 54.32982], [13.73015, 54.31684], [13.72314, 54.2784], [13.69098, 54.28352], [13.71193, 54.28657], [13.71193, 54.30394], [13.67945, 54.29401], [13.65115, 54.29719], [13.65115, 54.30393], [13.68824, 54.3133], [13.70362, 54.32046], [13.71192, 54.33186], [13.65992, 54.32978], [13.61722, 54.31772], [13.69093, 54.34492], [13.69093, 54.35175], [13.65008, 54.35244], [13.62682, 54.33911], [13.59929, 54.35175], [13.49968, 54.34492], [13.42888, 54.31094], [13.40609, 54.28523], [13.35963, 54.27546], [13.35572, 54.24872], [13.36939, 54.25556], [13.36313, 54.26301], [13.41772, 54.26605], [13.42307, 54.23296], [13.40723, 54.22823], [13.34745, 54.23736], [13.31156, 54.25113], [13.33522, 54.28352], [13.30787, 54.26919], [13.31471, 54.26301], [13.28419, 54.26284], [13.26791, 54.2565], [13.24244, 54.26919], [13.21015, 54.27583], [13.19925, 54.28441], [13.20485, 54.29719], [13.19028, 54.29975], [13.14969, 54.29027], [13.14285, 54.298], [13.14875, 54.30455], [13.16228, 54.30768], [13.1775, 54.30394], [13.1775, 54.31021], [13.11551, 54.33808], [13.14895, 54.37726], [13.17433, 54.38397], [13.20484, 54.37226], [13.21168, 54.37908], [13.22332, 54.3725], [13.26686, 54.38589]]], [[[11.10135, 54.42349], [11.09864, 54.45165], [11.05812, 54.45527], [11.0325, 54.44734], [11.02573, 54.45881], [11.00849, 54.45467], [11.00573, 54.46845], [11.03355, 54.50864], [11.07294, 54.53118], [11.12126, 54.53595], [11.20654, 54.51446], [11.23999, 54.49555], [11.31419, 54.41382], [11.18849, 54.42617], [11.17018, 54.42007], [11.17902, 54.41422], [11.11265, 54.41524], [11.10135, 54.42349]]], [[[8.84451, 54.51971], [8.87932, 54.52903], [8.9192, 54.53045], [8.96312, 54.52367], [8.95686, 54.50943], [8.9113, 54.4755], [8.88794, 54.46846], [8.84411, 54.46658], [8.82392, 54.47086], [8.81286, 54.48212], [8.82374, 54.48554], [8.82553, 54.4912], [8.81286, 54.50194], [8.84451, 54.51971]]], [[[8.69889, 54.55857], [8.69287, 54.52326], [8.66976, 54.50191], [8.64128, 54.49239], [8.61853, 54.49277], [8.5959, 54.51366], [8.60208, 54.52976], [8.63484, 54.54271], [8.69889, 54.55857]]], [[[13.10253, 54.52994], [13.07504, 54.50943], [13.06819, 54.46846], [13.06139, 54.46846], [13.06424, 54.50511], [13.10232, 54.59609], [13.10999, 54.60315], [13.15104, 54.60492], [13.15708, 54.58818], [13.14967, 54.59138], [13.14965, 54.57771], [13.1434, 54.57773], [13.1434, 54.59813], [13.11891, 54.58641], [13.10253, 54.52994]]], [[[11.44991, 54.56226], [11.45531, 54.57337], [11.46302, 54.58062], [11.49112, 54.59537], [11.54541, 54.61276], [11.57441, 54.61672], [11.58938, 54.61481], [11.61631, 54.60363], [11.64831, 54.57691], [11.68431, 54.5325], [11.69963, 54.53125], [11.72304, 54.54986], [11.73408, 54.56522], [11.73769, 54.57801], [11.73557, 54.58884], [11.72943, 54.59833], [11.70443, 54.6247], [11.69986, 54.63472], [11.70031, 54.65083], [11.70306, 54.65461], [11.61053, 54.66641], [11.56007, 54.65961], [11.51222, 54.64655], [11.47437, 54.62614], [11.45184, 54.62837], [11.35874, 54.66056], [11.2977, 54.69156], [11.18775, 54.73224], [11.03054, 54.76066], [11.0093, 54.77164], [10.99922, 54.78677], [11.00572, 54.80365], [11.03044, 54.81205], [11.08969, 54.81061], [11.10591, 54.82896], [11.23125, 54.81305], [11.33764, 54.8176], [11.39799, 54.81569], [11.51623, 54.80172], [11.62745, 54.77469], [11.69265, 54.75129], [11.74637, 54.72767], [11.83689, 54.67244], [11.80635, 54.65427], [11.79102, 54.58121], [11.79684, 54.56518], [11.80745, 54.55139], [11.82866, 54.53422], [11.87776, 54.51201], [11.89699, 54.50016], [11.9015, 54.49347], [11.90092, 54.48629], [11.89602, 54.47986], [11.87749, 54.46779], [11.8225, 54.44273], [11.78328, 54.46642], [11.75925, 54.47651], [11.73416, 54.47686], [11.70902, 54.46746], [11.58832, 54.38979], [11.56399, 54.3791], [11.5391, 54.37378], [11.51832, 54.3757], [11.50319, 54.38434], [11.49265, 54.39801], [11.48566, 54.41504], [11.47189, 54.48424], [11.4495, 54.53897], [11.44991, 54.56226]]], [[[11.94908, 54.5686], [11.92825, 54.58397], [11.92368, 54.59813], [11.87041, 54.65751], [11.96274, 54.64783], [11.97143, 54.60562], [11.96899, 54.56978], [11.94908, 54.5686]]], [[[8.36035, 54.71482], [8.36043, 54.70985], [8.33237, 54.69379], [8.38234, 54.63915], [8.40135, 54.63296], [8.35369, 54.61898], [8.33027, 54.63142], [8.29154, 54.66706], [8.33223, 54.70622], [8.36035, 54.71482]]], [[[8.39457, 54.71483], [8.42642, 54.74265], [8.46413, 54.75478], [8.55323, 54.75445], [8.57592, 54.7464], [8.59374, 54.72167], [8.56576, 54.68757], [8.53517, 54.68619], [8.51124, 54.69379], [8.4852, 54.68807], [8.45282, 54.69384], [8.39457, 54.71483]]], [[[10.73128, 54.74006], [10.69387, 54.73531], [10.68191, 54.74482], [10.66342, 54.78755], [10.77188, 54.81214], [10.73128, 54.74006]]], [[[15.14766, 55.09581], [15.14469, 55.08711], [15.10662, 55.04466], [15.11322, 55.0183], [15.07296, 54.9918], [14.9825, 55.0011], [14.92727, 55.0137], [14.85861, 55.03823], [14.78084, 55.05114], [14.69957, 55.08919], [14.68419, 55.10135], [14.69704, 55.12265], [14.7058, 55.22582], [14.76092, 55.30926], [14.85142, 55.2482], [14.9268, 55.2158], [14.95435, 55.21924], [14.97339, 55.21612], [15.0005, 55.18842], [15.08454, 55.15458], [15.13159, 55.14544], [15.15112, 55.13336], [15.13771, 55.11953], [15.14766, 55.09581]]]]}}]}