{"type": "FeatureCollection", "features": [{"type": "Feature", "properties": {"map_title": "1939~1941년 사이 유럽에서의 전쟁 상황", "source": "미래엔 세계사 교과서 4권 190쪽", "volume": 4, "page": 190, "legend": "소련이 병합한 지역(1939~1941)", "name": "베사라비아(추정)", "name_en": "", "period": "1939–1941", "kind": "국가", "group": "소련이 병합한 지역(1939~1941)", "coast_snap": "Natural Earth 10m 해안선에 맞춤", "border_snap": "현대 국경(Natural Earth 10m)에 맞춘 구간 약 472 km"}, "geometry": {"type": "MultiPolygon", "coordinates": [[[[28.88555, 44.55103], [28.83696, 44.55285], [28.85565, 44.56768], [28.89243, 44.57705], [28.90626, 44.58771], [28.92494, 44.62046], [28.90981, 44.58447], [28.88555, 44.55103]]], [[[29.80144, 45.62189], [29.81479, 45.64106], [29.8567, 45.64912], [30.0755, 45.7923], [30.12592, 45.81143], [29.90773, 45.66628], [29.80745, 45.61434], [29.73111, 45.59142], [29.80144, 45.62189]]], [[[27.60092, 47.83191], [27.58559, 47.8758], [27.71079, 47.86319], [27.76928, 47.84465], [27.85545, 47.82906], [27.94792, 47.82346], [28.07727, 47.82719], [28.13617, 47.82203], [28.1861, 47.83553], [28.2227, 47.83986], [28.31171, 47.86468], [28.47958, 48.06492], [28.49002, 48.06549], [28.50108, 48.11283], [28.51932, 48.14913], [28.5416, 48.15595], [28.57363, 48.15497], [28.66562, 48.12934], [28.73507, 48.12869], [28.77125, 48.12445], [28.79925, 48.11179], [28.80592, 48.10381], [28.81155, 48.08291], [28.82757, 48.05702], [28.83253, 48.02482], [28.85569, 48.00792], [28.88256, 47.97676], [28.9148, 47.95315], [28.95036, 47.9348], [28.98085, 47.92638], [29.01723, 47.93108], [29.06105, 47.96976], [29.09272, 47.98017], [29.11004, 47.97966], [29.12399, 47.97599], [29.13629, 47.96818], [29.14797, 47.95537], [29.15582, 47.93987], [29.16461, 47.9056], [29.17256, 47.89101], [29.18662, 47.88364], [29.226, 47.87558], [29.23602, 47.87072], [29.23277, 47.85708], [29.18672, 47.81822], [29.17773, 47.8007], [29.17784, 47.78972], [29.18745, 47.78321], [29.22197, 47.77481], [29.23473, 47.7668], [29.23861, 47.756], [29.19696, 47.7175], [29.19148, 47.68626], [29.19241, 47.65092], [29.18207, 47.61322], [29.15618, 47.58278], [29.1305, 47.55963], [29.11743, 47.53333], [29.1304, 47.4932], [29.16388, 47.43938], [29.18207, 47.42987], [29.19241, 47.43581], [29.20187, 47.44659], [29.21835, 47.4516], [29.23261, 47.44633], [29.2507, 47.42538], [29.2814, 47.41147], [29.30083, 47.37819], [29.34584, 47.36584], [29.35891, 47.35272], [29.36408, 47.33688], [29.36759, 47.30822], [29.38082, 47.29298], [29.40955, 47.27975], [29.42557, 47.27867], [29.4417, 47.28213], [29.45916, 47.2935], [29.47064, 47.32275], [29.48087, 47.33827], [29.50107, 47.33982], [29.53988, 47.33422], [29.55657, 47.32404], [29.57006, 47.30678], [29.87115, 47.40035], [30.04397, 47.19897], [30.05535, 47.19968], [30.19104, 47.25494], [30.28524, 47.11305], [30.16618, 46.75359], [30.26211, 46.66548], [30.27174, 46.6633], [30.28152, 46.66722], [30.34817, 46.74535], [30.48769, 46.75674], [30.59128, 46.75318], [30.6913, 46.7357], [30.7843, 46.70499], [30.8666, 46.66227], [30.90271, 46.63691], [30.95933, 46.58347], [30.93914, 46.58771], [30.92604, 46.5843], [30.85482, 46.55347], [30.80258, 46.56025], [30.7907, 46.55292], [30.75489, 46.51586], [30.78207, 46.45722], [30.79817, 46.44644], [30.78354, 46.43085], [30.77246, 46.39643], [30.71452, 46.34798], [30.66066, 46.3509], [30.65187, 46.34455], [30.68652, 46.32001], [30.68238, 46.29955], [30.65349, 46.25959], [30.58351, 46.19033], [30.56161, 46.16145], [30.52328, 46.13378], [30.49414, 46.08048], [30.37127, 45.99795], [30.26168, 45.89575], [30.2046, 45.85569], [30.13846, 45.81979], [30.13526, 45.88915], [30.12745, 45.89134], [30.11061, 45.87507], [30.09457, 45.81485], [30.08671, 45.81355], [30.07244, 45.82099], [30.06121, 45.81348], [30.01466, 45.83967], [29.99073, 45.84707], [29.96852, 45.83894], [29.95288, 45.77199], [29.93238, 45.79243], [29.93914, 45.81045], [29.93507, 45.81615], [29.92628, 45.81379], [29.91871, 45.79987], [29.92237, 45.76944], [29.93929, 45.75153], [29.93238, 45.72422], [29.91969, 45.74055], [29.89822, 45.75154], [29.89617, 45.76362], [29.88771, 45.76512], [29.87403, 45.75154], [29.82374, 45.74763], [29.80242, 45.73749], [29.79575, 45.71735], [29.80323, 45.70417], [29.84302, 45.69065], [29.86499, 45.67234], [29.80958, 45.64859], [29.78907, 45.65526], [29.78387, 45.64663], [29.78907, 45.63544], [29.74594, 45.62263], [29.73375, 45.61435], [29.73504, 45.64057], [29.72397, 45.66743], [29.70525, 45.68842], [29.68264, 45.69685], [29.67922, 45.75153], [29.69386, 45.78132], [29.68043, 45.79828], [29.65333, 45.81387], [29.64283, 45.82722], [29.63356, 45.82136], [29.63461, 45.80663], [29.65185, 45.78901], [29.62387, 45.75153], [29.62534, 45.72826], [29.63752, 45.70991], [29.6032, 45.69131], [29.59718, 45.65229], [29.59936, 45.60444], [29.58969, 45.55907], [29.62908, 45.5467], [29.64845, 45.5454], [29.66684, 45.54816], [29.70695, 45.57323], [29.66162, 45.52587], [29.63803, 45.51386], [29.62671, 45.49507], [29.60515, 45.48701], [29.60572, 45.47818], [29.6211, 45.45441], [29.6408, 45.4418], [29.65187, 45.44302], [29.65632, 45.47424], [29.67236, 45.47711], [29.6753, 45.44961], [29.68653, 45.45356], [29.68589, 45.45725], [29.70215, 45.4566], [29.70867, 45.45279], [29.71323, 45.43622], [29.72447, 45.46816], [29.73227, 45.47572], [29.74739, 45.46344], [29.75585, 45.42789], [29.7478, 45.4143], [29.72771, 45.41568], [29.74187, 45.40453], [29.75016, 45.38581], [29.75615, 45.32091], [29.72975, 45.25812], [29.72973, 45.23774], [29.69211, 45.21669], [29.67449, 45.21358], [29.62387, 45.2165], [29.64975, 45.1778], [29.667, 45.16421], [29.69953, 45.1618], [29.67652, 45.1446], [29.6644, 45.11693], [29.65625, 45.02896], [29.63459, 44.96534], [29.60047, 44.91898], [29.49395, 44.81863], [29.31621, 44.79881], [29.19207, 44.79287], [29.1561, 44.78441], [29.05584, 44.73518], [29.02638, 44.71467], [29.00073, 44.68892], [28.99391, 44.69636], [28.99488, 44.71113], [28.97496, 44.74493], [29.09816, 44.77538], [29.12062, 44.78657], [29.13868, 44.80402], [29.1447, 44.82665], [29.12599, 44.85248], [29.09636, 44.87507], [29.10375, 44.84029], [29.0879, 44.84272], [29.06032, 44.83236], [29.04853, 44.84741], [29.04177, 44.92568], [29.0521, 44.94464], [29.09881, 44.95698], [29.11061, 44.97004], [29.10174, 44.98029], [29.04518, 45.00483], [28.97283, 45.01097], [28.96021, 44.98771], [28.91684, 44.97968], [28.88006, 44.95478], [28.8694, 44.94334], [28.86354, 44.92231], [28.87662, 44.90485], [28.86354, 44.89155], [28.87355, 44.87499], [28.90405, 44.86273], [28.95238, 44.82665], [28.93971, 44.81688], [28.92498, 44.81306], [28.93873, 44.806], [28.93872, 44.79878], [28.92628, 44.79296], [28.92547, 44.78368], [28.94611, 44.7652], [28.92384, 44.75781], [28.8794, 44.75658], [28.80844, 44.72687], [28.78883, 44.70624], [28.78712, 44.6933], [28.79371, 44.68789], [28.80834, 44.69633], [28.8042, 44.68424], [28.78541, 44.67967], [28.78102, 44.66527], [28.78403, 44.64924], [28.79249, 44.64472], [28.84555, 44.65156], [28.86948, 44.66181], [28.91196, 44.69636], [28.89774, 44.71677], [28.96745, 44.70098], [28.98341, 44.69261], [28.98755, 44.67528], [28.97933, 44.65535], [28.96208, 44.6394], [28.93876, 44.63428], [28.97267, 44.67023], [28.97535, 44.68684], [28.9524, 44.69636], [28.95777, 44.67878], [28.93873, 44.67525], [28.91822, 44.68268], [28.90454, 44.66841], [28.85417, 44.63436], [28.77418, 44.60078], [28.79469, 44.63426], [28.76694, 44.63373], [28.75782, 44.62678], [28.75367, 44.61376], [28.76677, 44.61375], [28.76059, 44.6037], [28.76442, 44.59589], [28.78781, 44.58649], [28.74806, 44.57779], [28.73362, 44.56846], [28.65143, 44.59286], [28.56986, 44.63126], [28.53266, 44.65495], [28.46957, 44.70884], [28.42249, 44.77002], [28.39265, 44.83695], [28.36305, 44.96241], [28.36597, 44.99094], [28.38342, 45.04636], [28.54046, 45.2617], [28.57705, 45.24809], [28.71006, 45.22696], [28.77869, 45.23109], [28.7914, 45.23497], [28.80266, 45.24416], [28.76727, 45.25776], [28.75967, 45.27419], [28.76153, 45.28184], [28.79016, 45.29207], [28.78975, 45.32142], [28.81631, 45.32607], [28.83181, 45.3223], [28.85811, 45.30907], [28.88085, 45.30618], [28.91005, 45.28737], [28.92989, 45.2791], [28.95284, 45.28509], [28.95738, 45.29202], [28.96043, 45.31129], [28.96648, 45.31987], [28.97366, 45.3237], [29.00462, 45.32607], [29.01816, 45.33088], [29.06952, 45.3608], [29.1275, 45.37454], [29.15014, 45.38788], [29.17432, 45.38896], [29.19158, 45.40617], [29.22724, 45.42338], [29.08925, 45.62848], [29.1598, 45.71202], [29.17992, 45.7681], [29.17913, 45.82479], [28.95687, 46.00138], [28.95893, 46.02102], [28.94116, 46.06468], [28.93878, 46.08928], [28.94643, 46.10509], [28.98085, 46.13212], [29.00348, 46.15894], [29.01537, 46.18261], [29.00984, 46.20436], [28.95062, 46.24312], [28.93351, 46.25899], [28.93289, 46.27263], [28.94581, 46.30498], [28.94488, 46.32074], [28.92731, 46.36802], [28.91925, 46.40466], [28.92545, 46.43277], [28.94581, 46.45479], [28.64209, 46.5954], [28.54836, 46.74714], [28.53308, 46.76113], [28.22478, 46.67535], [28.1781, 46.73984], [28.17816, 46.75865], [28.1378, 46.80624], [28.12152, 46.8343], [28.12426, 46.86164], [28.1131, 46.87143], [28.11356, 46.89476], [28.09687, 46.90262], [28.10545, 46.91768], [28.1023, 46.93512], [28.08271, 46.97153], [28.06907, 46.9885], [28.03703, 47.01646], [28.02804, 47.03297], [28.12259, 47.25729], [28.06864, 47.3551], [27.99349, 47.42916], [27.90302, 47.51796], [27.583, 47.45067], [27.57587, 47.46041], [27.54817, 47.47426], [27.53453, 47.47798], [27.50724, 47.47798], [27.48368, 47.48542], [27.47313, 47.49178], [27.45949, 47.53322], [27.44213, 47.53663], [27.44027, 47.5501], [27.42838, 47.58102], [27.39707, 47.58909], [27.36916, 47.60831], [27.30405, 47.66655], [27.2811, 47.69301], [27.27201, 47.71497], [27.29506, 47.71817], [27.29506, 47.72443], [27.28958, 47.73169], [27.29113, 47.74241], [27.28751, 47.75233], [27.60092, 47.83191]]]]}}]}