{"type": "FeatureCollection", "features": [{"type": "Feature", "properties": {"map_title": "1939~1941년 사이 유럽에서의 전쟁 상황", "source": "미래엔 세계사 교과서 4권 190쪽", "volume": 4, "page": 190, "legend": "추축국 영토(1939년 9월)", "name": "알바니아", "name_en": "Albania", "period": "1939–1941", "kind": "국가", "group": "추축국 영토(1939년 9월)", "coast_snap": "Natural Earth 10m 해안선에 맞춤", "border_snap": "현대 국경(Natural Earth 10m)에 맞춘 구간 약 158 km"}, "geometry": {"type": "MultiPolygon", "coordinates": [[[[19.86557, 39.82102], [19.89283, 39.80341], [19.92872, 39.79218], [19.93434, 39.78294], [19.94117, 39.78294], [19.94117, 39.79034], [19.94799, 39.79034], [19.94629, 39.75923], [19.93376, 39.74116], [19.84156, 39.70417], [19.83595, 39.69245], [19.83912, 39.67988], [19.84767, 39.66999], [19.85864, 39.66624], [19.85864, 39.65884], [19.84498, 39.65884], [19.84498, 39.65266], [19.90382, 39.62906], [19.92749, 39.6253], [19.92331, 39.60335], [19.91715, 39.59887], [19.90016, 39.60419], [19.91187, 39.5834], [19.93653, 39.47297], [19.96144, 39.46296], [20.00247, 39.45408], [20.03272, 39.43928], [20.05047, 39.44033], [20.07407, 39.44895], [20.08187, 39.44732], [20.11792, 39.371], [20.10573, 39.36466], [20.0324, 39.39501], [19.99928, 39.39937], [19.95484, 39.42609], [19.9118, 39.43033], [19.9075, 39.435], [19.92172, 39.43781], [19.9275, 39.44717], [19.87973, 39.46076], [19.87891, 39.45321], [19.85473, 39.48923], [19.84083, 39.55199], [19.82887, 39.57233], [19.80982, 39.58906], [19.74856, 39.62003], [19.71892, 39.67308], [19.68971, 39.67415], [19.68134, 39.68], [19.67434, 39.69355], [19.67701, 39.7167], [19.67172, 39.72407], [19.65318, 39.71469], [19.65016, 39.74177], [19.64161, 39.74795], [19.6265, 39.74825], [19.6675, 39.79351], [19.79908, 39.8028], [19.85182, 39.82452], [19.86557, 39.82102]]], [[[19.53848, 39.75963], [19.53167, 39.75626], [19.5237, 39.75919], [19.5102, 39.77709], [19.51371, 39.78409], [19.53848, 39.75963]]], [[[19.38186, 39.84521], [19.38291, 39.86302], [19.39194, 39.86627], [19.41074, 39.86302], [19.43252, 39.86627], [19.40951, 39.84134], [19.39357, 39.83805], [19.38186, 39.84521]]], [[[19.56562, 39.89122], [19.57438, 39.89992], [19.59456, 39.89101], [19.59253, 39.87955], [19.57521, 39.87581], [19.56562, 39.89122]]], [[[19.26402, 40.51202], [19.27092, 40.51332], [19.29183, 40.49433], [19.28548, 40.47379], [19.27867, 40.47501], [19.26126, 40.50552], [19.26402, 40.51202]]], [[[18.70655, 42.42105], [18.68386, 42.45881], [18.68569, 42.47682], [18.73904, 42.52888], [18.81025, 42.57588], [18.89206, 42.61147], [18.93696, 42.62487], [19.02931, 42.64127], [19.12236, 42.64405], [19.15577, 42.58381], [19.44623, 42.39905], [19.4684, 42.41811], [19.48174, 42.43449], [19.50148, 42.44413], [19.51781, 42.45803], [19.54375, 42.4934], [19.54933, 42.50859], [19.57568, 42.52234], [19.58809, 42.53286], [19.60504, 42.58484], [19.62178, 42.605], [19.64793, 42.62784], [19.67604, 42.64667], [19.69929, 42.65481], [19.72213, 42.64608], [19.73753, 42.6244], [19.74601, 42.5989], [19.74777, 42.5789], [19.74136, 42.5744], [19.73216, 42.55554], [19.7303, 42.54043], [19.73433, 42.52438], [19.75159, 42.4934], [19.80141, 42.46813], [19.73938, 42.23379], [19.76848, 42.18676], [19.9888, 42.12226], [20.10967, 41.9138], [20.13432, 41.84015], [20.07957, 41.65163], [20.11279, 41.5283], [20.06014, 41.49997], [20.05604, 41.49301], [20.13172, 41.35918], [20.08536, 41.28801], [20.16318, 41.0863], [20.22922, 41.02372], [20.28407, 40.8713], [20.29312, 40.86637], [20.43622, 40.85168], [20.49503, 40.75845], [20.46973, 40.66574], [20.54186, 40.60124], [20.54525, 40.48537], [20.46308, 40.40328], [20.3627, 40.39387], [20.35379, 40.38924], [20.32734, 40.28331], [20.43279, 40.06381], [20.41377, 40.05719], [20.40044, 40.04526], [20.3807, 40.01167], [20.37646, 39.99374], [20.29791, 39.98691], [20.30298, 39.97911], [20.31796, 39.91839], [20.3469, 39.89426], [20.393, 39.83545], [20.39703, 39.81809], [20.38897, 39.79814], [20.37368, 39.78595], [20.57099, 39.61971], [20.54005, 39.55277], [20.51792, 39.52082], [20.46305, 39.46384], [20.42983, 39.43832], [20.35591, 39.39629], [20.28512, 39.36882], [20.25896, 39.39728], [20.23603, 39.39937], [20.24285, 39.41242], [20.21562, 39.44033], [20.26735, 39.44693], [20.26393, 39.46076], [20.25424, 39.46882], [20.21559, 39.48894], [20.21562, 39.49494], [20.25506, 39.49238], [20.26393, 39.50861], [20.23601, 39.52082], [20.22202, 39.52131], [20.22241, 39.50862], [20.20216, 39.52041], [20.1907, 39.52168], [20.20192, 39.52973], [20.18312, 39.53327], [20.14959, 39.53364], [20.13359, 39.52975], [20.14552, 39.54707], [20.14667, 39.57068], [20.15406, 39.56391], [20.1609, 39.56436], [20.17457, 39.57685], [20.17458, 39.59796], [20.18824, 39.60419], [20.18181, 39.62446], [20.14821, 39.63753], [20.08888, 39.67308], [20.04422, 39.68101], [20.01002, 39.69355], [19.99684, 39.69257], [19.99585, 39.68672], [19.98903, 39.68672], [19.98359, 39.70136], [19.98694, 39.71771], [20.0027, 39.74824], [19.98066, 39.75731], [19.99586, 39.78295], [20.01417, 39.83295], [20.01629, 39.84504], [20.00978, 39.86567], [19.99928, 39.8714], [19.96169, 39.87858], [19.95883, 39.88935], [19.94117, 39.89899], [19.90644, 39.90645], [19.9066, 39.91283], [19.94117, 39.94001], [19.92369, 39.95304], [19.86345, 40.04536], [19.85524, 40.04987], [19.80712, 40.05299], [19.79658, 40.05732], [19.80454, 40.06346], [19.77735, 40.07779], [19.77052, 40.0635], [19.73268, 40.11026], [19.72902, 40.10823], [19.71909, 40.11603], [19.65288, 40.13252], [19.59784, 40.15771], [19.56577, 40.17984], [19.5093, 40.1945], [19.47626, 40.2137], [19.38112, 40.29524], [19.3651, 40.31737], [19.34425, 40.37434], [19.28958, 40.4204], [19.28958, 40.42723], [19.31618, 40.4378], [19.33253, 40.4389], [19.34815, 40.43064], [19.39323, 40.38629], [19.41424, 40.33442], [19.4236, 40.33002], [19.44459, 40.33381], [19.47495, 40.34838], [19.47877, 40.45393], [19.45314, 40.46533], [19.4188, 40.49189], [19.39138, 40.5218], [19.38642, 40.54326], [19.39861, 40.52094], [19.41423, 40.52276], [19.4336, 40.50593], [19.44606, 40.51114], [19.4546, 40.55386], [19.44215, 40.57306], [19.4157, 40.58348], [19.39161, 40.57831], [19.3864, 40.55076], [19.37924, 40.56615], [19.30439, 40.65314], [19.30935, 40.66502], [19.35157, 40.69416], [19.36052, 40.70978], [19.36884, 40.80215], [19.37779, 40.81296], [19.40675, 40.82075], [19.39326, 40.84492], [19.41424, 40.86884], [19.38121, 40.90827], [19.40496, 40.91816], [19.42458, 40.93963], [19.44089, 40.9486], [19.42701, 40.93684], [19.43538, 40.9134], [19.42726, 40.89338], [19.42726, 40.87226], [19.43474, 40.87226], [19.43783, 40.88653], [19.44093, 40.87226], [19.45412, 40.8858], [19.5066, 40.9051], [19.52345, 40.92064], [19.52516, 40.94526], [19.50147, 40.98298], [19.49545, 41.00263], [19.49203, 40.97696], [19.47965, 40.95393], [19.45387, 40.92399], [19.44777, 40.93431], [19.46998, 40.95673], [19.47722, 40.975], [19.47495, 40.99579], [19.44777, 41.00947], [19.44062, 41.02066], [19.45639, 41.10668], [19.44192, 41.14386], [19.46372, 41.15131], [19.46877, 41.18756], [19.50953, 41.23729], [19.51661, 41.25641], [19.51336, 41.27668], [19.50294, 41.29413], [19.48805, 41.30646], [19.43166, 41.31372], [19.41897, 41.32258], [19.41424, 41.3828], [19.41082, 41.39167], [19.39602, 41.40205], [19.39326, 41.41348], [19.40642, 41.40038], [19.42872, 41.40131], [19.44516, 41.41519], [19.44094, 41.44086], [19.48927, 41.46613], [19.50864, 41.48688], [19.51661, 41.51341], [19.51417, 41.52998], [19.46822, 41.55412], [19.44096, 41.58538], [19.52809, 41.57656], [19.5652, 41.58511], [19.58482, 41.61957], [19.59165, 41.61957], [19.59604, 41.60273], [19.61297, 41.60529], [19.60011, 41.63911], [19.59166, 41.63264], [19.58709, 41.64069], [19.55765, 41.66055], [19.57814, 41.68765], [19.57131, 41.7704], [19.58953, 41.76569], [19.59897, 41.77871], [19.59978, 41.79975], [19.59164, 41.81879], [19.46578, 41.85537], [19.43295, 41.8686], [19.36509, 41.85237], [19.31023, 41.89452], [19.22023, 41.91886], [19.17027, 41.93798], [19.1623, 41.94795], [19.16033, 41.96898], [19.13797, 41.9853], [19.14356, 41.99307], [19.13917, 42.04243], [19.08254, 42.08121], [19.07474, 42.09565], [19.08383, 42.11009], [19.06399, 42.12019], [19.04868, 42.1402], [19.0106, 42.13956], [18.99985, 42.16108], [18.98163, 42.16707], [18.96803, 42.18871], [18.91335, 42.22224], [18.90171, 42.2375], [18.89471, 42.27049], [18.886, 42.28437], [18.87159, 42.29047], [18.85402, 42.29047], [18.83888, 42.28571], [18.83139, 42.27755], [18.81764, 42.29116], [18.77858, 42.27148], [18.76246, 42.29116], [18.71454, 42.32527], [18.71412, 42.33894], [18.69363, 42.35322], [18.69581, 42.37377], [18.67848, 42.38597], [18.65854, 42.38662], [18.65316, 42.36629], [18.62416, 42.36885], [18.64572, 42.41816], [18.68555, 42.40399], [18.70045, 42.39297], [18.70818, 42.40852], [18.70655, 42.42105]]]]}}]}