{"type": "FeatureCollection", "features": [{"type": "Feature", "properties": {"map_title": "1939~1941년 사이 유럽에서의 전쟁 상황", "source": "미래엔 세계사 교과서 4권 190쪽", "volume": 4, "page": 190, "legend": "중립국", "name": "에스파냐", "name_en": "Spain", "period": "1939–1941", "kind": "국가", "group": "중립국", "coast_snap": "Natural Earth 10m 해안선에 맞춤", "border_snap": "현대 국경(Natural Earth 10m)에 맞춘 구간 약 528 km"}, "geometry": {"type": "MultiPolygon", "coordinates": [[[[-0.73275, 37.74775], [-0.74185, 37.72553], [-0.74014, 37.70246], [-0.7265, 37.66522], [-0.74693, 37.68401], [-0.75423, 37.77443], [-0.74943, 37.77488], [-0.73275, 37.74775]]], [[[2.91363, 39.15196], [2.94024, 39.17179], [2.98057, 39.18555], [2.98535, 39.16618], [2.98229, 39.13919], [2.96215, 39.11607], [2.93088, 39.11819], [2.91363, 39.15196]]], [[[2.56967, 39.71308], [2.61769, 39.7497], [2.63137, 39.77012], [2.65187, 39.77013], [2.71038, 39.81839], [2.74741, 39.83161], [2.78485, 39.8567], [2.80323, 39.8616], [2.81325, 39.87257], [2.8436, 39.87258], [2.93329, 39.91448], [3.07569, 39.9361], [3.17945, 39.96876], [3.19313, 39.95511], [3.20134, 39.9605], [3.21418, 39.9551], [3.14088, 39.92809], [3.11549, 39.90877], [3.09693, 39.91352], [3.09474, 39.88121], [3.13022, 39.87641], [3.20679, 39.893], [3.20679, 39.88683], [3.19679, 39.88121], [3.19645, 39.86713], [3.18718, 39.85436], [3.13356, 39.83954], [3.12631, 39.83185], [3.12485, 39.8111], [3.13648, 39.78876], [3.16261, 39.76911], [3.19484, 39.75499], [3.22389, 39.7497], [3.29249, 39.7497], [3.30991, 39.75507], [3.34035, 39.77899], [3.3545, 39.78436], [3.38315, 39.77793], [3.43979, 39.75198], [3.47436, 39.74969], [3.46852, 39.73932], [3.47436, 39.71552], [3.46144, 39.70006], [3.46752, 39.68757], [3.45386, 39.6597], [3.4432, 39.64579], [3.4131, 39.63508], [3.40187, 39.62324], [3.39869, 39.60773], [3.406, 39.59199], [3.36541, 39.56306], [3.32325, 39.52387], [3.29176, 39.47578], [3.28247, 39.42013], [3.26881, 39.42756], [3.2526, 39.38618], [3.22103, 39.3599], [3.12941, 39.31574], [3.09099, 39.29007], [3.07911, 39.27689], [3.06081, 39.26908], [3.02931, 39.30463], [3.00133, 39.3177], [2.99138, 39.34728], [2.95883, 39.36323], [2.93816, 39.36437], [2.91261, 39.35868], [2.82576, 39.36358], [2.78664, 39.37593], [2.76174, 39.40022], [2.75123, 39.45478], [2.7366, 39.46211], [2.73953, 39.47829], [2.75489, 39.50263], [2.7435, 39.52338], [2.7151, 39.54352], [2.68165, 39.55866], [2.65528, 39.56472], [2.5691, 39.53152], [2.55567, 39.52005], [2.54492, 39.49299], [2.52039, 39.47301], [2.49269, 39.47025], [2.46902, 39.50589], [2.48064, 39.51622], [2.45395, 39.53742], [2.43816, 39.52523], [2.43117, 39.5277], [2.42595, 39.53742], [2.39186, 39.52376], [2.3821, 39.52925], [2.37371, 39.54719], [2.35565, 39.55867], [2.35077, 39.57648], [2.35769, 39.61188], [2.42909, 39.64654], [2.45045, 39.65034], [2.46827, 39.65937], [2.5176, 39.70013], [2.56967, 39.71308]]], [[[0.32016, 38.6825], [0.23885, 38.67686], [0.20124, 38.68112], [0.18007, 38.69307], [0.16309, 38.71282], [0.14502, 38.68636], [0.11858, 38.68281], [0.08302, 38.66096], [0.07313, 38.64521], [0.08056, 38.63102], [0.06043, 38.63483], [0.01526, 38.62478], [-0.01476, 38.62442], [-0.04296, 38.61172], [-0.05476, 38.59528], [-0.05364, 38.56696], [-0.05995, 38.55294], [-0.07544, 38.53996], [-0.0902, 38.53536], [-0.13174, 38.53535], [-0.17699, 38.52725], [-0.20214, 38.5196], [-0.23425, 38.50156], [-0.32942, 38.47004], [-0.34455, 38.46162], [-0.35083, 38.45003], [-0.39517, 38.41376], [-0.40608, 38.39887], [-0.41369, 38.36482], [-0.46019, 38.36005], [-0.47057, 38.35187], [-0.47437, 38.33675], [-0.50984, 38.33837], [-0.51879, 38.29865], [-0.50403, 38.20722], [-0.51572, 38.19545], [-0.53287, 38.19218], [-0.56884, 38.1942], [-0.59138, 38.18964], [-0.62369, 38.16242], [-0.64501, 38.11603], [-0.65454, 37.98933], [-0.66341, 37.9803], [-0.68993, 37.97215], [-0.71841, 37.94302], [-0.75862, 37.86335], [-0.7561, 37.80606], [-0.76074, 37.79615], [-0.78799, 37.82282], [-0.81242, 37.77009], [-0.82556, 37.76139], [-0.84781, 37.75609], [-0.85611, 37.7425], [-0.85261, 37.72378], [-0.80993, 37.6669], [-0.75479, 37.6413], [-0.73485, 37.63935], [-0.72646, 37.65151], [-0.70801, 37.643], [-0.70126, 37.63133], [-0.70533, 37.61954], [-0.73665, 37.59945], [-0.75451, 37.60432], [-0.83642, 37.57641], [-0.88671, 37.57429], [-0.92516, 37.55591], [-0.9735, 37.5764], [-0.98996, 37.57893], [-1.00642, 37.58145], [-1.08776, 37.58088], [-1.10342, 37.5764], [-1.11998, 37.55903], [-1.10579, 37.53215], [-1.16705, 37.54376], [-1.17859, 37.56388], [-1.2427, 37.5792], [-1.25767, 37.56701], [-1.26168, 37.55767], [-1.32374, 37.56199], [-1.36917, 37.54137], [-1.41394, 37.50641], [-1.45556, 37.4927], [-1.4709, 37.48224], [-1.48836, 37.43322], [-1.49672, 37.42794], [-1.515, 37.43321], [-1.54374, 37.41499], [-1.61872, 37.39228], [-1.64162, 37.38104], [-1.65285, 37.36127], [-1.67089, 37.36331], [-1.68016, 37.35444], [-1.69879, 37.3167], [-1.72836, 37.28258], [-1.78722, 37.23522], [-1.81273, 37.20706], [-1.83035, 37.16637], [-1.85533, 37.07638], [-1.88501, 37.01549], [-1.90612, 36.98762], [-1.90035, 36.94119], [-1.91261, 36.93362], [-1.9414, 36.92988], [-1.98892, 36.9005], [-2.0028, 36.88703], [-2.01306, 36.84578], [-2.05687, 36.81009], [-2.07117, 36.77534], [-2.10082, 36.76516], [-2.11108, 36.74613], [-2.14642, 36.73002], [-2.16613, 36.72758], [-2.20364, 36.73714], [-2.28279, 36.81009], [-2.31835, 36.82791], [-2.36168, 36.83678], [-2.43309, 36.81628], [-2.48143, 36.82994], [-2.56078, 36.81879], [-2.57689, 36.81131], [-2.61738, 36.72825], [-2.65889, 36.69482], [-2.68436, 36.68599], [-2.71825, 36.68205], [-2.7362, 36.68741], [-2.75666, 36.68038], [-2.82099, 36.71389], [-2.84825, 36.70023], [-2.85874, 36.70495], [-2.8861, 36.7344], [-2.91397, 36.75031], [-2.93326, 36.75165], [-2.98772, 36.73712], [-3.07645, 36.74976], [-3.15671, 36.74453], [-3.2279, 36.75483], [-3.32958, 36.7449], [-3.41542, 36.69552], [-3.4776, 36.69611], [-3.51596, 36.72105], [-3.54983, 36.71238], [-3.58639, 36.72659], [-3.6011, 36.74255], [-3.66567, 36.73937], [-3.67983, 36.72882], [-3.73128, 36.72411], [-3.83854, 36.75197], [-3.96096, 36.7268], [-4.05671, 36.74799], [-4.07996, 36.74356], [-4.11018, 36.72574], [-4.22472, 36.7124], [-4.40319, 36.72386], [-4.42032, 36.71988], [-4.43326, 36.71068], [-4.49112, 36.63666], [-4.49537, 36.62056], [-4.52483, 36.58073], [-4.5878, 36.57382], [-4.61503, 36.53056], [-4.65925, 36.50764], [-4.723, 36.49299], [-4.90266, 36.50654], [-4.99417, 36.45711], [-5.06249, 36.45222], [-5.10901, 36.42894], [-5.15762, 36.42194], [-5.18655, 36.4112], [-5.22712, 36.35794], [-5.25366, 36.29711], [-5.27385, 36.28269], [-5.2906, 36.27741], [-5.28532, 36.26081], [-5.33405, 36.18781], [-5.34204, 36.11052], [-5.35024, 36.11929], [-5.36661, 36.16315], [-5.40608, 36.17923], [-5.42544, 36.17976], [-5.44233, 36.14879], [-5.4349, 36.12153], [-5.43989, 36.1142], [-5.43716, 36.0987], [-5.42871, 36.0808], [-5.43842, 36.06302], [-5.44576, 36.05736], [-5.61176, 36.00647], [-5.62971, 36.03677], [-5.68936, 36.06712], [-5.71312, 36.05997], [-5.75365, 36.07559], [-5.79605, 36.08553], [-5.83275, 36.12238], [-5.90325, 36.17673], [-5.91682, 36.20125], [-5.98196, 36.1945], [-6.04089, 36.19398], [-6.06248, 36.21724], [-6.10473, 36.28071], [-6.15944, 36.30432], [-6.18419, 36.37071], [-6.21836, 36.40246], [-6.27961, 36.5113], [-6.30999, 36.53412], [-6.28938, 36.53729], [-6.2577, 36.51391], [-6.24899, 36.50475], [-6.2541, 36.49628], [-6.23148, 36.47268], [-6.2115, 36.48054], [-6.17935, 36.51354], [-6.20682, 36.5089], [-6.22434, 36.51086], [-6.23244, 36.52619], [-6.22602, 36.55667], [-6.23489, 36.57575], [-6.28319, 36.61237], [-6.29385, 36.61685], [-6.37954, 36.6242], [-6.39467, 36.63691], [-6.40697, 36.6767], [-6.43154, 36.71459], [-6.43783, 36.7331], [-6.43333, 36.7512], [-6.41453, 36.76764], [-6.35888, 36.78583], [-6.34561, 36.79499], [-6.33519, 36.81826], [-6.34374, 36.85993], [-6.33821, 36.88373], [-6.30435, 36.90721], [-6.22326, 36.90233], [-6.19481, 36.93212], [-6.23965, 36.9134], [-6.26505, 36.91291], [-6.28356, 36.92593], [-6.32592, 36.91267], [-6.34472, 36.90127], [-6.35245, 36.88028], [-6.34667, 36.81989], [-6.35245, 36.80858], [-6.388, 36.80818], [-6.41624, 36.8378], [-6.44864, 36.9042], [-6.4711, 36.93561], [-6.49958, 36.95966], [-6.74486, 37.10139], [-6.81175, 37.12373], [-6.85302, 37.15111], [-6.89288, 37.16658], [-6.91088, 37.18895], [-6.91762, 37.21507], [-6.85269, 37.29523], [-6.90347, 37.24958], [-6.93091, 37.23401], [-6.96255, 37.23383], [-6.96255, 37.22761], [-6.93008, 37.18317], [-6.92847, 37.17236], [-6.94164, 37.1711], [-7.02937, 37.20551], [-7.10104, 37.22425], [-7.12735, 37.21475], [-7.08558, 37.2065], [-7.30141, 37.20214], [-7.30882, 37.28106], [-7.33728, 37.35221], [-7.34694, 37.42239], [-7.33926, 37.49273], [-7.31446, 37.56054], [-7.25301, 37.56349], [-7.20762, 37.57419], [-7.1233, 37.58415], [-7.11022, 37.5914], [-7.10998, 37.60084], [-7.31298, 37.74721], [-7.61488, 37.98138], [-7.74772, 38.06037], [-7.8194, 38.09716], [-7.87631, 38.12055], [-7.91029, 38.12959], [-7.99011, 38.14284], [-8.07185, 38.14949], [-8.16684, 38.15019], [-8.47727, 38.73863], [-8.40685, 38.94982], [-8.29879, 38.99246], [-8.17968, 39.14376], [-7.94049, 39.1241], [-7.83257, 39.28754], [-7.84122, 39.29779], [-8.00981, 39.31646], [-8.16914, 39.64164], [-8.02616, 39.90815], [-7.81107, 39.99262], [-7.67946, 40.15201], [-7.7331, 40.25254], [-7.82258, 40.26043], [-7.90023, 40.51892], [-7.88509, 40.64916], [-8.00765, 40.85243], [-7.62575, 40.76758], [-7.61257, 40.77095], [-7.44265, 41.0555], [-7.54618, 41.25967], [-7.35776, 41.37111], [-7.33948, 41.5794], [-7.44272, 41.80595], [-7.40541, 41.8352], [-7.39192, 41.84205], [-7.32247, 41.84541], [-7.25147, 41.8637], [-7.21865, 41.87905], [-7.19793, 41.9015], [-7.19565, 41.91736], [-7.20211, 41.94974], [-7.19994, 41.96372], [-7.15974, 41.98573], [-7.14537, 41.98749], [-7.11318, 41.97243], [-7.08274, 41.95279], [-7.05127, 41.94201], [-7.01577, 41.95367], [-6.99236, 41.96638], [-6.96952, 41.9577], [-6.94513, 41.94336], [-6.91712, 41.9391], [-6.85495, 41.94294], [-6.83123, 41.95395], [-6.82493, 41.98377], [-6.81112, 41.98194], [-6.74602, 42.20219], [-6.65269, 42.27705], [-6.65014, 42.28611], [-6.77038, 42.3689], [-6.93954, 42.37999], [-6.91707, 42.60236], [-6.92199, 42.61027], [-7.04043, 42.6145], [-7.12642, 42.65014], [-7.35856, 42.64846], [-7.44122, 42.67867], [-7.54143, 42.59827], [-7.71579, 42.56867], [-7.89245, 42.59821], [-7.96403, 42.62367], [-8.16098, 42.61988], [-8.2119, 42.5971], [-8.19014, 42.54477], [-8.25087, 42.49578], [-8.32752, 42.4539], [-8.3696, 42.43731], [-8.46367, 42.41017], [-8.55103, 42.32317], [-8.61441, 42.271], [-8.69005, 42.22898], [-8.73161, 42.21226], [-8.80961, 42.19064], [-8.77177, 42.22235], [-8.62515, 42.30195], [-8.62165, 42.34081], [-8.62645, 42.34833], [-8.64989, 42.3356], [-8.67481, 42.29903], [-8.77392, 42.26899], [-8.78499, 42.26009], [-8.8483, 42.26097], [-8.86748, 42.25643], [-8.85342, 42.29108], [-8.85325, 42.30483], [-8.84697, 42.30481], [-8.833, 42.28913], [-8.82722, 42.2967], [-8.8307, 42.34162], [-8.81286, 42.34637], [-8.77693, 42.34016], [-8.77196, 42.34272], [-8.76462, 42.35569], [-8.7266, 42.38893], [-8.66251, 42.42691], [-8.65526, 42.44135], [-8.66438, 42.43797], [-8.69449, 42.43964], [-8.7579, 42.40716], [-8.8107, 42.40072], [-8.84325, 42.40368], [-8.86749, 42.41471], [-8.88801, 42.45563], [-8.9426, 42.46931], [-8.93504, 42.47906], [-8.91696, 42.48751], [-8.88126, 42.49656], [-8.86902, 42.49338], [-8.86084, 42.48501], [-8.86118, 42.47556], [-8.87434, 42.46931], [-8.85155, 42.46076], [-8.82653, 42.46186], [-8.82505, 42.49494], [-8.81286, 42.50275], [-8.82517, 42.53742], [-8.82297, 42.56952], [-8.81382, 42.58144], [-8.7884, 42.59219], [-8.7755, 42.60472], [-8.73876, 42.66608], [-8.73095, 42.68842], [-8.73717, 42.68842], [-8.7539, 42.65689], [-8.76732, 42.64517], [-8.78498, 42.64058], [-8.80381, 42.64595], [-8.82624, 42.67414], [-8.83951, 42.68244], [-8.8546, 42.66157], [-8.857, 42.64911], [-8.84701, 42.64057], [-8.86877, 42.61751], [-8.88052, 42.61181], [-8.89461, 42.61997], [-8.88947, 42.6306], [-8.93639, 42.60643], [-8.92225, 42.5937], [-8.934, 42.58683], [-8.96988, 42.57917], [-8.9808, 42.55122], [-9.01155, 42.53072], [-9.02634, 42.54312], [-9.03335, 42.57811], [-9.05581, 42.5854], [-9.07086, 42.59614], [-9.06561, 42.62055], [-9.03881, 42.66108], [-9.03013, 42.7077], [-9.00625, 42.73382], [-8.96312, 42.75129], [-8.92223, 42.78811], [-8.89826, 42.7923], [-8.88492, 42.81501], [-8.88769, 42.83112], [-8.90844, 42.83946], [-8.9126, 42.8166], [-8.92809, 42.80252], [-8.95104, 42.79512], [-8.97737, 42.79231], [-9.02819, 42.79788], [-9.04894, 42.79475], [-9.04566, 42.77803], [-9.06844, 42.7599], [-9.08129, 42.75484], [-9.10024, 42.75753], [-9.11342, 42.76607], [-9.13498, 42.81276], [-9.11319, 42.81635], [-9.10025, 42.83328], [-9.10839, 42.84484], [-9.14121, 42.85746], [-9.14866, 42.88447], [-9.13752, 42.89606], [-9.13451, 42.91755], [-9.16787, 42.92683], [-9.18346, 42.94526], [-9.19587, 42.94933], [-9.19001, 42.9324], [-9.1958, 42.92659], [-9.21006, 42.92574], [-9.21435, 42.93903], [-9.22423, 42.94021], [-9.23558, 42.93488], [-9.2517, 42.92023], [-9.26843, 42.89132], [-9.29198, 42.92857], [-9.25097, 43.01679], [-9.27211, 43.03128], [-9.27951, 43.055], [-9.2711, 43.06048], [-9.25792, 43.0609], [-9.2457, 43.08799], [-9.22232, 43.10273], [-9.21759, 43.11443], [-9.18981, 43.10232], [-9.16226, 43.11445], [-9.14122, 43.13487], [-9.10774, 43.14114], [-9.10774, 43.14851], [-9.14708, 43.1387], [-9.16331, 43.13977], [-9.16226, 43.14851], [-9.19421, 43.13655], [-9.20807, 43.13786], [-9.21758, 43.15534], [-9.17007, 43.18874], [-9.13793, 43.20151], [-9.10041, 43.18952], [-9.0524, 43.19636], [-9.02697, 43.21015], [-9.01153, 43.23874], [-9.00406, 43.23874], [-8.98575, 43.22687], [-8.95897, 43.22748], [-8.93253, 43.2353], [-8.91527, 43.24502], [-8.93639, 43.24409], [-8.94789, 43.24981], [-8.96312, 43.27228], [-8.988, 43.28302], [-8.93049, 43.29975], [-8.888, 43.32073], [-8.8566, 43.32689], [-8.84117, 43.33892], [-8.82999, 43.3412], [-8.81726, 43.33595], [-8.78555, 43.31244], [-8.76854, 43.30707], [-8.69311, 43.2934], [-8.63003, 43.31585], [-8.59252, 43.32419], [-8.55842, 43.31322], [-8.50597, 43.33153], [-8.48606, 43.35431], [-8.45572, 43.36335], [-8.44302, 43.3753], [-8.38858, 43.38584], [-8.37572, 43.36298], [-8.35359, 43.34862], [-8.34081, 43.35993], [-8.3399, 43.39273], [-8.33071, 43.40565], [-8.31062, 43.40313], [-8.26721, 43.38592], [-8.25056, 43.35488], [-8.21728, 43.32832], [-8.21019, 43.31322], [-8.20246, 43.32925], [-8.20961, 43.39069], [-8.20481, 43.39972], [-8.1754, 43.41633], [-8.19506, 43.42324], [-8.24714, 43.42309], [-8.26446, 43.42724], [-8.28873, 43.44623], [-8.30514, 43.45108], [-8.28649, 43.46198], [-8.17878, 43.47329], [-8.16698, 43.48457], [-8.16857, 43.49201], [-8.25731, 43.47773], [-8.24372, 43.48518], [-8.25731, 43.49201], [-8.2692, 43.47895], [-8.28897, 43.47297], [-8.3331, 43.47151], [-8.31663, 43.52288], [-8.30517, 43.51936], [-8.2921, 43.53294], [-8.30821, 43.54634], [-8.31264, 43.56712], [-8.26098, 43.56452], [-8.23225, 43.57551], [-8.08666, 43.65647], [-8.083, 43.64545], [-8.07461, 43.63964], [-8.05187, 43.64281], [-8.06554, 43.64281], [-8.06554, 43.64906], [-8.05187, 43.65648], [-8.07114, 43.66786], [-8.07395, 43.67853], [-8.05931, 43.70941], [-8.01098, 43.71174], [-7.98119, 43.71784], [-7.95295, 43.73013], [-7.90855, 43.76633], [-7.88086, 43.76324], [-7.86148, 43.73119], [-7.84652, 43.71796], [-7.84651, 43.71174], [-7.86758, 43.71796], [-7.87926, 43.70051], [-7.87378, 43.68448], [-7.8841, 43.67862], [-7.89489, 43.68448], [-7.90856, 43.67699], [-7.90856, 43.67015], [-7.85839, 43.6682], [-7.84923, 43.67561], [-7.86758, 43.69746], [-7.85603, 43.70344], [-7.84386, 43.7038], [-7.81916, 43.69746], [-7.82604, 43.71174], [-7.81229, 43.72285], [-7.77404, 43.74248], [-7.73404, 43.75007], [-7.71276, 43.76069], [-7.69571, 43.77489], [-7.68553, 43.79343], [-7.67131, 43.78286], [-7.66834, 43.77253], [-7.69563, 43.74592], [-7.69156, 43.72724], [-7.67516, 43.73164], [-7.67248, 43.74384], [-7.64103, 43.75266], [-7.6376, 43.73908], [-7.61303, 43.70429], [-7.61596, 43.68854], [-7.60717, 43.69111], [-7.58641, 43.71795], [-7.57429, 43.71455], [-7.55577, 43.7276], [-7.54141, 43.73162], [-7.49015, 43.72532], [-7.40762, 43.69123], [-7.36707, 43.68007], [-7.30411, 43.59858], [-7.25676, 43.58161], [-7.27107, 43.56863], [-7.27107, 43.56114], [-7.25772, 43.55667], [-7.23038, 43.56854], [-7.21579, 43.56867], [-7.15697, 43.55927], [-7.09586, 43.56098], [-7.07933, 43.56862], [-7.04407, 43.55927], [-7.03235, 43.553], [-7.03087, 43.53323], [-7.05362, 43.49653], [-7.04459, 43.47919], [-7.03832, 43.47919], [-7.02375, 43.52582], [-7.01036, 43.53323], [-7.00136, 43.55666], [-6.94423, 43.56594], [-6.77082, 43.56862], [-6.70372, 43.55756], [-6.64837, 43.57902], [-6.59737, 43.57513], [-6.51012, 43.54747], [-6.48852, 43.55508], [-6.46296, 43.55496], [-6.46909, 43.57537], [-6.41763, 43.56114], [-6.36612, 43.56862], [-6.31461, 43.56863], [-6.24999, 43.58405], [-6.23639, 43.5943], [-6.22277, 43.59588], [-6.17805, 43.57538], [-6.10041, 43.5692], [-6.08495, 43.57537], [-6.06916, 43.56969], [-6.0235, 43.58843], [-5.90738, 43.58845], [-5.90217, 43.59752], [-5.91306, 43.61286], [-5.90062, 43.62324], [-5.90736, 43.63682], [-5.87515, 43.63679], [-5.86351, 43.64142], [-5.85191, 43.66294], [-5.83634, 43.66221], [-5.80363, 43.65038], [-5.78218, 43.63689], [-5.70885, 43.56863], [-5.70198, 43.56863], [-5.69676, 43.58281], [-5.67748, 43.56114], [-5.6256, 43.55496], [-5.42423, 43.56113], [-5.39388, 43.55524], [-5.39075, 43.54133], [-5.42081, 43.51337], [-5.41393, 43.50654], [-5.37243, 43.52021], [-5.35679, 43.53859], [-5.29988, 43.53766], [-5.2119, 43.49836], [-5.17789, 43.48937], [-5.09167, 43.48626], [-5.06771, 43.48138], [-5.05704, 43.46861], [-5.04503, 43.4743], [-4.97517, 43.45877], [-4.94103, 43.47174], [-4.90762, 43.46064], [-4.83654, 43.44976], [-4.73493, 43.4171], [-4.50817, 43.40244], [-4.48168, 43.38361], [-4.4608, 43.3987], [-4.43253, 43.40261], [-4.4049, 43.39699], [-4.37926, 43.38361], [-4.36875, 43.39618], [-4.35936, 43.39967], [-4.31282, 43.39578], [-4.18859, 43.40538], [-4.16095, 43.42116], [-4.09795, 43.43556], [-4.0292, 43.43826], [-4.02089, 43.45038], [-4.01277, 43.45249], [-3.98143, 43.43826], [-3.97647, 43.44294], [-3.96101, 43.4451], [-3.97459, 43.45249], [-3.97459, 43.45876], [-3.94004, 43.47711], [-3.92272, 43.4826], [-3.90632, 43.47919], [-3.89379, 43.48488], [-3.88585, 43.47919], [-3.8568, 43.49237], [-3.82673, 43.497], [-3.79703, 43.49273], [-3.76917, 43.47919], [-3.81265, 43.46487], [-3.84431, 43.4451], [-3.82386, 43.43077], [-3.83153, 43.42906], [-3.83129, 43.42459], [-3.81119, 43.42548], [-3.7965, 43.43077], [-3.77228, 43.45249], [-3.74499, 43.43826], [-3.74303, 43.45136], [-3.75552, 43.47174], [-3.72887, 43.46552], [-3.72143, 43.47175], [-3.72886, 43.47919], [-3.71817, 43.48265], [-3.68838, 43.48424], [-3.65607, 43.50067], [-3.57969, 43.51819], [-3.55437, 43.5169], [-3.55626, 43.4997], [-3.53906, 43.49896], [-3.50536, 43.47919], [-3.43152, 43.46686], [-3.42863, 43.44685], [-3.44699, 43.4451], [-3.47004, 43.45417], [-3.478, 43.4429], [-3.5017, 43.43077], [-3.48182, 43.42805], [-3.46109, 43.41246], [-3.44701, 43.43075], [-3.43619, 43.41901], [-3.39249, 43.42458], [-3.33031, 43.41035], [-3.26896, 43.40411], [-3.21053, 43.38983], [-3.17691, 43.36624], [-3.1315, 43.35578], [-3.11238, 43.35407], [-3.08951, 43.36688], [-3.00817, 43.32091], [-3.02927, 43.37616], [-2.99913, 43.39448], [-2.93993, 43.4171], [-2.94667, 43.43077], [-2.93008, 43.43792], [-2.90549, 43.43987], [-2.807, 43.44168], [-2.76862, 43.45249], [-2.7556, 43.45012], [-2.71521, 43.4245], [-2.69494, 43.38862], [-2.69103, 43.36754], [-2.67927, 43.38984], [-2.67779, 43.40619], [-2.6612, 43.41192], [-2.4838, 43.37072], [-2.46443, 43.34923], [-2.36742, 43.3157], [-2.32706, 43.30683], [-2.28466, 43.30349], [-2.19628, 43.31475], [-2.17447, 43.29743], [-2.16222, 43.29426], [-2.14485, 43.30108], [-2.1278, 43.28742], [-2.09886, 43.30413], [-1.99462, 43.32844], [-1.96035, 43.34307], [-1.94537, 43.34249], [-1.91869, 43.32099], [-1.90465, 43.32844], [-1.92568, 43.34263], [-1.88492, 43.35602], [-1.84739, 43.38091], [-1.81155, 43.39498], [-1.7755, 43.37617], [-1.76796, 43.3836], [-1.74962, 43.38921], [-1.661, 43.39969], [-1.6378, 43.42377], [-1.59675, 43.44253], [-1.56207, 43.49339], [-1.47688, 43.58006], [-1.45987, 43.63552], [-1.3979, 43.61089], [-1.35705, 43.58912], [-1.28683, 43.5381], [-1.25687, 43.50842], [-1.21097, 43.44443], [-1.19474, 43.40991], [-1.4035, 43.24333], [-1.39968, 43.20674], [-1.41053, 43.1669], [-1.42577, 43.13527], [-1.48784, 43.08182], [-1.47528, 43.06014], [-1.45714, 43.04507], [-1.43502, 43.03572], [-1.38314, 43.02921], [-1.36614, 43.03332], [-1.35761, 43.04683], [-1.35518, 43.07303], [-1.34826, 43.09308], [-1.33105, 43.10734], [-1.30862, 43.11357], [-1.28604, 43.10918], [-1.30697, 43.09598], [-1.31508, 43.08288], [-1.31059, 43.06949], [-1.29369, 43.0552], [-1.27488, 43.04683], [-1.2169, 43.03926], [-1.18253, 43.02528], [-1.14993, 43.00572], [-1.11241, 43.00825], [-1.0797, 42.9934], [-1.02849, 42.9867], [-1.01629, 42.97624], [-0.98146, 42.95704], [-0.94322, 42.9479], [-0.86353, 42.94306], [-0.78643, 42.95327], [-0.75967, 42.9465], [-0.74091, 42.9109], [-0.74587, 42.89392], [-0.74029, 42.8848], [-0.73011, 42.87751], [-0.70039, 42.87643], [-0.6483, 42.84979], [-0.60949, 42.81144], [-0.61017, 42.79909], [-0.58293, 42.79584], [-0.57714, 42.78979], [-0.57869, 42.77734], [-0.56903, 42.77264], [-0.53565, 42.78421], [-0.53389, 42.80801], [-0.50841, 42.80749], [-0.45446, 42.78891], [-0.42392, 42.79067], [-0.35168, 42.82925], [-0.343, 42.82274], [-0.33517, 42.82496], [-0.32279, 42.8425], [-0.30742, 42.83183], [-0.24703, 42.80483], [-0.23515, 42.78623], [-0.20835, 42.78387], [-0.16141, 42.79535], [-0.16363, 42.77798], [-0.15779, 42.7607], [-0.14572, 42.74589], [-0.12311, 42.73036], [-0.11903, 42.71685], [-0.09575, 42.71068], [-0.07841, 42.69667], [-0.03893, 42.68515], [-0.00431, 42.68752], [0.07284, 42.70848], [0.13418, 42.71522], [0.15294, 42.7246], [0.16917, 42.72646], [0.22239, 42.7162], [0.23836, 42.71037], [0.25981, 42.68238], [0.27539, 42.66869], [0.29024, 42.67029], [0.31831, 42.69954], [0.33603, 42.71269], [0.35417, 42.7175], [0.38182, 42.70011], [0.3844, 42.68858], [0.38928, 42.68515], [0.40928, 42.68225], [0.46693, 42.69044], [0.48351, 42.6853], [0.60816, 42.68799], [0.64361, 42.68448], [0.65673, 42.68799], [0.66542, 42.69866], [0.66645, 42.71476], [0.65963, 42.7299], [0.64764, 42.74104], [0.63348, 42.74478], [0.6433, 42.75907], [0.65074, 42.76339], [0.63968, 42.77468], [0.65374, 42.80269], [0.65157, 42.82405], [0.65632, 42.83842], [0.67937, 42.84511], [0.70676, 42.84658], [0.72433, 42.84529], [0.77631, 42.83245], [0.8129, 42.83162], [0.8561, 42.81276], [0.88577, 42.80424], [0.91036, 42.78767], [0.92111, 42.78437], [0.95026, 42.79612], [0.98292, 42.78036], [1.06818, 42.77612], [1.08906, 42.77132], [1.10673, 42.75961], [1.13433, 42.71597], [1.15149, 42.70672], [1.16254, 42.70569], [1.19593, 42.71365], [1.31912, 42.71336], [1.34258, 42.70866], [1.33824, 42.69445], [1.34331, 42.69044], [1.36108, 42.68672], [1.39798, 42.64363], [1.41074, 42.61767], [1.34416, 42.58189], [1.35944, 42.53236], [1.36693, 42.52597], [1.67559, 42.59878], [2.00255, 42.44622], [2.01364, 42.44797], [2.0815, 42.48979], [2.13695, 42.41622], [2.18419, 42.4118], [2.24599, 42.42612], [2.27741, 42.42863], [2.31731, 42.40961], [2.37549, 42.38933], [2.42252, 42.38369], [2.42986, 42.36754], [2.44557, 42.35196], [2.46489, 42.34062], [2.51481, 42.32566], [2.52525, 42.32589], [2.53197, 42.33078], [2.54034, 42.34698], [2.54809, 42.35225], [2.56742, 42.35264], [2.63542, 42.33788], [2.66219, 42.33902], [2.66178, 42.34336], [2.64938, 42.35372], [2.64028, 42.37284], [2.64824, 42.38147], [2.69384, 42.40748], [2.55422, 42.62343], [2.54978, 42.68945], [2.55151, 42.78669], [2.62018, 42.82488], [2.6622, 42.84198], [2.75251, 42.86674], [2.88206, 42.88999], [2.93014, 42.89384], [2.97911, 42.89416], [3.05294, 42.88728], [3.04046, 42.79019], [3.04329, 42.72459], [3.03761, 42.68321], [3.05185, 42.55488], [3.06609, 42.54206], [3.13737, 42.52492], [3.14591, 42.51496], [3.14308, 42.49213], [3.17586, 42.45648], [3.18151, 42.43532], [3.17018, 42.39659], [3.17449, 42.3638], [3.18735, 42.34951], [3.20419, 42.33959], [3.24984, 42.3432], [3.26303, 42.32921], [3.28061, 42.33685], [3.29371, 42.33498], [3.3177, 42.32298], [3.29404, 42.28803], [3.28702, 42.26293], [3.26303, 42.23987], [3.24716, 42.24571], [3.21014, 42.23974], [3.17873, 42.24971], [3.17018, 42.25967], [3.15162, 42.25682], [3.1303, 42.23973], [3.11883, 42.21833], [3.11647, 42.15843], [3.12249, 42.14049], [3.1386, 42.12763], [3.1731, 42.112], [3.21448, 42.06833], [3.21299, 42.05599], [3.19986, 42.04619], [3.1959, 42.03312], [3.20786, 41.99002], [3.23567, 41.96552], [3.23217, 41.94603], [3.1949, 41.8883], [3.15016, 41.84536], [3.11683, 41.84757], [3.07863, 41.82662], [3.06905, 41.79908], [3.04034, 41.78689], [2.95094, 41.73428], [2.93298, 41.71247], [2.84018, 41.69465], [2.82016, 41.68195], [2.81315, 41.67032], [2.792, 41.66901], [2.77849, 41.64559], [2.44947, 41.53522], [2.42896, 41.51896], [2.37134, 41.48921], [2.29672, 41.46532], [2.26734, 41.44864], [2.24041, 41.42097], [2.16325, 41.32665], [2.13054, 41.30366], [2.06031, 41.27462], [2.0197, 41.26586], [1.95135, 41.26069], [1.88413, 41.2475], [1.85401, 41.236], [1.81984, 41.23713], [1.62436, 41.19218], [1.53924, 41.18745], [1.2885, 41.11639], [1.21778, 41.10468], [1.18378, 41.06277], [1.17294, 41.05867], [1.14169, 41.07172], [1.09767, 41.07087], [1.05567, 41.06489], [0.99041, 41.0397], [0.87745, 40.95478], [0.8225, 40.89939], [0.7142, 40.81521], [0.69483, 40.786], [0.75017, 40.76557], [0.76238, 40.76606], [0.76726, 40.77102], [0.75021, 40.78599], [0.76693, 40.78501], [0.78072, 40.77935], [0.84181, 40.73212], [0.87369, 40.72792], [0.87239, 40.7071], [0.85789, 40.68605], [0.84831, 40.67537], [0.78403, 40.66096], [0.75636, 40.64224], [0.70703, 40.58341], [0.6768, 40.56509], [0.6159, 40.55346], [0.59248, 40.58209], [0.64063, 40.58685], [0.66318, 40.57473], [0.69622, 40.59036], [0.73268, 40.63373], [0.68222, 40.63422], [0.59978, 40.61372], [0.56349, 40.59003], [0.54851, 40.57233], [0.5013, 40.48421], [0.45265, 40.43407], [0.44612, 40.40844], [0.42026, 40.38825], [0.35058, 40.28491], [0.29884, 40.24677], [0.26473, 40.20979], [0.20525, 40.17154], [0.14453, 40.07885], [0.11703, 40.05635], [0.06617, 40.03193], [0.0405, 40.00288], [-0.00315, 39.93169], [-0.02868, 39.9018], [-0.0913, 39.84793], [-0.19449, 39.71544], [-0.20894, 39.66409], [-0.25744, 39.61624], [-0.2815, 39.56937], [-0.32335, 39.51622], [-0.33059, 39.48041], [-0.32067, 39.38813], [-0.30134, 39.32201], [-0.21551, 39.18184], [-0.24218, 39.16628], [-0.2267, 39.11178], [-0.21003, 39.07869], [-0.15803, 39.00214], [-0.10595, 38.93651], [-0.00976, 38.8697], [0.08107, 38.85658], [0.12048, 38.80941], [0.13988, 38.77748], [0.15215, 38.74644], [0.15382, 38.75885], [0.17468, 38.78566], [0.23603, 38.83046], [0.30108, 38.86996], [0.40312, 38.90513], [0.53106, 38.94563], [0.60445, 38.96312], [0.64028, 38.96539], [0.67993, 38.96243], [0.71385, 38.9551], [0.73173, 38.94406], [0.73223, 38.93646], [0.72027, 38.91476], [0.67191, 38.86609], [0.49225, 38.75075], [0.42494, 38.71315], [0.37433, 38.6931], [0.32016, 38.6825]]], [[[3.83067, 39.93607], [3.835, 39.9497], [3.84616, 39.93185], [3.83067, 39.93607]]], [[[3.87738, 40.09832], [3.91653, 40.11841], [3.99049, 40.14252], [4.05849, 40.15626], [4.15879, 40.16361], [4.28443, 40.16685], [4.3608, 40.10772], [4.39799, 40.07139], [4.42705, 40.02318], [4.43571, 39.99509], [4.43629, 39.98225], [4.42722, 39.9611], [4.38685, 39.92519], [4.35286, 39.90609], [4.32341, 39.90038], [4.29755, 39.9074], [4.27167, 39.92003], [4.16854, 39.9898], [4.14316, 40.00298], [4.11824, 40.01106], [4.07052, 40.01051], [3.92124, 39.98904], [3.90139, 39.99123], [3.87864, 40.00677], [3.86296, 40.0332], [3.85753, 40.06281], [3.85961, 40.07638], [3.86545, 40.08783], [3.87738, 40.09832]]]]}}]}