{"type": "FeatureCollection", "features": [{"type": "Feature", "properties": {"map_title": "1939~1941년 사이 유럽에서의 전쟁 상황", "source": "미래엔 세계사 교과서 4권 190쪽", "volume": 4, "page": 190, "legend": "연합국", "name": "그리스", "name_en": "Greece", "period": "1939–1941", "kind": "국가", "group": "연합국", "coast_snap": "Natural Earth 10m 해안선에 맞춤", "border_snap": "현대 국경(Natural Earth 10m)에 맞춘 구간 약 616 km"}, "geometry": {"type": "MultiPolygon", "coordinates": [[[[22.49338, 36.21093], [22.51522, 36.21438], [22.53713, 36.20828], [22.55653, 36.19461], [22.57085, 36.17532], [22.57752, 36.15239], [22.57396, 36.1278], [22.56597, 36.11076], [22.53591, 36.06729], [22.53234, 36.05556], [22.53481, 36.02123], [22.54605, 35.98707], [22.53911, 35.97771], [22.52872, 35.9746], [22.4911, 35.97289], [22.46942, 35.97778], [22.44881, 35.98653], [22.43081, 35.99865], [22.41698, 36.0136], [22.40883, 36.03086], [22.40794, 36.04994], [22.41584, 36.07034], [22.44352, 36.11966], [22.46025, 36.16762], [22.4742, 36.19601], [22.49338, 36.21093]]], [[[23.00245, 36.14663], [22.99074, 36.13705], [22.98756, 36.15156], [22.94957, 36.16499], [22.95004, 36.17626], [22.92922, 36.17797], [22.90871, 36.20596], [22.91619, 36.2851], [22.89968, 36.32819], [22.90175, 36.33851], [22.93264, 36.38124], [22.94459, 36.38938], [22.95638, 36.38344], [23.01173, 36.3083], [23.0769, 36.27073], [23.0944, 36.25433], [23.10384, 36.23721], [23.06625, 36.22639], [23.05844, 36.21646], [23.052, 36.14485], [23.01442, 36.14834], [23.00245, 36.14663]]], [[[22.98601, 36.45826], [22.96583, 36.47606], [22.95159, 36.47525], [22.94034, 36.46605], [22.93165, 36.46476], [22.92507, 36.46907], [22.92939, 36.48411], [22.96242, 36.5099], [22.97674, 36.50747], [22.98934, 36.47044], [22.98601, 36.45826]]], [[[21.76417, 36.71988], [21.75051, 36.71241], [21.75978, 36.75201], [21.76417, 36.75396], [21.78003, 36.7475], [21.77783, 36.69939], [21.76796, 36.70826], [21.76417, 36.71988]]], [[[21.70087, 36.79108], [21.70949, 36.80173], [21.72613, 36.79481], [21.72933, 36.78877], [21.71632, 36.78132], [21.71655, 36.77094], [21.69582, 36.74043], [21.70087, 36.79108]]], [[[21.54665, 37.03237], [21.549, 37.04536], [21.5373, 37.05744], [21.55282, 37.06438], [21.55867, 37.05382], [21.54665, 37.03237]]], [[[23.16471, 37.25381], [23.16235, 37.24422], [23.15203, 37.23999], [23.13133, 37.24367], [23.09443, 37.27473], [23.10934, 37.28523], [23.12842, 37.28839], [23.15825, 37.27154], [23.16471, 37.25381]]], [[[23.53256, 37.36392], [23.55299, 37.37091], [23.58714, 37.37091], [23.57113, 37.35835], [23.5477, 37.34985], [23.52329, 37.34664], [23.50514, 37.34984], [23.50878, 37.3299], [23.49683, 37.32002], [23.37429, 37.30269], [23.37451, 37.30964], [23.47621, 37.36057], [23.53256, 37.36392]]], [[[23.4759, 37.54455], [23.47732, 37.55588], [23.48178, 37.55645], [23.49204, 37.53913], [23.51157, 37.52904], [23.52563, 37.52801], [23.52563, 37.5218], [23.50635, 37.51285], [23.48121, 37.5096], [23.4559, 37.51252], [23.43631, 37.52179], [23.43629, 37.52802], [23.46461, 37.53376], [23.4759, 37.54455]]], [[[20.51971, 37.86434], [20.55595, 37.90215], [20.56902, 37.91101], [20.57364, 37.91043], [20.62223, 37.86753], [20.66002, 37.91054], [20.68572, 37.92958], [20.70898, 37.92523], [20.74195, 37.86229], [20.77719, 37.84333], [20.80885, 37.84954], [20.84986, 37.83649], [20.88578, 37.81409], [20.91798, 37.76529], [20.98682, 37.72988], [20.99633, 37.69932], [20.98308, 37.71231], [20.95436, 37.72386], [20.89389, 37.73347], [20.87916, 37.72822], [20.86328, 37.71061], [20.84352, 37.70157], [20.84376, 37.68993], [20.85302, 37.67259], [20.84685, 37.65331], [20.81512, 37.65153], [20.77719, 37.68626], [20.71887, 37.72795], [20.71875, 37.71628], [20.71338, 37.70304], [20.69214, 37.67346], [20.65086, 37.63636], [20.62681, 37.62639], [20.58045, 37.62655], [20.55232, 37.63471], [20.53597, 37.64865], [20.52901, 37.66843], [20.52225, 37.72221], [20.51971, 37.86434]]], [[[23.53932, 37.93952], [23.54345, 37.92886], [23.52174, 37.91397], [23.51823, 37.8986], [23.50131, 37.90607], [23.48145, 37.88972], [23.46705, 37.88423], [23.4214, 37.89298], [23.40212, 37.906], [23.40882, 37.92176], [23.42287, 37.933], [23.43949, 37.93959], [23.46852, 37.93203], [23.49204, 37.95628], [23.49773, 37.96686], [23.48561, 37.96625], [23.46043, 37.95255], [23.42208, 37.96004], [23.45737, 37.97362], [23.42945, 37.98794], [23.45151, 37.98826], [23.47047, 37.98046], [23.47486, 37.98941], [23.47048, 37.99408], [23.47821, 37.99884], [23.49529, 38.00184], [23.51824, 37.99908], [23.53686, 37.98802], [23.53272, 37.97508], [23.54712, 37.95888], [23.54615, 37.95254], [23.57347, 37.95254], [23.53932, 37.93952]]], [[[20.57178, 38.47393], [20.62769, 38.34357], [20.62602, 38.32826], [20.59913, 38.30264], [20.63054, 38.25796], [20.64291, 38.2534], [20.68162, 38.2821], [20.67482, 38.26781], [20.69352, 38.26462], [20.70899, 38.22696], [20.7513, 38.19676], [20.76222, 38.1704], [20.79779, 38.13111], [20.80778, 38.09956], [20.79468, 38.06612], [20.76368, 38.06989], [20.73357, 38.06242], [20.71872, 38.06624], [20.68165, 38.09781], [20.65301, 38.11115], [20.61459, 38.11982], [20.58074, 38.11546], [20.56495, 38.09033], [20.5464, 38.10204], [20.50978, 38.11079], [20.50625, 38.11433], [20.52843, 38.15007], [20.4841, 38.21339], [20.46805, 38.2468], [20.44538, 38.30999], [20.43881, 38.34692], [20.45509, 38.32307], [20.46322, 38.33147], [20.47047, 38.31513], [20.47902, 38.30948], [20.5298, 38.33747], [20.53875, 38.35407], [20.53956, 38.37421], [20.53095, 38.39202], [20.55128, 38.38516], [20.53781, 38.42589], [20.54363, 38.45917], [20.53778, 38.47393], [20.57178, 38.47393]]], [[[20.70218, 38.38515], [20.7225, 38.38516], [20.71584, 38.39202], [20.73877, 38.38426], [20.75746, 38.37154], [20.73756, 38.37153], [20.74366, 38.34439], [20.75001, 38.3347], [20.76367, 38.3305], [20.76367, 38.32307], [20.71915, 38.31567], [20.70583, 38.31827], [20.68785, 38.33674], [20.69532, 38.34357], [20.66734, 38.37153], [20.64777, 38.40542], [20.64015, 38.4466], [20.61453, 38.46711], [20.61948, 38.48137], [20.63551, 38.47297], [20.64422, 38.47866], [20.65448, 38.50185], [20.67187, 38.49754], [20.67407, 38.48501], [20.66114, 38.46088], [20.67823, 38.46185], [20.70898, 38.4466], [20.69529, 38.40897], [20.67481, 38.37767], [20.69239, 38.37132], [20.71583, 38.37153], [20.71583, 38.37767], [20.70218, 38.38515]]], [[[20.94106, 38.60422], [20.90935, 38.56293], [20.90755, 38.54903], [20.8939, 38.54903], [20.8939, 38.55646], [20.93214, 38.60301], [20.94106, 38.60422]]], [[[20.95166, 38.64923], [20.95288, 38.63886], [20.94165, 38.6274], [20.89812, 38.60602], [20.87866, 38.58443], [20.87063, 38.58252], [20.87014, 38.6035], [20.90408, 38.64285], [20.94516, 38.65248], [20.95166, 38.64923]]], [[[20.78858, 38.64473], [20.76287, 38.63911], [20.75961, 38.62739], [20.80002, 38.59547], [20.78713, 38.59981], [20.7516, 38.62625], [20.73699, 38.65217], [20.74644, 38.66347], [20.78305, 38.67498], [20.80501, 38.66567], [20.78858, 38.64473]]], [[[20.68164, 38.60425], [20.66481, 38.61091], [20.64894, 38.60859], [20.64088, 38.60057], [20.64762, 38.58382], [20.63088, 38.58833], [20.63331, 38.60423], [20.61363, 38.60701], [20.60231, 38.62678], [20.58546, 38.61791], [20.55127, 38.56953], [20.54462, 38.56954], [20.56236, 38.69123], [20.58123, 38.72435], [20.60245, 38.7815], [20.61215, 38.78583], [20.64528, 38.82819], [20.68628, 38.85007], [20.6902, 38.84138], [20.70215, 38.83697], [20.71778, 38.8227], [20.72933, 38.78172], [20.724, 38.76817], [20.72884, 38.73062], [20.69695, 38.68985], [20.69874, 38.68281], [20.70607, 38.68041], [20.72249, 38.70725], [20.72073, 38.63862], [20.71598, 38.62703], [20.70948, 38.62568], [20.70216, 38.63841], [20.69532, 38.63841], [20.70215, 38.61792], [20.68784, 38.62474], [20.68164, 38.60425]]], [[[22.69028, 38.84999], [22.70264, 38.85064], [22.73823, 38.81034], [22.77409, 38.78417], [22.78373, 38.7828], [22.81593, 38.78924], [22.82927, 38.78607], [22.8597, 38.76717], [22.8672, 38.75507], [22.88782, 38.77125], [22.91488, 38.77557], [22.94532, 38.75812], [23.01628, 38.75445], [23.04199, 38.74672], [23.0594, 38.72772], [23.09051, 38.64911], [23.1045, 38.63841], [23.12355, 38.63691], [23.15643, 38.65346], [23.18246, 38.65375], [23.19606, 38.66633], [23.16817, 38.67939], [23.18678, 38.68597], [23.20492, 38.68267], [23.25375, 38.66181], [23.30591, 38.65264], [23.33121, 38.63027], [23.33331, 38.60446], [23.2933, 38.57909], [23.28541, 38.55646], [23.29542, 38.5681], [23.30738, 38.56854], [23.34059, 38.54556], [23.38159, 38.53534], [23.38133, 38.52847], [23.3401, 38.52237], [23.32928, 38.50837], [23.33497, 38.50361], [23.41847, 38.50433], [23.51938, 38.49067], [23.54323, 38.5116], [23.56722, 38.50112], [23.60133, 38.47394], [23.5735, 38.46088], [23.5735, 38.45344], [23.5962, 38.44676], [23.60009, 38.44062], [23.59401, 38.42609], [23.62501, 38.41401], [23.67286, 38.35643], [23.70997, 38.33674], [23.78199, 38.34356], [23.80502, 38.33251], [23.91245, 38.29824], [23.95101, 38.29091], [23.99122, 38.25422], [24.03858, 38.22394], [24.05063, 38.21068], [24.06901, 38.20473], [24.07308, 38.19648], [24.06951, 38.17353], [24.08055, 38.16601], [24.07, 38.16279], [24.06414, 38.1551], [24.05941, 38.13133], [24.05323, 38.14525], [24.03777, 38.14374], [23.98902, 38.12263], [23.99, 38.10212], [24.00913, 38.04059], [24.03271, 38.00776], [24.01173, 37.96686], [24.01587, 37.93745], [24.01173, 37.92524], [24.03443, 37.92291], [24.04329, 37.91644], [24.04638, 37.90599], [24.04224, 37.90071], [24.01173, 37.89175], [24.02784, 37.88032], [24.05322, 37.87807], [24.0464, 37.87059], [24.06689, 37.8644], [24.05934, 37.84854], [24.06689, 37.83711], [24.05763, 37.83218], [24.05323, 37.82282], [24.07717, 37.8109], [24.08464, 37.80174], [24.0874, 37.78522], [24.08612, 37.76356], [24.08187, 37.75251], [24.05942, 37.73347], [24.07308, 37.72723], [24.07308, 37.7198], [24.05942, 37.71979], [24.05942, 37.71357], [24.06577, 37.7128], [24.06689, 37.69933], [24.06397, 37.70501], [24.05942, 37.69929], [24.06762, 37.69297], [24.09301, 37.70386], [24.11566, 37.70915], [24.12641, 37.74302], [24.14315, 37.7527], [24.15112, 37.73408], [24.1486, 37.72265], [24.13713, 37.71416], [24.17731, 37.71463], [24.20227, 37.70246], [24.20602, 37.67602], [24.18128, 37.63314], [24.11589, 37.55395], [24.08542, 37.47889], [24.05833, 37.45639], [24.04451, 37.45255], [24.03633, 37.45796], [24.03225, 37.47015], [24.02642, 37.5372], [24.02063, 37.54932], [23.99071, 37.58983], [23.98664, 37.60097], [23.98594, 37.61372], [23.98964, 37.62866], [24.01207, 37.65935], [23.98308, 37.67032], [23.94973, 37.67744], [23.94306, 37.68993], [23.94337, 37.72724], [23.92271, 37.72119], [23.90252, 37.78189], [23.88885, 37.77442], [23.8816, 37.79108], [23.86557, 37.80768], [23.8475, 37.8181], [23.83351, 37.816], [23.81918, 37.82966], [23.813, 37.82966], [23.80729, 37.80859], [23.78663, 37.81216], [23.77899, 37.80234], [23.775, 37.81451], [23.76452, 37.816], [23.77084, 37.82832], [23.76645, 37.83893], [23.74482, 37.85762], [23.7422, 37.87665], [23.70054, 37.9252], [23.69703, 37.93952], [23.68019, 37.94587], [23.62812, 37.9327], [23.62812, 37.93953], [23.6408, 37.94579], [23.64178, 37.95254], [23.62664, 37.9475], [23.61036, 37.96214], [23.5608, 37.9728], [23.55299, 37.98046], [23.58888, 38.00633], [23.59791, 38.02114], [23.59059, 38.0388], [23.57619, 38.04597], [23.55982, 38.04256], [23.52182, 38.04255], [23.49464, 38.02889], [23.47088, 38.02778], [23.44996, 38.02143], [23.41188, 37.99437], [23.39527, 37.98794], [23.42945, 37.98046], [23.40894, 37.97432], [23.32984, 37.98046], [23.22682, 37.97362], [23.18922, 37.95881], [23.14234, 37.93009], [23.09409, 37.91105], [23.05201, 37.92524], [23.04273, 37.92195], [23.01515, 37.92524], [23.01025, 37.89697], [22.99513, 37.88215], [22.99952, 37.8627], [23.01254, 37.84756], [23.03224, 37.85076], [23.04965, 37.84357], [23.0735, 37.84113], [23.09718, 37.84357], [23.1141, 37.85076], [23.14625, 37.82583], [23.18237, 37.80914], [23.17644, 37.78998], [23.18237, 37.77441], [23.12818, 37.76048], [23.12094, 37.74091], [23.14584, 37.72582], [23.17553, 37.71978], [23.16383, 37.68159], [23.17553, 37.64469], [23.16188, 37.64468], [23.16863, 37.61416], [23.19011, 37.60732], [23.23024, 37.58259], [23.23764, 37.59002], [23.27467, 37.56122], [23.29224, 37.55588], [23.32301, 37.53742], [23.33668, 37.53547], [23.36036, 37.54767], [23.35914, 37.57429], [23.34059, 37.60029], [23.3122, 37.61055], [23.3122, 37.61737], [23.34783, 37.63441], [23.39869, 37.63787], [23.40902, 37.62592], [23.40429, 37.59927], [23.39078, 37.57136], [23.37428, 37.55589], [23.39503, 37.54141], [23.42204, 37.53546], [23.42205, 37.52802], [23.39527, 37.5218], [23.39527, 37.51496], [23.43629, 37.50812], [23.47917, 37.49066], [23.52563, 37.4597], [23.51889, 37.45303], [23.52563, 37.4392], [23.44654, 37.41463], [23.30592, 37.41193], [23.31217, 37.39827], [23.26271, 37.40103], [23.2644, 37.39082], [23.23024, 37.38459], [23.22999, 37.37495], [23.23707, 37.37031], [23.25755, 37.3709], [23.25131, 37.35733], [23.27797, 37.34984], [23.26207, 37.34395], [23.18605, 37.34064], [23.1854, 37.33218], [23.20361, 37.30269], [23.16863, 37.29952], [23.14146, 37.30952], [23.14145, 37.31635], [23.16188, 37.31635], [23.16188, 37.32315], [23.12339, 37.32478], [23.11413, 37.33616], [23.13461, 37.32933], [23.12241, 37.34569], [23.1006, 37.35733], [23.09278, 37.35079], [23.0731, 37.35522], [23.07261, 37.40109], [23.09498, 37.38955], [23.10524, 37.39692], [23.11412, 37.42559], [23.14145, 37.41193], [23.13201, 37.44864], [23.09718, 37.46223], [23.06202, 37.45499], [23.04594, 37.45971], [23.05942, 37.46654], [23.04591, 37.48701], [23.01124, 37.46906], [23.0049, 37.45973], [22.9909, 37.49575], [22.98072, 37.50878], [22.96388, 37.5218], [22.94289, 37.52181], [22.93605, 37.53547], [22.92156, 37.54035], [22.90187, 37.54165], [22.91432, 37.5388], [22.92237, 37.52804], [22.90235, 37.53486], [22.88502, 37.53315], [22.85402, 37.51497], [22.81936, 37.53547], [22.82618, 37.54906], [22.80202, 37.56086], [22.79592, 37.56916], [22.79884, 37.5764], [22.77833, 37.59687], [22.73845, 37.58088], [22.72641, 37.56635], [22.72315, 37.54165], [22.73665, 37.51838], [22.73048, 37.49445], [22.75033, 37.46654], [22.75034, 37.44261], [22.76481, 37.43178], [22.75799, 37.39826], [22.81933, 37.34369], [22.81251, 37.32933], [22.82618, 37.32911], [22.81935, 37.31635], [22.82998, 37.3081], [22.86085, 37.25568], [22.9067, 37.19368], [22.91162, 37.18342], [22.9004, 37.17292], [22.89503, 37.13386], [22.90317, 37.12128], [22.92205, 37.11799], [22.95638, 37.12395], [22.96386, 37.1103], [22.9568, 37.10676], [22.96386, 37.10342], [22.95639, 37.09593], [22.97347, 37.09096], [22.98169, 37.08271], [22.97916, 37.07783], [22.96388, 37.08295], [22.99983, 37.03327], [22.99806, 37.02147], [23.01171, 36.98677], [22.99073, 36.98676], [23.00489, 36.96686], [23.01172, 36.97308], [23.01635, 36.95527], [23.01173, 36.93891], [23.04899, 36.8769], [23.04591, 36.86909], [23.09326, 36.81826], [23.09181, 36.79833], [23.08058, 36.79499], [23.08058, 36.78876], [23.11409, 36.78131], [23.09441, 36.76081], [23.0944, 36.74372], [23.08863, 36.73291], [23.07586, 36.73385], [23.05201, 36.74714], [23.03094, 36.72557], [23.02564, 36.71564], [23.03906, 36.7062], [23.03224, 36.69257], [23.05939, 36.69256], [23.03443, 36.67487], [23.03566, 36.64907], [23.08058, 36.57929], [23.1346, 36.55536], [23.14536, 36.54194], [23.15501, 36.54108], [23.14145, 36.53425], [23.14819, 36.51716], [23.13461, 36.50755], [23.15187, 36.48729], [23.20361, 36.45612], [23.19605, 36.43254], [23.16188, 36.44619], [23.15186, 36.43562], [23.13933, 36.43408], [23.09475, 36.44319], [23.07838, 36.46528], [23.06627, 36.47346], [23.07211, 36.49311], [23.06512, 36.5091], [23.05104, 36.52245], [23.03566, 36.52802], [22.97242, 36.52021], [22.92921, 36.59634], [22.87471, 36.63052], [22.88893, 36.64248], [22.88429, 36.65424], [22.83717, 36.68651], [22.81935, 36.66525], [22.81496, 36.67056], [22.81715, 36.71796], [22.80079, 36.77578], [22.78688, 36.79344], [22.76515, 36.80419], [22.68556, 36.80948], [22.62257, 36.80345], [22.5774, 36.78303], [22.5791, 36.74039], [22.54615, 36.72142], [22.53346, 36.70722], [22.52508, 36.68513], [22.54029, 36.6852], [22.5498, 36.67828], [22.55249, 36.65096], [22.54568, 36.65096], [22.53386, 36.67056], [22.52508, 36.67145], [22.51678, 36.66616], [22.51002, 36.64802], [22.531, 36.6328], [22.52604, 36.61238], [22.51271, 36.60279], [22.50465, 36.62425], [22.49, 36.61701], [22.48406, 36.60663], [22.48658, 36.52509], [22.51147, 36.46662], [22.50733, 36.46109], [22.51147, 36.45234], [22.4983, 36.44526], [22.49391, 36.43476], [22.50464, 36.40454], [22.49545, 36.40534], [22.49097, 36.39096], [22.47976, 36.40205], [22.4699, 36.45234], [22.45533, 36.46223], [22.42043, 36.47355], [22.40838, 36.48713], [22.40162, 36.48713], [22.39136, 36.47851], [22.38136, 36.48046], [22.35452, 36.51191], [22.36745, 36.54791], [22.38356, 36.54418], [22.38819, 36.55606], [22.38404, 36.5725], [22.37373, 36.58271], [22.38795, 36.60252], [22.36746, 36.60254], [22.37136, 36.64272], [22.38795, 36.64411], [22.38795, 36.65095], [22.36843, 36.65649], [22.37063, 36.67357], [22.38795, 36.7062], [22.35842, 36.70228], [22.33938, 36.72647], [22.32374, 36.75788], [22.30544, 36.7751], [22.30698, 36.79458], [22.29168, 36.82014], [22.22153, 36.89753], [22.20021, 36.9064], [22.17506, 36.89119], [22.13788, 36.91715], [22.13349, 36.93211], [22.14064, 36.93716], [22.14772, 36.95604], [22.15317, 37.02119], [22.08562, 37.03339], [22.04811, 37.03514], [22.03004, 37.03095], [21.99219, 37.01212], [21.9546, 37.00365], [21.94313, 36.99331], [21.93735, 36.97997], [21.92172, 36.86323], [21.93489, 36.83422], [21.92856, 36.82225], [21.95623, 36.80345], [21.97021, 36.80173], [21.97021, 36.795], [21.94508, 36.78994], [21.93881, 36.78319], [21.94222, 36.77509], [21.93587, 36.76603], [21.88257, 36.72656], [21.87404, 36.72672], [21.82276, 36.80858], [21.78972, 36.80476], [21.76417, 36.795], [21.75229, 36.805], [21.72879, 36.81264], [21.7225, 36.82225], [21.70738, 36.81803], [21.6885, 36.84956], [21.69239, 36.85904], [21.6885, 36.89118], [21.70948, 36.92593], [21.70997, 36.94269], [21.70265, 36.95726], [21.68816, 36.96454], [21.66804, 36.95944], [21.67742, 36.96328], [21.68165, 36.97309], [21.66774, 36.97093], [21.6618, 36.95944], [21.6548, 36.9947], [21.5993, 37.04573], [21.57876, 37.07652], [21.56966, 37.11651], [21.56757, 37.15632], [21.57453, 37.19258], [21.59215, 37.22015], [21.65496, 37.26073], [21.6823, 37.28392], [21.69581, 37.31635], [21.69142, 37.35663], [21.67482, 37.39598], [21.60711, 37.4995], [21.54998, 37.56147], [21.44305, 37.61861], [21.40219, 37.65542], [21.34327, 37.66934], [21.32374, 37.66494], [21.31852, 37.6379], [21.31228, 37.6379], [21.30828, 37.66625], [21.29869, 37.6726], [21.31105, 37.6931], [21.31186, 37.7263], [21.29526, 37.77167], [21.28492, 37.7851], [21.22731, 37.81192], [21.12209, 37.8374], [21.11306, 37.84334], [21.10768, 37.85526], [21.11158, 37.87043], [21.10623, 37.87808], [21.13357, 37.94635], [21.14039, 37.94635], [21.1644, 37.92963], [21.20777, 37.94603], [21.25164, 37.97622], [21.27752, 38.00095], [21.29151, 37.99722], [21.32594, 38.02143], [21.32594, 38.02888], [21.31853, 38.0351], [21.28442, 38.01535], [21.36703, 38.12108], [21.37371, 38.14448], [21.37429, 38.22062], [21.40854, 38.18594], [21.40092, 38.21473], [21.42066, 38.20234], [21.47396, 38.19602], [21.52394, 38.166], [21.60304, 38.1518], [21.62233, 38.15477], [21.67482, 38.17967], [21.70134, 38.20527], [21.74137, 38.26943], [21.76418, 38.29579], [21.84946, 38.34128], [21.91554, 38.33051], [21.93702, 38.33063], [21.9559, 38.33672], [21.97804, 38.32355], [22.02035, 38.31321], [22.03785, 38.28213], [22.04884, 38.27481], [22.08937, 38.26166], [22.11361, 38.2678], [22.14331, 38.24908], [22.16139, 38.2132], [22.20606, 38.20017], [22.21852, 38.18818], [22.25792, 38.18587], [22.31284, 38.17227], [22.33123, 38.17889], [22.36345, 38.15827], [22.41481, 38.13789], [22.43279, 38.14325], [22.51148, 38.12929], [22.62062, 38.08348], [22.68042, 38.06659], [22.77811, 38.00112], [22.7964, 37.97679], [22.82129, 37.96917], [22.8672, 37.93952], [22.88266, 37.93757], [22.92238, 37.94635], [22.9463, 37.94623], [22.97535, 37.97899], [22.95094, 38.00243], [22.92384, 38.01179], [22.89918, 38.02778], [22.88088, 38.02889], [22.88746, 38.03364], [22.85405, 38.03511], [22.87521, 38.04911], [22.91163, 38.06013], [22.94289, 38.08347], [22.96973, 38.08196], [23.01905, 38.06525], [23.03907, 38.06988], [23.06861, 38.0589], [23.10092, 38.0624], [23.17286, 38.07949], [23.18972, 38.09438], [23.21664, 38.10334], [23.2103, 38.11538], [23.19418, 38.12694], [23.17556, 38.1313], [23.17556, 38.14496], [23.2234, 38.1518], [23.2234, 38.15925], [23.12845, 38.17227], [23.14894, 38.18594], [23.12273, 38.20808], [23.10963, 38.21011], [23.07748, 38.18579], [23.06638, 38.1832], [23.03225, 38.18595], [23.03225, 38.19277], [23.05201, 38.19278], [23.02508, 38.21662], [22.95192, 38.22529], [22.93377, 38.22207], [22.92237, 38.20702], [22.95053, 38.20978], [22.96305, 38.20404], [22.96947, 38.19279], [22.92254, 38.19746], [22.90871, 38.19279], [22.89503, 38.24116], [22.88819, 38.24116], [22.88088, 38.22697], [22.87468, 38.24116], [22.82, 38.23298], [22.80568, 38.22697], [22.76484, 38.248], [22.79884, 38.28213], [22.74237, 38.29707], [22.71941, 38.31029], [22.69647, 38.31689], [22.67532, 38.34357], [22.68442, 38.36107], [22.67018, 38.38154], [22.6465, 38.38996], [22.6268, 38.37153], [22.64485, 38.36961], [22.64616, 38.36181], [22.63673, 38.35628], [22.61231, 38.36384], [22.58717, 38.33674], [22.58717, 38.33051], [22.60644, 38.32306], [22.60644, 38.31689], [22.59816, 38.31074], [22.60026, 38.30264], [22.58835, 38.29297], [22.57643, 38.2902], [22.56252, 38.29353], [22.54568, 38.30264], [22.52623, 38.33173], [22.53883, 38.33674], [22.52516, 38.35883], [22.47731, 38.40567], [22.46844, 38.42113], [22.40162, 38.45344], [22.40836, 38.4156], [22.37371, 38.39204], [22.386, 38.38019], [22.39478, 38.38515], [22.3986, 38.37592], [22.39609, 38.3682], [22.38111, 38.35786], [22.38794, 38.35102], [22.38233, 38.34269], [22.36753, 38.34188], [22.32252, 38.35102], [22.28493, 38.34733], [22.26645, 38.35855], [22.22486, 38.36005], [22.20932, 38.35293], [22.19597, 38.33954], [22.18921, 38.32308], [22.16879, 38.35102], [22.14578, 38.354], [22.14772, 38.36408], [22.13258, 38.37275], [22.04908, 38.3985], [22.02955, 38.39924], [22.01124, 38.39205], [21.98764, 38.41059], [21.95786, 38.41169], [21.92897, 38.4029], [21.87924, 38.37801], [21.86385, 38.37778], [21.84051, 38.39887], [21.83123, 38.39667], [21.78224, 38.36367], [21.77459, 38.35261], [21.77164, 38.33365], [21.76254, 38.32837], [21.71632, 38.35786], [21.65797, 38.35786], [21.61354, 38.34497], [21.59962, 38.35102], [21.53541, 38.31395], [21.52393, 38.29581], [21.51805, 38.2958], [21.50847, 38.30223], [21.47609, 38.30607], [21.46925, 38.31293], [21.42843, 38.33051], [21.44532, 38.33404], [21.48976, 38.30948], [21.48268, 38.32461], [21.48976, 38.33674], [21.47609, 38.34379], [21.47609, 38.35102], [21.48976, 38.35786], [21.46999, 38.35786], [21.47609, 38.37153], [21.45856, 38.36637], [21.44264, 38.37153], [21.42215, 38.3641], [21.42848, 38.38373], [21.41627, 38.39411], [21.37746, 38.39888], [21.3699, 38.40819], [21.36012, 38.46772], [21.33904, 38.48754], [21.32252, 38.49628], [21.3086, 38.49437], [21.35328, 38.43293], [21.33904, 38.43293], [21.34645, 38.42609], [21.33669, 38.3959], [21.29119, 38.37767], [21.29866, 38.37153], [21.29119, 38.36409], [21.27768, 38.37092], [21.26954, 38.36786], [21.26637, 38.3614], [21.27221, 38.35444], [21.25025, 38.33674], [21.23243, 38.32942], [21.21292, 38.3305], [21.18963, 38.34138], [21.18133, 38.33051], [21.19993, 38.32307], [21.17506, 38.3133], [21.1742, 38.30266], [21.15562, 38.30391], [21.14039, 38.33674], [21.08525, 38.34358], [21.10572, 38.35297], [21.10939, 38.36042], [21.10621, 38.37153], [21.09256, 38.3641], [21.1062, 38.38513], [21.10328, 38.37816], [21.11354, 38.37393], [21.12501, 38.37995], [21.14039, 38.39887], [21.12241, 38.41035], [21.11476, 38.40961], [21.1062, 38.39888], [21.09497, 38.4029], [21.08181, 38.42072], [21.07896, 38.43293], [21.08522, 38.44035], [21.10678, 38.42544], [21.11622, 38.42805], [21.11988, 38.44038], [21.10621, 38.43293], [21.11085, 38.44611], [21.10142, 38.46475], [21.10621, 38.48139], [21.07897, 38.48754], [21.09938, 38.49437], [21.08523, 38.50186], [21.09474, 38.51789], [21.09596, 38.53193], [21.08668, 38.53644], [21.04692, 38.51126], [21.03582, 38.50692], [21.03054, 38.51142], [21.01687, 38.54589], [21.02467, 38.60847], [21.00369, 38.62646], [20.98813, 38.66401], [20.97902, 38.67255], [20.94012, 38.67293], [20.91441, 38.68623], [20.88315, 38.77936], [20.87338, 38.79531], [20.85987, 38.80353], [20.84523, 38.79963], [20.81137, 38.76254], [20.80405, 38.77338], [20.77329, 38.76095], [20.76368, 38.78172], [20.72934, 38.80353], [20.72934, 38.80976], [20.74937, 38.85724], [20.76735, 38.86431], [20.8003, 38.86457], [20.80519, 38.86774], [20.7942, 38.87979], [20.76451, 38.8918], [20.75605, 38.90689], [20.75745, 38.93987], [20.76978, 38.95895], [20.78159, 38.935], [20.81707, 38.92137], [20.83595, 38.9289], [20.85988, 38.96051], [20.8667, 38.96051], [20.87106, 38.94745], [20.86671, 38.94009], [20.87224, 38.93281], [20.86671, 38.92642], [20.90382, 38.92805], [20.91578, 38.9361], [20.92068, 38.95432], [20.92749, 38.95432], [20.93718, 38.94404], [20.97535, 38.94684], [21.00945, 38.93423], [21.02734, 38.93259], [21.02556, 38.89802], [21.0608, 38.88222], [21.08522, 38.86432], [21.08889, 38.87848], [21.09938, 38.88544], [21.09166, 38.90452], [21.10231, 38.91082], [21.12111, 38.91011], [21.13701, 38.9025], [21.16082, 38.878], [21.17262, 38.87352], [21.17742, 38.87604], [21.18133, 38.88544], [21.16969, 38.89582], [21.16684, 38.91087], [21.15455, 38.9134], [21.14019, 38.94108], [21.14723, 38.95433], [21.14195, 38.96239], [21.14504, 38.97138], [21.15262, 38.9767], [21.16082, 38.97419], [21.15992, 38.99775], [21.13559, 39.02338], [21.08522, 39.06293], [21.07439, 39.05004], [21.07892, 39.0363], [21.06528, 39.04051], [21.05519, 39.0375], [21.03736, 39.02196], [21.05832, 39.00899], [21.0032, 39.01513], [21.00318, 39.02196], [20.9909, 39.02425], [20.96567, 39.03937], [20.95355, 39.03427], [20.9442, 39.03857], [20.93484, 39.05671], [20.9485, 39.06293], [20.9485, 39.06977], [20.92018, 39.06453], [20.90138, 39.07722], [20.89389, 39.07722], [20.88818, 39.06721], [20.87037, 39.05931], [20.86671, 39.05305], [20.87094, 39.04312], [20.88646, 39.03645], [20.84495, 39.03694], [20.85987, 39.04247], [20.85776, 39.05891], [20.85499, 39.0655], [20.84622, 39.06295], [20.8462, 39.07722], [20.83237, 39.07689], [20.82573, 39.06982], [20.83806, 39.09174], [20.83416, 39.10847], [20.82244, 39.11449], [20.81137, 39.10457], [20.80519, 39.1114], [20.79541, 39.09863], [20.77719, 39.09089], [20.77719, 39.08344], [20.79182, 39.08079], [20.78401, 39.04927], [20.76157, 39.03242], [20.7575, 39.02196], [20.74318, 39.02949], [20.74537, 39.01472], [20.7575, 39.01512], [20.80388, 38.9853], [20.82349, 38.97784], [20.83178, 38.96369], [20.82878, 38.96053], [20.82035, 38.96217], [20.80209, 38.97065], [20.76637, 38.97761], [20.7575, 38.97419], [20.74692, 38.95795], [20.73512, 38.95011], [20.70225, 38.99815], [20.71583, 39.01512], [20.70574, 39.04857], [20.68653, 39.07246], [20.59589, 39.12386], [20.51783, 39.20075], [20.47887, 39.22517], [20.48243, 39.23428], [20.47514, 39.25534], [20.48243, 39.28266], [20.46022, 39.2773], [20.44825, 39.2895], [20.43344, 39.28287], [20.4192, 39.28337], [20.39356, 39.29694], [20.36557, 39.28768], [20.32489, 39.30379], [20.29283, 39.33344], [20.2907, 39.36465], [20.2697, 39.38736], [20.25896, 39.39728], [20.23603, 39.39937], [20.24285, 39.41242], [20.21562, 39.44033], [20.26734, 39.44693], [20.26393, 39.46076], [20.2156, 39.48872], [20.2156, 39.49493], [20.25506, 39.49238], [20.26393, 39.50861], [20.23601, 39.52082], [20.22202, 39.52131], [20.22241, 39.50862], [20.20216, 39.52041], [20.1907, 39.52168], [20.20191, 39.52973], [20.18312, 39.53327], [20.14959, 39.53364], [20.13359, 39.52975], [20.14552, 39.54707], [20.14667, 39.57068], [20.15406, 39.56391], [20.1609, 39.56436], [20.17457, 39.57685], [20.17458, 39.59796], [20.18824, 39.60419], [20.18181, 39.62446], [20.14821, 39.63753], [20.08888, 39.67308], [20.04422, 39.68101], [20.01002, 39.69355], [19.99684, 39.69257], [19.99585, 39.68672], [19.98903, 39.68672], [19.98359, 39.70136], [19.98694, 39.71771], [20.0027, 39.74824], [19.98066, 39.75731], [19.99586, 39.78294], [20.01417, 39.83295], [20.01629, 39.84504], [20.00978, 39.86567], [19.99928, 39.8714], [19.96169, 39.87858], [19.95883, 39.88935], [19.94117, 39.89899], [19.90644, 39.90645], [19.9066, 39.91283], [19.94117, 39.94001], [19.92369, 39.95304], [19.86345, 40.04536], [19.85523, 40.04987], [19.80712, 40.05299], [19.79658, 40.05732], [19.80453, 40.06346], [19.77735, 40.07779], [19.77052, 40.0635], [19.73268, 40.11026], [19.72902, 40.10823], [19.71909, 40.11603], [19.65348, 40.13231], [19.63549, 40.1405], [19.67748, 40.20564], [19.70286, 40.23514], [19.76396, 40.28739], [19.83771, 40.32976], [19.92146, 40.3604], [19.96564, 40.37076], [20.0434, 40.38024], [20.09027, 40.36162], [20.17283, 40.31622], [20.23469, 40.2657], [20.2855, 40.2036], [20.30189, 40.20304], [20.35445, 40.39306], [20.46259, 40.40393], [20.54475, 40.48595], [20.54141, 40.60059], [20.4682, 40.66592], [20.49918, 40.76472], [20.92561, 40.75098], [21.06065, 40.681], [21.20872, 40.71633], [21.26096, 40.86081], [21.29537, 40.86087], [21.32927, 40.86629], [21.34488, 40.87306], [21.38126, 40.9005], [21.40493, 40.90862], [21.42942, 40.90898], [21.50952, 40.9005], [21.55365, 40.87043], [21.58156, 40.86629], [21.62372, 40.8944], [21.64884, 40.8958], [21.6569, 40.91823], [21.68511, 40.92799], [21.737, 40.91916], [21.76552, 40.92391], [21.77813, 40.93373], [22.034, 40.81971], [22.14261, 40.86199], [22.24229, 40.84256], [22.25128, 40.85011], [22.30875, 41.12498], [22.36766, 41.13237], [22.38016, 41.1317], [22.42181, 41.11465], [22.4675, 41.11501], [22.50067, 41.12214], [22.57126, 41.11951], [22.59018, 41.12514], [22.60733, 41.13599], [22.62449, 41.15263], [22.62935, 41.17707], [22.64454, 41.18023], [22.65612, 41.17806], [22.6741, 41.15661], [22.7049, 41.13966], [22.71575, 41.1456], [22.72344, 41.15915], [23.00501, 41.07266], [23.1842, 41.05647], [23.46741, 41.13274], [23.55584, 41.14664], [23.58936, 41.37169], [23.61244, 41.37102], [23.62774, 41.37851], [23.65285, 41.39763], [23.67218, 41.40295], [23.70535, 41.40316], [23.73822, 41.39747], [23.75445, 41.40068], [23.77708, 41.42905], [23.79207, 41.43447], [23.83093, 41.43561], [23.8516, 41.43959], [23.86772, 41.44548], [23.8948, 41.46434], [23.90286, 41.46352], [23.94989, 41.43758], [23.96467, 41.43835], [23.98131, 41.45086], [23.99712, 41.45701], [24.00074, 41.46414], [24.02285, 41.45308], [24.03474, 41.45132], [24.16, 41.24347], [24.1932, 41.1659], [24.38685, 41.11973], [24.40744, 41.13051], [24.41855, 41.16793], [24.44358, 41.21739], [24.59584, 41.42977], [24.64431, 41.42765], [24.63822, 41.41768], [24.6809, 41.41551], [24.69919, 41.40895], [24.71873, 41.39572], [24.75263, 41.36275], [24.77444, 41.34807], [24.79428, 41.3474], [24.80286, 41.36192], [24.80017, 41.37934], [24.80327, 41.39267], [24.84213, 41.39473], [24.87293, 41.40187], [24.88637, 41.40063], [24.91696, 41.38636], [25.08036, 41.33407], [25.10186, 41.33665], [25.11653, 41.32073], [25.15788, 41.30611], [25.1771, 41.29386], [25.21968, 41.24973], [25.23911, 41.2409], [25.26226, 41.2381], [25.28572, 41.2394], [25.45346, 41.28043], [25.4791, 41.28379], [25.50509, 41.28058], [25.51491, 41.28348], [25.52369, 41.29169], [25.53795, 41.31221], [25.55149, 41.31567], [25.63976, 41.31107], [25.67045, 41.29919], [25.69123, 41.29841], [25.71748, 41.31412], [25.76347, 41.31903], [25.81101, 41.34104], [25.83334, 41.33464], [25.86269, 41.31009], [25.88202, 41.30404], [25.89628, 41.30627], [25.92119, 41.31603], [25.95963, 41.315], [25.98227, 41.32327], [26.32106, 41.18762], [26.32416, 41.16989], [26.33605, 41.15258], [26.31734, 41.13046], [26.31734, 41.1223], [26.33946, 41.11449], [26.3224, 41.08855], [26.32509, 41.07408], [26.34762, 41.04096], [26.37418, 41.03114], [26.37501, 41.01946], [26.36809, 41.00773], [26.35961, 41.00241], [26.33594, 40.99714], [26.33315, 40.99073], [26.33605, 40.98189], [26.35909, 40.96468], [26.33501, 40.94624], [26.30649, 40.936], [26.29439, 40.92665], [26.30328, 40.91549], [26.30401, 40.90903], [26.2822, 40.90722], [26.27517, 40.91027], [26.26649, 40.92045], [26.26039, 40.92045], [26.25223, 40.90055], [26.2392, 40.88567], [26.23238, 40.88567], [26.22618, 40.89931], [26.22525, 40.8836], [26.21192, 40.87947], [26.21254, 40.87311], [26.21864, 40.87198], [26.20582, 40.865], [26.2051, 40.85839], [26.21202, 40.84743], [26.15828, 40.81219], [26.14298, 40.79379], [26.13451, 40.76712], [26.11229, 40.74697], [26.19349, 40.61699], [26.18324, 40.60174], [26.11736, 40.602], [26.09132, 40.60542], [26.07681, 40.61199], [26.05374, 40.66059], [26.06088, 40.67585], [26.05812, 40.6977], [26.04811, 40.71963], [26.03324, 40.73505], [26.04689, 40.7425], [26.036, 40.75776], [26.02735, 40.79613], [26.00589, 40.80395], [26.00587, 40.81078], [26.05372, 40.81623], [26.06056, 40.82075], [26.05397, 40.83096], [26.03891, 40.83251], [26.01222, 40.82445], [26.00587, 40.83877], [25.99838, 40.83877], [26.00587, 40.81704], [25.99843, 40.81704], [25.98292, 40.83088], [25.95167, 40.84553], [25.91863, 40.85297], [25.89666, 40.84493], [25.8257, 40.84969], [25.80323, 40.85651], [25.73219, 40.85176], [25.6045, 40.87617], [25.56715, 40.86544], [25.53806, 40.87038], [25.48683, 40.89712], [25.41969, 40.90641], [25.38299, 40.91902], [25.34083, 40.94172], [25.29965, 40.95185], [25.26612, 40.92692], [25.2593, 40.92692], [25.2588, 40.93195], [25.18068, 40.94271], [25.13406, 40.96288], [25.14016, 40.98358], [25.15846, 40.99429], [25.16993, 40.9958], [25.13844, 41.01008], [25.03907, 41.00605], [25.03955, 40.98957], [25.01852, 40.97496], [24.99171, 40.96845], [24.99902, 40.94994], [24.98975, 40.94214], [24.95387, 40.94115], [24.8921, 40.92064], [24.86354, 40.90522], [24.83398, 40.87475], [24.80201, 40.85347], [24.7658, 40.86542], [24.72836, 40.85274], [24.70875, 40.85176], [24.69013, 40.85859], [24.69752, 40.86542], [24.66277, 40.87971], [24.63542, 40.8586], [24.62868, 40.8586], [24.59622, 40.90119], [24.60076, 40.9138], [24.57554, 40.92671], [24.56666, 40.95173], [24.50514, 40.96162], [24.47291, 40.95173], [24.46412, 40.94116], [24.44313, 40.94806], [24.41554, 40.94554], [24.39178, 40.93647], [24.37223, 40.91414], [24.31267, 40.87971], [24.33222, 40.86304], [24.33134, 40.85527], [24.30983, 40.85053], [24.30568, 40.84174], [24.31528, 40.83222], [24.34064, 40.83128], [24.11011, 40.72786], [24.07281, 40.72143], [24.03004, 40.72335], [23.98667, 40.7321], [23.87403, 40.77765], [23.84205, 40.78335], [23.80926, 40.78042], [23.75408, 40.76301], [23.7107, 40.73762], [23.69703, 40.72142], [23.69174, 40.69538], [23.70021, 40.67365], [23.71803, 40.65868], [23.75562, 40.64565], [23.78649, 40.60637], [23.79265, 40.58796], [23.83351, 40.56379], [23.84669, 40.56029], [23.88884, 40.56378], [23.89527, 40.55305], [23.91487, 40.53888], [23.91552, 40.52961], [23.90723, 40.52539], [23.83823, 40.51874], [23.82301, 40.50698], [23.81902, 40.48774], [23.82667, 40.46137], [23.86818, 40.41352], [23.91554, 40.38935], [23.96388, 40.37946], [24.00245, 40.38638], [24.01173, 40.39248], [24.01157, 40.40184], [23.99124, 40.43407], [23.99871, 40.44086], [23.99125, 40.44769], [24.0114, 40.44915], [24.0288, 40.43207], [24.05323, 40.39248], [24.08579, 40.36603], [24.1089, 40.35741], [24.12843, 40.36517], [24.14612, 40.36047], [24.144, 40.38818], [24.14712, 40.46491], [24.21758, 40.52158], [24.24794, 40.53768], [24.26186, 40.53964], [24.29921, 40.52939], [24.31885, 40.51918], [24.35541, 40.49293], [24.38229, 40.46468], [24.38979, 40.45199], [24.3937, 40.43831], [24.39499, 40.402], [24.38721, 40.36254], [24.3699, 40.33021], [24.35747, 40.31985], [24.31474, 40.30707], [24.2485, 40.30408], [24.26651, 40.2888], [24.32065, 40.22797], [24.3833, 40.17914], [24.39372, 40.15271], [24.36109, 40.1324], [24.31861, 40.12471], [24.29999, 40.12809], [24.28614, 40.16055], [24.2383, 40.187], [24.16896, 40.2753], [24.12843, 40.29003], [24.04787, 40.30119], [24.01922, 40.3105], [23.93653, 40.36518], [23.92262, 40.36933], [23.88502, 40.36519], [23.83351, 40.37202], [23.78223, 40.3527], [23.75961, 40.3492], [23.73048, 40.35895], [23.69972, 40.32636], [23.69361, 40.30923], [23.69565, 40.29291], [23.71632, 40.25532], [23.75765, 40.23167], [23.76433, 40.2154], [23.77858, 40.2027], [23.86769, 40.17276], [23.88022, 40.17632], [23.89673, 40.17132], [23.94068, 40.14155], [23.98023, 40.13067], [23.99121, 40.11872], [23.98999, 40.11002], [23.97739, 40.10049], [23.97755, 40.09081], [24.00114, 40.07493], [24.00488, 40.06721], [24.00169, 40.05878], [23.98422, 40.05362], [23.98683, 40.04218], [23.99342, 40.03754], [24.01171, 40.04364], [24.01222, 40.02656], [24.0192, 40.0163], [23.99252, 39.99885], [23.98805, 39.98998], [23.9987, 39.98159], [23.9987, 39.97477], [23.97934, 39.97431], [23.9699, 39.96809], [23.97283, 39.96186], [23.9912, 39.96109], [23.99121, 39.95361], [23.93995, 39.95247], [23.9197, 39.95637], [23.92286, 39.97476], [23.90066, 39.97119], [23.89765, 39.97793], [23.90252, 39.98843], [23.86086, 40.00581], [23.85621, 40.01675], [23.8449, 40.02412], [23.83123, 40.02652], [23.82407, 40.02192], [23.82664, 40.00892], [23.78526, 40.06699], [23.79331, 40.09382], [23.77834, 40.10164], [23.7645, 40.12617], [23.67547, 40.21792], [23.64178, 40.23542], [23.5403, 40.24479], [23.48414, 40.2696], [23.43849, 40.2792], [23.39828, 40.27774], [23.365, 40.26171], [23.3401, 40.22797], [23.33766, 40.20844], [23.36362, 40.15046], [23.40083, 40.14383], [23.46925, 40.06708], [23.49887, 40.0423], [23.60271, 39.99848], [23.67025, 39.98606], [23.67596, 39.96109], [23.69728, 39.9405], [23.74787, 39.93048], [23.73998, 39.92318], [23.70314, 39.91268], [23.61647, 39.92333], [23.47096, 39.97163], [23.44654, 39.97476], [23.36063, 39.9611], [23.3816, 40.00267], [23.36069, 40.03263], [23.35271, 40.05707], [23.31659, 40.08886], [23.30593, 40.10448], [23.31959, 40.13679], [23.32456, 40.17495], [23.31861, 40.21052], [23.29908, 40.23542], [23.25864, 40.25312], [23.19956, 40.26627], [23.16619, 40.27985], [23.14894, 40.27645], [23.09693, 40.3061], [23.02916, 40.32576], [23.01092, 40.35122], [22.96388, 40.37946], [22.9275, 40.3885], [22.88822, 40.38631], [22.89772, 40.40204], [22.88966, 40.41836], [22.86022, 40.4477], [22.86744, 40.44945], [22.8672, 40.45392], [22.83092, 40.48579], [22.82164, 40.50214], [22.84352, 40.50917], [22.94158, 40.51716], [22.98316, 40.55268], [22.9769, 40.57062], [22.94176, 40.58735], [22.94956, 40.60541], [22.93377, 40.63093], [22.91049, 40.6446], [22.88307, 40.64728], [22.85401, 40.63947], [22.86108, 40.62055], [22.85058, 40.59342], [22.81592, 40.57063], [22.79567, 40.5708], [22.77833, 40.57807], [22.75856, 40.56778], [22.74594, 40.55524], [22.74252, 40.54035], [22.75032, 40.52278], [22.73666, 40.52961], [22.73665, 40.51534], [22.73048, 40.51534], [22.73048, 40.52277], [22.72315, 40.52277], [22.719, 40.51098], [22.71095, 40.51163], [22.68898, 40.52278], [22.68849, 40.52749], [22.67351, 40.52684], [22.65772, 40.51667], [22.65626, 40.50454], [22.67527, 40.49617], [22.65968, 40.49291], [22.65072, 40.47282], [22.6268, 40.48188], [22.60287, 40.48127], [22.57911, 40.46821], [22.60376, 40.44399], [22.60872, 40.42817], [22.60646, 40.41356], [22.63998, 40.38369], [22.65836, 40.37945], [22.66113, 40.36905], [22.62062, 40.31049], [22.59034, 40.24164], [22.59082, 40.23017], [22.5525, 40.16657], [22.54965, 40.14387], [22.56771, 40.1105], [22.57287, 40.08794], [22.5713, 40.05427], [22.58765, 40.0449], [22.60027, 40.0163], [22.66717, 39.97435], [22.69092, 39.96816], [22.69858, 39.96088], [22.70785, 39.96136], [22.71013, 39.93378], [22.73048, 39.8854], [22.77866, 39.84984], [22.80132, 39.84016], [22.84051, 39.8032], [22.85874, 39.77298], [22.87175, 39.71581], [22.90194, 39.65864], [22.92514, 39.59951], [22.93946, 39.58063], [23.00489, 39.5434], [23.05591, 39.52724], [23.09763, 39.50157], [23.11411, 39.46699], [23.12566, 39.45441], [23.21094, 39.37933], [23.22381, 39.35859], [23.27132, 39.32294], [23.29225, 39.26899], [23.34228, 39.19261], [23.34375, 39.17964], [23.30127, 39.15136], [23.20973, 39.13182], [23.23021, 39.12442], [23.23022, 39.11816], [23.20362, 39.10457], [23.1692, 39.10659], [23.14625, 39.10175], [23.11549, 39.0883], [23.05203, 39.09773], [23.07309, 39.12442], [23.06773, 39.138], [23.08107, 39.14719], [23.11409, 39.15911], [23.1006, 39.10456], [23.17172, 39.13496], [23.18238, 39.14614], [23.17557, 39.15546], [23.18133, 39.15867], [23.19093, 39.1581], [23.19923, 39.15144], [23.21713, 39.17963], [23.17556, 39.23428], [23.17986, 39.2508], [23.16912, 39.26854], [23.1425, 39.29045], [23.09815, 39.3122], [23.02053, 39.31754], [23.01856, 39.33047], [22.99806, 39.35712], [22.93588, 39.36058], [22.94287, 39.34415], [22.93279, 39.336], [22.92905, 39.3242], [22.93214, 39.3122], [22.94286, 39.30317], [22.84254, 39.28848], [22.82618, 39.27216], [22.82618, 39.22126], [22.85402, 39.15913], [22.8602, 39.15913], [22.88087, 39.17963], [22.87698, 39.19037], [22.89013, 39.18426], [22.89503, 39.1728], [22.90186, 39.17962], [22.92058, 39.12515], [22.93605, 39.1114], [22.93588, 39.11612], [22.94288, 39.11815], [22.93605, 39.13181], [22.9611, 39.11904], [22.98243, 39.08442], [22.99804, 39.06977], [22.99195, 39.05732], [22.99804, 39.04927], [22.96648, 39.03465], [22.95883, 39.02513], [22.96388, 39.00898], [23.01532, 39.03318], [23.04219, 39.04003], [23.07308, 39.04246], [23.07308, 39.03629], [23.02329, 39.00845], [23.00716, 38.97395], [22.98454, 38.95434], [22.95639, 38.95433], [22.93605, 38.94684], [22.94286, 38.93261], [22.92856, 38.93159], [22.89873, 38.91969], [22.85987, 38.92853], [22.84653, 38.92642], [22.83667, 38.89648], [22.82959, 38.89168], [22.8047, 38.89102], [22.79199, 38.87801], [22.73268, 38.87239], [22.71827, 38.8898], [22.68897, 38.87801], [22.62159, 38.9145], [22.58082, 38.89363], [22.55209, 38.88923], [22.53882, 38.87801], [22.52508, 38.88544], [22.52508, 38.85814], [22.57291, 38.86431], [22.57291, 38.85815], [22.55388, 38.84809], [22.56332, 38.83625], [22.58277, 38.83198], [22.59344, 38.84446], [22.60025, 38.84446], [22.59343, 38.83023], [22.63266, 38.83514], [22.64112, 38.83023], [22.69028, 38.84999]], [[22.45426, 39.51235], [22.46392, 39.51368], [22.46836, 39.52371], [22.42876, 39.60425], [22.47603, 39.62217], [22.5407, 39.63849], [22.54667, 39.64354], [22.5458, 39.65116], [22.39961, 39.68535], [22.31691, 39.71904], [22.30373, 39.73766], [22.22871, 39.79749], [22.17516, 39.85982], [22.1662, 39.85969], [22.15964, 39.85386], [22.16101, 39.82683], [22.1847, 39.76134], [22.23503, 39.68218], [22.26277, 39.66429], [22.34224, 39.63127], [22.37104, 39.61483], [22.38124, 39.59788], [22.39141, 39.55408], [22.40171, 39.53739], [22.43078, 39.52102], [22.45426, 39.51235]]], [[[23.25066, 39.1197], [23.25598, 39.12415], [23.28366, 39.12496], [23.37507, 39.11026], [23.41208, 39.09308], [23.4219, 39.08495], [23.4225, 39.08098], [23.41369, 39.06976], [23.39591, 39.05704], [23.37497, 39.04753], [23.35682, 39.04576], [23.32108, 39.05874], [23.28466, 39.07791], [23.25788, 39.09926], [23.25121, 39.10978], [23.25066, 39.1197]]], [[[20.21942, 39.14013], [20.21735, 39.15244], [20.22851, 39.15627], [20.24545, 39.14012], [20.25828, 39.13288], [20.24699, 39.12964], [20.22739, 39.14081], [20.21942, 39.14013]]], [[[23.4253, 39.14867], [23.39529, 39.14616], [23.3987, 39.16364], [23.42945, 39.17621], [23.44468, 39.19847], [23.47047, 39.2138], [23.49029, 39.20369], [23.49394, 39.19304], [23.51285, 39.17853], [23.50513, 39.15914], [23.48902, 39.16877], [23.47511, 39.15778], [23.46045, 39.13183], [23.4253, 39.14867]]], [[[20.14039, 39.24167], [20.19011, 39.20262], [20.2019, 39.17964], [20.16872, 39.18282], [20.13868, 39.20905], [20.12535, 39.23602], [20.14039, 39.24167]]], [[[19.94799, 39.79034], [19.94629, 39.75923], [19.93376, 39.74116], [19.84156, 39.70417], [19.83595, 39.69245], [19.83912, 39.67988], [19.84767, 39.66999], [19.85864, 39.66624], [19.85864, 39.65884], [19.84498, 39.65884], [19.84498, 39.65266], [19.90382, 39.62906], [19.92749, 39.6253], [19.92331, 39.60335], [19.91715, 39.59887], [19.90016, 39.60419], [19.91187, 39.5834], [19.93653, 39.47297], [19.96144, 39.46296], [20.00247, 39.45408], [20.03272, 39.43928], [20.05047, 39.44033], [20.07407, 39.44895], [20.08187, 39.44732], [20.11792, 39.371], [20.10573, 39.36466], [20.0324, 39.39501], [19.99928, 39.39937], [19.95484, 39.42609], [19.9118, 39.43033], [19.9075, 39.435], [19.92172, 39.43781], [19.9275, 39.44717], [19.87973, 39.46076], [19.87891, 39.45321], [19.85473, 39.48923], [19.84083, 39.55199], [19.82887, 39.57233], [19.80982, 39.58906], [19.74856, 39.62003], [19.71892, 39.67308], [19.68971, 39.67415], [19.68134, 39.68], [19.67434, 39.69355], [19.67701, 39.7167], [19.67172, 39.72407], [19.65318, 39.71469], [19.65016, 39.74177], [19.64161, 39.74795], [19.6265, 39.74825], [19.6675, 39.79351], [19.76971, 39.79808], [19.79908, 39.8028], [19.85182, 39.82452], [19.86557, 39.82102], [19.89283, 39.80341], [19.92872, 39.79218], [19.93434, 39.78294], [19.94117, 39.78294], [19.94117, 39.79034], [19.94799, 39.79034]]], [[[24.92514, 35.10148], [25.02776, 35.15989], [25.07375, 35.17637], [25.13122, 35.17237], [25.17477, 35.16039], [25.20756, 35.14198], [25.21586, 35.13069], [25.22024, 35.098], [25.20851, 35.05407], [25.17573, 34.98307], [25.16769, 34.95107], [25.17453, 34.93876], [25.194, 34.91811], [25.22919, 34.89731], [25.23931, 34.89612], [25.29041, 34.90917], [25.45356, 34.98329], [25.60013, 34.98416], [25.65656, 34.99546], [25.6825, 35.00686], [25.7618, 35.06355], [25.78303, 35.07437], [25.80551, 35.08038], [25.82961, 35.07986], [25.85572, 35.07109], [25.85306, 35.05836], [25.85801, 35.05673], [25.85493, 35.04196], [25.84713, 35.03025], [25.78385, 34.98601], [25.76851, 34.95518], [25.76544, 34.93707], [25.77642, 34.92229], [25.78814, 34.91663], [25.82212, 34.912], [25.81989, 34.89797], [25.82414, 34.8977], [25.82102, 34.87784], [25.81114, 34.85531], [25.77788, 34.80683], [25.71969, 34.74258], [25.69759, 34.72283], [25.67533, 34.71549], [25.64825, 34.7117], [25.61258, 34.71218], [25.55711, 34.72636], [25.42626, 34.76933], [25.3713, 34.77962], [25.34523, 34.77238], [25.27547, 34.73022], [25.23129, 34.72641], [25.16815, 34.73203], [25.04269, 34.75328], [24.9942, 34.75703], [24.96669, 34.7532], [24.90427, 34.72956], [24.86626, 34.72514], [24.75964, 34.75392], [24.72712, 34.75386], [24.66592, 34.74224], [24.63418, 34.7414], [24.54994, 34.76165], [24.52099, 34.76665], [24.49373, 34.76634], [24.46938, 34.75808], [24.44924, 34.73925], [24.43457, 34.70723], [24.29949, 34.69122], [24.1525, 34.71008], [24.08525, 34.7226], [24.09558, 34.7346], [24.08514, 34.73697], [24.09231, 34.74623], [24.12722, 34.77221], [24.14159, 34.78875], [24.14498, 34.79716], [24.1411, 34.82622], [24.10698, 34.86199], [24.05217, 34.89341], [23.98473, 34.9203], [23.91269, 34.9426], [23.72869, 34.98672], [23.62642, 34.99971], [23.54072, 35.00211], [23.43504, 34.9852], [23.40025, 34.98567], [23.38661, 34.99516], [23.35767, 35.03776], [23.33229, 35.04652], [23.28491, 35.05391], [23.16368, 35.06072], [22.98959, 35.04189], [22.93965, 35.04141], [22.91999, 35.04852], [22.8994, 35.06278], [22.883, 35.08034], [22.87587, 35.09735], [22.8812, 35.15307], [22.9253, 35.29644], [22.94983, 35.418], [22.96618, 35.46453], [22.97724, 35.48217], [22.98258, 35.48468], [22.98815, 35.46646], [22.99345, 35.41474], [23.00239, 35.39023], [23.01947, 35.37913], [23.04467, 35.36972], [23.06947, 35.3661], [23.07905, 35.36774], [23.08532, 35.37238], [23.09296, 35.39144], [23.09307, 35.48833], [23.0971, 35.52673], [23.10501, 35.54613], [23.11987, 35.5578], [23.1345, 35.55727], [23.14498, 35.54519], [23.15257, 35.52479], [23.17063, 35.44569], [23.17919, 35.42412], [23.19104, 35.41034], [23.2074, 35.40249], [23.25307, 35.39202], [23.30645, 35.38804], [23.37583, 35.39302], [23.41779, 35.41171], [23.51295, 35.47281], [23.53513, 35.48318], [23.55528, 35.48822], [23.56336, 35.48644], [23.57579, 35.47062], [23.58299, 35.44607], [23.58236, 35.39906], [23.56632, 35.38047], [23.52544, 35.35114], [23.51022, 35.33563], [23.51538, 35.32948], [23.52782, 35.32358], [23.59972, 35.31014], [23.62622, 35.29988], [23.6416, 35.27431], [23.66731, 35.20436], [23.67673, 35.19259], [23.6887, 35.18642], [23.71895, 35.18283], [23.79494, 35.18687], [23.87895, 35.20012], [23.98675, 35.22248], [24.01569, 35.23387], [24.08236, 35.26972], [24.1118, 35.27845], [24.13963, 35.27343], [24.20424, 35.24589], [24.23228, 35.23837], [24.27608, 35.2411], [24.38226, 35.25673], [24.42528, 35.25482], [24.43328, 35.2498], [24.43973, 35.24063], [24.46064, 35.19011], [24.46732, 35.18093], [24.47563, 35.1759], [24.54964, 35.16489], [24.73358, 35.15621], [24.8091, 35.14661], [24.82645, 35.13472], [24.86141, 35.09361], [24.87923, 35.08576], [24.90117, 35.09113], [24.92514, 35.10148]]], [[[24.85818, 36.45313], [24.8347, 36.43976], [24.80972, 36.43176], [24.78525, 36.43005], [24.76333, 36.43553], [24.79091, 36.55549], [24.80249, 36.57841], [24.8168, 36.59134], [24.83271, 36.59579], [24.84908, 36.59323], [24.8648, 36.58509], [24.88991, 36.5579], [24.89708, 36.54178], [24.89957, 36.51625], [24.8926, 36.49231], [24.87815, 36.47096], [24.85818, 36.45313]]], [[[24.85001, 36.64677], [24.84085, 36.66522], [24.86166, 36.66595], [24.94792, 36.62433], [24.9637, 36.59635], [24.92287, 36.60229], [24.89552, 36.62425], [24.85001, 36.64677]]], [[[23.78101, 36.78397], [23.79781, 36.78374], [23.81473, 36.77853], [23.86492, 36.75549], [23.88102, 36.75282], [23.9019, 36.75486], [23.93568, 36.76821], [24.00666, 36.82789], [24.02399, 36.839], [24.06349, 36.85492], [24.10523, 36.86228], [24.14422, 36.86091], [24.17701, 36.84959], [24.1868, 36.84031], [24.19086, 36.82958], [24.18958, 36.81794], [24.17248, 36.79394], [24.13847, 36.77255], [24.00904, 36.72695], [23.90579, 36.67312], [23.86284, 36.65942], [23.84136, 36.65854], [23.81991, 36.66305], [23.78844, 36.67598], [23.75657, 36.69622], [23.74491, 36.70923], [23.73848, 36.72426], [23.73904, 36.74134], [23.74841, 36.76058], [23.76449, 36.777], [23.78101, 36.78397]]], [[[24.73872, 36.92961], [24.75869, 36.96996], [24.76578, 36.94921], [24.73872, 36.92961]]], [[[24.35057, 37.12361], [24.34675, 37.08631], [24.33475, 37.0601], [24.32813, 37.05226], [24.31282, 37.04586], [24.2822, 37.05567], [24.24863, 37.07941], [24.23305, 37.08572], [24.21679, 37.08731], [24.17952, 37.0802], [24.1705, 37.08919], [24.17483, 37.10986], [24.19667, 37.12909], [24.22981, 37.14456], [24.26802, 37.15398], [24.30503, 37.15513], [24.33461, 37.14577], [24.35057, 37.12361]]], [[[24.79494, 37.18581], [24.80611, 37.17046], [24.80619, 37.15539], [24.78969, 37.13603], [24.76512, 37.12755], [24.73659, 37.12879], [24.70821, 37.13856], [24.68416, 37.15562], [24.66869, 37.17874], [24.66609, 37.20665], [24.68071, 37.23807], [24.70531, 37.23372], [24.7278, 37.22539], [24.77597, 37.20062], [24.79494, 37.18581]]], [[[24.1083, 37.37167], [24.11014, 37.38343], [24.11792, 37.39321], [24.13079, 37.40112], [24.16844, 37.41158], [24.21563, 37.41626], [24.25325, 37.41554], [24.26632, 37.4113], [24.27524, 37.40339], [24.27979, 37.39102], [24.27972, 37.37335], [24.26918, 37.32886], [24.26025, 37.31458], [24.22535, 37.29204], [24.1564, 37.23726], [24.14906, 37.23447], [24.13906, 37.23594], [24.1339, 37.24094], [24.13399, 37.2581], [24.14738, 37.29783], [24.15137, 37.32303], [24.12561, 37.34186], [24.11318, 37.35783], [24.1083, 37.37167]]], [[[23.89813, 37.49448], [23.9196, 37.48826], [23.93392, 37.4785], [23.94254, 37.46317], [23.92613, 37.46703], [23.91546, 37.48033], [23.89684, 37.49019], [23.89813, 37.49448]]], [[[24.49401, 37.39961], [24.49121, 37.41428], [24.49326, 37.42844], [24.49898, 37.44221], [24.53459, 37.49702], [24.5425, 37.51984], [24.54194, 37.54137], [24.52555, 37.59003], [24.52951, 37.61712], [24.53847, 37.62865], [24.55091, 37.63487], [24.56576, 37.63695], [24.66093, 37.6234], [24.66816, 37.6165], [24.67533, 37.6012], [24.67952, 37.57754], [24.67877, 37.53725], [24.67363, 37.51533], [24.66608, 37.50046], [24.64764, 37.48332], [24.59669, 37.46348], [24.58087, 37.45399], [24.53014, 37.41145], [24.50706, 37.40099], [24.49401, 37.39961]]], [[[23.95971, 37.64282], [23.9411, 37.64217], [23.93557, 37.6459], [23.93866, 37.65708], [23.95971, 37.65139], [23.95971, 37.64282]]], [[[24.81334, 37.67575], [24.79599, 37.69368], [24.79364, 37.70246], [24.79644, 37.71096], [24.80508, 37.71906], [24.82954, 37.72887], [24.85739, 37.73001], [24.9178, 37.7154], [25.00105, 37.68478], [25.03244, 37.68179], [25.08485, 37.69402], [25.10108, 37.68634], [25.10566, 37.67618], [25.10408, 37.6649], [25.09779, 37.65294], [25.046, 37.5985], [24.98826, 37.60506], [24.95574, 37.61447], [24.86049, 37.64956], [24.81334, 37.67575]]], [[[23.45932, 37.72333], [23.43443, 37.7336], [23.42453, 37.76157], [23.42564, 37.76821], [23.54615, 37.77439], [23.56314, 37.76825], [23.54493, 37.74506], [23.54614, 37.73347], [23.53207, 37.72533], [23.52563, 37.69246], [23.48414, 37.67887], [23.45738, 37.69246], [23.45738, 37.69928], [23.469, 37.70502], [23.46827, 37.7145], [23.45932, 37.72333]]], [[[23.76351, 37.77597], [23.76335, 37.76399], [23.75385, 37.76517], [23.75157, 37.76951], [23.75523, 37.77512], [23.76351, 37.77597]]], [[[24.27544, 38.00934], [24.28296, 37.9984], [24.27783, 37.9851], [24.26498, 37.97847], [24.25416, 37.98163], [24.2396, 37.97774], [24.2287, 37.98282], [24.24305, 38.01309], [24.25437, 38.01993], [24.26319, 38.01877], [24.27544, 38.00934]]], [[[24.65652, 37.78043], [24.63412, 37.80008], [24.60762, 37.84175], [24.59427, 37.87864], [24.58321, 37.89096], [24.57189, 37.89319], [24.49633, 37.88871], [24.4869, 37.89241], [24.48187, 37.89843], [24.48111, 37.90651], [24.49173, 37.92771], [24.54159, 37.97432], [24.50957, 37.96263], [24.47718, 37.96241], [24.47096, 37.98046], [24.44776, 38.01057], [24.4297, 38.02119], [24.40309, 38.01191], [24.3864, 37.99653], [24.4021, 37.98794], [24.4021, 37.98046], [24.38689, 37.97038], [24.37176, 37.97192], [24.33864, 37.99674], [24.31383, 38.02925], [24.31399, 38.0351], [24.327, 38.04255], [24.31479, 38.06489], [24.30568, 38.07176], [24.29226, 38.0699], [24.28631, 38.08625], [24.2693, 38.0954], [24.24871, 38.09687], [24.23146, 38.09033], [24.21502, 38.09557], [24.20396, 38.09034], [24.20477, 38.09682], [24.21078, 38.0978], [24.21078, 38.12446], [24.20281, 38.13007], [24.18605, 38.1274], [24.18297, 38.135], [24.21078, 38.166], [24.20875, 38.17862], [24.19403, 38.19213], [24.18531, 38.21796], [24.17448, 38.22534], [24.15699, 38.22956], [24.14259, 38.22696], [24.14875, 38.21322], [24.12625, 38.21748], [24.13113, 38.23582], [24.1631, 38.26781], [24.15349, 38.28132], [24.14552, 38.28091], [24.12843, 38.26781], [24.12574, 38.25609], [24.1094, 38.2563], [24.11476, 38.2753], [24.10094, 38.2753], [24.12159, 38.30948], [24.07944, 38.32538], [24.02546, 38.33052], [24.05974, 38.34125], [24.0669, 38.35102], [24.05904, 38.36029], [24.05942, 38.37767], [24.04225, 38.40152], [24.03891, 38.39542], [23.98081, 38.39887], [23.91236, 38.39204], [23.84376, 38.40567], [23.79371, 38.39851], [23.70997, 38.4125], [23.66334, 38.40421], [23.64918, 38.40567], [23.63852, 38.41551], [23.61443, 38.46088], [23.60743, 38.4538], [23.594, 38.45344], [23.63575, 38.50092], [23.6281, 38.51511], [23.62812, 38.52236], [23.63551, 38.52237], [23.63551, 38.52855], [23.59995, 38.57136], [23.53976, 38.58235], [23.50534, 38.59727], [23.49773, 38.63101], [23.45315, 38.65803], [23.44597, 38.67674], [23.38161, 38.70727], [23.35336, 38.73139], [23.33767, 38.73896], [23.32301, 38.76252], [23.20232, 38.8299], [23.14356, 38.85065], [23.06911, 38.84659], [23.03639, 38.87446], [22.96941, 38.88911], [22.95639, 38.88544], [22.95639, 38.878], [22.9839, 38.87352], [22.99194, 38.86469], [22.99072, 38.85066], [22.98153, 38.84498], [22.8558, 38.83295], [22.83303, 38.82276], [22.83743, 38.85447], [22.87485, 38.8749], [22.90748, 38.88231], [22.95281, 38.90159], [22.98292, 38.90766], [23.03565, 38.92642], [23.04592, 38.94684], [23.08676, 38.95433], [23.09734, 38.97207], [23.09443, 38.98785], [23.10906, 38.99177], [23.12746, 39.0058], [23.13778, 39.0089], [23.19972, 39.00898], [23.27296, 39.03876], [23.29908, 39.04246], [23.32984, 39.02196], [23.37158, 39.01031], [23.38159, 39.00153], [23.37436, 38.98249], [23.38461, 38.96752], [23.40455, 38.95783], [23.42562, 38.95432], [23.45069, 38.87458], [23.48048, 38.83808], [23.52466, 38.82318], [23.56788, 38.79385], [23.59399, 38.78924], [23.594, 38.77021], [23.60759, 38.77557], [23.61996, 38.76553], [23.66228, 38.75507], [23.6727, 38.76043], [23.68336, 38.75507], [23.70265, 38.76507], [23.72266, 38.76194], [23.73844, 38.74941], [23.75359, 38.71918], [23.813, 38.69367], [23.8576, 38.68252], [23.90634, 38.67932], [23.94776, 38.66942], [23.96656, 38.67011], [23.98423, 38.68621], [24.00571, 38.67805], [24.07309, 38.67938], [24.15537, 38.65277], [24.13494, 38.64387], [24.12623, 38.6352], [24.1211, 38.6081], [24.12648, 38.59858], [24.21607, 38.53953], [24.23144, 38.52237], [24.20655, 38.50682], [24.18816, 38.47411], [24.18434, 38.43964], [24.20393, 38.41868], [24.20395, 38.41272], [24.18507, 38.40762], [24.18816, 38.39883], [24.21077, 38.37767], [24.21485, 38.33641], [24.25244, 38.29238], [24.25262, 38.26557], [24.25781, 38.25898], [24.24513, 38.24116], [24.25245, 38.22797], [24.29225, 38.20018], [24.32699, 38.18593], [24.33758, 38.16283], [24.34441, 38.15925], [24.39258, 38.164], [24.42066, 38.14737], [24.47779, 38.13874], [24.49692, 38.1463], [24.58764, 38.15923], [24.57895, 38.10932], [24.57993, 38.08422], [24.59448, 38.0624], [24.56733, 37.98976], [24.58099, 37.99781], [24.61736, 38.00875], [24.65061, 38.00836], [24.67961, 37.99697], [24.70391, 37.9735], [24.75701, 37.99656], [24.77906, 38.00022], [24.7937, 37.99408], [24.75735, 37.92671], [24.73056, 37.88976], [24.74396, 37.85126], [24.76242, 37.83549], [24.81255, 37.81538], [24.82582, 37.80188], [24.82601, 37.78528], [24.81771, 37.77192], [24.80309, 37.76169], [24.76333, 37.75012], [24.72357, 37.74975], [24.70898, 37.75352], [24.65652, 37.78043]]], [[[24.35181, 38.81734], [24.36547, 38.78623], [24.38163, 38.774], [24.41078, 38.76464], [24.46706, 38.76533], [24.49332, 38.75774], [24.51216, 38.73843], [24.51544, 38.71912], [24.50759, 38.70095], [24.49185, 38.68571], [24.46073, 38.67204], [24.41203, 38.66972], [24.36046, 38.67966], [24.28357, 38.70634], [24.23515, 38.71955], [24.22236, 38.72637], [24.21649, 38.73753], [24.22007, 38.75931], [24.21715, 38.77026], [24.18125, 38.8043], [24.1757, 38.81241], [24.17498, 38.82028], [24.18082, 38.82791], [24.21274, 38.84064], [24.24714, 38.8465], [24.28474, 38.84788], [24.31928, 38.84251], [24.33908, 38.83266], [24.35181, 38.81734]]], [[[24.37174, 38.8337], [24.35775, 38.82752], [24.34264, 38.83406], [24.35551, 38.85047], [24.37248, 38.83825], [24.37174, 38.8337]]], [[[23.71681, 39.07723], [23.69256, 39.08893], [23.66603, 39.09277], [23.65806, 39.09773], [23.65847, 39.10431], [23.66832, 39.11052], [23.77158, 39.10027], [23.74122, 39.08028], [23.71681, 39.07723]]], [[[23.93873, 39.33794], [23.95037, 39.3403], [23.96244, 39.33767], [23.97046, 39.33119], [23.9751, 39.3219], [23.97686, 39.29899], [23.97037, 39.26911], [23.96227, 39.25416], [23.95185, 39.24555], [23.9394, 39.24168], [23.89316, 39.24215], [23.85808, 39.23648], [23.78505, 39.18611], [23.76527, 39.17566], [23.75013, 39.17256], [23.74233, 39.18001], [23.74448, 39.20128], [23.7512, 39.21705], [23.76118, 39.22911], [23.77394, 39.23824], [23.86214, 39.26772], [23.87395, 39.27444], [23.91697, 39.32093], [23.93873, 39.33794]]], [[[24.76048, 39.55447], [24.74744, 39.54972], [24.72045, 39.55296], [24.71184, 39.56081], [24.70452, 39.58245], [24.69403, 39.59684], [24.65184, 39.61374], [24.63689, 39.62571], [24.63233, 39.67434], [24.59171, 39.73352], [24.58965, 39.74621], [24.59504, 39.75788], [24.61882, 39.77066], [24.63676, 39.7712], [24.68894, 39.76359], [24.76654, 39.78426], [24.82287, 39.77586], [24.84197, 39.77674], [24.86491, 39.78481], [24.93704, 39.82651], [24.91855, 39.8037], [24.92067, 39.74946], [24.91024, 39.73202], [24.90441, 39.71434], [24.9113, 39.66829], [24.90728, 39.64367], [24.89841, 39.63269], [24.88284, 39.62336], [24.86984, 39.62171], [24.85822, 39.6267], [24.82644, 39.65159], [24.81481, 39.65336], [24.80164, 39.64694], [24.78662, 39.62933], [24.78138, 39.61767], [24.77323, 39.57573], [24.76855, 39.56358], [24.76048, 39.55447]]], [[[23.9414, 40.31009], [23.88739, 40.32666], [23.88374, 40.33108], [23.88975, 40.33717], [23.90592, 40.34227], [23.91829, 40.33425], [23.92001, 40.3229], [23.94181, 40.31407], [23.9414, 40.31009]]], [[[24.7693, 40.68342], [24.7658, 40.66966], [24.78239, 40.62018], [24.78011, 40.61222], [24.75571, 40.61994], [24.74419, 40.60838], [24.68181, 40.59496], [24.64227, 40.57064], [24.615, 40.59858], [24.60077, 40.59859], [24.60076, 40.61221], [24.58676, 40.62202], [24.55258, 40.63036], [24.53078, 40.63094], [24.51679, 40.63911], [24.51203, 40.66705], [24.51834, 40.69269], [24.53339, 40.7182], [24.56667, 40.75556], [24.64226, 40.80393], [24.67457, 40.79169], [24.73169, 40.78351], [24.74383, 40.75935], [24.77517, 40.74889], [24.78637, 40.73506], [24.76547, 40.73432], [24.75929, 40.72337], [24.76661, 40.71149], [24.78638, 40.70782], [24.78638, 40.68794], [24.7693, 40.68342]]], [[[25.41194, 36.47195], [25.38578, 36.46277], [25.36851, 36.46663], [25.36875, 36.47356], [25.38209, 36.47963], [25.41194, 36.47195]]], [[[25.06741, 36.63789], [25.10493, 36.69944], [25.14625, 36.71986], [25.18578, 36.71913], [25.18343, 36.70621], [25.12928, 36.66016], [25.09311, 36.63663], [25.06741, 36.63789]]], [[[25.26272, 36.76764], [25.30697, 36.79497], [25.34799, 36.74714], [25.39942, 36.72797], [25.40941, 36.7124], [25.39698, 36.71052], [25.39015, 36.70368], [25.39518, 36.6789], [25.37322, 36.65373], [25.33815, 36.66818], [25.27297, 36.71988], [25.2798, 36.72671], [25.25182, 36.72672], [25.26272, 36.76764]]], [[[25.87839, 36.86217], [25.97185, 36.89802], [25.97185, 36.9042], [25.95071, 36.91162], [25.95071, 36.91844], [25.97836, 36.92495], [25.99839, 36.9389], [26.00573, 36.9389], [25.96148, 36.86181], [25.9214, 36.84105], [25.90741, 36.82216], [25.89972, 36.79477], [25.88593, 36.78043], [25.8676, 36.77034], [25.78402, 36.74333], [25.76942, 36.73284], [25.75903, 36.71827], [25.72938, 36.64243], [25.71906, 36.62796], [25.70515, 36.61887], [25.68031, 36.61843], [25.65228, 36.64609], [25.60951, 36.66064], [25.60752, 36.67523], [25.62061, 36.70958], [25.66795, 36.76632], [25.69677, 36.76579], [25.71892, 36.77794], [25.77451, 36.85076], [25.79127, 36.86586], [25.80055, 36.87008], [25.82426, 36.87286], [25.851, 36.87036], [25.87839, 36.86217]]], [[[25.47834, 36.87066], [25.47096, 36.86323], [25.47851, 36.86001], [25.47756, 36.83503], [25.45785, 36.82486], [25.43442, 36.82267], [25.42312, 36.83251], [25.44716, 36.85752], [25.47096, 36.87066], [25.47834, 36.87066]]], [[[25.64967, 36.91159], [25.6844, 36.89118], [25.67399, 36.87947], [25.60867, 36.88374], [25.61483, 36.89386], [25.64967, 36.91159]]], [[[26.63357, 36.92544], [26.63278, 36.8982], [26.60514, 36.89074], [26.54717, 36.85879], [26.53431, 36.85473], [26.51192, 36.85323], [26.4532, 36.86204], [26.42574, 36.85972], [26.40727, 36.85151], [26.33059, 36.80435], [26.31467, 36.79877], [26.30151, 36.79974], [26.29173, 36.80804], [26.28649, 36.82144], [26.28784, 36.8561], [26.30182, 36.88883], [26.31223, 36.89984], [26.32416, 36.90481], [26.38185, 36.9017], [26.39886, 36.90575], [26.41912, 36.92017], [26.45518, 36.96526], [26.46778, 36.97602], [26.49074, 36.98652], [26.53142, 36.99187], [26.55811, 36.9911], [26.58186, 36.98649], [26.60195, 36.97782], [26.61768, 36.9649], [26.6284, 36.94754], [26.63357, 36.92544]]], [[[25.05991, 36.97309], [25.08104, 36.95264], [25.06667, 36.95516], [25.04722, 36.9691], [25.03054, 36.98896], [25.0259, 37.00788], [25.03568, 37.02205], [25.07252, 37.04209], [25.0879, 37.04197], [25.05991, 36.97309]]], [[[25.59244, 37.14252], [25.59502, 37.09935], [25.58072, 37.01759], [25.55228, 36.96879], [25.52613, 36.95942], [25.49138, 36.93212], [25.44989, 36.91846], [25.43252, 36.93905], [25.42311, 36.96686], [25.38895, 36.98677], [25.39405, 36.99811], [25.38072, 37.01875], [25.38209, 37.03514], [25.36695, 37.05956], [25.35548, 37.07136], [25.34182, 37.07674], [25.35265, 37.08901], [25.36166, 37.08295], [25.37184, 37.08906], [25.40945, 37.12396], [25.47462, 37.16181], [25.49514, 37.1891], [25.52215, 37.19318], [25.53395, 37.20056], [25.57454, 37.17853], [25.58626, 37.16063], [25.59244, 37.14252]]], [[[25.26295, 37.08983], [25.26287, 37.07559], [25.27978, 37.06927], [25.27978, 37.06249], [25.26612, 37.06249], [25.26612, 37.055], [25.27978, 37.055], [25.27978, 37.04882], [25.26881, 37.04613], [25.24453, 37.01439], [25.20443, 36.98897], [25.18849, 36.98531], [25.15285, 36.98677], [25.10338, 37.01289], [25.11298, 37.06273], [25.12535, 37.07452], [25.15626, 37.08979], [25.13577, 37.09382], [25.15009, 37.11053], [25.20956, 37.14391], [25.23875, 37.15182], [25.22397, 37.13435], [25.23194, 37.12751], [25.25929, 37.12397], [25.27296, 37.1376], [25.26614, 37.15183], [25.29329, 37.15183], [25.26295, 37.08983]]], [[[25.82911, 37.09733], [25.81911, 37.09692], [25.80738, 37.10342], [25.80055, 37.09595], [25.78055, 37.12396], [25.80907, 37.12668], [25.83463, 37.13758], [25.82838, 37.12397], [25.84204, 37.11029], [25.82911, 37.09733]]], [[[26.3919, 37.08831], [26.42189, 37.14046], [26.42893, 37.15776], [26.42917, 37.17348], [26.42128, 37.18303], [26.35233, 37.22324], [26.34546, 37.23404], [26.35057, 37.24564], [26.38691, 37.26339], [26.41626, 37.26729], [26.45687, 37.25858], [26.48103, 37.24472], [26.51153, 37.21528], [26.528, 37.19157], [26.54608, 37.15317], [26.5598, 37.10128], [26.56083, 37.0718], [26.55765, 37.0598], [26.55119, 37.05097], [26.54204, 37.04541], [26.52615, 37.04705], [26.49551, 37.07115], [26.4864, 37.07513], [26.46718, 37.07455], [26.4215, 37.05657], [26.39545, 37.06327], [26.3893, 37.07414], [26.3919, 37.08831]]], [[[25.06254, 37.36748], [25.06906, 37.36536], [25.07128, 37.32195], [25.07728, 37.31254], [25.09268, 37.31184], [25.12457, 37.33308], [25.14219, 37.34006], [25.14266, 37.32552], [25.13507, 37.29667], [25.10612, 37.23855], [25.09691, 37.2116], [25.08478, 37.10316], [25.07765, 37.07573], [25.06365, 37.05324], [25.05289, 37.04623], [25.03899, 37.04332], [25.01588, 37.05079], [24.97323, 37.08145], [24.95496, 37.10391], [24.95289, 37.11297], [24.95821, 37.12858], [25.00482, 37.18879], [25.01043, 37.20229], [25.00866, 37.21477], [24.99701, 37.22606], [24.98679, 37.22984], [24.95015, 37.23369], [24.94883, 37.23985], [24.95338, 37.25127], [24.98342, 37.2918], [25.03456, 37.34682], [25.06254, 37.36748]]], [[[25.40772, 37.43684], [25.40259, 37.41817], [25.30727, 37.4129], [25.37876, 37.43241], [25.4579, 37.44696], [25.44255, 37.44092], [25.40772, 37.43684]]], [[[25.75839, 37.64518], [25.72313, 37.61016], [25.70538, 37.59911], [25.67969, 37.59934], [25.63518, 37.61132], [25.69082, 37.68995], [25.71689, 37.71749], [25.7304, 37.72654], [25.81369, 37.75743], [25.88071, 37.77299], [25.94203, 37.77892], [25.96664, 37.77711], [25.97387, 37.77306], [25.97551, 37.76521], [25.97257, 37.75466], [25.95715, 37.72975], [25.92668, 37.69997], [25.89497, 37.68759], [25.80937, 37.66833], [25.7753, 37.65746], [25.75839, 37.64518]]], [[[26.56066, 37.72223], [26.55736, 37.71401], [26.5434, 37.70725], [26.45087, 37.69671], [26.37752, 37.66458], [26.34904, 37.66079], [26.33389, 37.66319], [26.31125, 37.67333], [26.30544, 37.68228], [26.30398, 37.69665], [26.29886, 37.70632], [26.28447, 37.71615], [26.26617, 37.72124], [26.22244, 37.72095], [26.1368, 37.70509], [26.11618, 37.70422], [26.10013, 37.70715], [26.08842, 37.71335], [26.0808, 37.72221], [26.07705, 37.7331], [26.08018, 37.7583], [26.08664, 37.77127], [26.10352, 37.77178], [26.1365, 37.78043], [26.21261, 37.81266], [26.23086, 37.81651], [26.2641, 37.81647], [26.30894, 37.80192], [26.37618, 37.76125], [26.40097, 37.75008], [26.43409, 37.74496], [26.52239, 37.74234], [26.54886, 37.7344], [26.56066, 37.72223]]], [[[25.71535, 38.27138], [25.72167, 38.2822], [25.75221, 38.31301], [25.76295, 38.33306], [25.76773, 38.37624], [25.76023, 38.42071], [25.74533, 38.44315], [25.73128, 38.45468], [25.65385, 38.50149], [25.62305, 38.52354], [25.61281, 38.54605], [25.60738, 38.58885], [25.78025, 38.57786], [25.8106, 38.57172], [25.8347, 38.56195], [25.85301, 38.54479], [25.86903, 38.48873], [25.87681, 38.43167], [25.87543, 38.38269], [25.86618, 38.35008], [25.843, 38.3016], [25.80401, 38.25669], [25.77729, 38.23866], [25.76348, 38.23401], [25.74413, 38.2349], [25.72186, 38.24889], [25.7147, 38.26027], [25.71535, 38.27138]]], [[[26.12738, 38.88653], [26.08728, 38.87577], [26.0682, 38.8757], [26.04029, 38.88209], [26.01378, 38.89437], [25.90886, 38.96154], [25.88145, 38.97245], [25.85371, 38.97673], [25.83578, 38.97572], [25.77079, 38.96051], [25.73708, 38.95737], [25.71833, 38.95969], [25.68535, 38.96997], [25.66886, 38.98307], [25.66545, 38.99826], [25.67177, 39.01461], [25.68442, 39.03113], [25.72355, 39.07219], [25.73251, 39.10065], [25.72679, 39.1238], [25.70923, 39.14146], [25.68336, 39.15332], [25.65315, 39.15906], [25.6226, 39.15846], [25.5955, 39.15142], [25.57535, 39.13802], [25.56726, 39.12338], [25.54921, 39.03965], [25.53938, 39.02752], [25.52383, 39.02481], [25.50068, 39.03442], [25.43757, 39.08142], [25.42101, 39.09881], [25.39712, 39.13585], [25.39061, 39.15542], [25.3885, 39.18615], [25.39373, 39.21466], [25.40333, 39.22959], [25.41066, 39.23535], [25.4305, 39.24235], [25.48864, 39.24661], [25.50702, 39.25635], [25.51509, 39.27259], [25.51822, 39.31188], [25.52633, 39.32832], [25.53892, 39.33622], [25.55589, 39.34063], [25.59896, 39.34142], [25.69053, 39.33012], [25.82331, 39.32158], [25.87763, 39.30826], [25.89834, 39.29721], [25.91257, 39.28481], [25.92076, 39.27297], [25.92449, 39.26153], [25.92542, 39.21635], [25.94487, 39.17457], [25.94992, 39.16882], [25.98325, 39.15666], [26.00107, 39.14561], [26.03449, 39.11588], [26.04215, 39.10375], [26.06153, 39.05266], [26.07333, 39.03483], [26.09697, 39.01548], [26.15376, 38.98805], [26.16495, 38.97833], [26.17314, 38.96568], [26.17738, 38.94238], [26.17235, 38.92489], [26.16131, 38.90953], [26.12738, 38.88653]]], [[[25.27262, 40.29044], [25.25893, 40.26814], [25.21927, 40.23384], [25.18699, 40.21464], [25.14292, 40.2058], [25.11471, 40.20788], [25.07682, 40.23063], [25.01705, 40.28035], [25.08594, 40.32754], [25.1146, 40.34227], [25.12718, 40.34508], [25.16542, 40.34328], [25.20971, 40.33395], [25.24889, 40.3188], [25.2631, 40.30949], [25.27193, 40.29924], [25.27262, 40.29044]]], [[[25.46168, 40.48159], [25.54664, 40.51532], [25.57586, 40.51471], [25.6565, 40.49615], [25.68864, 40.475], [25.69739, 40.46121], [25.69068, 40.4477], [25.69531, 40.43269], [25.68262, 40.42309], [25.58943, 40.39822], [25.56688, 40.4], [25.53257, 40.41503], [25.46654, 40.45562], [25.44355, 40.48187], [25.46168, 40.48159]]], [[[26.13027, 41.58268], [26.12107, 41.60821], [26.10671, 41.62428], [26.06692, 41.6355], [26.05503, 41.64875], [26.04749, 41.67461], [26.0481, 41.68908], [26.05369, 41.70151], [26.06051, 41.7073], [26.08149, 41.71151], [26.10836, 41.72789], [26.13513, 41.7334], [26.18991, 41.73469], [26.21182, 41.75048], [26.22618, 41.74967], [26.27393, 41.7149], [26.29903, 41.71061], [26.33091, 41.61631], [26.35939, 41.58821], [26.36697, 41.56704], [26.36892, 41.54343], [26.36509, 41.52681], [26.16448, 41.51773], [26.15807, 41.54232], [26.15249, 41.54703], [26.1312, 41.55266], [26.13027, 41.58268]]]]}}]}