{"type": "FeatureCollection", "features": [{"type": "Feature", "properties": {"map_title": "1939~1941년 사이 유럽에서의 전쟁 상황", "source": "미래엔 세계사 교과서 4권 190쪽", "volume": 4, "page": 190, "legend": "추축국의 동맹국", "name": "불가리아", "name_en": "Bulgaria", "period": "1939–1941", "kind": "국가", "group": "추축국의 동맹국", "coast_snap": "Natural Earth 10m 해안선에 맞춤", "border_snap": "현대 국경(Natural Earth 10m)에 맞춘 구간 약 866 km"}, "geometry": {"type": "MultiPolygon", "coordinates": [[[[24.73169, 40.78351], [24.74383, 40.75935], [24.77517, 40.74889], [24.78637, 40.73506], [24.76547, 40.73432], [24.75937, 40.72355], [24.66433, 40.75027], [24.60292, 40.77877], [24.64226, 40.80393], [24.67457, 40.79169], [24.73169, 40.78351]]], [[[22.42533, 42.57286], [22.4492, 42.66796], [22.44207, 42.68168], [22.46812, 42.71832], [22.48145, 42.72768], [22.4829, 42.73378], [22.48145, 42.73982], [22.46657, 42.74853], [22.45313, 42.76359], [22.42584, 42.80984], [22.4368, 42.82429], [22.48145, 42.84674], [22.49706, 42.86441], [22.50605, 42.87012], [22.32682, 43.05273], [22.10261, 43.14501], [22.07597, 43.27494], [21.95339, 43.45443], [22.03139, 43.63164], [22.07692, 43.64543], [22.3905, 43.71245], [22.41396, 43.67666], [22.46626, 43.64912], [22.47287, 43.63594], [22.4738, 43.613], [22.48197, 43.59946], [22.47711, 43.59129], [22.4831, 43.57928], [22.47866, 43.56918], [22.47845, 43.55923], [22.49065, 43.54088], [22.51886, 43.47425], [22.53261, 43.46484], [22.56578, 43.45334], [22.59627, 43.42916], [22.63782, 43.42637], [22.66469, 43.39673], [22.70293, 43.39404], [22.71937, 43.38867], [22.75825, 43.36299], [22.9936, 43.51673], [23.13528, 43.52157], [24.01423, 43.38181], [24.38212, 43.40135], [24.65108, 43.37345], [25.0937, 43.35211], [25.31476, 43.2966], [25.6976, 43.34102], [26.45205, 43.60406], [26.60534, 43.65331], [26.83551, 43.72067], [27.00411, 43.75961], [27.14855, 43.77962], [27.22205, 43.7821], [27.2974, 43.78009], [27.44338, 43.76614], [27.63225, 43.73119], [27.74348, 43.70097], [27.98101, 43.84934], [28.01481, 43.83004], [28.22125, 43.76198], [28.43457, 43.73521], [28.57838, 43.74128], [28.58919, 43.79133], [28.57618, 43.72752], [28.57309, 43.60615], [28.57553, 43.59333], [28.6027, 43.55272], [28.60351, 43.53815], [28.57857, 43.481], [28.5603, 43.45385], [28.48862, 43.40644], [28.47389, 43.38426], [28.47314, 43.36688], [28.45948, 43.38068], [28.41457, 43.39888], [28.39381, 43.41429], [28.32162, 43.42829], [28.24317, 43.40779], [28.15724, 43.40778], [28.11883, 43.39155], [28.09156, 43.36396], [28.0312, 43.24916], [28.01758, 43.23274], [28.00017, 43.22322], [27.90398, 43.20234], [27.90398, 43.1955], [27.94555, 43.16885], [27.91137, 43.06518], [27.88771, 43.04214], [27.88356, 43.03099], [27.90397, 42.94229], [27.89845, 42.87466], [27.90397, 42.85969], [27.88396, 42.84838], [27.88356, 42.83194], [27.89714, 42.784], [27.89225, 42.71053], [27.84108, 42.70833], [27.78736, 42.71515], [27.73268, 42.7145], [27.71901, 42.69457], [27.71697, 42.67451], [27.73947, 42.66108], [27.64674, 42.64057], [27.62843, 42.62897], [27.63038, 42.60273], [27.65013, 42.55807], [27.63404, 42.56371], [27.54086, 42.5655], [27.51148, 42.55305], [27.48015, 42.48291], [27.46225, 42.48957], [27.45289, 42.48013], [27.45338, 42.46524], [27.46567, 42.45563], [27.46111, 42.44355], [27.46567, 42.42829], [27.47267, 42.46185], [27.50392, 42.43732], [27.51417, 42.43513], [27.54444, 42.46001], [27.56202, 42.44819], [27.57106, 42.45847], [27.59555, 42.44819], [27.62941, 42.45864], [27.64331, 42.45563], [27.63648, 42.44819], [27.65219, 42.41852], [27.66774, 42.41608], [27.69165, 42.42827], [27.69907, 42.41389], [27.71899, 42.41469], [27.71899, 42.40722], [27.69801, 42.40038], [27.70541, 42.39061], [27.71898, 42.3867], [27.70948, 42.37678], [27.71437, 42.34919], [27.72584, 42.33893], [27.74041, 42.3343], [27.78043, 42.33892], [27.77442, 42.32172], [27.78783, 42.31098], [27.76295, 42.2956], [27.75115, 42.27705], [27.75587, 42.25849], [27.78043, 42.24335], [27.77369, 42.23591], [27.80973, 42.2184], [27.83139, 42.19501], [27.85619, 42.1813], [27.84938, 42.16706], [27.87925, 42.15409], [27.90398, 42.11982], [27.95776, 42.0943], [27.97267, 42.07538], [27.98657, 42.07208], [27.98243, 42.0611], [27.98732, 42.05174], [28.00699, 42.0379], [28.00755, 42.03288], [28.00017, 42.03046], [28.01904, 42.00845], [28.02034, 41.99458], [28.01384, 41.98265], [28.03094, 41.91376], [28.04655, 41.89712], [28.04492, 41.89021], [28.03582, 41.8859], [28.00701, 41.8933], [27.97755, 41.88736], [27.96909, 41.87376], [27.96608, 41.84894], [27.97202, 41.82225], [28.02124, 41.77041], [28.04021, 41.72541], [28.07845, 41.69196], [28.08838, 41.6769], [28.08708, 41.66707], [28.07667, 41.66681], [28.07594, 41.66055], [28.09634, 41.62777], [27.96224, 41.62701], [27.72478, 41.64685], [27.63471, 41.66738], [27.61372, 41.67578], [27.54641, 41.90116], [27.53318, 41.90806], [27.50946, 41.93318], [27.49432, 41.94284], [27.42084, 41.97372], [27.39686, 41.98932], [27.37485, 42.0087], [27.33247, 42.05743], [27.30529, 42.07759], [27.27335, 42.09175], [27.23821, 42.09792], [27.2164, 42.09562], [27.2038, 42.08813], [27.18158, 42.06588], [27.17816, 42.05836], [27.17382, 42.05707], [27.14959, 42.06183], [27.11605, 42.06183], [27.0837, 42.07842], [27.06551, 42.0827], [27.04655, 42.08294], [27.02262, 42.07389], [27.0004, 42.04281], [26.96717, 42.0285], [26.9389, 41.99622], [26.91146, 41.99679], [26.90108, 41.99348], [26.89033, 41.98542], [26.86077, 41.9879], [26.81943, 41.96566], [26.80842, 41.96788], [26.78057, 41.98343], [26.76858, 41.98077], [26.73674, 41.95896], [26.71757, 41.95731], [26.62357, 41.96904], [26.60569, 41.96741], [26.58947, 41.95876], [26.54709, 41.9269], [26.54296, 41.92036], [26.54472, 41.91643], [26.5598, 41.90734], [26.55898, 41.90173], [26.55474, 41.89295], [26.54782, 41.85628], [26.53955, 41.83799], [26.52611, 41.82424], [26.47836, 41.81329], [26.37553, 41.81662], [26.33419, 41.78954], [26.22618, 41.74968], [26.21182, 41.75048], [26.18991, 41.73469], [26.13513, 41.7334], [26.10836, 41.72789], [26.08149, 41.71151], [26.06051, 41.7073], [26.05369, 41.70151], [26.04811, 41.68908], [26.04749, 41.67462], [26.05503, 41.64875], [26.06692, 41.6355], [26.10671, 41.62428], [26.11528, 41.61663], [26.13027, 41.58268], [26.1312, 41.55266], [26.15249, 41.54703], [26.15807, 41.54232], [26.16314, 41.52915], [26.16448, 41.51773], [26.15931, 41.4938], [26.14763, 41.48476], [26.14588, 41.47804], [26.15621, 41.46042], [26.1743, 41.446], [26.1774, 41.43995], [26.17564, 41.43189], [26.16427, 41.42786], [26.159, 41.42181], [26.14784, 41.39691], [26.12087, 41.35779], [26.02185, 41.34166], [25.95964, 41.315], [25.92119, 41.31603], [25.89628, 41.30627], [25.88202, 41.30404], [25.86269, 41.31009], [25.83334, 41.33464], [25.81101, 41.34104], [25.76347, 41.31903], [25.72874, 41.31707], [25.71748, 41.31412], [25.69123, 41.29841], [25.67996, 41.29717], [25.63976, 41.31107], [25.55149, 41.31567], [25.53796, 41.31221], [25.52369, 41.29169], [25.51491, 41.28348], [25.50509, 41.28058], [25.55355, 41.04641], [25.51946, 40.98116], [25.49586, 40.95017], [25.44802, 40.90357], [25.41945, 40.90648], [25.38299, 40.91902], [25.34083, 40.94172], [25.29965, 40.95185], [25.26612, 40.92692], [25.2593, 40.92692], [25.2588, 40.93195], [25.18068, 40.94271], [25.13406, 40.96288], [25.14016, 40.98358], [25.15846, 40.99429], [25.16993, 40.99579], [25.13844, 41.01008], [25.0573, 41.00947], [25.03907, 41.00605], [25.03955, 40.98957], [25.01905, 40.97525], [24.99171, 40.96845], [24.99902, 40.94994], [24.98975, 40.94214], [24.95387, 40.94115], [24.8921, 40.92064], [24.86354, 40.90522], [24.83398, 40.87475], [24.80201, 40.85347], [24.7658, 40.86542], [24.72836, 40.85274], [24.70875, 40.85176], [24.69013, 40.85859], [24.69752, 40.86542], [24.66277, 40.87971], [24.63542, 40.8586], [24.62868, 40.8586], [24.59622, 40.90119], [24.60076, 40.9138], [24.57554, 40.92671], [24.56666, 40.95173], [24.50514, 40.96162], [24.47291, 40.95173], [24.46412, 40.94116], [24.44313, 40.94806], [24.43213, 40.94707], [24.40542, 41.0272], [24.40269, 41.11607], [24.19135, 41.16571], [24.16316, 41.23412], [24.03474, 41.45132], [24.02285, 41.45308], [24.00074, 41.46414], [23.99712, 41.45701], [23.98131, 41.45086], [23.96467, 41.43835], [23.94989, 41.43757], [23.90286, 41.46352], [23.8948, 41.46434], [23.86772, 41.44548], [23.8516, 41.43959], [23.83093, 41.43561], [23.79207, 41.43447], [23.77708, 41.42905], [23.75445, 41.40068], [23.73822, 41.39747], [23.70535, 41.40316], [23.67218, 41.40295], [23.65285, 41.39763], [23.62774, 41.37851], [23.61244, 41.37102], [23.59203, 41.37162], [23.55788, 41.14685], [23.46703, 41.13263], [23.18376, 41.05621], [23.00614, 41.07234], [22.72345, 41.15917], [22.73673, 41.20441], [22.74086, 41.28358], [22.7513, 41.31521], [22.50653, 41.45678], [22.44629, 41.52858], [22.36246, 41.69602], [22.02139, 41.84077], [21.84604, 42.02764], [22.00885, 42.07693], [22.06091, 42.30109], [22.02763, 42.30396], [21.99497, 42.31261], [21.94153, 42.3331], [22.07328, 42.55125], [22.10881, 42.57172], [22.42533, 42.57286]]], [[[22.76643, 43.66633], [22.47287, 43.63594], [22.74392, 43.67227], [22.76643, 43.66633]]], [[[28.63645, 43.91687], [28.60939, 43.8745], [28.60029, 43.84762], [28.61531, 43.92025], [28.63645, 43.91687]]]]}}]}