{"type": "FeatureCollection", "features": [{"type": "Feature", "properties": {"name": "독일령 남서아프리카", "name_en": "German South West Africa", "period": "1913년경", "kind": "식민지", "legend": "독일령 남서아프리카", "map_title": "제국주의 열강의 아프리카 분할(1913년경)", "source": "미래엔 세계사 교과서 3권 156쪽", "volume": 3, "page": 156, "note": "독일령", "coast_snap": "Natural Earth 10m 해안선에 맞춤", "border_snap": "현대 국경(Natural Earth 10m)에 맞춘 구간 약 2048 km", "group": "독일령 남서아프리카", "map_folder": "3권_p156_제국주의 열강의 아프리카 분할(1913년경)"}, "geometry": {"type": "MultiPolygon", "coordinates": [[[[11.75178, -17.20392], [11.75864, -17.16522], [11.75929, -17.03328], [11.78001, -16.86947], [11.77109, -16.81607], [11.79387, -16.8103], [11.80371, -16.82403], [11.81065, -16.80644], [11.82453, -16.80361], [11.98302, -17.1619], [12.02891, -17.14898], [12.08813, -17.13916], [12.13991, -17.15601], [12.15128, -17.15363], [12.16151, -17.14629], [12.17712, -17.15477], [12.18115, -17.16924], [12.19066, -17.18257], [12.21174, -17.19518], [12.23179, -17.2019], [12.24264, -17.22484], [12.31468, -17.21812], [12.37948, -17.2204], [12.39395, -17.21471], [12.40759, -17.20406], [12.41793, -17.20345], [12.4417, -17.21698], [12.46051, -17.22308], [12.51922, -17.22784], [12.55456, -17.23559], [12.56717, -17.23455], [12.59146, -17.22257], [12.63621, -17.18515], [12.66071, -17.17709], [12.68592, -17.17358], [12.70473, -17.16427], [12.73987, -17.13554], [12.78432, -17.11508], [12.81832, -17.10485], [12.8331, -17.0818], [12.8423, -17.07405], [12.8764, -17.05978], [12.88715, -17.02981], [12.91102, -17.02351], [12.93046, -17.01421], [12.96167, -17.00739], [13.01427, -16.97793], [13.12176, -16.95984], [13.1445, -16.9524], [13.16631, -16.95106], [13.18491, -16.96418], [13.19814, -16.95736], [13.21209, -16.97276], [13.22284, -16.97793], [13.25715, -16.98165], [13.26749, -16.97793], [13.26749, -16.98537], [13.30842, -16.97018], [13.32154, -16.97493], [13.36371, -16.96418], [13.382, -16.97038], [13.41725, -16.99374], [13.4589, -17.0018], [13.47978, -17.01028], [13.49466, -17.02402], [13.50778, -17.06351], [13.52225, -17.07694], [13.53094, -17.09327], [13.52132, -17.1219], [13.5482, -17.13626], [13.35695, -17.50149], [13.63828, -17.19251], [13.69413, -17.23662], [13.88435, -17.33853], [13.89686, -17.34907], [13.94274, -17.40819], [13.95732, -17.41914], [13.98057, -17.42359], [13.99298, -17.42131], [14.01788, -17.40922], [14.08537, -17.42359], [14.10821, -17.42049], [14.13074, -17.40922], [14.17498, -17.41625], [14.1971, -17.41294], [14.20743, -17.38803], [17.4411, -17.389], [17.45409, -17.80368], [17.80573, -18.14864], [19.33408, -18.2712], [19.72641, -18.39984], [20.19852, -18.32859], [20.40776, -18.41743], [20.53813, -18.39582], [20.97508, -18.39278], [20.97508, -18.68718], [20.54768, -18.68943], [20.43553, -18.70328], [19.95312, -18.72338], [19.9453, -18.72791], [19.92979, -19.47306], [19.92246, -20.21691], [19.92215, -20.95589], [19.92873, -21.59654], [19.97835, -22.00067], [19.9788, -22.3438], [19.53145, -22.34271], [18.89809, -22.30597], [18.88778, -22.31429], [18.90343, -23.01529], [18.92603, -23.72196], [18.95548, -24.42429], [19.00463, -25.35278], [19.06293, -26.27118], [19.12966, -27.17902], [19.18732, -27.85263], [19.22755, -28.25693], [19.56876, -28.53118], [19.54757, -28.55588], [19.53372, -28.58244], [19.51781, -28.58937], [19.51171, -28.59805], [19.48287, -28.67825], [19.47243, -28.69272], [19.45507, -28.70522], [19.43461, -28.71349], [19.339, -28.73747], [19.32836, -28.73582], [19.30449, -28.71866], [19.29002, -28.71969], [19.26593, -28.74264], [19.24857, -28.77158], [19.24495, -28.79245], [19.25157, -28.81426], [19.28888, -28.871], [19.28836, -28.88309], [19.27658, -28.8895], [19.24371, -28.89188], [19.2185, -28.91885], [19.16155, -28.94542], [19.12021, -28.95751], [19.08166, -28.95937], [19.06006, -28.9357], [19.00693, -28.9263], [18.97117, -28.88051], [18.95453, -28.86666], [18.74566, -28.83989], [18.55394, -28.8647], [18.51766, -28.88227], [18.49616, -28.88826], [18.47498, -28.874], [18.46939, -28.87493], [18.45523, -28.88144], [18.42475, -28.88723], [18.39756, -28.89891], [18.37307, -28.89519], [18.33101, -28.88144], [18.30868, -28.87999], [18.22073, -28.89126], [18.18507, -28.90221], [18.16647, -28.9019], [18.08244, -28.87596], [18.0441, -28.85839], [17.98333, -28.81374], [17.94953, -28.79473], [17.91325, -28.78129], [17.74634, -28.74863], [17.71409, -28.75111], [17.67378, -28.77158], [17.66097, -28.7723], [17.62872, -28.76414], [17.60712, -28.75566], [17.60257, -28.7354], [17.6034, -28.71081], [17.59803, -28.68962], [17.58294, -28.68021], [17.52661, -28.69582], [17.48516, -28.70016], [17.44093, -28.70956], [17.40362, -28.70429], [17.40176, -28.67422], [17.41427, -28.63267], [17.42057, -28.5934], [17.40961, -28.57138], [17.37303, -28.55939], [17.35949, -28.51981], [17.33241, -28.4886], [17.32424, -28.47051], [17.32817, -28.45614], [17.34119, -28.44281], [17.35856, -28.43278], [17.3754, -28.42896], [17.39132, -28.41883], [17.39969, -28.39527], [17.40207, -28.36778], [17.4, -28.34638], [17.39483, -28.33512], [17.37199, -28.30608], [17.36414, -28.27331], [17.35504, -28.26101], [17.34574, -28.22763], [17.33448, -28.22288], [17.30864, -28.22412], [17.24518, -28.23745], [17.21314, -28.23207], [17.19195, -28.20882], [17.1871, -28.162], [17.18999, -28.11684], [17.18089, -28.09947], [17.13635, -28.08469], [17.11175, -28.04604], [17.0978, -28.03116], [17.0764, -28.02682], [17.05666, -28.03116], [17.01202, -28.05834], [16.98535, -28.05224], [16.97378, -28.05503], [16.95951, -28.06857], [16.94752, -28.0727], [16.9375, -28.07105], [16.92747, -28.0602], [16.91962, -28.05834], [16.89295, -28.08263], [16.47553, -27.89695], [16.30321, -27.80026], [16.29497, -27.80333], [16.20034, -27.89962], [16.19885, -27.90951], [16.31973, -27.99196], [16.368, -28.03995], [16.76872, -28.26535], [16.76438, -28.28323], [16.76841, -28.3037], [16.77554, -28.3191], [16.79684, -28.34783], [16.80386, -28.36612], [16.77854, -28.38297], [16.77337, -28.40292], [16.76934, -28.4426], [16.75839, -28.45966], [16.7404, -28.48095], [16.72046, -28.49604], [16.70382, -28.49449], [16.69234, -28.4611], [16.68346, -28.45625], [16.67312, -28.45976], [16.59736, -28.52622], [16.55912, -28.53707], [16.48707, -28.57293], [16.30067, -28.47951], [16.28293, -28.48839], [16.19337, -28.40879], [16.16799, -28.39576], [16.10768, -28.32334], [16.04363, -28.25709], [15.91115, -28.17131], [15.88409, -28.14741], [15.83318, -28.08929], [15.74795, -28.02473], [15.71681, -27.9804], [15.6789, -27.9428], [15.6858, -27.9013], [15.67303, -27.86989], [15.64601, -27.8366], [15.54643, -27.74799], [15.53355, -27.73015], [15.52867, -27.70615], [15.52906, -27.65423], [15.52068, -27.63372], [15.42524, -27.49677], [15.40895, -27.46453], [15.39682, -27.44866], [15.38039, -27.44198], [15.37176, -27.43303], [15.34246, -27.38055], [15.29527, -27.32244], [15.28175, -27.24334], [15.26369, -27.21835], [15.26129, -27.20598], [15.26808, -27.16481], [15.25417, -27.10019], [15.26124, -27.08563], [15.23537, -27.02947], [15.23422, -26.96543], [15.22853, -26.94557], [15.21274, -26.92799], [15.17857, -26.92115], [15.15888, -26.89706], [15.14894, -26.85638], [15.11173, -26.77946], [15.11622, -26.75205], [15.08303, -26.69524], [15.08348, -26.65232], [15.09182, -26.63796], [15.1346, -26.62714], [15.13771, -26.6749], [15.14454, -26.6749], [15.16814, -26.6028], [15.16871, -26.59222], [15.14201, -26.51821], [15.12875, -26.45762], [15.10564, -26.42059], [15.07252, -26.38974], [15.03468, -26.36631], [14.97528, -26.34416], [14.96633, -26.33521], [14.95886, -26.25731], [14.96266, -26.18133], [14.93915, -26.14715], [14.94314, -26.13536], [14.95688, -26.13763], [14.96632, -26.13356], [14.97983, -26.10166], [14.97901, -26.05877], [14.96827, -26.0158], [14.95265, -25.98268], [14.90774, -25.91529], [14.90212, -25.8825], [14.91863, -25.84547], [14.91115, -25.84547], [14.85988, -25.79029], [14.8428, -25.7636], [14.84035, -25.75172], [14.84282, -25.65012], [14.84695, -25.62982], [14.87696, -25.57806], [14.87957, -25.53867], [14.87534, -25.51849], [14.85323, -25.4985], [14.84278, -25.42783], [14.81805, -25.36695], [14.80129, -25.26279], [14.83229, -25.18816], [14.82937, -25.17645], [14.84962, -25.10508], [14.85328, -25.06422], [14.84327, -25.02606], [14.80877, -24.96111], [14.79621, -24.92215], [14.79298, -24.84189], [14.78077, -24.8034], [14.72348, -24.70355], [14.69947, -24.67303], [14.65017, -24.62883], [14.63608, -24.59889], [14.60191, -24.56243], [14.59589, -24.53721], [14.61695, -24.50579], [14.61695, -24.46478], [14.61231, -24.44573], [14.51394, -24.26148], [14.49318, -24.19232], [14.47365, -24.15911], [14.46681, -24.11321], [14.45925, -24.09832], [14.4642, -24.07822], [14.46412, -24.04469], [14.45193, -23.98846], [14.47292, -23.93386], [14.49659, -23.92596], [14.51393, -23.89227], [14.50604, -23.88006], [14.50709, -23.82391], [14.4866, -23.75848], [14.50025, -23.61444], [14.49529, -23.57855], [14.44704, -23.46061], [14.43436, -23.41497], [14.43508, -23.40554], [14.46747, -23.35606], [14.47975, -23.34484], [14.4795, -23.36582], [14.48439, -23.37493], [14.49041, -23.36972], [14.49195, -23.30918], [14.47348, -23.1928], [14.46274, -23.1574], [14.43147, -23.10358], [14.42061, -23.07072], [14.41381, -23.03594], [14.41018, -22.9708], [14.4319, -22.92303], [14.43487, -22.87994], [14.44384, -22.88348], [14.43816, -22.89227], [14.4519, -22.91221], [14.44435, -22.95281], [14.45167, -22.96331], [14.47291, -22.95381], [14.45924, -22.99529], [14.47429, -22.98219], [14.49685, -22.94183], [14.52198, -22.92344], [14.52931, -22.90016], [14.53435, -22.85418], [14.52752, -22.67946], [14.50856, -22.54803], [14.48513, -22.51238], [14.47429, -22.46787], [14.43817, -22.39886], [14.41871, -22.33978], [14.38648, -22.27646], [14.31521, -22.20028], [14.29429, -22.16741], [14.29135, -22.13445], [14.13722, -21.94638], [14.06203, -21.88095], [14.05421, -21.86468], [13.97169, -21.79274], [13.95233, -21.78394], [13.96518, -21.73317], [13.96266, -21.71404], [13.87795, -21.59221], [13.8628, -21.52801], [13.83172, -21.45648], [13.72942, -21.33045], [13.66684, -21.23235], [13.60272, -21.15813], [13.51336, -21.00791], [13.47195, -20.95501], [13.45916, -20.91806], [13.41774, -20.88388], [13.39776, -20.84951], [13.38723, -20.81609], [13.37672, -20.73357], [13.34946, -20.64446], [13.26272, -20.48512], [13.2391, -20.39743], [13.23357, -20.35467], [13.21306, -20.27337], [13.17774, -20.18922], [13.15463, -20.15423], [13.11443, -20.14256], [13.07089, -20.11422], [13.03746, -20.05965], [13.00538, -19.93548], [12.92785, -19.79488], [12.91847, -19.76556], [12.87582, -19.71172], [12.80259, -19.58489], [12.79396, -19.5617], [12.75758, -19.49684], [12.70475, -19.41108], [12.68611, -19.36004], [12.6797, -19.31406], [12.61588, -19.21779], [12.56739, -19.10231], [12.54672, -19.07147], [12.51645, -19.03753], [12.48033, -19.01099], [12.4704, -18.99765], [12.45867, -18.92555], [12.45004, -18.90455], [12.28688, -18.69769], [12.17474, -18.62793], [12.10206, -18.54599], [12.0319, -18.50534], [12.01246, -18.4345], [11.99953, -18.40349], [11.99952, -18.36191], [11.97609, -18.32976], [11.93735, -18.23211], [11.84909, -18.14318], [11.83365, -18.09804], [11.82652, -18.03922], [11.79692, -17.95609], [11.78404, -17.85965], [11.76095, -17.78642], [11.74555, -17.68395], [11.71763, -17.54632], [11.72173, -17.46763], [11.7551, -17.26691], [11.76612, -17.2527], [11.76612, -17.24529], [11.75274, -17.22895], [11.75178, -17.20392]]], [[[22.37712, -18.13219], [22.98137, -18.02004], [23.1858, -18.00309], [23.25494, -17.9974], [23.29277, -17.99895], [23.31148, -18.0098], [23.31272, -18.02996], [23.31592, -18.03709], [23.3306, -18.03998], [23.3338, -18.04329], [23.64647, -17.92179], [23.68277, -17.92812], [23.91599, -18.20121], [23.91289, -18.23573], [23.85521, -18.28007], [23.83723, -18.30581], [23.82555, -18.31707], [23.80984, -18.32172], [23.71579, -18.41908], [23.70091, -18.42797], [23.68014, -18.43148], [23.64985, -18.46342], [23.60986, -18.47768], [23.59218, -18.4782], [23.57916, -18.46786], [23.17474, -18.6043], [23.14155, -18.62087], [22.76103, -18.93801], [22.46744, -18.54183], [22.37712, -18.13219]]]]}}]}