{"type": "FeatureCollection", "features": [{"type": "Feature", "properties": {"name": "바수톨란드", "name_en": "Basutoland", "period": "1913년경", "kind": "식민지", "legend": "(영국령)", "map_title": "제국주의 열강의 아프리카 분할(1913년경)", "source": "미래엔 세계사 교과서 3권 156쪽", "volume": 3, "page": 156, "note": "영국령 · 지도에 이름 표기 없음 — 색과 위치로 이름을 붙임", "coast_snap": "Natural Earth 10m 해안선에 맞춤", "group": "바수톨란드", "map_folder": "3권_p156_제국주의 열강의 아프리카 분할(1913년경)"}, "geometry": {"type": "Polygon", "coordinates": [[[27.97819, -29.10951], [29.00156, -28.73199], [29.75404, -29.18495], [29.9264, -29.42179], [29.61573, -29.74768], [29.60875, -30.01048], [29.21769, -30.18944], [28.64097, -30.37217], [28.49635, -30.7699], [28.16122, -30.71347], [27.69582, -30.38161], [27.19114, -29.80907], [27.59492, -29.62116], [27.97819, -29.10951]]]}}]}