{"type": "FeatureCollection", "features": [{"type": "Feature", "properties": {"name": "지부티(프랑스령 소말릴란드)", "name_en": "French Somaliland", "period": "1913년경", "kind": "식민지", "legend": "지부티(프랑스령 소말릴란드)", "map_title": "제국주의 열강의 아프리카 분할(1913년경)", "source": "미래엔 세계사 교과서 3권 156쪽", "volume": 3, "page": 156, "note": "프랑스령", "coast_snap": "Natural Earth 10m 해안선에 맞춤", "group": "지부티", "map_folder": "3권_p156_제국주의 열강의 아프리카 분할(1913년경)"}, "geometry": {"type": "MultiPolygon", "coordinates": [[[[43.47314, 11.4571], [43.45753, 11.43905], [43.44696, 11.45645], [43.46013, 11.47076], [43.47314, 11.4571]]], [[[43.36461, 11.52822], [43.36882, 11.53293], [43.36938, 11.50943], [43.36222, 11.4746], [43.33474, 11.46212], [43.33417, 11.4671], [43.34946, 11.47647], [43.36101, 11.49584], [43.36461, 11.52822]]], [[[42.57144, 12.06447], [42.59903, 12.04923], [42.64561, 12.07448], [42.77343, 12.12127], [42.87074, 12.14271], [42.93595, 12.21041], [43.00048, 12.25943], [42.99919, 12.26723], [42.964, 12.31617], [42.93628, 12.34751], [42.9656, 12.36549], [43.02644, 12.39214], [43.2966, 12.48251], [43.313, 12.47769], [43.32935, 12.48874], [43.33123, 12.43671], [43.33619, 12.41991], [43.36052, 12.383], [43.36785, 12.30687], [43.41138, 12.24176], [43.4143, 12.22492], [43.41139, 12.16665], [43.4187, 12.09125], [43.41338, 12.05948], [43.39877, 12.02953], [43.37727, 12.00499], [43.35043, 11.98795], [43.31568, 11.98111], [43.28834, 11.96744], [43.22543, 11.96288], [43.20655, 11.95783], [43.174, 11.935], [43.09717, 11.84456], [43.06918, 11.83027], [43.05551, 11.80363], [43.04151, 11.79854], [42.98683, 11.79609], [42.94264, 11.77384], [42.91554, 11.7836], [42.8965, 11.78058], [42.8034, 11.74799], [42.77719, 11.73224], [42.75408, 11.70795], [42.68409, 11.58226], [42.6682, 11.56867], [42.63671, 11.55954], [42.56925, 11.56335], [42.5486, 11.58381], [42.52687, 11.58246], [42.51515, 11.57412], [42.51499, 11.56721], [42.52808, 11.57021], [42.53875, 11.503], [42.57162, 11.49046], [42.59156, 11.47248], [42.60377, 11.46776], [42.61769, 11.47028], [42.63356, 11.4848], [42.64479, 11.48822], [42.67254, 11.47972], [42.68165, 11.48452], [42.68751, 11.49722], [42.66531, 11.51557], [42.67409, 11.53212], [42.69411, 11.54595], [42.73976, 11.56337], [42.82911, 11.57697], [42.8558, 11.59576], [42.87517, 11.58369], [43.08157, 11.58955], [43.10336, 11.57697], [43.12306, 11.58149], [43.14113, 11.60858], [43.15186, 11.61175], [43.15794, 11.6011], [43.17221, 11.54287], [43.18385, 11.52656], [43.22632, 11.50189], [43.26694, 11.46235], [43.28834, 11.46035], [43.28274, 11.4989], [43.32008, 11.44611], [43.33961, 11.42617], [43.35238, 11.41974], [43.37599, 11.39159], [43.41382, 11.38092], [43.45973, 11.35106], [43.46633, 11.3679], [43.47804, 11.37979], [43.48942, 11.38092], [43.49439, 11.36473], [43.47901, 11.2718], [43.48813, 11.23892], [43.50636, 11.20897], [43.52931, 11.18659], [43.55193, 11.17983], [43.56289, 11.17048], [43.56821, 11.15542], [43.58317, 11.13515], [43.59164, 11.10749], [43.61759, 11.07049], [43.65895, 10.98798], [43.75543, 10.89442], [43.81409, 10.82208], [43.76334, 10.78649], [43.62545, 10.70938], [43.55763, 10.68645], [43.52235, 10.68002], [43.4569, 10.67743], [43.37519, 10.75977], [43.35119, 10.79247], [43.30116, 10.88684], [43.28128, 10.912], [43.27378, 10.91067], [43.19983, 10.85988], [42.99605, 10.91007], [42.89865, 11.01685], [42.55966, 11.02313], [42.18547, 11.06808], [41.89658, 11.13452], [41.87987, 11.43599], [41.88695, 11.70875], [42.08379, 11.8457], [42.30982, 11.95426], [42.57144, 12.06447]]], [[[43.19646, 11.71249], [43.1785, 11.7248], [43.18377, 11.72946], [43.19987, 11.72284], [43.19646, 11.71249]]]]}}, {"type": "Feature", "properties": {"name": "지부티", "name_en": "French Somaliland (Djibouti)", "period": "1914년", "kind": "식민지", "level": "개별 지역", "colonizer": "프랑스령", "legend": "지부티", "map_title": "아프리카의 저항 운동", "source": "미래엔 세계사 교과서 3권 173쪽", "volume": 3, "page": 173, "coast_snap": "Natural Earth 10m 해안선에 맞춤", "border_snap": "현대 국경(Natural Earth 10m)에 맞춘 구간 약 494 km", "group": "지부티", "map_folder": "3권_p173_아프리카의 저항 운동"}, "geometry": {"type": "MultiPolygon", "coordinates": [[[[43.47314, 11.4571], [43.45753, 11.43905], [43.44696, 11.45645], [43.46013, 11.47076], [43.47314, 11.4571]]], [[[43.33474, 11.46212], [43.33417, 11.4671], [43.35048, 11.47778], [43.36101, 11.49584], [43.36461, 11.52822], [43.36882, 11.53293], [43.36938, 11.50943], [43.36222, 11.4746], [43.33474, 11.46212]]], [[[43.19646, 11.71249], [43.1785, 11.7248], [43.18398, 11.72939], [43.19987, 11.72284], [43.19646, 11.71249]]], [[[42.79542, 12.84838], [42.83578, 12.86492], [42.84929, 12.83784], [42.86891, 12.82136], [42.89625, 12.81318], [42.93212, 12.81093], [42.91847, 12.79047], [42.92799, 12.78974], [42.96632, 12.81094], [42.97804, 12.82396], [42.98732, 12.8382], [42.99148, 12.8596], [43.00099, 12.86494], [42.99351, 12.88459], [43.00099, 12.90028], [43.04298, 12.86578], [43.05323, 12.84488], [43.08643, 12.82086], [43.09326, 12.80776], [43.09718, 12.76252], [43.12386, 12.71533], [43.11769, 12.70791], [43.13395, 12.6972], [43.16179, 12.64273], [43.25949, 12.53349], [43.28321, 12.49653], [43.29737, 12.482], [43.313, 12.47769], [43.32935, 12.48874], [43.33123, 12.43671], [43.33619, 12.41991], [43.36052, 12.383], [43.36785, 12.30687], [43.41142, 12.24157], [43.4143, 12.22467], [43.41139, 12.16665], [43.4187, 12.09125], [43.41333, 12.05928], [43.39877, 12.02953], [43.37727, 12.00499], [43.35043, 11.98795], [43.31568, 11.98111], [43.28812, 11.96739], [43.22543, 11.96288], [43.20655, 11.95783], [43.174, 11.935], [43.09717, 11.84456], [43.06918, 11.83027], [43.05551, 11.80363], [43.04151, 11.79854], [42.98683, 11.79609], [42.94264, 11.77384], [42.91554, 11.7836], [42.8965, 11.78059], [42.8034, 11.74799], [42.77719, 11.73224], [42.75408, 11.70795], [42.67721, 11.57356], [42.63697, 11.55957], [42.57723, 11.56243], [42.5637, 11.56706], [42.5486, 11.58381], [42.52687, 11.58246], [42.51515, 11.57412], [42.51498, 11.56721], [42.52808, 11.57021], [42.53875, 11.503], [42.57162, 11.49046], [42.59156, 11.47248], [42.60377, 11.46776], [42.61769, 11.47028], [42.63356, 11.4848], [42.64479, 11.48822], [42.67254, 11.47972], [42.68165, 11.48452], [42.68751, 11.49722], [42.66531, 11.51557], [42.67409, 11.53212], [42.69411, 11.54595], [42.73976, 11.56337], [42.82911, 11.57697], [42.8558, 11.59576], [42.87517, 11.58369], [43.08157, 11.58955], [43.10336, 11.57697], [43.12306, 11.58149], [43.14113, 11.60858], [43.15186, 11.61175], [43.15794, 11.6011], [43.17221, 11.54287], [43.18385, 11.52656], [43.22632, 11.50189], [43.26694, 11.46235], [43.28834, 11.46035], [43.28274, 11.4989], [43.32008, 11.44611], [43.33961, 11.42617], [43.35238, 11.41974], [43.37599, 11.39159], [43.41382, 11.38092], [43.45973, 11.35106], [43.46633, 11.3679], [43.47804, 11.37979], [43.48942, 11.38092], [43.49439, 11.36473], [43.47902, 11.2718], [43.48813, 11.23892], [43.50636, 11.20897], [43.52931, 11.18659], [43.55922, 11.17583], [43.58317, 11.13515], [43.59164, 11.10749], [43.61759, 11.07049], [43.65895, 10.98798], [43.69989, 10.94827], [43.6474, 10.88326], [43.62078, 10.85945], [43.56154, 10.82032], [43.52869, 10.80495], [43.46051, 10.78448], [43.38873, 10.77746], [43.36125, 10.77878], [43.31828, 10.85251], [42.97547, 11.07875], [42.95572, 11.04825], [42.88806, 10.98357], [42.87328, 10.97825], [42.83545, 10.98744], [42.77179, 10.99646], [42.75484, 11.01054], [42.72962, 11.06501], [42.7104, 11.07212], [42.68652, 11.07305], [42.61562, 11.08966], [42.56973, 11.08615], [42.47971, 11.05912], [42.41326, 11.01594], [42.39176, 11.00589], [42.33853, 11.0155], [42.30587, 11.0046], [42.27084, 11.00352], [42.22164, 10.98434], [42.20273, 10.98455], [42.15136, 10.9962], [42.09627, 10.99026], [42.0694, 10.9815], [42.0384, 10.95044], [42.0108, 10.9436], [41.95416, 10.94127], [41.93752, 10.92982], [41.92884, 10.93106], [41.92285, 10.93603], [41.91685, 10.94706], [41.79872, 10.97067], [41.77381, 10.98005], [41.76131, 10.9962], [41.77929, 11.02468], [41.78559, 11.06739], [41.78797, 11.25973], [41.77567, 11.36843], [41.74983, 11.48338], [41.74911, 11.53795], [41.77867, 11.62864], [41.79242, 11.70446], [41.80823, 11.73624], [41.82301, 11.74611], [41.86228, 11.76306], [41.8722, 11.77587], [41.87778, 11.79013], [41.91148, 11.80595], [41.93639, 11.82745], [42.05731, 11.99627], [42.09772, 12.07017], [42.10878, 12.08211], [42.13234, 12.09348], [42.15549, 12.14226], [42.28872, 12.32101], [42.3192, 12.38638], [42.35374, 12.43197], [42.56114, 12.46186], [42.67825, 12.36002], [42.69148, 12.37883], [42.72776, 12.38881], [42.74988, 12.41707], [42.77974, 12.4226], [42.79225, 12.42916], [42.79804, 12.45609], [42.78874, 12.48746], [42.78522, 12.51722], [42.82884, 12.55763], [42.85209, 12.61174], [42.86884, 12.62616], [42.76156, 12.8562], [42.77172, 12.87087], [42.78126, 12.85187], [42.79542, 12.84838]]], [[[43.39276, 12.65307], [43.39016, 12.66632], [43.39785, 12.67086], [43.42896, 12.67376], [43.44222, 12.66721], [43.44898, 12.65298], [43.44743, 12.63866], [43.4358, 12.63216], [43.41139, 12.65266], [43.39975, 12.64986], [43.39276, 12.65307]]], [[[43.1533, 12.71707], [43.14754, 12.71093], [43.13858, 12.71835], [43.14815, 12.72089], [43.1533, 12.71707]]], [[[42.94976, 12.83079], [42.95166, 12.82251], [42.93372, 12.83276], [42.93279, 12.84808], [42.94976, 12.83079]]], [[[42.96028, 12.87125], [42.94272, 12.88252], [42.93581, 12.89143], [42.93467, 12.90265], [42.94426, 12.90579], [42.96028, 12.87125]]], [[[43.83721, 12.67574], [43.79469, 12.69489], [43.73802, 12.70568], [43.67945, 12.73526], [43.64406, 12.73458], [43.6006, 12.75629], [43.58774, 12.75137], [43.52536, 12.69027], [43.51173, 12.68318], [43.49094, 12.68063], [43.46803, 12.68391], [43.46226, 12.69335], [43.48121, 12.77342], [43.48194, 12.81208], [43.47316, 12.84663], [43.45289, 12.87861], [43.42263, 12.9062], [43.41554, 12.9289], [43.40139, 12.94343], [43.3864, 13.00727], [43.37713, 13.02318], [43.34182, 13.06265], [43.30312, 13.14634], [43.35488, 13.14638], [43.42434, 13.13445], [43.49061, 13.10957], [43.55076, 13.07271], [43.57817, 13.04989], [43.62483, 12.99794], [43.71617, 12.87308], [43.79269, 12.75576], [43.83721, 12.67574]]], [[[42.945, 12.90856], [42.92872, 12.92577], [42.91432, 12.92422], [42.90675, 12.91788], [42.89407, 12.93887], [42.89187, 12.95441], [42.89816, 12.95962], [42.91163, 12.95148], [42.91505, 12.95474], [42.91229, 12.96404], [42.95598, 12.94358], [42.96305, 12.93033], [42.95444, 12.92801], [42.95215, 12.91255], [42.945, 12.90856]]]]}}]}