{"type": "FeatureCollection", "features": [{"type": "Feature", "properties": {"name": "벵골 분할 경계선", "category": "경계선", "period": "1905–1911", "legend": "서벵골 / 동벵골과 아삼 경계", "map_title": "영국의 벵골 분할령", "source": "미래엔 세계사 교과서 3권 169쪽", "volume": 3, "page": 169}, "geometry": {"type": "LineString", "coordinates": [[89.92938, 21.95335], [89.94701, 22.0622], [89.98373, 22.17507], [90.0812, 22.4123], [90.12661, 22.53285], [90.15993, 22.65102], [90.17271, 22.76669], [90.15476, 22.88373], [90.13532, 22.92914], [90.10912, 22.96785], [90.07837, 23.0016], [89.97775, 23.09247], [89.94677, 23.12644], [89.91933, 23.16606], [89.89682, 23.21099], [89.87799, 23.26022], [89.81885, 23.47462], [89.78734, 23.5749], [89.73974, 23.67861], [89.68296, 23.76918], [89.61935, 23.85066], [89.41154, 24.0773], [89.34576, 24.15802], [89.28692, 24.24623], [89.24139, 24.25787], [89.16682, 24.28357], [89.09899, 24.29562], [89.06645, 24.30774], [89.05366, 24.32617], [89.03061, 24.39212], [89.00247, 24.52933], [88.87256, 24.61499], [88.77226, 24.67294], [88.7146, 24.69835], [88.59422, 24.74035], [88.5459, 24.76641], [88.5037, 24.8004], [88.4076, 24.9125], [88.37677, 24.93378], [88.31402, 24.96042], [88.2842, 24.98515], [88.26625, 25.00839], [88.25622, 25.02707], [88.25222, 25.04258], [88.25825, 25.0991], [88.24894, 25.14032], [88.22946, 25.18273], [88.19607, 25.24278], [88.17955, 25.28154], [88.17667, 25.30174], [88.17968, 25.33978], [88.17726, 25.35867], [88.1662, 25.38141], [88.11615, 25.4491], [88.08526, 25.5159], [88.07878, 25.55921], [88.08203, 25.57943], [88.09066, 25.59824], [88.11618, 25.62311], [88.16797, 25.64582], [88.19091, 25.6601], [88.19955, 25.66997], [88.21019, 25.69479], [88.21171, 25.72064], [88.20687, 25.74715], [88.18235, 25.82749], [88.18032, 25.85374], [88.18622, 25.87944], [88.22109, 25.93733], [88.31815, 26.05362], [88.37947, 26.14009], [88.40817, 26.19087], [88.42798, 26.24099], [88.43302, 26.28617], [88.4175, 26.32223], [88.37587, 26.34507], [88.30573, 26.35465], [88.28361, 26.36266], [88.28873, 26.38477], [88.28605, 26.41907], [88.2579, 26.54578], [88.25186, 26.58122], [88.25322, 26.60698], [88.26559, 26.61965], [88.46012, 26.66999], [88.59629, 26.7498]]}}]}