{"type": "FeatureCollection", "features": [{"type": "Feature", "properties": {"name": "서벵골", "name_en": "West Bengal (1905)", "period": "1905–1911", "kind": "기타", "legend": "서벵골 (힌두교도 다수)", "map_title": "영국의 벵골 분할령", "source": "미래엔 세계사 교과서 3권 169쪽", "volume": 3, "page": 169, "coast_snap": "Natural Earth 10m 해안선에 맞춤", "border_snap": "현대 국경(Natural Earth 10m)에 맞춘 구간 약 1124 km"}, "geometry": {"type": "MultiPolygon", "coordinates": [[[[88.90796, 21.53072], [88.87973, 21.52997], [88.86248, 21.5236], [88.83872, 21.53194], [88.83083, 21.57738], [88.84132, 21.614], [88.90185, 21.58039], [88.9113, 21.56688], [88.9139, 21.54841], [88.90796, 21.53072]]], [[[88.12981, 21.62596], [88.09156, 21.63654], [88.06349, 21.63668], [88.05178, 21.6416], [88.04315, 21.65762], [88.04403, 21.68112], [88.08996, 21.8085], [88.11931, 21.85952], [88.14674, 21.86985], [88.16699, 21.76518], [88.16341, 21.70548], [88.13258, 21.68496], [88.1444, 21.65757], [88.14599, 21.64375], [88.13941, 21.63032], [88.12981, 21.62596]]], [[[89.06381, 21.84146], [89.0447, 21.90778], [89.04566, 21.91706], [89.05738, 21.91766], [89.06764, 21.90436], [89.08131, 21.82294], [89.09278, 21.7934], [89.13881, 21.76696], [89.14469, 21.73933], [89.13249, 21.72164], [89.10231, 21.73677], [89.05154, 21.7932], [89.06422, 21.82209], [89.06381, 21.84146]]], [[[88.5988, 21.87011], [88.63625, 21.92137], [88.65016, 21.92744], [88.66325, 21.92128], [88.67057, 21.90741], [88.64918, 21.84235], [88.64632, 21.78793], [88.59182, 21.8044], [88.58432, 21.83576], [88.5988, 21.87011]]], [[[88.1189, 21.945], [88.13257, 21.92048], [88.125, 21.88866], [88.10499, 21.86115], [88.0809, 21.84936], [88.07229, 21.85676], [88.07107, 21.87337], [88.07745, 21.90489], [88.09426, 21.93788], [88.10573, 21.94757], [88.1189, 21.945]]], [[[90.31862, 21.87112], [90.32254, 21.91669], [90.33731, 21.94766], [90.31862, 21.87112]]], [[[84.59064, 24.18335], [84.61974, 24.17128], [84.63649, 24.17084], [84.65211, 24.17657], [84.76078, 24.16293], [84.91094, 24.11497], [84.91783, 24.12042], [84.99195, 24.29115], [85.08917, 24.26046], [85.26564, 24.31608], [85.28187, 24.51339], [85.33396, 24.7548], [85.25973, 24.9081], [85.20279, 25.04644], [85.14874, 25.22813], [85.15924, 25.23314], [85.16158, 25.25312], [85.17334, 25.27045], [85.23326, 25.31187], [85.2689, 25.34208], [85.33058, 25.3758], [85.3745, 25.42165], [85.39797, 25.46031], [85.41438, 25.50134], [85.42829, 25.54424], [85.43747, 25.59974], [85.44478, 25.61437], [85.45623, 25.62236], [85.46907, 25.62317], [85.52783, 25.59243], [85.55695, 25.58545], [85.57092, 25.59012], [85.57948, 25.59884], [85.59269, 25.63305], [85.60114, 25.63921], [85.6161, 25.63942], [85.66668, 25.62113], [85.67962, 25.62044], [85.70868, 25.63867], [85.72448, 25.66261], [85.72449, 25.68725], [85.71598, 25.70685], [85.70073, 25.72446], [85.657, 25.75466], [85.56291, 25.79318], [85.40409, 25.83659], [85.38268, 25.84544], [85.35823, 25.86447], [85.34391, 25.89101], [85.33927, 25.91994], [85.34396, 25.94618], [85.3669, 25.99122], [85.36793, 26.01478], [85.36251, 26.0258], [85.3335, 26.04881], [85.24983, 26.07546], [85.22081, 26.09623], [85.23111, 26.1048], [85.2579, 26.11203], [85.26888, 26.11926], [85.27391, 26.13403], [85.27324, 26.16374], [85.33882, 26.17612], [85.43058, 26.1812], [85.45306, 26.18687], [85.45659, 26.19711], [85.41934, 26.22948], [85.28261, 26.30333], [85.23873, 26.33151], [85.28728, 26.73697], [85.30237, 26.73734], [85.33704, 26.74679], [85.35322, 26.75759], [85.38588, 26.78844], [85.42154, 26.78266], [85.43962, 26.78772], [85.51946, 26.82643], [85.59858, 26.85438], [85.68777, 26.81185], [85.70183, 26.79661], [85.70963, 26.76245], [85.70224, 26.68845], [85.71289, 26.65321], [85.72705, 26.6376], [85.781, 26.5992], [85.78999, 26.59703], [85.80973, 26.60303], [85.81764, 26.59672], [85.82161, 26.57171], [85.82854, 26.56613], [85.84477, 26.56851], [85.86637, 26.57993], [85.93468, 26.6329], [85.95215, 26.64204], [85.97571, 26.64437], [86.01137, 26.65445], [86.0417, 26.64545], [86.11586, 26.60256], [86.15265, 26.60065], [86.16779, 26.59662], [86.18536, 26.58442], [86.19586, 26.58267], [86.22516, 26.5974], [86.26309, 26.60907], [86.28443, 26.61202], [86.30138, 26.60902], [86.30861, 26.60215], [86.30903, 26.58799], [86.316, 26.58096], [86.35367, 26.58262], [86.38365, 26.57285], [86.44483, 26.54308], [86.49491, 26.52784], [86.51062, 26.52014], [86.53775, 26.49487], [86.5579, 26.48402], [86.62534, 26.45632], [86.6952, 26.41823], [86.7136, 26.41456], [86.72409, 26.42195], [86.7382, 26.44371], [86.75189, 26.44552], [86.79644, 26.43151], [86.82186, 26.43813], [86.84636, 26.45265], [86.86568, 26.47244], [86.87597, 26.49492], [86.90713, 26.51151], [86.97245, 26.53197], [87.02991, 26.57977], [87.04133, 26.58019], [87.045, 26.54427], [87.05647, 26.49487], [87.06671, 26.46562], [87.08329, 26.43208], [87.10629, 26.40475], [87.13502, 26.3942], [87.18846, 26.39958], [87.2191, 26.40811], [87.22944, 26.39875], [87.2453, 26.37023], [87.30049, 26.34599], [87.31403, 26.34377], [87.32622, 26.35333], [87.34493, 26.38935], [87.3564, 26.40371], [87.38421, 26.41865], [87.41645, 26.42697], [87.44963, 26.42862], [87.48032, 26.4234], [87.55205, 26.38671], [87.58698, 26.37803], [87.62398, 26.39291], [87.65964, 26.41751], [87.68119, 26.42423], [87.7109, 26.40568], [87.72754, 26.40376], [87.74222, 26.41048], [87.75617, 26.44691], [87.76899, 26.45146], [87.80444, 26.43735], [87.8216, 26.43751], [87.85208, 26.46066], [87.86981, 26.46464], [87.87069, 26.46071], [87.8973, 26.44345], [87.91477, 26.40826], [87.92898, 26.39643], [87.96123, 26.37896], [87.97549, 26.36656], [87.98524, 26.36759], [88.02092, 26.21569], [88.03793, 26.20688], [88.04499, 26.2125], [88.05019, 26.22907], [88.00665, 26.36986], [88.04432, 26.40568], [88.07419, 26.45394], [88.08225, 26.49487], [88.07982, 26.51756], [88.10168, 26.58194], [88.14664, 26.66122], [88.16338, 26.70514], [88.16907, 26.744], [88.15904, 26.80255], [88.15523, 26.846], [88.48015, 26.89598], [88.585, 26.86693], [88.60903, 26.85495], [88.61773, 26.84185], [88.61439, 26.82745], [88.6062, 26.81327], [88.39438, 26.61801], [88.38528, 26.62354], [88.37252, 26.61161], [88.35283, 26.57869], [88.33236, 26.51466], [88.31386, 26.48154], [88.3151, 26.46505], [88.32255, 26.45177], [88.33562, 26.44821], [88.34022, 26.45415], [88.34301, 26.4772], [88.34652, 26.48402], [88.35355, 26.48459], [88.37691, 26.47534], [88.43458, 26.46516], [88.46114, 26.45389], [88.4754, 26.43203], [88.49546, 26.37808], [88.49763, 26.35271], [88.4754, 26.35581], [88.44864, 26.35343], [88.43169, 26.36222], [88.41381, 26.3402], [88.36678, 26.31343], [88.35169, 26.30098], [88.3366, 26.28181], [88.33293, 26.26724], [88.33454, 26.2308], [88.32627, 26.21592], [88.3087, 26.2061], [88.21888, 26.18016], [88.19692, 26.15964], [88.1638, 26.14047], [88.15563, 26.12848], [88.13992, 26.08533], [88.14116, 26.07546], [88.15641, 26.06141], [88.1579, 26.05045], [88.15103, 26.03133], [88.12587, 26.0134], [88.10654, 25.97997], [88.08804, 25.92322], [88.0744, 25.90814], [88.08204, 25.86385], [88.08897, 25.84866], [88.08757, 25.83098], [88.10334, 25.81481], [88.11491, 25.78726], [88.12773, 25.77491], [88.14643, 25.77574], [88.18271, 25.79243], [88.22746, 25.80427], [88.25992, 25.78902], [88.32027, 25.72525], [88.39298, 25.68076], [88.41944, 25.65378], [88.42378, 25.59224], [88.43778, 25.57983], [88.4754, 25.56258], [88.48559, 25.54263], [88.51277, 25.52371], [88.52047, 25.5093], [88.53029, 25.5002], [88.55096, 25.49648], [88.59359, 25.49509], [88.64542, 25.46734], [88.66635, 25.46289], [88.67808, 25.46589], [88.70619, 25.49168], [88.73265, 25.491], [88.74257, 25.49519], [88.74195, 25.51276], [88.77234, 25.50196], [88.80582, 25.47168], [88.81492, 25.4586], [88.81632, 25.43721], [88.79931, 25.40171], [88.79962, 25.39561], [88.81037, 25.38843], [88.81833, 25.35964], [88.842, 25.33282], [88.84903, 25.32719], [88.88019, 25.32347], [88.90287, 25.30342], [88.92649, 25.30047], [88.97532, 25.30264], [88.98271, 25.29448], [88.98494, 25.28497], [88.98235, 25.27489], [88.97532, 25.26523], [88.93775, 25.24017], [88.92907, 25.22942], [88.93078, 25.20265], [88.92788, 25.19273], [88.90964, 25.18916], [88.92416, 25.16787], [88.89864, 25.16932], [88.81709, 25.19681], [88.80913, 25.19526], [88.80252, 25.18813], [88.79234, 25.16658], [88.78422, 25.16095], [88.72454, 25.16647], [88.66459, 25.18689], [88.63426, 25.19226], [88.59912, 25.19314], [88.59013, 25.19014], [88.5707, 25.17324], [88.55938, 25.17076], [88.4754, 25.1951], [88.4413, 25.18973], [88.43148, 25.17304], [88.43417, 25.11666], [88.4258, 25.05106], [88.41412, 25.02152], [88.39102, 24.99509], [88.38786, 24.96876], [88.37567, 24.94561], [88.34089, 24.90414], [88.32275, 24.87468], [88.31361, 24.8683], [88.24276, 24.8806], [88.24188, 24.89877], [88.23284, 24.91827], [88.21878, 24.93515], [88.20245, 24.9453], [88.18302, 24.94698], [88.16452, 24.94111], [88.11491, 24.91641], [88.13806, 24.8635], [88.14096, 24.84458], [88.11739, 24.81926], [88.10778, 24.8011], [88.09481, 24.80311], [88.08824, 24.79614], [88.08401, 24.77045], [88.07698, 24.76118], [88.05321, 24.75498], [88.04846, 24.71121], [88.03543, 24.69382], [88.02716, 24.67573], [88.02179, 24.6456], [88.05724, 24.63411], [88.06726, 24.61367], [88.08184, 24.59987], [88.08499, 24.59387], [88.08602, 24.53672], [88.09879, 24.52248], [88.10995, 24.50099], [88.13878, 24.49525], [88.4013, 24.36942], [88.4754, 24.31547], [88.49835, 24.31097], [88.5631, 24.30821], [88.61245, 24.29288], [88.63452, 24.29412], [88.6495, 24.31536], [88.66015, 24.33826], [88.6818, 24.33389], [88.71456, 24.31542], [88.73751, 24.2871], [88.74304, 24.24754], [88.74981, 24.22325], [89.20789, 24.26486], [89.24319, 24.26233], [89.29121, 24.23884], [89.32342, 24.20615], [89.37474, 24.1233], [89.49964, 23.96802], [89.53938, 23.92689], [89.63114, 23.84695], [89.67506, 23.79945], [89.72994, 23.71301], [89.77102, 23.62386], [89.80528, 23.52874], [89.87386, 23.30448], [89.91434, 23.19782], [89.9702, 23.0973], [89.99881, 23.06076], [90.10697, 22.94955], [90.21159, 22.93622], [90.28274, 22.91157], [90.31622, 22.89443], [90.37694, 22.85145], [90.42705, 22.79871], [90.40797, 22.79466], [90.42399, 22.78168], [90.41992, 22.76826], [90.40641, 22.7631], [90.3943, 22.77485], [90.37257, 22.76142], [90.38722, 22.75129], [90.43523, 22.7333], [90.4446, 22.75164], [90.45901, 22.7491], [90.49031, 22.67007], [90.50026, 22.59247], [90.45924, 22.57929], [90.44207, 22.49364], [90.445, 22.50414], [90.46266, 22.52098], [90.46266, 22.56196], [90.4725, 22.57559], [90.50013, 22.58554], [90.4954, 22.52884], [90.4755, 22.45531], [90.41248, 22.27805], [90.4109, 22.28425], [90.3943, 22.28824], [90.39868, 22.26748], [90.38868, 22.22321], [90.39017, 22.21339], [90.37118, 22.15149], [90.35069, 22.06009], [90.3322, 22.03807], [90.32788, 22.0205], [90.3086, 21.98404], [90.29991, 21.92741], [90.28288, 21.8708], [90.27271, 21.85741], [90.21741, 21.81333], [90.20378, 21.8046], [90.18482, 21.80098], [90.1644, 21.80428], [90.09296, 21.83028], [90.08856, 21.84675], [90.09539, 21.85944], [90.11248, 21.85627], [90.10499, 21.87027], [90.12623, 21.90119], [90.12135, 21.92158], [90.12623, 21.93195], [90.11622, 21.91934], [90.09848, 21.87861], [90.07936, 21.86693], [90.0669, 21.85343], [90.05787, 21.84936], [90.04956, 21.85097], [90.03631, 21.86115], [90.02444, 21.86246], [90.03126, 21.88923], [90.03396, 21.94355], [90.04494, 21.96613], [90.07716, 21.98798], [90.08578, 22.00023], [90.09596, 22.04011], [90.10564, 22.05427], [90.14674, 22.08902], [90.16407, 22.11323], [90.17286, 22.11701], [90.19508, 22.10952], [90.21616, 22.12324], [90.2317, 22.14566], [90.23911, 22.17227], [90.2361, 22.19888], [90.20582, 22.13296], [90.19166, 22.12311], [90.16481, 22.11982], [90.14828, 22.11079], [90.08888, 22.05117], [90.07374, 22.01923], [90.05242, 21.989], [90.02843, 21.98806], [89.99635, 22.00023], [90.00319, 22.02936], [90.01062, 22.041], [90.03541, 22.0598], [90.0381, 22.07534], [90.03468, 22.10517], [90.04274, 22.13125], [90.0726, 22.15205], [90.07838, 22.16405], [90.05258, 22.15546], [90.04005, 22.13809], [90.02442, 22.08902], [89.98276, 22.04462], [89.98275, 21.98656], [89.96778, 21.97457], [89.94973, 21.98091], [89.93443, 21.99771], [89.91457, 22.06167], [89.91236, 22.13557], [89.90089, 22.20197], [89.88032, 22.24063], [89.87677, 22.27447], [89.90017, 22.33392], [89.98276, 22.44526], [89.9979, 22.48086], [90.0101, 22.49022], [89.98276, 22.47321], [89.94744, 22.43968], [89.9336, 22.42353], [89.92043, 22.39185], [89.90309, 22.39644], [89.87289, 22.41861], [89.88412, 22.36351], [89.88042, 22.34247], [89.83872, 22.26777], [89.85083, 22.24652], [89.86138, 22.21076], [89.87291, 22.14335], [89.87139, 22.09208], [89.86296, 22.07906], [89.8462, 22.07064], [89.79721, 22.076], [89.79721, 22.06851], [89.83594, 22.04946], [89.8479, 22.03388], [89.85237, 22.01044], [89.8462, 21.97232], [89.88713, 21.90029], [89.88037, 21.88419], [89.85092, 21.87751], [89.82521, 21.85627], [89.81421, 21.84081], [89.78639, 21.82893], [89.77573, 21.82759], [89.76588, 21.84675], [89.72584, 21.82894], [89.70884, 21.83013], [89.67358, 21.83999], [89.66132, 21.84936], [89.65261, 21.87885], [89.66334, 21.89631], [89.66131, 21.90583], [89.64698, 21.92512], [89.61899, 21.86986], [89.64975, 21.82636], [89.67205, 21.80427], [89.69206, 21.79482], [89.70068, 21.78486], [89.68994, 21.76521], [89.66822, 21.75089], [89.63152, 21.76406], [89.59547, 21.76], [89.59278, 21.75438], [89.60595, 21.71907], [89.58692, 21.70085], [89.56569, 21.71337], [89.53713, 21.75381], [89.53891, 21.77147], [89.52736, 21.81281], [89.5303, 21.83576], [89.56446, 21.88418], [89.56764, 21.9007], [89.5635, 21.97313], [89.5713, 22.03124], [89.57667, 22.0517], [89.6006, 22.09125], [89.60597, 22.11323], [89.59376, 22.15542], [89.56788, 22.18891], [89.56723, 22.20283], [89.59791, 22.2403], [89.60597, 22.2569], [89.61061, 22.2989], [89.62648, 22.336], [89.61549, 22.32827], [89.59246, 22.28824], [89.58082, 22.27725], [89.57716, 22.2685], [89.58619, 22.24543], [89.56105, 22.22309], [89.54916, 22.20527], [89.5503, 22.19213], [89.57642, 22.14521], [89.57934, 22.11323], [89.56674, 22.0821], [89.55144, 21.99404], [89.53289, 21.9847], [89.52476, 22.00015], [89.52345, 22.04462], [89.53647, 22.07583], [89.53712, 22.08902], [89.49205, 22.18838], [89.49301, 22.2735], [89.48316, 22.29507], [89.47576, 22.29507], [89.46746, 22.22899], [89.47576, 22.10261], [89.48316, 22.10261], [89.48406, 22.11669], [89.49415, 22.13685], [89.51832, 22.081], [89.50913, 22.04121], [89.49187, 22.03457], [89.49041, 22.02399], [89.52178, 21.96208], [89.51253, 21.90913], [89.47576, 21.8767], [89.46461, 21.8592], [89.46948, 21.80439], [89.46573, 21.78112], [89.44286, 21.74681], [89.40642, 21.71736], [89.39504, 21.71653], [89.36965, 21.74332], [89.36428, 21.75821], [89.36591, 21.82892], [89.38429, 21.87783], [89.38697, 21.90119], [89.38266, 21.92133], [89.36402, 21.95506], [89.35963, 21.97232], [89.35222, 21.97232], [89.34596, 21.95702], [89.35962, 21.91767], [89.35606, 21.89275], [89.32887, 21.86465], [89.30127, 21.8094], [89.29623, 21.80908], [89.2907, 21.82209], [89.28395, 21.82209], [89.28443, 21.79682], [89.29468, 21.7578], [89.29069, 21.73335], [89.27369, 21.6988], [89.27662, 21.68757], [89.29752, 21.67812], [89.26894, 21.65414], [89.24871, 21.64591], [89.22926, 21.64396], [89.21047, 21.65413], [89.20448, 21.67289], [89.20827, 21.69061], [89.2186, 21.69855], [89.22071, 21.70942], [89.18972, 21.79125], [89.18767, 21.81151], [89.18336, 21.81562], [89.17408, 21.81005], [89.15455, 21.78686], [89.1194, 21.80098], [89.1046, 21.81608], [89.07781, 21.91425], [89.09108, 21.97679], [89.09148, 22.00023], [89.08424, 22.02119], [89.06202, 22.04951], [89.05738, 22.06509], [89.06349, 22.11103], [89.06031, 22.1306], [89.04371, 22.1374], [89.0486, 22.12295], [89.03688, 22.0856], [89.05738, 22.03124], [89.06559, 21.96711], [89.06087, 21.93847], [89.03689, 21.92512], [89.02312, 21.9311], [89.01303, 21.92943], [89.00807, 21.92056], [89.00952, 21.90462], [88.96046, 21.93431], [88.94468, 21.9388], [88.93785, 21.94872], [88.92872, 21.98656], [88.91391, 21.98656], [88.90504, 21.96943], [88.91082, 21.94648], [88.92408, 21.92634], [88.968, 21.90489], [88.99569, 21.88431], [89.01587, 21.85334], [89.03094, 21.77045], [89.04371, 21.73334], [89.06787, 21.70913], [89.0852, 21.67471], [89.08822, 21.63374], [89.08268, 21.61734], [89.06422, 21.60921], [89.05324, 21.60982], [89.03883, 21.61945], [89.03395, 21.63325], [89.01978, 21.60612], [89.00026, 21.60343], [88.93385, 21.64395], [88.89182, 21.65338], [88.88161, 21.67203], [88.87208, 21.74901], [88.86606, 21.76683], [88.85865, 21.76683], [88.83823, 21.70197], [88.85986, 21.65257], [88.85864, 21.63655], [88.84425, 21.62222], [88.82399, 21.61727], [88.80584, 21.62288], [88.79788, 21.6402], [88.81837, 21.65762], [88.81088, 21.69172], [88.80047, 21.66185], [88.78403, 21.65595], [88.77711, 21.64354], [88.78175, 21.61424], [88.79663, 21.58442], [88.79053, 21.56827], [88.76246, 21.55586], [88.72788, 21.55989], [88.70754, 21.57832], [88.72218, 21.6092], [88.68801, 21.67813], [88.68492, 21.69721], [88.70362, 21.81061], [88.69452, 21.83983], [88.71469, 21.89785], [88.71698, 21.95197], [88.72219, 21.96613], [88.75831, 21.99946], [88.76303, 22.01728], [88.75465, 22.03758], [88.71705, 22.05805], [88.70851, 22.07221], [88.71485, 22.08698], [88.73015, 22.10358], [88.76303, 22.13056], [88.74391, 22.12934], [88.72657, 22.12116], [88.71217, 22.10904], [88.69484, 22.08153], [88.69288, 22.06586], [88.69947, 22.05321], [88.71852, 22.04804], [88.73072, 22.03718], [88.7233, 22.01309], [88.68994, 21.946], [88.67872, 21.93669], [88.667, 21.94501], [88.64259, 21.9409], [88.63088, 21.94547], [88.626, 21.95551], [88.62746, 21.9704], [88.65349, 22.01801], [88.6395, 22.10954], [88.65699, 22.15107], [88.674, 22.16206], [88.68312, 22.18496], [88.67994, 22.20441], [88.66017, 22.20502], [88.65592, 22.18304], [88.63494, 22.14496], [88.63087, 22.1258], [88.61915, 22.10952], [88.62597, 22.04804], [88.62036, 22.02998], [88.60255, 22.00642], [88.59864, 21.9903], [88.59839, 21.92935], [88.56707, 21.85082], [88.56463, 21.76683], [88.60418, 21.77874], [88.62402, 21.77802], [88.63281, 21.75007], [88.62337, 21.71028], [88.61279, 21.69767], [88.59181, 21.70539], [88.59958, 21.63707], [88.59506, 21.61214], [88.57814, 21.62344], [88.57813, 21.57168], [88.57227, 21.55794], [88.55893, 21.55558], [88.54498, 21.5619], [88.53647, 21.5751], [88.52963, 21.55337], [88.54394, 21.53409], [88.51295, 21.52466], [88.49392, 21.53482], [88.48798, 21.55654], [88.49563, 21.58185], [88.51401, 21.60082], [88.51882, 21.63914], [88.52963, 21.65762], [88.50954, 21.71231], [88.5049, 21.74152], [88.51272, 21.76341], [88.53289, 21.79531], [88.53102, 21.82412], [88.49563, 21.8767], [88.51466, 21.9162], [88.51498, 21.9372], [88.49562, 21.95181], [88.49985, 21.93366], [88.48121, 21.9099], [88.47446, 21.89033], [88.47706, 21.87181], [88.49208, 21.83692], [88.49354, 21.80539], [88.47446, 21.80097], [88.45338, 21.74177], [88.45476, 21.70539], [88.47217, 21.66327], [88.46826, 21.64395], [88.45643, 21.62422], [88.40968, 21.59928], [88.39309, 21.60026], [88.38356, 21.63142], [88.38283, 21.67108], [88.39259, 21.69855], [88.35565, 21.68499], [88.3462, 21.68862], [88.33123, 21.71906], [88.32472, 21.70136], [88.3274, 21.69111], [88.34571, 21.6706], [88.34876, 21.65011], [88.33545, 21.6158], [88.32179, 21.60567], [88.30975, 21.61018], [88.30445, 21.63345], [88.30201, 21.74518], [88.29819, 21.76411], [88.28981, 21.78022], [88.27312, 21.79792], [88.26157, 21.79865], [88.26417, 21.7753], [88.29542, 21.67658], [88.29705, 21.65388], [88.28338, 21.6092], [88.30062, 21.58934], [88.30582, 21.57169], [88.27898, 21.55517], [88.25441, 21.55468], [88.24929, 21.5583], [88.23748, 21.60171], [88.22438, 21.61302], [88.20827, 21.60299], [88.1819, 21.66523], [88.18093, 21.68496], [88.20346, 21.72435], [88.21046, 21.74726], [88.20144, 21.77432], [88.20973, 21.78856], [88.20379, 21.80541], [88.15408, 21.88809], [88.15943, 21.90616], [88.14675, 21.95922], [88.15636, 21.99103], [88.22242, 22.07795], [88.21275, 22.10005], [88.19801, 22.16779], [88.16529, 22.185], [88.08132, 22.21736], [88.07732, 22.24042], [88.04347, 22.22477], [88.02703, 22.22786], [88.00905, 22.24043], [87.97268, 22.28319], [87.95069, 22.35619], [87.94044, 22.41303], [87.92799, 22.42422], [87.90659, 22.42475], [87.90659, 22.41861], [87.92292, 22.39758], [87.9358, 22.35517], [87.94752, 22.27765], [87.96534, 22.24482], [87.99195, 22.21589], [88.00847, 22.2049], [88.09547, 22.19123], [88.13258, 22.17914], [88.16105, 22.15635], [88.1735, 22.11689], [88.1643, 22.0898], [88.14063, 22.06013], [88.11094, 22.03473], [88.08472, 22.02071], [88.0486, 22.02074], [88.04314, 22.01728], [88.05078, 21.98501], [88.0324, 21.95718], [87.98352, 21.85402], [87.97046, 21.8365], [87.89918, 21.79483], [87.89273, 21.77415], [87.86719, 21.75081], [87.83426, 21.72948], [87.75571, 21.69172], [87.70358, 21.65545], [87.68385, 21.65015], [87.62135, 21.65062], [87.55352, 21.63321], [87.46876, 21.6114], [87.34157, 21.56236], [87.29347, 21.55367], [87.25611, 21.562], [87.23544, 21.55456], [87.20094, 21.55199], [87.11305, 21.50796], [87.06373, 21.475], [86.91765, 21.32738], [86.86695, 21.25605], [86.83725, 21.17471], [86.844, 21.08222], [86.95204, 20.84936], [86.96566, 20.80598], [86.95386, 20.7806], [86.93629, 20.7875], [86.91652, 20.78807], [86.87875, 20.78059], [86.88933, 20.76447], [86.91066, 20.75641], [86.97999, 20.75555], [86.98657, 20.75185], [86.99999, 20.72821], [86.9987, 20.71113], [86.98862, 20.70426], [86.96119, 20.71284], [86.94825, 20.70905], [86.9402, 20.69798], [86.96119, 20.69506], [86.97429, 20.68439], [86.98649, 20.68438], [86.99488, 20.67072], [87.01938, 20.68036], [87.04317, 20.69793], [87.00345, 20.65695], [86.97624, 20.6379], [86.92319, 20.62173], [86.77418, 20.51195], [86.75148, 20.48916], [86.7339, 20.46223], [86.72462, 20.43195], [86.72047, 20.36848], [86.76979, 20.40069], [86.78875, 20.39012], [86.79616, 20.4373], [86.80981, 20.41511], [86.79419, 20.37817], [86.76831, 20.34346], [86.75148, 20.32807], [86.70167, 20.30378], [86.6937, 20.29393], [86.70167, 20.28465], [86.75456, 20.31438], [86.71722, 20.2868], [86.62818, 20.23526], [86.51148, 20.19746], [86.49513, 20.18407], [86.47884, 20.12934], [86.46852, 20.10928], [86.46712, 20.09468], [86.41504, 20.03633], [86.39145, 20.02021], [86.40414, 20.00263], [86.42624, 19.99916], [86.39723, 19.98287], [86.34841, 20.00887], [86.2754, 20.06737], [86.20916, 20.06664], [86.17304, 20.10221], [86.1631, 20.13483], [86.1587, 20.14313], [86.15252, 20.14313], [86.14503, 20.12202], [86.15431, 20.08999], [86.16774, 20.07294], [86.23024, 20.0353], [86.26857, 20.02644], [86.28907, 20.02643], [86.29591, 20.00658], [86.31495, 19.98688], [86.34156, 19.97988], [86.37238, 19.96499], [86.26856, 19.91035], [86.24925, 19.90364], [86.24315, 19.90855], [86.19338, 19.96256], [86.15563, 20.02521], [86.14197, 20.05867], [86.12151, 20.13676], [86.08859, 20.20529], [86.07181, 20.27386], [86.06877, 20.30964], [86.07379, 20.37986], [86.08177, 20.41451], [86.09348, 20.44867], [86.12147, 20.503], [86.19757, 20.50256], [86.28075, 20.48649], [86.35456, 20.52767], [86.37068, 20.57657], [86.36644, 20.59837], [86.39213, 20.6895], [86.41041, 20.78139], [86.3666, 20.79739], [86.29817, 20.84848], [86.29108, 20.84493], [86.23323, 20.7735], [86.21426, 20.97067], [86.20653, 20.97628], [86.17504, 20.97299], [86.15934, 20.97759], [86.14476, 20.98842], [86.13314, 21.00675], [86.12769, 21.02691], [86.1213, 21.03184], [86.02703, 20.99896], [86.01171, 20.86258], [85.9088, 20.99099], [85.84123, 21.02468], [85.81494, 21.0452], [85.79088, 21.07126], [85.77105, 21.10419], [85.75715, 21.14485], [85.64953, 21.21388], [85.6417, 21.21135], [85.63885, 21.20406], [85.68268, 20.99117], [85.66657, 20.90971], [85.54064, 20.91602], [85.43666, 20.88389], [85.41305, 20.71721], [85.39793, 20.66692], [85.38454, 20.64069], [85.36609, 20.61596], [85.34225, 20.59518], [85.25442, 20.6082], [85.24573, 20.60398], [85.20608, 20.50613], [85.22157, 20.36002], [85.10547, 20.19632], [85.07523, 20.19998], [85.05188, 20.21456], [85.04236, 20.22782], [85.03492, 20.24757], [84.94573, 20.38303], [84.98233, 20.46447], [84.90494, 20.59153], [84.86019, 20.75036], [84.91592, 20.86931], [84.94275, 20.87813], [84.95958, 20.88875], [84.99222, 20.92825], [85.00559, 20.96172], [85.01338, 21.00458], [85.1198, 21.07561], [85.15525, 21.22753], [85.07496, 21.39139], [85.10567, 21.56088], [85.13632, 21.80226], [85.07202, 21.96399], [85.2678, 21.96925], [85.4187, 21.88391], [85.42616, 21.8909], [85.45181, 22.00494], [85.49138, 22.08985], [85.54613, 22.02105], [85.55508, 22.02301], [85.59796, 22.06632], [85.59806, 22.07562], [85.51477, 22.20747], [85.56211, 22.30387], [85.6372, 22.3164], [85.66274, 22.39464], [85.68448, 22.42105], [85.68679, 22.45774], [85.65251, 22.53677], [85.62579, 22.62901], [85.62271, 22.65903], [85.62616, 22.68296], [85.63832, 22.70036], [85.62799, 22.84038], [85.75235, 22.94881], [85.75529, 22.95688], [85.6856, 23.02726], [85.64449, 23.04886], [85.60309, 23.05772], [85.5827, 23.05499], [85.52357, 23.03244], [85.4037, 22.9693], [85.39934, 22.96154], [85.40541, 22.74575], [85.34772, 22.83623], [85.34482, 22.85186], [85.34076, 22.89448], [85.34247, 22.95479], [85.35679, 23.0273], [85.32063, 23.27678], [85.30897, 23.28079], [85.24866, 23.25512], [85.18228, 23.32656], [85.10338, 23.39059], [84.9984, 23.42478], [84.99132, 23.52171], [84.98609, 23.5291], [84.91347, 23.56232], [84.83646, 23.51333], [84.76963, 23.66696], [84.80114, 23.7831], [84.79947, 23.79071], [84.71834, 23.8354], [84.60035, 23.97699], [84.47569, 23.96224], [84.47049, 24.17902], [84.50909, 24.17796], [84.53251, 24.18706], [84.56031, 24.20826], [84.59064, 24.18335]]]]}}]}