{"type": "FeatureCollection", "features": [{"type": "Feature", "properties": {"name": "송 → 서하: 은·비단·차", "category": "기타", "period": null, "legend": "은·비단·차", "note": "세폐(歲幣) 흐름 화살표", "map_title": "요와 송의 영역", "source": "미래엔 세계사 교과서 2권 77쪽", "volume": 2, "page": 77}, "geometry": {"type": "LineString", "coordinates": [[110.07352, 33.86889], [109.85104, 34.12158], [109.73547, 34.2474], [109.49512, 34.49791], [109.24221, 34.74685], [109.11106, 34.87069], [108.83958, 35.11701], [108.55643, 35.36142], [108.41072, 35.48286], [108.11164, 35.72415], [107.8032, 35.96321], [107.32542, 36.31737], [106.83309, 36.66591], [106.33054, 37.0085], [105.65287, 37.45536], [104.97657, 37.89026], [104.13886, 38.41771], [103.47226, 38.82816], [102.807, 39.22938], [101.97643, 39.71889]]}}, {"type": "Feature", "properties": {"name": "송 → 요: 은·비단", "category": "기타", "period": null, "legend": "은·비단", "note": "세폐(歲幣) 흐름 화살표", "map_title": "요와 송의 영역", "source": "미래엔 세계사 교과서 2권 77쪽", "volume": 2, "page": 77}, "geometry": {"type": "LineString", "coordinates": [[110.73939, 34.09015], [110.96916, 34.45971], [111.21118, 34.82681], [111.46174, 35.19153], [111.96611, 35.91484], [112.20647, 36.27409], [112.4304, 36.63212], [112.53467, 36.8107], [112.63325, 36.98897], [112.72588, 37.16691], [112.81242, 37.34447], [112.89283, 37.52159], [112.96718, 37.69821], [113.03557, 37.87425], [113.09818, 38.04964], [113.15523, 38.22428], [113.20694, 38.39811], [113.25356, 38.57104], [113.29536, 38.74302], [113.36554, 39.08386], [113.39446, 39.25265], [113.44126, 39.58682], [113.45967, 39.75221], [113.48778, 40.07971], [113.49797, 40.2419], [113.51182, 40.56348], [113.51956, 41.04004], [113.5163, 41.51172], [113.5063, 41.98079], [113.45757, 43.70016], [113.44957, 44.17047], [113.44662, 44.64075], [113.4524, 45.26677], [113.46499, 45.73486], [113.48509, 46.20134], [113.52365, 46.82048]]}}]}