{"type": "FeatureCollection", "features": [{"type": "Feature", "properties": {"name": "알제리", "name_en": "Algeria", "period": "1913년경", "kind": "식민지", "legend": "알제리", "map_title": "제국주의 열강의 아프리카 분할(1913년경)", "source": "미래엔 세계사 교과서 3권 156쪽", "volume": 3, "page": 156, "note": "프랑스령", "coast_snap": "Natural Earth 10m 해안선에 맞춤", "border_snap": "현대 국경(Natural Earth 10m)에 맞춘 구간 약 2078 km", "group": "알제리", "map_folder": "3권_p156_제국주의 열강의 아프리카 분할(1913년경)"}, "geometry": {"type": "Polygon", "coordinates": [[[-9.64573, 27.43906], [-9.59844, 27.81229], [-9.52935, 28.23378], [-9.48967, 28.44101], [-9.15688, 28.64114], [-8.68238, 28.65183], [-8.67877, 28.69282], [-8.66761, 28.71169], [-8.64885, 28.72595], [-8.52082, 28.78708], [-8.47584, 28.81876], [-8.43041, 28.84101], [-8.4178, 28.85235], [-8.38349, 28.90578], [-8.36845, 28.91653], [-8.31677, 28.93906], [-8.25047, 28.99477], [-8.18231, 29.03554], [-8.06966, 29.07934], [-8.03633, 29.09985], [-7.94501, 29.17623], [-7.83913, 29.23904], [-7.778, 29.28932], [-7.72999, 29.31116], [-7.65361, 29.37619], [-7.61945, 29.38942], [-7.50613, 29.38022], [-7.48406, 29.38244], [-7.46329, 29.38914], [-7.34961, 29.38344], [-7.25875, 29.46731], [-7.14693, 29.50924], [-7.07006, 29.51623], [-6.95824, 29.50924], [-6.78352, 29.44634], [-6.69965, 29.51623], [-6.55987, 29.5302], [-6.41311, 29.56515], [-6.34332, 29.57215], [-6.38259, 29.98098], [-5.88588, 30.4831], [-4.72181, 31.02166], [-4.71817, 31.0304], [-4.87443, 31.69825], [-4.10164, 31.8767], [-3.92617, 32.17025], [-3.37717, 32.20917], [-2.93873, 32.04864], [-2.88119, 32.07629], [-2.69557, 32.08967], [-2.51615, 32.1322], [-2.28763, 32.12319], [-2.25738, 32.53552], [-2.17855, 32.68123], [-2.65803, 33.10162], [-2.80749, 33.84174], [-2.84258, 34.82199], [-2.85621, 34.82776], [-2.90219, 34.8067], [-2.97467, 34.78447], [-3.07273, 34.81881], [-3.15618, 34.86568], [-3.27262, 34.84166], [-3.33938, 34.83506], [-3.34855, 34.83985], [-3.41284, 34.88676], [-3.48631, 34.95193], [-3.51384, 34.97886], [-3.55846, 35.03807], [-3.57568, 35.07066], [-3.59782, 35.1379], [-3.60295, 35.17316], [-3.601, 35.23898], [-3.59097, 35.2333], [-3.51602, 35.22353], [-3.48933, 35.21101], [-3.45385, 35.2116], [-3.41291, 35.19794], [-3.36205, 35.19452], [-3.31924, 35.20181], [-3.19514, 35.23823], [-3.17394, 35.24909], [-3.11824, 35.29402], [-3.08967, 35.28628], [-3.07706, 35.28791], [-3.0454, 35.31444], [-3.00624, 35.39354], [-2.98082, 35.42451], [-2.9827, 35.43521], [-2.97792, 35.4433], [-2.96858, 35.44643], [-2.95666, 35.44122], [-2.95223, 35.43305], [-2.95759, 35.41584], [-2.95297, 35.404], [-2.96304, 35.37348], [-2.94811, 35.33027], [-2.89905, 35.26], [-2.90795, 35.25096], [-2.91234, 35.23579], [-2.90514, 35.17357], [-2.88199, 35.14671], [-2.85607, 35.13129], [-2.82095, 35.12189], [-2.74812, 35.11595], [-2.79181, 35.14517], [-2.8681, 35.21719], [-2.88315, 35.23851], [-2.8784, 35.24631], [-2.7611, 35.14326], [-2.71833, 35.12299], [-2.66674, 35.10822], [-2.56322, 35.09614], [-2.51749, 35.09935], [-2.49332, 35.1044], [-2.43712, 35.14507], [-2.41674, 35.14914], [-2.32144, 35.11884], [-2.27552, 35.10963], [-2.22256, 35.0893], [-2.2001, 35.09612], [-2.18639, 35.08869], [-2.15689, 35.10097], [-2.05236, 35.07502], [-1.9877, 35.08246], [-1.95645, 35.07502], [-1.93248, 35.08868], [-1.83869, 35.11091], [-1.81273, 35.12652], [-1.76114, 35.12962], [-1.74559, 35.13882], [-1.71279, 35.17059], [-1.63768, 35.19452], [-1.62949, 35.21222], [-1.51036, 35.29547], [-1.49057, 35.301], [-1.3959, 35.30939], [-1.364, 35.31834], [-1.33266, 35.34934], [-1.31379, 35.35375], [-1.29483, 35.36457], [-1.26773, 35.39033], [-1.24729, 35.45775], [-1.22541, 35.49128], [-1.18333, 35.57647], [-1.14802, 35.5821], [-1.117, 35.61688], [-1.05207, 35.66096], [-1.03294, 35.68259], [-0.99669, 35.6896], [-0.94649, 35.71919], [-0.92293, 35.7251], [-0.91024, 35.7243], [-0.8994, 35.71182], [-0.88756, 35.71597], [-0.84948, 35.73432], [-0.82501, 35.76853], [-0.80167, 35.7739], [-0.77717, 35.75642], [-0.7113, 35.74298], [-0.69245, 35.71931], [-0.62645, 35.72297], [-0.58934, 35.7425], [-0.57725, 35.77081], [-0.54092, 35.76777], [-0.52343, 35.77969], [-0.47704, 35.85936], [-0.47947, 35.89003], [-0.47379, 35.89125], [-0.45906, 35.88378], [-0.41804, 35.88377], [-0.34854, 35.90704], [-0.33618, 35.90082], [-0.33145, 35.88955], [-0.30192, 35.87758], [-0.29851, 35.86717], [-0.3046, 35.8535], [-0.30191, 35.84284], [-0.28555, 35.82827], [-0.25943, 35.81753], [-0.18806, 35.80523], [-0.12389, 35.78693], [-0.08308, 35.79438], [-0.03848, 35.8133], [0.00294, 35.83804], [0.03452, 35.86327], [0.06996, 35.92182], [0.11402, 36.0102], [0.1273, 36.05076], [0.15398, 36.06501], [0.21928, 36.1164], [0.28346, 36.13443], [0.32106, 36.15888], [0.32927, 36.16498], [0.34231, 36.20595], [0.38424, 36.21793], [0.45134, 36.22321], [0.55666, 36.28407], [0.59457, 36.29316], [0.64406, 36.32883], [0.75327, 36.33861], [0.80226, 36.36358], [0.86476, 36.37739], [0.92514, 36.41816], [0.9363, 36.44359], [0.94557, 36.45233], [1.00709, 36.46686], [1.04477, 36.48687], [1.11695, 36.48713], [1.17873, 36.51088], [1.26547, 36.51533], [1.34669, 36.54498], [1.36769, 36.54791], [1.45281, 36.52802], [1.47633, 36.52896], [1.51774, 36.53874], [1.71656, 36.54792], [1.76124, 36.56158], [1.80291, 36.55536], [1.85788, 36.56746], [1.91383, 36.57021], [1.97283, 36.56159], [2.05991, 36.57014], [2.32992, 36.63729], [2.35157, 36.63832], [2.3733, 36.63385], [2.39185, 36.62425], [2.40406, 36.59919], [2.44728, 36.59056], [2.60076, 36.59634], [2.63299, 36.60513], [2.72756, 36.66522], [2.79298, 36.69294], [2.8187, 36.71088], [2.85008, 36.75423], [2.87567, 36.7748], [2.93312, 36.80857], [2.97706, 36.81585], [3.01417, 36.8117], [3.04785, 36.79498], [3.10182, 36.7519], [3.14015, 36.74164], [3.17937, 36.74283], [3.21046, 36.75739], [3.22609, 36.7862], [3.22757, 36.81234], [3.2378, 36.81304], [3.30299, 36.78876], [3.3405, 36.78071], [3.48048, 36.77725], [3.55047, 36.79145], [3.57057, 36.80857], [3.61207, 36.80858], [3.64967, 36.82396], [3.70949, 36.87319], [3.74188, 36.89117], [3.82749, 36.9129], [3.87387, 36.91721], [3.9126, 36.9116], [3.94825, 36.8933], [3.96404, 36.89118], [4.03142, 36.89777], [4.08546, 36.89207], [4.10483, 36.88373], [4.15952, 36.90419], [4.21046, 36.89118], [4.26198, 36.91159], [4.32032, 36.89802], [4.44095, 36.91157], [4.46842, 36.90587], [4.50408, 36.88931], [4.53639, 36.88857], [4.55055, 36.88373], [4.58182, 36.89493], [4.62326, 36.89636], [4.69801, 36.89118], [4.76905, 36.89801], [4.78712, 36.8954], [4.94987, 36.83978], [4.97364, 36.81891], [5.00928, 36.81606], [5.02914, 36.79499], [5.04591, 36.78852], [5.08619, 36.78083], [5.10481, 36.78131], [5.08481, 36.73261], [5.09018, 36.71678], [5.11842, 36.69937], [5.23585, 36.65095], [5.26905, 36.64411], [5.30437, 36.64301], [5.37241, 36.65095], [5.43385, 36.66522], [5.46485, 36.66523], [5.48911, 36.68512], [5.52914, 36.69766], [5.549, 36.7097], [5.56277, 36.74599], [5.59393, 36.77386], [5.65593, 36.79182], [5.67457, 36.79963], [5.71047, 36.8255], [5.73347, 36.83227], [5.7588, 36.83339], [5.82781, 36.82176], [5.86883, 36.82294], [6.03712, 36.85358], [6.19703, 36.90233], [6.23569, 36.92121], [6.25685, 36.94579], [6.25442, 36.99897], [6.26687, 37.01776], [6.33872, 37.06927], [6.37191, 37.08355], [6.41578, 37.09295], [6.46217, 37.09393], [6.50269, 37.08294], [6.54419, 37.05878], [6.54705, 37.0412], [6.57275, 37.02777], [6.58326, 36.98981], [6.59946, 36.97309], [6.61411, 36.97784], [6.67115, 36.95942], [6.82227, 36.95256], [6.86963, 36.92918], [6.88004, 36.91844], [6.87965, 36.90209], [6.90943, 36.89305], [6.94858, 36.89004], [6.9756, 36.89118], [7.06446, 36.91332], [7.0923, 36.92592], [7.13331, 36.91527], [7.15699, 36.9147], [7.17669, 36.93204], [7.23902, 36.9715], [7.25424, 36.9947], [7.25554, 37.01537], [7.21111, 37.05703], [7.18166, 37.07673], [7.18166, 37.08294], [7.2039, 37.08716], [7.28372, 37.03233], [7.34576, 36.96493], [7.38212, 36.90166], [7.40193, 36.84318], [7.41732, 36.77501], [7.45203, 36.77757], [7.50089, 36.76904], [7.66152, 36.72031], [7.70574, 36.71815], [7.80223, 36.72628], [7.78918, 36.64883], [7.36743, 36.38942], [7.37337, 36.38003], [7.53479, 36.31408], [7.43103, 35.67837], [7.55826, 35.19417], [7.36292, 34.66155], [6.92008, 34.49057], [6.84421, 34.31507], [6.55074, 34.15292], [6.54623, 34.14322], [6.84444, 33.45121], [7.19977, 33.3409], [7.21342, 33.32723], [7.70925, 33.31925], [7.70969, 33.27815], [7.72499, 33.23141], [7.75072, 33.20766], [7.49297, 32.85402], [7.50236, 32.82053], [7.81148, 32.6715], [8.30671, 32.69762], [8.31957, 32.5606], [8.33125, 32.52763], [8.35998, 32.50102], [8.48267, 32.43479], [8.74565, 32.27332], [8.4749, 31.93054], [8.73705, 31.2137], [8.77203, 31.19496], [9.25041, 31.27404], [9.35135, 30.88234], [8.88289, 30.78786], [8.65694, 30.70101], [8.65088, 30.69418], [8.8921, 30.33922], [9.28654, 30.11713], [9.31001, 30.08437], [9.42173, 29.96871], [9.54968, 29.80232], [9.5868, 29.74138], [9.18434, 29.53709], [9.16699, 28.88197], [9.36625, 28.4942], [9.11529, 27.9326], [9.31508, 27.53359], [9.75628, 27.42303], [9.74305, 27.36412], [9.72652, 27.32469], [9.72187, 27.30846], [9.72135, 27.29188], [9.27873, 27.19353], [9.25752, 27.1072], [8.74726, 26.74713], [8.74376, 26.73789], [8.99829, 26.42064], [9.40251, 26.21618], [9.3778, 26.16895], [9.40116, 26.11339], [9.81268, 25.5936], [9.4551, 25.34358], [9.45578, 25.32597], [9.52426, 25.26105], [9.89996, 25.48338], [9.9695, 25.3954], [10.00795, 25.33143], [10.02138, 25.26802], [10.03203, 24.85634], [10.04453, 24.82962], [10.19336, 24.74994], [10.21217, 24.72286], [10.22974, 24.62995], [10.24225, 24.59511], [10.26033, 24.57664], [10.3918, 24.47998], [10.41051, 24.47329], [10.45019, 24.47693], [10.67736, 24.55385], [10.69907, 24.55612], [10.72067, 24.5523], [11.50863, 24.31381], [11.54139, 24.29751], [11.56713, 24.26684], [11.72982, 23.96341], [11.32389, 23.77994], [10.70244, 23.44666], [10.1012, 23.11939], [9.70364, 22.89893], [9.1269, 22.57496], [8.50422, 22.22021], [7.76543, 21.74378], [7.04782, 21.27329], [6.1517, 20.51485], [5.28001, 19.76226], [5.35069, 19.35738], [4.23463, 19.1434], [3.43972, 18.99564], [3.35869, 18.97685], [3.31838, 18.97771], [3.28489, 18.99574], [3.22598, 19.05106], [3.17979, 19.07], [3.13875, 19.09604], [3.12087, 19.11281], [3.10413, 19.13553], [3.10345, 19.14395], [2.66495, 19.1103], [2.34943, 19.05783], [2.35574, 19.62823], [2.49538, 20.0201], [2.45931, 20.03878], [2.4004, 20.05656], [2.38872, 20.06741], [2.34821, 20.13763], [2.31648, 20.18016], [2.27958, 20.21794], [2.21819, 20.26409], [2.20083, 20.27391], [2.18243, 20.2785], [2.16135, 20.27494], [2.1382, 20.26073], [2.09747, 20.22419], [2.07122, 20.21326], [2.05634, 20.21505], [1.9934, 20.23595], [1.96715, 20.25342], [1.95526, 20.25491], [1.9412, 20.25112], [1.92425, 20.23613], [1.9134, 20.23109], [1.89139, 20.23179], [1.88384, 20.24414], [1.88033, 20.26305], [1.87061, 20.28354], [1.85501, 20.29484], [1.7992, 20.29489], [1.77811, 20.30429], [1.65915, 20.39752], [1.64923, 20.41209], [1.24547, 20.24706], [0.98456, 20.34041], [0.15086, 20.87681], [0.11424, 21.21146], [-1.01727, 21.90604], [-1.73882, 22.3587], [-2.63999, 22.91808], [-3.23788, 23.28505], [-4.33275, 23.96813], [-5.38907, 24.58119], [-5.40509, 24.99478], [-6.59311, 24.99413], [-6.73341, 25.38596], [-7.72361, 25.9765], [-8.21875, 26.27556], [-8.68108, 26.28509], [-8.68164, 26.76288], [-9.04865, 27.08993], [-9.08345, 27.08992], [-9.20747, 27.09969], [-9.35201, 27.09773], [-9.41206, 27.08796], [-9.42727, 27.08016], [-9.64573, 27.43906]]]}}, {"type": "Feature", "properties": {"name": "알제리", "name_en": "Algeria", "period": "1914년", "kind": "식민지", "level": "개별 지역", "colonizer": "프랑스령", "legend": "알제리", "map_title": "아프리카의 저항 운동", "source": "미래엔 세계사 교과서 3권 173쪽", "volume": 3, "page": 173, "coast_snap": "Natural Earth 10m 해안선에 맞춤", "border_snap": "현대 국경(Natural Earth 10m)에 맞춘 구간 약 4864 km", "group": "알제리", "map_folder": "3권_p173_아프리카의 저항 운동"}, "geometry": {"type": "MultiPolygon", "coordinates": [[[[-7.51695, 29.80526], [-7.25876, 29.46731], [-7.14693, 29.50924], [-7.07006, 29.51623], [-6.95824, 29.50924], [-6.78351, 29.44634], [-6.69965, 29.51623], [-6.82654, 29.90841], [-6.74901, 30.029], [-6.71198, 30.06049], [-6.66887, 30.08156], [-5.80345, 30.22573], [-5.1456, 30.80758], [-5.08788, 30.85372], [-5.05574, 30.86913], [-4.3171, 31.14558], [-3.84284, 31.17019], [-3.83617, 31.18978], [-3.81498, 31.22052], [-3.81292, 31.24336], [-3.81922, 31.31887], [-3.81519, 31.33716], [-3.8025, 31.35065], [-3.74747, 31.38517], [-3.67348, 31.38923], [-3.65951, 31.64782], [-3.59138, 31.67827], [-3.54874, 31.66995], [-3.51156, 31.67275], [-3.21921, 31.71771], [-3.00256, 31.77362], [-2.82784, 31.79459], [-2.93873, 32.04864], [-2.88119, 32.07629], [-2.69557, 32.08967], [-2.51615, 32.1322], [-1.24956, 32.08166], [-1.21034, 32.08967], [-1.19059, 32.12522], [-1.19561, 32.14605], [-1.21183, 32.15835], [-1.23271, 32.16372], [-1.25183, 32.16352], [-1.28899, 32.15091], [-1.30516, 32.15117], [-1.30955, 32.16744], [-1.30568, 32.17372], [-1.28299, 32.19018], [-1.27664, 32.20085], [-1.25752, 32.32085], [-1.24413, 32.35692], [-1.23416, 32.37461], [-1.21798, 32.39262], [-1.20171, 32.39986], [-1.16026, 32.40495], [-1.12316, 32.41795], [-1.08998, 32.43944], [-1.032, 32.4944], [-1.0475, 32.51701], [-1.32702, 32.69891], [-1.39053, 32.71878], [-1.42334, 32.7424], [-1.55879, 32.93365], [-1.51636, 32.95949], [-1.50298, 32.97463], [-1.49337, 33.01615], [-1.49306, 33.03948], [-1.49952, 33.06021], [-1.5714, 33.11198], [-1.59207, 33.13661], [-1.60561, 33.16803], [-1.62359, 33.19661], [-1.67423, 33.23797], [-1.68338, 33.27084], [-1.68323, 33.36923], [-1.65915, 33.41977], [-1.64039, 33.47553], [-1.6254, 33.49424], [-1.61274, 33.52147], [-1.61734, 33.55444], [-1.6624, 33.64469], [-1.67325, 33.6565], [-1.69072, 33.66733], [-1.72539, 33.67771], [-1.74074, 33.6866], [-1.74679, 33.70239], [-1.74224, 33.71776], [-1.71082, 33.74706], [-1.70322, 33.76182], [-1.7025, 33.77282], [-1.71304, 33.802], [-1.72209, 33.85117], [-1.71873, 33.89809], [-1.67212, 34.05919], [-1.66964, 34.07921], [-1.67475, 34.10596], [-1.74606, 34.29031], [-1.77133, 34.3347], [-1.80963, 34.37245], [-1.70297, 34.47968], [-1.75066, 34.49417], [-1.87112, 34.59665], [-1.86296, 34.6136], [-1.81051, 34.68073], [-1.78611, 34.72584], [-1.77314, 34.73406], [-1.76953, 34.74134], [-1.78772, 34.75669], [-1.89282, 34.81167], [-1.92672, 34.83808], [-1.97975, 34.86526], [-1.99349, 34.87885], [-2.00362, 34.91818], [-2.01628, 34.92624], [-2.06124, 34.9297], [-2.09493, 34.94769], [-2.12604, 34.97192], [-2.1633, 34.99404], [-2.19379, 35.0036], [-2.21167, 35.02345], [-2.22113, 35.04995], [-2.22256, 35.0893], [-2.2001, 35.09612], [-2.18639, 35.08869], [-2.15689, 35.10097], [-2.05236, 35.07502], [-1.9877, 35.08246], [-1.95645, 35.07502], [-1.93248, 35.08868], [-1.83869, 35.11091], [-1.81273, 35.12652], [-1.76114, 35.12962], [-1.74559, 35.13882], [-1.71279, 35.17059], [-1.63768, 35.19452], [-1.62949, 35.21222], [-1.51036, 35.29547], [-1.36954, 35.31586], [-1.33266, 35.34934], [-1.31379, 35.35375], [-1.29483, 35.36457], [-1.26773, 35.39033], [-1.24729, 35.45775], [-1.22541, 35.49128], [-1.18333, 35.57647], [-1.14802, 35.5821], [-1.117, 35.61688], [-1.05207, 35.66096], [-1.03294, 35.68259], [-0.99669, 35.6896], [-0.94649, 35.71919], [-0.92293, 35.7251], [-0.91024, 35.7243], [-0.8994, 35.71182], [-0.88756, 35.71597], [-0.84948, 35.73432], [-0.82501, 35.76853], [-0.80167, 35.7739], [-0.77717, 35.75642], [-0.7113, 35.74298], [-0.69245, 35.71931], [-0.62645, 35.72297], [-0.58934, 35.7425], [-0.57725, 35.77081], [-0.54092, 35.76777], [-0.52343, 35.77969], [-0.47704, 35.85936], [-0.47947, 35.89003], [-0.47379, 35.89125], [-0.45906, 35.88377], [-0.41804, 35.88378], [-0.34854, 35.90704], [-0.33618, 35.90082], [-0.33145, 35.88955], [-0.30192, 35.87758], [-0.29851, 35.86717], [-0.3046, 35.8535], [-0.30191, 35.84284], [-0.28555, 35.82827], [-0.25943, 35.81753], [-0.18806, 35.80523], [-0.14509, 35.79035], [-0.12389, 35.78693], [-0.08308, 35.79438], [-0.03848, 35.8133], [0.00294, 35.83804], [0.03452, 35.86327], [0.06996, 35.92182], [0.11402, 36.0102], [0.1273, 36.05076], [0.15398, 36.06501], [0.21928, 36.1164], [0.28346, 36.13443], [0.32106, 36.15888], [0.32928, 36.16498], [0.34231, 36.20595], [0.38424, 36.21793], [0.45134, 36.22321], [0.55666, 36.28407], [0.59457, 36.29316], [0.64406, 36.32883], [0.75327, 36.33861], [0.80226, 36.36358], [0.86476, 36.37739], [0.92514, 36.41816], [0.9363, 36.44359], [0.94557, 36.45233], [1.00709, 36.46686], [1.04477, 36.48687], [1.11695, 36.48713], [1.17901, 36.51093], [1.26547, 36.51533], [1.34696, 36.54503], [1.36769, 36.54791], [1.45281, 36.52802], [1.47633, 36.52896], [1.51774, 36.53874], [1.71656, 36.54792], [1.76124, 36.56158], [1.80291, 36.55536], [1.8576, 36.56744], [1.91383, 36.57021], [1.97283, 36.56159], [2.05991, 36.57014], [2.3296, 36.63726], [2.35129, 36.63832], [2.3733, 36.63385], [2.39185, 36.62425], [2.40406, 36.59919], [2.44728, 36.59056], [2.60076, 36.59634], [2.63299, 36.60513], [2.72756, 36.66522], [2.79298, 36.69294], [2.8187, 36.71088], [2.85008, 36.75423], [2.87567, 36.7748], [2.93312, 36.80857], [2.97706, 36.81585], [3.01417, 36.8117], [3.04785, 36.79498], [3.10182, 36.7519], [3.14015, 36.74164], [3.17937, 36.74283], [3.21046, 36.75739], [3.22609, 36.7862], [3.22757, 36.81234], [3.2378, 36.81304], [3.30299, 36.78876], [3.34051, 36.78071], [3.48048, 36.77725], [3.55047, 36.79145], [3.57057, 36.80857], [3.61207, 36.80858], [3.64967, 36.82396], [3.70949, 36.87319], [3.74188, 36.89117], [3.82749, 36.9129], [3.87387, 36.91721], [3.9126, 36.9116], [3.94825, 36.8933], [3.96404, 36.89118], [4.03142, 36.89777], [4.08546, 36.89207], [4.10483, 36.88373], [4.15952, 36.90419], [4.21046, 36.89118], [4.26198, 36.91159], [4.32032, 36.89802], [4.44095, 36.91157], [4.46842, 36.90587], [4.50408, 36.88931], [4.53639, 36.88857], [4.55055, 36.88373], [4.58182, 36.89493], [4.62326, 36.89636], [4.69801, 36.89118], [4.76905, 36.89801], [4.78712, 36.8954], [4.94987, 36.83978], [4.97364, 36.81891], [5.00928, 36.81606], [5.02915, 36.79499], [5.04591, 36.78852], [5.08619, 36.78083], [5.10481, 36.78131], [5.08481, 36.73261], [5.09018, 36.71678], [5.11842, 36.69937], [5.23585, 36.65095], [5.26905, 36.64411], [5.30437, 36.64301], [5.37241, 36.65095], [5.43385, 36.66522], [5.46485, 36.66523], [5.48911, 36.68512], [5.52914, 36.69766], [5.549, 36.7097], [5.56277, 36.74599], [5.59393, 36.77386], [5.65594, 36.79182], [5.67457, 36.79963], [5.71047, 36.8255], [5.73347, 36.83227], [5.7588, 36.83339], [5.82781, 36.82176], [5.86883, 36.82294], [6.03712, 36.85358], [6.19703, 36.90233], [6.23569, 36.92121], [6.25685, 36.94579], [6.25442, 36.99897], [6.26703, 37.01791], [6.33872, 37.06927], [6.3716, 37.08347], [6.41578, 37.09295], [6.46265, 37.09388], [6.50269, 37.08294], [6.54419, 37.05878], [6.54705, 37.0412], [6.57275, 37.02777], [6.58326, 36.98981], [6.59946, 36.97309], [6.61411, 36.97784], [6.67115, 36.95942], [6.82227, 36.95256], [6.86963, 36.92918], [6.88004, 36.91844], [6.87965, 36.90209], [6.90943, 36.89305], [6.94858, 36.89004], [6.9756, 36.89118], [7.06446, 36.91332], [7.0923, 36.92592], [7.13331, 36.91527], [7.15699, 36.9147], [7.17669, 36.93204], [7.23902, 36.9715], [7.25424, 36.9947], [7.25554, 37.01537], [7.21111, 37.05703], [7.18166, 37.07673], [7.18166, 37.08294], [7.22267, 37.08978], [7.27475, 37.06932], [7.2977, 37.08294], [7.33595, 37.06928], [7.36997, 37.08294], [7.38347, 37.08298], [7.40463, 37.05158], [7.43855, 37.04852], [7.45607, 37.04198], [7.49024, 37.05499], [7.58888, 36.98762], [7.63356, 36.98054], [7.66188, 36.98846], [7.67449, 36.98675], [7.69597, 36.97699], [7.71274, 36.9632], [7.77076, 36.97012], [7.79857, 36.99357], [7.77426, 36.93146], [7.79117, 36.91844], [7.77345, 36.88996], [7.80991, 36.86815], [7.86647, 36.8544], [7.90846, 36.84955], [8.04998, 36.87759], [8.09325, 36.90189], [8.23316, 36.95806], [8.26873, 36.93374], [8.2881, 36.92593], [8.35571, 36.92595], [8.37403, 36.91844], [8.38884, 36.92323], [8.42872, 36.9042], [8.49757, 36.9042], [8.60252, 36.93941], [8.60483, 36.90098], [8.60824, 36.89072], [8.64255, 36.8485], [8.64172, 36.83636], [8.62385, 36.82607], [8.5545, 36.80365], [8.52008, 36.79791], [8.48267, 36.79998], [8.44401, 36.7962], [8.41311, 36.78391], [8.4067, 36.76799], [8.44163, 36.75321], [8.46179, 36.7328], [8.45321, 36.69766], [8.43037, 36.66262], [8.40794, 36.64262], [8.28692, 36.5834], [8.22232, 36.56376], [8.19348, 36.54898], [8.16992, 36.52583], [8.16785, 36.49136], [8.20878, 36.47783], [8.2956, 36.46868], [8.34924, 36.44878], [8.35771, 36.43039], [8.35812, 36.36993], [8.3544, 36.35091], [8.30707, 36.24363], [8.30231, 36.20234], [8.31451, 36.16394], [8.31709, 36.14591], [8.29673, 36.11041], [8.27565, 36.03682], [8.27245, 35.98173], [8.24723, 35.90732], [8.24144, 35.82774], [8.24578, 35.78531], [8.25767, 35.75033], [8.30655, 35.6849], [8.32361, 35.65219], [8.33704, 35.53793], [8.33673, 35.50838], [8.30087, 35.43748], [8.29002, 35.4026], [8.28795, 35.36606], [8.29436, 35.32508], [8.3174, 35.28948], [8.35523, 35.27433], [8.39688, 35.26369], [8.4313, 35.24173], [8.42138, 35.22209], [8.36092, 35.14592], [8.31368, 35.10308], [8.30045, 35.06768], [8.28288, 34.99404], [8.25901, 34.94066], [8.24888, 34.90195], [8.25074, 34.86475], [8.26934, 34.76387], [8.26655, 34.75028], [8.22521, 34.71168], [8.21343, 34.69675], [8.21064, 34.68119], [8.23648, 34.64765], [8.22883, 34.63644], [8.19286, 34.61773], [8.17519, 34.58528], [8.16723, 34.57856], [8.14367, 34.56673], [8.09406, 34.53014], [7.99908, 34.49417], [7.95732, 34.46942], [7.87061, 34.4379], [7.83154, 34.41439], [7.81191, 34.37927], [7.77429, 34.26096], [7.76529, 34.24471], [7.75279, 34.23215], [7.73387, 34.22378], [7.67031, 34.2153], [7.63145, 34.1991], [7.60406, 34.17549], [7.57957, 34.14846], [7.51745, 34.09503], [7.50371, 34.06797], [7.50061, 33.99426], [7.47983, 33.8939], [7.4849, 33.85502], [7.49854, 33.79998], [7.50546, 33.78285], [7.5342, 33.73624], [7.54443, 33.68425], [7.55301, 33.65875], [7.69315, 33.45411], [7.70824, 33.41486], [7.70969, 33.27815], [7.72498, 33.23141], [7.75072, 33.20766], [7.78751, 33.19831], [7.83547, 33.19454], [7.87195, 33.18412], [7.98275, 33.11682], [8.00218, 33.10837], [8.02264, 33.10305], [8.04362, 33.10183], [8.0645, 33.10578], [8.08682, 33.09429], [8.28288, 32.83637], [8.29642, 32.80441], [8.31957, 32.5606], [8.33125, 32.52763], [8.35999, 32.50102], [8.48266, 32.43479], [9.01989, 32.10486], [9.03374, 32.09076], [9.04501, 32.07184], [9.47681, 30.39565], [9.35242, 30.14878], [9.28654, 30.11713], [9.31, 30.08437], [9.42173, 29.96871], [9.54968, 29.80232], [9.66771, 29.60832], [9.82615, 29.12853], [9.84827, 28.97573], [9.85126, 28.786], [9.77695, 28.26758], [9.78987, 28.20944], [9.85507, 28.05665], [9.42493, 27.89825], [9.40992, 27.86496], [9.42471, 27.83268], [9.7939, 27.56974], [9.79711, 27.54891], [9.8216, 27.50569], [9.81364, 27.48649], [9.77054, 27.44422], [9.75628, 27.42303], [9.74305, 27.36412], [9.72187, 27.30846], [9.72135, 27.29188], [9.79607, 27.05673], [9.35127, 26.93683], [9.04293, 26.71943], [9.03808, 26.70434], [9.117, 26.59999], [9.4826, 26.35255], [9.47764, 26.31555], [9.46886, 26.30103], [9.43475, 26.27199], [9.41646, 26.23225], [9.40251, 26.21618], [9.3778, 26.16895], [9.40116, 26.11339], [9.9695, 25.3954], [10.00795, 25.33143], [10.02138, 25.26802], [10.03203, 24.85634], [10.04453, 24.82962], [10.19336, 24.74994], [10.54785, 25.00607], [10.65536, 24.96667], [10.69907, 24.55612], [10.72067, 24.5523], [11.50863, 24.31381], [11.54139, 24.29751], [11.56713, 24.26684], [11.75084, 23.9242], [11.34467, 23.74045], [11.042, 23.57894], [9.88953, 22.95293], [8.73273, 22.30701], [8.03137, 21.86048], [7.31928, 21.39977], [6.39254, 20.62704], [5.43483, 19.81141], [5.40532, 19.79082], [5.37217, 19.7785], [5.44092, 19.37465], [4.23271, 19.14303], [3.43972, 18.99564], [3.35869, 18.97685], [3.31838, 18.97771], [3.2849, 18.99574], [3.22598, 19.05106], [3.1586, 19.08155], [3.12087, 19.11281], [3.10413, 19.13553], [3.10268, 19.15356], [3.12656, 19.19335], [3.13421, 19.21286], [2.76037, 19.41078], [2.74514, 19.46062], [2.74339, 19.49544], [2.74603, 19.5492], [2.83405, 19.964], [2.6718, 19.99622], [2.61692, 19.99837], [2.51481, 20.01594], [2.49538, 20.0201], [2.43988, 20.04609], [2.4004, 20.05656], [2.38872, 20.06741], [2.34821, 20.13764], [2.31648, 20.18016], [2.27958, 20.21794], [2.21819, 20.26409], [2.20083, 20.27391], [2.18243, 20.2785], [2.16135, 20.27494], [2.1382, 20.26073], [2.09747, 20.22419], [2.07122, 20.21326], [2.05634, 20.21505], [1.9934, 20.23595], [1.96715, 20.25342], [1.95526, 20.25492], [1.9412, 20.25112], [1.92425, 20.23613], [1.9134, 20.23109], [1.89139, 20.23179], [1.88384, 20.24414], [1.88033, 20.26305], [1.87061, 20.28354], [1.85501, 20.29484], [1.7992, 20.29489], [1.77811, 20.30429], [1.65915, 20.39752], [1.64923, 20.41209], [1.65006, 20.48702], [1.64396, 20.52268], [1.6237, 20.55125], [1.55973, 20.5975], [1.52035, 20.61699], [1.48345, 20.62262], [1.46578, 20.63352], [1.40718, 20.64505], [1.36398, 20.65771], [1.34692, 20.66913], [1.33153, 20.68794], [1.31054, 20.72272], [1.2967, 20.73346], [1.27334, 20.73941], [1.25225, 20.73899], [1.21246, 20.73088], [1.19128, 20.73057], [1.16854, 20.73346], [1.15458, 20.73879], [1.14725, 20.75145], [1.14528, 20.79589], [1.1675, 20.88601], [1.18011, 20.99531], [1.17794, 21.01732], [1.15934, 21.08151], [1.14652, 21.10171], [-4.51603, 24.80399], [-5.51596, 25.42326], [-8.63996, 27.26051], [-8.60931, 27.33438], [-8.72923, 27.4009], [-8.78641, 27.42089], [-8.77339, 27.46003], [-8.78362, 27.53036], [-8.81292, 27.61335], [-8.81845, 27.6594], [-8.68238, 27.83718], [-8.68238, 28.6659], [-8.67877, 28.69282], [-8.66761, 28.71169], [-8.64885, 28.72595], [-8.52082, 28.78708], [-8.47584, 28.81876], [-8.43041, 28.84101], [-8.4178, 28.85235], [-8.38349, 28.90578], [-8.36845, 28.91653], [-8.31677, 28.93906], [-8.25047, 28.99477], [-8.18231, 29.03554], [-8.06966, 29.07934], [-8.03633, 29.09985], [-7.94501, 29.17623], [-7.83913, 29.23904], [-7.778, 29.28932], [-7.72999, 29.31116], [-7.71467, 29.32183], [-7.65361, 29.37619], [-7.61945, 29.38942], [-7.60566, 29.38889], [-7.56918, 29.7958], [-7.51695, 29.80526]]], [[[-2.4288, 35.14674], [-2.41648, 35.14907], [-2.32144, 35.11884], [-2.27552, 35.10963], [-2.22256, 35.0893], [-2.42933, 35.13089], [-2.4288, 35.14674]]], [[[8.67268, 36.96288], [8.71682, 36.97309], [8.76364, 36.9731], [8.60338, 36.93969], [8.67268, 36.96288]]], [[[8.88527, 37.01487], [8.89275, 36.99984], [8.83752, 36.98842], [8.86574, 37.00763], [8.88527, 37.01487]]]]}}]}