{"type": "FeatureCollection", "features": [{"type": "Feature", "properties": {"map_title": "파르티아와 사산 왕조 페르시아의 영역", "source": "미래엔 세계사 교과서 1권 41쪽", "volume": 1, "page": 41, "name": "크테시폰", "name_en": "Ctesiphon", "category": "수도", "year": null, "coord_source": "실제 위치", "map_lon": 44.58, "map_lat": 33.09005, "legend": "크테시폰"}, "geometry": {"type": "Point", "coordinates": [44.58, 33.09]}}, {"type": "Feature", "properties": {"map_title": "파르티아와 사산 왕조 페르시아의 영역", "source": "미래엔 세계사 교과서 1권 41쪽", "volume": 1, "page": 41, "name": "콘스탄티노폴리스", "name_en": "Constantinople", "category": "수도", "year": null, "coord_source": "실제 위치", "map_lon": 28.98002, "map_lat": 41.00993, "legend": "콘스탄티노폴리스"}, "geometry": {"type": "Point", "coordinates": [28.98, 41.01]}}, {"type": "Feature", "properties": {"map_title": "파르티아와 사산 왕조 페르시아의 영역", "source": "미래엔 세계사 교과서 1권 41쪽", "volume": 1, "page": 41, "name": "안티오크", "name_en": "Antioch", "category": "도시", "year": null, "coord_source": "실제 위치", "map_lon": 36.16045, "map_lat": 36.20006, "legend": "안티오크"}, "geometry": {"type": "Point", "coordinates": [36.16, 36.2]}}, {"type": "Feature", "properties": {"map_title": "파르티아와 사산 왕조 페르시아의 영역", "source": "미래엔 세계사 교과서 1권 41쪽", "volume": 1, "page": 41, "name": "다마스쿠스", "name_en": "Damascus", "category": "도시", "year": null, "coord_source": "실제 위치", "map_lon": 36.29026, "map_lat": 33.51012, "legend": "다마스쿠스"}, "geometry": {"type": "Point", "coordinates": [36.29, 33.51]}}, {"type": "Feature", "properties": {"map_title": "파르티아와 사산 왕조 페르시아의 영역", "source": "미래엔 세계사 교과서 1권 41쪽", "volume": 1, "page": 41, "name": "예루살렘", "name_en": "Jerusalem", "category": "도시", "year": null, "coord_source": "실제 위치", "map_lon": 35.23025, "map_lat": 31.78008, "legend": "예루살렘"}, "geometry": {"type": "Point", "coordinates": [35.23, 31.78]}}, {"type": "Feature", "properties": {"map_title": "파르티아와 사산 왕조 페르시아의 영역", "source": "미래엔 세계사 교과서 1권 41쪽", "volume": 1, "page": 41, "name": "알렉산드리아", "name_en": "Alexandria", "category": "도시", "year": null, "coord_source": "실제 위치", "map_lon": 29.92058, "map_lat": 31.1995, "legend": "알렉산드리아"}, "geometry": {"type": "Point", "coordinates": [29.92, 31.2]}}, {"type": "Feature", "properties": {"map_title": "파르티아와 사산 왕조 페르시아의 영역", "source": "미래엔 세계사 교과서 1권 41쪽", "volume": 1, "page": 41, "name": "수사", "name_en": "Susa", "category": "도시", "year": null, "coord_source": "실제 위치", "map_lon": 48.25005, "map_lat": 32.18972, "legend": "수사"}, "geometry": {"type": "Point", "coordinates": [48.25, 32.19]}}, {"type": "Feature", "properties": {"map_title": "파르티아와 사산 왕조 페르시아의 영역", "source": "미래엔 세계사 교과서 1권 41쪽", "volume": 1, "page": 41, "name": "페르세폴리스", "name_en": "Persepolis", "category": "유적", "year": null, "coord_source": "실제 위치", "map_lon": 52.89018, "map_lat": 29.92984, "legend": "페르세폴리스"}, "geometry": {"type": "Point", "coordinates": [52.89, 29.93]}}, {"type": "Feature", "properties": {"map_title": "파르티아와 사산 왕조 페르시아의 영역", "source": "미래엔 세계사 교과서 1권 41쪽", "volume": 1, "page": 41, "name": "호르무즈", "name_en": "Hormuz", "category": "항구", "year": null, "coord_source": "실제 위치", "map_lon": 56.45969, "map_lat": 27.07974, "legend": "호르무즈"}, "geometry": {"type": "Point", "coordinates": [56.46, 27.08]}}]}