{"type": "FeatureCollection", "features": [{"type": "Feature", "properties": {"name": "프로이센·오스트리아 전쟁 진격로(1)", "category": "진격로", "period": "1866년", "legend": "프로이센·오스트리아 전쟁(1866)", "map_title": "독일의 통일 과정", "source": "미래엔 세계사 교과서 3권 146쪽", "volume": 3, "page": 146}, "geometry": {"type": "LineString", "coordinates": [[11.90053, 52.19773], [11.84433, 52.01713], [11.77884, 51.83175], [11.70217, 51.64359], [11.61201, 51.45489], [11.50585, 51.26791], [11.38102, 51.08495], [11.23474, 50.90822], [11.06412, 50.73989], [10.99734, 50.68636], [10.92347, 50.63683], [10.84409, 50.59062], [10.76085, 50.54703], [10.50515, 50.42481], [10.15852, 50.25261], [10.01936, 50.19388], [9.94749, 50.16802], [9.87212, 50.14565]]}}, {"type": "Feature", "properties": {"name": "프로이센·오스트리아 전쟁 진격로(2)", "category": "진격로", "period": "1866년", "legend": "프로이센·오스트리아 전쟁(1866)", "map_title": "독일의 통일 과정", "source": "미래엔 세계사 교과서 3권 146쪽", "volume": 3, "page": 146}, "geometry": {"type": "LineString", "coordinates": [[12.72556, 52.37184], [12.70198, 52.28642], [12.68322, 52.19936], [12.67012, 52.11096], [12.66346, 52.02156], [12.66405, 51.93148], [12.67265, 51.84103], [12.69002, 51.75052], [12.7169, 51.66023], [12.75583, 51.56806], [12.80524, 51.47786], [12.8631, 51.38913], [12.99622, 51.2138], [13.21038, 50.94815], [13.27309, 50.86172], [13.33028, 50.77286], [13.38225, 50.68166], [13.4293, 50.58821], [13.47171, 50.49259], [13.50978, 50.3949], [13.54381, 50.29521], [13.57409, 50.19359], [13.57218, 50.19218]]}}, {"type": "Feature", "properties": {"name": "프로이센·프랑스 전쟁 진격로(1)", "category": "진격로", "period": "1870~1871년", "legend": "프로이센·프랑스 전쟁(1870~1871)", "map_title": "독일의 통일 과정", "source": "미래엔 세계사 교과서 3권 146쪽", "volume": 3, "page": 146}, "geometry": {"type": "LineString", "coordinates": [[8.40384, 49.73813], [8.05478, 49.45926], [7.82338, 49.28875], [7.58863, 49.1328], [7.46868, 49.06068], [7.36975, 49.00628], [7.25705, 48.95007], [7.13327, 48.89415], [7.00084, 48.84045], [6.86197, 48.7908], [6.71885, 48.7469], [6.57367, 48.71046], [6.42677, 48.68436]]}}, {"type": "Feature", "properties": {"name": "프로이센·프랑스 전쟁 진격로(2)", "category": "진격로", "period": "1870~1871년", "legend": "프로이센·프랑스 전쟁(1870~1871)", "map_title": "독일의 통일 과정", "source": "미래엔 세계사 교과서 3권 146쪽", "volume": 3, "page": 146}, "geometry": {"type": "LineString", "coordinates": [[8.50067, 49.48035], [8.35238, 49.40152], [8.20514, 49.31125], [8.06164, 49.21377], [7.87992, 49.07962], [7.386, 48.69713], [7.32455, 48.63644], [7.26705, 48.57078], [7.05785, 48.29465], [7.00615, 48.23093], [7.00265, 48.23239]]}}, {"type": "Feature", "properties": {"name": "1871년 성립한 독일 제국의 경계", "category": "경계선", "period": "1871년", "legend": "1871년 성립한 독일 제국의 경계", "map_title": "독일의 통일 과정", "source": "미래엔 세계사 교과서 3권 146쪽", "volume": 3, "page": 146}, "geometry": {"type": "MultiLineString", "coordinates": [[[14.33177, 50.86524], [14.37467, 50.80373], [14.4247, 50.69794], [14.45082, 50.66612], [14.48639, 50.64195], [14.52742, 50.62438], [14.5699, 50.61235], [14.64334, 50.6007], [14.73819, 50.59534], [14.78599, 50.58465], [14.82046, 50.569], [14.84378, 50.55081], [14.85813, 50.53247], [14.86917, 50.50065], [14.89845, 50.47593], [14.92971, 50.45955], [14.96116, 50.44997], [14.99095, 50.44561], [15.01729, 50.44495], [15.05742, 50.44941], [15.10126, 50.4403], [15.14219, 50.42601], [15.17929, 50.40851], [15.23847, 50.3717], [15.31242, 50.30924], [15.32363, 50.27837], [15.31597, 50.24996], [15.29569, 50.22481], [15.26909, 50.20379], [15.21358, 50.1738], [15.18745, 50.13714], [15.19563, 50.0997], [15.22857, 50.06323], [15.27681, 50.02945], [15.38129, 49.97687], [15.48262, 49.93512], [15.51503, 49.91255], [15.53353, 49.88979], [15.54138, 49.86816], [15.54183, 49.84902], [15.53128, 49.81983], [15.53841, 49.71017], [15.55518, 49.67237], [15.5853, 49.65455], [15.62397, 49.65209], [15.66643, 49.6604], [15.70791, 49.67483], [15.77805, 49.70908], [15.8164, 49.73488], [15.84109, 49.7601], [15.8547, 49.78387], [15.85989, 49.8053], [15.85929, 49.82352], [15.85557, 49.83762], [15.81692, 49.92427], [15.79432, 49.96511], [15.79167, 50.00363], [15.83743, 50.02824], [15.91158, 50.00772], [16.00536, 49.92924], [16.08495, 49.88571], [16.14586, 49.86046], [16.21011, 49.84551], [16.2529, 49.84482], [16.3424, 49.86445], [16.38874, 49.86868], [16.44689, 49.86483], [16.48937, 49.85392], [16.53901, 49.81902], [16.5741, 49.77093], [16.56191, 49.69685], [16.49373, 49.64798], [16.47987, 49.61672], [16.4756, 49.59051], [16.47852, 49.5691], [16.48623, 49.5522], [16.50654, 49.53084], [16.92142, 49.20276], [16.96024, 49.18134], [17.00608, 49.17718], [17.05528, 49.18583], [17.10412, 49.20285], [17.14884, 49.22379], [17.21972, 49.26589], [17.27871, 49.28147], [17.32998, 49.29031], [17.40904, 49.29353], [17.43675, 49.29079], [17.51862, 49.27321], [17.55553, 49.27269], [17.58406, 49.27854], [17.60519, 49.28846], [17.6199, 49.30016], [17.63542, 49.32304], [17.65648, 49.3346], [17.67604, 49.34043], [17.70903, 49.34008], [17.73926, 49.32742], [17.77881, 49.32492], [17.81231, 49.32916], [17.84, 49.33817], [17.86211, 49.34997], [17.89059, 49.37405], [17.93958, 49.43678], [17.94313, 49.49201], [17.91979, 49.54789], [17.87919, 49.60108], [17.83095, 49.64823], [17.78469, 49.68601], [17.73626, 49.7202], [17.71166, 49.7467], [17.69787, 49.77514], [17.69258, 49.80382], [17.69347, 49.83106], [17.69822, 49.85518], [17.71, 49.88729], [17.8009, 50.05611], [17.81086, 50.10631], [17.80448, 50.14914], [17.78636, 50.18481], [17.76114, 50.21354], [17.73345, 50.23551], [17.70796, 50.25096], [17.68202, 50.26307], [17.58983, 50.29211], [17.53026, 50.31766], [17.46688, 50.35338], [17.44524, 50.3991], [17.44361, 50.49649], [17.45047, 50.54768], [17.39131, 50.61008], [17.33268, 50.63398], [17.26661, 50.64892], [17.22262, 50.67715], [16.95161, 50.95882], [16.9194, 51.00657], [16.9058, 51.04466], [16.90282, 51.06981], [16.92038, 51.11178], [16.926, 51.14735], [16.92262, 51.17675], [16.9132, 51.20026], [16.9007, 51.2181], [16.87447, 51.2402], [16.86259, 51.26046], [16.85922, 51.28365], [16.86225, 51.30805], [16.87894, 51.35344], [16.92232, 51.42811], [16.9314, 51.46639], [16.92927, 51.50108], [16.91949, 51.53135], [16.90567, 51.55632], [16.89138, 51.57518], [16.83874, 51.6287], [16.81552, 51.66033], [16.80324, 51.68644], [16.7992, 51.70728], [16.80069, 51.7231], [16.81174, 51.74271], [16.82262, 51.78512], [16.8218, 51.82472], [16.81245, 51.86062], [16.79776, 51.89191], [16.7809, 51.91772], [16.74853, 51.9538], [16.7206, 51.99119], [16.70688, 52.02323], [16.70407, 52.05006], [16.70892, 52.07182], [16.72885, 52.10052], [16.77168, 52.137], [16.7991, 52.16779], [16.84346, 52.23158], [16.88192, 52.30435], [16.92035, 52.34706], [16.96151, 52.37296], [17.00302, 52.38544], [17.04248, 52.38791], [17.0775, 52.38378], [17.13109, 52.36651], [17.1876, 52.36838], [17.23849, 52.3814], [17.28317, 52.4021], [17.32105, 52.42695], [17.35155, 52.45241], [17.39277, 52.49727], [17.45778, 52.55413], [17.5148, 52.61452], [17.56369, 52.67501], [17.63627, 52.78255], [17.69618, 52.89232], [17.71729, 52.91745], [17.7399, 52.93557], [17.7623, 52.94781], [17.79955, 52.95926], [17.89235, 52.95792], [17.92504, 52.96129], [17.97572, 52.97242], [18.00315, 52.98217], [18.24141, 53.08871], [18.27983, 53.10019], [18.31293, 53.10408], [18.3407, 53.10231], [18.3632, 53.09674], [18.3805, 53.0892], [18.42674, 53.06021], [18.4506, 53.05322], [18.47309, 53.05093], [18.51064, 53.05512], [18.59131, 53.07716], [18.6396, 53.08435], [18.71384, 53.08537], [18.7581, 53.0779], [18.77271, 53.07297], [18.83151, 53.03193], [18.84843, 52.99056], [18.86856, 52.96764], [18.90162, 52.95854], [18.9429, 52.95999], [18.98773, 52.96863], [19.03132, 52.98113], [19.10484, 53.00856], [19.16503, 53.02537], [19.21397, 53.02764], [19.25243, 53.01916], [19.28144, 53.00371], [19.30206, 52.98506], [19.32488, 52.94792], [19.3832, 52.92982], [19.43124, 52.92736], [19.46989, 52.93648], [19.49996, 52.95306], [19.52224, 52.97301], [19.54881, 53.01248], [19.58059, 53.04122], [19.6166, 53.06621], [19.65426, 53.08745], [19.75086, 53.12848], [19.86843, 53.16113], [19.93767, 53.17203], [19.98643, 53.17227], [20.01822, 53.16506], [20.03669, 53.15367], [20.04547, 53.14142], [20.04823, 53.12761], [20.10761, 53.09928], [20.1643, 53.08782], [20.21667, 53.08929], [20.26319, 53.09966], [20.30227, 53.11484], [20.35845, 53.1484], [20.54061, 53.22954], [20.63555, 53.26445], [20.71676, 53.28599], [20.78443, 53.29677], [20.83894, 53.29948], [20.88069, 53.29681], [20.91008, 53.29149], [21.09736, 53.24107], [21.18072, 53.2338], [21.25278, 53.2339], [21.31361, 53.23943], [21.36328, 53.24843], [21.42931, 53.26885], [21.68407, 53.39602], [21.74348, 53.42349], [21.79726, 53.44313], [21.88509, 53.46401], [21.96226, 53.46832], [22.23998, 53.51988], [22.30646, 53.53813], [22.35527, 53.56302], [22.38916, 53.59177], [22.41086, 53.62157], [22.4231, 53.64962], [22.42855, 53.6731], [22.42974, 53.69524], [22.41578, 53.77138], [22.36119, 53.84567], [22.31675, 53.91876], [22.30992, 53.95308], [22.32576, 53.98455], [22.35744, 54.01265], [22.39821, 54.03681], [22.4414, 54.0565], [22.51951, 54.08355], [22.58181, 54.11246], [22.62387, 54.14009], [22.64942, 54.16563], [22.66218, 54.18833], [22.66579, 54.20736], [22.64321, 54.30287], [22.59541, 54.41391], [22.59125, 54.4498], [22.59454, 54.49663], [22.6029, 54.54945], [22.64729, 54.73413], [22.65441, 54.82778], [22.63842, 54.90307], [22.60661, 54.96191], [22.56598, 55.00613], [22.52323, 55.0375], [22.48488, 55.0578], [22.44669, 55.07202], [22.33342, 55.12654], [21.94424, 55.25557], [21.90589, 55.26983], [21.84572, 55.30413], [21.80637, 55.33728], [21.78453, 55.36203], [21.7215, 55.49099], [21.66227, 55.56804], [21.60159, 55.63844], [21.51752, 55.71555], [21.48081, 55.73659], [21.4024, 55.77779], [21.35509, 55.79665], [21.24679, 55.82899], [21.13183, 55.85104], [21.02667, 55.85913]], [[14.34076, 50.78854], [14.21131, 50.76352], [14.1608, 50.7449], [14.11601, 50.71451], [14.09626, 50.69245], [14.07644, 50.65865], [14.0407, 50.62279], [14.00975, 50.60422], [13.97019, 50.5924], [13.92205, 50.59278], [13.86535, 50.61075], [13.80015, 50.65163], [13.77444, 50.69936], [13.75447, 50.72094], [13.72877, 50.73568], [13.69729, 50.73781], [13.66004, 50.72149], [13.61718, 50.68087], [13.49458, 50.67142], [13.44974, 50.67499], [13.42129, 50.67157], [13.39011, 50.66197], [13.35865, 50.64386], [13.32941, 50.61491], [13.29779, 50.5645], [13.26828, 50.5451], [13.24132, 50.53375], [13.15534, 50.51274], [13.09322, 50.50503], [13.05465, 50.50815], [13.02904, 50.5049], [12.9998, 50.49596], [12.96861, 50.4792], [12.9372, 50.45249], [12.90731, 50.41367], [12.76055, 50.40368], [12.70858, 50.30074], [12.69755, 50.26058], [12.68614, 50.2372], [12.66906, 50.21375], [12.64522, 50.19317], [12.61346, 50.17846], [12.57261, 50.17257], [12.48676, 50.16795], [12.40195, 50.19482], [12.32804, 50.21061], [12.23006, 50.19645], [12.13951, 50.08673], [12.11845, 50.07099], [12.09463, 50.05848], [12.06891, 50.04986], [12.04214, 50.04583], [12.01519, 50.04704], [11.98891, 50.05414], [11.9642, 50.06781], [11.92226, 50.09984], [11.89442, 50.1114], [11.8803, 50.11036], [11.86594, 50.10302], [11.85129, 50.08807], [11.84243, 50.06172], [11.84986, 50.03116], [11.86962, 49.9979], [11.89765, 49.96343], [12.01282, 49.84377], [12.0517, 49.79095], [12.08418, 49.73706], [12.10425, 49.68161], [12.10778, 49.65314], [12.103, 49.58225], [12.10849, 49.55024], [12.12123, 49.52547], [12.14004, 49.50533], [12.22126, 49.44664], [12.269, 49.4019], [12.31153, 49.34633], [12.35914, 49.26753], [12.38432, 49.23201], [12.41189, 49.207], [12.44136, 49.18965], [12.53664, 49.1553], [12.5692, 49.1403], [12.60142, 49.11879], [12.63736, 49.08538], [12.66851, 49.04839], [12.69617, 49.00878], [12.79825, 48.84389], [12.82804, 48.80599], [12.85451, 48.78068], [12.88403, 48.76], [12.97903, 48.70922], [13.00894, 48.69053], [13.03604, 48.66825], [13.12286, 48.55585], [13.26014, 48.39695], [13.28649, 48.34909], [13.33404, 48.22419], [13.41289, 48.07634], [13.4363, 48.02542], [13.44439, 47.97818], [13.42622, 47.94879], [13.38846, 47.93396], [13.33775, 47.93047], [13.28071, 47.93513], [13.22399, 47.94487], [13.1136, 47.97376], [13.09411, 47.97528], [13.07848, 47.97248], [13.06544, 47.96608], [13.01346, 47.91847], [13.0002, 47.90472], [12.99145, 47.88937], [12.98332, 47.85514], [12.97498, 47.78107], [12.95945, 47.74742], [12.93619, 47.7215], [12.87802, 47.67707], [12.85479, 47.66419], [12.82998, 47.65875], [12.75373, 47.66048], [12.73023, 47.65814], [12.70898, 47.64988], [12.66821, 47.61288], [12.60123, 47.58905], [12.58797, 47.58175], [12.57035, 47.56419], [12.54627, 47.52801], [12.56283, 47.48392], [12.68885, 47.37279], [12.73179, 47.2985], [12.74538, 47.2468], [12.74888, 47.20871], [12.74116, 47.18123], [12.7034, 47.12751], [12.6895, 47.09693], [12.68727, 47.07857], [12.68913, 47.05935], [12.69472, 47.04406], [12.71505, 47.02208], [12.7781, 46.99024], [12.80293, 46.97461], [12.82254, 46.95682], [12.84992, 46.91568], [12.8842, 46.8179], [12.86421, 46.71747], [12.80379, 46.59436], [12.73563, 46.53278], [12.71082, 46.52502], [12.69719, 46.52785], [12.66971, 46.54465], [12.6094, 46.60381], [12.5316, 46.66897], [12.49497, 46.7078], [12.48163, 46.72752], [12.47328, 46.74694], [12.47172, 46.76553], [12.49186, 46.85393], [12.49152, 46.87549], [12.48422, 46.89524], [12.46756, 46.91241], [12.45246, 46.91965], [12.44109, 46.91848], [12.40609, 46.8806], [12.39323, 46.87557], [12.37603, 46.87745], [12.36167, 46.88598], [12.33514, 46.92068], [12.30824, 46.94218], [12.25961, 46.96711], [12.21086, 46.98123], [12.15794, 46.98806], [12.13106, 46.98844], [12.08014, 46.98184], [12.05757, 46.97429], [12.02434, 46.95208], [11.97434, 46.87906], [11.94998, 46.85415], [11.92164, 46.83846], [11.88961, 46.82854], [11.81809, 46.82205], [11.67026, 46.83446], [11.53649, 46.76395], [11.45252, 46.73282], [11.28029, 46.7144], [11.19629, 46.7688], [11.10377, 46.8027], [11.07275, 46.79854], [11.03412, 46.76393], [10.95982, 46.767], [10.84341, 46.81874], [10.69444, 46.89005], [10.65323, 46.90123], [10.6237, 46.90045], [10.60307, 46.88971], [10.58849, 46.87101], [10.55284, 46.7873], [10.53486, 46.76188], [10.51205, 46.74092], [10.47957, 46.72362], [10.43707, 46.71674], [10.3841, 46.7269], [10.3201, 46.76069], [10.13366, 46.92355], [10.07805, 46.96521], [10.01452, 47.00694], [9.94479, 47.04536], [9.80276, 47.10833], [9.73745, 47.14483], [9.422, 47.35324], [9.356, 47.38941], [9.29809, 47.41521], [9.24295, 47.43368], [9.19011, 47.44599], [9.08933, 47.45685], [8.88426, 47.45798], [8.82829, 47.46594], [8.77347, 47.47966], [8.71884, 47.49891], [8.60628, 47.5533], [8.42492, 47.66319], [8.34506, 47.70436], [8.28918, 47.72409], [8.18731, 47.74565], [8.16253, 47.74598], [8.15611, 47.74309], [8.15173, 47.73521], [8.15123, 47.72619], [8.15412, 47.71645], [8.16827, 47.69657], [8.20343, 47.67227], [8.21392, 47.64172], [8.19894, 47.62108], [8.16506, 47.60853], [8.11876, 47.60222], [8.06648, 47.6003], [7.93817, 47.60298], [7.87616, 47.59937], [7.82605, 47.58843], [7.77411, 47.56807], [7.73672, 47.56142], [7.69561, 47.56472], [7.64867, 47.5783], [7.62229, 47.58906], [7.56058, 47.70121], [7.39054, 47.98005], [7.33525, 48.08282], [7.31629, 48.12698], [7.29087, 48.20936], [7.27814, 48.28843], [7.27139, 48.39921], [7.26155, 48.44064], [7.22821, 48.51039], [7.19279, 48.56658], [7.15043, 48.62088], [7.10112, 48.67286], [7.04485, 48.72208], [6.98166, 48.7681], [6.91157, 48.81048], [6.83465, 48.84881], [6.67425, 48.92025], [6.59816, 48.93284], [6.54434, 48.94917], [6.47966, 48.97559], [6.40607, 49.01447], [6.3255, 49.06819], [6.23988, 49.13911], [6.04119, 49.33194], [5.97103, 49.43535], [5.71735, 49.65878], [5.69085, 49.69336], [5.67009, 49.72744], [5.65527, 49.76465], [5.65457, 49.79902], [5.67622, 49.82466], [5.72859, 49.83566], [5.82032, 49.8259], [5.9393, 49.83319], [6.01503, 49.83331], [6.09817, 49.8287], [6.18209, 49.81708], [6.25992, 49.7962], [6.32464, 49.76381], [6.38869, 49.81022], [6.38831, 49.84262], [6.38239, 49.86698], [6.37003, 49.89758], [6.34911, 49.934], [6.31749, 49.97584], [6.27302, 50.02261], [5.74565, 50.35805], [5.65136, 50.43295], [5.61114, 50.47517], [5.58363, 50.51775], [5.5661, 50.5863], [5.5596, 50.62746], [5.56301, 50.67845], [5.57163, 50.70709], [5.56668, 50.73276], [5.54541, 50.76927], [5.49771, 50.82279], [5.46356, 50.86739], [5.42585, 50.92764], [5.41079, 50.96022], [5.40195, 50.99159], [5.40082, 51.07094], [5.3812, 51.11337], [5.35281, 51.15282], [5.30862, 51.19195], [5.1899, 51.2376], [5.14226, 51.26816], [5.12342, 51.28894], [5.1149, 51.31273], [5.12218, 51.33925], [5.17318, 51.39174], [5.20438, 51.41209], [5.25257, 51.42981], [5.26501, 51.44763], [5.29075, 51.49327], [5.30307, 51.52281], [5.31182, 51.55478], [5.31439, 51.58755], [5.30134, 51.63728], [5.26813, 51.69912], [5.19026, 51.81856], [5.02728, 52.05209], [5.00409, 52.0946], [4.98707, 52.14515], [4.98481, 52.19832], [5.0054, 52.24834], [5.05668, 52.28919], [5.14664, 52.31439], [5.23101, 52.3184], [5.30529, 52.31488], [5.34098, 52.30946], [5.40949, 52.29123], [5.431, 52.28965], [5.45214, 52.29262], [5.47004, 52.30238], [5.48196, 52.32122], [5.48541, 52.35139], [5.49484, 52.36635], [5.52792, 52.39979], [5.55553, 52.41806], [5.59151, 52.43444], [5.63641, 52.44678], [5.91465, 52.47143], [5.92872, 52.47828], [5.94506, 52.49154], [5.9631, 52.51313], [5.98261, 52.54488], [6.00373, 52.58847], [6.05325, 52.6247], [6.08752, 52.64542], [6.12782, 52.66587], [6.17209, 52.68342], [6.2182, 52.69558], [6.26394, 52.69994], [6.31216, 52.69336], [6.33512, 52.70422], [6.36074, 52.7271], [6.37134, 52.74444], [6.37825, 52.76621], [6.3799, 52.79272], [6.3576, 52.81749], [6.32041, 52.85001], [6.26747, 52.88268], [6.22782, 52.90047], [6.18678, 52.93097], [6.16562, 52.95254], [6.15222, 52.97559], [6.15258, 52.99825], [6.17262, 53.01877], [6.27896, 53.05337], [6.43874, 53.08772], [6.50755, 53.09787], [6.73833, 53.1231], [6.78806, 53.13909], [6.82285, 53.15772], [6.83626, 53.16939], [6.86393, 53.17872], [7.0753, 53.22711], [7.09518, 53.23408], [7.15221, 53.26365], [7.19249, 53.27149]], [[8.71374, 54.47217], [8.7087, 54.51058], [8.71269, 54.528], [8.72824, 54.54101], [8.77403, 54.56237], [8.78318, 54.57315], [8.78417, 54.58474], [8.77881, 54.59756], [8.72941, 54.66857], [8.72406, 54.68252], [8.71537, 54.7291], [8.69865, 54.76161], [8.6829, 54.77729], [8.66065, 54.79209], [8.63616, 54.80144], [8.61971, 54.7991], [8.60918, 54.78794], [8.60307, 54.77066], [8.60057, 54.72806], [8.60294, 54.70772], [8.62769, 54.61159], [8.65037, 54.54293], [8.6665, 54.5123], [8.68726, 54.48788], [8.71374, 54.47217]], [[8.83495, 54.30639], [8.83181, 54.27628], [8.84669, 54.25512], [8.87375, 54.24289], [8.90769, 54.23927], [8.94422, 54.24371], [8.97437, 54.25627], [8.98865, 54.27697], [8.97984, 54.30567], [8.96466, 54.32054], [8.94469, 54.33034], [8.9221, 54.33556], [8.89899, 54.33661], [8.87716, 54.33385], [8.85824, 54.32759], [8.84369, 54.31828], [8.83495, 54.30639]], [[21.05905, 55.85778], [21.09924, 55.71334], [21.17403, 55.58934], [21.22336, 55.48336], [21.26879, 55.35311], [21.31458, 55.20322], [21.31558, 55.1826], [21.31139, 55.17634], [21.25782, 55.14169], [21.22855, 55.11772], [21.21078, 55.09498], [21.20632, 55.08321], [21.20645, 55.0571], [21.23744, 54.97578], [21.23836, 54.95726], [21.23133, 54.93988], [21.2139, 54.92323], [21.18362, 54.90692], [21.10342, 54.88142], [21.03197, 54.87084], [20.96011, 54.86891], [20.858, 54.87831], [20.79335, 54.91104], [20.67346, 54.91584], [20.65082, 54.9196], [20.63914, 54.92708], [20.64241, 54.93956], [20.66435, 54.95817], [20.87117, 55.08412], [20.94736, 55.13843], [20.9941, 55.17842], [21.06764, 55.21992], [21.09235, 55.23842], [21.12229, 55.28129], [21.14166, 55.31614], [21.15816, 55.35343], [21.16778, 55.38843], [21.16691, 55.41629], [21.15224, 55.432], [21.12035, 55.43056], [21.11068, 55.42565], [21.10054, 55.4082], [21.09904, 55.36071], [21.09511, 55.34141], [21.07681, 55.30905], [21.0473, 55.28076], [20.98852, 55.23435], [20.87371, 55.13524], [20.79545, 55.08333], [20.55096, 54.96673], [20.50654, 54.94882], [20.46443, 54.93684], [20.38429, 54.9267], [20.15743, 54.92933], [19.99269, 54.93852], [19.9706, 54.93294], [19.95266, 54.9157], [19.94809, 54.89982], [19.95294, 54.8873], [20.01161, 54.84578], [20.02244, 54.83044], [20.02937, 54.7991], [20.02344, 54.77049], [20.00815, 54.74339], [19.96251, 54.69007], [19.80671, 54.5416], [19.7399, 54.48798], [19.70189, 54.46352], [19.65591, 54.43969], [19.59744, 54.4159], [19.52117, 54.39176], [19.27684, 54.32181], [19.20743, 54.30581], [19.14077, 54.29533], [19.07421, 54.29161], [19.00522, 54.29656], [18.93206, 54.31329], [18.95882, 54.31892], [19.02512, 54.34025], [18.60313, 54.41713], [18.55231, 54.43018], [18.49938, 54.44847], [18.39867, 54.49256], [18.29845, 54.54619], [18.2527, 54.57577], [18.21168, 54.60695], [18.17667, 54.63971], [18.1488, 54.674], [18.13964, 54.69299], [18.13684, 54.71213], [18.13864, 54.7312], [18.15761, 54.7994], [18.15701, 54.81233], [18.14535, 54.83786], [18.15803, 54.84006], [18.20978, 54.83726], [18.2801, 54.82371], [18.34545, 54.79504], [18.4292, 54.74876], [18.4726, 54.72889], [18.51481, 54.71758], [18.55449, 54.71874], [18.56428, 54.72816], [18.55297, 54.74426], [18.52562, 54.76345], [18.48772, 54.78251], [18.40382, 54.81114], [18.34669, 54.82361], [18.24609, 54.8401], [18.16986, 54.84554], [18.09861, 54.84421], [18.0255, 54.83734], [17.66685, 54.78192], [17.54982, 54.75887], [17.32021, 54.69713], [17.04219, 54.63647], [16.72236, 54.53581], [16.53863, 54.50217], [16.50558, 54.4914], [16.4531, 54.46624], [16.4326, 54.45128], [16.36506, 54.38027], [16.33136, 54.35089], [16.25199, 54.29705], [16.21151, 54.27543], [16.15165, 54.25026], [16.02486, 54.21285], [15.96157, 54.1981], [15.9105, 54.19028], [15.73218, 54.18341], [15.62633, 54.16535], [15.42207, 54.11699], [15.08227, 54.04407], [14.91503, 54.00224], [14.70097, 53.96244], [14.64809, 53.94455], [14.55577, 53.90371], [14.53045, 53.89671], [14.50238, 53.89277], [14.48621, 53.89395], [14.36744, 53.92629], [14.33114, 53.9279], [14.32324, 53.92343], [14.31796, 53.906], [14.32299, 53.88179], [14.33957, 53.84625], [14.3528, 53.83057], [14.43736, 53.75479], [14.45157, 53.73784], [14.45808, 53.72314], [14.45459, 53.71117], [14.43988, 53.70161], [14.41748, 53.69548], [14.32364, 53.69056], [14.23102, 53.69829], [14.15981, 53.71515], [14.02569, 53.7574], [13.94982, 53.78765], [13.92379, 53.80189], [13.91555, 53.81125], [13.9136, 53.82307], [13.93393, 53.87988], [13.93646, 53.89245], [13.93428, 53.90267], [13.90938, 53.92705], [13.83448, 53.98107], [13.81212, 54.00514], [13.81768, 54.01677], [13.84447, 54.03814], [13.85466, 54.0512], [13.85225, 54.0562], [13.83891, 54.0641], [13.79951, 54.07999], [13.7521, 54.09348], [13.68842, 54.1021], [13.64931, 54.09224], [13.56163, 54.05712], [13.54134, 54.05354], [13.52297, 54.0546], [13.49897, 54.06245], [13.44821, 54.09095], [13.32406, 54.17562], [13.20086, 54.23566], [13.13805, 54.27314], [13.12438, 54.28656], [13.07617, 54.35484], [13.06247, 54.36993], [13.04694, 54.38222], [13.0288, 54.39076], [12.98894, 54.39652], [12.93541, 54.39724], [12.88389, 54.3886], [12.79478, 54.38995], [12.71576, 54.37839], [12.69512, 54.37191], [12.67285, 54.36032], [12.57186, 54.28692], [12.54769, 54.27306], [12.52524, 54.26537], [12.50488, 54.26593], [12.49291, 54.27404], [12.49485, 54.28645], [12.50792, 54.30186], [12.52911, 54.31916], [12.62931, 54.38455], [12.67563, 54.40352], [12.78706, 54.43947], [12.80079, 54.44626], [12.80395, 54.45323], [12.79622, 54.45948], [12.75714, 54.46707], [12.70101, 54.465], [12.6471, 54.45449], [12.62791, 54.44745], [12.6007, 54.43199], [12.42334, 54.31095], [12.32116, 54.2519], [12.20616, 54.17752], [12.16284, 54.16426], [12.06355, 54.14844], [12.02979, 54.13405], [11.94309, 54.05686], [11.92277, 54.02488], [11.90015, 53.97364], [11.88513, 53.92493], [11.88449, 53.89775], [11.88792, 53.89037], [11.91042, 53.8697], [11.9172, 53.84602], [11.91676, 53.83028], [11.90784, 53.79805], [11.88943, 53.77087], [11.8773, 53.76126], [11.86361, 53.75529], [11.85053, 53.75369], [11.8388, 53.75574], [11.7957, 53.77634], [11.78321, 53.77864], [11.76888, 53.77748], [11.7477, 53.76936], [11.70462, 53.74605], [11.66738, 53.72149], [11.64789, 53.70044], [11.62062, 53.65488], [11.60427, 53.63585], [11.57959, 53.62172], [11.5521, 53.61585], [11.52659, 53.61807], [11.508, 53.62802], [11.49856, 53.6448], [11.49119, 53.67314], [11.47899, 53.69116], [11.41, 53.7298], [11.40044, 53.73774], [11.39741, 53.74583], [11.40192, 53.75496], [11.41514, 53.76629], [11.51948, 53.83186], [11.54992, 53.86536], [11.55822, 53.88506], [11.55984, 53.90714], [11.53974, 53.9544], [11.49341, 53.97608], [11.4281, 53.97615], [11.28705, 53.94712], [11.23638, 53.94028], [11.20173, 53.94264], [11.17605, 53.95074], [11.15952, 53.9599], [11.0515, 54.03561], [11.00904, 54.05522], [10.98879, 54.05595], [10.97097, 54.05031], [10.95579, 54.03964], [10.91985, 54.00245], [10.90613, 54.00063], [10.89361, 54.00731], [10.88097, 54.02047], [10.83078, 54.09205], [10.81945, 54.10257], [10.80842, 54.1057], [10.78994, 54.09744], [10.74944, 54.05909], [10.72337, 54.03954], [10.69307, 54.02478], [10.66024, 54.01683], [10.62694, 54.01745], [10.59499, 54.02875], [10.57965, 54.04345], [10.57734, 54.06091], [10.6135, 54.15259], [10.61729, 54.17719], [10.6145, 54.19925], [10.59333, 54.24416], [10.53003, 54.35837], [10.50731, 54.40885], [10.44892, 54.61245], [10.43671, 54.64134], [10.42338, 54.66246], [10.41528, 54.66591], [10.40637, 54.6601], [10.36791, 54.59952], [10.35853, 54.58923], [10.34925, 54.58641], [10.09527, 54.61617], [10.03849, 54.62654], [9.98945, 54.64123], [9.95293, 54.66146], [9.94688, 54.67724], [9.96287, 54.69402], [9.99455, 54.71206], [10.12174, 54.77263], [10.15594, 54.79321], [10.17746, 54.81285], [10.18226, 54.82382], [10.18291, 54.85372], [10.17281, 54.88535], [10.1645, 54.89888], [10.14372, 54.91641], [10.11913, 54.92284], [10.0882, 54.92564], [9.94157, 54.92428], [9.90969, 54.92714], [9.88422, 54.93356], [9.83452, 54.96039], [9.78116, 55.00013], [9.73607, 55.04506], [9.72073, 55.06671], [9.71291, 55.08594], [9.71645, 55.09496], [9.74795, 55.10577], [9.81512, 55.11689], [9.84373, 55.12849], [9.84813, 55.13529], [9.85227, 55.1552], [9.8495, 55.17839], [9.83999, 55.19906], [9.8329, 55.20677], [9.69766, 55.29373], [9.65344, 55.33081], [9.63988, 55.34796], [9.63279, 55.3635], [9.62636, 55.40292], [9.63032, 55.44582], [9.64289, 55.49896], [9.63807, 55.51318], [9.62016, 55.53425], [9.61455, 55.54833], [9.6173, 55.5554], [9.63518, 55.56771], [9.69871, 55.58312], [9.80078, 55.62921], [9.8482, 55.65605], [9.87682, 55.68279], [9.88065, 55.69492], [9.87803, 55.70702], [9.87011, 55.72015], [9.84385, 55.74638], [9.80407, 55.77697], [9.79267, 55.77459], [9.74607, 55.7401], [9.71153, 55.71837], [9.68518, 55.70665], [9.6636, 55.70217], [9.59702, 55.70475], [9.56471, 55.70207], [9.54611, 55.6993], [9.51694, 55.68907], [9.48037, 55.66929], [9.41902, 55.62619], [9.39413, 55.61296], [9.35679, 55.60083], [9.3293, 55.60147], [9.24683, 55.63153], [9.20481, 55.64212], [9.16612, 55.64156], [9.13203, 55.63286], [9.10342, 55.61895], [9.08085, 55.60279], [9.05476, 55.57582], [9.0403, 55.55776], [9.02701, 55.50804], [9.00787, 55.48497], [8.971, 55.46657], [8.92217, 55.45165], [8.76278, 55.41341], [8.72396, 55.39562], [8.70053, 55.37047], [8.72261, 55.35759], [8.73257, 55.34668], [8.7399, 55.30738], [8.73862, 55.2652], [8.71767, 55.12015], [8.71539, 55.07376], [8.72014, 55.03245], [8.74469, 54.96687], [8.88974, 54.70432], [8.89814, 54.67711], [8.9094, 54.61212], [8.9191, 54.58418], [8.93786, 54.55306], [8.98186, 54.49335], [9.03293, 54.43566], [9.21227, 54.24638], [9.24134, 54.22394], [9.27656, 54.20394], [9.32005, 54.18686], [9.37381, 54.17326], [9.42876, 54.17003], [9.44988, 54.16121], [9.47243, 54.14525], [9.48341, 54.13014], [9.50858, 54.06766], [9.51309, 54.03456], [9.5075, 54.01466], [9.50151, 54.00536], [9.47056, 54.00273], [9.40592, 54.01201], [9.26842, 54.05348], [9.23284, 54.06104], [9.19192, 54.06675], [9.13738, 54.06696], [9.12005, 54.06195], [9.10696, 54.05399], [9.06573, 54.00508], [9.01725, 53.97191], [9.01316, 53.96161], [9.01603, 53.94875], [9.02786, 53.93262], [9.07985, 53.89734], [9.14406, 53.88241], [9.21756, 53.88097], [9.29679, 53.88914], [9.46034, 53.91225], [9.53906, 53.91414], [9.61178, 53.90188], [9.62919, 53.89197], [9.62231, 53.88181], [9.5978, 53.87153], [9.45465, 53.83034], [9.44077, 53.82047], [9.44134, 53.81306], [9.45717, 53.79284], [9.48679, 53.77089], [9.52399, 53.75307], [9.54387, 53.74739], [9.58554, 53.74668], [9.65201, 53.75949], [9.69232, 53.76342], [9.70971, 53.76016], [9.73189, 53.75035], [9.75148, 53.73785], [9.77927, 53.70904], [9.78608, 53.69477], [9.78763, 53.68187], [9.78378, 53.67121], [9.77462, 53.66369], [9.73632, 53.66389], [9.64068, 53.67994], [9.58841, 53.6852], [9.57621, 53.6823], [9.57253, 53.6732], [9.57664, 53.66147], [9.59909, 53.63334], [9.65379, 53.58204], [9.68159, 53.56309], [9.70831, 53.54976], [9.73702, 53.53901], [9.76829, 53.53277], [9.88963, 53.52535], [9.92657, 53.52023], [9.9344, 53.51482], [9.93157, 53.50314], [9.91524, 53.49669], [9.7445, 53.50112], [9.56215, 53.50856], [9.24999, 53.53009], [9.1205, 53.5287], [9.06833, 53.52272], [9.02451, 53.5125], [8.94289, 53.48198], [8.87516, 53.44834], [8.81777, 53.41262], [8.81778, 53.40637], [8.82914, 53.39991], [8.88972, 53.38014], [8.91059, 53.36853], [8.90328, 53.36445], [8.8885, 53.36347], [8.57119, 53.38974], [8.48265, 53.39285], [8.57688, 53.38063], [8.5733, 53.37638], [8.55074, 53.37428], [8.46858, 53.37761], [8.36633, 53.3884], [8.21689, 53.41064], [8.19272, 53.41744], [8.19029, 53.42367], [8.20033, 53.42866], [8.23035, 53.43075], [8.1922, 53.45394], [8.16305, 53.45675], [8.01065, 53.43574], [7.63856, 53.37421], [7.44397, 53.33989], [7.22647, 53.29566], [7.18557, 53.29108], [7.19547, 53.28691], [7.2289, 53.28437], [7.37875, 53.28771], [7.37861, 53.28499], [7.36288, 53.28144], [7.3025, 53.27497], [7.19254, 53.27149]], [[8.63755, 54.97107], [8.61541, 54.98057], [8.59735, 54.98307], [8.58352, 54.97962], [8.57437, 54.97122], [8.57047, 54.95885], [8.57242, 54.94343], [8.58078, 54.92582], [8.59607, 54.90682], [8.61891, 54.88935], [8.64084, 54.88241], [8.65978, 54.88465], [8.67376, 54.89465], [8.68079, 54.91058], [8.67867, 54.93021], [8.6649, 54.9511], [8.63755, 54.97107]]]}}, {"type": "Feature", "properties": {"name": "북독일 연방의 남쪽 경계", "category": "경계선", "period": "1867년", "legend": "북독일 연방의 남쪽 경계", "map_title": "독일의 통일 과정", "source": "미래엔 세계사 교과서 3권 146쪽", "volume": 3, "page": 146}, "geometry": {"type": "LineString", "coordinates": [[11.86026, 50.06629], [11.60364, 50.302], [11.39955, 50.41225], [11.09, 50.50009], [10.95076, 50.50818], [10.84663, 50.45932], [10.62596, 50.26584], [10.52258, 50.24367], [10.39527, 50.29331], [10.30024, 50.382], [10.20436, 50.45694], [10.0891, 50.55889], [9.99485, 50.63287], [9.8988, 50.66501], [9.80597, 50.67022], [9.76522, 50.72598], [9.72509, 50.79497], [9.60813, 50.8272], [9.49796, 50.78079], [9.38994, 50.69275], [9.32569, 50.58842], [9.32042, 50.48036], [9.23655, 50.41756], [9.09796, 50.46437], [8.98994, 50.44211], [8.98361, 50.37515], [9.03004, 50.31908], [9.12155, 50.23213], [9.06022, 50.1681], [8.79138, 50.23448], [8.61996, 50.25624], [8.54598, 50.25931], [8.41231, 50.21104], [8.23436, 50.19054], [7.92407, 50.19913], [7.77363, 50.21559], [7.67508, 50.18957], [7.55652, 50.12707], [7.45229, 50.03728], [7.38623, 49.94953], [7.3129, 49.88668], [7.2006, 49.83849], [7.14885, 49.73976], [7.162, 49.51817]]}}, {"type": "Feature", "properties": {"name": "기타 경계(점선)", "category": "경계선", "period": "", "legend": "(지도 회색 점선: 독일 내 국가·알자스·로렌 경계)", "map_title": "독일의 통일 과정", "source": "미래엔 세계사 교과서 3권 146쪽", "volume": 3, "page": 146}, "geometry": {"type": "MultiLineString", "coordinates": [[[12.54581, 54.27229], [12.63158, 54.21771], [12.71783, 54.17], [12.8501, 54.02654], [13.01805, 53.95003], [13.04262, 53.92369], [13.049, 53.89621], [13.04248, 53.86946], [13.02834, 53.84527], [12.99249, 53.80724], [12.97159, 53.77323], [12.96731, 53.74831], [12.97529, 53.73112], [12.99135, 53.72018], [13.03087, 53.71126], [13.08635, 53.70695], [13.11489, 53.69703], [13.13775, 53.68301], [13.1553, 53.66704], [13.16803, 53.65118], [13.18245, 53.62406], [13.20842, 53.59922], [13.23811, 53.58577], [13.2695, 53.58108], [13.3004, 53.58262], [13.35148, 53.59473], [13.3726, 53.603], [13.48498, 53.665], [13.526, 53.68423], [13.55633, 53.69113], [13.5778, 53.68855], [13.59198, 53.67954], [13.60029, 53.6672], [13.60531, 53.64091], [13.68179, 53.56644], [13.75317, 53.56067], [13.81147, 53.5716], [13.85449, 53.57217], [13.88422, 53.56498], [13.90271, 53.55284], [13.91227, 53.53864], [13.91536, 53.51514], [13.90083, 53.46427], [13.87413, 53.42884], [13.84014, 53.40289], [13.80351, 53.3848], [13.76836, 53.37307], [13.71021, 53.3625], [13.61231, 53.36632], [13.59921, 53.33689], [13.57945, 53.31345], [13.5559, 53.29524], [13.50788, 53.27198], [13.37957, 53.23989], [13.29987, 53.22944], [13.22146, 53.2258], [13.19309, 53.21781], [13.17808, 53.20841], [13.17335, 53.1984], [13.17596, 53.18856], [13.18296, 53.17966], [13.26481, 53.1109], [13.257, 53.095], [13.24076, 53.08526], [13.21914, 53.08039], [13.17132, 53.08027], [13.131, 53.08588], [13.08918, 53.13616], [13.05436, 53.15261], [12.98747, 53.17762], [12.95348, 53.20269], [12.91161, 53.21979], [12.86605, 53.23011], [12.82077, 53.23498], [12.7795, 53.23588], [12.71468, 53.23122], [12.65536, 53.23202], [12.60761, 53.23695], [12.54176, 53.25437], [12.52136, 53.26426], [12.49827, 53.28201], [12.45896, 53.29864], [12.4247, 53.31028], [12.37168, 53.322], [12.28774, 53.32363], [12.25338, 53.31631], [12.22505, 53.3039], [12.18477, 53.27336], [12.1624, 53.24627], [12.16104, 53.23285], [12.15575, 53.2242], [12.14787, 53.21939], [12.12934, 53.21753], [12.03889, 53.22553], [11.996, 53.22094], [11.95585, 53.20842], [11.88622, 53.17103], [11.81838, 53.1184], [11.70588, 52.91878], [11.67555, 52.89676], [11.63658, 52.87957], [11.54805, 52.85753], [11.47143, 52.84797], [11.18215, 52.82657], [11.15316, 52.81922], [11.13276, 52.81017], [11.11952, 52.8004], [11.11195, 52.79092], [11.1076, 52.7771], [11.11283, 52.66148], [11.11129, 52.63492], [11.10343, 52.6097], [11.08627, 52.58428], [11.05679, 52.55704], [11.01191, 52.5264], [10.90178, 52.46446], [10.88694, 52.44154], [10.89576, 52.42088], [10.91988, 52.40143], [10.98064, 52.36194], [11.00095, 52.3396], [11.00387, 52.3139], [10.98598, 52.28265], [10.9559, 52.26036], [10.91604, 52.24577], [10.86896, 52.23751], [10.76367, 52.23407], [10.66201, 52.23776], [10.63488, 52.20672], [10.58373, 52.13493], [10.53443, 52.05605], [10.50989, 52.00657], [10.55438, 51.98429], [10.7312, 52.00913], [10.76316, 52.00691], [10.78115, 51.99902], [10.78855, 51.9876], [10.78868, 51.97483], [10.77781, 51.95069], [10.76957, 51.89992], [10.77593, 51.89536], [10.78686, 51.8934], [10.81571, 51.89482], [10.8547, 51.9019], [10.91678, 51.925], [10.99906, 51.96895], [11.01856, 51.96387], [11.0382, 51.91724], [11.02694, 51.8789], [10.98165, 51.83804], [10.89482, 51.7974], [10.69778, 51.76582], [10.565, 51.7673], [10.4729, 51.77559], [10.38288, 51.7626], [10.24358, 51.72969], [10.01272, 51.68948], [9.96212, 51.66539], [9.89548, 51.62049], [9.83968, 51.60518], [9.69903, 51.62628], [9.63867, 51.58972], [9.60933, 51.53136], [9.67086, 51.46816], [9.81468, 51.33342], [9.89378, 51.31948], [10.02494, 51.3029], [10.05204, 51.26941], [10.08456, 51.24667], [10.1197, 51.23285], [10.15474, 51.22602], [10.18703, 51.22422], [10.2329, 51.22793], [10.35093, 51.25627], [10.36924, 51.25609], [10.38449, 51.24887], [10.40034, 51.23306], [10.47053, 51.14291], [10.55685, 51.05391], [10.61234, 51.00656], [10.66997, 50.96765], [10.72516, 50.94514], [10.77346, 50.94697], [10.8108, 50.98093], [10.81809, 51.01796], [10.80243, 51.05485], [10.77108, 51.09161], [10.6907, 51.16498], [10.65662, 51.2017], [10.63678, 51.23846], [10.63893, 51.27532], [10.70245, 51.2779], [10.75337, 51.252], [10.81985, 51.23025], [10.88176, 51.24122], [10.93978, 51.27173], [11.0012, 51.26427], [11.05437, 51.26196], [11.08584, 51.25091], [11.12114, 51.21061], [11.1642, 51.18017], [11.23554, 51.16763], [11.32048, 51.16403], [11.37902, 51.15611], [11.42782, 51.12568], [11.50323, 51.09555], [11.57039, 51.07439], [11.62872, 51.06074], [11.67771, 51.05309], [11.71679, 51.04988], [11.76903, 51.05117], [11.78754, 51.06084], [11.80074, 51.08226], [11.80962, 51.11137], [11.81808, 51.17636], [11.81944, 51.23122], [11.8449, 51.24617], [11.86167, 51.26306], [11.87143, 51.28064], [11.8764, 51.31305], [11.86521, 51.36721], [11.86399, 51.38983], [11.86665, 51.40587], [11.8718, 51.4165], [11.87811, 51.42283], [11.89072, 51.42718], [11.9056, 51.44794], [11.92586, 51.45903], [11.94918, 51.4626], [11.97328, 51.46076], [12.0605, 51.43296], [12.09107, 51.43232], [12.1224, 51.43764], [12.15247, 51.44678], [12.22073, 51.47885], [12.2651, 51.49332], [12.30343, 51.50087], [12.33576, 51.50302], [12.38256, 51.49727], [12.40877, 51.48674], [12.5487, 51.46679], [12.57125, 51.46879], [12.6133, 51.48566], [12.6586, 51.51965], [12.68062, 51.54604], [12.69762, 51.55632], [12.71775, 51.56184], [12.73893, 51.56376], [12.77601, 51.56139], [12.87673, 51.54433], [12.96091, 51.52561], [13.00699, 51.50786], [13.0658, 51.45279], [13.08626, 51.44227], [13.1337, 51.42713], [13.1928, 51.41629], [13.40873, 51.40872], [13.46839, 51.38936], [13.51233, 51.35055], [13.55688, 51.31661], [13.67561, 51.3161], [13.74537, 51.32406], [13.82025, 51.32694], [13.8955, 51.32436], [13.91205, 51.27226], [13.96485, 51.20073], [14.05932, 51.12338], [14.13713, 51.05397], [14.18498, 50.99137], [14.20393, 50.94229], [14.2044, 50.89603], [14.25535, 50.89969], [14.2912, 50.89107], [14.33175, 50.86522], [14.37465, 50.80371], [14.42468, 50.69793]], [[6.41707, 49.79832], [6.3767, 49.74178], [6.37407, 49.72542], [6.37937, 49.71665], [6.54408, 49.59895], [6.69465, 49.48605], [6.74591, 49.44374], [6.78431, 49.42121], [6.81886, 49.42854], [6.8268, 49.46376], [6.83781, 49.47692], [6.84915, 49.48459], [6.87053, 49.488], [6.89118, 49.48065], [6.92762, 49.45174], [7.00273, 49.41854], [7.062, 49.41895], [7.1172, 49.47878], [7.15908, 49.53153], [7.1488, 49.69777], [7.15119, 49.75276], [7.15611, 49.76113]], [[7.15611, 49.76113], [7.19048, 49.81908], [7.22409, 49.84914], [7.30659, 49.88532], [7.34028, 49.90912], [7.3716, 49.93559], [7.40527, 49.98413], [7.4452, 50.03031], [7.51779, 50.09665], [7.55659, 50.12704], [7.36818, 50.28896], [7.27928, 50.37254], [7.21939, 50.43424], [7.17721, 50.48735], [7.13251, 50.56419], [7.0878, 50.67981], [7.08763, 50.70844], [7.09653, 50.73234], [7.11126, 50.75163], [7.12852, 50.76643], [7.16216, 50.785], [7.17651, 50.81016], [7.17865, 50.83559], [7.17169, 50.86015], [7.15877, 50.88272], [7.14308, 50.90216], [7.11175, 50.93088], [7.08961, 50.9619], [7.08694, 50.98696], [7.09879, 51.00663], [7.12008, 51.02146], [7.14567, 51.03199], [7.19638, 51.04344], [7.38891, 51.02283], [7.42373, 51.02513], [7.45096, 51.03226], [7.47146, 51.04237], [7.49553, 51.06389], [7.50219, 51.07445], [7.53778, 51.16544], [7.54918, 51.18678], [7.56935, 51.20634], [7.57729, 51.20822], [7.58858, 51.20437], [7.65775, 51.20474], [7.72896, 51.20968], [7.79323, 51.2434], [7.83166, 51.29769], [7.85523, 51.35652], [7.92841, 51.4144], [8.04424, 51.45651], [8.13251, 51.46865], [8.13951, 51.4929], [8.1451, 51.5552], [8.12753, 51.584], [8.10324, 51.61356], [8.04434, 51.64905], [8.04407, 51.68173], [8.10275, 51.68986], [8.18367, 51.6829], [8.25004, 51.68509], [8.30742, 51.69736], [8.31881, 51.75742], [8.32116, 51.7947], [8.36551, 51.82581], [8.52215, 51.82249], [8.5785, 51.79703], [8.62414, 51.78058], [8.76501, 51.77321], [8.78651, 51.75428], [8.86421, 51.79088], [8.91298, 51.84754], [9.00331, 51.89949], [9.06116, 51.9446], [9.03677, 52.06868], [8.9842, 52.12799], [8.90541, 52.16701], [8.81221, 52.19004], [8.71717, 52.20102], [8.63323, 52.2038], [8.55061, 52.20097], [8.46692, 52.21208], [8.45158, 52.21948], [8.43167, 52.28156], [8.42231, 52.29295], [8.39431, 52.31243], [8.33958, 52.33522], [8.30975, 52.36124], [8.30804, 52.38481], [8.32715, 52.40548], [8.35962, 52.42289], [8.39798, 52.43673], [8.47298, 52.45501], [8.56381, 52.45519], [8.64149, 52.44865], [8.70058, 52.46375], [8.72381, 52.4816], [8.74309, 52.50334], [8.76636, 52.51661], [8.83362, 52.51033], [8.86797, 52.5038], [8.88814, 52.49001], [8.93065, 52.48272], [8.96589, 52.48278], [9.00543, 52.49093], [9.01923, 52.50493], [8.97485, 52.54393], [8.85503, 52.60288], [8.83923, 52.61493], [8.83516, 52.62372], [8.83946, 52.62976], [8.84873, 52.63356], [8.87231, 52.63667], [8.98937, 52.70805], [8.99599, 52.73885], [8.97698, 52.75318], [8.95584, 52.76126], [8.93402, 52.76444], [8.89412, 52.76141], [8.86506, 52.75332], [8.8442, 52.72387], [8.82225, 52.70502], [8.8049, 52.69507], [8.74999, 52.68277], [8.7099, 52.68076], [8.67707, 52.68438], [8.65109, 52.69171], [8.61811, 52.70974], [8.60783, 52.71919], [8.61793, 52.74085], [8.60895, 52.75977], [8.58996, 52.77983], [8.53765, 52.80009], [8.46832, 52.81469], [8.37629, 52.8204], [8.28801, 52.8066], [8.20248, 52.78184], [8.21471, 52.74615], [8.24942, 52.73099], [8.26768, 52.71869], [8.27319, 52.709], [8.26953, 52.70165], [8.26038, 52.69638], [8.23613, 52.69047], [8.2002, 52.66751], [8.17845, 52.64408], [8.16801, 52.62132], [8.166, 52.60031], [8.1695, 52.58215], [8.18395, 52.55527], [8.1762, 52.53308], [8.15919, 52.51744], [8.13606, 52.50727], [8.10994, 52.50147], [8.06152, 52.49848], [7.93564, 52.51483], [7.83758, 52.51675], [7.78509, 52.49413], [7.72258, 52.48865], [7.67948, 52.49638], [7.64656, 52.51393], [7.63725, 52.54479], [7.63741, 52.57358], [7.61315, 52.60897], [7.54144, 52.63835], [7.47657, 52.65691], [7.486, 52.68196], [7.53614, 52.69633], [7.55187, 52.7353], [7.51827, 52.78082], [7.4702, 52.79896], [7.39244, 52.82253], [7.34343, 52.85181], [7.3049, 52.8834], [7.27934, 52.89991], [7.25664, 52.90706], [7.2336, 52.90724], [7.20851, 52.9026], [7.15021, 52.88453], [7.02176, 52.83569], [6.90559, 52.80086], [6.83357, 52.78493], [6.71295, 52.77464], [6.44318, 52.77677], [6.42275, 52.73134], [6.26398, 52.69991]], [[6.86667, 49.99167], [6.84209, 49.9594], [6.82194, 49.92083], [6.80686, 49.87851], [6.79739, 49.8349], [6.79402, 49.79242], [6.79719, 49.75348], [6.80735, 49.72044], [6.82497, 49.69565], [6.86676, 49.6655], [6.90034, 49.65732], [6.92693, 49.66626], [6.94771, 49.68743], [6.9638, 49.7159], [6.99441, 49.79483], [7.02917, 49.86896], [7.03713, 49.90049], [7.03856, 49.93287], [7.03054, 49.9645], [7.01008, 49.99374], [6.97422, 50.01893], [6.95951, 50.02482], [6.94502, 50.02766], [6.91702, 50.02491], [6.89073, 50.01237], [6.86667, 49.99167]], [[7.11003, 49.76347], [7.15611, 49.76113]], [[7.15611, 49.76113], [7.32633, 49.75198], [7.43138, 49.79505], [7.56459, 49.68983], [7.92189, 49.63299], [8.21342, 49.54412], [8.15308, 49.36557], [7.99903, 49.21615], [7.99288, 48.92714], [7.95598, 48.69585], [8.05304, 48.58852], [8.04543, 48.35816], [8.15141, 48.21847], [8.03529, 48.10213], [7.69066, 48.23501], [7.64647, 48.11037], [7.78135, 48.07249], [7.5575, 47.82056]]]}}]}