{"type": "FeatureCollection", "features": [{"type": "Feature", "properties": {"name": "쿠샨 왕조", "name_en": "Kushan Empire", "period": "1~3세기", "kind": "국가", "legend": "쿠샨 왕조의 최대 영역", "map_title": "쿠샨 왕조의 영역", "source": "미래엔 세계사 교과서 1권 35쪽", "volume": 1, "page": 35, "coast_snap": "Natural Earth 10m 해안선에 맞춤", "border_snap": "현대 국경(Natural Earth 10m)에 맞춘 구간 약 794 km", "group": "쿠샨 왕조", "map_folder": "1권_p035_쿠샨 왕조의 영역"}, "geometry": {"type": "MultiPolygon", "coordinates": [[[[67.39341, 24.02807], [67.3755, 24.06273], [67.39039, 24.04926], [67.41326, 24.04877], [67.45802, 24.06273], [67.48527, 24.04849], [67.46518, 24.0406], [67.45395, 24.01341], [67.42717, 24.00757], [67.40944, 24.01351], [67.39341, 24.02807]]], [[[67.25262, 24.59032], [67.20152, 24.61534], [67.23258, 24.62988], [67.30437, 24.68072], [67.37387, 24.71098], [67.41095, 24.72137], [67.48753, 24.73197], [67.52677, 24.73205], [67.60287, 24.72187], [67.64905, 24.70844], [67.65715, 24.71023], [67.71639, 24.84328], [67.77377, 24.92803], [67.80556, 24.96104], [67.88017, 25.0192], [68.09286, 25.14573], [68.36852, 25.36588], [68.61281, 25.65072], [68.8133, 25.96706], [68.98339, 26.31299], [69.12451, 26.67044], [69.24182, 27.02329], [69.50585, 27.87431], [69.56349, 28.08287], [69.58702, 28.18848], [69.61886, 28.40225], [69.62538, 28.51022], [69.61914, 28.71813], [69.60894, 28.82067], [69.53331, 29.33932], [69.50414, 29.6967], [69.48372, 30.42003], [69.45416, 30.78156], [69.38637, 31.13375], [69.26116, 31.47374], [69.06327, 31.79249], [68.77054, 32.09127], [68.6401, 32.1973], [68.55958, 32.27027], [68.49234, 32.34959], [68.46425, 32.39579], [68.43854, 32.45692], [68.42284, 32.51882], [68.41456, 32.58126], [68.40889, 32.8421], [68.40242, 32.90831], [68.35176, 33.07435], [68.25916, 33.21247], [68.12644, 33.33644], [67.97794, 33.43967], [67.654, 33.63457], [67.49933, 33.74072], [67.36284, 33.86302], [67.27398, 33.96621], [66.96195, 34.39223], [66.87783, 34.49336], [66.78514, 34.58819], [66.68065, 34.67482], [66.56268, 34.75119], [66.43465, 34.81749], [66.30438, 34.8745], [65.90153, 35.03352], [65.77261, 35.09252], [65.64961, 35.16022], [65.4965, 35.27174], [65.36836, 35.40128], [65.26445, 35.54751], [65.18873, 35.70326], [65.14134, 35.86653], [65.12394, 36.03373], [65.13803, 36.19982], [65.18552, 36.36359], [65.26592, 36.51716], [65.37641, 36.65788], [65.51183, 36.782], [65.54301, 36.8031], [65.6679, 36.88742], [65.84218, 36.97275], [66.02987, 37.03508], [66.22804, 37.07218], [66.43092, 37.0814], [66.53853, 37.07561], [66.86486, 37.04571], [66.97157, 37.0418], [67.0139, 37.04353], [67.23675, 37.19241], [67.25913, 37.18515], [67.28145, 37.18866], [67.31959, 37.20843], [67.39116, 37.21959], [67.43111, 37.23977], [67.48237, 37.27736], [67.50314, 37.28196], [67.52614, 37.27289], [67.545, 37.23153], [67.56138, 37.2199], [67.57219, 37.22315], [67.59229, 37.24719], [67.62179, 37.25292], [67.64054, 37.25223], [67.69467, 37.3533], [67.84545, 37.42179], [68.04974, 37.4685], [68.26761, 37.48269], [68.51239, 37.46862], [68.66886, 37.27829], [68.75961, 37.27525], [68.80849, 37.25163], [68.82038, 37.25091], [68.82461, 37.26062], [68.82203, 37.28196], [68.8102, 37.31209], [68.81382, 37.32341], [68.83583, 37.32914], [68.85676, 37.32491], [68.8903, 37.28196], [68.90471, 37.27669], [68.91582, 37.27907], [68.92115, 37.28796], [68.91763, 37.30243], [68.8903, 37.32294], [68.88508, 37.33483], [68.88787, 37.33813], [68.96543, 37.32914], [68.98522, 37.32036], [69.00548, 37.30553], [69.02104, 37.28796], [69.03576, 37.25158], [69.09643, 37.21303], [69.11431, 37.17747], [69.12362, 37.1692], [69.24568, 37.10389], [69.26578, 37.10541], [69.28562, 37.11293], [69.32391, 37.12099], [69.35084, 37.14414], [69.3912, 37.16466], [69.40773, 37.17747], [69.44215, 37.22362], [69.4452, 37.23641], [69.74416, 37.26095], [69.99963, 37.23347], [70.30072, 37.21285], [70.60619, 37.20214], [70.91436, 37.20032], [71.21655, 37.20628], [71.51778, 37.21909], [71.80828, 37.23748], [71.91262, 37.24825], [72.31386, 37.3138], [72.41459, 37.32392], [72.52087, 37.32683], [72.76712, 37.19428], [72.79073, 37.22026], [72.83052, 37.23977], [72.87744, 37.24688], [72.90225, 37.2538], [72.92426, 37.27483], [72.99558, 37.3093], [73.06751, 37.31506], [73.08253, 37.32322], [73.24943, 37.14119], [73.3282, 37.11029], [73.33178, 36.88209], [73.37974, 36.87925], [73.44588, 36.88648], [73.50934, 36.87868], [73.64008, 36.89664], [73.77289, 36.89201], [73.83408, 36.88287], [73.86508, 36.87258], [73.94694, 36.83088], [74.00637, 36.81574], [74.0353, 36.81558], [74.09432, 36.83124], [74.10393, 36.84132], [74.10879, 36.87563], [74.1153, 36.88953], [74.12967, 36.89842], [74.146, 36.9017], [74.21173, 36.89514], [74.22276, 36.89837], [74.33474, 36.6856], [74.59845, 36.58766], [74.82306, 36.51147], [75.04931, 36.44172], [75.27397, 36.38029], [75.50105, 36.32721], [75.69209, 36.27571], [75.96883, 36.30197], [75.97658, 36.28698], [76.01193, 36.24812], [76.01441, 36.2304], [75.9834, 36.21541], [75.97007, 36.20234], [75.96914, 36.19169], [75.97741, 36.17376], [75.97658, 36.16275], [75.97152, 36.155], [75.91457, 36.12389], [75.90144, 36.11361], [75.89431, 36.09738], [75.9, 36.06348], [75.92232, 36.03165], [75.95302, 36.00726], [75.98433, 35.99563], [76.06143, 35.9916], [76.08996, 35.97812], [76.11466, 35.94179], [76.12376, 35.90349], [76.12779, 35.8621], [76.13812, 35.82665], [76.16603, 35.80624], [76.1898, 35.805], [76.26039, 35.81782], [76.29656, 35.8095], [76.31196, 35.80965], [76.34886, 35.83099], [76.3841, 35.8282], [76.40312, 35.83099], [76.42245, 35.8543], [76.43206, 35.8605], [76.4765, 35.86525], [76.50017, 35.87151], [76.53717, 35.90251], [76.55546, 35.89786], [76.56528, 35.86546], [76.55112, 35.78402], [76.57076, 35.75126], [76.60424, 35.7357], [76.67669, 35.71379], [76.70904, 35.69405], [76.84299, 35.64129], [76.88051, 35.60067], [76.89642, 35.58961], [76.91503, 35.58315], [76.97642, 35.57866], [77.03905, 35.58501], [77.05817, 35.5801], [77.07109, 35.57101], [77.1053, 35.53799], [77.14126, 35.52538], [77.17754, 35.52316], [77.25082, 35.5307], [77.2811, 35.52801], [77.30539, 35.51783], [77.352, 35.48605], [77.38373, 35.472], [77.41277, 35.46941], [77.5122, 35.47846], [77.66061, 35.4581], [77.68966, 35.46269], [77.74743, 35.49432], [77.76035, 35.49809], [77.80035, 35.49541], [77.83425, 35.45215], [77.85709, 35.4366], [77.88313, 35.43107], [77.91269, 35.44099], [77.95786, 35.48207], [77.98586, 35.49416], [78.04426, 35.49163], [78.05563, 35.45288], [78.03806, 35.3981], [78.00984, 35.34746], [78.00116, 35.26891], [78.0364, 35.19424], [78.08911, 35.11617], [77.83964, 35.01154], [77.69309, 35.01339], [77.509, 35.02861], [77.14203, 35.06997], [76.98648, 35.08163], [76.8575, 35.07886], [76.72745, 35.05803], [76.603, 35.02665], [76.48322, 34.98642], [76.43816, 34.76289], [76.39992, 34.75075], [76.26204, 34.68465], [76.15497, 34.66166], [76.12179, 34.66088], [76.05833, 34.68341], [76.0234, 34.67716], [76.00748, 34.66512], [75.97338, 34.62233], [75.93927, 34.61205], [75.87395, 34.57138], [75.81618, 34.52167], [75.79582, 34.50792], [75.77711, 34.50381], [75.71365, 34.50852], [75.65557, 34.49696], [75.61164, 34.49836], [75.55852, 34.51027], [75.47447, 34.26586], [75.45596, 34.16949], [75.46658, 34.06114], [75.48837, 33.99514], [75.52085, 33.93115], [75.56782, 33.86161], [75.67452, 33.74198], [75.80165, 33.62637], [75.93331, 33.51693], [76.40392, 33.14337], [76.45837, 33.09264], [76.60362, 32.92992], [76.65314, 32.88217], [76.70628, 32.8419], [76.7823, 32.80292], [76.85513, 32.78232], [76.95785, 32.76847], [77.01336, 32.75111], [77.05272, 32.73052], [77.11904, 32.67844], [77.15107, 32.64467], [77.20301, 32.57676], [77.2706, 32.46555], [77.31156, 32.38785], [77.38012, 32.23196], [77.43186, 32.07487], [77.45186, 31.99437], [77.47548, 31.84123], [77.47619, 31.76759], [77.46006, 31.62447], [77.39924, 31.34358], [77.34591, 30.97456], [77.32692, 30.59965], [77.33715, 30.22142], [77.37184, 29.83758], [77.42649, 29.44955], [77.49556, 29.0634], [77.57489, 28.67663], [77.68221, 28.19131], [77.73202, 27.98834], [77.79306, 27.78602], [77.83016, 27.68498], [77.87332, 27.58328], [77.92063, 27.48682], [78.07261, 27.24108], [78.26112, 27.0037], [78.47044, 26.78215], [78.69571, 26.56912], [79.41354, 25.93546], [79.64167, 25.71836], [79.83127, 25.521], [80.19957, 25.12033], [80.39225, 24.9241], [80.65836, 24.69363], [80.94419, 24.49099], [81.23843, 24.31105], [81.83223, 23.97592], [82.12231, 23.79983], [82.40491, 23.60269], [82.67139, 23.37862], [82.86331, 23.18026], [83.01863, 22.9796], [83.1377, 22.779], [83.22094, 22.57931], [83.26673, 22.3842], [83.27437, 22.19076], [83.24149, 22.00448], [83.16728, 21.82617], [83.04707, 21.6753], [82.88296, 21.56515], [82.68154, 21.49073], [82.45239, 21.45068], [82.20495, 21.44361], [81.94633, 21.46817], [81.69001, 21.52135], [81.43606, 21.60221], [81.13897, 21.71515], [81.06008, 21.73783], [80.98329, 21.75319], [80.91128, 21.75989], [80.83433, 21.75667], [80.51573, 21.69657], [80.45199, 21.6923], [80.38004, 21.69489], [80.29598, 21.70717], [80.14482, 21.74729], [80.04427, 21.78651], [79.99509, 21.81058], [79.90789, 21.86523], [79.80051, 21.9637], [79.74755, 22.00519], [79.70931, 22.02636], [79.66483, 22.04402], [79.58904, 22.06476], [79.47274, 22.08335], [79.16372, 22.1092], [78.97569, 22.11778], [78.85193, 22.11374], [78.75514, 22.10248], [78.66032, 22.08495], [78.38881, 22.02312], [78.29604, 22.00752], [78.20204, 21.99879], [78.09934, 21.99924], [77.90771, 22.01589], [77.81895, 22.01822], [77.72339, 22.00909], [77.5417, 21.97948], [77.44776, 21.97308], [77.35219, 21.97923], [77.22442, 21.99967], [77.15278, 21.99984], [77.0959, 21.98527], [77.04585, 21.95782], [77.00885, 21.92598], [76.97681, 21.88927], [76.88281, 21.76011], [76.84727, 21.72164], [76.80764, 21.69125], [76.76725, 21.6791], [76.71975, 21.6839], [76.48821, 21.75066], [76.31932, 21.77518], [76.15236, 21.78293], [75.9807, 21.77909], [75.46387, 21.74846], [75.29235, 21.74982], [75.15151, 21.76058], [74.73328, 21.80984], [74.59213, 21.81803], [74.45679, 21.8145], [74.32837, 21.79597], [74.19742, 21.75622], [74.06234, 21.70237], [74.00704, 21.69177], [73.97717, 21.69148], [73.93304, 21.69925], [73.89042, 21.71599], [73.85178, 21.73802], [73.69901, 21.846], [73.65977, 21.86585], [73.5836, 21.88577], [73.52296, 21.88444], [73.50361, 21.87886], [73.49858, 21.87171], [73.5126, 21.81679], [73.51751, 21.74836], [73.50852, 21.6803], [73.48612, 21.61533], [73.46514, 21.57376], [73.42525, 21.51831], [73.391, 21.48353], [73.33954, 21.44258], [73.2815, 21.41074], [73.22031, 21.38818], [73.12948, 21.34683], [73.1255, 21.3365], [73.14118, 21.31264], [73.03044, 21.29475], [72.90136, 21.28279], [72.71425, 21.28194], [72.61974, 21.29258], [72.60255, 21.27634], [72.58687, 21.34143], [72.59054, 21.34855], [72.63852, 21.35716], [72.64576, 21.36278], [72.63868, 21.37124], [72.59409, 21.36278], [72.57912, 21.36694], [72.56765, 21.37642], [72.56464, 21.3858], [72.6351, 21.40746], [72.72828, 21.46581], [72.74708, 21.45287], [72.75262, 21.46357], [72.74855, 21.47964], [72.73829, 21.48286], [72.66505, 21.45722], [72.61247, 21.42187], [72.58369, 21.41744], [72.61965, 21.48736], [72.65105, 21.50702], [72.69033, 21.54079], [72.70395, 21.5484], [72.72682, 21.55317], [72.7732, 21.58051], [72.78907, 21.59553], [72.8104, 21.63507], [72.82309, 21.64394], [72.87159, 21.63654], [72.88966, 21.64053], [72.93556, 21.65835], [72.96534, 21.67878], [73.02247, 21.69855], [73.08497, 21.72968], [73.11695, 21.73725], [73.13201, 21.7578], [73.12615, 21.76683], [73.11883, 21.76472], [73.084, 21.74641], [73.04664, 21.73334], [73.02247, 21.71601], [72.99147, 21.70844], [72.95021, 21.68915], [72.92716, 21.685], [72.85816, 21.69497], [72.81918, 21.67505], [72.79832, 21.67354], [72.73325, 21.68749], [72.67644, 21.67814], [72.61606, 21.68545], [72.55031, 21.6667], [72.53469, 21.67293], [72.52854, 21.69538], [72.55633, 21.77432], [72.56691, 21.84934], [72.58546, 21.85887], [72.61859, 21.92525], [72.63405, 21.93748], [72.6519, 21.94102], [72.69012, 21.93879], [72.70232, 21.94758], [72.71404, 21.98298], [72.73455, 21.98656], [72.73455, 21.99404], [72.71371, 21.9958], [72.70094, 21.98892], [72.69354, 21.97233], [72.62306, 21.96662], [72.6027, 21.9436], [72.58205, 21.92835], [72.54274, 21.91085], [72.53324, 21.92053], [72.50173, 21.97602], [72.52223, 22.05427], [72.51955, 22.08844], [72.53004, 22.10749], [72.54218, 22.15672], [72.57546, 22.19452], [72.59051, 22.20502], [72.61411, 22.21173], [72.63466, 22.2103], [72.6819, 22.18159], [72.70777, 22.18576], [72.71941, 22.18219], [72.74822, 22.16405], [72.79022, 22.21723], [72.81227, 22.23411], [72.84742, 22.24041], [72.89723, 22.21304], [72.91603, 22.22309], [72.92213, 22.23652], [72.9227, 22.25458], [72.91749, 22.27143], [72.90577, 22.2814], [72.89966, 22.2692], [72.88608, 22.26241], [72.86948, 22.26241], [72.83863, 22.27656], [72.81821, 22.27342], [72.7566, 22.24373], [72.72658, 22.24894], [72.65943, 22.27391], [72.62501, 22.2714], [72.60662, 22.28384], [72.57374, 22.28824], [72.55307, 22.28246], [72.50171, 22.24043], [72.46616, 22.23258], [72.45705, 22.23673], [72.45486, 22.2453], [72.46697, 22.25585], [72.46388, 22.26398], [72.44874, 22.26683], [72.41375, 22.24633], [72.39186, 22.25349], [72.38108, 22.28975], [72.38039, 22.3124], [72.40496, 22.33295], [72.40805, 22.35346], [72.39723, 22.36677], [72.37135, 22.3559], [72.36101, 22.34345], [72.3405, 22.30321], [72.32829, 22.26074], [72.30909, 22.25724], [72.27516, 22.26033], [72.2632, 22.27637], [72.26466, 22.29523], [72.24041, 22.30191], [72.20851, 22.30044], [72.20094, 22.29145], [72.20631, 22.27391], [72.16179, 22.28095], [72.14877, 22.2779], [72.16603, 22.26032], [72.19068, 22.25129], [72.20924, 22.25943], [72.24041, 22.28824], [72.2461, 22.27558], [72.23414, 22.24356], [72.26832, 22.22675], [72.30648, 22.22955], [72.31722, 22.18488], [72.30762, 22.07901], [72.29566, 22.05118], [72.29176, 22.05341], [72.27515, 22.02754], [72.25783, 22.0123], [72.23732, 22.00703], [72.22096, 22.01097], [72.21648, 22.0078], [72.21436, 21.99405], [72.20631, 21.99405], [72.19988, 22.00698], [72.18268, 21.98294], [72.16343, 21.97322], [72.1517, 21.99388], [72.13429, 22.00458], [72.11378, 22.01057], [72.09702, 22.00702], [72.12809, 21.98354], [72.12484, 21.97233], [72.11492, 21.9694], [72.07651, 21.97972], [72.10449, 21.95922], [72.10205, 21.94506], [72.0962, 21.94303], [72.07325, 21.9545], [72.05519, 21.95352], [72.03842, 21.94758], [72.02866, 21.93879], [72.1045, 21.91767], [72.15647, 21.92584], [72.14536, 21.91767], [72.14536, 21.91083], [72.15918, 21.9046], [72.15235, 21.89785], [72.16976, 21.89044], [72.16, 21.86591], [72.16943, 21.84138], [72.16188, 21.83919], [72.13088, 21.84627], [72.09848, 21.88052], [72.07765, 21.89444], [72.05795, 21.89875], [72.04933, 21.88044], [72.08643, 21.86562], [72.10449, 21.83577], [72.08676, 21.83028], [72.0631, 21.83433], [72.00416, 21.85773], [71.99732, 21.85493], [71.99415, 21.8122], [72.00148, 21.78791], [72.02181, 21.80095], [72.02182, 21.77432], [72.0739, 21.78871], [72.1032, 21.77521], [72.11744, 21.7766], [72.16602, 21.79392], [72.17106, 21.79095], [72.17701, 21.76667], [72.1958, 21.75779], [72.20239, 21.74811], [72.21437, 21.71284], [72.22381, 21.70059], [72.24041, 21.69172], [72.27173, 21.69089], [72.27833, 21.67194], [72.29565, 21.65387], [72.29877, 21.62605], [72.29565, 21.61604], [72.27516, 21.59553], [72.24209, 21.48061], [72.21989, 21.44474], [72.16684, 21.39208], [72.15161, 21.36018], [72.1045, 21.31501], [72.11149, 21.29609], [72.10775, 21.28999], [72.09702, 21.28766], [72.10254, 21.2744], [72.09083, 21.25292], [72.10449, 21.22215], [72.10458, 21.20491], [72.09083, 21.19148], [72.06666, 21.18134], [72.05502, 21.16837], [71.99073, 21.13639], [71.92628, 21.13003], [71.80616, 21.06208], [71.76294, 21.03231], [71.74366, 21.02759], [71.71762, 21.03205], [71.68335, 21.01147], [71.63998, 20.99681], [71.5835, 20.95825], [71.54959, 20.95125], [71.56935, 20.97919], [71.55112, 20.97358], [71.49342, 20.92914], [71.48439, 20.91714], [71.48071, 20.90038], [71.46224, 20.88533], [71.37842, 20.85954], [71.31861, 20.84931], [71.14063, 20.7657], [71.11695, 20.76691], [71.11011, 20.75948], [71.09547, 20.76374], [71.06234, 20.73897], [71.02418, 20.74453], [71.00766, 20.7416], [71.00082, 20.72216], [70.98243, 20.71016], [70.81967, 20.70296], [70.80161, 20.70906], [70.77459, 20.72736], [70.74025, 20.7185], [70.69858, 20.74641], [70.54173, 20.80776], [70.48414, 20.84394], [70.46284, 20.849], [70.39877, 20.90351], [70.33669, 20.92708], [70.29998, 20.95856], [70.26353, 20.98042], [70.15219, 21.07852], [70.05466, 21.15299], [69.95826, 21.27334], [69.91146, 21.3152], [69.84517, 21.38938], [69.81472, 21.43367], [69.8086, 21.46581], [69.78852, 21.46943], [69.75656, 21.49026], [69.62973, 21.61603], [69.56806, 21.65028], [69.51979, 21.70478], [69.49937, 21.72021], [69.47853, 21.75263], [69.44631, 21.76631], [69.42728, 21.7814], [69.39765, 21.81545], [69.39179, 21.83218], [69.39519, 21.86131], [69.39088, 21.87669], [69.36761, 21.85605], [69.35548, 21.85319], [69.3362, 21.86246], [69.24391, 21.94595], [69.19858, 21.97958], [69.15065, 22.04121], [69.10305, 22.07637], [69.09205, 22.09959], [69.04819, 22.1579], [68.99416, 22.20393], [68.98048, 22.23554], [68.9446, 22.29507], [68.94403, 22.31826], [68.96062, 22.34951], [68.96771, 22.38743], [68.9831, 22.41914], [69.0075, 22.44317], [69.07358, 22.48187], [69.08138, 22.48053], [69.0852, 22.47288], [69.08227, 22.45955], [69.07447, 22.44946], [69.056, 22.44184], [69.04819, 22.43159], [69.07179, 22.39948], [69.09742, 22.39887], [69.12273, 22.41106], [69.14698, 22.40485], [69.17856, 22.42763], [69.18824, 22.42641], [69.20215, 22.41486], [69.20573, 22.39867], [69.18214, 22.36644], [69.1853, 22.34968], [69.16969, 22.32795], [69.17384, 22.3083], [69.19044, 22.2923], [69.21208, 22.28139], [69.21209, 22.27391], [69.28647, 22.28461], [69.3357, 22.30614], [69.34645, 22.32489], [69.35988, 22.32916], [69.4354, 22.33039], [69.47967, 22.34223], [69.5027, 22.37225], [69.51987, 22.37763], [69.52564, 22.39208], [69.51373, 22.43135], [69.51597, 22.44814], [69.53077, 22.44611], [69.54785, 22.45208], [69.56167, 22.39182], [69.5547, 22.37763], [69.61606, 22.3559], [69.61989, 22.37104], [69.62973, 22.38376], [69.64039, 22.37596], [69.66945, 22.40924], [69.69939, 22.40428], [69.73341, 22.48003], [69.79493, 22.41861], [69.80698, 22.42097], [69.82229, 22.45209], [69.83327, 22.46381], [69.86378, 22.46577], [69.88478, 22.47358], [69.97299, 22.54144], [69.99627, 22.54145], [70.02085, 22.55511], [70.05882, 22.55839], [70.1447, 22.5478], [70.17848, 22.56196], [70.2073, 22.61497], [70.23487, 22.64887], [70.2674, 22.70615], [70.3191, 22.77827], [70.32325, 22.78766], [70.32253, 22.82266], [70.34295, 22.84317], [70.37527, 22.90265], [70.40463, 22.9195], [70.43687, 22.95489], [70.45338, 22.96661], [70.48634, 22.96369], [70.50473, 22.97956], [70.52719, 23.02359], [70.52849, 23.04706], [70.52369, 23.07038], [70.50294, 23.1044], [70.48422, 23.12214], [70.46713, 23.12971], [70.45112, 23.10583], [70.41066, 23.086], [70.39877, 23.06904], [70.40105, 23.0454], [70.41097, 23.02318], [70.40187, 22.99925], [70.40161, 22.95385], [70.39242, 22.94087], [70.36354, 22.93871], [70.34669, 22.93131], [70.32569, 22.94501], [70.30348, 22.93815], [70.29176, 22.95303], [70.2693, 22.95857], [70.24968, 22.98745], [70.23308, 23.00015], [70.23193, 22.97492], [70.22201, 22.95918], [70.20411, 22.95223], [70.17848, 22.95303], [70.1631, 22.94897], [70.14747, 22.96605], [70.12906, 22.96933], [70.12501, 22.97598], [70.13063, 22.99396], [70.10955, 22.95917], [70.13232, 22.94106], [70.13541, 22.93001], [70.06178, 22.9182], [69.99691, 22.8938], [69.94068, 22.88614], [69.88429, 22.86784], [69.83318, 22.85847], [69.78012, 22.82746], [69.7601, 22.80834], [69.72884, 22.75484], [69.71583, 22.74691], [69.65382, 22.76048], [69.58571, 22.76119], [69.55698, 22.77851], [69.4998, 22.78175], [69.47218, 22.79466], [69.37257, 22.81901], [69.33814, 22.83307], [69.23878, 22.84196], [69.20192, 22.85225], [69.13543, 22.88848], [69.03989, 22.95051], [68.86623, 23.01997], [68.65407, 23.15779], [68.64967, 23.18085], [68.62258, 23.19156], [68.59989, 23.22525], [68.59574, 23.24034], [68.60939, 23.22671], [68.62013, 23.24543], [68.62306, 23.26765], [68.60531, 23.2596], [68.57781, 23.25528], [68.55226, 23.25972], [68.54104, 23.27823], [68.56105, 23.3161], [68.60694, 23.32559], [68.59205, 23.34007], [68.57106, 23.34639], [68.56105, 23.36392], [68.54102, 23.35701], [68.52057, 23.36937], [68.51511, 23.37725], [68.51516, 23.39931], [68.52955, 23.41193], [68.54103, 23.41169], [68.53639, 23.42133], [68.53012, 23.42569], [68.52215, 23.42475], [68.51321, 23.41853], [68.50148, 23.42328], [68.49048, 23.40934], [68.47535, 23.40486], [68.46259, 23.40913], [68.45884, 23.41983], [68.4655, 23.44579], [68.44044, 23.43428], [68.43093, 23.4366], [68.42369, 23.44579], [68.44744, 23.48745], [68.46562, 23.50529], [68.48585, 23.51411], [68.48129, 23.52513], [68.46803, 23.51984], [68.45867, 23.52147], [68.43735, 23.54881], [68.44744, 23.51634], [68.44695, 23.503], [68.43116, 23.49361], [68.41164, 23.49471], [68.40611, 23.50874], [68.41082, 23.54881], [68.40497, 23.5976], [68.40888, 23.62132], [68.4275, 23.6314], [68.47153, 23.61864], [68.49147, 23.61884], [68.49269, 23.6376], [68.48618, 23.64142], [68.46877, 23.64082], [68.46552, 23.65526], [68.46942, 23.65924], [68.50473, 23.67421], [68.53354, 23.67919], [68.58365, 23.73541], [68.60174, 23.74867], [68.63787, 23.76154], [68.65457, 23.79905], [68.67075, 23.81573], [68.7256, 23.81892], [68.74513, 23.83307], [68.76881, 23.84113], [68.82162, 23.8784], [68.80568, 23.88443], [68.78004, 23.8741], [68.76694, 23.8784], [68.74024, 23.85347], [68.71778, 23.84102], [68.63347, 23.83308], [68.62306, 23.82441], [68.59868, 23.78177], [68.5547, 23.76854], [68.51001, 23.7441], [68.47283, 23.73749], [68.42774, 23.7143], [68.34197, 23.62397], [68.35156, 23.61782], [68.34888, 23.60342], [68.32732, 23.58691], [68.31789, 23.58615], [68.29412, 23.5904], [68.23081, 23.58809], [68.18161, 23.59404], [68.1574, 23.60082], [68.14342, 23.6127], [68.15009, 23.63141], [68.17433, 23.63141], [68.18426, 23.65192], [68.19809, 23.65908], [68.20932, 23.66273], [68.22006, 23.65924], [68.23268, 23.64501], [68.24514, 23.65913], [68.27589, 23.66584], [68.28045, 23.68598], [68.25896, 23.67471], [68.24101, 23.67402], [68.20876, 23.69624], [68.1975, 23.71479], [68.19776, 23.77481], [68.16815, 23.74748], [68.16376, 23.75772], [68.16603, 23.77318], [68.17563, 23.79825], [68.18312, 23.84345], [68.15748, 23.9051], [68.15748, 23.86416], [68.17058, 23.83991], [68.14332, 23.76114], [68.14422, 23.74315], [68.15747, 23.69624], [68.14933, 23.69457], [68.10222, 23.73383], [68.09888, 23.70931], [68.08172, 23.7087], [68.06277, 23.72314], [68.05397, 23.74392], [68.07439, 23.76484], [68.07326, 23.78343], [68.08173, 23.80564], [68.10222, 23.80952], [68.10222, 23.81574], [68.07269, 23.8417], [68.05943, 23.86189], [68.0539, 23.88467], [68.06373, 23.92316], [68.0477, 23.92122], [68.01352, 23.93928], [68.04152, 23.85224], [68.05387, 23.82941], [68.02455, 23.7748], [68.01352, 23.76855], [67.99415, 23.81118], [67.97193, 23.80208], [67.95086, 23.80891], [67.94167, 23.81587], [67.93425, 23.83299], [67.90993, 23.83626], [67.90464, 23.84626], [67.90594, 23.85928], [67.89991, 23.86758], [67.89194, 23.86957], [67.86891, 23.85051], [67.86329, 23.90282], [67.85523, 23.91193], [67.83903, 23.82339], [67.83171, 23.80953], [67.7735, 23.82103], [67.7186, 23.84369], [67.74106, 23.82307], [67.74365, 23.80879], [67.73226, 23.79524], [67.71567, 23.79171], [67.69381, 23.79343], [67.63161, 23.80346], [67.63072, 23.82477], [67.64291, 23.85049], [67.65105, 23.90705], [67.65659, 23.91938], [67.6504, 23.93305], [67.63803, 23.91592], [67.63738, 23.87425], [67.62924, 23.85668], [67.61451, 23.85009], [67.59963, 23.85424], [67.58952, 23.86634], [67.58839, 23.88467], [67.57455, 23.87178], [67.54664, 23.89826], [67.53256, 23.89916], [67.53012, 23.89126], [67.54661, 23.87101], [67.49106, 23.88313], [67.47855, 23.8915], [67.50262, 23.89289], [67.51254, 23.89826], [67.54054, 23.93928], [67.50904, 23.92326], [67.49888, 23.92561], [67.49696, 23.93587], [67.50636, 23.97403], [67.4512, 23.9877], [67.46811, 24.02196], [67.4782, 24.03242], [67.4922, 24.02802], [67.51987, 24.04507], [67.5298, 24.05492], [67.53305, 24.07026], [67.50978, 24.05207], [67.48911, 24.0541], [67.44068, 24.07026], [67.38356, 24.0668], [67.35402, 24.07088], [67.34133, 24.08638], [67.33709, 24.11896], [67.29565, 24.19903], [67.29233, 24.26187], [67.27916, 24.28124], [67.29282, 24.30296], [67.28599, 24.32957], [67.30592, 24.34284], [67.33644, 24.34642], [67.36248, 24.34394], [67.32537, 24.35761], [67.28297, 24.35762], [67.27167, 24.36909], [67.27362, 24.39509], [67.28663, 24.43952], [67.25881, 24.41911], [67.25685, 24.44497], [67.24684, 24.46796], [67.21096, 24.50845], [67.23081, 24.52509], [67.22674, 24.53237], [67.20412, 24.53511], [67.18866, 24.56135], [67.18362, 24.5903], [67.19843, 24.58515], [67.23666, 24.58397], [67.25262, 24.59032]]]]}}]}