{"type": "FeatureCollection", "features": [{"type": "Feature", "properties": {"map_title": "게르만족의 이동", "source": "미래엔 세계사 교과서 1권 52쪽", "volume": 1, "page": 52, "name": "로마", "name_en": "Rome", "category": "도시", "legend": "로마", "coord_source": "실제 위치", "map_lon": 12.48256, "map_lat": 41.89263, "map_offset_km": 124.2}, "geometry": {"type": "Point", "coordinates": [12.483, 41.893]}}, {"type": "Feature", "properties": {"map_title": "게르만족의 이동", "source": "미래엔 세계사 교과서 1권 52쪽", "volume": 1, "page": 52, "name": "콘스탄티노폴리스", "name_en": "Constantinople", "category": "수도", "legend": "콘스탄티노폴리스", "coord_source": "실제 위치", "map_lon": 28.97798, "map_lat": 41.00864, "map_offset_km": 42.9}, "geometry": {"type": "Point", "coordinates": [28.978, 41.008]}}, {"type": "Feature", "properties": {"map_title": "게르만족의 이동", "source": "미래엔 세계사 교과서 1권 52쪽", "volume": 1, "page": 52, "name": "부르군트 왕국", "name_en": "Kingdom of the Burgundians", "category": "기타", "legend": "부르군트 왕국", "coord_source": "지도 판독", "map_lon": 6.01824, "map_lat": 45.69448, "kind": "나라 이름 위치(지도 글자)"}, "geometry": {"type": "Point", "coordinates": [6.01824, 45.69448]}}, {"type": "Feature", "properties": {"map_title": "게르만족의 이동", "source": "미래엔 세계사 교과서 1권 52쪽", "volume": 1, "page": 52, "name": "반달 왕국", "name_en": "Vandal Kingdom", "category": "기타", "legend": "반달 왕국", "coord_source": "지도 판독", "map_lon": 8.81545, "map_lat": 36.21594, "kind": "나라 이름 위치(지도 글자)"}, "geometry": {"type": "Point", "coordinates": [8.81545, 36.21594]}}, {"type": "Feature", "properties": {"map_title": "게르만족의 이동", "source": "미래엔 세계사 교과서 1권 52쪽", "volume": 1, "page": 52, "name": "수에비 왕국", "name_en": "Kingdom of the Suebi", "category": "기타", "legend": "수에비 왕국", "coord_source": "지도 판독", "map_lon": -6.94276, "map_lat": 42.71632, "kind": "나라 이름 위치(지도 글자)"}, "geometry": {"type": "Point", "coordinates": [-6.94276, 42.71632]}}, {"type": "Feature", "properties": {"map_title": "게르만족의 이동", "source": "미래엔 세계사 교과서 1권 52쪽", "volume": 1, "page": 52, "name": "서고트 왕국", "name_en": "Visigothic Kingdom", "category": "기타", "legend": "서고트 왕국", "coord_source": "지도 판독", "map_lon": 2.34156, "map_lat": 41.54917, "kind": "나라 이름 위치(지도 글자)"}, "geometry": {"type": "Point", "coordinates": [2.34156, 41.54917]}}, {"type": "Feature", "properties": {"map_title": "게르만족의 이동", "source": "미래엔 세계사 교과서 1권 52쪽", "volume": 1, "page": 52, "name": "롬바르드 왕국", "name_en": "Lombard Kingdom", "category": "기타", "legend": "롬바르드 왕국", "coord_source": "지도 판독", "map_lon": 12.548, "map_lat": 43.85349, "kind": "나라 이름 위치(지도 글자)"}, "geometry": {"type": "Point", "coordinates": [12.548, 43.85349]}}, {"type": "Feature", "properties": {"map_title": "게르만족의 이동", "source": "미래엔 세계사 교과서 1권 52쪽", "volume": 1, "page": 52, "name": "프랑크 왕국", "name_en": "Frankish Kingdom", "category": "기타", "legend": "프랑크 왕국", "coord_source": "지도 판독", "map_lon": -0.70792, "map_lat": 48.41724, "kind": "나라 이름 위치(지도 글자)"}, "geometry": {"type": "Point", "coordinates": [-0.70792, 48.41724]}}, {"type": "Feature", "properties": {"map_title": "게르만족의 이동", "source": "미래엔 세계사 교과서 1권 52쪽", "volume": 1, "page": 52, "name": "앵글로·색슨 7왕국", "name_en": "Anglo-Saxon Heptarchy", "category": "기타", "legend": "앵글로·색슨 7왕국", "coord_source": "지도 판독", "map_lon": -5.58597, "map_lat": 51.79233, "kind": "나라 이름 위치(지도 글자)"}, "geometry": {"type": "Point", "coordinates": [-5.58597, 51.79233]}}, {"type": "Feature", "properties": {"map_title": "게르만족의 이동", "source": "미래엔 세계사 교과서 1권 52쪽", "volume": 1, "page": 52, "name": "동고트 왕국", "name_en": "Ostrogothic Kingdom", "category": "기타", "legend": "동고트 왕국", "coord_source": "지도 판독", "map_lon": 17.17956, "map_lat": 41.37353, "kind": "나라 이름 위치(지도 글자)"}, "geometry": {"type": "Point", "coordinates": [17.17956, 41.37353]}}]}