{"type": "FeatureCollection", "features": [{"type": "Feature", "properties": {"name": "에스파냐령 기타 지역(지도에 이름 없음)", "name_en": null, "period": "1914년", "kind": "식민지", "level": "개별 지역", "colonizer": "에스파냐령", "legend": "에스파냐령", "map_title": "아프리카의 저항 운동", "source": "미래엔 세계사 교과서 3권 173쪽", "volume": 3, "page": 173, "coast_snap": "Natural Earth 10m 해안선에 맞춤", "border_snap": "현대 국경(Natural Earth 10m)에 맞춘 구간 약 230 km", "group": "에스파냐령 기타 지역", "map_folder": "3권_p173_아프리카의 저항 운동"}, "geometry": {"type": "MultiPolygon", "coordinates": [[[[-10.5738, 28.99042], [-10.45092, 29.09219], [-10.34771, 29.22959], [-10.30199, 29.27187], [-10.26403, 29.28413], [-10.19913, 29.36127], [-10.17763, 29.40582], [-10.14175, 29.42862], [-10.12815, 29.45595], [-10.08092, 29.52114], [-10.0727, 29.56438], [-10.05309, 29.59975], [-10.00528, 29.63841], [-9.99168, 29.66681], [-9.9501, 29.71582], [-9.82022, 29.83894], [-9.74616, 29.9531], [-9.61617, 29.86788], [-9.55654, 29.81975], [-9.53113, 29.79213], [-9.49046, 29.73145], [-9.46257, 29.65818], [-9.51651, 29.59414], [-9.63018, 29.48667], [-9.6553, 29.44532], [-9.65122, 29.43851], [-9.56222, 29.37949], [-9.53359, 29.3459], [-9.51749, 29.30442], [-9.5144, 29.27463], [-9.51759, 29.24373], [-9.5415, 29.18606], [-9.5856, 29.12073], [-9.72301, 28.95841], [-9.84521, 28.84892], [-9.87438, 28.82772], [-10.00005, 28.75531], [-10.03334, 28.74376], [-10.15395, 28.71873], [-10.27967, 28.73798], [-10.31889, 28.70781], [-10.38478, 28.66762], [-10.48526, 28.61944], [-10.58802, 28.56358], [-10.6513, 28.58805], [-10.71743, 28.62805], [-10.7735, 28.67864], [-10.82836, 28.75613], [-10.90822, 28.82466], [-10.7626, 28.8902], [-10.69394, 28.93069], [-10.61242, 28.96772], [-10.5738, 28.99042]]], [[[-6.2053, 35.12477], [-6.02392, 35.50117], [-6.01238, 35.55864], [-5.99083, 35.59854], [-5.96523, 35.67023], [-5.95206, 35.68549], [-5.94302, 35.74267], [-5.92722, 35.78074], [-5.90802, 35.79734], [-5.8734, 35.80198], [-5.7814, 35.79092], [-5.76928, 35.79279], [-5.72988, 35.82265], [-5.69351, 35.83428], [-5.6809, 35.82917], [-5.66344, 35.83587], [-5.63972, 35.83636], [-5.61596, 35.83152], [-5.59899, 35.82233], [-5.54003, 35.85098], [-5.46885, 35.91034], [-5.44783, 35.91851], [-5.4235, 35.90896], [-5.4142, 35.9094], [-5.40549, 35.92651], [-5.3662, 35.92474], [-5.32738, 35.90424], [-5.30932, 35.90082], [-5.28309, 35.91167], [-5.29187, 35.89054], [-5.33556, 35.86237], [-5.34569, 35.83259], [-5.31876, 35.70173], [-5.3048, 35.68521], [-5.27677, 35.6852], [-5.27676, 35.6579], [-5.24942, 35.58462], [-5.1508, 35.51609], [-5.06627, 35.41747], [-5.05085, 35.40754], [-5.00822, 35.39923], [-4.98881, 35.38805], [-4.95471, 35.36245], [-4.90933, 35.31452], [-4.86499, 35.30198], [-4.81062, 35.26], [-4.7705, 35.24103], [-4.62829, 35.20539], [-4.49404, 35.18052], [-4.37605, 35.15184], [-4.34765, 35.15013], [-4.32706, 35.15477], [-4.26939, 35.18487], [-4.1306, 35.20478], [-4.0467, 35.23589], [-3.96129, 35.25043], [-3.91935, 35.26682], [-3.90943, 35.25528], [-3.92953, 35.24382], [-3.9039, 35.21417], [-3.88926, 35.20841], [-3.84089, 35.20539], [-3.78747, 35.20922], [-3.7648, 35.21845], [-3.74696, 35.26382], [-3.72622, 35.28229], [-3.69957, 35.29083], [-3.67336, 35.28779], [-3.59097, 35.2333], [-3.51602, 35.22353], [-3.48933, 35.211], [-3.45385, 35.2116], [-3.41291, 35.19794], [-3.36205, 35.19452], [-3.31924, 35.20181], [-3.19514, 35.23823], [-3.17394, 35.24909], [-3.11803, 35.29413], [-3.08967, 35.28628], [-3.07706, 35.28791], [-3.0454, 35.31444], [-3.00624, 35.39354], [-2.98082, 35.42451], [-2.9827, 35.43521], [-2.97792, 35.4433], [-2.96858, 35.44643], [-2.95666, 35.44122], [-2.95223, 35.43305], [-2.95759, 35.41584], [-2.95296, 35.404], [-2.96304, 35.37348], [-2.94811, 35.33027], [-2.89905, 35.26], [-2.90795, 35.25096], [-2.91234, 35.23578], [-2.90514, 35.17357], [-2.88199, 35.14672], [-2.85607, 35.13129], [-2.82095, 35.12189], [-2.74812, 35.11595], [-2.79181, 35.14517], [-2.8681, 35.21719], [-2.88315, 35.23851], [-2.8784, 35.24631], [-2.7611, 35.14326], [-2.71833, 35.12299], [-2.66674, 35.10822], [-2.56322, 35.09614], [-2.51749, 35.09935], [-2.49332, 35.1044], [-2.43712, 35.14507], [-2.41674, 35.14914], [-2.32144, 35.11884], [-2.27552, 35.10963], [-2.22256, 35.0893], [-2.2001, 35.09612], [-2.18639, 35.08869], [-2.15689, 35.10097], [-2.05236, 35.07502], [-1.9877, 35.08246], [-1.95645, 35.07502], [-1.93248, 35.08868], [-1.83869, 35.11091], [-1.81273, 35.12652], [-1.76114, 35.12962], [-1.7456, 35.13882], [-1.71279, 35.17059], [-1.63769, 35.19452], [-1.62949, 35.21222], [-1.59131, 35.23893], [-1.53215, 35.18799], [-1.48436, 35.12923], [-1.4515, 35.06393], [-1.78772, 34.75669], [-1.76953, 34.74134], [-1.77314, 34.73406], [-1.78611, 34.72584], [-1.8105, 34.68073], [-1.86296, 34.6136], [-1.87112, 34.59665], [-1.75066, 34.49417], [-1.70297, 34.47968], [-1.80963, 34.37245], [-1.77133, 34.3347], [-1.74606, 34.29031], [-1.67475, 34.10596], [-1.66963, 34.07921], [-1.67211, 34.05919], [-1.71873, 33.89809], [-1.72209, 33.85117], [-1.71304, 33.802], [-1.7025, 33.77282], [-1.70322, 33.76182], [-1.71082, 33.74706], [-1.74224, 33.71776], [-1.74679, 33.70239], [-2.2349, 33.60129], [-2.27687, 33.60109], [-2.87558, 33.63879], [-3.45203, 33.71425], [-4.03088, 33.83305], [-4.60708, 34.0008], [-5.1381, 34.2085], [-5.65629, 34.47389], [-5.9299, 34.65468], [-5.94165, 34.6497], [-6.06612, 34.43467], [-6.1675, 34.41833], [-6.24658, 34.41696], [-6.32389, 34.42343], [-6.4046, 34.44109], [-6.48425, 34.4673], [-6.52224, 34.48561], [-6.2921, 34.8808], [-6.2053, 35.12477]]], [[[-5.43832, 36.12829], [-5.43716, 36.0987], [-5.42871, 36.0808], [-5.43184, 36.06957], [-5.44551, 36.05745], [-5.61176, 36.00647], [-5.62971, 36.03677], [-5.68936, 36.06712], [-5.71312, 36.05997], [-5.7777, 36.08123], [-5.67328, 36.09993], [-5.60835, 36.10395], [-5.50466, 36.10091], [-5.43832, 36.12829]]], [[[-5.36199, 36.15082], [-5.33733, 36.15557], [-5.34204, 36.11052], [-5.35024, 36.11929], [-5.36199, 36.15082]]]]}}]}