{"type": "FeatureCollection", "features": [{"type": "Feature", "properties": {"name": "수단–남수단 국경", "category": "경계선", "period": "2011년", "legend": "수단·남수단 경계", "map_title": "수단과 남수단의 분리", "source": "미래엔 세계사 교과서 4권 210쪽", "volume": 4, "page": 210}, "geometry": {"type": "LineString", "coordinates": [[34.15321, 9.22048], [33.60877, 9.81914], [33.37942, 10.05286], [33.26001, 10.16505], [33.20316, 10.21052], [32.91564, 10.39693], [32.84929, 10.4482], [32.79339, 10.50265], [32.75204, 10.56086], [32.73676, 10.6], [32.72888, 10.64139], [32.70132, 10.86752], [32.68816, 11.00364], [32.68583, 11.13756], [32.69548, 11.25608], [32.69649, 11.31003], [32.68927, 11.52624], [32.69548, 11.63393], [32.7086, 11.69511], [32.72862, 11.7546], [32.90762, 12.20864], [32.81518, 12.20965], [32.41927, 12.22676], [32.32181, 12.22609], [32.22821, 12.22005], [32.14007, 12.20686], [32.16829, 12.00664], [32.16943, 11.96539], [32.16625, 11.92833], [32.15757, 11.89741], [32.13426, 11.86432], [32.10047, 11.84278], [32.05887, 11.83062], [32.01209, 11.82566], [31.96277, 11.82571], [31.82611, 11.8336], [31.55909, 11.83848], [31.39903, 11.85088], [31.58549, 11.47447], [31.66787, 11.32308], [31.70309, 11.24558], [31.71578, 11.20602], [31.72811, 11.12739], [31.7288, 11.06995], [31.71912, 11.01435], [31.71114, 10.99183], [31.68921, 10.94981], [31.64615, 10.89241], [31.12082, 10.31567], [30.93284, 10.11922], [30.87565, 10.04999], [30.80258, 9.9328], [30.78496, 9.91178], [30.7648, 9.89392], [30.74142, 9.88023], [30.70371, 9.86934], [30.64505, 9.85951], [30.49273, 9.84622], [30.34046, 9.84623], [30.28193, 9.85282], [30.24459, 9.86457], [29.51, 10.30794], [29.08189, 10.13945], [29.03714, 9.89601], [28.68088, 9.8538], [28.44539, 9.70905], [28.43541, 9.55768], [27.64503, 9.67339], [27.5725, 9.9618], [26.75637, 9.9534], [26.32771, 9.93317], [26.12235, 10.1989], [25.8344, 10.5199], [25.80948, 10.59329], [25.77527, 10.67903], [25.75654, 10.71679], [25.73837, 10.74396], [25.722, 10.75513], [25.70016, 10.75395], [25.6285, 10.74068], [25.48225, 10.70468], [24.99976, 10.71005], [24.90591, 10.70612], [24.89882, 10.39905], [24.65869, 10.32409], [24.63784, 9.92516], [24.49099, 9.86637], [24.49393, 9.56059], [24.173, 9.44508], [24.1336, 9.24867]]}}]}