{"type": "FeatureCollection", "features": [{"type": "Feature", "properties": {"name": "하르툼", "name_en": "Khartoum", "category": "수도", "year": "", "coord_source": "실제 위치", "legend": "하르툼", "map_title": "수단과 남수단의 분리", "source": "미래엔 세계사 교과서 4권 210쪽", "volume": 4, "page": 210, "map_lon": 32.52825, "map_lat": 15.59293}, "geometry": {"type": "Point", "coordinates": [32.53, 15.59]}}, {"type": "Feature", "properties": {"name": "주바", "name_en": "Juba", "category": "수도", "year": "", "coord_source": "실제 위치", "legend": "주바", "map_title": "수단과 남수단의 분리", "source": "미래엔 세계사 교과서 4권 210쪽", "volume": 4, "page": 210, "map_lon": 31.58237, "map_lat": 4.85247}, "geometry": {"type": "Point", "coordinates": [31.58, 4.85]}}]}