{"type": "FeatureCollection", "features": [{"type": "Feature", "properties": {"map_title": "인도의 이슬람화", "source": "미래엔 세계사 교과서 3권 127쪽", "volume": 3, "page": 127, "name": "이슬람 세력의 주요 진출 방향", "category": "정복·원정로", "period": "10~13세기", "legend": "이슬람 세력의 주요 진출 방향"}, "geometry": {"type": "LineString", "coordinates": [[76.87501, 26.41116], [76.63673, 25.9443], [76.35813, 25.43128], [76.0452, 24.89141], [75.70459, 24.34322], [75.34342, 23.80392], [74.96906, 23.28941], [74.77653, 23.05275], [74.58887, 22.81476], [74.39604, 22.60591], [74.20964, 22.39506], [74.19755, 22.40163]]}}, {"type": "Feature", "properties": {"map_title": "인도의 이슬람화", "source": "미래엔 세계사 교과서 3권 127쪽", "volume": 3, "page": 127, "name": "이슬람 세력의 주요 진출 방향", "category": "정복·원정로", "period": "10~13세기", "legend": "이슬람 세력의 주요 진출 방향"}, "geometry": {"type": "LineString", "coordinates": [[60.49688, 26.91718], [61.16271, 27.11357], [61.80066, 27.24516], [62.42022, 27.31175], [63.02871, 27.31413], [63.63057, 27.25486], [64.22853, 27.13889], [64.82609, 26.97438], [65.12885, 26.87083], [65.43165, 26.77363], [65.63396, 26.71374], [65.83937, 26.6757], [66.04272, 26.66312], [66.2384, 26.67916], [66.4205, 26.7276], [66.58295, 26.81349], [66.71978, 26.94326], [66.82525, 27.12419], [66.87471, 27.26759], [66.90738, 27.41323], [66.92909, 27.56074], [66.96345, 27.85974], [66.98811, 28.0104], [67.02589, 28.16129], [67.08295, 28.31198], [67.27124, 28.66002], [67.49238, 28.95859], [67.74476, 29.21408], [68.02688, 29.43332], [68.33727, 29.62331], [68.67445, 29.79117], [69.03693, 29.94395], [69.42327, 30.08866], [69.4313, 30.08728]]}}, {"type": "Feature", "properties": {"map_title": "인도의 이슬람화", "source": "미래엔 세계사 교과서 3권 127쪽", "volume": 3, "page": 127, "name": "이슬람 세력의 주요 진출 방향", "category": "정복·원정로", "period": "10~13세기", "legend": "이슬람 세력의 주요 진출 방향"}, "geometry": {"type": "LineString", "coordinates": [[73.23555, 21.30135], [73.34993, 20.62566], [73.43979, 20.28374], [73.51697, 19.95404], [73.72296, 19.29765], [73.85596, 18.96118], [73.98493, 18.61366], [74.13134, 18.26074], [74.26982, 17.90652], [74.57585, 17.23054], [74.74581, 16.91805], [74.91901, 16.61036], [75.28961, 16.05448], [75.51078, 15.77027], [75.79047, 15.4459], [76.11452, 15.0961], [76.47001, 14.73566], [76.84465, 14.37902], [77.22576, 14.03921], [77.60109, 13.72804], [77.96043, 13.45723], [77.96743, 13.46022]]}}, {"type": "Feature", "properties": {"map_title": "인도의 이슬람화", "source": "미래엔 세계사 교과서 3권 127쪽", "volume": 3, "page": 127, "name": "이슬람 세력의 주요 진출 방향", "category": "정복·원정로", "period": "10~13세기", "legend": "이슬람 세력의 주요 진출 방향"}, "geometry": {"type": "LineString", "coordinates": [[58.02607, 38.002], [58.56964, 37.87866], [59.17774, 37.66243], [59.82253, 37.37306], [60.4756, 37.0308], [61.10809, 36.6565], [61.69119, 36.27156], [62.19661, 35.89799], [62.86881, 35.32561], [63.15166, 35.11677], [63.44214, 34.92493], [64.03194, 34.56504], [64.32378, 34.38338], [64.60837, 34.19151], [64.88156, 33.98258], [65.37676, 33.69039], [65.96157, 33.52676], [66.61664, 33.46002], [67.3212, 33.45794], [68.78577, 33.51838], [69.13964, 33.51899], [69.49422, 33.51794], [70.14992, 33.45752], [71.24643, 33.11146], [72.12433, 32.51238], [72.78985, 31.73202], [73.1001, 31.13382], [73.25135, 30.83342], [73.43193, 30.1931], [73.5171, 29.86972], [73.57528, 29.22007], [73.59878, 28.89049], [73.57557, 28.58198], [73.52128, 27.95739], [73.32407, 27.14873], [73.14346, 26.58234], [72.99554, 26.04169], [72.88163, 25.52081], [72.80215, 25.01295], [72.75674, 24.51035], [72.74446, 24.00331], [72.76362, 23.47843], [72.81471, 22.91161]]}}]}