{"type": "FeatureCollection", "features": [{"type": "Feature", "properties": {"map_title": "인도의 이슬람화", "source": "미래엔 세계사 교과서 3권 127쪽", "volume": 3, "page": 127, "name": "가즈니 왕조", "name_en": "Ghaznavid dynasty", "period": "977–1186", "kind": "국가", "legend": "가즈니 왕조의 최대 영역", "coast_snap": "Natural Earth 10m 해안선에 맞춤", "border_snap": "현대 국경(Natural Earth 10m)에 맞춘 구간 약 1450 km"}, "geometry": {"type": "Polygon", "coordinates": [[[49.98504, 35.73653], [50.27447, 35.85495], [50.59452, 35.90406], [50.93326, 35.90106], [51.28108, 35.86353], [51.96682, 35.75888], [52.28398, 35.73071], [52.54679, 35.75486], [52.85824, 35.83448], [53.20441, 35.95836], [53.56841, 36.1151], [53.93217, 36.29208], [54.2776, 36.4765], [54.57869, 36.65542], [54.80969, 36.82172], [54.99407, 37.01006], [55.12462, 37.20905], [55.21429, 37.41709], [55.27373, 37.63232], [55.29427, 37.74949], [55.20741, 37.96616], [55.21971, 37.96998], [55.2288, 37.9858], [55.25051, 37.99541], [55.30746, 38.00879], [55.42311, 38.07589], [55.4474, 38.08367], [55.37362, 38.30601], [55.4215, 38.50834], [55.55598, 38.7362], [55.76503, 38.87593], [56.01992, 38.95596], [56.29327, 39.00853], [56.56183, 39.067], [56.80279, 39.16436], [57.00262, 39.33905], [57.13477, 39.61944], [57.16134, 39.76377], [57.16596, 39.90759], [57.15497, 40.05123], [57.09014, 40.48822], [57.0792, 40.6358], [57.08421, 40.78427], [57.09544, 40.84436], [57.11507, 40.90774], [57.17204, 41.05754], [57.02952, 41.2626], [57.06032, 41.30492], [57.08006, 41.32203], [57.12667, 41.3396], [57.14796, 41.35107], [57.15923, 41.36115], [57.1614, 41.36797], [57.15375, 41.37236], [57.10362, 41.38161], [57.07417, 41.39499], [57.05226, 41.4136], [57.03304, 41.43825], [57.0196, 41.46595], [57.01505, 41.49364], [57.01578, 41.52899], [57.01205, 41.55783], [57.00058, 41.58403], [56.97836, 41.61147], [56.96048, 41.6472], [56.96162, 41.67872], [56.96947, 41.71089], [56.97195, 41.74854], [56.94984, 41.8275], [56.95015, 41.86605], [56.97836, 41.89512], [57.07438, 41.92879], [57.11551, 41.95209], [57.15292, 41.99348], [57.20781, 42.07056], [57.28821, 42.12942], [57.38226, 42.16363], [57.37633, 42.39121], [57.41731, 42.45582], [57.51634, 42.57327], [57.61827, 42.65172], [57.74954, 42.71277], [57.86799, 42.75342], [58.13064, 42.63885], [58.14883, 42.649], [58.18656, 42.6612], [58.23958, 42.68515], [58.25828, 42.68951], [58.28267, 42.68892], [58.39058, 42.65667], [58.44184, 42.64784], [58.4932, 42.64546], [58.53455, 42.6545], [58.55573, 42.6836], [58.56938, 42.7685], [58.58788, 42.79119], [58.61227, 42.78085], [58.68511, 42.71769], [58.93064, 42.85587], [59.37937, 42.84096], [59.69922, 42.81673], [60.02007, 42.78155], [60.2826, 42.74547], [60.55438, 42.72557], [60.6342, 42.71324], [60.7394, 42.6812], [60.81711, 42.65161], [60.96831, 42.5834], [61.33398, 42.39727], [61.56057, 42.27536], [61.84959, 42.09983], [61.93077, 42.03822], [62.08658, 41.90656], [62.17501, 41.85187], [62.24534, 41.82414], [62.39486, 41.78214], [62.46759, 41.7571], [63.58043, 41.27659], [63.68973, 41.23799], [63.80104, 41.20473], [64.03019, 41.14948], [64.77215, 40.99439], [64.96884, 40.96529], [65.07002, 40.95887], [65.28634, 40.96215], [65.39769, 40.95887], [65.95018, 40.91407], [66.06101, 40.91051], [66.29442, 40.91479], [66.64356, 40.93725], [66.74162, 41.15635], [66.81528, 41.14188], [67.74814, 41.1841], [67.77093, 41.1793], [67.83491, 41.15687], [67.85413, 41.15899], [67.93743, 41.20038], [67.94948, 41.17191], [67.95893, 41.15945], [68.00306, 41.11563], [68.01319, 41.09785], [68.02115, 41.05915], [68.03438, 41.04272], [68.05908, 41.05476], [68.07138, 41.05331], [68.08213, 41.04272], [68.09598, 41.06514], [68.11737, 41.06674], [68.4399, 41.12452], [68.62702, 40.94406], [68.68938, 40.96494], [68.70953, 40.98375], [68.74627, 41.0638], [68.77377, 41.08726], [68.84244, 41.1101], [68.88022, 41.15552], [68.90084, 41.16064], [68.94378, 41.16488], [68.97975, 41.17821], [69.01406, 41.19604], [69.03122, 41.20875], [69.03918, 41.22028], [69.05478, 41.31541], [69.05116, 41.34363], [69.03427, 41.35872], [69.03158, 41.36698], [69.04445, 41.37918], [69.10946, 41.40068], [69.12806, 41.39515], [69.13819, 41.41592], [69.16268, 41.43406], [69.21715, 41.46005], [69.23332, 41.46264], [69.26294, 41.45458], [69.27756, 41.45618], [69.31616, 41.47483], [69.33115, 41.47793], [69.39068, 41.46972], [69.40236, 41.47483], [69.40112, 41.48517], [69.38448, 41.50822], [69.38081, 41.51881], [69.39378, 41.54496], [69.42034, 41.55953], [69.47729, 41.57312], [69.57899, 41.63338], [69.60756, 41.65829], [69.62457, 41.66831], [69.75944, 41.69645], [69.87086, 41.69958], [69.9124, 41.71286], [69.95654, 41.75518], [69.97204, 41.76458], [70.02795, 41.77998], [70.1111, 41.82598], [70.13637, 41.84809], [70.20417, 41.93581], [70.21859, 41.94692], [70.27032, 41.96555], [70.28298, 41.97625], [70.29026, 41.99377], [70.31507, 42.03459], [70.35791, 42.06224], [70.45542, 42.09374], [70.4702, 42.09162], [70.48849, 42.08188], [70.50446, 42.06847], [70.51888, 42.03669], [70.53423, 42.02498], [70.55526, 42.0187], [70.57903, 42.01625], [70.61024, 42.02741], [70.63148, 42.05687], [70.64983, 42.0934], [70.67318, 42.12598], [70.70114, 42.15094], [70.71184, 42.16433], [70.7199, 42.1829], [70.73427, 42.1973], [70.75814, 42.19802], [70.80455, 42.18843], [70.84237, 42.19254], [70.87999, 42.20693], [70.95793, 42.13202], [71.06653, 42.10453], [71.17417, 42.06876], [71.27859, 42.02618], [71.37906, 41.97751], [71.47216, 41.92481], [71.55707, 41.86881], [71.63149, 41.81108], [71.65681, 41.78633], [71.64951, 41.54992], [71.67142, 41.54739], [71.68413, 41.53406], [71.6894, 41.51463], [71.6895, 41.4938], [71.67111, 41.43763], [71.67194, 41.42548], [71.68144, 41.42285], [71.69612, 41.44744], [71.70687, 41.44409], [71.71224, 41.42802], [71.72165, 41.42476], [71.72971, 41.43008], [71.73043, 41.45117], [71.73684, 41.4554], [71.74521, 41.45282], [71.75317, 41.44729], [71.84702, 41.34182], [71.86303, 41.31221], [71.86882, 41.27924], [71.86634, 41.23661], [71.87161, 41.19449], [71.89766, 41.18493], [71.97703, 41.19521], [72.00122, 41.18002], [72.01651, 41.16353], [72.03377, 41.15661], [72.06364, 41.1702], [72.1085, 41.1964], [72.13289, 41.1993], [72.15842, 41.18788], [72.16989, 41.16865], [72.1856, 41.06065], [72.1856, 41.04106], [72.16514, 40.99936], [72.25298, 41.01962], [72.28978, 41.02354], [72.29732, 41.02814], [72.31407, 41.06168], [72.33236, 41.07284], [72.34569, 41.06597], [72.37432, 41.03197], [72.3952, 41.02205], [72.42352, 41.01574], [72.47674, 41.01181], [72.48191, 41.00882], [72.48522, 40.99957], [72.48336, 40.97057], [72.50144, 40.9635], [72.52625, 40.9622], [72.54558, 40.95652], [72.58847, 40.90582], [72.61947, 40.88009], [72.65823, 40.86717], [72.70123, 40.86324], [72.83011, 40.87208], [72.86866, 40.86412], [72.873, 40.83482], [72.87031, 40.81818], [72.88313, 40.81963], [72.92943, 40.84418], [73.00343, 40.87017], [73.01945, 40.8619], [73.0333, 40.84722], [73.05356, 40.83632], [73.11247, 40.83916], [73.14337, 40.83384], [73.14864, 40.81369], [73.11805, 40.78294], [73.07061, 40.76247], [73.21622, 40.56447], [73.40676, 40.47102], [73.53324, 40.40071], [74.04103, 40.01735], [74.3223, 39.62469], [74.4295, 39.22676], [74.41385, 38.82452], [74.32466, 38.4165], [74.21017, 38.00209], [74.11813, 37.58139], [74.0947, 37.15088], [74.11166, 36.67384], [74.12416, 36.52882], [74.14419, 36.38369], [74.17403, 36.24187], [74.21564, 36.10838], [74.28106, 35.98042], [74.36748, 35.87861], [74.46953, 35.7977], [74.58563, 35.72953], [74.9843, 35.53931], [75.12199, 35.46025], [75.37831, 35.37912], [75.56585, 35.28891], [75.58458, 35.27987], [75.75531, 35.16557], [75.90447, 35.03888], [76.02667, 34.91969], [76.05833, 34.68341], [76.12179, 34.66088], [76.15497, 34.66166], [76.26204, 34.68465], [76.39992, 34.75075], [76.43816, 34.76289], [76.4765, 34.75778], [76.51991, 34.73111], [76.53582, 34.7262], [76.50558, 34.49384], [76.67497, 34.36241], [76.76394, 34.28172], [76.81887, 34.21332], [76.84828, 34.14966], [76.86022, 34.08383], [76.87292, 33.79909], [76.95807, 33.49589], [77.1273, 33.23053], [77.35881, 32.99215], [77.63007, 32.77032], [78.16353, 32.36992], [78.43452, 32.38376], [78.46273, 32.2818], [78.46139, 32.26015], [78.45633, 32.24212], [78.45798, 32.22966], [78.47648, 32.22442], [78.51307, 32.20757], [78.53498, 32.18134], [78.55182, 32.15039], [78.64929, 32.03644], [78.67833, 32.01676], [78.72215, 31.99459], [78.73383, 31.98466], [78.74458, 31.9642], [78.74199, 31.94534], [78.72019, 31.90291], [78.70034, 31.82168], [78.67409, 31.78695], [78.67089, 31.77052], [78.69559, 31.74669], [78.69321, 31.71853], [78.71047, 31.69817], [78.72401, 31.67331], [78.73982, 31.66603], [78.75812, 31.6666], [78.79532, 31.63378], [78.81889, 31.60737], [78.81403, 31.59502], [78.79698, 31.57885], [78.69952, 31.51002], [78.69538, 31.48811], [78.733, 31.46774], [78.76256, 31.44511], [78.76008, 31.41204], [78.74551, 31.37354], [78.73848, 31.33499], [78.7451, 31.30812], [78.78447, 31.28827], [78.82199, 31.2937], [78.86199, 31.29148], [78.92101, 31.26968], [78.94028, 31.30158], [78.95955, 31.32512], [78.9888, 31.34326], [79.01553, 31.3834], [79.04994, 31.42295], [79.07021, 31.46138], [79.07799, 31.46166], [79.1314, 31.43843], [79.17922, 31.3938], [79.19244, 31.36979], [79.20763, 31.35137], [79.23832, 31.32966], [79.23924, 31.31172], [79.25411, 31.29901], [79.26202, 31.27851], [79.24843, 31.2567], [79.25286, 31.24544], [79.27832, 31.24004], [79.28832, 31.22547], [79.30321, 31.1831], [79.30216, 31.16345], [79.31942, 31.14228], [79.36705, 31.11156], [79.37234, 31.09407], [79.38836, 31.06947], [79.39498, 31.03671], [79.40159, 31.02364], [79.41441, 31.02038], [79.44634, 31.02379], [79.46164, 31.0211], [79.48076, 31.01005], [79.49761, 30.98121], [79.52965, 30.95356], [79.57781, 30.93837], [79.58949, 30.94023], [79.66072, 30.71724], [79.7305, 30.65186], [79.95282, 30.42635], [80.05361, 30.31451], [80.14112, 30.20959], [80.21098, 30.11613], [80.2713, 30.01476], [80.39523, 29.77658], [80.36897, 29.75793], [80.3543, 29.73028], [80.3544, 29.70488], [80.38675, 29.62682], [80.3852, 29.60484], [80.37332, 29.58419], [80.35078, 29.56207], [80.32722, 29.54859], [80.3236, 29.54166], [80.32722, 29.52484], [80.55352, 29.40977], [80.55763, 29.39453], [80.56558, 29.33869], [80.56035, 29.22948], [80.53457, 29.09578], [80.47286, 28.90921], [80.5176, 28.68003], [80.49755, 28.67014], [80.48762, 28.65647], [80.48494, 28.63929], [80.49341, 28.57565], [80.48845, 28.56244], [80.46881, 28.57185], [80.42654, 28.61681], [80.40835, 28.62634], [80.3883, 28.62725], [80.34975, 28.62022], [80.3297, 28.62748], [80.31833, 28.64011], [80.29105, 28.68967], [80.2834, 28.69536], [80.25704, 28.70274], [80.23327, 28.73272], [80.21643, 28.74194], [80.16206, 28.75329], [80.14759, 28.76331], [80.11421, 28.80258], [80.08186, 28.81935], [80.05478, 28.82419], [80.03639, 28.83703], [80.03029, 28.87767], [80.0339, 28.91594], [79.77279, 28.9828], [79.50525, 29.12476], [79.39862, 29.16943], [79.29209, 29.20255], [79.18718, 29.22426], [79.1003, 29.23316], [78.98166, 29.23422], [78.88321, 29.22179], [78.79245, 29.19818], [78.70874, 29.16326], [78.61372, 29.09907], [78.54395, 29.02274], [78.48911, 28.93612], [78.39638, 28.749], [78.34402, 28.65722], [78.2785, 28.57301], [78.19165, 28.4995], [78.12419, 28.45999], [78.05125, 28.42602], [77.72967, 28.30682], [77.65007, 28.27257], [77.36392, 28.13124], [77.16758, 28.07531], [76.97893, 28.05813], [76.78997, 28.07132], [76.59452, 28.10554], [76.14997, 28.19787], [75.88397, 28.23574], [75.59214, 28.261], [75.29466, 28.27819], [74.38932, 28.31228], [74.0904, 28.32827], [73.79605, 28.35188], [73.50755, 28.38638], [73.21815, 28.41128], [72.92813, 28.40896], [72.6383, 28.3881], [72.4386, 28.36654], [72.19522, 28.43877], [72.17764, 28.39705], [72.14994, 28.35377], [72.11098, 28.31763], [71.9882, 28.2281], [71.93208, 28.16313], [71.71419, 28.2972], [71.48519, 28.28915], [71.19929, 28.3031], [71.03332, 28.33731], [70.91061, 28.39779], [70.81999, 28.47927], [70.75061, 28.57704], [70.63651, 28.796], [70.57052, 28.90665], [70.48423, 29.01131], [70.29499, 29.19531], [70.19123, 29.28898], [70.08097, 29.38059], [69.96399, 29.46781], [69.83884, 29.54917], [69.70462, 29.6226], [69.56312, 29.68484], [69.28803, 29.78915], [69.1725, 29.82395], [69.06112, 29.84417], [68.94928, 29.84699], [68.82722, 29.83017], [68.68793, 29.79059], [68.52707, 29.72644], [68.42341, 29.67414], [68.3345, 29.61731], [68.25446, 29.5546], [68.11369, 29.41727], [67.81953, 29.10329], [67.52589, 28.77791], [67.3734, 28.622], [67.23792, 28.50472], [67.01228, 28.34857], [66.91106, 28.26381], [66.86694, 28.21493], [66.79506, 28.11684], [66.73131, 28.0135], [66.67445, 27.90639], [66.57618, 27.68816], [66.44255, 27.36593], [66.39622, 27.27123], [66.34334, 27.17782], [66.17286, 26.90355], [66.07523, 26.72264], [66.03836, 26.63103], [66.01393, 26.54724], [65.99626, 26.46203], [65.9569, 26.13348], [65.91679, 25.92227], [65.9117, 25.86282], [65.9168, 25.85671], [65.92611, 25.85673], [65.99855, 25.90102], [66.07032, 25.87443], [66.10432, 25.85613], [66.16444, 25.81173], [66.1911, 25.78524], [66.23438, 25.72689], [66.2512, 25.69492], [66.26464, 25.66118], [66.27705, 25.60986], [66.25815, 25.61201], [66.23975, 25.59993], [66.20395, 25.59321], [66.18344, 25.58161], [66.16717, 25.56607], [66.13737, 25.51383], [66.10963, 25.49543], [66.09441, 25.47484], [66.1211, 25.47517], [66.21306, 25.49136], [66.24156, 25.51845], [66.2588, 25.52485], [66.25816, 25.54311], [66.28177, 25.55033], [66.27014, 25.46912], [66.2518, 25.47289], [66.15919, 25.44694], [66.06902, 25.44623], [66.00434, 25.42959], [65.92471, 25.41864], [65.85841, 25.41755], [65.76539, 25.37801], [65.72438, 25.37116], [65.67164, 25.34741], [65.65211, 25.34448], [65.46778, 25.38544], [65.40073, 25.3667], [65.38235, 25.37117], [65.39536, 25.39228], [65.33619, 25.38532], [65.29233, 25.36499], [65.25978, 25.38044], [65.23227, 25.37067], [65.18018, 25.30366], [65.15528, 25.2961], [65.08961, 25.30558], [65.05885, 25.31452], [64.98064, 25.31661], [64.92066, 25.32705], [64.88966, 25.32835], [64.86109, 25.31661], [64.83912, 25.32534], [64.8073, 25.32852], [64.7444, 25.32404], [64.71852, 25.3144], [64.69597, 25.29759], [64.67856, 25.2768], [64.66863, 25.25511], [64.66277, 25.22907], [64.66863, 25.20673], [64.70915, 25.19065], [64.7102, 25.1794], [64.65504, 25.16573], [64.60037, 25.17317], [64.62696, 25.21162], [64.6277, 25.22846], [64.61061, 25.2517], [64.56544, 25.27025], [64.5184, 25.27558], [64.5066, 25.26691], [64.49203, 25.24568], [64.4393, 25.23461], [64.4175, 25.24092], [64.38282, 25.27147], [64.36069, 25.28303], [64.26605, 25.29858], [64.24464, 25.3166], [64.18393, 25.31868], [64.0945, 25.33589], [64.09475, 25.34992], [64.10694, 25.38544], [64.08352, 25.40351], [64.07961, 25.4162], [64.08376, 25.42674], [64.10621, 25.43325], [64.14088, 25.42886], [64.15089, 25.43212], [64.15528, 25.44693], [64.15073, 25.4514], [64.12729, 25.45376], [64.05649, 25.44173], [64.04542, 25.45034], [63.98959, 25.42544], [63.97657, 25.41279], [63.99708, 25.41962], [64.00424, 25.40205], [64.01173, 25.39728], [64.03517, 25.41619], [64.04883, 25.41648], [64.07959, 25.36498], [64.06674, 25.34627], [64.05974, 25.34456], [63.98733, 25.33833], [63.96974, 25.34447], [63.94387, 25.33494], [63.90659, 25.34122], [63.80494, 25.37499], [63.7378, 25.38532], [63.66993, 25.38361], [63.60467, 25.37442], [63.57252, 25.36498], [63.53761, 25.34447], [63.51051, 25.3166], [63.49577, 25.29141], [63.4852, 25.28434], [63.46949, 25.28925], [63.4817, 25.26016], [63.51872, 25.22085], [63.51172, 25.20027], [63.5005, 25.19368], [63.46877, 25.19906], [63.41114, 25.22248], [63.37696, 25.22777], [63.30789, 25.2204], [63.17848, 25.25804], [63.14405, 25.26093], [63.11313, 25.25511], [63.05095, 25.2242], [63.02784, 25.22037], [62.9421, 25.22783], [62.77052, 25.26191], [62.60496, 25.266], [62.47718, 25.25906], [62.46502, 25.23725], [62.46762, 25.22354], [62.48941, 25.21418], [62.46949, 25.20674], [62.44435, 25.21394], [62.41383, 25.20653], [62.3659, 25.17939], [62.34311, 25.15546], [62.33619, 25.13984], [62.33912, 25.12474], [62.35199, 25.11283], [62.38723, 25.10157], [62.38104, 25.08758], [62.29022, 25.09], [62.25608, 25.09863], [62.29079, 25.12474], [62.31528, 25.13019], [62.31813, 25.14183], [62.29748, 25.18513], [62.25422, 25.21203], [62.19181, 25.22008], [62.14519, 25.21841], [62.08003, 25.19715], [62.05899, 25.16164], [62.07308, 25.15057], [62.07783, 25.12771], [62.09716, 25.10713], [62.07555, 25.10076], [61.9295, 25.10956], [61.88111, 25.10301], [61.85743, 25.06684], [61.84733, 25.03792], [61.83522, 25.0384], [61.79047, 25.01778], [61.75487, 25.01348], [61.72956, 25.02179], [61.72008, 25.03744], [61.72577, 25.0589], [61.73585, 25.06952], [61.72854, 25.08308], [61.73234, 25.09141], [61.76002, 25.11538], [61.76679, 25.14565], [61.78012, 25.16254], [61.7837, 25.17316], [61.77955, 25.19107], [61.74952, 25.17318], [61.69418, 25.20051], [61.6242, 25.20441], [61.61244, 25.20052], [61.58824, 25.2021], [61.57976, 25.23347], [61.55445, 25.2541], [61.54469, 25.24828], [61.53728, 25.22036], [61.55833, 25.20052], [61.50424, 25.20881], [61.4826, 25.19367], [61.50641, 25.18673], [61.52407, 25.17296], [61.50318, 25.14525], [61.4974, 25.12544], [61.48951, 25.11861], [61.42058, 25.09687], [61.43505, 25.08771], [61.41171, 25.05942], [61.24353, 25.11189], [61.18508, 25.12326], [61.18548, 25.13961], [61.17027, 25.16444], [61.03061, 25.20978], [60.86687, 25.23458], [60.72771, 25.26439], [60.63327, 25.27507], [60.61697, 25.28319], [60.63234, 25.29609], [60.60811, 25.3278], [60.60157, 25.40595], [60.5652, 25.43862], [60.54965, 25.44693], [60.51417, 25.44733], [60.44565, 25.42817], [60.42848, 25.41962], [60.39527, 25.37788], [60.40203, 25.34467], [60.43767, 25.33392], [60.45219, 25.31739], [60.44109, 25.3166], [60.47005, 25.30308], [60.46724, 25.29029], [60.36256, 25.33055], [60.31923, 25.32986], [60.29031, 25.35131], [60.30397, 25.37116], [60.27125, 25.37958], [60.23504, 25.378], [60.20151, 25.37116], [60.19256, 25.36201], [60.19256, 25.35615], [60.21596, 25.33828], [60.2092, 25.3197], [60.18198, 25.3199], [60.16188, 25.33198], [60.11671, 25.33984], [60.09791, 25.35814], [60.08204, 25.36595], [59.94082, 25.35491], [59.9038, 25.32987], [59.8617, 25.34307], [59.81987, 25.3792], [59.77487, 25.38987], [59.61427, 25.38377], [59.538, 25.39976], [59.49044, 25.44347], [59.4539, 25.46161], [59.19532, 25.42292], [59.13835, 25.39852], [59.1172, 25.3942], [59.09409, 25.4064], [59.0669, 25.39852], [59.0436, 25.39967], [59.00756, 25.40965], [58.99432, 25.41963], [58.94809, 25.48652], [58.92351, 25.51337], [58.88445, 25.52949], [58.84962, 25.52881], [58.84056, 25.53281], [58.82521, 25.56037], [58.81373, 25.56363], [58.72804, 25.56363], [58.5464, 25.59366], [58.48414, 25.58468], [58.43051, 25.58797], [58.41181, 25.59602], [58.41896, 25.61201], [58.3576, 25.60456], [58.32105, 25.5808], [58.30592, 25.57731], [58.2907, 25.58373], [58.26075, 25.56575], [58.25197, 25.56685], [58.2483, 25.57388], [58.20728, 25.54931], [58.17042, 25.5441], [58.07309, 25.56363], [58.04624, 25.57495], [58.02419, 25.60188], [57.99431, 25.65917], [57.96323, 25.69318], [57.9253, 25.70132], [57.88404, 25.69164], [57.84352, 25.67284], [57.78764, 25.63555], [57.78027, 25.63551], [57.7888, 25.66768], [57.8587, 25.83677], [57.89357, 25.89963], [57.94192, 25.95585], [58.00111, 26.00216], [58.07498, 26.03918], [58.1587, 26.00792], [58.24333, 25.95098], [58.28682, 25.95904], [58.29342, 25.96477], [58.37973, 26.50785], [58.48319, 26.95213], [58.61291, 27.57159], [58.71377, 27.97384], [58.72966, 28.08336], [58.76371, 28.42806], [58.78285, 28.54089], [58.81229, 28.64967], [58.85625, 28.75268], [58.92327, 28.85892], [59.15064, 29.13751], [59.20907, 29.23282], [59.24656, 29.33897], [59.25499, 29.46071], [59.22612, 29.6041], [59.21983, 29.61837], [59.20094, 29.66116], [59.16585, 29.71586], [58.98894, 29.93655], [58.95452, 29.99425], [58.93102, 30.05476], [58.9152, 30.20979], [58.93187, 30.37612], [58.95936, 30.54456], [58.97578, 30.70518], [58.95881, 30.84719], [58.88762, 30.95921], [58.73665, 31.035], [58.48834, 31.05996], [58.31557, 31.04179], [58.14756, 30.99523], [57.9821, 30.92524], [57.82402, 30.83884], [57.72391, 30.77407], [57.67391, 30.74166], [57.53219, 30.63878], [57.28095, 30.44006], [57.01149, 30.25923], [56.77248, 30.16936], [56.55611, 30.15734], [56.35606, 30.21], [56.1651, 30.31452], [55.97777, 30.45751], [55.59037, 30.80565], [55.49299, 30.8871], [55.04982, 31.2134], [54.94221, 31.29784], [54.84278, 31.38438], [54.75507, 31.47337], [54.71049, 31.52962], [54.64199, 31.64819], [54.55845, 31.83357], [54.49197, 31.95333], [54.2905, 32.16886], [54.01564, 32.34087], [53.68815, 32.47124], [53.32664, 32.56344], [52.95131, 32.62067], [52.57905, 32.64679], [52.22939, 32.64551], [51.7597, 32.60488], [51.6326, 32.60041], [51.52752, 32.60628], [51.43519, 32.62143], [51.34602, 32.64476], [51.00273, 32.75205], [50.94679, 32.76286], [50.88911, 32.76621], [50.65173, 32.75579], [50.5947, 32.76027], [50.54015, 32.77282], [50.44484, 32.81806], [50.32392, 32.89601], [50.18868, 32.99639], [50.04864, 33.10995], [49.9135, 33.22764], [49.79346, 33.34015], [49.69865, 33.43852], [49.63899, 33.51423], [49.59032, 33.62166], [49.56519, 33.74297], [49.5578, 33.87455], [49.58681, 34.41597], [49.57831, 34.53621], [49.53966, 34.80009], [49.52868, 34.92473], [49.52927, 35.0463], [49.54592, 35.16623], [49.58328, 35.28628], [49.6456, 35.40691], [49.73776, 35.5305], [49.98504, 35.73653]]]}}, {"type": "Feature", "properties": {"map_title": "인도의 이슬람화", "source": "미래엔 세계사 교과서 3권 127쪽", "volume": 3, "page": 127, "name": "구르 왕조", "name_en": "Ghurid dynasty", "period": "879–1215", "kind": "국가", "legend": "구르 왕조의 최대 영역", "coast_snap": "Natural Earth 10m 해안선에 맞춤", "border_snap": "현대 국경(Natural Earth 10m)에 맞춘 구간 약 608 km"}, "geometry": {"type": "MultiPolygon", "coordinates": [[[[88.14674, 21.86985], [88.16699, 21.76519], [88.16341, 21.70548], [88.13258, 21.68496], [88.1444, 21.65758], [88.14599, 21.64375], [88.13951, 21.63051], [88.13005, 21.62593], [88.09156, 21.63654], [88.06326, 21.63676], [88.05178, 21.6416], [88.04227, 21.66793], [88.05063, 21.70559], [88.09002, 21.80866], [88.11931, 21.85952], [88.14674, 21.86985]]], [[[88.59526, 21.86249], [88.62383, 21.79641], [88.59182, 21.8044], [88.58498, 21.82661], [88.58635, 21.84317], [88.59526, 21.86249]]], [[[88.21275, 22.10005], [88.20545, 22.1404], [88.26475, 22.05751], [88.32276, 22.0509], [88.3944, 22.03156], [88.46041, 22.00005], [88.51914, 21.95717], [88.54523, 21.93168], [88.581, 21.88578], [88.56707, 21.85082], [88.56463, 21.76683], [88.60418, 21.77874], [88.62403, 21.77801], [88.63281, 21.75007], [88.62337, 21.71028], [88.61278, 21.69767], [88.59181, 21.70539], [88.59958, 21.63707], [88.59506, 21.61214], [88.57814, 21.62344], [88.57813, 21.57168], [88.57227, 21.55794], [88.55893, 21.55558], [88.54498, 21.5619], [88.53647, 21.5751], [88.52963, 21.55337], [88.54394, 21.53409], [88.51295, 21.52465], [88.49392, 21.53482], [88.48798, 21.55654], [88.49563, 21.58185], [88.51401, 21.60082], [88.51882, 21.63914], [88.52963, 21.65762], [88.50954, 21.71231], [88.5049, 21.74152], [88.51272, 21.76341], [88.53289, 21.79532], [88.53102, 21.82412], [88.49563, 21.8767], [88.51466, 21.91621], [88.51498, 21.9372], [88.49562, 21.95181], [88.49985, 21.93366], [88.48121, 21.9099], [88.47446, 21.89033], [88.4956, 21.81867], [88.49349, 21.80517], [88.47446, 21.80097], [88.45338, 21.74177], [88.45476, 21.70539], [88.47217, 21.66327], [88.46826, 21.64395], [88.45609, 21.62389], [88.40968, 21.59928], [88.39309, 21.60026], [88.38356, 21.63142], [88.38283, 21.67108], [88.39259, 21.69855], [88.35565, 21.68499], [88.3462, 21.68863], [88.33123, 21.71906], [88.32472, 21.70136], [88.3274, 21.69111], [88.34571, 21.67059], [88.34876, 21.65011], [88.33545, 21.6158], [88.32179, 21.60567], [88.30975, 21.61018], [88.30445, 21.63345], [88.30201, 21.74518], [88.29819, 21.76411], [88.28981, 21.78022], [88.27312, 21.79792], [88.26157, 21.79865], [88.26417, 21.7753], [88.29542, 21.67658], [88.29705, 21.65388], [88.28338, 21.6092], [88.30062, 21.58934], [88.30582, 21.57169], [88.27876, 21.55514], [88.25464, 21.55466], [88.24929, 21.5583], [88.23748, 21.60171], [88.22438, 21.61302], [88.20827, 21.60299], [88.18937, 21.64208], [88.18093, 21.68496], [88.20346, 21.72435], [88.21046, 21.74726], [88.20144, 21.77432], [88.20973, 21.78856], [88.20379, 21.80541], [88.15408, 21.88809], [88.15943, 21.90616], [88.14675, 21.95922], [88.14993, 21.97638], [88.16417, 22.0029], [88.22242, 22.07795], [88.21275, 22.10005]]], [[[88.09426, 21.93788], [88.10573, 21.94757], [88.1189, 21.945], [88.13257, 21.92048], [88.125, 21.88866], [88.10499, 21.86115], [88.08073, 21.8495], [88.07229, 21.85676], [88.07107, 21.87337], [88.07744, 21.90489], [88.09426, 21.93788]]], [[[87.96643, 22.30516], [88.02524, 22.28696], [88.09142, 22.25294], [88.14962, 22.20738], [88.17605, 22.17936], [88.08127, 22.21756], [88.07732, 22.24042], [88.04347, 22.22477], [88.02703, 22.22786], [88.00925, 22.24028], [87.9728, 22.28301], [87.96643, 22.30516]]], [[[64.13458, 35.13368], [64.4292, 35.18053], [65.25431, 35.26577], [65.54284, 35.30667], [66.69118, 35.4817], [66.98276, 35.51934], [67.27866, 35.5509], [67.8666, 35.60066], [68.14944, 35.63962], [69.09775, 35.80418], [69.27075, 35.83114], [69.55406, 35.86464], [69.84051, 35.88306], [69.97078, 35.8833], [70.10175, 35.8771], [70.61159, 35.83831], [70.75599, 35.83617], [70.88622, 35.84307], [70.98443, 35.85554], [71.18189, 36.01884], [71.23191, 35.99398], [71.25744, 35.97155], [71.34157, 35.94726], [71.3564, 35.93305], [71.36069, 35.90029], [71.37133, 35.88515], [71.4167, 35.85885], [71.63527, 36.01056], [71.79343, 36.0429], [72.09787, 36.08313], [72.40119, 36.1082], [72.7044, 36.12114], [73.00686, 36.12488], [74.21504, 36.10781], [74.46335, 36.11766], [74.71169, 36.14357], [75.41331, 36.24139], [75.71912, 36.2641], [75.89025, 36.26361], [75.96925, 36.25926], [76.12928, 36.2412], [76.21865, 36.22511], [76.30075, 36.20155], [76.37227, 36.16885], [76.43716, 36.12886], [76.61852, 35.98777], [76.68404, 35.941], [76.75677, 35.89794], [76.82301, 35.86898], [76.86141, 35.85616], [76.82459, 35.6478], [76.84299, 35.64129], [76.88051, 35.60067], [76.89642, 35.58961], [76.9358, 35.57964], [76.97642, 35.57866], [77.03905, 35.58501], [77.05817, 35.5801], [77.07109, 35.57101], [77.1053, 35.53799], [77.14126, 35.52538], [77.17754, 35.52316], [77.25082, 35.5307], [77.2811, 35.52801], [77.30539, 35.51783], [77.352, 35.48605], [77.38373, 35.472], [77.41277, 35.46941], [77.45363, 35.47439], [77.47085, 35.39734], [77.62441, 34.99229], [77.66319, 34.86869], [77.68961, 34.75418], [77.70552, 34.64558], [77.71278, 34.53897], [77.71306, 34.43127], [77.69972, 34.20034], [77.72343, 33.80293], [77.84952, 33.47665], [78.05667, 33.2037], [78.32498, 32.96342], [78.52707, 32.81592], [78.69445, 32.62966], [78.71326, 32.63752], [78.73683, 32.62984], [78.75099, 32.61279], [78.74913, 32.59587], [78.73497, 32.56065], [78.73693, 32.54579], [78.75471, 32.49381], [78.77145, 32.46166], [78.85568, 32.40045], [78.88152, 32.37627], [78.91129, 32.35474], [78.94343, 32.34637], [78.97619, 32.36162], [79.02818, 32.37709], [79.07531, 32.37079], [79.08667, 32.38445], [79.31687, 32.24214], [79.62329, 31.96608], [79.84731, 31.70931], [80.03933, 31.43601], [80.20692, 31.15081], [80.291, 30.98758], [80.1571, 30.79316], [80.1693, 30.78525], [80.19607, 30.7481], [80.22459, 30.73409], [80.23141, 30.72495], [80.20702, 30.68614], [80.19989, 30.68071], [80.17292, 30.67916], [80.16661, 30.67441], [80.16692, 30.6619], [80.19989, 30.62588], [80.2033, 30.60635], [80.17984, 30.55948], [80.21622, 30.56682], [80.25281, 30.56501], [80.32588, 30.54651], [80.42499, 30.49783], [80.47543, 30.48047], [80.5083, 30.46233], [80.52514, 30.45861], [80.57527, 30.46626], [80.59635, 30.4598], [80.69474, 30.41174], [80.72306, 30.39205], [80.73536, 30.3782], [80.755, 30.3458], [80.77541, 30.3255], [80.67162, 30.19344], [80.78676, 29.95637], [81.19468, 29.17553], [81.40983, 28.67801], [81.53093, 28.35675], [81.39604, 28.16063], [81.41733, 28.14702], [81.43527, 28.12978], [81.44824, 28.11141], [81.45821, 28.07728], [81.47346, 28.0664], [81.56192, 28.02599], [81.58218, 28.01328], [81.5951, 27.99488], [81.61505, 27.98124], [81.68895, 27.9632], [81.71039, 27.94752], [81.75013, 27.90967], [81.85565, 27.85094], [81.78891, 27.62149], [82.12609, 26.62551], [82.31677, 26.11557], [82.53055, 25.61453], [82.82388, 25.08347], [82.87052, 25.00935], [83.18586, 24.60341], [83.24906, 24.5347], [83.5918, 24.21449], [83.64227, 24.17608], [84.02434, 23.91581], [84.44579, 23.70466], [84.8591, 23.55207], [85.29433, 23.43073], [85.73288, 23.33058], [85.98243, 23.26364], [86.12579, 23.21691], [86.37747, 23.11899], [86.61661, 23.00582], [86.84075, 22.88003], [87.00309, 22.7756], [87.24498, 22.59697], [87.42344, 22.44509], [87.63009, 22.2449], [87.6392, 22.24437], [87.69389, 22.27663], [87.72836, 22.29126], [87.80118, 22.31074], [87.87682, 22.31661], [87.94238, 22.31016], [87.95281, 22.26244], [87.99195, 22.21589], [88.00847, 22.2049], [88.09547, 22.19123], [88.13258, 22.17914], [88.16097, 22.15656], [88.1735, 22.11689], [88.16416, 22.08959], [88.14063, 22.06013], [88.11094, 22.03473], [88.08472, 22.02071], [88.0486, 22.02074], [88.04314, 22.01728], [88.05078, 21.98501], [88.0324, 21.95718], [87.98364, 21.8542], [87.97046, 21.8365], [87.89918, 21.79483], [87.8929, 21.77433], [87.86703, 21.75069], [87.83372, 21.72918], [87.75571, 21.69172], [87.70358, 21.65545], [87.68385, 21.65015], [87.62135, 21.65062], [87.55352, 21.63321], [87.46876, 21.6114], [87.34157, 21.56236], [87.29347, 21.55367], [87.25611, 21.562], [87.23544, 21.55456], [87.20094, 21.55199], [87.11305, 21.50796], [87.06373, 21.475], [86.91765, 21.32738], [86.86695, 21.25605], [86.83725, 21.17471], [86.844, 21.08222], [86.95204, 20.84937], [86.96566, 20.80598], [86.95386, 20.7806], [86.93629, 20.7875], [86.91652, 20.78807], [86.87875, 20.78059], [86.88933, 20.76447], [86.91066, 20.75642], [86.97999, 20.75555], [86.98657, 20.75185], [86.99999, 20.72821], [86.9987, 20.71113], [86.98862, 20.70426], [86.96119, 20.71284], [86.94825, 20.70905], [86.9402, 20.69798], [86.96115, 20.69506], [86.97429, 20.68439], [86.98649, 20.68438], [86.99488, 20.67072], [87.01938, 20.68037], [87.04317, 20.69793], [87.00331, 20.65685], [86.97624, 20.6379], [86.92319, 20.62173], [86.77418, 20.51195], [86.75148, 20.48916], [86.7339, 20.46223], [86.72462, 20.43195], [86.72047, 20.36848], [86.76979, 20.40069], [86.78875, 20.39012], [86.79616, 20.4373], [86.80981, 20.41511], [86.79419, 20.37817], [86.76831, 20.34346], [86.75148, 20.32807], [86.70167, 20.30378], [86.6937, 20.29393], [86.70167, 20.28465], [86.75456, 20.31438], [86.71723, 20.2868], [86.62818, 20.23526], [86.58352, 20.21813], [86.53419, 20.20612], [86.50554, 20.19261], [86.44853, 20.21322], [86.41559, 20.23023], [86.35569, 20.27289], [86.30563, 20.32567], [86.26777, 20.38572], [86.25996, 20.38981], [86.16608, 20.36588], [86.06708, 20.35271], [85.96628, 20.35022], [85.75985, 20.35764], [85.64455, 20.35619], [85.49839, 20.34289], [85.17475, 20.30255], [84.95951, 20.28698], [84.74717, 20.28285], [84.5606, 20.28843], [84.15179, 20.28689], [83.98786, 20.2975], [83.92902, 20.30884], [83.75084, 20.3591], [83.17331, 20.46475], [82.9374, 20.49476], [82.68938, 20.51283], [82.5561, 20.5346], [82.42548, 20.56666], [82.29727, 20.60831], [82.08939, 20.69639], [82.02514, 20.72872], [81.74345, 20.89398], [81.49815, 21.064], [81.04177, 21.40835], [80.70313, 21.65419], [80.36296, 21.86008], [80.26156, 21.90911], [79.91322, 22.05287], [79.47908, 22.17612], [79.04046, 22.28415], [78.59698, 22.37756], [78.14894, 22.4571], [77.69471, 22.5241], [77.23492, 22.57973], [76.76836, 22.62554], [76.24203, 22.66764], [76.13621, 22.67966], [75.98048, 22.7057], [75.87834, 22.72813], [75.8153, 22.7494], [75.76317, 22.75833], [75.61239, 22.81728], [75.41991, 22.88046], [75.3331, 22.9247], [75.26425, 22.95093], [75.13273, 23.02619], [74.98733, 23.09932], [74.87697, 23.17173], [74.7965, 23.21735], [74.68608, 23.29669], [74.58049, 23.36572], [74.36019, 23.53075], [74.19863, 23.65926], [73.54234, 24.20024], [73.16722, 24.47461], [72.79207, 24.68434], [72.60403, 24.76195], [72.0451, 24.95315], [71.86206, 25.01972], [71.68066, 25.09647], [71.50162, 25.18845], [71.32484, 25.30109], [70.91439, 25.57766], [70.65563, 25.59879], [70.65748, 25.63363], [70.65386, 25.67446], [70.63231, 25.70138], [70.59226, 25.70882], [70.55443, 25.69879], [70.51666, 25.68386], [70.47723, 25.67631], [70.36013, 25.67347], [70.3037, 25.68458], [70.26458, 25.6973], [70.24923, 25.70768], [70.23445, 25.73099], [70.21399, 25.78633], [70.19559, 25.80695], [70.15425, 25.83941], [70.11498, 25.88173], [70.08325, 25.92994], [70.06464, 25.98033], [70.06428, 25.99552], [70.07291, 26.04746], [70.07389, 26.08311], [70.07828, 26.09965], [70.09246, 26.12097], [69.8773, 26.23831], [69.7302, 26.33032], [69.17859, 26.69218], [68.64729, 27.06608], [68.15514, 27.45764], [67.71895, 27.88183], [67.35255, 28.35614], [67.02212, 28.85816], [66.802, 29.17826], [66.6824, 29.3445], [66.45433, 29.64348], [66.26174, 29.87673], [66.27521, 29.88515], [66.30177, 29.91569], [66.32244, 29.94655], [66.33681, 29.95202], [66.34053, 29.95657], [66.33236, 29.96608], [66.30156, 29.98675], [66.26043, 30.02313], [66.22524, 30.04442], [66.2193, 30.05786], [66.22535, 30.0831], [65.96625, 30.16705], [65.6273, 30.47733], [65.50876, 30.60384], [65.40247, 30.74101], [65.31076, 30.89456], [64.94746, 31.6343], [64.85148, 31.81198], [64.7464, 31.98825], [64.62861, 32.1639], [64.49475, 32.33923], [64.06743, 32.863], [63.93133, 33.0432], [63.80526, 33.22636], [63.69354, 33.41242], [63.60046, 33.60132], [63.4945, 33.89588], [63.36024, 34.21794], [63.3245, 34.32784], [63.30268, 34.43635], [63.30003, 34.54411], [63.32233, 34.6495], [63.43605, 34.83043], [63.62029, 34.96606], [63.8588, 35.06465], [64.13458, 35.13368]]]]}}]}