{"type": "FeatureCollection", "features": [{"type": "Feature", "properties": {"map_title": "인도의 이슬람화", "source": "미래엔 세계사 교과서 3권 127쪽", "volume": 3, "page": 127, "name": "델리", "name_en": "Delhi", "category": "수도", "year": "", "coord_source": "실제 위치", "map_lon": 77.20994, "map_lat": 28.60991, "legend": "델리", "note": "델리 술탄 왕조의 수도"}, "geometry": {"type": "Point", "coordinates": [77.21, 28.61]}}, {"type": "Feature", "properties": {"map_title": "인도의 이슬람화", "source": "미래엔 세계사 교과서 3권 127쪽", "volume": 3, "page": 127, "name": "펀자브", "name_en": "Punjab", "category": "기타", "year": "", "coord_source": "지도 판독", "map_lon": 74.74048, "map_lat": 33.57254, "legend": "펀자브(지역 이름, 글자 위치)"}, "geometry": {"type": "Point", "coordinates": [74.74048, 33.57254]}}]}