{"type": "FeatureCollection", "features": [{"type": "Feature", "properties": {"name": "통제선(LoC)", "category": "경계선", "period": "1972년 설정(2019년 기준)", "legend": "통제선", "map_title": "카슈미르 분쟁 지역", "source": "미래엔 세계사 교과서 4권 204쪽", "volume": 4, "page": 204}, "geometry": {"type": "LineString", "coordinates": [[77.32084, 35.42728], [77.16689, 35.39267], [76.64602, 35.15487], [76.72664, 34.89493], [76.55962, 34.7822], [76.53604, 34.77018], [76.52037, 34.7667], [76.41998, 34.81741], [76.32315, 34.87525], [76.27488, 34.84795], [76.2318, 34.81385], [76.15161, 34.7386], [76.10968, 34.70421], [76.06327, 34.67653], [76.00995, 34.65902], [75.94727, 34.65517], [75.88681, 34.66486], [75.82575, 34.68338], [75.70269, 34.72727], [75.63917, 34.74211], [75.60745, 34.74551], [75.54898, 34.74205], [75.52419, 34.73426], [75.50371, 34.72184], [75.48854, 34.70432], [75.29793, 34.84231], [75.10041, 34.97341], [75.05133, 34.94084], [75.00597, 34.9047], [74.96456, 34.86514], [74.92736, 34.82232], [74.7435, 34.96879], [74.55481, 35.11132], [74.54473, 35.10873], [74.49532, 35.08056], [74.36913, 34.99629], [74.29581, 35.03367], [74.22554, 35.07584], [74.09767, 34.93078], [73.95625, 34.79143], [74.05116, 34.71643], [74.14151, 34.63798], [74.11291, 34.54585], [74.09034, 34.45093], [74.28475, 34.39306], [74.38616, 34.35845], [74.43003, 34.33887], [74.46637, 34.31743], [74.49407, 34.29311], [74.50988, 34.26869], [74.51602, 34.24426], [74.51467, 34.21992], [74.50803, 34.19578], [74.47821, 34.12566], [74.45812, 34.05999], [74.40924, 33.84739], [74.40711, 33.82465], [74.41251, 33.80407], [74.44303, 33.73364], [74.62767, 33.32635], [74.66086, 33.23213], [74.67174, 33.18467], [74.68187, 33.09015], [74.67625, 32.99762], [74.66744, 32.95267]]}}]}