{"type": "FeatureCollection", "features": [{"type": "Feature", "properties": {"name": "타이완(시모노세키 조약 획득지)", "name_en": "Taiwan", "period": "1895년", "kind": "식민지", "legend": "청일 전쟁의 결과 - 시모노세키 조약(1895)에 의한 획득지", "map_title": "일본의 대외 팽창", "source": "미래엔 세계사 교과서 3권 167쪽", "volume": 3, "page": 167, "coast_snap": "Natural Earth 10m 해안선에 맞춤", "group": "타이완", "map_folder": "3권_p167_일본의 대외 팽창"}, "geometry": {"type": "MultiPolygon", "coordinates": [[[[120.04607, 23.05227], [120.04323, 23.0446], [120.03469, 23.05171], [120.02826, 23.06619], [120.02932, 23.07069], [120.04607, 23.05227]]], [[[120.03645, 23.12116], [120.05137, 23.16795], [120.05372, 23.16754], [120.04762, 23.14541], [120.03645, 23.12116]]], [[[120.06051, 23.19022], [120.07406, 23.22439], [120.07618, 23.22483], [120.07683, 23.21853], [120.06051, 23.19022]]], [[[119.87738, 23.2777], [119.88184, 23.27888], [119.88286, 23.27413], [119.86852, 23.25399], [119.87087, 23.26944], [119.87738, 23.2777]]], [[[119.98798, 23.42713], [119.9768, 23.403], [119.96975, 23.39796], [119.97705, 23.41768], [119.98798, 23.42713]]], [[[120.0901, 23.49921], [120.04791, 23.45809], [120.00769, 23.43262], [120.02202, 23.45179], [120.07493, 23.50082], [120.11526, 23.5479], [120.12476, 23.55044], [120.0901, 23.49921]]], [[[120.3789, 22.34504], [120.34833, 22.32036], [120.34507, 22.33181], [120.36077, 22.35382], [120.3711, 22.35548], [120.3789, 22.34504]]], [[[121.47145, 22.6418], [121.46063, 22.65922], [121.45776, 22.67595], [121.5, 22.67625], [121.50277, 22.6695], [121.49609, 22.63468], [121.47145, 22.6418]]], [[[120.10548, 23.31118], [120.09872, 23.30656], [120.11387, 23.33461], [120.11671, 23.32897], [120.10548, 23.31118]]], [[[120.1708, 23.6989], [120.17563, 23.73413], [120.18923, 23.7748], [120.21266, 23.80317], [120.2195, 23.81793], [120.24073, 23.83283], [120.25751, 23.8784], [120.29225, 23.91193], [120.35024, 24.0379], [120.38551, 24.06306], [120.39236, 24.08291], [120.41188, 24.09691], [120.42206, 24.15216], [120.47779, 24.20966], [120.48065, 24.22109], [120.49318, 24.23066], [120.51199, 24.29555], [120.54737, 24.35155], [120.55813, 24.38589], [120.57097, 24.40509], [120.64894, 24.48387], [120.65602, 24.49787], [120.65946, 24.52095], [120.6902, 24.57612], [120.70204, 24.60682], [120.72788, 24.61392], [120.74479, 24.63896], [120.77809, 24.66571], [120.79933, 24.67079], [120.82667, 24.66608], [120.82302, 24.68504], [120.8475, 24.71084], [120.85769, 24.737], [120.87135, 24.74323], [120.87707, 24.7621], [120.90919, 24.81688], [120.90237, 24.83682], [120.92058, 24.8614], [120.92604, 24.88471], [120.94385, 24.90192], [120.95362, 24.90501], [120.96401, 24.94061], [121.00536, 25.00041], [121.032, 25.02924], [121.05934, 25.05023], [121.1294, 25.07111], [121.17693, 25.10004], [121.21115, 25.11118], [121.33025, 25.13068], [121.34832, 25.13711], [121.37876, 25.15794], [121.39893, 25.15948], [121.41228, 25.15546], [121.43002, 25.13158], [121.44321, 25.13642], [121.42945, 25.15599], [121.39578, 25.18281], [121.39911, 25.19212], [121.41627, 25.2036], [121.4363, 25.24143], [121.46128, 25.2619], [121.49782, 25.27874], [121.53972, 25.28741], [121.58082, 25.28301], [121.5979, 25.27142], [121.63599, 25.2228], [121.64967, 25.19709], [121.67588, 25.20256], [121.68441, 25.2005], [121.67612, 25.18692], [121.67644, 25.17939], [121.70387, 25.15689], [121.89257, 25.11373], [121.90511, 25.10659], [121.89723, 25.08389], [121.89991, 25.06598], [121.90919, 25.03604], [121.9192, 25.02204], [121.92726, 25.0187], [121.96773, 25.02102], [121.99749, 25.0108], [122.00536, 25.0019], [121.92677, 24.96662], [121.90577, 24.9501], [121.83473, 24.87153], [121.81463, 24.83173], [121.80681, 24.77875], [121.80779, 24.75312], [121.82031, 24.69965], [121.81422, 24.67231], [121.81495, 24.64436], [121.82797, 24.62279], [121.85271, 24.60887], [121.88184, 24.60398], [121.88184, 24.59782], [121.85776, 24.59785], [121.84083, 24.59032], [121.85083, 24.57298], [121.85596, 24.55052], [121.85278, 24.531], [121.83009, 24.51923], [121.82838, 24.51073], [121.84001, 24.48135], [121.80681, 24.46064], [121.78004, 24.43268], [121.78076, 24.39761], [121.7715, 24.38056], [121.76644, 24.34736], [121.75856, 24.33234], [121.7727, 24.30923], [121.72144, 24.25117], [121.70387, 24.23835], [121.69825, 24.23151], [121.70092, 24.22419], [121.69775, 24.21899], [121.66285, 24.1931], [121.65219, 24.17219], [121.64128, 24.12987], [121.61305, 24.09211], [121.60743, 24.07685], [121.60817, 24.06049], [121.615, 24.0423], [121.6289, 24.02619], [121.62915, 24.01496], [121.6111, 23.98249], [121.59453, 23.89169], [121.57032, 23.8321], [121.5398, 23.69282], [121.5215, 23.65868], [121.46216, 23.34301], [121.45361, 23.326], [121.42677, 23.29312], [121.40886, 23.25458], [121.40007, 23.1455], [121.38159, 23.11067], [121.34742, 23.08332], [121.33707, 23.05509], [121.31886, 23.02554], [121.29945, 22.95901], [121.25561, 22.89778], [121.19028, 22.84317], [121.19027, 22.80215], [121.17757, 22.77886], [121.1416, 22.7419], [121.08025, 22.70409], [121.03907, 22.66243], [121.02906, 22.65754], [120.99133, 22.58327], [120.96062, 22.5478], [120.94825, 22.5268], [120.94101, 22.48335], [120.92294, 22.42501], [120.88657, 22.36595], [120.88136, 22.34593], [120.87501, 22.28925], [120.87923, 22.05581], [120.86361, 22.00895], [120.8357, 21.98725], [120.84033, 21.90464], [120.82309, 21.92862], [120.79737, 21.94676], [120.76743, 21.9593], [120.73732, 21.96613], [120.73608, 21.94282], [120.7273, 21.93449], [120.71437, 21.93749], [120.70038, 21.94844], [120.70436, 21.98139], [120.68166, 22.02277], [120.6834, 22.07925], [120.69695, 22.11323], [120.62127, 22.29507], [120.59393, 22.32917], [120.56967, 22.37385], [120.51809, 22.40697], [120.51197, 22.42475], [120.45721, 22.45161], [120.41326, 22.48233], [120.40211, 22.4868], [120.38068, 22.48401], [120.33124, 22.51973], [120.28531, 22.57988], [120.33367, 22.52595], [120.32797, 22.5517], [120.31349, 22.57705], [120.25874, 22.62784], [120.24579, 22.64253], [120.23967, 22.65888], [120.25213, 22.68964], [120.24635, 22.70991], [120.19997, 22.79247], [120.19645, 22.81839], [120.20346, 22.83967], [120.19143, 22.85204], [120.17556, 22.8841], [120.16383, 22.95384], [120.14212, 22.98029], [120.16017, 22.99213], [120.17026, 23.01337], [120.16619, 23.03172], [120.1421, 23.0349], [120.12671, 23.00716], [120.11411, 23.00765], [120.10915, 23.01545], [120.10792, 23.04857], [120.09246, 23.05476], [120.07666, 23.03743], [120.06626, 23.03491], [120.05518, 23.04369], [120.05242, 23.05581], [120.05943, 23.07586], [120.09645, 23.08641], [120.10043, 23.09699], [120.09498, 23.10248], [120.05943, 23.11067], [120.05943, 23.11749], [120.0892, 23.11774], [120.08627, 23.12694], [120.05942, 23.15103], [120.06202, 23.16502], [120.08188, 23.17316], [120.08692, 23.18203], [120.07862, 23.20698], [120.08745, 23.23028], [120.0961, 23.23949], [120.09604, 23.25536], [120.10891, 23.28668], [120.12469, 23.29499], [120.1105, 23.30371], [120.11653, 23.3179], [120.14894, 23.32225], [120.14576, 23.33332], [120.13734, 23.32773], [120.12094, 23.32974], [120.12078, 23.34125], [120.13015, 23.36096], [120.16458, 23.36171], [120.13479, 23.42624], [120.1421, 23.44579], [120.13055, 23.45099], [120.15754, 23.49148], [120.12504, 23.48962], [120.12426, 23.52002], [120.14169, 23.53795], [120.14362, 23.63803], [120.15425, 23.67221], [120.1708, 23.6989]]], [[[120.09943, 23.58677], [120.11017, 23.5975], [120.12232, 23.62007], [120.13206, 23.67143], [120.11864, 23.66447], [120.10998, 23.65585], [120.07944, 23.59329], [120.05874, 23.58332], [120.05707, 23.58804], [120.07613, 23.608], [120.10169, 23.66156], [120.11939, 23.67083], [120.13157, 23.68811], [120.13834, 23.69246], [120.14161, 23.68691], [120.14026, 23.66939], [120.12552, 23.62335], [120.12674, 23.6131], [120.13332, 23.6217], [120.13074, 23.61013], [120.13333, 23.60943], [120.12459, 23.58286], [120.11831, 23.57087], [120.11389, 23.57743], [120.09581, 23.55816], [120.07965, 23.53257], [120.07378, 23.53253], [120.0738, 23.53808], [120.0934, 23.56828], [120.09943, 23.58677]]], [[[121.93394, 24.83927], [121.92728, 24.84856], [121.95028, 24.85166], [121.95638, 24.84422], [121.95362, 24.83618], [121.93394, 24.83927]]]]}}]}