{"type": "FeatureCollection", "features": [{"type": "Feature", "properties": {"map_title": "나폴레옹 시대의 유럽 정세", "source": "미래엔 세계사 교과서 3권 142쪽", "volume": 3, "page": 142, "name": "바르샤바 공국", "name_en": "Duchy of Warsaw", "period": "1812년경", "kind": "국가", "legend": "프랑스의 위성국(지도 글자·위치로 이름 판단)", "coast_snap": "Natural Earth 10m 해안선에 맞춤", "border_snap": "현대 국경(Natural Earth 10m)에 맞춘 구간 약 374 km", "group": "바르샤바 공국", "map_folder": "3권_p142_나폴레옹 시대의 유럽 정세"}, "geometry": {"type": "Polygon", "coordinates": [[[26.30165, 51.26904], [25.50553, 51.2384], [24.65383, 51.19948], [24.08727, 51.26291], [23.53462, 51.55222], [23.20346, 51.58345], [22.52841, 51.27041], [21.79204, 51.27881], [20.98606, 51.04841], [20.02647, 50.99719], [19.64567, 51.5111], [18.77886, 51.78683], [18.54341, 52.18402], [18.26212, 52.35256], [17.45312, 52.337], [16.61593, 52.31504], [15.84284, 52.52071], [15.64917, 52.70873], [15.61146, 53.05203], [15.94057, 53.29459], [16.35649, 53.44305], [16.70079, 53.48392], [17.37004, 53.57867], [18.17257, 53.97069], [18.45249, 54.0929], [18.83874, 54.1243], [19.2637, 54.14126], [19.70461, 54.1458], [20.43883, 53.82052], [20.89291, 53.75518], [21.26042, 53.86159], [22.05869, 53.81359], [22.78727, 54.10786], [22.81718, 54.10855], [23.0501, 54.29483], [23.07304, 54.29488], [23.11707, 54.30346], [23.13526, 54.29829], [23.19727, 54.26785], [23.23541, 54.25416], [23.31602, 54.23628], [23.35447, 54.21705], [23.39147, 54.1801], [23.4325, 54.1693], [23.44904, 54.15494], [23.46299, 54.13494], [23.4816, 54.09122], [23.90472, 53.94606], [23.82059, 53.91929], [23.56479, 53.7424], [23.56707, 53.68101], [23.59094, 53.61125], [23.6758, 53.45571], [23.72292, 53.3971], [23.74297, 53.36548], [23.78297, 53.27094], [23.80065, 53.24246], [23.81863, 53.22797], [23.84808, 53.18381], [23.88312, 53.16399], [23.89366, 53.15195], [23.89139, 53.12771], [23.86069, 53.08748], [23.85935, 53.06798], [23.86793, 53.05103], [23.89821, 53.02754], [23.90968, 53.01273], [23.90906, 52.98666], [23.91795, 52.9508], [24.28946, 52.91078], [24.90614, 52.50807], [25.08724, 52.17438], [25.13803, 51.94895], [25.1833, 51.94975], [25.35197, 51.92148], [25.48781, 51.9201], [25.49963, 51.68657], [25.69591, 51.53908], [26.30165, 51.26904]]]}}]}