{"type": "FeatureCollection", "features": [{"type": "Feature", "properties": {"map_title": "로마 제국의 영역", "source": "미래엔 세계사 교과서 1권 50쪽", "volume": 1, "page": 50, "name": "동·서로마 제국의 경계선", "category": "경계선", "period": "395년", "legend": "동·서로마 제국의 경계선(395)"}, "geometry": {"type": "LineString", "coordinates": [[18.56984, 29.27141], [18.54536, 29.60175], [18.52964, 29.76332], [18.48924, 30.07852], [18.44075, 30.38883], [18.42459, 30.55316], [18.42336, 30.73252], [18.44636, 31.29947], [18.5361, 32.82126], [18.56982, 33.57443], [18.58824, 34.33101], [18.60149, 35.47216], [18.61141, 36.04745], [18.62242, 36.43532], [18.63825, 36.8289], [18.65947, 37.23039], [18.70047, 37.85079], [18.79114, 39.07859], [18.82268, 39.41316], [18.84579, 39.5647], [18.91662, 39.87816], [18.94296, 40.06246], [18.95894, 40.48638], [18.97499, 40.70842], [19.00293, 40.9323], [19.03994, 41.15603], [19.12329, 41.591], [19.15835, 41.79289], [19.17757, 41.97319], [19.18306, 42.13559], [19.25954, 42.48831], [19.3725, 42.81603], [19.45618, 43.07873], [19.69644, 43.93439], [19.7844, 44.20755], [19.88821, 44.48732], [20.01072, 44.7668], [20.15489, 45.03944], [20.32385, 45.29909]]}}]}