{"type": "FeatureCollection", "features": [{"type": "Feature", "properties": {"map_title": "로마 제국의 영역", "source": "미래엔 세계사 교과서 1권 50쪽", "volume": 1, "page": 50, "name": "로마(로마-카르타고 전쟁 전)", "name_en": "Roman Republic before the Punic Wars", "period": "기원전 264년 이전", "kind": "국가", "legend": "로마-카르타고 전쟁 전의 영역", "coast_snap": "Natural Earth 10m 해안선에 맞춤"}, "geometry": {"type": "MultiPolygon", "coordinates": [[[[12.35741, 37.91404], [12.34213, 37.91324], [12.31422, 37.92524], [12.29937, 37.91931], [12.28758, 37.92169], [12.27322, 37.93951], [12.28696, 37.93854], [12.31422, 37.94634], [12.33676, 37.93305], [12.3688, 37.92523], [12.35741, 37.91404]]], [[[12.06479, 37.95084], [12.04659, 37.96204], [12.05446, 37.99189], [12.06445, 37.98623], [12.07926, 37.95027], [12.06479, 37.95084]]], [[[13.94606, 40.74525], [13.96581, 40.73505], [13.96581, 40.71528], [13.94467, 40.70162], [13.93483, 40.70563], [13.91977, 40.7045], [13.89015, 40.69417], [13.84915, 40.71528], [13.86137, 40.74383], [13.87013, 40.74872], [13.8631, 40.7624], [13.88315, 40.76239], [13.94606, 40.74525]]], [[[13.41475, 40.7859], [13.42417, 40.80023], [13.43196, 40.80145], [13.42692, 40.79085], [13.41475, 40.7859]]], [[[12.96095, 40.90322], [12.96633, 40.89523], [12.96233, 40.88654], [12.94989, 40.8911], [12.94208, 40.89981], [12.95416, 40.92165], [12.98219, 40.93756], [12.99177, 40.93318], [12.9686, 40.91946], [12.96095, 40.90322]]], [[[12.85044, 40.92603], [12.85313, 40.94798], [12.85727, 40.95001], [12.86165, 40.9307], [12.85044, 40.92603]]], [[[11.10239, 42.2543], [11.10644, 42.2378], [11.09524, 42.24328], [11.09198, 42.25649], [11.10467, 42.26332], [11.11051, 42.26121], [11.11246, 42.25288], [11.10239, 42.2543]]], [[[10.92956, 42.34056], [10.93975, 42.33066], [10.92333, 42.31874], [10.90877, 42.3254], [10.86198, 42.36609], [10.87637, 42.37444], [10.87584, 42.38678], [10.88299, 42.39214], [10.91345, 42.37523], [10.92956, 42.34056]]], [[[10.43099, 42.86444], [10.44335, 42.84545], [10.43116, 42.82787], [10.43668, 42.80443], [10.42986, 42.7874], [10.41003, 42.77074], [10.36621, 42.82305], [10.38136, 42.83242], [10.39992, 42.86883], [10.41236, 42.87335], [10.43099, 42.86444]]], [[[12.47869, 37.88117], [12.46413, 37.91291], [12.49049, 37.95401], [12.50294, 37.99706], [12.50416, 38.01122], [12.49295, 38.02143], [12.52345, 38.03144], [12.57635, 38.07171], [12.60841, 38.0624], [12.65162, 38.0915], [12.66245, 38.11627], [12.7046, 38.11083], [12.72535, 38.12592], [12.71992, 38.17548], [12.73178, 38.19275], [12.7378, 38.18098], [12.76091, 38.18097], [12.79078, 38.11709], [12.81837, 38.07795], [12.86889, 38.05133], [12.86964, 38.04255], [12.90113, 38.02806], [12.94418, 38.03286], [13.02735, 38.0624], [13.06137, 38.08348], [13.0713, 38.09553], [13.06617, 38.12303], [13.05471, 38.14183], [13.08937, 38.166], [13.08377, 38.17471], [13.10093, 38.19008], [13.11248, 38.19276], [13.15699, 38.17967], [13.2072, 38.17609], [13.23032, 38.18464], [13.23903, 38.207], [13.2544, 38.20254], [13.31812, 38.22064], [13.32324, 38.21796], [13.32838, 38.20018], [13.37191, 38.17279], [13.3733, 38.14069], [13.39137, 38.10318], [13.51352, 38.11053], [13.54126, 38.09406], [13.53932, 38.07685], [13.54737, 38.05622], [13.58708, 38.03912], [13.65113, 38.00096], [13.69799, 37.99351], [13.71191, 37.98793], [13.70509, 37.98046], [13.79078, 37.97362], [13.81267, 37.97793], [13.85719, 37.99672], [13.89828, 38.00446], [13.93849, 38.02887], [14.00717, 38.03827], [14.02052, 38.04937], [14.08326, 38.02383], [14.10629, 38.02143], [14.15138, 38.02886], [14.2732, 38.01512], [14.33123, 38.01801], [14.38461, 38.02953], [14.4319, 38.04937], [14.46412, 38.03718], [14.51173, 38.04438], [14.63461, 38.08149], [14.66774, 38.09919], [14.73399, 38.15771], [14.7448, 38.16135], [14.79811, 38.16035], [14.87403, 38.17569], [14.90708, 38.18768], [14.94474, 38.1819], [14.96974, 38.15925], [15.00734, 38.1518], [15.04899, 38.15179], [15.0687, 38.13129], [15.0879, 38.12824], [15.17742, 38.15632], [15.2033, 38.1833], [15.24073, 38.24116], [15.23718, 38.26479], [15.24317, 38.26479], [15.24633, 38.25434], [15.24073, 38.23029], [15.24537, 38.21723], [15.25758, 38.21019], [15.29184, 38.20702], [15.32106, 38.21088], [15.39967, 38.23257], [15.43377, 38.25315], [15.47291, 38.26781], [15.51288, 38.29758], [15.52866, 38.30263], [15.55925, 38.3001], [15.61598, 38.28022], [15.6516, 38.27529], [15.64242, 38.26228], [15.62428, 38.26166], [15.58375, 38.24042], [15.56967, 38.22696], [15.55991, 38.19977], [15.57592, 38.20017], [15.52703, 38.13679], [15.50033, 38.08495], [15.39259, 37.97614], [15.26645, 37.81211], [15.24122, 37.79556], [15.21306, 37.76146], [15.20655, 37.74775], [15.22021, 37.70673], [15.21606, 37.69673], [15.20216, 37.68537], [15.19677, 37.6551], [15.16391, 37.5679], [15.1159, 37.52228], [15.09669, 37.49445], [15.09156, 37.47748], [15.09205, 37.36054], [15.09753, 37.34196], [14.98401, 37.34267], [14.89787, 37.35685], [14.85624, 37.36896], [14.7779, 37.40283], [14.74244, 37.42405], [14.68046, 37.47393], [14.64274, 37.51768], [14.66733, 37.60857], [14.71038, 37.68382], [14.70478, 37.69447], [14.62227, 37.68214], [14.5439, 37.65509], [14.50606, 37.6332], [14.47859, 37.60891], [14.45675, 37.58024], [14.38794, 37.42013], [14.38974, 37.4125], [14.52735, 37.34462], [14.56157, 37.32458], [14.63441, 37.26999], [14.64274, 37.26807], [14.65273, 37.27724], [14.64068, 37.35224], [14.63805, 37.436], [14.69999, 37.36961], [14.72008, 37.33809], [14.74803, 37.27152], [14.75588, 37.23627], [14.76024, 37.15363], [14.83174, 37.01517], [14.84162, 36.97986], [14.84799, 36.9091], [14.83685, 36.83827], [14.82462, 36.80344], [14.78838, 36.73876], [14.76092, 36.70622], [14.74431, 36.71914], [14.68459, 36.72603], [14.65895, 36.75381], [14.58221, 36.78132], [14.56593, 36.77832], [14.48732, 36.79337], [14.47562, 36.80517], [14.39454, 36.94501], [14.36988, 36.97309], [14.27882, 37.04401], [14.20851, 37.08112], [14.12631, 37.11225], [14.08863, 37.11774], [13.97633, 37.1103], [13.93849, 37.09594], [13.89439, 37.10083], [13.83269, 37.13955], [13.7156, 37.1715], [13.68345, 37.18936], [13.59881, 37.25674], [13.56918, 37.2735], [13.48838, 37.28855], [13.45265, 37.29883], [13.42184, 37.31426], [13.37224, 37.34614], [13.32961, 37.36628], [13.31129, 37.38084], [13.27802, 37.39371], [13.25327, 37.43179], [13.22536, 37.44604], [13.20606, 37.46393], [13.18923, 37.46972], [13.17408, 37.48701], [13.05152, 37.50068], [13.02638, 37.49324], [13.01708, 37.49744], [13.00001, 37.53547], [12.97413, 37.55744], [12.94264, 37.56851], [12.86215, 37.5764], [12.78093, 37.57421], [12.69776, 37.56274], [12.65936, 37.56514], [12.63625, 37.58223], [12.59474, 37.63789], [12.57781, 37.652], [12.56349, 37.65778], [12.52361, 37.65836], [12.50621, 37.66552], [12.48916, 37.68255], [12.46503, 37.7198], [12.45631, 37.75975], [12.42703, 37.79703], [12.42743, 37.80927], [12.44459, 37.81597], [12.44606, 37.81184], [12.46502, 37.82282], [12.47869, 37.88117]]], [[[15.6846, 38.2532], [15.78647, 38.27802], [15.81284, 38.3006], [15.8299, 38.35124], [15.9048, 38.47394], [15.91782, 38.51679], [15.91603, 38.55036], [15.90008, 38.57827], [15.83563, 38.62804], [15.83673, 38.64918], [15.84474, 38.66049], [15.9048, 38.67939], [15.96803, 38.71259], [16.00262, 38.7254], [16.04884, 38.72772], [16.12086, 38.72093], [16.1526, 38.7309], [16.17921, 38.74828], [16.20094, 38.77644], [16.2151, 38.81415], [16.22169, 38.85659], [16.21469, 38.91901], [16.2046, 38.93407], [16.18963, 38.94355], [16.16896, 38.94686], [16.15416, 38.95522], [16.08303, 39.07527], [16.03403, 39.34524], [15.9954, 39.43877], [15.95808, 39.47757], [15.93312, 39.51366], [15.8761, 39.55164], [15.86753, 39.56391], [15.8366, 39.65266], [15.80642, 39.6955], [15.78875, 39.79662], [15.78875, 39.7904], [15.78395, 39.81], [15.76972, 39.83015], [15.78191, 39.8686], [15.77443, 39.8911], [15.74156, 39.9296], [15.72804, 39.96418], [15.6789, 40.00886], [15.65162, 40.04365], [15.63039, 40.05769], [15.62428, 40.07779], [15.6102, 40.0732], [15.53492, 40.07779], [15.51313, 40.06768], [15.4953, 40.04673], [15.45981, 40.02936], [15.42959, 39.9998], [15.4101, 39.99398], [15.34317, 40.00416], [15.3143, 40.03376], [15.30274, 40.0362], [15.28305, 40.02986], [15.26125, 40.02937], [15.26125, 40.0362], [15.27914, 40.04768], [15.26344, 40.07372], [15.2339, 40.1], [15.18996, 40.11913], [15.12721, 40.16962], [15.1128, 40.17479], [15.06568, 40.16658], [15.04722, 40.16894], [15.03493, 40.17537], [15.0228, 40.19563], [15.00312, 40.21026], [14.97591, 40.21932], [14.95709, 40.23155], [14.93814, 40.22785], [14.91116, 40.24165], [14.90693, 40.25861], [14.9319, 40.28555], [14.93914, 40.30707], [14.9324, 40.33372], [14.99449, 40.35843], [15.00043, 40.36883], [14.99827, 40.39756], [14.88884, 40.57307], [14.83546, 40.63264], [14.78199, 40.66987], [14.75221, 40.6767], [14.71998, 40.66682], [14.69015, 40.64906], [14.62574, 40.64908], [14.61329, 40.6459], [14.57129, 40.61775], [14.54448, 40.61364], [14.51638, 40.61987], [14.48658, 40.63264], [14.47136, 40.62467], [14.42205, 40.61555], [14.40153, 40.60213], [14.3558, 40.58364], [14.34262, 40.57064], [14.32983, 40.58466], [14.32799, 40.60541], [14.33775, 40.62441], [14.38738, 40.63695], [14.44422, 40.68598], [14.47637, 40.6951], [14.47975, 40.71149], [14.47413, 40.72968], [14.44264, 40.75507], [14.42129, 40.75094], [14.39444, 40.76157], [14.2942, 40.83877], [14.24838, 40.83771], [14.22364, 40.83137], [14.20316, 40.80121], [14.18221, 40.80093], [14.1656, 40.81575], [14.13524, 40.81857], [14.09596, 40.83381], [14.08253, 40.83128], [14.07618, 40.82221], [14.08251, 40.78353], [14.04771, 40.7896], [14.04117, 40.79649], [14.05226, 40.83759], [14.04447, 40.87421], [14.02134, 40.92183], [13.96534, 40.99641], [13.91799, 41.02367], [13.91065, 41.06464], [13.85172, 41.14732], [13.79049, 41.20586], [13.72185, 41.25239], [13.70851, 41.25641], [13.66335, 41.25069], [13.65659, 41.25959], [13.59441, 41.25312], [13.56365, 41.23798], [13.57543, 41.20808], [13.54396, 41.20662], [13.53423, 41.20824], [13.51442, 41.22968], [13.50711, 41.22176], [13.49969, 41.22176], [13.48024, 41.23916], [13.32439, 41.29483], [13.28582, 41.29572], [13.18702, 41.27802], [13.15121, 41.26021], [13.11451, 41.25088], [13.0905, 41.22656], [13.06821, 41.22176], [13.04462, 41.22753], [13.02369, 41.27359], [12.9795, 41.331], [12.92384, 41.37979], [12.89356, 41.39932], [12.84156, 41.4184], [12.74855, 41.42374], [12.67856, 41.45795], [12.65398, 41.46564], [12.63526, 41.44751], [12.61921, 41.45934], [12.54558, 41.54413], [12.44801, 41.63076], [12.32716, 41.71137], [12.30064, 41.71744], [12.285, 41.7272], [12.23903, 41.73628], [12.2235, 41.75069], [12.2152, 41.76814], [12.20623, 41.82734], [12.17018, 41.87958], [12.14747, 41.90347], [12.03884, 41.96516], [12.02036, 41.99307], [11.9822, 41.99975], [11.95265, 42.02228], [11.91684, 42.03791], [11.82749, 42.03418], [11.80942, 42.06635], [11.75018, 42.12792], [11.73618, 42.16889], [11.68214, 42.25214], [11.65821, 42.27936], [11.53907, 42.34886], [11.48898, 42.35948], [11.39618, 42.39298], [11.39617, 42.40038], [11.37664, 42.40689], [11.35467, 42.40721], [11.36206, 42.40039], [11.33302, 42.40059], [11.25904, 42.42084], [11.21127, 42.41889], [11.20092, 42.39546], [11.18629, 42.3793], [11.18384, 42.36629], [11.16472, 42.36933], [11.15593, 42.36629], [11.13453, 42.38418], [11.10663, 42.39127], [11.08677, 42.41836], [11.08695, 42.42945], [11.09897, 42.44268], [11.11302, 42.44635], [11.14182, 42.4388], [11.16419, 42.43983], [11.17969, 42.4565], [11.18845, 42.48027], [11.18686, 42.52082], [11.16605, 42.54622], [11.15846, 42.56403], [11.12868, 42.55806], [11.09742, 42.60688], [11.08092, 42.61271], [11.07781, 42.63223], [11.00572, 42.66792], [10.99, 42.71027], [10.94361, 42.74299], [10.89088, 42.7639], [10.73132, 42.80443], [10.75538, 42.81916], [10.7649, 42.83527], [10.76565, 42.8771], [10.77768, 42.89472], [10.76352, 42.91828], [10.68141, 42.94904], [10.6325, 42.95848], [10.58326, 42.9597], [10.53907, 42.94912], [10.54654, 42.93476], [10.51857, 42.92529], [10.49954, 42.9405], [10.47757, 42.99005], [10.5027, 43.00556], [10.5171, 43.02391], [10.53907, 43.07941], [10.5357, 43.11289], [10.54656, 43.14712], [10.53448, 43.18505], [10.52817, 43.24677], [10.43702, 43.38858], [10.37338, 43.45319], [10.35914, 43.46528], [10.32636, 43.47688], [10.31724, 43.49262], [10.29474, 43.56882], [10.26401, 43.80939], [10.25164, 43.84662], [10.21013, 43.92023], [10.18067, 43.95527], [10.1365, 43.97871], [10.1058, 44.01675], [10.09059, 44.02538], [10.07204, 44.02954], [10.03533, 44.04784], [9.98854, 44.05976], [9.98071, 44.04988], [9.96274, 44.04468], [9.88795, 44.093], [9.8768, 44.08785], [9.84474, 44.10863], [9.82643, 44.10725], [9.83325, 44.09985], [9.81959, 44.093], [9.83058, 44.07884], [9.84749, 44.07249], [9.84749, 44.06632], [9.83326, 44.05207], [9.84634, 44.04629], [9.84253, 44.04117], [9.8323, 44.04231], [9.81983, 44.06338], [9.77183, 44.07942], [9.68263, 44.13654], [9.62111, 44.14827], [9.57994, 44.17895], [9.57301, 44.1916], [9.49904, 44.22184], [9.48439, 44.24384], [9.45418, 44.23773], [9.43679, 44.2395], [9.48274, 44.29475], [9.54631, 44.34576], [9.67877, 44.43321], [9.76152, 44.4773], [9.82866, 44.50466], [9.89603, 44.46654], [9.97685, 44.45557], [10.02128, 44.44519], [10.1463, 44.4011], [10.27405, 44.36386], [10.36246, 44.32717], [10.41501, 44.29927], [10.45099, 44.27672], [10.51281, 44.22691], [10.64195, 44.24349], [10.68997, 44.25657], [10.73375, 44.27478], [10.7693, 44.29817], [10.79512, 44.32663], [10.80657, 44.34964], [10.80809, 44.36744], [10.801, 44.38353], [10.72154, 44.4418], [10.70321, 44.47737], [10.71398, 44.51263], [10.74813, 44.54626], [10.80011, 44.57706], [10.86476, 44.60395], [10.93524, 44.62529], [11.00772, 44.64047], [11.07627, 44.64815], [11.14043, 44.64443], [11.18486, 44.62835], [11.28182, 44.56618], [11.36942, 44.53012], [11.43554, 44.50977], [11.50034, 44.49577], [11.56586, 44.49345], [11.62764, 44.50588], [11.68834, 44.53048], [11.76086, 44.57152], [11.76507, 44.57961], [11.74497, 44.67476], [11.74568, 44.75553], [11.76917, 44.89267], [11.77981, 44.92532], [11.81081, 44.98424], [11.79427, 45.01973], [11.8114, 45.02733], [11.90272, 45.05549], [11.9621, 45.06727], [12.0109, 45.07305], [12.10837, 45.07441], [12.24186, 45.06518], [12.2927, 45.05669], [12.37622, 45.03319], [12.35515, 45.02464], [12.36883, 45.01097], [12.38453, 45.03044], [12.44979, 45.00605], [12.48618, 44.97651], [12.4992, 44.98371], [12.4861, 44.98371], [12.48637, 44.99102], [12.53362, 44.9675], [12.52312, 44.95002], [12.52701, 44.94335], [12.5127, 44.92232], [12.49903, 44.92145], [12.49285, 44.87794], [12.47427, 44.84594], [12.44459, 44.82052], [12.424, 44.85464], [12.44304, 44.89008], [12.43832, 44.90111], [12.42693, 44.90497], [12.40691, 44.8913], [12.3921, 44.86839], [12.39161, 44.85883], [12.41652, 44.85114], [12.40821, 44.83625], [12.39674, 44.83348], [12.39674, 44.82665], [12.424, 44.82049], [12.41617, 44.8033], [12.39795, 44.79378], [12.37567, 44.79223], [12.32106, 44.83348], [12.30299, 44.84292], [12.29233, 44.84325], [12.26637, 44.82665], [12.26637, 44.8205], [12.28002, 44.8205], [12.25359, 44.75129], [12.24659, 44.71161], [12.2527, 44.6684], [12.28577, 44.60292], [12.28004, 44.53189], [12.2837, 44.48762], [12.31821, 44.36115], [12.34211, 44.32949], [12.35027, 44.28815], [12.36883, 44.25068], [12.38998, 44.22272], [12.41717, 44.19546], [12.45801, 44.1664], [12.47877, 44.13935], [12.54737, 44.09345], [12.57422, 44.08559], [12.63136, 44.0301], [12.69158, 43.99063], [12.75611, 43.97187], [12.80396, 43.96685], [12.86215, 43.93537], [12.92887, 43.91583], [12.94728, 43.89761], [13.25327, 43.70319], [13.38981, 43.64459], [13.39967, 43.63565], [13.44662, 43.62371], [13.4734, 43.61201], [13.50441, 43.63275], [13.51611, 43.63173], [13.52101, 43.62271], [13.54321, 43.61322], [13.57887, 43.5729], [13.59791, 43.56952], [13.61556, 43.56048], [13.62451, 43.54719], [13.61695, 43.53132], [13.76026, 43.26374], [13.78027, 43.23652], [13.79078, 43.19208], [13.83487, 43.1271], [13.8487, 43.09145], [13.86541, 43.00731], [13.94467, 42.79828], [13.98048, 42.73037], [14.00123, 42.69843], [14.06323, 42.62482], [14.07537, 42.59882], [14.22055, 42.47016], [14.28419, 42.42829], [14.38737, 42.37294], [14.42905, 42.32172], [14.56023, 42.22565], [14.59588, 42.20856], [14.65349, 42.19107], [14.69369, 42.18536], [14.70923, 42.17548], [14.71704, 42.16006], [14.7295, 42.09911], [14.74073, 42.08462], [14.78041, 42.07513], [14.83546, 42.04414], [14.8711, 42.03181], [14.95156, 42.02112], [14.99365, 42.01064], [15.03452, 41.97459], [15.12338, 41.93427], [15.16538, 41.9278], [15.28175, 41.92803], [15.40056, 41.90778], [15.44606, 41.90693], [15.61134, 41.92803], [15.77442, 41.92121], [16.02711, 41.94407], [16.14046, 41.9199], [16.1609, 41.89265], [16.17919, 41.89329], [16.17604, 41.87739], [16.19304, 41.80854], [16.19287, 41.79092], [16.18446, 41.77977], [16.14575, 41.74886], [16.10719, 41.73762], [16.06315, 41.70149], [16.02751, 41.67993], [15.9253, 41.64004], [15.90008, 41.61465], [15.89137, 41.57685], [15.89633, 41.53644], [15.91179, 41.50288], [15.9336, 41.47944], [15.96111, 41.45946], [16.02166, 41.4278], [16.08513, 41.41266], [16.11411, 41.39289], [16.30127, 41.32793], [16.4603, 41.26264], [16.52067, 41.25014], [16.59392, 41.20698], [16.83031, 41.14638], [16.85141, 41.13296], [16.85816, 41.13296], [16.85816, 41.14035], [16.86442, 41.14036], [16.88526, 41.12397], [17.05739, 41.08175], [17.2028, 41.02112], [17.2762, 40.98031], [17.31006, 40.95477], [17.34791, 40.9121], [17.37769, 40.90228], [17.4134, 40.8812], [17.47608, 40.83015], [17.51221, 40.82029], [17.54835, 40.80195], [17.63453, 40.78497], [17.74837, 40.74761], [17.84392, 40.69416], [17.92188, 40.683], [17.95557, 40.67057], [17.95493, 40.64692], [17.99195, 40.65313], [18.007, 40.65069], [18.0158, 40.62519], [18.04321, 40.60199], [18.03745, 40.55695], [18.11996, 40.50458], [18.21168, 40.46475], [18.23828, 40.45766], [18.2588, 40.43065], [18.30322, 40.39988], [18.34376, 40.35163], [18.37044, 40.33868], [18.43707, 40.2681], [18.50001, 40.15249], [18.51611, 40.13922], [18.51108, 40.12759], [18.51611, 40.10448], [18.49187, 40.08466], [18.48356, 40.05517], [18.43409, 40.02253], [18.41139, 39.97883], [18.39259, 39.91608], [18.40007, 39.87882], [18.38649, 39.82534], [18.38916, 39.81709], [18.36833, 39.79663], [18.34653, 39.79806], [18.33042, 39.80342], [18.28207, 39.8332], [18.26564, 39.83759], [18.21128, 39.83935], [18.16189, 39.86055], [18.13063, 39.88349], [18.07155, 39.91153], [17.99539, 39.99527], [17.99539, 40.00266], [18.01108, 40.00336], [18.02027, 40.0102], [18.02215, 40.02167], [18.0158, 40.0362], [18.00514, 40.04487], [17.96748, 40.05732], [18.00294, 40.07445], [18.011, 40.09602], [17.99724, 40.12043], [17.92605, 40.17626], [17.91962, 40.19074], [17.917, 40.22687], [17.91114, 40.2403], [17.89969, 40.24909], [17.91277, 40.24909], [17.91277, 40.25532], [17.86313, 40.28563], [17.84767, 40.29003], [17.51175, 40.30376], [17.49391, 40.30745], [17.44044, 40.331], [17.39943, 40.33101], [17.36817, 40.35151], [17.21291, 40.4062], [17.20023, 40.42039], [17.22348, 40.42841], [17.24301, 40.44139], [17.2479, 40.45734], [17.22758, 40.47444], [17.24741, 40.48028], [17.29575, 40.47321], [17.31625, 40.48188], [17.32325, 40.49848], [17.30405, 40.49946], [17.26175, 40.48872], [17.26857, 40.49616], [17.24741, 40.50283], [17.18995, 40.48189], [17.18182, 40.4853], [17.16619, 40.50918], [17.15602, 40.5124], [17.04957, 40.51911], [16.97609, 40.49262], [16.91212, 40.44522], [16.78272, 40.30158], [16.7614, 40.2696], [16.73071, 40.20068], [16.71599, 40.19359], [16.67944, 40.14607], [16.62452, 40.10798], [16.60475, 40.08446], [16.59693, 40.04678], [16.59938, 40.03413], [16.63159, 39.96621], [16.60548, 39.94294], [16.58919, 39.91983], [16.54225, 39.8854], [16.49171, 39.80549], [16.48976, 39.77521], [16.50213, 39.74706], [16.52856, 39.7215], [16.51564, 39.6896], [16.54591, 39.66087], [16.59148, 39.63679], [16.62485, 39.62531], [16.74976, 39.62001], [16.78248, 39.61163], [16.81626, 39.59088], [16.8462, 39.55268], [16.906, 39.52972], [16.95297, 39.49921], [16.99537, 39.49273], [17.01148, 39.48614], [17.05714, 39.44164], [17.08855, 39.42259], [17.1242, 39.409], [17.15868, 39.40619], [17.12224, 39.33832], [17.11492, 39.28278], [17.11769, 39.25601], [17.14567, 39.21068], [17.12224, 39.12104], [17.12452, 39.09089], [17.15846, 39.04047], [17.20636, 39.02948], [17.17661, 39.01211], [17.17237, 39.00519], [17.17236, 38.96052], [17.1277, 38.92878], [17.10402, 38.8991], [17.09498, 38.91913], [17.07057, 38.9228], [17.04225, 38.91625], [17.02199, 38.90596], [16.99635, 38.92951], [16.98129, 38.9372], [16.93507, 38.93871], [16.83855, 38.9182], [16.72779, 38.87885], [16.68776, 38.85586], [16.67074, 38.84065], [16.61061, 38.81656], [16.58562, 38.79784], [16.57439, 38.78506], [16.56372, 38.75675], [16.53883, 38.72333], [16.53484, 38.6999], [16.54907, 38.68992], [16.55885, 38.59602], [16.57698, 38.52855], [16.56947, 38.42932], [16.56136, 38.41633], [16.50814, 38.37154], [16.49757, 38.36929], [16.46705, 38.34871], [16.43507, 38.33999], [16.33985, 38.30085], [16.30633, 38.27709], [16.16944, 38.14322], [16.15187, 38.11083], [16.12542, 38.00466], [16.10143, 37.96066], [16.07715, 37.93989], [16.06316, 37.93269], [16.00099, 37.91902], [15.94215, 37.93309], [15.76149, 37.92525], [15.73465, 37.93106], [15.68442, 37.95352], [15.64567, 37.98819], [15.63512, 38.0091], [15.63837, 38.02773], [15.65846, 38.04255], [15.62405, 38.09211], [15.62746, 38.10736], [15.6478, 38.14313], [15.63284, 38.22028], [15.65057, 38.24103], [15.6846, 38.2532]]], [[[15.0018, 38.39038], [15.00732, 38.37768], [14.98683, 38.3641], [14.96492, 38.38064], [15.0018, 38.39038]]], [[[14.20834, 40.53796], [14.19599, 40.54117], [14.19886, 40.55856], [14.21921, 40.56054], [14.26212, 40.55398], [14.25471, 40.54638], [14.20834, 40.53796]]], [[[14.02182, 40.75719], [14.02588, 40.75032], [14.01352, 40.74755], [14.01708, 40.73727], [14.00587, 40.74689], [14.001, 40.74397], [14.0041, 40.76219], [14.01767, 40.77028], [14.03531, 40.75984], [14.02182, 40.75719]]], [[[15.48014, 42.11523], [15.49284, 42.12384], [15.49674, 42.11603], [15.48471, 42.10144], [15.47773, 42.10412], [15.48014, 42.11523]]]]}}]}