{"type": "FeatureCollection", "features": [{"type": "Feature", "properties": {"map_title": "로마 제국의 영역", "source": "미래엔 세계사 교과서 1권 50쪽", "volume": 1, "page": 50, "name": "론디니움(런던)", "name_en": "Londinium (London)", "category": "도시", "legend": "론디니움(런던)", "coord_source": "실제 위치", "map_lon": -0.12794, "map_lat": 51.50687, "map_offset_km": 65.3}, "geometry": {"type": "Point", "coordinates": [-0.128, 51.507]}}, {"type": "Feature", "properties": {"map_title": "로마 제국의 영역", "source": "미래엔 세계사 교과서 1권 50쪽", "volume": 1, "page": 50, "name": "루테티아(파리)", "name_en": "Lutetia (Paris)", "category": "도시", "legend": "루테티아(파리)", "coord_source": "실제 위치", "map_lon": 2.35193, "map_lat": 48.85706, "map_offset_km": 26.9}, "geometry": {"type": "Point", "coordinates": [2.352, 48.857]}}, {"type": "Feature", "properties": {"map_title": "로마 제국의 영역", "source": "미래엔 세계사 교과서 1권 50쪽", "volume": 1, "page": 50, "name": "로마", "name_en": "Rome", "category": "수도", "legend": "로마", "coord_source": "실제 위치", "map_lon": 12.48327, "map_lat": 41.893, "map_offset_km": 139.7}, "geometry": {"type": "Point", "coordinates": [12.483, 41.893]}}, {"type": "Feature", "properties": {"map_title": "로마 제국의 영역", "source": "미래엔 세계사 교과서 1권 50쪽", "volume": 1, "page": 50, "name": "카르타고", "name_en": "Carthage", "category": "도시", "legend": "카르타고", "coord_source": "실제 위치", "map_lon": 10.32155, "map_lat": 36.85191, "map_offset_km": 122.5}, "geometry": {"type": "Point", "coordinates": [10.323, 36.853]}}, {"type": "Feature", "properties": {"map_title": "로마 제국의 영역", "source": "미래엔 세계사 교과서 1권 50쪽", "volume": 1, "page": 50, "name": "콘스탄티노폴리스", "name_en": "Constantinople", "category": "수도", "legend": "콘스탄티노폴리스", "coord_source": "실제 위치", "map_lon": 28.97806, "map_lat": 41.00837, "map_offset_km": 117.9}, "geometry": {"type": "Point", "coordinates": [28.978, 41.008]}}, {"type": "Feature", "properties": {"map_title": "로마 제국의 영역", "source": "미래엔 세계사 교과서 1권 50쪽", "volume": 1, "page": 50, "name": "안티오크", "name_en": "Antioch", "category": "도시", "legend": "안티오크", "coord_source": "실제 위치", "map_lon": 36.16022, "map_lat": 36.20216, "map_offset_km": 109.2}, "geometry": {"type": "Point", "coordinates": [36.16, 36.202]}}, {"type": "Feature", "properties": {"map_title": "로마 제국의 영역", "source": "미래엔 세계사 교과서 1권 50쪽", "volume": 1, "page": 50, "name": "예루살렘", "name_en": "Jerusalem", "category": "도시", "legend": "예루살렘", "coord_source": "실제 위치", "map_lon": 35.23448, "map_lat": 31.77829, "map_offset_km": 56.1}, "geometry": {"type": "Point", "coordinates": [35.235, 31.778]}}, {"type": "Feature", "properties": {"map_title": "로마 제국의 영역", "source": "미래엔 세계사 교과서 1권 50쪽", "volume": 1, "page": 50, "name": "알렉산드리아", "name_en": "Alexandria", "category": "도시", "legend": "알렉산드리아", "coord_source": "실제 위치", "map_lon": 29.91928, "map_lat": 31.19912, "map_offset_km": 46.1}, "geometry": {"type": "Point", "coordinates": [29.918, 31.2]}}]}