{"type": "FeatureCollection", "features": [{"type": "Feature", "properties": {"map_title": "제1차 세계 대전의 전개", "source": "미래엔 세계사 교과서 4권 181쪽", "volume": 4, "page": 181, "legend": "연합국", "name": "세르비아", "name_en": "Serbia", "period": "1914–1918", "kind": "국가", "alliance": "연합국", "coast_snap": "Natural Earth 10m 해안선에 맞춤", "border_snap": "현대 국경(Natural Earth 10m)에 맞춘 구간 약 1440 km"}, "geometry": {"type": "Polygon", "coordinates": [[[18.41308, 42.46207], [18.42173, 42.51088], [18.43535, 42.54475], [18.47604, 42.60908], [18.53273, 42.66591], [18.60297, 42.71318], [18.64273, 42.73291], [18.7292, 42.76324], [18.8227, 42.78056], [18.91841, 42.78395], [18.9607, 42.78084], [18.98858, 42.76955], [19.07087, 42.81041], [19.20796, 42.82758], [19.21182, 42.83484], [19.19855, 42.89071], [19.19911, 42.93832], [19.21304, 42.97415], [19.23817, 43.00176], [19.35566, 43.07396], [19.40279, 43.10827], [19.43855, 43.14217], [19.4549, 43.16817], [19.45654, 43.1905], [19.41639, 43.25904], [19.40207, 43.29381], [19.39468, 43.34021], [19.39818, 43.37148], [19.40971, 43.40071], [19.43997, 43.44723], [19.41073, 43.54075], [19.41931, 43.54926], [19.43182, 43.57114], [19.44391, 43.57186], [19.48174, 43.56083], [19.49176, 43.56861], [19.48174, 43.57812], [19.47688, 43.58868], [19.4775, 43.61698], [19.48174, 43.62891], [19.50737, 43.64718], [19.50571, 43.67364], [19.48173, 43.72922], [19.46168, 43.76214], [19.35947, 43.84221], [19.30593, 43.90474], [19.27544, 43.93326], [19.22935, 43.95768], [19.24072, 43.96574], [19.24289, 43.97282], [19.23813, 43.98538], [19.23934, 43.99478], [18.95366, 44.09772], [18.95324, 44.11546], [19.157, 44.29358], [19.17716, 44.28696], [19.22005, 44.28024], [19.2495, 44.27074], [19.26366, 44.27017], [19.29591, 44.2758], [19.30738, 44.2742], [19.32433, 44.26397], [19.54323, 44.42743], [19.63589, 44.43877], [19.67189, 44.4358], [19.70948, 44.42589], [19.71813, 44.39672], [19.73666, 44.36449], [19.76417, 44.33829], [19.7995, 44.31949], [19.83607, 44.30911], [19.87712, 44.30497], [19.91951, 44.30725], [19.96019, 44.31528], [20.02061, 44.33945], [20.06627, 44.37625], [20.14591, 44.47704], [20.17999, 44.51113], [20.22104, 44.5343], [20.27274, 44.54185], [20.29498, 44.53902], [20.3352, 44.52213], [20.37146, 44.49392], [20.46934, 44.38469], [20.52043, 44.33926], [20.55945, 44.3193], [20.62156, 44.30553], [20.68278, 44.30489], [20.74526, 44.31468], [20.8062, 44.33154], [20.98777, 44.39657], [21.10995, 44.42482], [21.2587, 44.43968], [21.54496, 44.44358], [21.86905, 44.41097], [21.9704, 44.3019], [22.03672, 44.27519], [22.04621, 44.28], [22.12664, 44.50266], [22.14824, 44.5009], [22.17211, 44.50535], [22.18514, 44.51511], [22.29903, 44.66167], [22.30492, 44.67738], [22.3197, 44.68534], [22.36115, 44.69205], [22.38068, 44.70053], [22.42605, 44.73365], [22.46894, 44.73019], [22.48372, 44.72399], [22.55328, 44.66916], [22.58749, 44.64937], [22.62118, 44.63743], [22.70014, 44.63061], [22.71472, 44.62306], [22.76515, 44.58281], [22.75926, 44.56467], [22.74169, 44.55186], [22.71937, 44.54436], [22.70014, 44.54183], [22.67854, 44.54555], [22.64216, 44.56312], [22.62118, 44.56922], [22.6003, 44.56979], [22.58046, 44.5655], [22.56558, 44.55542], [22.55669, 44.52147], [22.54842, 44.5117], [22.5355, 44.50752], [22.50036, 44.50638], [22.48414, 44.49977], [22.47721, 44.47698], [22.48, 44.45579], [22.50098, 44.44194], [22.50636, 44.42752], [22.50512, 44.40406], [22.52269, 44.37507], [22.54935, 44.34897], [22.6062, 44.17457], [22.60599, 44.16314], [22.6094, 44.15994], [22.5971, 44.11906], [22.60475, 44.07938], [22.59297, 44.06393], [22.55462, 44.06243], [22.53416, 44.05716], [22.52258, 44.0447], [22.51494, 44.03028], [22.50367, 44.0199], [22.43432, 44.01396], [22.41179, 44.00693], [22.39959, 43.99334], [22.39453, 43.93634], [22.37903, 43.9135], [22.37706, 43.88352], [22.36755, 43.85275], [22.35474, 43.8297], [22.34947, 43.80792], [22.36259, 43.78084], [22.38853, 43.75829], [22.38605, 43.7255], [22.40487, 43.68718], [22.42647, 43.66821], [22.45592, 43.65641], [22.46626, 43.64912], [22.47287, 43.63594], [22.4738, 43.613], [22.48197, 43.59946], [22.47711, 43.59129], [22.4831, 43.57928], [22.47866, 43.56918], [22.47845, 43.55923], [22.49065, 43.54088], [22.51886, 43.47425], [22.53261, 43.46484], [22.56579, 43.45334], [22.59627, 43.42916], [22.63782, 43.42637], [22.66469, 43.39673], [22.70293, 43.39404], [22.73301, 43.38151], [22.80453, 43.32898], [22.81714, 43.3155], [22.82696, 43.28139], [22.85734, 43.25695], [22.8838, 43.23059], [22.91553, 43.21225], [22.96473, 43.20442], [22.98137, 43.19899], [22.98457, 43.17463], [22.97403, 43.14119], [22.95563, 43.10827], [22.93527, 43.08556], [22.90168, 43.06975], [22.88421, 43.03665], [22.84225, 43.0075], [22.82903, 42.9935], [22.7881, 42.9849], [22.77642, 42.97973], [22.76319, 42.95864], [22.7388, 42.89738], [22.72701, 42.88689], [22.66624, 42.87193], [22.5909, 42.88689], [22.56361, 42.88428], [22.53757, 42.86834], [22.50605, 42.87012], [22.49706, 42.86441], [22.48145, 42.84674], [22.44548, 42.83018], [22.4274, 42.81362], [22.42584, 42.80984], [22.45313, 42.76359], [22.46657, 42.74853], [22.48145, 42.73982], [22.4829, 42.73378], [22.48145, 42.72768], [22.46812, 42.71832], [22.44207, 42.68168], [22.4492, 42.66797], [22.42533, 42.57286], [22.2958, 42.49091], [22.43435, 42.41086], [22.39751, 42.31261], [22.23063, 42.24934], [22.22406, 42.24081], [22.25047, 42.21389], [22.38894, 42.26939], [22.44362, 42.21443], [22.48145, 42.19332], [22.49468, 42.16456], [22.51018, 42.14479], [22.53106, 42.12911], [22.61777, 42.0827], [22.67586, 42.06061], [22.70572, 42.05593], [22.71844, 42.04446], [22.78086, 42.04317], [22.79109, 42.02581], [22.79895, 42.02123], [22.82127, 42.02537], [22.83822, 42.01948], [22.8437, 42.01446], [22.84659, 41.99364], [22.85476, 41.98263], [22.85889, 41.94788], [22.87708, 41.90204], [22.8808, 41.87269], [22.90137, 41.86042], [22.91832, 41.81435], [22.94592, 41.76934], [22.99119, 41.76099], [23.00886, 41.73993], [23.00958, 41.71637], [22.99863, 41.69312], [22.97661, 41.66655], [22.967, 41.64705], [22.94085, 41.63764], [22.933, 41.61234], [22.93372, 41.5846], [22.94871, 41.56098], [22.94302, 41.53855], [22.94623, 41.45323], [22.9546, 41.43241], [22.93734, 41.41076], [22.85044, 41.3396], [22.82603, 41.34099], [22.78097, 41.33489], [22.7513, 41.31521], [22.74087, 41.28358], [22.73673, 41.20441], [22.72722, 41.16581], [22.71575, 41.1456], [22.7049, 41.13966], [22.6741, 41.15661], [22.65612, 41.17806], [22.64454, 41.18023], [22.62935, 41.17707], [22.62449, 41.15263], [22.60733, 41.13599], [22.59018, 41.12514], [22.57126, 41.11951], [22.54925, 41.11852], [22.50067, 41.12214], [22.45148, 41.11367], [22.42181, 41.11465], [22.38016, 41.1317], [22.32342, 41.1285], [22.31505, 41.12442], [22.30875, 41.12498], [22.30265, 41.1455], [22.20581, 41.16142], [22.18317, 41.15992], [22.16033, 41.15191], [22.12437, 41.12721], [22.10338, 41.12152], [22.06277, 41.13718], [22.05553, 41.14989], [22.04819, 41.15186], [22.02907, 41.13858], [21.9651, 41.12436], [21.90908, 41.09749], [21.90123, 41.09078], [21.8972, 41.08127], [21.8943, 41.05383], [21.88066, 41.03843], [21.845, 41.01238], [21.83126, 40.99352], [21.79364, 40.97357], [21.78371, 40.96417], [21.77813, 40.93373], [21.76552, 40.92391], [21.737, 40.91916], [21.68512, 40.92799], [21.6569, 40.91823], [21.64884, 40.8958], [21.62372, 40.8944], [21.58156, 40.86629], [21.55365, 40.87043], [21.50952, 40.9005], [21.42942, 40.90898], [21.40493, 40.90862], [21.38126, 40.9005], [21.34488, 40.87306], [21.32927, 40.86629], [21.29537, 40.86087], [21.26096, 40.86082], [21.20907, 40.86908], [21.18303, 40.87017], [21.11213, 40.85394], [21.06999, 40.85266], [21.05123, 40.76822], [20.86674, 40.74179], [20.82583, 40.78463], [20.7661, 40.89373], [20.74088, 40.89797], [20.71722, 40.91321], [20.70275, 40.93631], [20.66409, 41.05915], [20.65386, 41.07527], [20.64301, 41.08158], [20.60528, 41.08349], [20.57697, 41.09351], [20.56994, 41.1071], [20.57056, 41.12483], [20.56549, 41.14741], [20.54968, 41.17061], [20.51268, 41.21015], [20.50007, 41.23552], [20.48312, 41.28947], [20.47775, 41.3196], [20.48167, 41.3412], [20.49604, 41.33779], [20.51041, 41.3444], [20.52343, 41.35681], [20.53996, 41.38714], [20.54017, 41.40068], [20.53407, 41.41298], [20.52219, 41.42569], [20.498, 41.43148], [20.49087, 41.43603], [20.48354, 41.46548], [20.47082, 41.48377], [20.45201, 41.49359], [20.44498, 41.50847], [20.44788, 41.53545], [20.44416, 41.54966], [20.50741, 41.56227], [20.52932, 41.57488], [20.53469, 41.58527], [20.53459, 41.59403], [20.5134, 41.6404], [20.50834, 41.66175], [20.50038, 41.7341], [20.51134, 41.75794], [20.54441, 41.78476], [20.55092, 41.79352], [20.54844, 41.81419], [20.54048, 41.83944], [20.54172, 41.86158], [20.56725, 41.91217], [20.58875, 41.92959], [20.59929, 41.94788], [20.59929, 41.96057], [20.58968, 41.99364], [20.55826, 42.05511], [20.55216, 42.07379], [20.54937, 42.12348], [20.53862, 42.15012], [20.50079, 42.21122], [20.45697, 42.2505], [20.33336, 42.31788], [20.24965, 42.31861], [20.23776, 42.31992], [20.2296, 42.32672], [20.22092, 42.3431], [20.21885, 42.37145], [20.1928, 42.39369], [20.19404, 42.4001], [20.20438, 42.41183], [20.20469, 42.4201], [20.19973, 42.4278], [20.18081, 42.4431], [20.17513, 42.45328], [19.98176, 42.51077], [19.95633, 42.50531], [19.90755, 42.5064], [19.87334, 42.48684], [19.83551, 42.47025], [19.8196, 42.46648], [19.80141, 42.46813], [19.78446, 42.47457], [19.75159, 42.4934], [19.73433, 42.52438], [19.7303, 42.54043], [19.73216, 42.55554], [19.74136, 42.5744], [19.74777, 42.5789], [19.74601, 42.5989], [19.73753, 42.6244], [19.72213, 42.64608], [19.69929, 42.65481], [19.67604, 42.64667], [19.64793, 42.62784], [19.62178, 42.605], [19.60504, 42.58484], [19.58809, 42.53286], [19.57568, 42.52234], [19.54933, 42.5086], [19.54375, 42.4934], [19.51781, 42.45803], [19.50148, 42.44413], [19.48173, 42.43449], [19.4684, 42.41811], [19.41724, 42.37411], [19.40267, 42.35202], [19.4004, 42.32589], [19.30459, 42.2151], [19.27493, 42.19128], [19.27203, 42.18068], [19.28206, 42.16456], [19.29777, 42.15167], [19.35502, 42.12004], [19.37249, 42.10425], [19.67406, 42.18176], [19.80356, 42.14233], [19.88676, 42.10369], [19.95687, 42.05399], [20.01248, 41.99445], [20.05102, 41.92747], [20.06922, 41.87811], [20.06861, 41.79643], [20.04647, 41.65226], [20.02695, 41.5841], [19.98989, 41.51936], [19.93721, 41.46159], [19.87076, 41.41254], [19.83314, 41.39188], [19.75141, 41.3594], [19.66183, 41.33913], [19.6158, 41.33404], [19.52346, 41.33396], [19.41425, 41.35208], [19.41424, 41.3828], [19.41082, 41.39167], [19.39602, 41.40205], [19.39326, 41.41348], [19.40642, 41.40038], [19.42872, 41.40131], [19.44516, 41.41519], [19.44094, 41.44086], [19.48927, 41.46613], [19.50864, 41.48688], [19.51661, 41.51341], [19.51417, 41.52998], [19.46822, 41.55412], [19.44096, 41.58538], [19.52809, 41.57656], [19.5652, 41.58511], [19.58482, 41.61957], [19.59165, 41.61957], [19.59604, 41.60273], [19.61297, 41.60529], [19.60011, 41.63911], [19.59166, 41.63264], [19.58709, 41.64069], [19.55765, 41.66055], [19.57814, 41.68765], [19.57131, 41.7704], [19.58953, 41.76569], [19.59897, 41.77871], [19.59978, 41.79975], [19.59165, 41.81879], [19.46578, 41.85537], [19.43295, 41.8686], [19.36509, 41.85237], [19.31023, 41.89452], [19.22023, 41.91886], [19.17027, 41.93798], [19.1623, 41.94795], [19.16033, 41.96898], [19.13797, 41.9853], [19.14357, 41.99307], [19.13917, 42.04243], [19.08254, 42.08121], [19.07474, 42.09565], [19.08383, 42.11009], [19.06399, 42.12019], [19.04868, 42.1402], [19.0106, 42.13956], [18.99985, 42.16108], [18.98163, 42.16707], [18.96803, 42.18871], [18.91335, 42.22224], [18.90171, 42.2375], [18.8947, 42.27049], [18.886, 42.28437], [18.87159, 42.29047], [18.85401, 42.29047], [18.83888, 42.28571], [18.83139, 42.27755], [18.81764, 42.29116], [18.77858, 42.27148], [18.76246, 42.29116], [18.71454, 42.32527], [18.71412, 42.33894], [18.69363, 42.35322], [18.69581, 42.37377], [18.67848, 42.38597], [18.65854, 42.38662], [18.65316, 42.36629], [18.63844, 42.37031], [18.61671, 42.36808], [18.5949, 42.38373], [18.57067, 42.39298], [18.57814, 42.40038], [18.553, 42.41365], [18.54519, 42.42357], [18.55015, 42.43512], [18.56284, 42.43854], [18.6565, 42.41551], [18.68555, 42.40399], [18.70045, 42.39297], [18.70818, 42.40852], [18.70655, 42.42105], [18.68385, 42.45881], [18.68735, 42.4829], [18.65384, 42.45177], [18.60859, 42.44539], [18.50245, 42.45563], [18.50245, 42.44819], [18.52124, 42.43797], [18.51295, 42.409], [18.52973, 42.4004], [18.51006, 42.40542], [18.47446, 42.44135], [18.41308, 42.46207]]]}}]}