{"type": "FeatureCollection", "features": [{"type": "Feature", "properties": {"map_title": "제1차 세계 대전의 전개", "source": "미래엔 세계사 교과서 4권 181쪽", "volume": 4, "page": 181, "legend": "연합국", "name": "영국", "name_en": "United Kingdom", "period": "1914–1918", "kind": "국가", "alliance": "연합국", "coast_snap": "Natural Earth 10m 해안선에 맞춤"}, "geometry": {"type": "MultiPolygon", "coordinates": [[[[-4.67852, 51.16706], [-4.67973, 51.18082], [-4.67122, 51.19504], [-4.66349, 51.16508], [-4.67048, 51.16012], [-4.67852, 51.16706]]], [[[-4.70702, 51.64289], [-4.67766, 51.63572], [-4.68148, 51.63029], [-4.69078, 51.62923], [-4.70446, 51.63429], [-4.70702, 51.64289]]], [[[-5.27142, 51.73525], [-5.30052, 51.72701], [-5.31491, 51.73725], [-5.29316, 51.74314], [-5.27142, 51.73525]]], [[[-5.33796, 51.85395], [-5.35048, 51.85709], [-5.34978, 51.87413], [-5.34137, 51.87847], [-5.33114, 51.87584], [-5.33796, 51.85395]]], [[[-4.79384, 52.76828], [-4.78178, 52.76658], [-4.78557, 52.75386], [-4.80226, 52.74547], [-4.79384, 52.76828]]], [[[-4.38512, 53.18244], [-4.39574, 53.18671], [-4.41088, 53.1822], [-4.43284, 53.16291], [-4.44757, 53.15942], [-4.48168, 53.17988], [-4.49533, 53.17989], [-4.49962, 53.21125], [-4.51987, 53.22285], [-4.57103, 53.27546], [-4.55867, 53.36335], [-4.57101, 53.39276], [-4.55309, 53.40066], [-4.42536, 53.42669], [-4.3247, 53.41949], [-4.27699, 53.40118], [-4.26692, 53.36896], [-4.23475, 53.35805], [-4.23518, 53.34007], [-4.21485, 53.32391], [-4.20324, 53.29849], [-4.19058, 53.29658], [-4.14249, 53.3028], [-4.12198, 53.31707], [-4.09813, 53.30964], [-4.05505, 53.30853], [-4.0429, 53.3028], [-4.06338, 53.28929], [-4.0981, 53.25013], [-4.17199, 53.23139], [-4.21849, 53.20405], [-4.22204, 53.18212], [-4.26456, 53.16694], [-4.28014, 53.15497], [-4.35436, 53.12996], [-4.3924, 53.13833], [-4.39903, 53.13266], [-4.41282, 53.13207], [-4.41198, 53.15558], [-4.38512, 53.18244]]], [[[-4.69394, 53.30604], [-4.69394, 53.30963], [-4.6673, 53.32391], [-4.65567, 53.31977], [-4.6263, 53.32086], [-4.59044, 53.29755], [-4.57726, 53.27204], [-4.55846, 53.25275], [-4.56364, 53.24194], [-4.57222, 53.23957], [-4.60239, 53.25308], [-4.63256, 53.28294], [-4.67665, 53.28511], [-4.69394, 53.30604]]], [[[-4.82912, 54.05232], [-4.81037, 54.05975], [-4.80102, 54.05793], [-4.81221, 54.04045], [-4.82383, 54.04268], [-4.82912, 54.05232]]], [[[-4.68814, 54.22378], [-4.66397, 54.23355], [-4.59838, 54.2766], [-4.53098, 54.36611], [-4.49534, 54.38588], [-4.442, 54.40435], [-4.36779, 54.419], [-4.35133, 54.4138], [-4.37755, 54.36188], [-4.3756, 54.34833], [-4.35823, 54.31761], [-4.32471, 54.3102], [-4.31194, 54.28718], [-4.32673, 54.28034], [-4.34826, 54.25951], [-4.36565, 54.23506], [-4.39916, 54.22207], [-4.3908, 54.19473], [-4.4126, 54.18009], [-4.44689, 54.16914], [-4.47549, 54.15314], [-4.47462, 54.14082], [-4.52929, 54.11909], [-4.54981, 54.10066], [-4.59093, 54.09105], [-4.61213, 54.05698], [-4.62076, 54.06965], [-4.6564, 54.0638], [-4.7045, 54.08487], [-4.76623, 54.05924], [-4.79015, 54.06379], [-4.79013, 54.07123], [-4.76968, 54.07746], [-4.77085, 54.09683], [-4.73717, 54.12491], [-4.71026, 54.22064], [-4.68814, 54.22378]]], [[[31.68438, 35.51681], [31.74519, 35.59049], [31.76107, 35.60383], [31.77753, 35.61173], [31.79988, 35.61422], [31.82564, 35.61188], [31.96709, 35.5806], [31.99007, 35.58105], [32.01599, 35.59144], [32.05653, 35.62347], [32.08173, 35.65693], [32.08443, 35.67192], [32.08274, 35.68991], [32.06687, 35.76925], [32.06932, 35.78539], [32.07783, 35.79784], [32.08926, 35.80286], [32.12045, 35.79776], [32.19116, 35.76683], [32.21938, 35.76193], [32.56132, 35.76665], [32.64202, 35.77441], [32.68017, 35.78725], [32.8074, 35.84079], [32.88681, 35.8446], [32.92582, 35.85581], [33.1537, 35.94708], [33.18886, 35.98399], [33.20117, 35.99306], [33.3059, 36.01357], [33.53673, 36.12771], [33.54741, 36.12598], [33.56523, 36.1153], [33.49512, 36.08494], [33.45806, 36.06537], [33.38751, 35.99662], [33.36617, 35.9814], [33.1443, 35.86796], [33.12486, 35.85286], [33.08564, 35.79972], [33.06889, 35.78441], [33.05299, 35.7809], [33.01133, 35.78278], [32.99473, 35.78045], [32.97394, 35.76658], [32.95487, 35.74669], [32.94428, 35.72574], [32.93708, 35.69062], [32.93668, 35.66675], [32.94216, 35.64844], [32.95722, 35.63174], [33.06182, 35.55721], [33.08258, 35.53767], [33.09458, 35.51819], [33.09451, 35.49902], [33.08249, 35.48478], [33.0605, 35.47454], [32.99743, 35.4633], [32.87062, 35.45827], [32.83673, 35.46269], [32.75705, 35.48166], [32.73952, 35.48217], [32.72461, 35.47883], [32.71462, 35.47155], [32.70714, 35.46027], [32.68194, 35.38577], [32.67428, 35.37568], [32.64682, 35.35761], [32.58971, 35.33168], [32.39987, 35.25772], [32.34479, 35.24132], [32.22564, 35.2233], [32.18979, 35.20959], [32.1516, 35.18971], [32.13518, 35.17528], [32.13175, 35.16669], [32.13615, 35.10707], [32.13441, 35.09683], [32.1295, 35.08881], [32.11184, 35.08057], [32.0729, 35.07732], [32.04215, 35.08436], [32.0219, 35.10857], [31.98651, 35.1761], [31.97541, 35.18796], [31.96225, 35.19473], [31.9508, 35.1944], [31.93803, 35.18891], [31.86851, 35.13692], [31.84677, 35.13154], [31.82462, 35.13592], [31.75132, 35.16191], [31.64884, 35.18991], [31.60412, 35.20777], [31.58855, 35.21796], [31.57884, 35.22938], [31.56438, 35.26216], [31.54217, 35.35082], [31.50505, 35.41743], [31.49089, 35.45366], [31.49039, 35.46972], [31.49637, 35.48335], [31.50802, 35.49099], [31.52521, 35.494], [31.63737, 35.48774], [31.6536, 35.49181], [31.68438, 35.51681]]], [[[-1.41872, 50.73377], [-1.42536, 50.72012], [-1.40087, 50.72199], [-1.34322, 50.76118], [-1.31851, 50.77215], [-1.29577, 50.77317], [-1.14428, 50.73379], [-1.10913, 50.73285], [-1.09705, 50.72695], [-1.09703, 50.71332], [-1.08277, 50.71331], [-1.06233, 50.6926], [-1.06234, 50.6853], [-1.07532, 50.67854], [-1.12865, 50.66645], [-1.16222, 50.64598], [-1.16846, 50.60347], [-1.27921, 50.58252], [-1.31587, 50.58933], [-1.48595, 50.66934], [-1.49743, 50.67231], [-1.53515, 50.66938], [-1.56945, 50.65805], [-1.54508, 50.68623], [-1.50592, 50.7077], [-1.41872, 50.73377]]], [[[-1.02073, 50.78841], [-1.02074, 50.79514], [-0.99869, 50.80101], [-0.97255, 50.82977], [-0.95987, 50.82933], [-0.94783, 50.81782], [-0.95987, 50.80207], [-0.93885, 50.78839], [-0.93884, 50.78096], [-1.02073, 50.78841]]], [[[-0.7731, 50.76602], [-0.76628, 50.74714], [-0.77089, 50.73709], [-0.78995, 50.73006], [-0.81281, 50.73478], [-0.90437, 50.77207], [-0.91147, 50.77784], [-0.90586, 50.78802], [-0.86364, 50.80207], [-0.86364, 50.80825], [-0.90469, 50.82933], [-0.9217, 50.82161], [-0.92894, 50.82283], [-0.91902, 50.83617], [-0.9392, 50.84325], [-0.97077, 50.84699], [-1.02074, 50.84366], [-1.05624, 50.78304], [-1.08275, 50.78096], [-1.10302, 50.79548], [-1.06916, 50.84366], [-1.08731, 50.8498], [-1.1647, 50.84366], [-1.12378, 50.81879], [-1.12492, 50.78873], [-1.13806, 50.78096], [-1.15111, 50.78141], [-1.18561, 50.79243], [-1.19929, 50.80793], [-1.2552, 50.83194], [-1.30141, 50.84366], [-1.33894, 50.87271], [-1.46642, 50.91816], [-1.46642, 50.91193], [-1.42561, 50.90009], [-1.32334, 50.82594], [-1.3143, 50.81216], [-1.31731, 50.80025], [-1.41869, 50.7884], [-1.40496, 50.78097], [-1.40495, 50.77473], [-1.45051, 50.76936], [-1.48755, 50.75773], [-1.52473, 50.76105], [-1.56119, 50.71899], [-1.60212, 50.73176], [-1.69302, 50.73994], [-1.77172, 50.72013], [-1.85741, 50.72696], [-1.89635, 50.71629], [-1.94001, 50.69084], [-1.94929, 50.71332], [-1.9877, 50.72012], [-2.02196, 50.72012], [-2.03897, 50.73994], [-2.08267, 50.69896], [-2.05773, 50.70283], [-2.03563, 50.71331], [-2.00251, 50.6813], [-1.95282, 50.67658], [-1.94589, 50.66885], [-1.95295, 50.65184], [-1.93251, 50.64443], [-1.96727, 50.61709], [-1.96522, 50.60221], [-1.98372, 50.59664], [-2.06558, 50.59558], [-2.15734, 50.62051], [-2.34264, 50.63378], [-2.37707, 50.64753], [-2.39835, 50.64557], [-2.4359, 50.63752], [-2.46007, 50.60651], [-2.46565, 50.58515], [-2.45645, 50.57551], [-2.43124, 50.57025], [-2.42872, 50.55756], [-2.45337, 50.52767], [-2.45953, 50.52767], [-2.46036, 50.5655], [-2.48351, 50.5904], [-2.69294, 50.69282], [-2.86482, 50.73379], [-2.88732, 50.73436], [-2.96276, 50.72329], [-2.9982, 50.70825], [-3.02184, 50.7065], [-3.05972, 50.71332], [-3.12548, 50.6853], [-3.16649, 50.69282], [-3.25984, 50.67455], [-3.29557, 50.63753], [-3.36816, 50.6171], [-3.40724, 50.62122], [-3.42097, 50.62946], [-3.44636, 50.66828], [-3.46443, 50.67853], [-3.46784, 50.66698], [-3.45531, 50.6579], [-3.43336, 50.61026], [-3.46728, 50.5856], [-3.48176, 50.56855], [-3.50597, 50.52082], [-3.50504, 50.50121], [-3.48748, 50.45943], [-3.53213, 50.45478], [-3.54943, 50.44652], [-3.55626, 50.43212], [-3.54931, 50.4156], [-3.53197, 50.41022], [-3.48747, 50.41155], [-3.48747, 50.40477], [-3.49829, 50.3837], [-3.52013, 50.37482], [-3.52694, 50.34981], [-3.53889, 50.34444], [-3.57055, 50.35639], [-3.57781, 50.33406], [-3.62157, 50.32193], [-3.63199, 50.31232], [-3.65331, 50.25104], [-3.64564, 50.22603], [-3.66097, 50.22095], [-3.71801, 50.2124], [-3.77424, 50.22297], [-3.78897, 50.2124], [-3.82632, 50.2342], [-3.88419, 50.28046], [-3.96101, 50.32225], [-4.0056, 50.30923], [-4.03295, 50.29492], [-4.05434, 50.30037], [-4.0702, 50.30923], [-4.06404, 50.32225], [-4.086, 50.32625], [-4.10841, 50.33683], [-4.11871, 50.35187], [-4.10497, 50.37067], [-4.15273, 50.37068], [-4.17146, 50.3828], [-4.19148, 50.41763], [-4.15953, 50.45942], [-4.17943, 50.45307], [-4.20055, 50.45942], [-4.2124, 50.44148], [-4.23473, 50.4383], [-4.23473, 50.43212], [-4.22022, 50.42584], [-4.21614, 50.41572], [-4.2285, 50.39737], [-4.28991, 50.39737], [-4.27302, 50.3819], [-4.21622, 50.38776], [-4.19377, 50.37691], [-4.2285, 50.37067], [-4.22851, 50.36384], [-4.20057, 50.36384], [-4.208, 50.35639], [-4.18006, 50.35638], [-4.18006, 50.35017], [-4.19799, 50.34223], [-4.19377, 50.32226], [-4.21499, 50.32316], [-4.2351, 50.34956], [-4.25235, 50.35639], [-4.33772, 50.37067], [-4.3837, 50.3675], [-4.45621, 50.33821], [-4.49536, 50.32845], [-4.65982, 50.32225], [-4.67344, 50.31543], [-4.68716, 50.34272], [-4.69432, 50.34345], [-4.71134, 50.3359], [-4.7521, 50.33031], [-4.7633, 50.32209], [-4.75546, 50.30175], [-4.77986, 50.28433], [-4.78335, 50.2779], [-4.77654, 50.26081], [-4.79993, 50.22972], [-4.84972, 50.23457], [-4.86872, 50.22944], [-4.90446, 50.20856], [-4.94725, 50.19937], [-5.00243, 50.14413], [-5.01454, 50.15657], [-5.02037, 50.19196], [-5.03319, 50.19937], [-5.05297, 50.19579], [-5.05188, 50.17553], [-5.06456, 50.15839], [-5.04348, 50.14412], [-5.05846, 50.14273], [-5.08031, 50.13272], [-5.08505, 50.10994], [-5.12597, 50.09634], [-5.0708, 50.08949], [-5.05652, 50.06061], [-5.09806, 50.0144], [-5.12743, 50.01545], [-5.14647, 50.01056], [-5.17614, 49.98794], [-5.19116, 49.95915], [-5.21035, 49.96675], [-5.24503, 49.99292], [-5.25267, 50.02778], [-5.30435, 50.08027], [-5.38419, 50.10798], [-5.42471, 50.11275], [-5.47484, 50.13044], [-5.52184, 50.12373], [-5.54092, 50.11347], [-5.53468, 50.08234], [-5.54558, 50.06892], [-5.5782, 50.05483], [-5.61911, 50.04628], [-5.66739, 50.04288], [-5.70513, 50.05232], [-5.71563, 50.0827], [-5.69449, 50.0895], [-5.69441, 50.09577], [-5.70196, 50.10318], [-5.7092, 50.13263], [-5.68432, 50.16167], [-5.54943, 50.20352], [-5.51097, 50.21946], [-5.48913, 50.21978], [-5.45812, 50.20075], [-5.43798, 50.19432], [-5.41739, 50.20246], [-5.38755, 50.24029], [-5.35192, 50.2403], [-5.31485, 50.25361], [-5.2003, 50.33075], [-5.14989, 50.35017], [-5.14566, 50.36689], [-5.15366, 50.39948], [-5.1424, 50.40447], [-5.11974, 50.40477], [-5.05028, 50.4287], [-5.03873, 50.4479], [-5.02524, 50.52423], [-5.0156, 50.53802], [-4.99586, 50.54803], [-4.97517, 50.54816], [-4.94726, 50.56243], [-4.93712, 50.54532], [-4.93358, 50.52025], [-4.92052, 50.52764], [-4.90242, 50.52057], [-4.86095, 50.51919], [-4.84484, 50.51406], [-4.85582, 50.52741], [-4.90624, 50.54198], [-4.92186, 50.55488], [-4.91519, 50.5725], [-4.92051, 50.58917], [-4.89566, 50.58592], [-4.8212, 50.58918], [-4.79247, 50.5952], [-4.74926, 50.64444], [-4.75543, 50.65937], [-4.75193, 50.67006], [-4.74193, 50.67486], [-4.72814, 50.67231], [-4.6573, 50.71113], [-4.63779, 50.74115], [-4.57726, 50.77473], [-4.55012, 50.80956], [-4.5549, 50.89777], [-4.54375, 50.93919], [-4.52269, 50.97272], [-4.53044, 50.99497], [-4.52643, 51.01495], [-4.43733, 51.01495], [-4.39574, 51.00068], [-4.33772, 50.99665], [-4.30232, 51.00751], [-4.208, 51.07636], [-4.23192, 51.1267], [-4.25574, 51.15151], [-4.21483, 51.15152], [-4.20983, 51.17284], [-4.22849, 51.18623], [-4.22849, 51.19244], [-4.15233, 51.21161], [-3.96947, 51.2224], [-3.9132, 51.23338], [-3.84089, 51.23338], [-3.76916, 51.24769], [-3.63976, 51.22639], [-3.55932, 51.22809], [-3.43456, 51.20984], [-3.40437, 51.19204], [-3.385, 51.18622], [-3.27074, 51.1894], [-3.16309, 51.2067], [-3.09675, 51.20454], [-3.05752, 51.20816], [-3.02929, 51.22039], [-3.02184, 51.21357], [-3.03555, 51.19929], [-3.02184, 51.19245], [-3.00479, 51.21312], [-2.99958, 51.23322], [-3.00815, 51.25454], [-3.01061, 51.31098], [-3.02181, 51.32281], [-3.00243, 51.31908], [-2.99218, 51.32193], [-2.98777, 51.34666], [-2.95958, 51.37425], [-2.97466, 51.38422], [-2.95295, 51.39849], [-2.92101, 51.39444], [-2.79857, 51.48261], [-2.71642, 51.49958], [-2.69616, 51.51264], [-2.60781, 51.60736], [-2.58043, 51.61864], [-2.55637, 51.65924], [-2.49918, 51.69676], [-2.46498, 51.72589], [-2.4049, 51.74116], [-2.38854, 51.75043], [-2.38077, 51.76191], [-2.38337, 51.77326], [-2.39806, 51.78213], [-2.40242, 51.76358], [-2.4204, 51.75312], [-2.48209, 51.74286], [-2.52213, 51.70637], [-2.5817, 51.68171], [-2.69352, 51.59635], [-2.71313, 51.58662], [-2.76049, 51.57978], [-2.8164, 51.55558], [-2.85872, 51.54614], [-2.94335, 51.54256], [-2.95628, 51.54573], [-2.97468, 51.56297], [-3.01571, 51.53165], [-3.10562, 51.49722], [-3.1317, 51.48041], [-3.14539, 51.45995], [-3.17272, 51.45311], [-3.16008, 51.43183], [-3.16716, 51.41047], [-3.18481, 51.39762], [-3.21886, 51.40278], [-3.28977, 51.38424], [-3.53879, 51.39848], [-3.55743, 51.40511], [-3.60473, 51.4457], [-3.6632, 51.47622], [-3.67699, 51.47704], [-3.69542, 51.47152], [-3.7376, 51.49088], [-3.74802, 51.50093], [-3.7494, 51.50535], [-3.74185, 51.50837], [-3.77013, 51.5633], [-3.78222, 51.57665], [-3.81675, 51.59633], [-3.83267, 51.61555], [-3.85489, 51.62385], [-3.96239, 51.61563], [-3.98998, 51.60651], [-3.99877, 51.60029], [-3.99991, 51.59089], [-3.97463, 51.56298], [-4.01618, 51.56297], [-4.02651, 51.55404], [-4.03197, 51.56314], [-4.04646, 51.56843], [-4.05313, 51.56924], [-4.07022, 51.55558], [-4.08727, 51.56192], [-4.12165, 51.56598], [-4.16641, 51.54256], [-4.19677, 51.54938], [-4.20091, 51.53877], [-4.2899, 51.55558], [-4.29733, 51.56924], [-4.27831, 51.57819], [-4.28969, 51.60155], [-4.28989, 51.617], [-4.25577, 51.62385], [-4.23473, 51.64495], [-4.22852, 51.63744], [-4.23473, 51.63744], [-4.23473, 51.63129], [-4.22102, 51.62385], [-4.0913, 51.63988], [-4.07022, 51.6623], [-4.07055, 51.67597], [-4.07543, 51.6778], [-4.09541, 51.66512], [-4.10684, 51.66427], [-4.14635, 51.66707], [-4.20055, 51.68586], [-4.21496, 51.67968], [-4.29332, 51.6723], [-4.31529, 51.67749], [-4.36621, 51.70831], [-4.37924, 51.72686], [-4.31998, 51.72484], [-4.31045, 51.73371], [-4.34716, 51.73578], [-4.36252, 51.74287], [-4.3718, 51.75479], [-4.35802, 51.77314], [-4.3651, 51.78905], [-4.39916, 51.76163], [-4.40932, 51.76318], [-4.4265, 51.77529], [-4.44579, 51.77326], [-4.44933, 51.7663], [-4.42653, 51.7473], [-4.46077, 51.73579], [-4.49889, 51.73486], [-4.57421, 51.74116], [-4.64538, 51.73212], [-4.67821, 51.71743], [-4.6803, 51.6927], [-4.69164, 51.68989], [-4.71231, 51.65009], [-4.73493, 51.65925], [-4.75919, 51.64498], [-4.86351, 51.64411], [-4.87898, 51.63744], [-4.90479, 51.61385], [-4.92369, 51.60863], [-4.93201, 51.59903], [-4.94566, 51.59752], [-5.02159, 51.61604], [-5.04548, 51.62677], [-5.03661, 51.63744], [-5.05118, 51.65693], [-5.10048, 51.66471], [-5.11972, 51.67841], [-5.11342, 51.68528], [-5.03661, 51.67841], [-5.04341, 51.69269], [-4.98819, 51.68586], [-4.94103, 51.70014], [-4.89265, 51.70637], [-4.86819, 51.7168], [-4.85806, 51.71833], [-4.84484, 51.71381], [-4.84484, 51.72004], [-4.8734, 51.73774], [-4.87902, 51.76203], [-4.86254, 51.78238], [-4.82433, 51.78827], [-4.82433, 51.79572], [-4.86498, 51.78327], [-4.9213, 51.78001], [-4.93358, 51.77529], [-4.90518, 51.77119], [-4.90054, 51.76211], [-4.90624, 51.7473], [-4.89208, 51.73941], [-4.89567, 51.72818], [-4.91055, 51.71821], [-5.00992, 51.70637], [-5.14924, 51.71808], [-5.1669, 51.71381], [-5.15699, 51.69758], [-5.16862, 51.68892], [-5.18283, 51.68929], [-5.18065, 51.70637], [-5.23013, 51.73005], [-5.24942, 51.7337], [-5.21394, 51.73574], [-5.17682, 51.75966], [-5.12597, 51.7685], [-5.11026, 51.77851], [-5.11339, 51.8288], [-5.12589, 51.85602], [-5.13964, 51.864], [-5.14647, 51.85718], [-5.16438, 51.86677], [-5.20376, 51.87019], [-5.22159, 51.87767], [-5.23614, 51.871], [-5.31092, 51.86401], [-5.29735, 51.87018], [-5.30254, 51.88524], [-5.29052, 51.892], [-5.29052, 51.89814], [-5.29831, 51.91095], [-5.28892, 51.91693], [-5.2342, 51.92304], [-5.20384, 51.9424], [-5.11954, 51.95893], [-5.08804, 51.97602], [-5.08501, 52.00185], [-5.07079, 52.00186], [-5.07079, 52.00804], [-5.08273, 52.01448], [-5.08119, 52.02118], [-5.07021, 52.02634], [-5.02622, 52.02734], [-4.96174, 52.00751], [-4.94254, 52.00747], [-4.91369, 52.01484], [-4.9205, 52.0285], [-4.84142, 52.01484], [-4.83226, 52.01899], [-4.83799, 52.04901], [-4.79699, 52.05646], [-4.77758, 52.06489], [-4.72028, 52.11334], [-4.70654, 52.11346], [-4.67345, 52.0974], [-4.67567, 52.12693], [-4.63752, 52.13848], [-4.51382, 52.13569], [-4.50227, 52.13837], [-4.48427, 52.15631], [-4.4348, 52.17036], [-4.38528, 52.20356], [-4.37087, 52.20936], [-4.31583, 52.2163], [-4.19713, 52.27928], [-4.13907, 52.33023], [-4.10961, 52.3653], [-4.09626, 52.38788], [-4.07905, 52.45282], [-4.05655, 52.48786], [-4.06402, 52.50918], [-4.05654, 52.52944], [-4.01618, 52.52196], [-3.94734, 52.54926], [-3.94734, 52.55671], [-3.97448, 52.55654], [-4.05313, 52.54243], [-4.11391, 52.58843], [-4.12546, 52.60391], [-4.1222, 52.62873], [-4.10609, 52.65329], [-4.08482, 52.67267], [-4.06355, 52.68309], [-4.05654, 52.70066], [-4.00109, 52.72411], [-3.98827, 52.73428], [-4.01472, 52.73233], [-4.04881, 52.72159], [-4.12513, 52.77831], [-4.14893, 52.81186], [-4.14622, 52.82021], [-4.11734, 52.83076], [-4.13217, 52.86832], [-4.12986, 52.88922], [-4.06404, 52.91918], [-4.07763, 52.92666], [-4.10049, 52.91413], [-4.11057, 52.91568], [-4.11856, 52.92666], [-4.14475, 52.91476], [-4.22851, 52.91918], [-4.30069, 52.90558], [-4.33731, 52.89204], [-4.40661, 52.89252], [-4.4462, 52.87592], [-4.48168, 52.8509], [-4.47551, 52.84415], [-4.49136, 52.8382], [-4.50097, 52.82681], [-4.50133, 52.81391], [-4.48915, 52.80317], [-4.51647, 52.78951], [-4.52855, 52.79048], [-4.54247, 52.80069], [-4.59464, 52.8168], [-4.60652, 52.81509], [-4.62634, 52.80318], [-4.64859, 52.79964], [-4.7045, 52.80317], [-4.74742, 52.78345], [-4.76282, 52.7895], [-4.75441, 52.79707], [-4.75542, 52.80931], [-4.73492, 52.83046], [-4.59605, 52.92841], [-4.524, 52.94424], [-4.44343, 52.98216], [-4.42368, 53.00262], [-4.35822, 53.02847], [-4.34569, 53.05948], [-4.34087, 53.11273], [-4.33436, 53.11676], [-4.32762, 53.11468], [-4.32067, 53.10151], [-4.3036, 53.12531], [-4.26354, 53.15453], [-4.23453, 53.16401], [-4.17797, 53.2176], [-4.12222, 53.23347], [-4.09074, 53.23517], [-4.06688, 53.22907], [-4.0089, 53.24445], [-3.97425, 53.26187], [-3.8653, 53.28912], [-3.83129, 53.28913], [-3.84142, 53.30744], [-3.87074, 53.32564], [-3.87838, 53.33758], [-3.84058, 53.33282], [-3.81013, 53.31708], [-3.79052, 53.32342], [-3.76888, 53.31915], [-3.7163, 53.28693], [-3.6022, 53.28889], [-3.56233, 53.29442], [-3.37205, 53.35089], [-3.33068, 53.35179], [-3.29208, 53.34038], [-3.27133, 53.33054], [-3.2508, 53.31257], [-3.12223, 53.26227], [-3.08776, 53.23469], [-3.08454, 53.27546], [-3.13541, 53.33381], [-3.18505, 53.37709], [-3.18633, 53.39276], [-3.17551, 53.40273], [-3.15759, 53.40866], [-3.09423, 53.41738], [-3.05825, 53.43475], [-3.03555, 53.43374], [-3.0122, 53.41669], [-2.95295, 53.32392], [-2.91055, 53.29633], [-2.8815, 53.2884], [-2.85057, 53.28913], [-2.83755, 53.30279], [-2.80614, 53.29658], [-2.7755, 53.29987], [-2.74812, 53.30964], [-2.75363, 53.32253], [-2.74315, 53.33853], [-2.73449, 53.34443], [-2.71744, 53.34272], [-2.69978, 53.35179], [-2.76439, 53.34516], [-2.77538, 53.34101], [-2.78239, 53.32637], [-2.7998, 53.32104], [-2.84366, 53.32393], [-2.88616, 53.3335], [-2.92494, 53.35001], [-2.98082, 53.39277], [-3.10189, 53.55805], [-3.08782, 53.58747], [-3.02206, 53.6526], [-2.95172, 53.70807], [-2.91145, 53.72504], [-2.89904, 53.73542], [-2.98485, 53.73608], [-3.02146, 53.7458], [-3.04917, 53.76952], [-3.05636, 53.80305], [-3.04491, 53.87848], [-3.05661, 53.90615], [-3.04066, 53.92352], [-3.01756, 53.93194], [-2.92569, 53.9527], [-2.90926, 53.95383], [-2.88854, 53.94603], [-2.88173, 53.9567], [-2.85798, 53.9676], [-2.86923, 53.97883], [-2.83446, 53.99982], [-2.83007, 54.01602], [-2.86485, 54.0043], [-2.89549, 54.00236], [-2.91818, 54.03433], [-2.89208, 54.05012], [-2.85887, 54.08099], [-2.82677, 54.08881], [-2.79597, 54.12519], [-2.85424, 54.19408], [-2.83288, 54.19904], [-2.81029, 54.2119], [-2.79524, 54.22948], [-2.79597, 54.24872], [-2.8028, 54.24872], [-2.80663, 54.23371], [-2.82087, 54.22175], [-2.90465, 54.18765], [-2.92042, 54.16206], [-2.9392, 54.15511], [-2.9842, 54.15315], [-2.9977, 54.15958], [-3.01724, 54.18987], [-3.00817, 54.20034], [-3.01537, 54.2119], [-3.03576, 54.22598], [-3.04918, 54.22207], [-3.04473, 54.20805], [-3.06092, 54.16213], [-3.09073, 54.13947], [-3.11792, 54.10884], [-3.14525, 54.10004], [-3.14539, 54.06382], [-3.18977, 54.09789], [-3.21955, 54.10079], [-3.24094, 54.11213], [-3.23314, 54.15917], [-3.24838, 54.16682], [-3.24838, 54.17364], [-3.2152, 54.17984], [-3.20678, 54.20893], [-3.20739, 54.26301], [-3.22313, 54.25764], [-3.23135, 54.24722], [-3.24096, 54.22207], [-3.23217, 54.20254], [-3.30679, 54.19189], [-3.32851, 54.20474], [-3.40736, 54.27774], [-3.41289, 54.29377], [-3.40412, 54.31855], [-3.41344, 54.34296], [-3.44016, 54.35176], [-3.47427, 54.3935], [-3.49796, 54.40603], [-3.59187, 54.4831], [-3.61292, 54.49147], [-3.63416, 54.51289], [-3.61156, 54.52993], [-3.59032, 54.56464], [-3.56381, 54.64276], [-3.50935, 54.72145], [-3.46813, 54.7353], [-3.43956, 54.76146], [-3.43098, 54.78046], [-3.44015, 54.79743], [-3.38769, 54.88354], [-3.36448, 54.8998], [-3.34534, 54.90248], [-3.30647, 54.88618], [-3.25463, 54.89981], [-3.31726, 54.92032], [-3.27651, 54.94342], [-3.21361, 54.95441], [-3.18017, 54.94082], [-3.12279, 54.93268], [-3.03954, 54.94717], [-3.02184, 54.95441], [-3.09073, 54.95463], [-3.09071, 54.96125], [-3.04092, 54.97248], [-3.02184, 54.96809], [-3.02184, 54.97553], [-3.04629, 54.98212], [-3.13574, 54.9681], [-3.45346, 54.98174], [-3.50105, 54.9925], [-3.51529, 54.9892], [-3.5092, 54.98176], [-3.52603, 54.97713], [-3.57055, 54.99543], [-3.58361, 54.96808], [-3.57562, 54.95715], [-3.56878, 54.91626], [-3.58171, 54.88362], [-3.59838, 54.87801], [-3.69176, 54.8832], [-3.71764, 54.88084], [-3.73926, 54.85982], [-3.81013, 54.86628], [-3.80335, 54.85888], [-3.81237, 54.85518], [-3.83129, 54.86628], [-3.81998, 54.87857], [-3.81013, 54.8725], [-3.81696, 54.88618], [-3.84431, 54.86628], [-3.83748, 54.85201], [-3.8579, 54.84455], [-3.82387, 54.82469], [-3.88573, 54.80646], [-3.96419, 54.77193], [-4.00622, 54.76865], [-3.98496, 54.81062], [-3.93433, 54.87147], [-3.80974, 54.96645], [-3.77999, 55.04112], [-3.7045, 55.14306], [-3.62461, 55.22153], [-3.44326, 55.34978], [-3.32308, 55.33657], [-3.19635, 55.33109], [-3.08411, 55.34076], [-2.95875, 55.33789], [-2.83769, 55.32094], [-2.70432, 55.28752], [-2.67475, 55.30758], [-2.64747, 55.34222], [-2.64091, 55.37718], [-2.5218, 55.39914], [-2.44592, 55.4209], [-2.4, 55.44602], [-2.38854, 55.46703], [-2.43314, 55.51382], [-2.55162, 55.60263], [-2.68041, 55.64002], [-2.81158, 55.61043], [-2.83488, 55.67596], [-2.83827, 55.71161], [-2.82666, 55.78129], [-2.79094, 55.84877], [-2.76403, 55.8811], [-2.69515, 55.9394], [-2.60663, 55.98932], [-2.57742, 56.0015], [-2.54406, 56.00266], [-2.52896, 55.99657], [-2.50792, 56.01018], [-2.4525, 55.98526], [-2.41439, 55.97833], [-2.35094, 55.94819], [-2.30777, 55.935], [-2.13803, 55.91461], [-2.12877, 55.8898], [-2.09949, 55.88177], [-2.0802, 55.86937], [-2.00967, 55.79084], [-1.87786, 55.69489], [-1.8531, 55.65933], [-1.83154, 55.6507], [-1.81648, 55.63288], [-1.79258, 55.64654], [-1.78101, 55.64554], [-1.75651, 55.63361], [-1.74767, 55.61921], [-1.76797, 55.61921], [-1.76797, 55.61298], [-1.75597, 55.60887], [-1.72085, 55.61456], [-1.69913, 55.61297], [-1.63087, 55.5851], [-1.63467, 55.5644], [-1.6172, 55.55028], [-1.63085, 55.54414], [-1.63085, 55.5373], [-1.60295, 55.52362], [-1.61132, 55.50804], [-1.58936, 55.49567], [-1.58497, 55.48371], [-1.58139, 55.41695], [-1.58934, 55.37653], [-1.58332, 55.35472], [-1.5586, 55.32892], [-1.55586, 55.31161], [-1.56823, 55.27961], [-1.55647, 55.25503], [-1.52101, 55.22939], [-1.52916, 55.21625], [-1.50799, 55.19465], [-1.52212, 55.16747], [-1.51793, 55.15713], [-1.49598, 55.13459], [-1.48009, 55.0854], [-1.4596, 55.07859], [-1.41291, 55.00031], [-1.37024, 54.97553], [-1.36268, 54.96479], [-1.35582, 54.90428], [-1.29678, 54.77993], [-1.27546, 54.74844], [-1.24047, 54.72167], [-1.17225, 54.70123], [-1.17225, 54.6938], [-1.19262, 54.69379], [-1.19245, 54.68928], [-1.16472, 54.65276], [-1.18248, 54.63923], [-1.20629, 54.63296], [-1.19884, 54.62157], [-1.18212, 54.61929], [-1.1724, 54.62615], [-1.1647, 54.6118], [-1.15266, 54.61319], [-1.13805, 54.64654], [-1.10363, 54.62466], [-1.04207, 54.61708], [-0.99348, 54.59813], [-0.78792, 54.56077], [-0.56299, 54.47735], [-0.53468, 54.461], [-0.52287, 54.44709], [-0.52042, 54.42007], [-0.46277, 54.38898], [-0.44795, 54.37341], [-0.41854, 54.32423], [-0.41454, 54.29731], [-0.40119, 54.28563], [-0.39076, 54.28351], [-0.39757, 54.26919], [-0.37047, 54.24771], [-0.36278, 54.2425], [-0.32202, 54.23606], [-0.2771, 54.21775], [-0.26037, 54.17699], [-0.23388, 54.16047], [-0.11145, 54.13157], [-0.07554, 54.11213], [-0.16393, 54.0834], [-0.19469, 54.06232], [-0.21947, 54.02277], [-0.19743, 53.99481], [-0.15111, 53.89932], [0.13346, 53.64264], [0.14924, 53.6096], [0.13156, 53.57367], [0.10967, 53.56292], [0.136, 53.61066], [0.12021, 53.61811], [0.03452, 53.64606], [-0.04503, 53.62556], [-0.0926, 53.63115], [-0.13002, 53.64607], [-0.22533, 53.71992], [-0.26036, 53.73542], [-0.30517, 53.73969], [-0.43114, 53.7143], [-0.51049, 53.7143], [-0.54442, 53.70947], [-0.57917, 53.72797], [-0.63703, 53.732], [-0.65836, 53.72797], [-0.72647, 53.70063], [-0.69245, 53.687], [-0.67748, 53.70283], [-0.64986, 53.71059], [-0.61954, 53.71184], [-0.59619, 53.70807], [-0.52994, 53.67768], [-0.48595, 53.69453], [-0.30724, 53.71425], [-0.27938, 53.70709], [-0.18863, 53.62043], [-0.14404, 53.60663], [-0.09594, 53.57714], [-0.04663, 53.57037], [9e-05, 53.53535], [0.09596, 53.48835], [0.15186, 53.47581], [0.1678, 53.4645], [0.17579, 53.43769], [0.21947, 53.4195], [0.21192, 53.41266], [0.22957, 53.40457], [0.25596, 53.37529], [0.34197, 53.22657], [0.35619, 53.18854], [0.35651, 53.14547], [0.32983, 53.0865], [0.28248, 53.07486], [0.19303, 53.0201], [0.16082, 53.00898], [0.08193, 52.93854], [0.06116, 52.92501], [0.02215, 52.91258], [0.00856, 52.89863], [0.01026, 52.88646], [0.04066, 52.88508], [0.09254, 52.89251], [0.10563, 52.88934], [0.1709, 52.86212], [0.24676, 52.79572], [0.26486, 52.80373], [0.32552, 52.80316], [0.34179, 52.79742], [0.36988, 52.77302], [0.38453, 52.76838], [0.37926, 52.79083], [0.43865, 52.84072], [0.44417, 52.86537], [0.47246, 52.9166], [0.48571, 52.93349], [0.52028, 52.95526], [0.56989, 52.96934], [0.62338, 52.97564], [0.67189, 52.97443], [0.66442, 52.98187], [0.68475, 52.98638], [0.7505, 52.97443], [0.83601, 52.97438], [0.96844, 52.9475], [1.01393, 52.96015], [0.99155, 52.96748], [0.96609, 52.96761], [0.96609, 52.97442], [1.27466, 52.92917], [1.39571, 52.89152], [1.6442, 52.77582], [1.69702, 52.73102], [1.74723, 52.62519], [1.74073, 52.60391], [1.74686, 52.58833], [1.74757, 52.53278], [1.77115, 52.48591], [1.7544, 52.46735], [1.72926, 52.41559], [1.72785, 52.39631], [1.68379, 52.32483], [1.63054, 52.27045], [1.63081, 52.19955], [1.58248, 52.08169], [1.50367, 52.06098], [1.48682, 52.04903], [1.47202, 52.05622], [1.46386, 52.03515], [1.42481, 52.00186], [1.3435, 51.94287], [1.33229, 51.9401], [1.26442, 51.99437], [1.23487, 52.00031], [1.18523, 52.02509], [1.15789, 52.02851], [1.15789, 52.02167], [1.21437, 51.99144], [1.27076, 51.98151], [1.27101, 51.95645], [1.25074, 51.95962], [1.20574, 51.95344], [1.16529, 51.96703], [1.0691, 51.95344], [1.09547, 51.94575], [1.26206, 51.93915], [1.28198, 51.94659], [1.27848, 51.92793], [1.19956, 51.87767], [1.22788, 51.86738], [1.26441, 51.864], [1.28662, 51.88164], [1.28824, 51.86058], [1.27636, 51.8448], [1.21924, 51.81184], [1.16781, 51.79024], [1.13542, 51.78173], [1.06544, 51.77531], [1.0373, 51.78218], [0.97983, 51.84357], [0.97706, 51.82461], [0.96233, 51.81396], [0.92514, 51.80256], [0.88697, 51.78213], [0.8737, 51.74731], [0.8357, 51.73371], [0.79176, 51.74116], [0.7671, 51.73945], [0.69858, 51.72004], [0.74927, 51.70847], [0.76075, 51.69269], [0.78908, 51.71014], [0.85304, 51.7189], [0.88356, 51.72687], [0.91237, 51.74151], [0.93027, 51.74344], [0.94555, 51.7337], [0.93816, 51.70637], [0.95181, 51.67841], [0.938, 51.6645], [0.93471, 51.63587], [0.91147, 51.62385], [0.93849, 51.62499], [0.95181, 51.61701], [0.92448, 51.58833], [0.87303, 51.55937], [0.81625, 51.53718], [0.77157, 51.52833], [0.69207, 51.53632], [0.65056, 51.53579], [0.62337, 51.52205], [0.58229, 51.51655], [0.56886, 51.50838], [0.55275, 51.51797], [0.45607, 51.50556], [0.44166, 51.47704], [0.42848, 51.46711], [0.38453, 51.45311], [0.44842, 51.45995], [0.46954, 51.48039], [0.53484, 51.49167], [0.69483, 51.47703], [0.70964, 51.47035], [0.72314, 51.44671], [0.71314, 51.44124], [0.69239, 51.43953], [0.64096, 51.44416], [0.60938, 51.42513], [0.57277, 51.41958], [0.55454, 51.41218], [0.57651, 51.39362], [0.67188, 51.39105], [0.7129, 51.38422], [0.70039, 51.40982], [0.70535, 51.41949], [0.72641, 51.41901], [0.73927, 51.38793], [0.76441, 51.36441], [0.97722, 51.34919], [1.10093, 51.37322], [1.42383, 51.39206], [1.44823, 51.38287], [1.43536, 51.34349], [1.41862, 51.32967], [1.38299, 51.32978], [1.37761, 51.32624], [1.38063, 51.30476], [1.40428, 51.26138], [1.41308, 51.22175], [1.40478, 51.18354], [1.38459, 51.1519], [1.35718, 51.13102], [1.29038, 51.11652], [1.26294, 51.10327], [1.21811, 51.10098], [1.19173, 51.0825], [1.17221, 51.07739], [1.08717, 51.07298], [1.0276, 51.04165], [0.96648, 50.98273], [0.97981, 50.91816], [0.94516, 50.90938], [0.80226, 50.9392], [0.76246, 50.93089], [0.66439, 50.87031], [0.62455, 50.85881], [0.40748, 50.82933], [0.36525, 50.819], [0.34228, 50.79516], [0.30812, 50.78095], [0.271, 50.74739], [0.2336, 50.74704], [0.16831, 50.75983], [0.12209, 50.76082], [0.09555, 50.77505], [0.03421, 50.78102], [-0.17317, 50.82901], [-0.20613, 50.83104], [-0.23314, 50.82194], [-0.26968, 50.83129], [-0.39757, 50.80208], [-0.56896, 50.80207], [-0.73274, 50.76729], [-0.75821, 50.77709], [-0.76757, 50.77473], [-0.7731, 50.76602]]], [[[1.98021, 51.00768], [1.93446, 50.93015], [1.88058, 50.87392], [1.84724, 50.84794], [1.72525, 50.77729], [1.56919, 50.71963], [1.60564, 50.79002], [1.5806, 50.8688], [1.60512, 50.88113], [1.65333, 50.88911], [1.72984, 50.9439], [1.92106, 50.99668], [1.9393, 50.99445], [1.98021, 51.00768]]], [[[0.93636, 51.37105], [0.91147, 51.36441], [0.79477, 51.37055], [0.77508, 51.37531], [0.7339, 51.41218], [0.75014, 51.44247], [0.76694, 51.44793], [0.90011, 51.41771], [0.93245, 51.39769], [0.94213, 51.383], [0.93636, 51.37105]]]]}}]}