{"type": "FeatureCollection", "features": [{"type": "Feature", "properties": {"map_title": "제1차 세계 대전의 전개", "source": "미래엔 세계사 교과서 4권 181쪽", "volume": 4, "page": 181, "legend": "연합국", "name": "러시아", "name_en": "Russia", "period": "1914–1918", "kind": "국가", "alliance": "연합국", "coast_snap": "Natural Earth 10m 해안선에 맞춤", "border_snap": "현대 국경(Natural Earth 10m)에 맞춘 구간 약 1270 km"}, "geometry": {"type": "MultiPolygon", "coordinates": [[[[21.08237, 55.49763], [21.09938, 55.5987], [21.09068, 55.63313], [21.09352, 55.69554], [21.08524, 55.72283], [21.11744, 55.69977], [21.13152, 55.65558], [21.1314, 55.55596], [21.11988, 55.52704], [21.11987, 55.48945], [21.08717, 55.44107], [21.10619, 55.42743], [21.10619, 55.42121], [21.0735, 55.39179], [21.03784, 55.3286], [20.98894, 55.29133], [20.98941, 55.27303], [20.9281, 55.28615], [20.99952, 55.357], [21.04152, 55.41608], [21.08237, 55.49763]]], [[[21.38584, 60.26863], [21.38446, 60.28347], [21.43051, 60.29038], [21.44433, 60.28884], [21.44368, 60.27502], [21.38584, 60.26863]]], [[[21.14244, 60.3499], [21.15927, 60.35971], [21.16428, 60.35345], [21.15626, 60.34348], [21.14244, 60.3499]]], [[[21.3553, 60.3518], [21.3384, 60.35311], [21.33106, 60.36518], [21.30389, 60.36426], [21.29446, 60.37051], [21.30821, 60.38966], [21.31983, 60.39149], [21.33806, 60.38337], [21.35231, 60.37043], [21.3553, 60.3518]]], [[[21.40561, 60.39224], [21.40169, 60.36796], [21.36573, 60.38198], [21.3558, 60.39354], [21.3657, 60.405], [21.39991, 60.39737], [21.40561, 60.39224]]], [[[21.04688, 60.42466], [21.06238, 60.41297], [21.05088, 60.3981], [21.02787, 60.41578], [21.04688, 60.42466]]], [[[21.22655, 60.40019], [21.21225, 60.40339], [21.20412, 60.39685], [21.19795, 60.40969], [21.20761, 60.41376], [21.21567, 60.42966], [21.22655, 60.40019]]], [[[21.06497, 60.45479], [21.05927, 60.46674], [21.07643, 60.48041], [21.09448, 60.47576], [21.09665, 60.46369], [21.07838, 60.44897], [21.06497, 60.45479]]], [[[20.95033, 60.47214], [20.93502, 60.4873], [20.95791, 60.48448], [20.95033, 60.47214]]], [[[21.06251, 60.48444], [21.03893, 60.49596], [21.03503, 60.50129], [21.04672, 60.50568], [21.08674, 60.48977], [21.08245, 60.48477], [21.06251, 60.48444]]], [[[21.37129, 60.50837], [21.36012, 60.53319], [21.33611, 60.51945], [21.32862, 60.52534], [21.32597, 60.54316], [21.33422, 60.55745], [21.35255, 60.56183], [21.3942, 60.55987], [21.41098, 60.54291], [21.46191, 60.53936], [21.48224, 60.52579], [21.46314, 60.52578], [21.45631, 60.50678], [21.46311, 60.49227], [21.44646, 60.49335], [21.4336, 60.48908], [21.43068, 60.48115], [21.44259, 60.47116], [21.39228, 60.48998], [21.37129, 60.50837]]], [[[21.27827, 60.54244], [21.32485, 60.48209], [21.26597, 60.49007], [21.25028, 60.49844], [21.26059, 60.51972], [21.2292, 60.55987], [21.25028, 60.55987], [21.27827, 60.54244]]], [[[21.08317, 60.53407], [21.09854, 60.51554], [21.06927, 60.5161], [21.0491, 60.52168], [21.04421, 60.52835], [21.06467, 60.53676], [21.08317, 60.53407]]], [[[21.06005, 60.55358], [21.04166, 60.54938], [21.03031, 60.55236], [21.04941, 60.55841], [21.06005, 60.55358]]], [[[21.23737, 60.62721], [21.25929, 60.64751], [21.27066, 60.64305], [21.27491, 60.62678], [21.29116, 60.61514], [21.27833, 60.58613], [21.28151, 60.57563], [21.29865, 60.57415], [21.29866, 60.56734], [21.281, 60.56636], [21.26441, 60.58784], [21.23318, 60.59391], [21.22293, 60.60147], [21.2139, 60.61636], [21.2191, 60.62262], [21.23737, 60.62721]]], [[[21.31965, 60.70987], [21.28746, 60.70959], [21.29258, 60.71882], [21.3177, 60.71568], [21.31965, 60.70987]]], [[[21.0288, 60.73212], [21.00946, 60.71574], [21.00581, 60.72679], [21.02693, 60.73573], [21.0288, 60.73212]]], [[[21.36727, 60.74645], [21.35395, 60.7442], [21.32781, 60.76362], [21.34799, 60.76898], [21.37338, 60.75344], [21.36727, 60.74645]]], [[[21.27865, 60.75992], [21.25523, 60.75736], [21.25101, 60.76512], [21.26393, 60.7683], [21.27865, 60.75992]]], [[[21.27654, 60.76687], [21.27297, 60.77475], [21.29849, 60.77325], [21.29565, 60.76314], [21.27654, 60.76687]]], [[[21.13821, 60.78666], [21.12975, 60.80125], [21.14324, 60.80833], [21.17423, 60.78884], [21.17561, 60.78125], [21.13821, 60.78666]]], [[[21.28369, 60.81124], [21.27537, 60.80602], [21.2527, 60.80395], [21.24255, 60.81053], [21.2697, 60.81904], [21.28369, 60.81124]]], [[[21.32317, 60.82477], [21.32855, 60.81246], [21.30755, 60.8218], [21.32317, 60.82477]]], [[[21.28256, 60.82909], [21.29575, 60.82941], [21.30112, 60.83823], [21.31471, 60.83165], [21.31064, 60.82457], [21.29347, 60.82144], [21.28256, 60.82909]]], [[[21.0114, 60.84885], [21.02949, 60.84263], [21.03208, 60.83427], [21.00403, 60.84699], [21.0114, 60.84885]]], [[[21.26732, 60.85105], [21.26319, 60.83027], [21.20272, 60.84473], [21.18632, 60.85652], [21.20697, 60.86307], [21.22151, 60.85895], [21.22657, 60.84711], [21.24586, 60.84602], [21.25954, 60.85308], [21.26732, 60.85105]]], [[[21.33709, 60.94672], [21.37426, 60.93042], [21.32789, 60.91014], [21.32574, 60.88923], [21.31813, 60.88019], [21.27524, 60.88329], [21.2317, 60.88203], [21.20244, 60.88947], [21.2278, 60.89971], [21.27662, 60.88911], [21.29868, 60.8957], [21.29121, 60.90998], [21.31227, 60.923], [21.28321, 60.94282], [21.26482, 60.94961], [21.24346, 60.95088], [21.28501, 60.97198], [21.30493, 60.97137], [21.33709, 60.94672]]], [[[21.38005, 61.214], [21.39136, 61.20961], [21.38917, 61.19221], [21.43165, 61.17146], [21.38885, 61.18098], [21.36978, 61.17619], [21.34672, 61.17756], [21.34297, 61.19062], [21.36315, 61.20856], [21.38005, 61.214]]], [[[21.97188, 60.11142], [21.94387, 60.11348], [21.92997, 60.12458], [21.93574, 60.13128], [21.96209, 60.13788], [22.01206, 60.12289], [22.00732, 60.11547], [21.97188, 60.11142]]], [[[21.89999, 60.14521], [21.88639, 60.13529], [21.83994, 60.13529], [21.83269, 60.13927], [21.84262, 60.15091], [21.86948, 60.1542], [21.87696, 60.15892], [21.90698, 60.15476], [21.91323, 60.14981], [21.88779, 60.14822], [21.89999, 60.14521]]], [[[22.11152, 60.15355], [22.12483, 60.15952], [22.13345, 60.15615], [22.13118, 60.14098], [22.11013, 60.13903], [22.11152, 60.15355]]], [[[21.85352, 60.19675], [21.88768, 60.18374], [21.88769, 60.17635], [21.86573, 60.17642], [21.84604, 60.17011], [21.86785, 60.15583], [21.79152, 60.15583], [21.82618, 60.1496], [21.79656, 60.14138], [21.80566, 60.13533], [21.77782, 60.12185], [21.76979, 60.18987], [21.7538, 60.1917], [21.85352, 60.19675]]], [[[21.93542, 60.17633], [21.99757, 60.19062], [22.04177, 60.2114], [22.05891, 60.21108], [22.07201, 60.19677], [22.01124, 60.17011], [22.03782, 60.15583], [22.00925, 60.13727], [21.97771, 60.13548], [21.95071, 60.14908], [21.93542, 60.17633]]], [[[22.09803, 60.16862], [22.09224, 60.17064], [22.12872, 60.19327], [22.14631, 60.19302], [22.13948, 60.18066], [22.09803, 60.16862]]], [[[22.06626, 60.25299], [22.07578, 60.25211], [22.08934, 60.24356], [22.08862, 60.24055], [22.06638, 60.2281], [22.04497, 60.24269], [22.04754, 60.24393], [22.04552, 60.24563], [22.06626, 60.25299]]], [[[21.58694, 60.26934], [21.60465, 60.26878], [21.60043, 60.25483], [21.6267, 60.25258], [21.60214, 60.22308], [21.56307, 60.23109], [21.57095, 60.25574], [21.58694, 60.26934]]], [[[21.75466, 60.2571], [21.76501, 60.26059], [21.78555, 60.25852], [21.78515, 60.2528], [21.75271, 60.24491], [21.75466, 60.2571]]], [[[21.85451, 60.29241], [21.85637, 60.28841], [21.83824, 60.28361], [21.81482, 60.29763], [21.85451, 60.29241]]], [[[21.6717, 60.2834], [21.63268, 60.28487], [21.64487, 60.29852], [21.67365, 60.28853], [21.6717, 60.2834]]], [[[21.97291, 60.28535], [22.00828, 60.2973], [22.00081, 60.28968], [21.97291, 60.28535]]], [[[21.57088, 60.30141], [21.57966, 60.28991], [21.55933, 60.28418], [21.52704, 60.28666], [21.52192, 60.29295], [21.55511, 60.30369], [21.57088, 60.30141]]], [[[21.88492, 60.28952], [21.87536, 60.30488], [21.87975, 60.31052], [21.95981, 60.31216], [21.97379, 60.3093], [21.97535, 60.30256], [21.9569, 60.28143], [21.94411, 60.27709], [21.90969, 60.28011], [21.89601, 60.2897], [21.88492, 60.28952]]], [[[21.72607, 60.29121], [21.70545, 60.29417], [21.71129, 60.30317], [21.73305, 60.2956], [21.72607, 60.29121]]], [[[21.64594, 60.36302], [21.68051, 60.36119], [21.71215, 60.34707], [21.71085, 60.34138], [21.6618, 60.3433], [21.64286, 60.35814], [21.64594, 60.36302]]], [[[22.20621, 60.38254], [22.20753, 60.37556], [22.10429, 60.35416], [22.12185, 60.37142], [22.13788, 60.37909], [22.20621, 60.38254]]], [[[21.77589, 60.37828], [21.7881, 60.3747], [21.75033, 60.36629], [21.73212, 60.36771], [21.73391, 60.3777], [21.75579, 60.37283], [21.77589, 60.37828]]], [[[21.65204, 60.38258], [21.66325, 60.38202], [21.6749, 60.37206], [21.68677, 60.37204], [21.69864, 60.36474], [21.69174, 60.36205], [21.64304, 60.37727], [21.65204, 60.38258]]], [[[21.48941, 60.38345], [21.48965, 60.37104], [21.47161, 60.35795], [21.46764, 60.38678], [21.48015, 60.38942], [21.48941, 60.38345]]], [[[21.99755, 60.34137], [21.99755, 60.33394], [21.97966, 60.32861], [21.96062, 60.32754], [21.92172, 60.33393], [21.90142, 60.32709], [21.90138, 60.34138], [21.85954, 60.35565], [21.81448, 60.36426], [21.79412, 60.37397], [21.78534, 60.38542], [21.79227, 60.39695], [21.80886, 60.40521], [21.84604, 60.40965], [21.84604, 60.41649], [21.79837, 60.4438], [21.80812, 60.4667], [21.81788, 60.47199], [21.83237, 60.47114], [21.89233, 60.4492], [21.90463, 60.43163], [21.93196, 60.42332], [21.95035, 60.40216], [21.95035, 60.39599], [21.90699, 60.40176], [21.89454, 60.39598], [21.95035, 60.37555], [21.94223, 60.36811], [21.97524, 60.36936], [21.9886, 60.3659], [21.99754, 60.35505], [21.96339, 60.3476], [21.99755, 60.34137]]], [[[21.40164, 60.41274], [21.42147, 60.42778], [21.4357, 60.41144], [21.43643, 60.40412], [21.42104, 60.39884], [21.41318, 60.40127], [21.41228, 60.41246], [21.40164, 60.41274]]], [[[21.70133, 60.44557], [21.71126, 60.41788], [21.70069, 60.41203], [21.68948, 60.42227], [21.69443, 60.437], [21.68191, 60.43871], [21.67826, 60.44819], [21.70133, 60.44557]]], [[[21.61511, 60.44664], [21.63201, 60.45425], [21.64078, 60.42704], [21.62599, 60.42609], [21.61531, 60.40966], [21.59924, 60.40982], [21.60257, 60.43585], [21.61533, 60.4394], [21.61511, 60.44664]]], [[[21.64457, 60.47658], [21.66782, 60.47496], [21.66993, 60.46267], [21.6434, 60.46206], [21.64457, 60.47658]]], [[[21.7416, 60.52626], [21.76415, 60.52577], [21.76051, 60.51203], [21.71484, 60.47069], [21.688, 60.45531], [21.68165, 60.46491], [21.69095, 60.48407], [21.7416, 60.52626]]], [[[21.53494, 60.51442], [21.54485, 60.50707], [21.55568, 60.50658], [21.55502, 60.52534], [21.57211, 60.51553], [21.56935, 60.50568], [21.55535, 60.49413], [21.55322, 60.48555], [21.54681, 60.48413], [21.51427, 60.496], [21.52379, 60.51296], [21.53494, 60.51442]]], [[[21.42124, 61.21185], [21.46157, 61.19823], [21.44223, 61.19433], [21.42229, 61.19945], [21.4131, 61.2082], [21.42124, 61.21185]]], [[[22.50944, 58.17494], [22.52961, 58.14927], [22.5, 58.12113], [22.49692, 58.13068], [22.47733, 58.14297], [22.49596, 58.17604], [22.50944, 58.17494]]], [[[21.96341, 57.98402], [21.99757, 57.98404], [22.02136, 58.02122], [22.08572, 58.08258], [22.09621, 58.0864], [22.13551, 58.07673], [22.14772, 58.07958], [22.16506, 58.11689], [22.20297, 58.14789], [22.18035, 58.16083], [22.14186, 58.1695], [22.07228, 58.17586], [22.053, 58.1866], [22.01686, 58.23387], [21.99383, 58.2447], [21.92889, 58.24511], [21.89651, 58.25073], [21.86786, 58.2646], [21.85159, 58.28161], [21.84329, 58.30215], [21.85565, 58.30686], [21.90821, 58.29873], [21.87332, 58.34161], [21.89454, 58.34649], [21.94459, 58.31875], [21.96339, 58.32661], [21.95495, 58.34406], [21.96804, 58.35455], [21.99049, 58.35786], [22.01124, 58.35395], [21.99008, 58.38695], [21.94597, 58.43228], [21.90113, 58.46841], [21.83242, 58.51095], [21.88859, 58.49815], [21.91334, 58.50085], [21.92849, 58.51837], [21.99561, 58.51251], [22.02096, 58.49906], [22.06422, 58.45669], [22.07358, 58.42691], [22.08937, 58.42219], [22.09848, 58.42609], [22.09311, 58.44953], [22.1039, 58.48744], [22.11389, 58.49813], [22.12652, 58.50448], [22.17189, 58.52155], [22.19429, 58.54571], [22.21556, 58.54417], [22.22885, 58.51057], [22.24334, 58.50483], [22.2732, 58.50202], [22.28836, 58.56932], [22.32162, 58.58463], [22.46306, 58.59292], [22.55031, 58.62957], [22.58318, 58.6345], [22.61264, 58.6057], [22.64812, 58.58674], [22.68214, 58.60032], [22.73634, 58.58808], [22.75799, 58.59292], [22.81137, 58.62294], [22.84636, 58.61343], [22.89967, 58.62026], [22.98975, 58.60174], [23.01903, 58.59073], [23.09103, 58.57096], [23.12582, 58.5351], [23.14829, 58.52155], [23.18865, 58.5104], [23.25556, 58.49992], [23.31804, 58.47266], [23.33324, 58.45637], [23.32495, 58.4423], [23.2614, 58.46589], [23.23764, 58.45637], [23.26173, 58.45161], [23.27798, 58.43652], [23.23488, 58.4399], [23.19607, 58.45637], [23.18189, 58.47468], [23.15651, 58.47752], [23.13036, 58.43953], [23.10865, 58.42903], [23.08424, 58.42963], [23.08674, 58.39497], [23.04247, 58.3715], [23.02198, 58.36324], [22.97755, 58.38166], [22.95485, 58.38105], [22.94752, 58.37263], [22.96947, 58.36017], [22.90267, 58.31184], [22.85401, 58.29873], [22.8112, 58.27343], [22.74293, 58.27383], [22.7212, 58.27033], [22.71013, 58.25776], [22.75665, 58.24225], [22.72314, 58.22542], [22.66921, 58.22151], [22.65496, 58.2447], [22.62135, 58.25275], [22.58619, 58.24779], [22.56495, 58.23519], [22.535, 58.25405], [22.51757, 58.23042], [22.50415, 58.22355], [22.49726, 58.22306], [22.49098, 58.2447], [22.47682, 58.2451], [22.42164, 58.22164], [22.38795, 58.22675], [22.32342, 58.20661], [22.27174, 58.17426], [22.26531, 58.11484], [22.2294, 58.0524], [22.19988, 58.02603], [22.20295, 57.99397], [22.18959, 57.98366], [22.04834, 57.91512], [22.01687, 57.91451], [21.9901, 57.93562], [21.99073, 57.95824], [21.96414, 57.97139], [21.96341, 57.98402]]], [[[22.8672, 58.82005], [22.88275, 58.81742], [22.88683, 58.81203], [22.88671, 58.79048], [22.84495, 58.77651], [22.81666, 58.77596], [22.79007, 58.781], [22.77835, 58.79218], [22.78933, 58.80263], [22.82691, 58.81916], [22.81935, 58.82966], [22.80226, 58.83039], [22.76072, 58.81698], [22.73666, 58.80646], [22.68098, 58.72407], [22.65494, 58.70279], [22.61117, 58.69051], [22.55568, 58.68701], [22.50173, 58.69478], [22.46309, 58.71646], [22.49723, 58.73754], [22.44949, 58.78681], [22.43979, 58.84138], [22.38209, 58.88227], [22.32496, 58.89663], [22.2269, 58.88647], [22.195, 58.88802], [22.06253, 58.92586], [22.04471, 58.93619], [22.05553, 58.95269], [22.09425, 58.95603], [22.16822, 58.95038], [22.46306, 58.97089], [22.44353, 58.97773], [22.44209, 58.98468], [22.4546, 58.9872], [22.48845, 58.98115], [22.48758, 59.01642], [22.50425, 59.02557], [22.54444, 59.0301], [22.55926, 59.0384], [22.58718, 59.08697], [22.59767, 59.08949], [22.66667, 59.0849], [22.69653, 59.07916], [22.7141, 59.06956], [22.69158, 59.04116], [22.70135, 59.02497], [22.73666, 59.00507], [22.83716, 59.0086], [22.93408, 58.98403], [22.94962, 58.97068], [22.94955, 58.93618], [23.01513, 58.89179], [23.02174, 58.86408], [23.03905, 58.86102], [23.04052, 58.84077], [23.03352, 58.83032], [23.01906, 58.8291], [22.9568, 58.8474], [22.94223, 58.83423], [22.92921, 58.83999], [22.87957, 58.83271], [22.8672, 58.82005]]], [[[22.31237, 59.80915], [22.31767, 59.82546], [22.33869, 59.80724], [22.31959, 59.8016], [22.31237, 59.80915]]], [[[22.40104, 59.84236], [22.37544, 59.84797], [22.3887, 59.8585], [22.40423, 59.85611], [22.40104, 59.84236]]], [[[22.44501, 59.85185], [22.44676, 59.85493], [22.42775, 59.84952], [22.41603, 59.85293], [22.41383, 59.86123], [22.45488, 59.86918], [22.45705, 59.87298], [22.49855, 59.87763], [22.51285, 59.87373], [22.44501, 59.85185]]], [[[22.20548, 59.86816], [22.17516, 59.86702], [22.18299, 59.87595], [22.20507, 59.87339], [22.20548, 59.86816]]], [[[22.477, 59.88739], [22.52402, 59.89914], [22.53159, 59.89724], [22.52246, 59.88667], [22.47739, 59.87527], [22.477, 59.88739]]], [[[22.38445, 59.91987], [22.35695, 59.90552], [22.3503, 59.90905], [22.35851, 59.91685], [22.37845, 59.92547], [22.38445, 59.91987]]], [[[22.45967, 59.92467], [22.4685, 59.94223], [22.47753, 59.91727], [22.45967, 59.92467]]], [[[22.35043, 59.96341], [22.36913, 59.95974], [22.37005, 59.94904], [22.33922, 59.93448], [22.33035, 59.94827], [22.33449, 59.95981], [22.35043, 59.96341]]], [[[22.65109, 59.94839], [22.63966, 59.94522], [22.6433, 59.93587], [22.58922, 59.95876], [22.61516, 59.96263], [22.65109, 59.94839]]], [[[22.39555, 59.93582], [22.39348, 59.94864], [22.41757, 59.96328], [22.41344, 59.97154], [22.41986, 59.97658], [22.42913, 59.97427], [22.4454, 59.98648], [22.46581, 59.97621], [22.46679, 59.96435], [22.46323, 59.96236], [22.44394, 59.96581], [22.43548, 59.96129], [22.43426, 59.96597], [22.42292, 59.92797], [22.40984, 59.92204], [22.39555, 59.93582]]], [[[22.51719, 59.9861], [22.5433, 59.9846], [22.5537, 59.98033], [22.55679, 59.9737], [22.5464, 59.96658], [22.50816, 59.95894], [22.50516, 59.97858], [22.51719, 59.9861]]], [[[22.61492, 59.98949], [22.6297, 59.98514], [22.64924, 59.96658], [22.63526, 59.96084], [22.60735, 59.97105], [22.61492, 59.98949]]], [[[22.3729, 59.99441], [22.35825, 59.9669], [22.34734, 59.9656], [22.33869, 59.97102], [22.34763, 59.98846], [22.36866, 59.99816], [22.3729, 59.99441]]], [[[22.92658, 60.06537], [22.91098, 60.04157], [22.8934, 60.03315], [22.87224, 60.00606], [22.85957, 60.01143], [22.85117, 60.02813], [22.85574, 60.04132], [22.88331, 60.04312], [22.8838, 60.04808], [22.85518, 60.05557], [22.86331, 60.06256], [22.88738, 60.06778], [22.91768, 60.06867], [22.92658, 60.06537]]], [[[22.41804, 60.00805], [22.39454, 60.00503], [22.38281, 59.99259], [22.35963, 60.02104], [22.35167, 60.03853], [22.34945, 60.04775], [22.35485, 60.07562], [22.37061, 60.08074], [22.38266, 60.07453], [22.38722, 60.05166], [22.40838, 60.0528], [22.40187, 60.07575], [22.4118, 60.08518], [22.43042, 60.08185], [22.44947, 60.06647], [22.44264, 59.9975], [22.41804, 60.00805]]], [[[22.81513, 60.04714], [22.81087, 60.03215], [22.80041, 60.04507], [22.80211, 60.05161], [22.81513, 60.04714]]], [[[22.4699, 59.99752], [22.47731, 60.04658], [22.47364, 60.09097], [22.43484, 60.10514], [22.42216, 60.11481], [22.48048, 60.13231], [22.60027, 60.13532], [22.60027, 60.14216], [22.41524, 60.14961], [22.44811, 60.22137], [22.47727, 60.22466], [22.45102, 60.18854], [22.46648, 60.18374], [22.56658, 60.1933], [22.62062, 60.21109], [22.81495, 60.227], [22.84352, 60.24177], [22.89096, 60.28555], [22.92075, 60.2967], [22.95637, 60.29295], [22.94947, 60.27045], [22.88453, 60.2353], [22.86687, 60.20746], [22.83985, 60.20112], [22.83351, 60.19306], [22.84032, 60.17012], [22.81935, 60.16266], [22.84032, 60.15582], [22.83302, 60.14216], [22.84685, 60.11103], [22.81314, 60.08211], [22.73048, 60.04658], [22.73048, 60.03974], [22.75796, 60.03229], [22.72982, 60.00496], [22.70541, 60.0069], [22.68215, 59.99752], [22.65496, 60.03229], [22.60841, 60.00015], [22.60646, 59.98452], [22.60029, 59.98453], [22.59897, 60.00804], [22.59148, 60.01093], [22.57913, 60.00496], [22.57488, 60.01703], [22.59342, 60.04657], [22.52994, 60.00826], [22.4699, 59.99752]]], [[[22.28256, 60.16185], [22.28142, 60.14558], [22.25312, 60.12992], [22.25143, 60.14953], [22.25611, 60.15611], [22.28256, 60.16185]]], [[[22.26187, 60.17405], [22.24806, 60.1682], [22.20769, 60.16337], [22.20143, 60.16454], [22.19567, 60.1704], [22.19713, 60.17414], [22.20973, 60.17889], [22.26187, 60.17405]]], [[[22.30455, 60.18878], [22.37496, 60.20404], [22.38557, 60.19526], [22.36758, 60.17727], [22.32, 60.16405], [22.3369, 60.14851], [22.28834, 60.14985], [22.30455, 60.18878]]], [[[22.3109, 60.20764], [22.30763, 60.21422], [22.33457, 60.22841], [22.36431, 60.22909], [22.37043, 60.22663], [22.36913, 60.22171], [22.35483, 60.22044], [22.33668, 60.20816], [22.3109, 60.20764]]], [[[22.29689, 60.22126], [22.26928, 60.19587], [22.23227, 60.18496], [22.20938, 60.20445], [22.24586, 60.24307], [22.27166, 60.253], [22.29174, 60.24518], [22.29689, 60.22126]]], [[[22.33178, 60.26944], [22.31283, 60.2657], [22.28981, 60.27314], [22.261, 60.25886], [22.2155, 60.25313], [22.20089, 60.25435], [22.21664, 60.26569], [22.20395, 60.27631], [22.18116, 60.28132], [22.14088, 60.27871], [22.18189, 60.27871], [22.16333, 60.25923], [22.10963, 60.27131], [22.08011, 60.26948], [22.08385, 60.30145], [22.10679, 60.31345], [22.13201, 60.31564], [22.24976, 60.31146], [22.32129, 60.29706], [22.33961, 60.2862], [22.33715, 60.27449], [22.33178, 60.26944]]], [[[22.36748, 60.29297], [22.38795, 60.32095], [22.36988, 60.31452], [22.3506, 60.31368], [22.31286, 60.32096], [22.35028, 60.34784], [22.3982, 60.35504], [22.40162, 60.34138], [22.42897, 60.33393], [22.46899, 60.33152], [22.47728, 60.32095], [22.42529, 60.29907], [22.39478, 60.29317], [22.36748, 60.29297]]], [[[22.28955, 60.35799], [22.19109, 60.34175], [22.17019, 60.34419], [22.15724, 60.35191], [22.15976, 60.35541], [22.15707, 60.3583], [22.16424, 60.36164], [22.25524, 60.37411], [22.28492, 60.37499], [22.29963, 60.36758], [22.28955, 60.35799]]], [[[30.12592, 45.81143], [29.90773, 45.66628], [29.80745, 45.61434], [29.73111, 45.59142], [29.80144, 45.62189], [29.81479, 45.64106], [29.8567, 45.64912], [30.0755, 45.7923], [30.12592, 45.81143]]], [[[32.63933, 46.06], [32.78321, 46.04633], [32.85206, 46.05629], [32.88168, 46.0554], [32.91358, 46.0388], [32.95485, 46.05173], [32.97868, 46.05328], [32.99936, 46.0353], [33.04509, 46.0379], [33.05745, 46.02521], [33.03974, 46.01219], [32.61942, 46.06001], [32.62737, 46.06595], [32.63933, 46.06]]], [[[31.57797, 46.27558], [31.61818, 46.25922], [32.07051, 46.18249], [32.16622, 46.14938], [32.10182, 46.16669], [31.73716, 46.22078], [31.58034, 46.26277], [31.54901, 46.28242], [31.52187, 46.31345], [31.50514, 46.35469], [31.50442, 46.37334], [31.52207, 46.36825], [31.55437, 46.29633], [31.57797, 46.27558]]], [[[22.59099, 57.64476], [22.61693, 57.61715], [22.6561, 57.58576], [22.87863, 57.4814], [22.95037, 57.43281], [23.03142, 57.39448], [23.08334, 57.37824], [23.1302, 57.37079], [23.13803, 57.34317], [23.17467, 57.29711], [23.19874, 57.22419], [23.2224, 57.20701], [23.26092, 57.09894], [23.29264, 57.08893], [23.3401, 57.05858], [23.42286, 57.04023], [23.50855, 57.03123], [23.56967, 56.98627], [23.58513, 56.97907], [23.63201, 56.97093], [23.69516, 56.96727], [23.86606, 56.99018], [23.95289, 57.01325], [23.99122, 57.03124], [24.03567, 57.06899], [24.07455, 57.07494], [24.21079, 57.12372], [24.21954, 57.13818], [24.23863, 57.14956], [24.27857, 57.16104], [24.27884, 57.17178], [24.2885, 57.17872], [24.31267, 57.1883], [24.37916, 57.23021], [24.40065, 57.25812], [24.40886, 57.29816], [24.37989, 57.50654], [24.37517, 57.52855], [24.35859, 57.55036], [24.37477, 57.61347], [24.35768, 57.68549], [24.29959, 57.74384], [24.28603, 57.83279], [24.29597, 57.85706], [24.32439, 57.88679], [24.33386, 57.92133], [24.38111, 57.98383], [24.3983, 58.02326], [24.46412, 58.07217], [24.46414, 58.12055], [24.47291, 58.15473], [24.45485, 58.1962], [24.46754, 58.21784], [24.4709, 58.25071], [24.49148, 58.26569], [24.54851, 58.28929], [24.5604, 58.31232], [24.55104, 58.33373], [24.52882, 58.35065], [24.44418, 58.38614], [24.40317, 58.39533], [24.36183, 58.39728], [24.327, 58.38813], [24.31593, 58.37995], [24.29575, 58.35497], [24.28686, 58.31855], [24.24332, 58.28023], [24.21078, 58.2714], [24.15602, 58.27684], [24.11166, 58.24105], [24.0838, 58.25071], [24.05323, 58.27827], [23.98024, 58.31843], [23.91383, 58.33332], [23.85508, 58.33957], [23.83351, 58.35395], [23.82447, 58.35456], [23.80568, 58.34652], [23.77711, 58.35497], [23.75562, 58.34004], [23.741, 58.34309], [23.71892, 58.39956], [23.68361, 58.42198], [23.67754, 58.43499], [23.68434, 58.49966], [23.67897, 58.52416], [23.66383, 58.5362], [23.63494, 58.5284], [23.62241, 58.52913], [23.58458, 58.54474], [23.57338, 58.55217], [23.56121, 58.58316], [23.54615, 58.5799], [23.51637, 58.55465], [23.50149, 58.56249], [23.49808, 58.57221], [23.51824, 58.60375], [23.49323, 58.67322], [23.49775, 58.6966], [23.50654, 58.70538], [23.5359, 58.70279], [23.54664, 58.70962], [23.53006, 58.72285], [23.53307, 58.74745], [23.58448, 58.73794], [23.69703, 58.75115], [23.75522, 58.73359], [23.8025, 58.7307], [23.80486, 58.74799], [23.78339, 58.75585], [23.77962, 58.76623], [23.78549, 58.77798], [23.79949, 58.78535], [23.81617, 58.78461], [23.87436, 58.77167], [23.81568, 58.79995], [23.78419, 58.80097], [23.75766, 58.78536], [23.73951, 58.798], [23.71909, 58.79906], [23.67652, 58.79219], [23.60336, 58.79483], [23.56534, 58.78688], [23.54233, 58.77532], [23.48553, 58.77733], [23.4295, 58.76486], [23.46658, 58.80072], [23.4857, 58.80963], [23.51881, 58.81265], [23.52613, 58.81977], [23.46365, 58.86417], [23.45509, 58.883], [23.42239, 58.90868], [23.42207, 58.92869], [23.44371, 58.94403], [23.5101, 58.9416], [23.53192, 58.95668], [23.54916, 58.95083], [23.58448, 58.95356], [23.62485, 58.9726], [23.6281, 58.9914], [23.62159, 59.01533], [23.60548, 59.03266], [23.55984, 59.05279], [23.61443, 59.0113], [23.58033, 59.00507], [23.55982, 58.9914], [23.55297, 58.9709], [23.5433, 58.96987], [23.52564, 58.98395], [23.46128, 58.99239], [23.43484, 59.00382], [23.40841, 59.02557], [23.43629, 59.02558], [23.42924, 59.04361], [23.43492, 59.05609], [23.49041, 59.08814], [23.50123, 59.08544], [23.51824, 59.07331], [23.51633, 59.1295], [23.48636, 59.17386], [23.4709, 59.21214], [23.52565, 59.2304], [23.56967, 59.22419], [23.57846, 59.2263], [23.64187, 59.25738], [23.66228, 59.25828], [23.71551, 59.23168], [23.73048, 59.23041], [23.7422, 59.23941], [23.74293, 59.25015], [23.72367, 59.26508], [23.73489, 59.27773], [23.75685, 59.28363], [23.84539, 59.28464], [23.88884, 59.27875], [24.03858, 59.29327], [24.08058, 59.27131], [24.10011, 59.2945], [24.09205, 59.31257], [24.0194, 59.36726], [24.03464, 59.38849], [24.06258, 59.3973], [24.08057, 59.39544], [24.16489, 59.35407], [24.19386, 59.34772], [24.22193, 59.35517], [24.21339, 59.37226], [24.16313, 59.40229], [24.18288, 59.40875], [24.27125, 59.4121], [24.30616, 59.41909], [24.33385, 59.4706], [24.39967, 59.47882], [24.42253, 59.47743], [24.47828, 59.44839], [24.4983, 59.44383], [24.54819, 59.46295], [24.64259, 59.43643], [24.66049, 59.44062], [24.65659, 59.4499], [24.62186, 59.46313], [24.62186, 59.4706], [24.65854, 59.47207], [24.66629, 59.49209], [24.67498, 59.49603], [24.6975, 59.49103], [24.7444, 59.44721], [24.77263, 59.4501], [24.79005, 59.45893], [24.81577, 59.48932], [24.80681, 59.50471], [24.78356, 59.51985], [24.77266, 59.55996], [24.80348, 59.57049], [24.84163, 59.55442], [24.90919, 59.51154], [24.93442, 59.50804], [25.01222, 59.51837], [25.09783, 59.49787], [25.11647, 59.50312], [25.10794, 59.529], [25.12209, 59.53948], [25.14511, 59.53914], [25.1941, 59.52265], [25.40943, 59.49103], [25.40237, 59.51431], [25.4158, 59.52708], [25.44012, 59.53212], [25.53321, 59.53205], [25.54371, 59.53514], [25.53614, 59.5493], [25.497, 59.57108], [25.48192, 59.61148], [25.47855, 59.65152], [25.48489, 59.66981], [25.50243, 59.66225], [25.53533, 59.62897], [25.57503, 59.61688], [25.62233, 59.58047], [25.67677, 59.56607], [25.7059, 59.56928], [25.71852, 59.58759], [25.71078, 59.60456], [25.68484, 59.62865], [25.69068, 59.64936], [25.6707, 59.65551], [25.69468, 59.67087], [25.72534, 59.66583], [25.7805, 59.63569], [25.77312, 59.62824], [25.79371, 59.59121], [25.80738, 59.58047], [25.82618, 59.57526], [25.84449, 59.57734], [25.86134, 59.58613], [25.87623, 59.6009], [25.86885, 59.60773], [25.88308, 59.63132], [25.90445, 59.624], [25.94451, 59.59467], [25.96502, 59.59732], [25.96439, 59.6214], [25.98854, 59.63433], [26.03638, 59.62323], [26.07412, 59.60449], [26.08172, 59.58731], [26.28004, 59.58729], [26.3315, 59.57338], [26.36572, 59.51813], [26.38902, 59.44912], [26.38551, 59.37884], [26.36286, 59.3236], [26.37175, 59.31503], [26.4181, 59.31106], [26.50104, 59.31954], [26.5342, 59.31854], [26.60219, 59.29737], [26.75449, 59.2367], [26.82582, 59.21703], [26.92746, 59.2073], [27.24844, 59.19596], [27.26048, 59.19928], [27.26413, 59.20605], [27.19261, 59.36077], [27.18568, 59.44421], [27.40903, 59.45188], [27.56316, 59.43207], [27.71705, 59.42714], [27.8733, 59.40762], [27.91472, 59.41454], [27.95346, 59.42817], [27.98316, 59.44697], [28.01905, 59.48176], [28.05535, 59.5279], [28.0726, 59.57803], [28.05177, 59.62482], [28.01568, 59.65993], [27.99346, 59.70358], [28.00703, 59.75824], [28.05862, 59.78961], [28.08693, 59.79937], [28.12417, 59.79217], [28.18521, 59.75861], [28.22389, 59.69111], [28.33579, 59.66816], [28.37526, 59.66633], [28.40496, 59.68285], [28.41774, 59.7084], [28.41979, 59.76509], [28.48551, 59.74276], [28.58495, 59.69593], [28.67002, 59.63734], [28.76514, 59.58364], [28.80378, 59.55384], [28.8533, 59.50142], [28.86589, 59.49741], [28.88117, 59.50034], [28.89189, 59.51159], [28.86274, 59.55293], [28.86441, 59.5659], [28.9555, 59.60159], [29.04222, 59.61897], [29.12469, 59.61649], [29.33989, 59.5891], [29.6339, 59.53667], [29.85982, 59.47372], [29.9196, 59.46618], [29.96687, 59.46883], [30.02051, 59.51029], [30.04581, 59.54344], [30.05351, 59.56122], [30.0505, 59.58558], [30.02381, 59.59453], [29.88078, 59.59129], [29.83946, 59.59724], [29.8104, 59.6234], [29.77999, 59.68619], [30.81958, 59.53023], [31.81654, 59.3719], [33.26519, 59.13205], [34.40451, 58.93262], [35.82956, 58.67214], [36.85901, 58.47536], [38.4092, 58.16659], [39.653, 57.90543], [40.88772, 57.63655], [41.86595, 57.41472], [43.25655, 57.08765], [44.44867, 56.79371], [45.71022, 56.47059], [46.77916, 56.18479], [48.11063, 55.81433], [48.72452, 55.63742], [49.33304, 55.45765], [48.96403, 55.08395], [48.60224, 54.709], [48.24747, 54.33285], [47.84123, 53.89311], [47.49938, 53.51546], [47.1778, 53.15251], [46.83476, 52.75688], [46.51162, 52.37601], [46.12821, 51.91444], [45.80308, 51.51537], [45.47134, 51.09924], [45.14595, 50.68202], [44.83888, 50.27985], [44.50152, 49.82829], [44.18258, 49.39177], [43.85823, 48.93799], [43.47285, 48.38552], [43.09644, 47.83152], [42.63065, 47.12984], [42.22895, 46.50841], [41.88818, 45.96737], [41.56463, 45.44153], [41.07728, 44.63522], [40.55853, 43.76314], [40.61554, 43.53584], [40.65192, 43.53897], [40.68106, 43.52807], [40.74018, 43.49528], [40.84271, 43.46939], [40.87495, 43.45564], [40.96421, 43.40336], [40.774, 43.22162], [40.69957, 43.09263], [40.63624, 43.09247], [40.59155, 43.08571], [40.57994, 43.08882], [40.52019, 43.12726], [40.47853, 43.13403], [40.39828, 43.16234], [40.36118, 43.16547], [40.33513, 43.14087], [40.32505, 43.14884], [40.30104, 43.18867], [40.26842, 43.21638], [40.2728, 43.24799], [40.25717, 43.27741], [40.21909, 43.31904], [40.13348, 43.34163], [40.10133, 43.36518], [40.08692, 43.37031], [40.04079, 43.37581], [39.96258, 43.39266], [39.93337, 43.40669], [39.91034, 43.42642], [39.86793, 43.49567], [39.84693, 43.51], [39.75653, 43.54532], [39.71828, 43.56778], [39.69077, 43.61384], [39.61892, 43.64461], [39.57407, 43.68895], [39.45755, 43.77091], [39.39137, 43.84536], [39.32936, 43.89623], [39.11611, 44.02372], [39.08816, 44.04524], [39.06121, 44.07612], [39.04477, 44.08812], [39.02273, 44.09302], [39.01158, 44.10029], [38.97828, 44.14826], [38.93735, 44.16352], [38.87372, 44.17342], [38.85591, 44.18435], [38.75831, 44.27363], [38.69689, 44.29231], [38.59506, 44.33194], [38.30983, 44.36617], [38.28842, 44.38516], [38.21706, 44.38731], [38.17775, 44.406], [38.10808, 44.49706], [38.06302, 44.52406], [38.05616, 44.55899], [38.04493, 44.56118], [38.01189, 44.55233], [37.98456, 44.56428], [37.92808, 44.60595], [37.92263, 44.61376], [37.93621, 44.63426], [37.87485, 44.6894], [37.77849, 44.7298], [37.79054, 44.70588], [37.82242, 44.66816], [37.82015, 44.6479], [37.80005, 44.63525], [37.7693, 44.6324], [37.73624, 44.63575], [37.63185, 44.66901], [37.60108, 44.6684], [37.57716, 44.65535], [37.50896, 44.67528], [37.49844, 44.66852], [37.47829, 44.6772], [37.43653, 44.71678], [37.38601, 44.73677], [37.37112, 44.74788], [37.31788, 44.84618], [37.29251, 44.86763], [37.29251, 44.87506], [37.31129, 44.89086], [37.306, 44.90965], [37.28712, 44.92817], [37.19191, 44.99103], [37.13465, 45.00419], [37.10572, 45.02021], [37.06838, 45.03035], [37.03468, 45.04776], [36.94997, 45.06563], [36.8401, 45.10936], [36.79908, 45.11469], [36.74123, 45.10318], [36.70168, 45.10384], [36.64138, 45.12837], [36.59312, 45.16479], [36.57815, 45.18708], [36.57734, 45.19416], [36.5862, 45.20282], [36.59474, 45.20481], [36.70672, 45.20283], [36.72967, 45.20628], [36.78542, 45.23069], [36.84083, 45.23286], [36.85451, 45.24224], [36.87517, 45.2458], [36.93523, 45.26801], [36.96168, 45.28294], [36.97039, 45.30305], [36.96616, 45.31159], [36.94728, 45.32022], [36.94282, 45.31634], [36.78883, 45.29219], [36.76662, 45.31952], [36.75808, 45.35423], [36.77572, 45.3648], [36.8025, 45.31269], [36.81218, 45.31639], [36.8122, 45.34739], [36.8475, 45.36107], [36.8475, 45.36734], [36.80622, 45.37067], [36.78159, 45.38764], [36.74757, 45.38154], [36.72779, 45.37177], [36.68799, 45.3315], [36.66815, 45.32637], [36.66663, 45.3406], [36.7051, 45.39101], [36.83326, 45.44301], [36.84767, 45.43407], [36.89527, 45.42999], [37.06666, 45.35383], [37.13151, 45.34055], [37.1394, 45.33551], [37.11378, 45.31269], [37.10693, 45.27168], [37.07146, 45.26582], [37.06593, 45.26146], [37.07106, 45.24331], [37.07838, 45.23896], [37.11248, 45.23932], [37.16912, 45.25116], [37.2365, 45.25532], [37.25441, 45.27691], [37.31918, 45.27167], [37.30274, 45.28632], [37.27426, 45.29414], [37.17368, 45.30013], [37.16229, 45.30647], [37.15302, 45.32046], [37.15895, 45.32607], [37.34766, 45.32769], [37.37044, 45.3222], [37.38136, 45.30646], [37.39382, 45.31732], [37.43141, 45.32233], [37.51928, 45.36927], [37.50473, 45.33381], [37.54266, 45.34739], [37.58399, 45.34055], [37.60083, 45.33136], [37.60792, 45.31269], [37.58912, 45.30313], [37.56674, 45.29963], [37.59107, 45.28937], [37.60955, 45.29682], [37.6351, 45.33378], [37.65162, 45.31269], [37.71022, 45.30028], [37.72047, 45.29963], [37.73601, 45.30614], [37.73829, 45.3107], [37.69989, 45.33918], [37.7064, 45.35126], [37.72047, 45.357], [37.73756, 45.37474], [37.74773, 45.39399], [37.75807, 45.39521], [37.75807, 45.40205], [37.71707, 45.389], [37.72348, 45.41462], [37.70771, 45.43692], [37.70291, 45.45725], [37.74439, 45.44302], [37.74439, 45.45043], [37.68606, 45.48404], [37.70265, 45.54316], [37.69972, 45.56281], [37.64942, 45.58495], [37.64275, 45.6035], [37.6351, 45.6081], [37.62306, 45.60139], [37.6233, 45.58588], [37.6364, 45.57099], [37.66245, 45.56655], [37.66243, 45.55908], [37.6351, 45.55288], [37.65502, 45.50821], [37.65308, 45.50439], [37.64194, 45.50446], [37.64078, 45.45596], [37.61914, 45.41841], [37.60825, 45.41585], [37.58629, 45.43244], [37.59425, 45.47712], [37.5874, 45.60037], [37.59502, 45.63511], [37.60793, 45.66274], [37.62647, 45.66827], [37.63476, 45.66071], [37.6311, 45.649], [37.61459, 45.64228], [37.64193, 45.63543], [37.67091, 45.60969], [37.67888, 45.61079], [37.68232, 45.62799], [37.70289, 45.62177], [37.70069, 45.63467], [37.67605, 45.64912], [37.66685, 45.66901], [37.76337, 45.72458], [37.82944, 45.75316], [37.8611, 45.8061], [37.90212, 45.95098], [37.91873, 45.9914], [37.94013, 46.02033], [37.97186, 46.04002], [38.0376, 46.05648], [38.09748, 46.05781], [38.04705, 46.03856], [38.03248, 46.02521], [38.05486, 46.03266], [38.06623, 46.03254], [38.07397, 46.02521], [38.07226, 46.01374], [38.05144, 45.99262], [38.04184, 45.96109], [38.04615, 45.9536], [38.07797, 45.95208], [38.08033, 45.94636], [38.07301, 45.90876], [38.01531, 45.85761], [38.00123, 45.83259], [38.0145, 45.81843], [38.03956, 45.81607], [38.06031, 45.82661], [38.0469, 45.84089], [38.04983, 45.85488], [38.07398, 45.88182], [38.0975, 45.95074], [38.1211, 45.97134], [38.1312, 45.99006], [38.13894, 46.03009], [38.16277, 46.06], [38.16214, 46.10195], [38.1675, 46.1205], [38.24849, 46.1415], [38.27197, 46.13568], [38.31959, 46.09345], [38.35449, 46.08245], [38.40919, 46.04633], [38.44581, 46.03425], [38.48178, 46.03266], [38.52589, 46.03879], [38.54998, 46.0312], [38.55991, 46.03266], [38.5735, 46.0642], [38.57602, 46.08735], [38.57081, 46.10468], [38.55681, 46.11518], [38.30007, 46.21866], [38.28534, 46.23213], [38.27125, 46.27416], [38.21707, 46.30591], [38.1229, 46.37751], [38.08766, 46.39643], [38.06788, 46.40144], [37.98064, 46.40034], [37.97495, 46.39427], [37.97779, 46.38215], [38.0187, 46.36848], [37.99537, 46.35445], [37.97073, 46.36197], [37.90505, 46.41104], [37.86297, 46.45478], [37.82734, 46.47651], [37.75514, 46.64594], [37.73074, 46.66267], [37.73074, 46.67011], [37.73536, 46.66962], [37.73783, 46.67622], [37.85222, 46.6225], [37.8816, 46.62913], [37.92465, 46.61555], [37.98227, 46.6175], [38.03679, 46.62946], [38.07032, 46.64594], [38.1037, 46.67597], [38.12331, 46.68646], [38.21388, 46.69619], [38.27174, 46.73235], [38.31365, 46.67634], [38.46225, 46.64696], [38.57545, 46.6538], [38.59164, 46.65925], [38.59816, 46.67792], [38.58578, 46.69587], [38.56674, 46.70995], [38.51344, 46.73249], [38.47055, 46.74348], [38.42799, 46.74486], [38.38933, 46.73159], [38.37819, 46.70818], [38.36819, 46.75544], [38.403, 46.77998], [38.40302, 46.82095], [38.43532, 46.84674], [38.47462, 46.86187], [38.55307, 46.84829], [38.60906, 46.85968], [38.69093, 46.86384], [38.76629, 46.88678], [38.80372, 46.89354], [38.86574, 46.94293], [38.93735, 46.94746], [38.99138, 46.97797], [39.03632, 47.01365], [39.06023, 47.02172], [39.07521, 47.03265], [39.09741, 47.02903], [39.10499, 47.01679], [39.11492, 47.01276], [39.12672, 47.01382], [39.15309, 47.02634], [39.26189, 47.00861], [39.28004, 47.01276], [39.2894, 47.02729], [39.30356, 47.0847], [39.32505, 47.09877], [39.36785, 47.10615], [39.38868, 47.11518], [39.35467, 47.13105], [39.32936, 47.12836], [39.28007, 47.08786], [39.26492, 47.09663], [39.26199, 47.10761], [39.2732, 47.13565], [39.25458, 47.14013], [39.24921, 47.14814], [39.25259, 47.18013], [39.25605, 47.18976], [39.27296, 47.1918], [39.28004, 47.19709], [39.28004, 47.23526], [39.26401, 47.26081], [39.18605, 47.26875], [39.15651, 47.27969], [39.13884, 47.27343], [39.08814, 47.28644], [39.01343, 47.25447], [38.97682, 47.2569], [38.94459, 47.25275], [38.93051, 47.22162], [38.93774, 47.18977], [38.93164, 47.18501], [38.88657, 47.18146], [38.84742, 47.16357], [38.77223, 47.16356], [38.64496, 47.13773], [38.55307, 47.13565], [38.56803, 47.12201], [38.56803, 47.11519], [38.51743, 47.11905], [38.49294, 47.12809], [38.47806, 47.14248], [38.49439, 47.14899], [38.50961, 47.17162], [38.53102, 47.18232], [38.55991, 47.21821], [38.59262, 47.22968], [38.77564, 47.24551], [38.80779, 47.26264], [38.82114, 47.27631], [38.82065, 47.28644], [38.8104, 47.28783], [38.78289, 47.2591], [38.59457, 47.24128], [38.5534, 47.2298], [38.51905, 47.21076], [38.5005, 47.18159], [38.46266, 47.16181], [38.44897, 47.14029], [38.42757, 47.1335], [38.26539, 47.1188], [38.22413, 47.10834], [38.1963, 47.0895], [38.14225, 47.03767], [38.10811, 47.02637], [38.13038, 47.05842], [38.13006, 47.07465], [38.10435, 47.08162], [38.07154, 47.0998], [38.02621, 47.08162], [37.96209, 47.09593], [37.95045, 47.09127], [37.86109, 47.10151], [37.75326, 47.07527], [37.70994, 47.07421], [37.58074, 47.0904], [37.5464, 47.08161], [37.48292, 47.03596], [37.37794, 46.93391], [37.3352, 46.88248], [37.31302, 46.87557], [37.31739, 46.90082], [37.29542, 46.92023], [37.26075, 46.93269], [37.22706, 46.937], [37.20818, 46.93358], [37.16228, 46.90909], [37.02882, 46.87556], [36.9846, 46.85238], [36.93881, 46.8395], [36.88623, 46.80403], [36.85369, 46.80048], [36.86237, 46.77673], [36.8296, 46.73188], [36.81215, 46.68039], [36.7937, 46.65364], [36.76929, 46.63741], [36.74384, 46.64217], [36.74384, 46.64959], [36.77166, 46.64346], [36.79029, 46.67129], [36.8025, 46.72476], [36.75807, 46.75886], [36.69606, 46.77997], [36.67921, 46.77303], [36.63396, 46.77997], [36.61704, 46.77668], [36.59001, 46.75887], [36.5241, 46.75886], [36.48267, 46.74169], [36.43246, 46.73485], [36.40016, 46.72394], [36.3711, 46.70844], [36.30348, 46.65925], [36.28435, 46.63642], [36.27832, 46.60742], [36.27086, 46.60742], [36.26759, 46.62556], [36.2479, 46.61904], [36.24578, 46.61085], [36.24075, 46.61994], [36.24431, 46.63532], [36.23065, 46.64216], [36.21664, 46.65868], [36.18946, 46.66901], [36.13445, 46.66268], [36.06202, 46.67011], [35.92589, 46.65233], [35.90162, 46.65274], [35.77117, 46.60126], [35.74195, 46.58442], [35.62866, 46.49849], [35.49147, 46.44798], [35.44527, 46.40585], [35.38014, 46.36848], [35.28465, 46.25937], [35.26352, 46.24226], [35.20969, 46.17014], [35.18445, 46.14528], [35.16179, 46.12825], [35.1211, 46.11848], [35.09652, 46.1042], [35.06227, 46.09862], [35.00001, 46.07365], [34.98212, 46.07783], [34.98538, 46.08747], [35.01711, 46.11277], [35.05193, 46.12824], [35.04446, 46.14191], [35.14894, 46.16413], [35.20045, 46.18301], [35.29136, 46.29336], [35.32781, 46.31924], [35.34213, 46.33576], [35.34604, 46.36103], [35.31153, 46.33764], [35.29176, 46.33642], [35.2676, 46.35107], [35.25861, 46.3736], [35.26451, 46.3998], [35.28452, 46.4374], [35.25051, 46.44356], [35.21457, 46.46267], [35.19142, 46.49429], [35.18832, 46.51244], [35.16668, 46.49315], [35.174, 46.47333], [35.20198, 46.44049], [35.2137, 46.41181], [35.20947, 46.39643], [35.20149, 46.38533], [35.16782, 46.36103], [35.10812, 46.29753], [35.07503, 46.27107], [35.03076, 46.25179], [34.92653, 46.23506], [34.91388, 46.2383], [34.9048, 46.25568], [34.89357, 46.25178], [34.88216, 46.22175], [34.83888, 46.20767], [34.81597, 46.18097], [34.81291, 46.17135], [34.81912, 46.1417], [34.82423, 46.07795], [34.83862, 46.04734], [34.87436, 45.92609], [34.90521, 45.88831], [34.95818, 45.78954], [35.04444, 45.67007], [35.3322, 45.37124], [35.48072, 45.2978], [35.51783, 45.29548], [35.695, 45.33039], [35.71599, 45.34056], [35.74334, 45.36107], [35.75295, 45.38641], [35.76743, 45.38898], [35.78842, 45.40746], [35.80398, 45.44916], [35.81716, 45.46405], [35.83327, 45.47088], [35.85766, 45.46942], [35.86002, 45.45954], [35.84693, 45.42626], [35.85402, 45.41401], [35.94663, 45.37214], [35.98601, 45.36274], [36.02231, 45.36811], [36.05177, 45.39521], [36.06887, 45.42999], [36.11794, 45.45709], [36.13746, 45.46205], [36.25245, 45.46149], [36.28403, 45.47662], [36.29997, 45.47333], [36.30737, 45.46092], [36.29884, 45.44302], [36.3117, 45.44351], [36.34051, 45.45725], [36.41179, 45.43623], [36.47055, 45.44577], [36.49025, 45.44306], [36.53297, 45.40892], [36.5486, 45.4123], [36.56667, 45.42519], [36.58326, 45.42738], [36.61353, 45.40888], [36.63834, 45.35127], [36.63086, 45.34057], [36.58655, 45.33382], [36.54518, 45.3474], [36.52182, 45.34992], [36.50245, 45.34687], [36.48927, 45.33633], [36.48439, 45.31639], [36.49723, 45.30073], [36.49071, 45.29236], [36.45037, 45.28535], [36.43109, 45.25855], [36.41798, 45.22993], [36.40887, 45.14948], [36.41481, 45.12836], [36.45532, 45.09162], [36.45336, 45.07649], [36.44011, 45.06746], [36.36785, 45.04879], [36.26775, 45.04369], [36.25782, 45.03897], [36.2443, 45.01098], [36.22462, 45.00752], [36.136, 45.02144], [36.07911, 45.04637], [36.07911, 45.03898], [36.04786, 45.04877], [36.0254, 45.0329], [35.99341, 44.998], [35.91684, 45.00141], [35.84799, 44.99243], [35.82782, 44.99922], [35.813, 45.03164], [35.78321, 45.05752], [35.70639, 45.09467], [35.63404, 45.11469], [35.59059, 45.11986], [35.54737, 45.1197], [35.5062, 45.11351], [35.46957, 45.10102], [35.40805, 45.06249], [35.39731, 45.03506], [35.40064, 45.02464], [35.43538, 45.01097], [35.43538, 45.00483], [35.42213, 45.00045], [35.38942, 45.00194], [35.37403, 44.99799], [35.36215, 44.98656], [35.36718, 44.94337], [35.31935, 44.97004], [35.29819, 44.95638], [35.2732, 44.96699], [35.25603, 44.95869], [35.23315, 44.92569], [35.21509, 44.91438], [35.15431, 44.90111], [35.12973, 44.8686], [35.10839, 44.82494], [35.08081, 44.79378], [35.03762, 44.79878], [35.00571, 44.83519], [34.95249, 44.84154], [34.93019, 44.83613], [34.90788, 44.82051], [34.89023, 44.81814], [34.85719, 44.82372], [34.82651, 44.81185], [34.75701, 44.8205], [34.72096, 44.81098], [34.65064, 44.7773], [34.61335, 44.7653], [34.53321, 44.75292], [34.50001, 44.74262], [34.47527, 44.72363], [34.47332, 44.73029], [34.46901, 44.7298], [34.41432, 44.67377], [34.38022, 44.63133], [34.3313, 44.54549], [34.27101, 44.54548], [34.24292, 44.50748], [34.22982, 44.49991], [34.18246, 44.49282], [34.14746, 44.4499], [34.10281, 44.42525], [34.06577, 44.41962], [33.95815, 44.3831], [33.93776, 44.38106], [33.85206, 44.40152], [33.80763, 44.39469], [33.74088, 44.39596], [33.64565, 44.42502], [33.6317, 44.43432], [33.62013, 44.46223], [33.57838, 44.49706], [33.51759, 44.49056], [33.48715, 44.51032], [33.37966, 44.56453], [33.37244, 44.5763], [33.37113, 44.58842], [33.37501, 44.58539], [33.40545, 44.59024], [33.43589, 44.60528], [33.47739, 44.60663], [33.50001, 44.61391], [33.55112, 44.61465], [33.57154, 44.62055], [33.52516, 44.62885], [33.5163, 44.63427], [33.51483, 44.64911], [33.5442, 44.68268], [33.54835, 44.69868], [33.52516, 44.77241], [33.5163, 44.7851], [33.52768, 44.7932], [33.54597, 44.83668], [33.55939, 44.84958], [33.59832, 44.85932], [33.60922, 44.87173], [33.61988, 44.90864], [33.61964, 44.93146], [33.60564, 44.98745], [33.58513, 45.01868], [33.56251, 45.09394], [33.53745, 45.11738], [33.46909, 45.14884], [33.41342, 45.18452], [33.3965, 45.18977], [33.35515, 45.18574], [33.25962, 45.15609], [33.24008, 45.17963], [33.17337, 45.19675], [33.1233, 45.23786], [33.09849, 45.24812], [33.07862, 45.27167], [33.04323, 45.28535], [32.9406, 45.34252], [32.89926, 45.35423], [32.75017, 45.36335], [32.72853, 45.36107], [32.66309, 45.32015], [32.59149, 45.32015], [32.53541, 45.33804], [32.51288, 45.34057], [32.48163, 45.40888], [32.49514, 45.43553], [32.52497, 45.45802], [32.64357, 45.52167], [32.70484, 45.53107], [32.73471, 45.5454], [32.75783, 45.56463], [32.77332, 45.56651], [32.81398, 45.55907], [32.82789, 45.5624], [32.82701, 45.59552], [32.86845, 45.6302], [32.93678, 45.6625], [33.17612, 45.74311], [33.181, 45.75519], [33.15921, 45.7685], [33.16067, 45.77879], [33.1692, 45.7844], [33.19483, 45.76512], [33.23015, 45.75092], [33.26539, 45.75381], [33.33815, 45.78563], [33.37428, 45.79654], [33.41001, 45.8266], [33.4819, 45.85439], [33.50766, 45.84296], [33.53012, 45.84186], [33.55421, 45.84707], [33.57839, 45.86814], [33.61988, 45.88181], [33.6419, 45.87587], [33.65895, 45.85932], [33.69166, 45.86075], [33.69355, 45.91448], [33.70867, 45.90974], [33.77703, 45.92963], [33.73959, 45.94782], [33.68246, 45.95844], [33.65724, 45.95694], [33.63201, 45.94442], [33.6199, 45.95075], [33.64682, 45.97972], [33.63202, 45.98827], [33.63113, 45.99653], [33.64356, 46.01496], [33.62796, 46.06781], [33.64845, 46.09003], [33.64357, 46.10468], [33.61345, 46.14521], [33.59653, 46.15575], [33.57154, 46.14936], [33.53248, 46.12153], [33.53126, 46.10688], [33.55786, 46.09471], [33.55786, 46.08732], [33.50563, 46.08027], [33.49578, 46.06786], [33.51626, 46.04634], [33.48553, 46.05317], [33.42384, 46.0533], [33.38429, 46.08759], [33.3565, 46.104], [33.33107, 46.10749], [33.3108, 46.08732], [33.30584, 46.09235], [33.29032, 46.09472], [33.31772, 46.1197], [33.31568, 46.13101], [33.29347, 46.13569], [33.21463, 46.12825], [33.22535, 46.15412], [33.23512, 46.22382], [33.21192, 46.20628], [33.17505, 46.15315], [33.12289, 46.1359], [33.10329, 46.13838], [33.02345, 46.16987], [33.03247, 46.14102], [33.01823, 46.12768], [32.89955, 46.11522], [32.88266, 46.12067], [32.84482, 46.12138], [32.78981, 46.13434], [32.76629, 46.13569], [32.71404, 46.12007], [32.58823, 46.1044], [32.54371, 46.08048], [32.50343, 46.07613], [32.30285, 46.11661], [32.28053, 46.12759], [32.26248, 46.12825], [32.24197, 46.17666], [32.26092, 46.18862], [32.2693, 46.20458], [32.23927, 46.19526], [32.21315, 46.19307], [32.12868, 46.20971], [32.11542, 46.21455], [32.07789, 46.2495], [32.05014, 46.26606], [32.01781, 46.25761], [31.96844, 46.27571], [31.88575, 46.32001], [31.88989, 46.28384], [31.88233, 46.27913], [31.81919, 46.2806], [31.78591, 46.2924], [31.77249, 46.30269], [31.76736, 46.31818], [31.77997, 46.33177], [31.79982, 46.34222], [31.83741, 46.34954], [31.89259, 46.34113], [31.96827, 46.35106], [32.02964, 46.38897], [32.06186, 46.39378], [32.05356, 46.40599], [32.00782, 46.44896], [31.99171, 46.45356], [31.9546, 46.451], [31.91066, 46.45589], [31.74855, 46.49994], [31.72641, 46.50088], [31.7107, 46.49543], [31.69028, 46.47858], [31.68652, 46.42993], [31.66358, 46.47211], [31.6412, 46.48226], [31.52468, 46.56402], [31.50835, 46.58756], [31.58155, 46.54523], [31.75636, 46.55426], [31.79021, 46.54726], [31.86183, 46.51927], [31.94711, 46.51926], [32.03346, 46.50629], [32.11197, 46.51239], [32.22152, 46.49542], [32.27613, 46.47089], [32.31756, 46.46434], [32.36101, 46.46686], [32.39967, 46.47834], [32.42701, 46.49885], [32.40839, 46.51728], [32.43574, 46.54315], [32.52476, 46.59271], [32.57097, 46.59642], [32.58839, 46.60432], [32.6338, 46.63312], [32.64552, 46.6496], [32.56739, 46.61849], [32.54371, 46.62173], [32.40902, 46.56892], [32.33579, 46.56217], [32.26931, 46.5876], [32.24822, 46.60741], [32.21126, 46.5877], [32.16993, 46.58076], [32.14633, 46.56026], [32.13211, 46.5703], [32.11793, 46.60688], [32.10108, 46.6149], [32.02281, 46.62914], [31.97997, 46.67685], [31.97071, 46.71288], [31.94026, 46.75909], [31.93622, 46.80036], [31.95477, 46.83144], [31.9817, 46.86034], [32.00245, 46.89545], [32.0075, 46.91523], [32.00668, 46.93049], [31.99594, 46.94038], [31.94606, 46.94669], [31.9359, 46.95482], [31.93922, 46.96796], [31.9769, 47.00934], [31.97096, 47.01634], [31.9437, 47.01895], [31.88114, 47.01504], [31.86526, 47.02636], [31.89324, 47.06843], [31.89682, 47.09272], [31.88234, 47.1186], [31.84556, 47.13403], [31.83058, 47.18675], [31.81674, 47.19709], [31.75766, 47.21621], [31.74855, 47.22846], [31.75213, 47.25585], [31.74171, 47.2591], [31.72055, 47.23188], [31.72682, 47.22053], [31.76173, 47.20051], [31.80616, 47.19269], [31.81625, 47.18085], [31.8156, 47.12263], [31.82, 47.11709], [31.84473, 47.11297], [31.87428, 47.09382], [31.86645, 47.07706], [31.84474, 47.0537], [31.83741, 47.00845], [31.86899, 46.99885], [31.91407, 47.00308], [31.9471, 46.99908], [31.91774, 46.97626], [31.90431, 46.96052], [31.89943, 46.94383], [31.90772, 46.92646], [31.92563, 46.92292], [31.96827, 46.937], [31.97277, 46.91515], [31.96337, 46.88569], [31.94507, 46.85953], [31.92318, 46.84831], [31.89861, 46.84292], [31.87745, 46.82827], [31.86476, 46.80659], [31.86525, 46.77998], [31.90673, 46.73823], [31.89942, 46.694], [31.90852, 46.66275], [31.89941, 46.64961], [31.85866, 46.62922], [31.81471, 46.62304], [31.7715, 46.62752], [31.67408, 46.65323], [31.61443, 46.6496], [31.59718, 46.64322], [31.57854, 46.6173], [31.55682, 46.61491], [31.53452, 46.62718], [31.49302, 46.62874], [31.48505, 46.63228], [31.48098, 46.64643], [31.4909, 46.6634], [31.54615, 46.72761], [31.56023, 46.74909], [31.55984, 46.75885], [31.61818, 46.81346], [31.60613, 46.8264], [31.584, 46.79365], [31.54933, 46.77998], [31.52276, 46.75015], [31.50831, 46.7452], [31.48162, 46.75886], [31.45606, 46.79605], [31.44068, 46.80048], [31.45582, 46.75458], [31.50211, 46.72772], [31.50585, 46.7204], [31.47819, 46.68379], [31.46266, 46.67524], [31.41618, 46.62914], [31.39666, 46.62604], [31.33766, 46.60128], [31.28297, 46.6149], [31.27556, 46.60742], [31.25668, 46.6164], [31.18686, 46.62914], [31.15952, 46.62897], [31.10816, 46.61775], [30.99138, 46.60126], [30.95923, 46.58341], [30.93914, 46.58771], [30.92604, 46.5843], [30.8666, 46.55574], [30.8545, 46.55342], [30.80258, 46.56025], [30.7907, 46.55292], [30.75489, 46.51586], [30.78207, 46.45722], [30.79817, 46.44644], [30.78354, 46.43085], [30.77246, 46.39643], [30.71452, 46.34798], [30.66066, 46.3509], [30.65187, 46.34455], [30.68652, 46.32001], [30.68238, 46.29955], [30.65349, 46.25959], [30.58351, 46.19033], [30.56161, 46.16145], [30.52328, 46.13377], [30.49414, 46.08048], [30.37127, 45.99795], [30.26168, 45.89575], [30.2046, 45.85569], [30.13846, 45.81979], [30.13526, 45.88915], [30.12745, 45.89134], [30.11061, 45.87507], [30.09457, 45.81485], [30.08671, 45.81355], [30.07244, 45.82099], [30.06121, 45.81348], [30.01466, 45.83967], [29.99073, 45.84707], [29.96852, 45.83894], [29.95288, 45.77199], [29.93238, 45.79243], [29.93914, 45.81045], [29.93507, 45.81615], [29.92628, 45.81379], [29.91871, 45.79987], [29.92237, 45.76944], [29.93929, 45.75153], [29.93238, 45.72422], [29.91969, 45.74055], [29.89822, 45.75154], [29.89617, 45.76362], [29.88771, 45.76512], [29.87403, 45.75154], [29.82374, 45.74763], [29.80242, 45.73749], [29.79575, 45.71735], [29.80323, 45.70417], [29.84302, 45.69065], [29.86499, 45.67234], [29.80958, 45.64859], [29.78907, 45.65526], [29.78386, 45.64663], [29.78907, 45.63544], [29.74594, 45.62263], [29.73375, 45.61435], [29.73504, 45.64057], [29.72397, 45.66743], [29.70525, 45.68842], [29.68264, 45.69685], [29.67922, 45.75153], [29.69386, 45.78132], [29.68043, 45.79828], [29.65333, 45.81387], [29.64283, 45.82722], [29.63819, 45.82632], [29.63136, 45.81354], [29.65185, 45.78901], [29.62957, 45.7635], [29.62273, 45.73623], [29.63752, 45.70991], [29.6032, 45.69131], [29.59718, 45.65229], [29.59936, 45.60444], [29.58969, 45.55907], [29.62908, 45.5467], [29.64845, 45.5454], [29.66684, 45.54816], [29.70695, 45.57323], [29.66162, 45.52587], [29.63803, 45.51386], [29.62671, 45.49507], [29.60515, 45.48701], [29.60572, 45.47818], [29.6211, 45.45441], [29.6408, 45.4418], [29.65187, 45.44302], [29.65632, 45.47424], [29.67236, 45.47711], [29.6753, 45.44961], [29.68653, 45.45356], [29.68589, 45.45725], [29.70215, 45.4566], [29.70867, 45.45279], [29.71323, 45.43622], [29.72447, 45.46816], [29.73227, 45.47572], [29.74739, 45.46344], [29.75585, 45.42789], [29.74779, 45.41429], [29.72771, 45.41568], [29.74187, 45.40453], [29.75016, 45.38581], [29.75618, 45.32156], [29.72975, 45.25812], [29.72973, 45.23774], [29.69211, 45.21669], [29.67449, 45.21358], [29.62387, 45.2165], [29.64975, 45.1778], [29.667, 45.16421], [29.69953, 45.1618], [29.67652, 45.1446], [29.6644, 45.11693], [29.65625, 45.02896], [29.63754, 44.98371], [29.63091, 44.93886], [29.62387, 44.9291], [29.63037, 44.90766], [29.60515, 44.88003], [29.61783, 44.86148], [29.61116, 44.84932], [29.58351, 44.84028], [29.56178, 44.82027], [29.542, 44.82783], [29.51058, 44.82046], [29.31621, 44.79881], [29.19207, 44.79287], [29.1561, 44.78441], [29.05584, 44.73518], [29.02638, 44.71467], [29.00073, 44.68892], [28.99391, 44.69636], [28.99488, 44.71113], [28.97496, 44.74493], [29.09815, 44.77538], [29.12062, 44.78657], [29.13868, 44.80402], [29.1447, 44.82665], [29.13884, 44.83918], [29.09636, 44.87507], [29.10375, 44.84029], [29.0879, 44.84272], [29.06032, 44.83236], [29.04861, 44.84716], [29.0442, 44.86523], [29.04177, 44.92568], [29.0521, 44.94464], [29.09881, 44.95698], [29.11061, 44.97004], [29.10174, 44.98029], [29.05828, 45.00096], [28.98325, 45.01227], [28.97283, 45.01097], [28.96021, 44.98771], [28.91684, 44.97968], [28.86939, 44.94334], [28.86354, 44.92231], [28.87662, 44.90485], [28.86354, 44.89155], [28.87355, 44.87499], [28.90405, 44.86273], [28.95238, 44.82665], [28.93971, 44.81688], [28.92498, 44.81306], [28.93873, 44.806], [28.93872, 44.79878], [28.92628, 44.79296], [28.92547, 44.78368], [28.94611, 44.7652], [28.92414, 44.75785], [28.86883, 44.75357], [28.79835, 44.7202], [28.78712, 44.6933], [28.79371, 44.68789], [28.80834, 44.69633], [28.8042, 44.68424], [28.78541, 44.67967], [28.78403, 44.64924], [28.79249, 44.64472], [28.84555, 44.65156], [28.86948, 44.66181], [28.91196, 44.69636], [28.89774, 44.71677], [28.96745, 44.70098], [28.98341, 44.69261], [28.98748, 44.67508], [28.97933, 44.65535], [28.96228, 44.63957], [28.93902, 44.63433], [28.97267, 44.67023], [28.97535, 44.68684], [28.9524, 44.69636], [28.95777, 44.67878], [28.93873, 44.67525], [28.91822, 44.68268], [28.90454, 44.66841], [28.85417, 44.63436], [28.77418, 44.60077], [28.79469, 44.63426], [28.76694, 44.63373], [28.75782, 44.62678], [28.75367, 44.61376], [28.76677, 44.61375], [28.76059, 44.6037], [28.76441, 44.59589], [28.78781, 44.58649], [28.74806, 44.57779], [28.73268, 44.56786], [28.73268, 44.55231], [28.74692, 44.56598], [28.77416, 44.55231], [28.75343, 44.5135], [28.74562, 44.48615], [28.75026, 44.4667], [28.75847, 44.46528], [28.77198, 44.48371], [28.77835, 44.50739], [28.80836, 44.52505], [28.85565, 44.56768], [28.89243, 44.57705], [28.90626, 44.58771], [28.92494, 44.62046], [28.9095, 44.58397], [28.844, 44.49373], [28.79672, 44.46792], [28.70655, 44.38105], [28.69312, 44.34615], [28.68019, 44.35334], [28.6644, 44.34837], [28.64088, 44.32856], [28.63234, 44.30244], [28.63103, 44.26435], [28.63757, 44.24893], [28.57384, 44.31459], [28.53574, 44.37912], [28.52323, 44.41373], [28.51256, 44.50307], [28.51515, 44.5426], [28.52848, 44.59843], [28.50341, 44.66833], [28.49802, 44.70402], [28.50177, 44.78031], [28.42142, 44.83113], [28.35626, 44.89201], [28.36021, 44.95632], [28.37267, 45.01134], [28.38446, 45.04578], [28.39305, 45.06214], [28.53823, 45.26253], [28.49416, 45.27889], [28.40517, 45.29507], [28.37024, 45.30922], [28.35329, 45.31243], [28.33024, 45.32292], [28.31081, 45.34783], [28.2812, 45.40183], [28.28642, 45.42173], [28.26688, 45.44048], [28.25608, 45.44476], [28.27932, 45.49214], [28.27092, 45.59148], [28.16798, 45.63246], [28.16177, 45.64543], [28.16374, 45.6615], [28.15495, 45.76181], [28.12891, 45.79504], [28.1133, 45.82537], [28.11051, 45.85431], [28.13108, 45.87136], [28.11744, 45.89524], [28.12498, 45.91839], [28.11485, 45.93322], [28.11051, 45.95043], [28.08612, 46.00055], [28.08271, 46.01471], [28.09687, 46.05967], [28.09656, 46.06504], [28.09046, 46.06799], [28.09015, 46.07336], [28.09284, 46.07838], [28.1008, 46.082], [28.12736, 46.13533], [28.13325, 46.15997], [28.14472, 46.18323], [28.14152, 46.19196], [28.11098, 46.2256], [28.10896, 46.23413], [28.13211, 46.23992], [28.13449, 46.24534], [28.13108, 46.2624], [28.13521, 46.26932], [28.16575, 46.27883], [28.17779, 46.28705], [28.19288, 46.31123], [28.18792, 46.34379], [28.19035, 46.35107], [28.20239, 46.35392], [28.20715, 46.35815], [28.21293, 46.38869], [28.22864, 46.39611], [28.23329, 46.40177], [28.22606, 46.41536], [28.24022, 46.42027], [28.24606, 46.42786], [28.2458, 46.47551], [28.23412, 46.47807], [28.2211, 46.49577], [28.21903, 46.50373], [28.2211, 46.54119], [28.22477, 46.54874], [28.23412, 46.55313], [28.22544, 46.56956], [28.2305, 46.5839], [28.24714, 46.60716], [28.24735, 46.62082], [28.23412, 46.66242], [28.1781, 46.73984], [28.17816, 46.75865], [28.1378, 46.80624], [28.12152, 46.8343], [28.12426, 46.86164], [28.1131, 46.87143], [28.11356, 46.89476], [28.09687, 46.90262], [28.10545, 46.91768], [28.1023, 46.93512], [28.08271, 46.97153], [28.06907, 46.9885], [28.03703, 47.01646], [28.02804, 47.03297], [28.0083, 47.0263], [27.96313, 47.04338], [27.93874, 47.04664], [27.93843, 47.06106], [27.8976, 47.08142], [27.86701, 47.10464], [27.84376, 47.11439], [27.84986, 47.12172], [27.84986, 47.12852], [27.80655, 47.14462], [27.79466, 47.15583], [27.80588, 47.15823], [27.80769, 47.16247], [27.78831, 47.20428], [27.75239, 47.23893], [27.75363, 47.25143], [27.73327, 47.27562], [27.72284, 47.28332], [27.69782, 47.2875], [27.67173, 47.29985], [27.63695, 47.30667], [27.62403, 47.32143], [27.59995, 47.36073], [27.57235, 47.3752], [27.58031, 47.406], [27.56253, 47.41654], [27.56936, 47.43855], [27.57478, 47.44625], [27.583, 47.45067], [27.57587, 47.46041], [27.54817, 47.47426], [27.53453, 47.47798], [27.50724, 47.47798], [27.47313, 47.49178], [27.45949, 47.53322], [27.44213, 47.53663], [27.44027, 47.5501], [27.42838, 47.58102], [27.39707, 47.58909], [27.36916, 47.60831], [27.30405, 47.66655], [27.2811, 47.69301], [27.27201, 47.71497], [27.29506, 47.71817], [27.29506, 47.72443], [27.28958, 47.73169], [27.29113, 47.74241], [27.28751, 47.75233], [27.26467, 47.76455], [27.24488, 47.79259], [27.23108, 47.80708], [27.2192, 47.81378], [27.25341, 47.82809], [27.24581, 47.83659], [27.21238, 47.84793], [27.21238, 47.88951], [27.19419, 47.90405], [27.17155, 47.91263], [27.1607, 47.92173], [27.17827, 47.93793], [27.17827, 47.94413], [27.15098, 47.9578], [27.16287, 47.96501], [27.16979, 47.97379], [27.16876, 47.98307], [27.15718, 47.99196], [27.14375, 47.98684], [27.12148, 48.01319], [27.09579, 48.0056], [27.08897, 48.01981], [27.10933, 48.02609], [27.10933, 48.0335], [27.08318, 48.04366], [27.05921, 48.05805], [27.04174, 48.07727], [27.0343, 48.10177], [27.04742, 48.1165], [27.04804, 48.12223], [27.0251, 48.13505], [27.0127, 48.12812], [26.9666, 48.14337], [26.69325, 47.98865], [26.40424, 47.92907], [26.16207, 47.52989], [26.25704, 47.75921], [26.12572, 47.97842], [26.17306, 47.99314], [26.20479, 48.03738], [26.25533, 48.07234], [26.27073, 48.0936], [26.28695, 48.12471], [26.2975, 48.15634], [26.29615, 48.179], [26.30349, 48.21204], [26.10409, 48.40548], [26.0909, 48.45738], [26.08793, 48.52904], [26.0981, 48.59858], [26.16657, 48.83261], [26.17163, 48.89029], [26.16451, 48.95102], [26.13239, 49.03952], [26.08197, 49.12339], [26.01515, 49.21533], [25.89349, 49.35164], [25.81976, 49.41813], [25.74371, 49.47343], [25.67862, 49.50772], [25.62977, 49.52414], [25.53664, 49.5384], [25.3822, 49.54412], [25.2852, 49.55482], [25.15659, 49.58542], [25.0746, 49.61569], [25.00904, 49.65241], [24.98462, 49.67461], [24.90157, 49.80638], [24.85575, 49.8451], [24.76995, 49.87498], [24.61365, 49.90383], [24.54538, 49.92919], [24.47071, 49.97809], [24.27701, 50.13892], [24.17624, 50.21173], [23.98131, 50.40478], [23.9287, 50.39083], [23.74752, 50.38938], [23.69574, 50.37677], [23.6822, 50.36824], [23.67125, 50.35357], [23.65802, 50.32561], [23.64417, 50.31269], [23.56531, 50.25781], [23.43643, 50.19348], [23.20792, 50.03395], [23.17784, 50.00398], [23.14125, 49.98548], [23.10146, 49.95711], [23.06602, 49.9236], [22.73706, 50.06284], [22.64892, 50.1056], [22.41579, 50.23654], [22.2575, 50.33567], [22.18267, 50.38909], [22.0469, 50.50301], [21.90359, 50.50673], [21.82618, 50.5021], [21.66964, 50.48017], [21.50588, 50.44178], [21.41792, 50.41581], [21.27892, 50.36235], [20.98016, 50.22719], [20.86112, 50.18572], [20.74279, 50.15998], [20.62834, 50.15686], [20.51869, 50.18302], [20.45346, 50.21696], [20.4042, 50.25535], [20.32684, 50.33141], [20.28394, 50.36283], [20.22794, 50.38616], [20.15211, 50.39823], [20.04929, 50.39602], [19.9796, 50.38625], [19.77944, 50.3451], [19.71619, 50.34074], [19.65658, 50.34774], [19.6001, 50.3702], [19.5476, 50.41214], [19.51596, 50.45446], [19.4942, 50.50114], [19.4519, 50.64994], [19.43218, 50.69874], [19.40377, 50.74409], [19.36201, 50.78602], [19.30089, 50.82884], [19.14619, 50.90635], [19.10634, 50.93224], [19.07242, 50.96715], [19.04425, 51.01708], [18.99026, 51.21059], [18.9466, 51.30362], [18.91482, 51.34427], [18.87337, 51.38411], [18.69566, 51.5093], [18.59724, 51.59226], [18.51376, 51.68258], [18.44089, 51.77872], [18.26453, 52.03875], [18.20193, 52.10421], [18.11458, 52.17763], [18.09831, 52.19713], [18.09071, 52.21815], [18.09281, 52.24312], [18.1058, 52.27495], [18.13136, 52.31648], [18.18888, 52.38389], [18.26386, 52.44804], [18.3519, 52.50915], [18.44845, 52.56734], [18.82889, 52.77471], [19.02679, 52.89839], [19.31773, 53.08985], [19.44091, 53.15488], [19.50631, 53.18372], [19.63539, 53.22567], [19.69519, 53.23539], [19.75222, 53.23733], [19.86409, 53.22651], [20.08402, 53.19125], [20.1417, 53.18868], [20.21032, 53.19237], [20.27025, 53.20204], [20.37349, 53.23507], [20.5748, 53.33551], [20.66503, 53.37329], [20.74127, 53.39326], [20.80836, 53.39885], [20.87099, 53.39345], [21.07949, 53.34545], [21.17227, 53.3301], [21.29735, 53.32174], [21.42979, 53.32723], [21.56056, 53.34484], [21.62112, 53.35797], [21.55907, 53.25941], [21.56231, 53.25117], [21.57557, 53.24821], [21.76879, 53.39567], [21.79602, 53.40365], [21.82396, 53.28897], [21.83331, 53.2827], [21.84838, 53.28434], [21.88984, 53.41645], [22.15076, 53.20892], [22.16062, 53.20542], [22.17286, 53.20768], [22.17679, 53.21737], [22.02221, 53.46792], [22.37324, 53.47749], [22.37724, 53.48475], [22.3691, 53.49164], [22.13961, 53.54475], [22.20464, 53.57839], [22.33862, 53.66094], [22.39942, 53.70432], [22.52158, 53.80969], [22.58193, 53.8534], [22.61211, 53.72344], [22.62716, 53.72132], [22.63713, 53.72728], [22.67982, 53.85391], [22.9362, 53.64495], [22.95608, 53.64245], [22.96274, 53.65312], [22.81579, 53.90331], [23.1585, 53.9062], [23.17325, 53.91348], [23.16405, 53.92346], [22.83431, 54.00247], [23.13932, 54.18009], [23.1438, 54.18729], [23.13713, 54.19389], [23.12141, 54.19441], [22.75951, 54.08235], [22.80866, 54.34941], [22.7962, 54.35742], [22.7796, 54.35263], [22.69621, 54.22473], [22.69102, 54.36714], [22.7278, 54.39717], [22.6804, 54.45322], [22.67462, 54.49228], [22.68175, 54.5699], [22.70366, 54.61755], [23.01752, 54.56508], [23.02064, 54.54764], [23.03122, 54.54084], [23.04541, 54.54239], [23.09732, 54.66987], [23.2703, 54.52927], [23.03532, 54.3465], [23.04162, 54.34097], [23.03222, 54.32015], [23.03211, 54.30955], [23.0501, 54.29483], [23.07304, 54.29488], [23.11707, 54.30346], [23.13526, 54.29829], [23.19727, 54.26785], [23.23541, 54.25416], [23.31602, 54.23628], [23.46684, 54.45836], [23.47844, 54.54019], [23.47468, 54.58279], [23.46259, 54.5887], [23.44789, 54.58538], [23.36303, 54.49613], [23.2355, 54.71795], [23.57912, 54.7203], [23.59192, 54.72433], [23.59415, 54.73105], [23.58621, 54.73718], [23.25644, 54.81521], [23.56395, 54.98948], [23.56855, 54.99668], [23.56299, 55.00277], [23.54571, 55.00383], [23.18297, 54.89361], [23.23502, 55.15446], [23.22806, 55.16205], [23.21314, 55.16285], [23.12263, 55.03168], [22.82127, 54.88549], [22.80887, 54.89376], [22.74924, 54.90988], [22.74097, 54.91763], [22.75213, 54.93112], [22.7388, 54.93412], [22.71554, 54.95138], [22.64991, 54.95287], [22.63348, 54.95794], [22.6217, 54.97003], [22.60837, 54.99241], [22.59162, 55.03762], [22.58067, 55.05762], [22.56548, 55.0678], [22.54108, 55.07576], [22.43628, 55.05778], [22.25128, 55.07085], [22.14266, 55.05462], [22.11847, 55.03778], [22.09987, 55.02992], [22.07682, 55.02858], [22.04995, 55.03354], [22.02773, 55.04439], [22.01864, 55.06093], [22.01543, 55.08842], [22.00344, 55.09349], [21.9775, 55.09199], [21.94277, 55.07829], [21.90856, 55.08987], [21.87322, 55.09493], [21.81989, 55.11932], [21.75064, 55.12795], [21.73338, 55.13633], [21.71622, 55.14945], [21.64584, 55.18103], [21.60512, 55.1925], [21.50394, 55.19441], [21.46766, 55.21115], [21.40555, 55.27239], [21.37485, 55.28996], [21.34984, 55.28779], [21.31319, 55.27037], [21.29984, 55.25594], [21.26902, 55.25341], [21.26443, 55.284], [21.27085, 55.28802], [21.28533, 55.28706], [21.29119, 55.29707], [21.27418, 55.32734], [21.25947, 55.33625], [21.25709, 55.36937], [21.24659, 55.37018], [21.18882, 55.33863], [21.18338, 55.34618], [21.2243, 55.39932], [21.2483, 55.41787], [21.24838, 55.44233], [21.22291, 55.52021], [21.19928, 55.53791], [21.19508, 55.58511], [21.15756, 55.64175], [21.14723, 55.67817], [21.09938, 55.72907], [21.07441, 55.74494], [21.06057, 55.78925], [21.04469, 55.87396], [21.04474, 55.91796], [21.05836, 55.95185], [21.0534, 56.07294], [21.02882, 56.14741], [20.97341, 56.232], [20.9691, 56.25348], [20.98268, 56.30146], [20.96863, 56.37009], [20.97069, 56.38924], [21.00318, 56.4348], [21.01059, 56.47573], [21.00053, 56.51041], [21.00637, 56.51996], [21.02426, 56.51048], [21.04469, 56.4621], [21.03053, 56.44843], [21.04469, 56.44221], [21.04469, 56.42113], [21.03053, 56.40811], [21.06178, 56.38703], [21.07716, 56.39521], [21.07976, 56.40306], [21.06861, 56.42406], [21.07211, 56.46955], [21.05836, 56.50365], [21.03053, 56.52416], [21.00312, 56.53002], [20.99222, 56.5489], [21.01053, 56.5987], [21.05836, 56.68867], [21.0652, 56.77432], [21.0529, 56.82914], [21.06521, 56.84633], [21.14723, 56.87641], [21.15676, 56.88556], [21.22291, 56.9077], [21.27797, 56.94936], [21.36012, 56.98969], [21.3825, 57.00894], [21.40162, 57.0375], [21.41358, 57.07319], [21.41481, 57.11384], [21.40108, 57.15131], [21.41481, 57.18488], [21.41263, 57.25024], [21.42151, 57.28889], [21.44949, 57.32001], [21.48023, 57.33364], [21.51777, 57.3876], [21.58912, 57.43879], [21.69924, 57.55532], [21.72968, 57.57379], [21.77166, 57.58611], [21.9559, 57.59296], [21.99928, 57.60033], [22.48338, 57.7424], [22.54908, 57.75064], [22.58579, 57.7597], [22.61034, 57.75462], [22.60027, 57.74384], [22.59088, 57.68731], [22.59099, 57.64476]], [[34.20878, 45.7133], [34.2249, 45.69797], [34.25455, 45.6949], [34.30433, 45.70163], [34.39509, 45.73263], [34.46913, 45.95482], [34.4427, 45.96715], [34.24261, 45.77681], [34.21076, 45.73572], [34.20878, 45.7133]]], [[[23.2178, 57.80093], [23.22431, 57.82371], [23.23959, 57.82257], [23.27066, 57.8078], [23.27018, 57.78564], [23.25026, 57.78438], [23.22952, 57.7917], [23.2178, 57.80093]]], [[[23.97072, 58.09961], [23.94339, 58.11319], [23.93822, 58.13746], [23.95535, 58.15179], [23.98422, 58.15712], [24.01334, 58.1535], [24.02213, 58.12987], [24.00243, 58.10856], [23.97072, 58.09961]]], [[[23.34374, 58.64472], [23.3475, 58.60716], [23.38176, 58.57973], [23.40021, 58.55541], [23.37989, 58.54755], [23.36215, 58.53247], [23.31373, 58.54466], [23.27858, 58.54637], [23.23487, 58.53466], [23.22382, 58.53548], [23.13461, 58.5799], [23.08326, 58.59052], [23.05937, 58.60367], [23.06286, 58.62457], [23.07545, 58.62982], [23.10613, 58.62421], [23.12094, 58.62832], [23.13463, 58.66181], [23.15465, 58.67592], [23.1758, 58.68109], [23.19811, 58.68056], [23.28834, 58.66648], [23.34374, 58.64472]]], [[[23.27858, 58.9707], [23.2234, 58.98395], [23.21077, 58.97298], [23.16327, 58.96895], [23.1483, 58.97403], [23.11413, 59.0218], [23.11881, 59.03329], [23.13179, 59.04081], [23.17018, 59.04587], [23.20801, 59.04408], [23.278, 59.03238], [23.34424, 59.03928], [23.38962, 59.00755], [23.39371, 58.99624], [23.38475, 58.98054], [23.37427, 58.97554], [23.3401, 58.98395], [23.29908, 58.9709], [23.27858, 58.9707]]], [[[24.55004, 59.55777], [24.5428, 59.54781], [24.51629, 59.54427], [24.48913, 59.55964], [24.48734, 59.57852], [24.50051, 59.59625], [24.51587, 59.59808], [24.55004, 59.55777]]], [[[23.37078, 59.87385], [23.36339, 59.88413], [23.42233, 59.88626], [23.4322, 59.87975], [23.41121, 59.86686], [23.36908, 59.86157], [23.3612, 59.86819], [23.37078, 59.87385]]], [[[23.31853, 59.88244], [23.28454, 59.88935], [23.29006, 59.89296], [23.33048, 59.88812], [23.31853, 59.88244]]], [[[23.11006, 59.89639], [23.09883, 59.91136], [23.10727, 59.92178], [23.12539, 59.91299], [23.12759, 59.90347], [23.12501, 59.89757], [23.11006, 59.89639]]], [[[23.8942, 59.9497], [23.87079, 59.94673], [23.84745, 59.95466], [23.87029, 59.97281], [23.89226, 59.9765], [23.92349, 59.96931], [23.9204, 59.95942], [23.90869, 59.95381], [23.89601, 59.95429], [23.8942, 59.9497]]], [[[22.94592, 60.05034], [22.96288, 60.04604], [22.97156, 60.03289], [22.92442, 60.00484], [22.90439, 60.01374], [22.90772, 60.01571], [22.90707, 60.01907], [22.91904, 60.02241], [22.92197, 60.03693], [22.94592, 60.05034]]], [[[26.94453, 60.09138], [26.95006, 60.09954], [26.96411, 60.09942], [27.02537, 60.0373], [27.02083, 60.01777], [27.00831, 60.01387], [26.98473, 60.01773], [26.97684, 60.02571], [26.94453, 60.09138]]], [[[26.58003, 60.0961], [26.78339, 60.07533], [26.73942, 60.06827], [26.69504, 60.07136], [26.58003, 60.0961]]], [[[22.96314, 60.09687], [22.95727, 60.08886], [22.94634, 60.08467], [22.93687, 60.0839], [22.92791, 60.08991], [22.89894, 60.081], [22.8459, 60.08219], [22.84506, 60.08576], [22.87935, 60.11345], [22.917, 60.12507], [22.93767, 60.12433], [22.95004, 60.11864], [22.96168, 60.1044], [22.96314, 60.09687]]], [[[25.03289, 60.14794], [25.04615, 60.15449], [25.06186, 60.15408], [25.07161, 60.14493], [25.06022, 60.13757], [25.03054, 60.13318], [25.03289, 60.14794]]], [[[25.81424, 60.20767], [25.82185, 60.21609], [25.8762, 60.21722], [25.85205, 60.19978], [25.82067, 60.19722], [25.81424, 60.20767]]], [[[25.64373, 60.2281], [25.6338, 60.21833], [25.63597, 60.20427], [25.60339, 60.2154], [25.62233, 60.23835], [25.59206, 60.24259], [25.5701, 60.25825], [25.56446, 60.27827], [25.58172, 60.29636], [25.68439, 60.24518], [25.677, 60.23836], [25.64373, 60.2281]]], [[[26.20735, 60.34487], [26.23713, 60.33071], [26.2412, 60.32364], [26.23202, 60.31632], [26.19192, 60.31916], [26.16776, 60.34609], [26.18517, 60.34927], [26.20735, 60.34487]]], [[[26.78385, 60.36208], [26.78756, 60.35236], [26.78011, 60.34278], [26.74385, 60.36457], [26.76092, 60.37204], [26.78385, 60.36208]]], [[[26.54816, 60.37835], [26.53835, 60.37809], [26.52648, 60.38496], [26.50719, 60.40347], [26.51345, 60.41127], [26.57472, 60.42178], [26.59344, 60.44595], [26.60206, 60.44652], [26.6526, 60.42691], [26.63647, 60.41487], [26.57801, 60.40608], [26.55893, 60.39741], [26.54816, 60.37835]]], [[[26.57716, 60.44733], [26.57447, 60.43696], [26.55302, 60.43311], [26.50196, 60.45307], [26.48102, 60.4721], [26.74095, 60.44367], [26.73193, 60.43294], [26.68736, 60.41817], [26.63592, 60.45063], [26.61704, 60.45295], [26.57716, 60.44733]]], [[[23.54086, 60.02912], [23.53437, 60.0537], [23.54615, 60.07392], [23.50961, 60.06745], [23.49025, 60.05549], [23.47875, 60.03613], [23.45379, 60.02798], [23.43971, 59.99445], [23.40797, 59.98041], [23.36473, 59.94522], [23.32642, 59.92305], [23.23715, 59.89802], [23.22234, 59.88622], [23.22218, 59.86783], [23.23317, 59.852], [23.25129, 59.84796], [23.25129, 59.84114], [23.08058, 59.82685], [23.06812, 59.8208], [23.00685, 59.82616], [22.90552, 59.81127], [22.88824, 59.81318], [22.90602, 59.81965], [22.93142, 59.84283], [22.94615, 59.84796], [22.98658, 59.85196], [23.12745, 59.88638], [23.16814, 59.8889], [23.16588, 59.91766], [23.22242, 59.91608], [23.24708, 59.92243], [23.29371, 59.95869], [23.32643, 60.00934], [23.33286, 60.02985], [23.31593, 60.02241], [23.24977, 59.94847], [23.2234, 59.92988], [23.20365, 59.92988], [23.20973, 59.94355], [23.18881, 59.95018], [23.16814, 59.94355], [23.17123, 59.93644], [23.13185, 59.94294], [23.11783, 59.92377], [23.11069, 59.92328], [23.10062, 59.94042], [23.11136, 59.97427], [23.12819, 59.98309], [23.20362, 59.9975], [23.24138, 60.03311], [23.25758, 60.03974], [23.20509, 60.04971], [23.10621, 60.03907], [23.05942, 60.03975], [23.03515, 60.04469], [22.99694, 60.06208], [22.99075, 60.07734], [22.99724, 60.08967], [23.04591, 60.12165], [23.0254, 60.13532], [23.00489, 60.10737], [22.96949, 60.0944], [22.95867, 60.12157], [22.90789, 60.13178], [22.87471, 60.14961], [22.88559, 60.16934], [22.8672, 60.18374], [22.92156, 60.23115], [23.00758, 60.277], [23.04591, 60.32709], [23.08286, 60.34589], [23.08058, 60.35505], [23.06031, 60.35733], [23.03419, 60.34394], [22.99805, 60.30664], [22.94117, 60.31647], [22.87713, 60.30109], [22.73612, 60.23818], [22.61118, 60.21996], [22.5534, 60.20502], [22.52511, 60.20425], [22.59343, 60.23216], [22.57353, 60.23493], [22.57208, 60.24243], [22.59034, 60.26227], [22.64812, 60.27871], [22.57456, 60.27082], [22.50358, 60.24707], [22.44951, 60.2452], [22.45925, 60.26515], [22.46913, 60.27673], [22.54029, 60.319], [22.54569, 60.33392], [22.59636, 60.36367], [22.62761, 60.37539], [22.63136, 60.38955], [22.62428, 60.39908], [22.58082, 60.37592], [22.54347, 60.37255], [22.46309, 60.37557], [22.48357, 60.40217], [22.32618, 60.3824], [22.29152, 60.38264], [22.24952, 60.40461], [22.18149, 60.43049], [22.11673, 60.43697], [22.10108, 60.46214], [22.06446, 60.43636], [22.04706, 60.4388], [22.0181, 60.45747], [22.01808, 60.47114], [22.00173, 60.47013], [21.98196, 60.47676], [21.9839, 60.49226], [21.93542, 60.49227], [21.95037, 60.51895], [21.90317, 60.52888], [21.85353, 60.52578], [21.84392, 60.51553], [21.874, 60.47799], [21.806, 60.48599], [21.78535, 60.47799], [21.80299, 60.52513], [21.80789, 60.57559], [21.81961, 60.58502], [21.84604, 60.58784], [21.82847, 60.60643], [21.8405, 60.62873], [21.77394, 60.60395], [21.73177, 60.58174], [21.67897, 60.57648], [21.66179, 60.56733], [21.66893, 60.54523], [21.64143, 60.49576], [21.61163, 60.48882], [21.57985, 60.48787], [21.55812, 60.49226], [21.58375, 60.50503], [21.56967, 60.52644], [21.51777, 60.56733], [21.57862, 60.55988], [21.57862, 60.56733], [21.55502, 60.57217], [21.4861, 60.57416], [21.44264, 60.56734], [21.40856, 60.5804], [21.40856, 60.58783], [21.4284, 60.59406], [21.41485, 60.60828], [21.46266, 60.60175], [21.46998, 60.6083], [21.39966, 60.63426], [21.35331, 60.67658], [21.35331, 60.69016], [21.43898, 60.68033], [21.44565, 60.69286], [21.42215, 60.725], [21.46998, 60.725], [21.46998, 60.73115], [21.42709, 60.73652], [21.38738, 60.75235], [21.42213, 60.7591], [21.40024, 60.77456], [21.3743, 60.77961], [21.38087, 60.7934], [21.37428, 60.8076], [21.36085, 60.81623], [21.34641, 60.81316], [21.32887, 60.82754], [21.32594, 60.83487], [21.33644, 60.84471], [21.31856, 60.86469], [21.3325, 60.86835], [21.40789, 60.86457], [21.4284, 60.8758], [21.40594, 60.88202], [21.38048, 60.88217], [21.35328, 60.90253], [21.39075, 60.9168], [21.41619, 60.90322], [21.4284, 60.90253], [21.41277, 60.9335], [21.39259, 60.93903], [21.3357, 61.00458], [21.31856, 61.01236], [21.33904, 61.0266], [21.31132, 61.03774], [21.2987, 61.06012], [21.32031, 61.06019], [21.38738, 61.04027], [21.40886, 61.04328], [21.40773, 61.05073], [21.39137, 61.05793], [21.36698, 61.06012], [21.39528, 61.06939], [21.45387, 61.055], [21.48227, 61.06013], [21.45478, 61.07839], [21.45047, 61.09076], [21.46314, 61.10114], [21.43526, 61.14272], [21.46998, 61.14956], [21.4427, 61.15572], [21.45631, 61.16999], [21.44264, 61.16999], [21.47057, 61.17811], [21.50343, 61.17744], [21.49662, 61.1911], [21.55812, 61.20417], [21.54347, 61.22508], [21.5241, 61.2346], [21.47612, 61.24576], [21.59958, 61.24457], [21.78719, 61.23442], [21.92965, 61.21962], [22.0634, 61.19154], [22.18293, 61.15131], [22.27271, 61.10657], [22.22148, 61.04352], [22.1877, 60.94768], [22.31657, 60.90189], [22.36816, 60.87808], [22.41528, 60.85161], [22.48514, 60.80095], [22.76433, 60.75573], [22.97785, 60.71439], [23.13413, 60.71417], [23.26668, 60.65163], [23.55299, 60.58642], [23.64677, 60.5584], [24.10686, 60.44329], [24.1219, 60.44366], [24.19593, 60.46791], [24.3226, 60.49611], [24.49013, 60.51332], [24.64508, 60.54057], [24.87205, 60.56604], [25.10555, 60.61955], [25.33276, 60.5854], [25.50338, 60.56479], [26.45622, 60.47454], [26.48569, 60.44379], [26.45182, 60.41664], [26.42335, 60.41633], [26.41635, 60.41193], [26.42414, 60.396], [26.4026, 60.40266], [26.38331, 60.41649], [26.38121, 60.39878], [26.35141, 60.39281], [26.34205, 60.37557], [26.324, 60.38301], [26.29021, 60.42333], [26.24562, 60.45087], [26.23178, 60.45063], [26.22934, 60.43842], [26.27343, 60.40218], [26.17897, 60.41063], [26.14243, 60.396], [26.09457, 60.42333], [26.04916, 60.43749], [26.01368, 60.46259], [25.98097, 60.47577], [25.9463, 60.4842], [25.91725, 60.48542], [25.91725, 60.47797], [25.97185, 60.46491], [26.00375, 60.4405], [26.02898, 60.43334], [26.04003, 60.40595], [26.03247, 60.40063], [26.00685, 60.40054], [26.01222, 60.38858], [26.06054, 60.3681], [26.08863, 60.34394], [26.10814, 60.33592], [26.09131, 60.30664], [26.04007, 60.2998], [26.03883, 60.32266], [25.99708, 60.35493], [26.00587, 60.36811], [25.9935, 60.36782], [25.96802, 60.35506], [25.95656, 60.35604], [25.88836, 60.38915], [25.84205, 60.40217], [25.8777, 60.37792], [25.91725, 60.36127], [25.90722, 60.34097], [25.88429, 60.32001], [25.88307, 60.30663], [25.92122, 60.26528], [25.93016, 60.2452], [25.89488, 60.24959], [25.86883, 60.26569], [25.87623, 60.27253], [25.86101, 60.284], [25.80055, 60.29295], [25.75375, 60.32075], [25.73902, 60.31346], [25.74537, 60.2958], [25.84886, 60.2657], [25.78053, 60.25141], [25.78051, 60.24519], [25.76197, 60.24039], [25.73554, 60.24727], [25.64969, 60.29979], [25.65104, 60.31364], [25.67058, 60.32746], [25.64969, 60.33394], [25.64967, 60.34138], [25.70436, 60.34138], [25.6902, 60.36286], [25.66863, 60.36465], [25.6027, 60.33858], [25.52613, 60.32709], [25.52613, 60.32095], [25.54138, 60.31614], [25.5451, 60.2923], [25.54038, 60.27871], [25.52223, 60.27139], [25.51684, 60.25455], [25.50316, 60.2463], [25.36169, 60.2452], [25.36346, 60.26008], [25.35092, 60.26724], [25.31381, 60.27253], [25.32128, 60.25142], [25.29053, 60.24593], [25.19752, 60.24518], [25.1858, 60.22313], [25.15626, 60.23216], [25.15504, 60.22378], [25.20392, 60.20425], [25.18141, 60.20051], [25.19708, 60.19062], [25.177, 60.1833], [25.11703, 60.17574], [25.09475, 60.17635], [25.10157, 60.19062], [25.0586, 60.17731], [25.04786, 60.16889], [25.06719, 60.16247], [25.06105, 60.15656], [25.04526, 60.15681], [25.02931, 60.14785], [25.01077, 60.15136], [24.9979, 60.16266], [25.01075, 60.16987], [25.02589, 60.19945], [25.01905, 60.21109], [24.99879, 60.21284], [24.95092, 60.14347], [24.86574, 60.14014], [24.84524, 60.14375], [24.83416, 60.15583], [24.87094, 60.16169], [24.86883, 60.17975], [24.84246, 60.19465], [24.80681, 60.19062], [24.82732, 60.16266], [24.77263, 60.14217], [24.72096, 60.13841], [24.6797, 60.13011], [24.67025, 60.10123], [24.65644, 60.10099], [24.64226, 60.1291], [24.63063, 60.1363], [24.55405, 60.15595], [24.549, 60.15278], [24.5604, 60.14216], [24.59683, 60.12726], [24.58756, 60.11476], [24.54803, 60.09968], [24.54038, 60.08755], [24.60814, 60.10121], [24.59447, 60.08513], [24.57399, 60.07392], [24.59447, 60.06647], [24.59447, 60.06025], [24.52703, 60.03535], [24.46844, 59.99657], [24.44564, 59.99227], [24.4163, 59.99137], [24.46412, 60.04658], [24.44614, 60.04751], [24.37478, 60.00497], [24.36769, 60.02204], [24.3127, 59.99753], [24.31912, 60.01414], [24.35768, 60.03604], [24.36793, 60.07392], [24.31967, 60.07583], [24.29591, 60.07221], [24.27858, 60.06025], [24.29222, 60.0528], [24.25281, 60.03982], [24.17652, 60.04804], [24.15846, 60.04304], [24.15797, 60.03449], [24.18292, 60.02546], [24.16423, 60.01945], [24.10597, 60.03193], [24.06812, 60.02059], [24.0464, 60.02546], [24.02816, 60.00936], [24.00963, 60.01058], [24.00262, 60.02098], [24.01922, 60.03229], [24.01922, 60.03974], [24.00082, 60.03828], [23.95532, 60.00358], [23.87306, 59.99307], [23.79949, 59.95662], [23.77125, 59.96796], [23.6076, 59.95662], [23.59451, 59.96113], [23.57905, 59.97426], [23.56662, 59.97668], [23.45297, 59.95727], [23.42948, 59.95662], [23.48358, 60.01129], [23.49832, 60.01926], [23.54086, 60.02912]]]]}}]}