{"type": "FeatureCollection", "features": [{"type": "Feature", "properties": {"map_title": "제1차 세계 대전의 전개", "source": "미래엔 세계사 교과서 4권 181쪽", "volume": 4, "page": 181, "legend": "동맹국", "name": "오스트리아·헝가리 제국", "name_en": "Austria-Hungary", "period": "1914–1918", "kind": "국가", "alliance": "동맹국", "coast_snap": "Natural Earth 10m 해안선에 맞춤", "border_snap": "현대 국경(Natural Earth 10m)에 맞춘 구간 약 3638 km"}, "geometry": {"type": "MultiPolygon", "coordinates": [[[[15.22745, 43.73809], [15.20533, 43.74412], [15.158, 43.76918], [15.14163, 43.78102], [15.07094, 43.85408], [14.98183, 43.93492], [14.90678, 43.9905], [14.88884, 44.01481], [14.88507, 44.02945], [14.88648, 44.04819], [14.89418, 44.06084], [14.90654, 44.06796], [14.92186, 44.07015], [14.93848, 44.06808], [14.96982, 44.05388], [15.03108, 43.993], [15.04389, 43.97511], [15.06317, 43.92402], [15.08413, 43.90112], [15.1429, 43.86192], [15.16788, 43.83977], [15.19349, 43.82336], [15.21795, 43.80048], [15.2309, 43.78338], [15.24729, 43.7459], [15.2445, 43.7396], [15.22745, 43.73809]]], [[[15.08823, 43.98965], [15.11377, 43.98378], [15.14454, 43.94965], [15.2168, 43.91278], [15.22021, 43.9012], [15.19549, 43.89521], [15.14552, 43.9239], [15.13331, 43.92121], [15.14454, 43.90811], [15.17555, 43.89094], [15.19677, 43.88638], [15.1945, 43.87264], [15.13627, 43.90316], [15.10685, 43.92524], [15.04283, 43.99043], [15.0031, 44.05231], [14.98308, 44.06631], [14.9551, 44.0756], [14.87013, 44.14082], [14.86297, 44.16104], [14.84964, 44.1756], [14.86328, 44.17559], [14.88282, 44.15917], [14.93912, 44.12714], [14.95444, 44.10322], [14.99383, 44.08784], [15.00731, 44.09298], [15.0005, 44.07941], [15.01441, 44.07794], [15.0227, 44.0722], [15.03191, 44.03636], [15.08823, 43.98965]]], [[[15.15941, 43.99896], [15.07758, 44.05309], [15.07075, 44.07579], [15.07294, 44.08074], [15.1001, 44.0685], [15.10849, 44.05402], [15.14722, 44.02561], [15.15941, 43.99896]]], [[[15.24707, 44.04669], [15.2544, 44.01791], [15.22332, 44.05028], [15.20656, 44.04524], [15.19907, 44.05882], [15.18914, 44.04781], [15.12185, 44.09224], [15.08709, 44.12373], [15.06871, 44.13398], [15.07553, 44.14082], [15.06254, 44.1619], [15.22575, 44.06622], [15.24707, 44.04669]]], [[[14.86915, 44.14053], [14.85613, 44.13688], [14.83522, 44.14168], [14.81985, 44.15303], [14.82244, 44.16865], [14.82665, 44.15955], [14.84278, 44.14826], [14.85727, 44.15205], [14.86915, 44.14053]]], [[[14.74957, 44.28022], [14.7532, 44.29099], [14.75977, 44.29205], [14.79166, 44.27252], [14.78971, 44.26692], [14.76596, 44.26504], [14.75993, 44.25985], [14.74856, 44.26167], [14.73814, 44.27212], [14.73989, 44.28018], [14.74957, 44.28022]]], [[[14.78491, 44.347], [14.75621, 44.364], [14.76593, 44.38157], [14.76345, 44.41534], [14.78289, 44.41892], [14.80322, 44.4055], [14.80501, 44.39574], [14.79672, 44.38129], [14.81119, 44.35005], [14.80103, 44.3431], [14.78491, 44.347]]], [[[14.66758, 44.39221], [14.66148, 44.39981], [14.67205, 44.4121], [14.6871, 44.40911], [14.70166, 44.40159], [14.70208, 44.37796], [14.72225, 44.36351], [14.72306, 44.35172], [14.71372, 44.35127], [14.69298, 44.35986], [14.67986, 44.3887], [14.66758, 44.39221]]], [[[14.37024, 44.49558], [14.37934, 44.50729], [14.39393, 44.51344], [14.41228, 44.51288], [14.42349, 44.50928], [14.4509, 44.48967], [14.50011, 44.43864], [14.57469, 44.395], [14.60616, 44.36623], [14.61821, 44.34358], [14.61896, 44.33659], [14.64329, 44.32589], [14.66137, 44.30866], [14.6574, 44.30526], [14.61836, 44.32771], [14.6166, 44.32071], [14.60683, 44.31174], [14.59178, 44.312], [14.55282, 44.33143], [14.47353, 44.39585], [14.39975, 44.44015], [14.37376, 44.46519], [14.36843, 44.47943], [14.37024, 44.49558]]], [[[14.28242, 44.52227], [14.30172, 44.51827], [14.30787, 44.51089], [14.32077, 44.50918], [14.29868, 44.49642], [14.28242, 44.52227]]], [[[14.39697, 44.56917], [14.38657, 44.56563], [14.36306, 44.57344], [14.36307, 44.57966], [14.36988, 44.57966], [14.36477, 44.58722], [14.38258, 44.60326], [14.37599, 44.62303], [14.3493, 44.65554], [14.3358, 44.71676], [14.38111, 44.69864], [14.39747, 44.68561], [14.39039, 44.66218], [14.41, 44.60098], [14.48321, 44.53706], [14.52661, 44.50372], [14.53434, 44.48408], [14.51198, 44.48226], [14.48504, 44.50064], [14.46433, 44.52018], [14.43818, 44.53865], [14.43818, 44.54547], [14.46608, 44.53864], [14.42262, 44.57388], [14.40406, 44.57966], [14.39697, 44.56917]]], [[[14.23959, 44.62001], [14.23261, 44.62605], [14.24416, 44.66144], [14.2658, 44.6795], [14.28043, 44.67755], [14.27417, 44.6617], [14.25734, 44.65672], [14.25668, 44.63703], [14.27115, 44.61254], [14.23959, 44.62001]]], [[[14.45922, 44.91543], [14.44996, 44.89802], [14.45191, 44.8509], [14.46655, 44.80484], [14.45192, 44.79877], [14.4729, 44.7652], [14.46608, 44.7298], [14.47218, 44.70795], [14.51391, 44.66218], [14.50856, 44.64533], [14.51499, 44.64216], [14.52751, 44.64788], [14.53434, 44.63426], [14.51335, 44.61885], [14.473, 44.62028], [14.42792, 44.65657], [14.39454, 44.70759], [14.39723, 44.75161], [14.38356, 44.75776], [14.37453, 44.75387], [14.36819, 44.76106], [14.36158, 44.81598], [14.34605, 44.82051], [14.32986, 44.83394], [14.31414, 44.89379], [14.29422, 44.90864], [14.30152, 44.92231], [14.29251, 44.94033], [14.30152, 44.94342], [14.32546, 44.93635], [14.35963, 44.90864], [14.38738, 44.909], [14.39723, 44.9291], [14.39032, 44.96038], [14.40406, 44.94953], [14.41139, 44.95637], [14.39145, 44.96943], [14.37673, 44.98689], [14.34083, 45.05561], [14.27851, 45.11335], [14.2777, 45.128], [14.29944, 45.16217], [14.31366, 45.17242], [14.33188, 45.17584], [14.3562, 45.16925], [14.36409, 45.15762], [14.36305, 45.09357], [14.38771, 45.03905], [14.41765, 44.99799], [14.43084, 44.9903], [14.46606, 44.9837], [14.47348, 44.97142], [14.47093, 44.95369], [14.45192, 44.92231], [14.45922, 44.91543]]], [[[13.73546, 44.92393], [13.74789, 44.9251], [13.77404, 44.91509], [13.77769, 44.90251], [13.7588, 44.90066], [13.7561, 44.88992], [13.74734, 44.88761], [13.75009, 44.91315], [13.73546, 44.92393]]], [[[14.54297, 44.95544], [14.51711, 44.9626], [14.48578, 44.98362], [14.52767, 44.98598], [14.54582, 44.96804], [14.54297, 44.95544]]], [[[14.63914, 44.91427], [14.67746, 44.96067], [14.65789, 44.97004], [14.62893, 44.97818], [14.6238, 45.00122], [14.62631, 45.03726], [14.62086, 45.0456], [14.60328, 45.03897], [14.60328, 45.03217], [14.61695, 45.02464], [14.59031, 45.0233], [14.51026, 45.03223], [14.48537, 45.03804], [14.46014, 45.0524], [14.42508, 45.08735], [14.44159, 45.09979], [14.46266, 45.10102], [14.46707, 45.12408], [14.47608, 45.12825], [14.51401, 45.12906], [14.53012, 45.13483], [14.52127, 45.14883], [14.53956, 45.1704], [14.53689, 45.20172], [14.54802, 45.21027], [14.54981, 45.22142], [14.54379, 45.23574], [14.53438, 45.23754], [14.54885, 45.24871], [14.56336, 45.24973], [14.59585, 45.23754], [14.58221, 45.23753], [14.62377, 45.17549], [14.59742, 45.16645], [14.61256, 45.15925], [14.64373, 45.15681], [14.66528, 45.1618], [14.6709, 45.14346], [14.65895, 45.10834], [14.66529, 45.08735], [14.67472, 45.08006], [14.68241, 45.09707], [14.68976, 45.10384], [14.70954, 45.11341], [14.73365, 45.11633], [14.75045, 45.11378], [14.76668, 45.10695], [14.78034, 45.09614], [14.81365, 45.03657], [14.87448, 44.96815], [14.87934, 44.95614], [14.87737, 44.94375], [14.84824, 44.911], [14.84096, 44.89387], [14.84347, 44.88319], [14.86403, 44.84451], [14.8635, 44.82462], [14.85157, 44.80876], [14.82877, 44.79902], [14.77562, 44.79942], [14.82264, 44.7712], [14.85132, 44.7371], [14.85904, 44.71735], [14.84962, 44.70321], [14.77296, 44.76032], [14.74049, 44.77827], [14.74293, 44.76577], [14.75403, 44.75779], [14.72495, 44.76765], [14.69948, 44.76522], [14.65792, 44.79877], [14.68258, 44.79879], [14.70574, 44.79255], [14.69949, 44.81304], [14.71998, 44.79877], [14.72682, 44.79877], [14.7143, 44.81551], [14.70063, 44.81971], [14.65409, 44.8467], [14.63902, 44.86283], [14.63159, 44.88037], [14.63233, 44.89754], [14.63914, 44.91427]]], [[[11.92246, 46.05478], [11.76899, 45.96913], [11.7029, 45.93833], [11.88802, 46.1463], [11.92246, 46.05478]]], [[[11.97288, 46.15618], [12.03281, 46.11406], [11.96597, 46.0799], [11.97288, 46.15618]]], [[[12.17858, 46.17853], [12.12926, 46.1547], [12.08067, 46.21955], [12.23049, 46.23847], [12.20422, 46.19767], [12.17858, 46.17853]]], [[[13.40627, 46.23877], [13.6289, 46.24327], [13.60319, 46.18273], [13.63739, 46.18039], [13.64504, 46.16173], [13.949, 46.07974], [14.01335, 46.02779], [14.03148, 46.0268], [14.03503, 46.03717], [13.89311, 46.26955], [13.91728, 46.27199], [13.98233, 46.48192], [13.89086, 46.51179], [13.86068, 46.51525], [13.78213, 46.50778], [13.74005, 46.51485], [13.71028, 46.43437], [13.68111, 46.49204], [13.6756, 46.51833], [13.54923, 46.54584], [13.50675, 46.54693], [13.47802, 46.56357], [13.41704, 46.56049], [13.37332, 46.56579], [13.27142, 46.55078], [13.23111, 46.55217], [13.21002, 46.55801], [13.14646, 46.58496], [13.0645, 46.59804], [12.83041, 46.60964], [12.77357, 46.63519], [12.73987, 46.64299], [12.70659, 46.63775], [12.66959, 46.65302], [12.62019, 46.65648], [12.54733, 46.65219], [12.42419, 46.43655], [12.38554, 46.39485], [12.31891, 46.36779], [12.24518, 46.35406], [12.24258, 46.29584], [12.07544, 46.32245], [12.2973, 46.53636], [12.29842, 46.54557], [12.28969, 46.55035], [12.27879, 46.54874], [11.99333, 46.39751], [11.97426, 46.67944], [11.96887, 46.6863], [11.9577, 46.68767], [11.9484, 46.68082], [11.86248, 46.39085], [11.75259, 46.55082], [11.74502, 46.55547], [11.73491, 46.55497], [11.72802, 46.54521], [11.77723, 46.37402], [11.50711, 46.44324], [11.4952, 46.44128], [11.49081, 46.43424], [11.49588, 46.42742], [11.72895, 46.30303], [11.39549, 46.20878], [11.3877, 46.20221], [11.39041, 46.19474], [11.40048, 46.19147], [11.78938, 46.19246], [11.68626, 45.93175], [11.6257, 45.91036], [11.55987, 45.89832], [11.5009, 45.9033], [11.46978, 45.91661], [11.44402, 45.9357], [11.37679, 46.00462], [11.35038, 46.02394], [11.31846, 46.03707], [11.28044, 46.04154], [11.24818, 46.03775], [11.18745, 46.01671], [11.03302, 45.94022], [10.92248, 46.0516], [10.87269, 46.09283], [10.75376, 46.1747], [10.73494, 46.19316], [10.72403, 46.21331], [10.72238, 46.23603], [10.73103, 46.26337], [10.75145, 46.29725], [10.78878, 46.33982], [10.8972, 46.43799], [10.92799, 46.47629], [10.96151, 46.53184], [10.98267, 46.76774], [10.93089, 46.77399], [10.87043, 46.76407], [10.83415, 46.78025], [10.79508, 46.77689], [10.75477, 46.79076], [10.72294, 46.78645], [10.71695, 46.79521], [10.74382, 46.81252], [10.74868, 46.81944], [10.73896, 46.82955], [10.66248, 46.86097], [10.64708, 46.86376], [10.56324, 46.84993], [10.45755, 46.90252], [10.46384, 46.91975], [10.45846, 46.93662], [10.41557, 46.96241], [10.39469, 46.9854], [10.37898, 46.9955], [10.36793, 46.9955], [10.33888, 46.98411], [10.31367, 46.96432], [10.2962, 46.94137], [10.29568, 46.92269], [10.27077, 46.92189], [10.25134, 46.92538], [10.23512, 46.92331], [10.21992, 46.90577], [10.21165, 46.87704], [10.20142, 46.86683], [10.15781, 46.85161], [10.13197, 46.84657], [10.1113, 46.84712], [10.0681, 46.85662], [10.04557, 46.86556], [10.00691, 46.89076], [9.89994, 46.9144], [9.87514, 46.92742], [9.86243, 46.93977], [9.86077, 46.94915], [9.87059, 46.99884], [9.85633, 47.00408], [9.85798, 47.01548], [9.69052, 47.05159], [9.69423, 47.11643], [9.5752, 47.14263], [9.47017, 47.37768], [9.63551, 47.47763], [9.51628, 47.66105], [9.59671, 47.63558], [9.73086, 47.5649], [9.75267, 47.58206], [9.76714, 47.58728], [9.78212, 47.58841], [9.79628, 47.58495], [9.80796, 47.57632], [9.81127, 47.56449], [9.8093, 47.55232], [9.81313, 47.54175], [9.83349, 47.53462], [9.85891, 47.54134], [9.88899, 47.53379], [9.91875, 47.53219], [9.93384, 47.53421], [9.94594, 47.54077], [9.94873, 47.52423], [9.97167, 47.5064], [9.98076, 47.49294], [9.98262, 47.48103], [9.99358, 47.47659], [10.02262, 47.48796], [10.07182, 47.43912], [10.0806, 47.42739], [10.07595, 47.41687], [10.05321, 47.40486], [10.06417, 47.39618], [10.06779, 47.37504], [10.07316, 47.36548], [10.08288, 47.35907], [10.11037, 47.36739], [10.13083, 47.36267], [10.14696, 47.3738], [10.19088, 47.37923], [10.20928, 47.37248], [10.20855, 47.35448], [10.19047, 47.31747], [10.19326, 47.30492], [10.19078, 47.29825], [10.16866, 47.29042], [10.15543, 47.27288], [10.15988, 47.27112], [10.23935, 47.27774], [10.26116, 47.2835], [10.30591, 47.30218], [10.32545, 47.31432], [10.34343, 47.33076], [10.37165, 47.36739], [10.41164, 47.38104], [10.42828, 47.39605], [10.44286, 47.41628], [10.45195, 47.43876], [10.45174, 47.4602], [10.44761, 47.47258], [10.43366, 47.48785], [10.4196, 47.49304], [10.43097, 47.54216], [10.41567, 47.56438], [10.41423, 47.57301], [10.42921, 47.57702], [10.4536, 47.5811], [10.45712, 47.57924], [10.46156, 47.56991], [10.45174, 47.55482], [10.4535, 47.54625], [10.46694, 47.53772], [10.48254, 47.53286], [10.52512, 47.52847], [10.53691, 47.52986], [10.54962, 47.53679], [10.56988, 47.55594], [10.58373, 47.56247], [10.60791, 47.56227], [10.73989, 47.52847], [10.75219, 47.51539], [10.76077, 47.51364], [10.79033, 47.51607], [10.8448, 47.53131], [10.85864, 47.53067], [10.89223, 47.51488], [10.88386, 47.50801], [10.85162, 47.4931], [10.85844, 47.48516], [10.90991, 47.46899], [10.95983, 47.43251], [10.96313, 47.42124], [10.95528, 47.40961], [10.96551, 47.39608], [10.97946, 47.39055], [11.08375, 47.38951], [11.10328, 47.39357], [11.1686, 47.42426], [11.19382, 47.42894], [11.21521, 47.423], [11.21304, 47.39582], [11.23702, 47.39396], [11.25883, 47.40072], [11.30564, 47.4354], [11.32425, 47.43943], [11.36766, 47.44013], [11.38388, 47.44486], [11.39246, 47.45478], [11.38864, 47.46222], [11.36549, 47.46933], [11.41262, 47.50609], [11.43535, 47.50971], [11.48258, 47.50258], [11.52951, 47.50785], [11.55121, 47.51369], [11.5694, 47.52738], [11.58914, 47.57038], [11.62046, 47.58965], [11.68257, 47.58335], [11.76402, 47.58312], [11.82034, 47.57529], [11.83068, 47.57761], [11.8407, 47.59461], [11.85197, 47.59916], [11.93589, 47.61074], [12.1736, 47.60508], [12.20213, 47.62983], [12.20678, 47.64557], [12.20513, 47.67228], [12.20234, 47.67779], [12.18177, 47.69213], [12.1766, 47.70582], [12.19241, 47.71016], [12.22518, 47.72737], [12.24223, 47.73202], [12.23303, 47.70887], [12.22332, 47.6959], [12.22879, 47.68487], [12.23872, 47.6789], [12.27189, 47.68789], [12.2937, 47.69001], [12.35147, 47.68169], [12.4077, 47.69373], [12.42413, 47.69156], [12.4447, 47.65629], [12.48252, 47.63358], [12.49658, 47.6289], [12.53823, 47.63133], [12.55384, 47.63601], [12.59838, 47.66288], [12.6174, 47.66934], [12.65306, 47.67513], [12.68871, 47.67513], [12.74483, 47.66536], [12.76199, 47.66686], [12.75165, 47.64939], [12.76736, 47.63637], [12.79331, 47.62479], [12.81315, 47.61182], [12.78587, 47.60268], [12.77367, 47.5795], [12.77894, 47.55482], [12.80364, 47.54134], [12.82845, 47.53726], [12.8826, 47.49858], [12.93159, 47.47351], [12.94255, 47.47049], [12.96973, 47.47573], [12.99112, 47.46568], [13.00187, 47.46602], [13.0088, 47.4701], [13.03732, 47.49305], [13.03701, 47.50137], [13.02895, 47.51803], [13.02812, 47.54165], [13.04125, 47.5619], [13.03908, 47.56134], [13.03825, 47.58402], [13.04094, 47.58335], [13.05706, 47.59766], [13.07205, 47.62242], [13.07484, 47.64665], [13.07205, 47.65947], [13.06409, 47.67399], [13.04456, 47.69657], [13.01986, 47.71293], [13.00435, 47.71461], [12.96404, 47.70536], [12.90834, 47.71236], [12.89201, 47.72355], [12.91723, 47.75016], [12.92126, 47.76954], [12.92674, 47.77739], [12.99123, 47.84711], [12.96498, 47.87196], [12.93108, 47.92488], [12.88601, 47.95289], [12.86204, 47.96255], [12.85398, 47.97048], [12.8456, 47.99314], [12.83062, 48.01547], [12.76023, 48.06487], [12.74204, 48.08678], [12.73698, 48.09996], [12.73894, 48.11345], [12.74504, 48.12063], [12.76406, 48.12376], [12.78235, 48.14202], [12.82214, 48.16068], [12.86255, 48.19665], [12.87764, 48.20205], [12.93304, 48.20925], [12.9317, 48.21163], [12.97944, 48.23202], [13.03277, 48.26357], [13.13644, 48.29106], [13.27421, 48.3071], [13.3078, 48.31964], [13.40557, 48.37658], [13.41952, 48.39216], [13.42717, 48.41854], [13.43616, 48.43059], [13.43823, 48.47854], [13.45642, 48.50665], [13.45921, 48.51639], [13.45704, 48.52518], [13.44774, 48.53482], [13.44009, 48.56097], [13.45456, 48.57344], [13.48722, 48.58158], [13.5207, 48.58458], [13.62437, 48.56536], [13.65806, 48.55109], [13.67336, 48.53549], [13.71651, 48.52169], [13.72539, 48.54838], [13.73387, 48.55978], [13.75805, 48.56148], [13.77428, 48.56921], [13.79619, 48.59858], [13.80239, 48.61171], [13.80622, 48.64292], [13.80094, 48.67522], [13.80353, 48.68716], [13.81686, 48.69558], [13.7994, 48.70261], [13.78875, 48.71651], [13.78358, 48.71527], [13.78586, 48.72478], [13.7958, 48.73865], [13.84005, 48.74184], [13.8409, 48.79285], [13.78699, 48.79194], [13.74793, 48.84338], [13.72467, 48.8673], [13.71062, 48.87247], [13.67336, 48.87635], [13.65444, 48.88224], [13.63739, 48.89345], [13.62178, 48.90906], [13.61114, 48.92725], [13.60866, 48.94616], [13.59047, 48.94482], [13.53889, 48.96704], [13.51595, 48.97024], [13.5021, 48.96606], [13.48226, 48.93763], [13.42727, 48.95996], [13.39854, 48.97768], [13.38418, 48.99303], [13.38356, 49.02109], [13.37239, 49.03851], [13.32992, 49.06693], [13.29953, 49.09364], [13.28733, 49.10057], [13.26728, 49.10563], [13.20682, 49.10749], [13.1785, 49.11835], [13.14946, 49.15483], [13.05582, 49.23818], [13.04321, 49.24289], [13.01128, 49.2678], [12.99981, 49.29492], [12.98244, 49.29963], [12.95433, 49.31911], [12.92291, 49.3327], [12.88467, 49.33957], [12.87093, 49.33673], [12.87537, 49.32386], [12.85666, 49.32221], [12.79775, 49.32784], [12.77791, 49.33255], [12.76209, 49.34324], [12.72933, 49.39115], [12.70918, 49.40474], [12.66308, 49.4189], [12.64355, 49.42949], [12.63218, 49.44396], [12.62722, 49.46019], [12.62298, 49.50985], [12.61554, 49.51378], [12.59373, 49.51502], [12.58288, 49.5224], [12.56231, 49.55083], [12.55363, 49.58473], [12.5466, 49.59558], [12.53606, 49.60312], [12.51219, 49.61165], [12.50196, 49.61971], [12.50743, 49.62999], [12.49689, 49.63387], [12.50536, 49.64612], [12.50464, 49.6594], [12.49637, 49.66999], [12.44924, 49.68503], [12.41958, 49.70022], [12.39891, 49.7195], [12.38362, 49.74286], [12.3954, 49.75789], [12.43674, 49.76926], [12.45265, 49.7797], [12.45638, 49.81711], [12.46247, 49.83122], [12.48252, 49.82724], [12.48986, 49.8427], [12.51291, 49.87024], [12.52097, 49.88554], [12.52407, 49.90496], [12.51787, 49.9122], [12.46268, 49.93127], [12.46382, 49.94212], [12.47074, 49.95561], [12.46816, 49.97023], [12.45131, 49.98057], [12.41452, 49.98305], [12.39922, 49.99276], [12.24688, 50.04496], [12.2414, 50.07064], [12.23251, 50.08051], [12.18786, 50.10283], [12.17918, 50.11798], [12.17856, 50.13296], [12.18559, 50.1557], [12.1827, 50.17074], [12.17505, 50.18262], [12.13929, 50.21105], [12.08989, 50.23084], [12.07955, 50.24272], [12.09206, 50.25482], [12.10911, 50.26381], [12.11097, 50.27662], [12.10725, 50.29089], [12.09919, 50.29977], [12.07614, 50.31517], [12.14932, 50.31171], [12.16854, 50.30298], [12.17443, 50.29373], [12.17412, 50.27657], [12.17805, 50.26877], [12.18921, 50.26246], [12.20378, 50.25957], [12.23965, 50.25657], [12.24244, 50.24836], [12.22983, 50.23905], [12.22993, 50.23482], [12.25432, 50.2174], [12.27324, 50.17234], [12.28336, 50.16221], [12.30042, 50.16082], [12.31437, 50.16733], [12.31437, 50.17621], [12.30558, 50.19931], [12.30869, 50.21709], [12.31406, 50.2265], [12.3338, 50.24272], [12.33649, 50.25859], [12.36718, 50.27905], [12.39819, 50.31517], [12.45018, 50.33936], [12.46681, 50.34189], [12.46898, 50.34556], [12.46681, 50.35491], [12.47508, 50.36943], [12.51022, 50.38876], [12.55053, 50.39636], [12.62536, 50.39992], [12.69181, 50.39465], [12.73791, 50.43155], [12.75424, 50.43532], [12.78814, 50.43434], [12.81739, 50.44302], [12.91836, 50.4054], [12.95257, 50.40416], [12.9966, 50.43367], [13.00311, 50.45191], [13.00962, 50.49268], [13.02626, 50.49764], [13.06037, 50.49061], [13.1074, 50.49899], [13.16011, 50.49702], [13.1847, 50.50875], [13.19907, 50.52534], [13.23235, 50.58203], [13.25178, 50.58089], [13.28465, 50.56896], [13.30563, 50.57578], [13.32185, 50.60239], [13.35937, 50.61934], [13.36878, 50.62833], [13.38097, 50.62549], [13.40702, 50.6013], [13.42934, 50.59433], [13.44794, 50.59727], [13.49817, 50.62916], [13.4991, 50.6352], [13.49331, 50.64322], [13.50995, 50.65123], [13.52329, 50.66218], [13.52722, 50.67567], [13.51564, 50.69102], [13.55657, 50.70672], [13.60194, 50.71215], [13.69175, 50.71184], [13.74906, 50.72321], [13.77066, 50.72461], [13.81655, 50.72135], [13.83454, 50.72368], [13.86347, 50.73515], [13.87536, 50.73654], [13.88218, 50.74274], [13.87908, 50.76352], [13.88332, 50.77323], [13.89252, 50.78042], [13.92332, 50.77995], [13.95959, 50.80207], [13.97913, 50.80476], [14.03494, 50.80259], [14.19079, 50.8479], [14.23213, 50.87938], [14.2681, 50.88413], [14.34654, 50.8802], [14.3759, 50.89596], [14.38189, 50.92087], [14.35523, 50.93064], [14.31833, 50.93751], [14.2928, 50.95348], [14.29373, 50.96397], [14.30376, 50.96971], [14.28381, 50.97482], [14.25001, 50.97761], [14.23834, 50.98247], [14.2495, 50.99265], [14.26355, 51.02143], [14.28753, 51.03683], [14.31936, 51.04001], [14.35657, 51.03234], [14.3759, 51.01699], [14.39781, 51.01312], [14.42582, 51.02094], [14.46209, 51.01965], [14.47346, 51.02337], [14.48214, 51.0372], [14.49351, 51.01671], [14.50292, 51.00852], [14.51532, 51.00304], [14.54229, 50.99875], [14.55459, 50.99265], [14.57434, 50.97549], [14.57744, 50.96573], [14.57558, 50.95069], [14.55584, 50.92428], [14.55036, 50.91209], [14.56183, 50.90635], [14.61712, 50.92087], [14.62921, 50.92072], [14.63459, 50.9094], [14.63165, 50.90267], [14.73661, 50.88106], [14.82105, 50.85343], [14.83813, 50.85705], [14.88383, 50.91513], [14.98144, 50.91096], [14.98485, 50.91808], [14.99777, 50.93017], [14.99663, 50.95922], [14.98144, 50.97322], [14.96522, 50.98133], [14.96098, 50.99265], [14.99653, 51.00784], [15.00397, 51.02068], [15.02299, 51.00965], [15.07363, 51.00262], [15.08211, 50.99275], [15.10795, 50.98102], [15.11921, 50.98247], [15.13151, 51.00583], [15.14443, 51.01156], [15.15611, 51.00784], [15.16076, 50.99265], [15.17016, 50.97798], [15.22711, 50.97741], [15.25378, 50.96904], [15.2698, 50.95265], [15.26876, 50.94299], [15.26008, 50.9325], [15.25305, 50.9141], [15.25605, 50.89989], [15.26535, 50.88227], [15.28778, 50.85488], [15.34101, 50.83173], [15.353, 50.81297], [15.34969, 50.78372], [15.3561, 50.77545], [15.37025, 50.77261], [15.40012, 50.79799], [15.44178, 50.80021], [15.64187, 50.75577], [15.65323, 50.75096], [15.6738, 50.73354], [15.68434, 50.73143], [15.76744, 50.74419], [15.79224, 50.74269], [15.79762, 50.72977], [15.84816, 50.67515], [15.88226, 50.67422], [15.94149, 50.68838], [15.95802, 50.68688], [15.97146, 50.67861], [15.99316, 50.64936], [15.99864, 50.63557], [15.99637, 50.62368], [15.98004, 50.61298], [15.982, 50.60363], [16.02448, 50.60859], [16.08649, 50.64678], [16.12866, 50.64404], [16.17548, 50.62409], [16.19232, 50.62658], [16.20452, 50.63634], [16.21909, 50.65913], [16.23201, 50.66089], [16.26829, 50.66042], [16.30095, 50.6551], [16.33164, 50.64404], [16.41681, 50.58663], [16.4259, 50.56756], [16.39448, 50.55934], [16.39831, 50.54849], [16.38962, 50.53485], [16.38838, 50.52126], [16.39118, 50.52183], [16.35262, 50.49278], [16.33547, 50.49036], [16.30343, 50.49604], [16.28772, 50.49278], [16.27997, 50.47987], [16.26498, 50.47165], [16.23201, 50.45677], [16.21124, 50.45129], [16.21796, 50.43713], [16.19801, 50.44002], [16.19015, 50.42416], [16.19956, 50.40628], [16.23201, 50.40261], [16.24493, 50.37682], [16.2625, 50.36442], [16.28865, 50.37186], [16.34374, 50.36995], [16.35076, 50.36065], [16.35324, 50.33352], [16.37102, 50.31838], [16.41557, 50.30794], [16.43779, 50.29796], [16.50476, 50.228], [16.53504, 50.20774], [16.54589, 50.18882], [16.55726, 50.15472], [16.56667, 50.14221], [16.58424, 50.12743], [16.61865, 50.10702], [16.66062, 50.09302], [16.70123, 50.09493], [16.73203, 50.12196], [16.75425, 50.13229], [16.79528, 50.17441], [16.81771, 50.18676], [16.85761, 50.18774], [16.88096, 50.19156], [16.90701, 50.21177], [16.919, 50.21709], [16.95528, 50.21347], [16.96034, 50.23197], [16.98101, 50.22918], [16.99631, 50.2129], [17.0084, 50.20996], [17.01481, 50.21849], [17.01284, 50.23166], [16.99982, 50.24272], [16.99837, 50.26701], [16.98783, 50.28494], [16.96964, 50.29776], [16.94525, 50.3069], [16.92654, 50.31926], [16.90928, 50.35992], [16.89791, 50.37822], [16.86587, 50.40845], [16.86577, 50.4224], [16.89295, 50.43294], [16.91579, 50.43108], [16.95879, 50.4146], [16.98194, 50.41635], [17.08467, 50.39796], [17.1317, 50.37682], [17.17593, 50.38075], [17.18761, 50.37848], [17.18544, 50.37569], [17.19505, 50.35192], [17.20105, 50.34323], [17.21087, 50.33641], [17.24611, 50.32215], [17.26988, 50.31776], [17.3168, 50.31864], [17.33747, 50.313], [17.31908, 50.30825], [17.33406, 50.29569], [17.33479, 50.27001], [17.34171, 50.25972], [17.35504, 50.25326], [17.3659, 50.27156], [17.38801, 50.27264], [17.40982, 50.26133], [17.41912, 50.24272], [17.42419, 50.24055], [17.44, 50.24272], [17.46935, 50.26556], [17.517, 50.26835], [17.6064, 50.25822], [17.62955, 50.2621], [17.6467, 50.27109], [17.67637, 50.2974], [17.68453, 50.31238], [17.69104, 50.31507], [17.70799, 50.31104], [17.73445, 50.28949], [17.71916, 50.2528], [17.72143, 50.24272], [17.73197, 50.236], [17.74758, 50.2175], [17.73817, 50.20236], [17.71791, 50.1911], [17.67533, 50.17472], [17.64867, 50.168], [17.6004, 50.16681], [17.58945, 50.16324], [17.58211, 50.15317], [17.58418, 50.14588], [17.63275, 50.10635], [17.64836, 50.1018], [17.67761, 50.10774], [17.73197, 50.09488], [17.73197, 50.09147], [17.72267, 50.08635], [17.71947, 50.08087], [17.72257, 50.07514], [17.74303, 50.06056], [17.76329, 50.02522], [17.83936, 49.97364], [17.87573, 49.96868], [17.91212, 49.97581], [17.94157, 49.99276], [17.99986, 49.99659], [18.03242, 50.00284], [18.03748, 50.00723], [18.03573, 50.01721], [18.0287, 50.02413], [18.00689, 50.02413], [18.00245, 50.04676], [18.01907, 50.04409], [18.03324, 50.0418], [18.09164, 50.01721], [18.08513, 49.99876], [18.09815, 49.98904], [18.16202, 49.98124], [18.20874, 49.9583], [18.24398, 49.95173], [18.25587, 49.94605], [18.27261, 49.9183], [18.29245, 49.90781], [18.30692, 49.90967], [18.33493, 49.92543], [18.32852, 49.92884], [18.36883, 49.93204], [18.40749, 49.92316], [18.4818, 49.89664], [18.50505, 49.8967], [18.54443, 49.91298], [18.55921, 49.90719], [18.56541, 49.88905], [18.56293, 49.8737], [18.56727, 49.86145], [18.59383, 49.8522], [18.94821, 49.88954], [19.07235, 50.03873], [19.13902, 50.10074], [19.22349, 50.15237], [19.29668, 50.17918], [19.37183, 50.1956], [19.61028, 50.23022], [19.69173, 50.25209], [19.77686, 50.28783], [19.84609, 50.33118], [19.84696, 50.34199], [19.82285, 50.3529], [19.97989, 50.38631], [20.04897, 50.39602], [20.15309, 50.39823], [20.2287, 50.38609], [20.2842, 50.36274], [20.32768, 50.33069], [20.40394, 50.25557], [20.45224, 50.21781], [20.5194, 50.18288], [20.62797, 50.15703], [20.74078, 50.15992], [20.86083, 50.18566], [20.97918, 50.22682], [21.31953, 50.37882], [21.41827, 50.41595], [21.50562, 50.44172], [21.67009, 50.48028], [21.8266, 50.50216], [21.90328, 50.50673], [22.05215, 50.50275], [22.1141, 50.44437], [22.25762, 50.33558], [22.41591, 50.23646], [22.64828, 50.10592], [22.73702, 50.06286], [23.06561, 49.92321], [23.10146, 49.95711], [23.14125, 49.98548], [23.17784, 50.00398], [23.20792, 50.03395], [23.43643, 50.19348], [23.56531, 50.25781], [23.64417, 50.31269], [23.65802, 50.32561], [23.67125, 50.35357], [23.6822, 50.36824], [23.69574, 50.37677], [23.74752, 50.38938], [23.9287, 50.39083], [23.98131, 50.40478], [24.17867, 50.21034], [24.19864, 50.19801], [24.47042, 49.97832], [24.54496, 49.9295], [24.61365, 49.90389], [24.76991, 49.875], [24.85496, 49.84561], [24.90157, 49.80641], [24.98465, 49.67462], [25.00909, 49.65244], [25.07463, 49.61572], [25.1566, 49.58544], [25.28519, 49.55486], [25.38261, 49.54409], [25.5364, 49.53841], [25.63064, 49.52396], [25.67865, 49.50775], [25.72798, 49.48302], [25.77383, 49.45333], [25.84964, 49.39256], [26.00576, 49.2069], [26.14105, 49.01872], [26.16457, 48.95086], [26.17166, 48.88998], [26.16655, 48.83238], [26.09804, 48.59842], [26.08789, 48.52878], [26.09103, 48.45644], [26.10405, 48.40543], [26.30349, 48.21204], [26.29615, 48.179], [26.2975, 48.15634], [26.28695, 48.12471], [26.27073, 48.0936], [26.25533, 48.07234], [26.20479, 48.03738], [26.17306, 47.99314], [26.12572, 47.97842], [26.22621, 47.75955], [26.2105, 47.74586], [26.21865, 47.73503], [26.25026, 47.73512], [26.16125, 47.52791], [26.13261, 47.4213], [26.12786, 47.36634], [26.13157, 47.31009], [26.19209, 47.07693], [26.19355, 47.02965], [26.18528, 46.98119], [26.16441, 46.9295], [26.11237, 46.85716], [26.04324, 46.79841], [25.96165, 46.74986], [25.68911, 46.62744], [25.604, 46.58177], [25.5377, 46.52973], [25.54545, 46.52193], [25.75755, 46.45697], [25.91475, 46.39207], [25.98335, 46.35316], [26.03907, 46.31013], [26.07865, 46.26233], [26.09547, 46.20459], [26.09293, 46.00464], [26.12587, 45.89506], [26.18419, 45.80544], [26.38896, 45.57783], [26.43184, 45.51934], [26.46229, 45.4597], [26.47596, 45.39812], [26.46808, 45.33405], [26.43372, 45.2683], [26.40699, 45.23824], [26.34476, 45.19412], [26.23995, 45.14107], [26.17432, 45.09569], [26.14697, 45.06501], [26.12712, 45.03109], [26.08679, 44.91929], [26.05092, 44.85084], [26.02231, 44.82173], [25.93254, 44.76992], [25.84565, 44.75483], [25.76061, 44.76747], [25.67617, 44.79919], [25.50883, 44.8835], [25.42446, 44.91878], [25.33655, 44.93858], [25.22287, 44.93995], [25.04864, 44.91428], [24.95015, 44.90503], [24.88622, 44.90825], [24.74265, 44.93353], [24.64264, 44.93771], [24.55631, 44.92597], [24.47564, 44.90252], [24.23049, 44.80524], [24.13435, 44.77852], [24.02563, 44.76222], [23.92175, 44.75578], [23.53224, 44.75141], [23.43373, 44.74635], [23.33315, 44.73598], [23.22981, 44.71868], [23.13489, 44.69476], [23.05849, 44.66606], [22.76515, 44.58281], [22.71472, 44.62306], [22.70014, 44.63061], [22.62118, 44.63743], [22.58749, 44.64937], [22.55328, 44.66916], [22.48372, 44.72399], [22.46894, 44.73019], [22.42605, 44.73365], [22.38068, 44.70053], [22.36115, 44.69205], [22.3197, 44.68534], [22.30492, 44.67738], [22.29903, 44.66167], [22.18514, 44.51511], [22.17211, 44.50535], [22.14824, 44.5009], [22.12664, 44.50266], [22.04005, 44.27145], [21.97062, 44.30145], [21.867, 44.41084], [21.53719, 44.44427], [21.50343, 44.43068], [21.50265, 44.4384], [21.49272, 44.44293], [21.25906, 44.43968], [21.1096, 44.42475], [20.98803, 44.39665], [20.80592, 44.33144], [20.74458, 44.31449], [20.68279, 44.30484], [20.62101, 44.30551], [20.55892, 44.31941], [20.52089, 44.33892], [20.46964, 44.38449], [20.38925, 44.47621], [20.35376, 44.50911], [20.31513, 44.53242], [20.27261, 44.5418], [20.22174, 44.53443], [20.17967, 44.51077], [20.14574, 44.47683], [20.06632, 44.37623], [20.02018, 44.33904], [19.96125, 44.31551], [19.91949, 44.30722], [19.87676, 44.30495], [19.83606, 44.30907], [19.79821, 44.31986], [19.76452, 44.33793], [19.73738, 44.36339], [19.71822, 44.39671], [19.71043, 44.42266], [19.70325, 44.42754], [19.67188, 44.43576], [19.63584, 44.43874], [19.54318, 44.42741], [19.32433, 44.26397], [19.30738, 44.2742], [19.29591, 44.2758], [19.26366, 44.27017], [19.2495, 44.27074], [19.22005, 44.28024], [19.17715, 44.28696], [19.157, 44.29358], [18.95322, 44.11548], [18.95571, 44.00904], [18.765, 44.05997], [18.75456, 44.05857], [18.74954, 44.05275], [18.75418, 44.04417], [18.9568, 43.92976], [18.64258, 43.84489], [18.63457, 43.83573], [18.647, 43.82747], [19.00471, 43.82778], [18.91246, 43.6285], [18.9203, 43.61709], [18.93433, 43.62046], [19.06745, 43.75773], [19.32567, 43.8817], [19.35947, 43.84221], [19.46168, 43.76214], [19.48174, 43.72922], [19.50571, 43.67364], [19.50737, 43.64718], [19.48173, 43.62891], [19.4775, 43.61698], [19.47688, 43.58868], [19.48174, 43.57812], [19.49176, 43.56861], [19.48959, 43.56445], [19.48174, 43.56083], [19.44391, 43.57186], [19.43182, 43.57114], [19.41931, 43.54926], [19.41073, 43.54075], [19.44636, 43.45494], [19.40972, 43.4007], [19.39818, 43.37147], [19.39473, 43.34088], [19.40233, 43.29305], [19.45688, 43.18971], [19.45495, 43.16794], [19.43856, 43.14215], [19.40304, 43.10849], [19.35588, 43.07412], [19.23889, 43.00229], [19.2134, 42.97453], [19.19911, 42.93811], [19.19851, 42.89154], [19.21377, 42.82668], [19.0715, 42.81035], [18.99412, 42.76825], [18.9971, 42.76072], [19.0634, 42.71159], [19.09242, 42.68256], [19.11705, 42.65192], [19.15464, 42.58453], [19.44598, 42.39883], [19.41208, 42.3684], [19.40267, 42.35202], [19.4004, 42.32589], [19.30459, 42.2151], [19.27493, 42.19128], [19.27203, 42.18068], [19.28206, 42.16456], [19.29777, 42.15167], [19.35502, 42.12004], [19.37249, 42.10425], [19.37487, 42.09467], [19.35658, 42.0648], [19.35172, 42.04761], [19.35058, 42.02782], [19.3542, 42.0087], [19.37104, 41.98656], [19.36577, 41.96971], [19.34645, 41.96155], [19.21604, 41.93786], [19.20063, 41.92774], [19.17027, 41.93798], [19.1623, 41.94795], [19.16033, 41.96898], [19.13797, 41.9853], [19.14356, 41.99307], [19.13917, 42.04243], [19.08254, 42.08121], [19.07474, 42.09565], [19.08383, 42.11009], [19.06399, 42.12019], [19.04868, 42.1402], [19.0106, 42.13956], [18.99985, 42.16108], [18.98163, 42.16707], [18.96803, 42.18871], [18.91335, 42.22224], [18.90171, 42.2375], [18.89471, 42.27049], [18.886, 42.28437], [18.87159, 42.29047], [18.85402, 42.29047], [18.83888, 42.28571], [18.83139, 42.27755], [18.81764, 42.29116], [18.77858, 42.27148], [18.76246, 42.29116], [18.71454, 42.32527], [18.71412, 42.33894], [18.69363, 42.35322], [18.69581, 42.37376], [18.67848, 42.38597], [18.65854, 42.38662], [18.65316, 42.36629], [18.63844, 42.37031], [18.61671, 42.36808], [18.5949, 42.38373], [18.57067, 42.39298], [18.57814, 42.40038], [18.553, 42.41365], [18.54519, 42.42357], [18.55015, 42.43512], [18.56284, 42.43854], [18.6565, 42.41551], [18.68555, 42.40399], [18.70045, 42.39297], [18.70818, 42.40852], [18.70655, 42.42105], [18.68385, 42.45881], [18.68735, 42.4829], [18.65384, 42.45177], [18.60859, 42.44539], [18.50245, 42.45563], [18.50245, 42.44819], [18.52124, 42.43797], [18.51295, 42.409], [18.52973, 42.4004], [18.51027, 42.40527], [18.47446, 42.44135], [18.41334, 42.46175], [18.41188, 42.47602], [18.23895, 42.55908], [18.22057, 42.57917], [18.22348, 42.61469], [18.21754, 42.6201], [18.16603, 42.62695], [18.12485, 42.6446], [18.07603, 42.65132], [18.06399, 42.65763], [18.0574, 42.66791], [18.07732, 42.66791], [18.04804, 42.69045], [18.04322, 42.70205], [18.02807, 42.69141], [18.00327, 42.70068], [17.96119, 42.7294], [17.90163, 42.7519], [17.88073, 42.76875], [17.89283, 42.79084], [17.86509, 42.78996], [17.83497, 42.8072], [17.80665, 42.81192], [17.78565, 42.80516], [17.78011, 42.79695], [17.72096, 42.82624], [17.74871, 42.80341], [17.76179, 42.77891], [17.76165, 42.7742], [17.74872, 42.77205], [17.74887, 42.79084], [17.72877, 42.80077], [17.67856, 42.81623], [17.63348, 42.82296], [17.58009, 42.84125], [17.52496, 42.8487], [17.44045, 42.87336], [17.44272, 42.89863], [17.41725, 42.9112], [17.35093, 42.92179], [17.27133, 42.96337], [17.23749, 42.97139], [17.21388, 42.98261], [17.09539, 42.98444], [17.06251, 42.99006], [17.02753, 43.00358], [17.01793, 43.01382], [17.02817, 43.02416], [17.02817, 43.03099], [17.01882, 43.03409], [17.00167, 43.05149], [17.02312, 43.04864], [17.05568, 43.02896], [17.07325, 43.02416], [17.1587, 43.03098], [17.24024, 43.02277], [17.39071, 42.97761], [17.4541, 42.94228], [17.46022, 42.92178], [17.48145, 42.92177], [17.50766, 42.90908], [17.52263, 42.91022], [17.52614, 42.92177], [17.55898, 42.91281], [17.58375, 42.9007], [17.64161, 42.88447], [17.65268, 42.87336], [17.67368, 42.87507], [17.71599, 42.84418], [17.74147, 42.83926], [17.71095, 42.85663], [17.70191, 42.86848], [17.71363, 42.8808], [17.70737, 42.88703], [17.67872, 42.87938], [17.55652, 42.93476], [17.57398, 42.93427], [17.61793, 42.92178], [17.60304, 42.93256], [17.54965, 42.95531], [17.53452, 42.95064], [17.49883, 42.97194], [17.47475, 43.00098], [17.47089, 43.01341], [17.47918, 43.02241], [17.50196, 43.03099], [17.48797, 43.03498], [17.43374, 43.01744], [17.46022, 43.03099], [17.43231, 43.03621], [17.42613, 43.04464], [17.4336, 43.0515], [17.42612, 43.06517], [17.40455, 43.05151], [17.37087, 43.07389], [17.31625, 43.12727], [17.17238, 43.18184], [17.11395, 43.21321], [17.10027, 43.23168], [17.07351, 43.23897], [17.05635, 43.25699], [17.04949, 43.27802], [17.02818, 43.28425], [16.93393, 43.3736], [16.88063, 43.40595], [16.75245, 43.41951], [16.69386, 43.4383], [16.62583, 43.44905], [16.53485, 43.49714], [16.52467, 43.51081], [16.5044, 43.50399], [16.46656, 43.51081], [16.39146, 43.51082], [16.39146, 43.51764], [16.43425, 43.52188], [16.4734, 43.53815], [16.43385, 43.54975], [16.33676, 43.55117], [16.29959, 43.53822], [16.23959, 43.52657], [16.11769, 43.52448], [16.11769, 43.51765], [16.15073, 43.51138], [16.16487, 43.50409], [16.17235, 43.4897], [16.11085, 43.48969], [16.11311, 43.47892], [16.06617, 43.48969], [16.03957, 43.4908], [16.01401, 43.50397], [16.00782, 43.50397], [16.00782, 43.49715], [15.99578, 43.50336], [15.97348, 43.50313], [15.96632, 43.51081], [15.96437, 43.50391], [15.9595, 43.50398], [15.96129, 43.51503], [15.98365, 43.52106], [15.98699, 43.52729], [15.98227, 43.5373], [15.98731, 43.54491], [15.95949, 43.53817], [15.94809, 43.55288], [15.92534, 43.55858], [15.94191, 43.56], [15.94418, 43.56672], [15.93539, 43.57294], [15.91799, 43.57291], [15.91799, 43.57908], [15.93214, 43.58658], [15.918, 43.59333], [15.9253, 43.59956], [15.918, 43.60639], [15.9253, 43.61384], [15.91897, 43.62873], [15.92953, 43.63422], [15.96632, 43.63373], [15.96632, 43.64118], [15.90484, 43.64803], [15.91676, 43.65362], [15.94239, 43.64802], [15.95297, 43.65086], [15.95143, 43.65742], [15.93216, 43.66845], [15.94597, 43.67231], [15.9524, 43.67976], [15.95045, 43.68854], [15.93897, 43.69644], [15.93971, 43.67764], [15.93116, 43.6765], [15.89291, 43.70051], [15.87078, 43.70319], [15.84401, 43.72993], [15.79217, 43.75446], [15.77101, 43.75996], [15.70632, 43.76342], [15.69265, 43.77461], [15.68214, 43.79719], [15.63299, 43.81045], [15.61745, 43.8255], [15.6631, 43.81297], [15.67888, 43.81184], [15.67888, 43.81928], [15.66578, 43.81928], [15.63885, 43.83613], [15.57407, 43.85953], [15.54519, 43.87764], [15.51222, 43.91108], [15.47327, 43.91926], [15.4551, 43.92805], [15.43873, 43.94965], [15.35808, 44.0257], [15.33961, 44.03937], [15.31952, 44.04524], [15.27833, 44.0856], [15.23325, 44.12092], [15.21291, 44.13106], [15.20885, 44.13817], [15.21274, 44.14826], [15.19858, 44.15806], [15.18779, 44.13225], [15.14519, 44.14733], [15.08438, 44.18625], [15.02906, 44.23665], [14.95961, 44.31478], [14.84441, 44.46621], [14.83038, 44.48843], [14.82762, 44.49795], [14.82903, 44.50623], [14.83557, 44.51312], [14.87029, 44.5224], [14.90569, 44.51931], [14.87763, 44.55134], [14.87696, 44.55976], [14.83102, 44.5991], [14.81079, 44.59549], [14.78966, 44.60482], [14.77133, 44.62464], [14.76263, 44.64395], [14.7618, 44.65837], [14.74368, 44.68049], [14.73367, 44.70318], [14.74121, 44.7016], [14.7669, 44.68032], [14.77524, 44.69326], [14.78838, 44.70288], [14.80462, 44.70594], [14.82322, 44.7005], [14.84354, 44.68451], [14.85629, 44.66338], [14.85855, 44.65224], [14.85623, 44.63053], [14.84647, 44.61192], [14.83974, 44.60633], [14.84523, 44.60053], [14.8838, 44.57966], [14.88015, 44.60919], [14.90406, 44.61], [14.93823, 44.59413], [14.96607, 44.57361], [15.00392, 44.53608], [15.04118, 44.52748], [15.0755, 44.48409], [15.05592, 44.48623], [15.02817, 44.50316], [15.00733, 44.50454], [15.01417, 44.51874], [14.97291, 44.53612], [14.92856, 44.55231], [14.91114, 44.55231], [14.91114, 44.54548], [14.96599, 44.52387], [15.04803, 44.43944], [15.09669, 44.41519], [15.06495, 44.43793], [15.05104, 44.45527], [15.04153, 44.47662], [15.08326, 44.46185], [15.17661, 44.3913], [15.19906, 44.38104], [15.25439, 44.34003], [15.23512, 44.33625], [15.16505, 44.36738], [15.16505, 44.36054], [15.20045, 44.34951], [15.22704, 44.32637], [15.20655, 44.32636], [15.21095, 44.31733], [15.22018, 44.31275], [15.15455, 44.331], [15.13087, 44.33259], [15.13087, 44.32636], [15.17236, 44.30532], [15.17236, 44.29915], [15.12875, 44.312], [15.09669, 44.34026], [15.09672, 44.34626], [15.11036, 44.34626], [15.11036, 44.3537], [15.09719, 44.36132], [15.08923, 44.3742], [15.10694, 44.37519], [15.1172, 44.38719], [15.08302, 44.40152], [15.04901, 44.39469], [15.02076, 44.43], [14.95552, 44.46801], [14.97205, 44.39323], [14.99253, 44.36699], [15.03144, 44.32663], [15.0656, 44.32078], [15.08611, 44.30878], [15.09743, 44.30968], [15.13721, 44.28831], [15.11689, 44.28169], [15.1143, 44.28714], [15.08782, 44.29894], [15.07597, 44.29057], [15.11339, 44.26615], [15.14064, 44.28246], [15.15755, 44.28033], [15.16505, 44.26122], [15.17661, 44.24994], [15.19793, 44.25731], [15.20777, 44.27277], [15.18541, 44.28539], [15.19459, 44.2888], [15.20655, 44.28539], [15.19811, 44.30165], [15.24756, 44.27797], [15.27955, 44.25178], [15.29526, 44.25068], [15.28177, 44.28538], [15.29493, 44.29023], [15.30275, 44.29914], [15.27818, 44.30981], [15.26126, 44.33258], [15.28052, 44.32753], [15.3086, 44.30927], [15.42449, 44.26797], [15.50359, 44.25922], [15.52524, 44.26069], [15.52866, 44.2718], [15.51482, 44.27851], [15.44923, 44.2854], [15.40602, 44.32062], [15.30796, 44.3544], [15.15505, 44.46671], [15.08424, 44.53224], [15.05202, 44.54549], [15.00735, 44.56974], [14.90156, 44.68997], [14.88381, 44.72362], [14.89519, 44.73615], [14.88379, 44.78898], [14.88376, 44.86117], [14.92164, 44.95881], [14.91432, 44.98143], [14.85647, 45.07649], [14.85279, 45.09366], [14.8274, 45.11396], [14.76597, 45.13736], [14.6579, 45.19661], [14.6067, 45.24437], [14.57604, 45.26226], [14.56863, 45.27595], [14.5822, 45.28535], [14.53435, 45.31269], [14.55543, 45.29588], [14.5433, 45.28385], [14.53306, 45.28389], [14.51051, 45.29975], [14.40235, 45.33861], [14.32976, 45.35399], [14.31153, 45.34398], [14.27198, 45.29011], [14.25847, 45.25576], [14.24772, 45.18647], [14.23258, 45.14936], [14.20923, 45.12638], [14.17937, 45.13451], [14.19532, 45.12059], [14.19311, 45.10562], [14.16439, 45.07991], [14.15821, 45.08735], [14.15406, 45.07197], [14.1582, 45.05322], [14.14389, 45.05939], [14.14389, 45.05321], [14.15942, 45.04035], [14.16617, 45.01895], [14.16373, 44.99576], [14.15151, 44.97768], [14.1399, 44.97135], [14.11329, 44.97748], [14.10133, 44.97427], [14.07568, 44.94954], [14.06887, 44.94954], [14.07162, 44.96906], [14.08383, 44.9864], [14.07569, 45.00483], [14.05453, 45.01846], [14.05193, 45.03803], [14.04029, 45.03897], [14.04428, 45.00141], [14.07154, 44.99335], [14.07569, 44.98371], [14.04444, 44.95141], [14.03468, 44.95637], [14.03905, 44.93183], [14.03467, 44.92232], [14.02247, 44.92349], [14.02783, 44.90864], [14.0215, 44.90738], [14.02051, 44.90113], [14.01059, 44.90526], [13.97267, 44.90111], [13.99288, 44.8815], [13.98618, 44.88129], [13.98618, 44.87507], [13.993, 44.87507], [13.99301, 44.86784], [13.97267, 44.84715], [13.97267, 44.82665], [13.98942, 44.82509], [13.99999, 44.81307], [13.96356, 44.81187], [13.93165, 44.8205], [13.92481, 44.81307], [13.91871, 44.82905], [13.89959, 44.82905], [13.89015, 44.83348], [13.88315, 44.82665], [13.90431, 44.81729], [13.90935, 44.80899], [13.90447, 44.79877], [13.91796, 44.77827], [13.90318, 44.77242], [13.89698, 44.81306], [13.84915, 44.82665], [13.85597, 44.84028], [13.84232, 44.84028], [13.84913, 44.84715], [13.8423, 44.85464], [13.81569, 44.8566], [13.78714, 44.87507], [13.79462, 44.88128], [13.80486, 44.87059], [13.81959, 44.86766], [13.83375, 44.87336], [13.8423, 44.88813], [13.81528, 44.88353], [13.80486, 44.8854], [13.79462, 44.89497], [13.80812, 44.91543], [13.79674, 44.92488], [13.7741, 44.96381], [13.73306, 44.99471], [13.66082, 45.06122], [13.64381, 45.0705], [13.62324, 45.07307], [13.63689, 45.09357], [13.61258, 45.11786], [13.63852, 45.13003], [13.72625, 45.13451], [13.6836, 45.14338], [13.60048, 45.13749], [13.59597, 45.14541], [13.59938, 45.17129], [13.58914, 45.17549], [13.59441, 45.18732], [13.58229, 45.19682], [13.5823, 45.20282], [13.59449, 45.21263], [13.58914, 45.2307], [13.59522, 45.2508], [13.57547, 45.26488], [13.58425, 45.27606], [13.60271, 45.27912], [13.60271, 45.28535], [13.58466, 45.29321], [13.57547, 45.30646], [13.60955, 45.32014], [13.56179, 45.32637], [13.54128, 45.34614], [13.54055, 45.35675], [13.55494, 45.36107], [13.55494, 45.36734], [13.54316, 45.37617], [13.51337, 45.43622], [13.52076, 45.44302], [13.51565, 45.44814], [13.52076, 45.45726], [13.50149, 45.4986], [13.5071, 45.5119], [13.51335, 45.5119], [13.56861, 45.49079], [13.58953, 45.48884], [13.59596, 45.51813], [13.57863, 45.52339], [13.56864, 45.53924], [13.58961, 45.53579], [13.75294, 45.55288], [13.74236, 45.56977], [13.71194, 45.5934], [13.73016, 45.61309], [13.78688, 45.61115], [13.80812, 45.61432], [13.79558, 45.61701], [13.77711, 45.63544], [13.7393, 45.64911], [13.75766, 45.65497], [13.75367, 45.67231], [13.73911, 45.6916], [13.64731, 45.76203], [13.62892, 45.77261], [13.57423, 45.78962], [13.55128, 45.79243], [13.53443, 45.78205], [13.52418, 45.76008], [13.52833, 45.74055], [13.5549, 45.7372], [13.5184, 45.72484], [13.50781, 45.71443], [13.46925, 45.70686], [13.42798, 45.68115], [13.4017, 45.67545], [13.37676, 45.68317], [13.40919, 45.69131], [13.43141, 45.70686], [13.42262, 45.72407], [13.38169, 45.73006], [13.3694, 45.74462], [13.35182, 45.74031], [13.2549, 45.75606], [13.2155, 45.77879], [13.16944, 45.76874], [13.14967, 45.75154], [13.13982, 45.75487], [13.13136, 45.76887], [13.11931, 45.77196], [13.11085, 45.76765], [13.10817, 45.7582], [13.11183, 45.74885], [13.12288, 45.74462], [13.12288, 45.73722], [13.1006, 45.73623], [13.08058, 45.72761], [13.06959, 45.71369], [13.07504, 45.69684], [13.09148, 45.6892], [13.11166, 45.69135], [13.14964, 45.70374], [13.13802, 45.6894], [13.10304, 45.66901], [13.08496, 45.64192], [13.06618, 45.63788], [13.08537, 45.66583], [13.0592, 45.70207], [13.0273, 45.76742], [13.01807, 45.80205], [13.01423, 45.8715], [13.02945, 45.93975], [13.0443, 45.97331], [13.10406, 46.0828], [13.11529, 46.09591], [13.40164, 46.21666], [13.41042, 46.20801], [13.40627, 46.23877]], [[22.86696, 49.00998], [22.84318, 49.04311], [22.84442, 49.0567], [22.85352, 49.07628], [22.85342, 49.08476], [22.84132, 49.09489], [22.77807, 49.12031], [22.74882, 49.14558], [22.71637, 49.16057], [22.72143, 49.1616], [22.70573, 49.16883], [22.68785, 49.15591], [22.68175, 49.16124], [22.70293, 49.19503], [22.71709, 49.23043], [22.73394, 49.26087], [22.73776, 49.27539], [22.73011, 49.32723], [22.45092, 49.29331], [22.42434, 49.24411], [22.34422, 49.41266], [22.3271, 49.41765], [22.31778, 49.40864], [22.31925, 49.39129], [22.19795, 49.17199], [22.20891, 49.16398], [22.20622, 49.15049], [22.20849, 49.14419], [22.21594, 49.14], [22.26286, 49.13059], [22.31815, 49.13199], [22.33944, 49.12646], [22.39008, 49.09302], [22.43715, 48.94855], [22.41489, 48.91169], [22.41179, 48.88777], [22.72604, 48.78484], [22.74149, 48.78163], [22.85528, 48.99401], [22.86696, 49.00998]], [[21.67223, 49.73296], [21.69679, 49.60249], [21.70523, 49.59608], [21.71921, 49.59758], [21.76214, 49.73499], [22.0022, 49.52073], [22.01789, 49.51752], [22.02642, 49.52896], [21.88704, 49.78871], [22.20851, 49.79776], [22.21762, 49.8012], [22.22014, 49.80865], [22.21167, 49.81503], [21.90241, 49.89275], [22.18159, 50.08567], [22.18463, 50.0947], [22.17633, 50.10022], [22.16442, 50.09959], [21.83192, 49.97528], [21.86907, 50.25582], [21.86403, 50.26351], [21.85001, 50.26495], [21.84184, 50.25948], [21.69413, 49.98051], [21.61162, 50.14833], [21.59359, 50.15315], [21.58481, 50.14422], [21.602, 49.9712], [21.33627, 50.0625], [21.3244, 50.06212], [21.31707, 50.05513], [21.32097, 50.0479], [21.53803, 49.90447], [21.16952, 49.83565], [21.1658, 49.82675], [21.17616, 49.82042], [21.5791, 49.7883], [21.44716, 49.57207], [21.45261, 49.56118], [21.47097, 49.5633], [21.67223, 49.73296]], [[15.22597, 45.99233], [15.2163, 46.14909], [15.20391, 46.15769], [15.19075, 46.15073], [15.09936, 45.87436], [14.98467, 46.03805], [14.96826, 46.04244], [14.96043, 46.03224], [15.0111, 45.86454], [14.73119, 45.94731], [14.71915, 45.94563], [14.71449, 45.93857], [14.71946, 45.93161], [14.96276, 45.79888], [14.89074, 45.78435], [14.5919, 45.66336], [14.59387, 45.61618], [14.60307, 45.60357], [14.66983, 45.56456], [14.67169, 45.55681], [14.66849, 45.53397], [14.68833, 45.52203], [14.78125, 45.49335], [14.79716, 45.46518], [14.83882, 45.45898], [14.8816, 45.46978], [14.90083, 45.49314], [14.90444, 45.51443], [14.92263, 45.51495], [14.96263, 45.49314], [14.9863, 45.49087], [15.00738, 45.48084], [15.05617, 45.47991], [15.13926, 45.43004], [15.18422, 45.4256], [15.28158, 45.45097], [15.31403, 45.45051], [15.32519, 45.45283], [15.33388, 45.45852], [15.36137, 45.48203], [15.31103, 45.50591], [15.29667, 45.52296], [15.28261, 45.5706], [15.26959, 45.59345], [15.26856, 45.60166], [15.28788, 45.61034], [15.29739, 45.62569], [15.3531, 45.64032], [15.37377, 45.64021], [15.35196, 45.66807], [15.33077, 45.68455], [15.31496, 45.68088], [15.30494, 45.67215], [15.29191, 45.67556], [15.28302, 45.68011], [15.26783, 45.69845], [15.25088, 45.70765], [15.24892, 45.71184], [15.25502, 45.72346], [15.26349, 45.73039], [15.3038, 45.74615], [15.42906, 45.7753], [15.44105, 45.78217], [15.43557, 45.80212], [15.44033, 45.81147], [15.22597, 45.99233]], [[15.13152, 44.25462], [15.13001, 44.25531], [15.13255, 44.25366], [15.13152, 44.25462]]], [[[17.76505, 42.59859], [17.82227, 42.57892], [17.84125, 42.56136], [17.83044, 42.54719], [17.79859, 42.53812], [17.75473, 42.53609], [17.70801, 42.5432], [17.66772, 42.56152], [17.64293, 42.593], [17.64169, 42.60851], [17.65039, 42.61683], [17.66641, 42.61943], [17.68715, 42.61779], [17.76505, 42.59859]]], [[[17.8367, 42.75307], [17.84823, 42.75392], [17.8986, 42.73298], [17.91477, 42.71598], [17.90544, 42.7006], [17.84508, 42.73209], [17.85076, 42.734], [17.8367, 42.75307]]], [[[17.6482, 42.73851], [17.65894, 42.74298], [17.67937, 42.72989], [17.73047, 42.71344], [17.74884, 42.69458], [17.38592, 42.77094], [17.37379, 42.76001], [17.35378, 42.76668], [17.32376, 42.79083], [17.37348, 42.80255], [17.39232, 42.80169], [17.37159, 42.79084], [17.39332, 42.79116], [17.41245, 42.784], [17.41993, 42.79083], [17.43686, 42.78262], [17.48601, 42.78216], [17.52369, 42.76484], [17.57447, 42.7575], [17.59749, 42.74982], [17.59067, 42.74299], [17.6482, 42.73851]]], [[[16.80984, 42.74982], [16.82228, 42.75511], [16.82407, 42.76406], [16.81886, 42.76936], [16.80301, 42.7635], [16.80733, 42.77056], [16.78366, 42.77162], [16.74881, 42.78672], [16.71696, 42.81092], [16.69226, 42.83954], [16.67887, 42.86794], [16.68092, 42.89154], [16.70206, 42.90553], [16.76187, 42.90256], [16.8078, 42.88923], [16.91221, 42.84933], [16.96981, 42.83703], [17.03265, 42.83594], [17.07381, 42.84117], [17.12156, 42.85175], [17.17224, 42.85073], [17.22433, 42.83153], [17.31013, 42.78581], [17.32671, 42.77257], [17.31975, 42.7617], [17.29857, 42.75755], [17.26737, 42.75838], [17.12695, 42.7767], [17.10928, 42.77626], [17.07422, 42.75951], [17.05095, 42.75542], [17.023, 42.75924], [16.95999, 42.7812], [16.91668, 42.78813], [16.87076, 42.78262], [16.92107, 42.77715], [16.93392, 42.77093], [16.93636, 42.75552], [16.92464, 42.74141], [16.90544, 42.73177], [16.88495, 42.72941], [16.88217, 42.7364], [16.85817, 42.74299], [16.84766, 42.7336], [16.83432, 42.73095], [16.82082, 42.73608], [16.80984, 42.74982]]], [[[16.63846, 42.93476], [16.7068, 42.9621], [16.7068, 42.96955], [16.63171, 42.98261], [16.65301, 42.99238], [16.72047, 42.99005], [16.76856, 42.97224], [16.82407, 42.9621], [16.87867, 42.9621], [16.91554, 42.9745], [17.03207, 42.98261], [17.11109, 42.9643], [17.13183, 42.96955], [17.16432, 42.94147], [17.20019, 42.92178], [17.19337, 42.91431], [17.17433, 42.92202], [17.10743, 42.9143], [17.01531, 42.92862], [16.97291, 42.9267], [16.89869, 42.90584], [16.85141, 42.90071], [16.69142, 42.92821], [16.67286, 42.92674], [16.67261, 42.92179], [16.63846, 42.93476]]], [[[16.23646, 42.99632], [16.22096, 43.01132], [16.22145, 43.03143], [16.24253, 43.05588], [16.26455, 43.06771], [16.29239, 43.07461], [16.32242, 43.07657], [16.3511, 43.07364], [16.37497, 43.06595], [16.39061, 43.05355], [16.39457, 43.03634], [16.38316, 43.01393], [16.36082, 42.997], [16.33017, 42.98704], [16.29597, 42.98381], [16.26309, 42.98702], [16.23646, 42.99632]]], [[[16.12135, 43.01339], [16.08717, 43.01147], [16.06319, 43.0174], [16.08448, 43.02595], [16.08709, 43.04141], [16.07911, 43.05329], [16.06317, 43.05151], [16.04886, 43.06517], [16.09254, 43.08274], [16.13057, 43.08844], [16.1705, 43.08762], [16.19971, 43.0794], [16.19288, 43.07197], [16.21583, 43.07916], [16.2282, 43.07867], [16.24122, 43.07197], [16.24985, 43.0794], [16.25487, 43.06855], [16.21029, 43.03328], [16.12135, 43.01339]]], [[[16.86617, 43.04133], [16.80476, 43.04411], [16.76007, 43.05017], [16.6693, 43.07075], [16.60442, 43.0809], [16.56446, 43.09231], [16.55057, 43.09972], [16.55237, 43.10602], [16.49544, 43.127], [16.46504, 43.14408], [16.44885, 43.16365], [16.44847, 43.17034], [16.42726, 43.17988], [16.37161, 43.19551], [16.38039, 43.20196], [16.41529, 43.19847], [16.43979, 43.20977], [16.44606, 43.20234], [16.4603, 43.21595], [16.4603, 43.20978], [16.49643, 43.21807], [16.55494, 43.18793], [16.58326, 43.18867], [16.52055, 43.22898], [16.56275, 43.22898], [16.58326, 43.21597], [16.61612, 43.22354], [16.65951, 43.21596], [16.69311, 43.18866], [16.6936, 43.18401], [16.68629, 43.18183], [16.72771, 43.16462], [16.84815, 43.16234], [16.86443, 43.16884], [16.87843, 43.15884], [16.89674, 43.15477], [16.95875, 43.1524], [17.01856, 43.14086], [17.10942, 43.14377], [17.15494, 43.14035], [17.19332, 43.12727], [16.75458, 43.12578], [16.79729, 43.11488], [16.86879, 43.10297], [16.96004, 43.09839], [17.05851, 43.10058], [17.10671, 43.09699], [17.16833, 43.08218], [17.18341, 43.07277], [17.18777, 43.05866], [17.18372, 43.05296], [17.16249, 43.05056], [17.06981, 43.06827], [17.02924, 43.06953], [16.9929, 43.0654], [16.90545, 43.04631], [16.86617, 43.04133]]], [[[16.80981, 43.35317], [16.80983, 43.34638], [16.79615, 43.34638], [16.81625, 43.34024], [16.83033, 43.34637], [16.85816, 43.32518], [16.88509, 43.32196], [16.89233, 43.3122], [16.87939, 43.29379], [16.87232, 43.288], [16.86443, 43.29169], [16.8459, 43.27333], [16.81285, 43.26776], [16.62827, 43.26375], [16.56398, 43.27009], [16.50075, 43.28426], [16.4219, 43.31758], [16.40582, 43.33267], [16.42628, 43.32518], [16.42678, 43.33148], [16.43979, 43.33271], [16.43492, 43.34642], [16.45346, 43.35318], [16.4263, 43.3941], [16.44703, 43.39483], [16.49391, 43.38231], [16.688, 43.37696], [16.80981, 43.35317]]], [[[16.30274, 43.38727], [16.32984, 43.3897], [16.39143, 43.34638], [16.37598, 43.33345], [16.34895, 43.33863], [16.28175, 43.36937], [16.23227, 43.38447], [16.20706, 43.38728], [16.20641, 43.39181], [16.21323, 43.39411], [16.20047, 43.40705], [16.20587, 43.41296], [16.27702, 43.41192], [16.29818, 43.40363], [16.30274, 43.38727]]], [[[16.1345, 43.45616], [16.14942, 43.459], [16.16536, 43.44973], [16.1704, 43.43607], [16.1648, 43.43302], [16.14812, 43.43537], [16.14144, 43.4294], [16.11501, 43.42944], [16.12143, 43.44757], [16.13754, 43.44973], [16.1345, 43.45616]]], [[[16.24643, 43.48144], [16.21145, 43.49006], [16.21177, 43.49554], [16.2435, 43.49494], [16.25221, 43.49994], [16.24807, 43.50828], [16.26442, 43.51287], [16.31031, 43.50775], [16.37523, 43.49017], [16.37077, 43.48433], [16.33363, 43.48141], [16.28199, 43.48794], [16.24643, 43.48144]]], [[[15.68133, 43.64033], [15.67205, 43.63745], [15.60379, 43.67471], [15.61134, 43.6821], [15.61549, 43.67699], [15.65015, 43.67303], [15.67888, 43.64802], [15.74029, 43.62754], [15.68133, 43.64033]]], [[[15.86841, 43.66259], [15.86338, 43.66268], [15.82604, 43.69225], [15.82408, 43.70001], [15.84166, 43.70729], [15.86187, 43.68939], [15.86841, 43.66259]]], [[[15.72631, 43.69], [15.7198, 43.67281], [15.69696, 43.68143], [15.69469, 43.68547], [15.70379, 43.68907], [15.68313, 43.6997], [15.67329, 43.71386], [15.68921, 43.71572], [15.71355, 43.69196], [15.72631, 43.69]]], [[[15.60483, 43.82421], [15.61004, 43.80911], [15.62794, 43.7982], [15.64096, 43.79784], [15.66601, 43.76647], [15.65984, 43.76395], [15.63112, 43.77144], [15.6089, 43.79381], [15.59963, 43.79415], [15.58091, 43.80875], [15.56749, 43.83201], [15.58627, 43.82294], [15.59473, 43.83144], [15.60483, 43.82421]]], [[[15.34217, 43.81201], [15.39556, 43.77247], [15.30894, 43.80562], [15.28842, 43.82551], [15.24763, 43.84927], [15.22781, 43.87445], [15.24073, 43.88075], [15.26102, 43.86724], [15.26637, 43.857], [15.34217, 43.81201]]], [[[15.34995, 43.9763], [15.38405, 43.97015], [15.38941, 43.94766], [15.39763, 43.9372], [15.42676, 43.92206], [15.44604, 43.88754], [15.40708, 43.89616], [15.39772, 43.90811], [15.35866, 43.91939], [15.34996, 43.92915], [15.35678, 43.93537], [15.30959, 43.95845], [15.29713, 43.9781], [15.26126, 44.01105], [15.29607, 44.00571], [15.34995, 43.9763]]]]}}]}