{"type": "FeatureCollection", "features": [{"type": "Feature", "properties": {"map_title": "제1차 세계 대전의 전개", "source": "미래엔 세계사 교과서 4권 181쪽", "volume": 4, "page": 181, "legend": "연합국", "name": "이탈리아", "name_en": "Italy", "period": "1914–1918", "kind": "국가", "alliance": "연합국", "coast_snap": "Natural Earth 10m 해안선에 맞춤", "border_snap": "현대 국경(Natural Earth 10m)에 맞춘 구간 약 1288 km"}, "geometry": {"type": "MultiPolygon", "coordinates": [[[[8.40138, 38.98102], [8.36493, 39.02949], [8.3494, 39.06195], [8.35353, 39.09089], [8.34605, 39.0909], [8.34605, 39.09772], [8.36037, 39.11814], [8.38592, 39.10505], [8.41765, 39.10658], [8.44453, 39.10274], [8.45802, 39.06806], [8.4699, 39.06566], [8.47919, 39.0722], [8.48388, 39.06977], [8.45932, 39.04979], [8.46337, 39.04247], [8.45395, 39.02814], [8.43701, 38.9672], [8.42217, 38.96058], [8.40985, 38.96183], [8.40138, 38.98102]]], [[[8.22464, 39.15705], [8.23023, 39.17293], [8.2453, 39.18097], [8.30582, 39.19329], [8.31201, 39.12031], [8.30583, 39.10457], [8.28975, 39.09884], [8.26938, 39.10017], [8.25475, 39.10713], [8.25733, 39.12442], [8.23269, 39.14412], [8.22464, 39.15705]]], [[[8.22926, 40.92158], [8.23316, 40.9101], [8.27784, 40.86542], [8.31023, 40.85065], [8.42188, 40.83877], [8.47787, 40.82616], [8.52052, 40.82697], [8.5984, 40.85297], [8.63429, 40.88158], [8.64097, 40.89646], [8.70916, 40.92063], [8.73419, 40.92126], [8.76442, 40.9138], [8.83961, 40.96162], [8.87535, 41.00811], [8.88795, 41.01626], [8.88114, 41.02366], [8.9227, 41.03677], [8.94013, 41.06118], [8.95875, 41.07001], [8.99073, 41.09736], [9.00555, 41.12189], [9.02475, 41.12884], [9.10776, 41.13947], [9.13559, 41.16029], [9.14186, 41.15278], [9.15756, 41.16889], [9.16342, 41.18415], [9.16285, 41.22541], [9.17106, 41.24289], [9.23063, 41.26263], [9.23829, 41.24885], [9.25782, 41.24965], [9.26806, 41.23664], [9.26743, 41.20197], [9.27833, 41.19501], [9.27491, 41.21239], [9.27833, 41.22175], [9.28532, 41.22174], [9.2893, 41.20873], [9.28533, 41.19501], [9.31251, 41.20123], [9.33302, 41.18757], [9.33524, 41.21165], [9.35205, 41.20725], [9.38819, 41.18073], [9.38819, 41.18757], [9.42237, 41.18072], [9.42236, 41.17451], [9.4087, 41.1603], [9.42017, 41.15643], [9.44287, 41.13297], [9.43678, 41.11538], [9.44288, 41.09199], [9.46043, 41.12047], [9.47006, 41.12613], [9.45657, 41.14036], [9.46909, 41.14617], [9.50807, 41.14037], [9.52393, 41.14971], [9.53222, 41.14037], [9.52475, 41.13296], [9.54615, 41.12092], [9.55957, 41.12611], [9.5664, 41.11932], [9.56225, 41.09712], [9.5459, 41.07772], [9.53907, 41.09199], [9.52125, 41.03168], [9.51189, 41.01626], [9.53224, 41.01626], [9.52475, 41.0305], [9.54314, 41.03692], [9.5542, 41.03461], [9.55755, 41.02527], [9.55275, 41.00947], [9.55779, 41.00943], [9.55958, 41.01626], [9.57325, 41.00947], [9.58815, 41.02069], [9.61544, 41.01961], [9.66259, 41.00263], [9.65121, 40.99113], [9.60426, 41.00263], [9.58758, 40.9958], [9.57886, 40.96199], [9.56642, 40.94864], [9.57112, 40.93489], [9.55742, 40.93122], [9.51189, 40.93431], [9.51254, 40.92797], [9.50424, 40.92691], [9.51197, 40.91519], [9.53907, 40.92064], [9.57325, 40.9064], [9.59278, 40.9099], [9.62257, 40.92376], [9.64208, 40.92063], [9.63151, 40.90486], [9.61411, 40.8996], [9.61411, 40.89338], [9.65576, 40.87604], [9.66326, 40.85822], [9.68311, 40.86541], [9.69939, 40.85004], [9.72394, 40.84492], [9.681, 40.82978], [9.68978, 40.81079], [9.67449, 40.81391], [9.66179, 40.80903], [9.65789, 40.79987], [9.66879, 40.79035], [9.66977, 40.80146], [9.67579, 40.78864], [9.70394, 40.75942], [9.7142, 40.72724], [9.74446, 40.68048], [9.75652, 40.59516], [9.76157, 40.58735], [9.7819, 40.58197], [9.79225, 40.55695], [9.82641, 40.5296], [9.80875, 40.47077], [9.77809, 40.42723], [9.76172, 40.3907], [9.74935, 40.37727], [9.71241, 40.3664], [9.68311, 40.32421], [9.64552, 40.29609], [9.62615, 40.26309], [9.63111, 40.19619], [9.65463, 40.1446], [9.66505, 40.13158], [9.68758, 40.12085], [9.71022, 40.09634], [9.73226, 40.08393], [9.73023, 40.06836], [9.69337, 39.99291], [9.68727, 39.96117], [9.69662, 39.93378], [9.71, 39.94032], [9.71566, 39.94012], [9.71777, 39.93378], [9.71452, 39.92451], [9.69663, 39.9195], [9.68434, 39.89423], [9.68977, 39.87173], [9.68312, 39.87173], [9.68312, 39.86555], [9.69661, 39.85805], [9.69661, 39.85188], [9.68425, 39.83991], [9.67026, 39.79377], [9.67622, 39.71783], [9.65113, 39.65249], [9.65303, 39.56707], [9.62843, 39.50178], [9.64483, 39.48374], [9.63899, 39.45246], [9.61411, 39.39936], [9.60206, 39.35566], [9.60353, 39.32624], [9.6346, 39.30316], [9.6346, 39.29695], [9.60727, 39.28901], [9.58188, 39.2663], [9.56756, 39.2381], [9.57324, 39.21382], [9.5656, 39.20506], [9.57991, 39.18708], [9.56641, 39.14924], [9.55778, 39.13972], [9.52272, 39.1249], [9.51856, 39.10458], [9.5071, 39.1114], [9.51189, 39.12442], [9.49635, 39.13361], [9.48072, 39.13557], [9.44289, 39.12443], [9.438, 39.13337], [9.40871, 39.14616], [9.34506, 39.19644], [9.31191, 39.2081], [9.29217, 39.22126], [9.28533, 39.21383], [9.25245, 39.22516], [9.21632, 39.22801], [9.19744, 39.22114], [9.16602, 39.18709], [9.1369, 39.19433], [9.07301, 39.24852], [9.06373, 39.24307], [9.03875, 39.26219], [9.01393, 39.2639], [9.01254, 39.26057], [9.02573, 39.25601], [9.02101, 39.24042], [9.03785, 39.22712], [9.07496, 39.22989], [9.07985, 39.2246], [9.07894, 39.21235], [9.03859, 39.17902], [9.02622, 39.16523], [9.01832, 39.14615], [9.01873, 39.10395], [9.03199, 39.06977], [9.04492, 39.05126], [9.02931, 39.03026], [9.01832, 38.99531], [9.0257, 38.99531], [9.01515, 38.98966], [9.00465, 38.99531], [8.99615, 38.98265], [8.89489, 38.90243], [8.87745, 38.89908], [8.85328, 38.87801], [8.84126, 38.8807], [8.80543, 38.90595], [8.80542, 38.88547], [8.79103, 38.90445], [8.76661, 38.9204], [8.73951, 38.93065], [8.71656, 38.9326], [8.66879, 38.91059], [8.65162, 38.89155], [8.65511, 38.87117], [8.64096, 38.86434], [8.63479, 38.87116], [8.64283, 38.88996], [8.63315, 38.89558], [8.59988, 38.89908], [8.59988, 38.90595], [8.615, 38.923], [8.61549, 38.94758], [8.60328, 38.96491], [8.5801, 38.96053], [8.55958, 39.05671], [8.54428, 39.05127], [8.50442, 39.06294], [8.51808, 39.08344], [8.50441, 39.09089], [8.48277, 39.08039], [8.4651, 39.11945], [8.45428, 39.1249], [8.44224, 39.11816], [8.43539, 39.16596], [8.41879, 39.17731], [8.41261, 39.17573], [8.4157, 39.16598], [8.40952, 39.16934], [8.39869, 39.20116], [8.38015, 39.20759], [8.37283, 39.22208], [8.37673, 39.23785], [8.42644, 39.28327], [8.43214, 39.30183], [8.41572, 39.32368], [8.41725, 39.33902], [8.3821, 39.35969], [8.37405, 39.37885], [8.40138, 39.41242], [8.40504, 39.42719], [8.38691, 39.46979], [8.43531, 39.52521], [8.46339, 39.57685], [8.45592, 39.58438], [8.46388, 39.59789], [8.44225, 39.71467], [8.44646, 39.73086], [8.44403, 39.75702], [8.44607, 39.76251], [8.46858, 39.75494], [8.49977, 39.71621], [8.51694, 39.70214], [8.53826, 39.69603], [8.56577, 39.70108], [8.5145, 39.71369], [8.5044, 39.7215], [8.50686, 39.73847], [8.54526, 39.78294], [8.53858, 39.78294], [8.53053, 39.77041], [8.51811, 39.76254], [8.5298, 39.77253], [8.54884, 39.8072], [8.55519, 39.85269], [8.54526, 39.87857], [8.52345, 39.89887], [8.49415, 39.91242], [8.46306, 39.91413], [8.43539, 39.89899], [8.44223, 39.89281], [8.44557, 39.8981], [8.46336, 39.89899], [8.44467, 39.88361], [8.43539, 39.85808], [8.42874, 39.86555], [8.43751, 39.87678], [8.3983, 39.90535], [8.39455, 39.91267], [8.40138, 39.94001], [8.39452, 39.98817], [8.4065, 40.00983], [8.40707, 40.0222], [8.39454, 40.0362], [8.38014, 40.03011], [8.37722, 40.03376], [8.40138, 40.04986], [8.43482, 40.05101], [8.4686, 40.06216], [8.48731, 40.08955], [8.49, 40.10448], [8.46731, 40.14472], [8.46337, 40.16339], [8.45966, 40.21601], [8.47641, 40.26215], [8.47609, 40.29214], [8.4629, 40.31452], [8.44125, 40.33145], [8.4157, 40.34528], [8.40821, 40.33785], [8.38601, 40.3518], [8.38357, 40.37177], [8.39454, 40.42381], [8.37989, 40.4687], [8.36557, 40.49213], [8.33173, 40.51069], [8.31202, 40.57807], [8.29151, 40.59536], [8.26734, 40.59406], [8.21632, 40.57064], [8.19599, 40.57808], [8.21632, 40.61221], [8.19337, 40.6175], [8.17661, 40.60659], [8.16179, 40.56382], [8.14738, 40.59303], [8.14065, 40.62518], [8.17384, 40.64159], [8.18531, 40.65656], [8.1885, 40.68048], [8.19744, 40.69123], [8.17385, 40.69698], [8.14584, 40.72602], [8.13382, 40.72892], [8.215, 40.88044], [8.21632, 40.8996], [8.20973, 40.91445], [8.1789, 40.92817], [8.18231, 40.9453], [8.20217, 40.97528], [8.20963, 40.97528], [8.21258, 40.96345], [8.22901, 40.96254], [8.23616, 40.95478], [8.22926, 40.92158]]], [[[9.7139, 40.87367], [9.73414, 40.87632], [9.74462, 40.86916], [9.73404, 40.85811], [9.71934, 40.86376], [9.7139, 40.87367]]], [[[9.70012, 40.8905], [9.67606, 40.89022], [9.73366, 40.92462], [9.73986, 40.91218], [9.70012, 40.8905]]], [[[8.33236, 41.06465], [8.27475, 41.05728], [8.25115, 41.04377], [8.24642, 40.99365], [8.20967, 40.9958], [8.22131, 41.01352], [8.22886, 41.04173], [8.26054, 41.06451], [8.27564, 41.06977], [8.27786, 41.10565], [8.30209, 41.10505], [8.32617, 41.1261], [8.32797, 41.11249], [8.34202, 41.09764], [8.34114, 41.07394], [8.33236, 41.06465]]], [[[9.40235, 41.19021], [9.39552, 41.1896], [9.39654, 41.19731], [9.40821, 41.20742], [9.41748, 41.20042], [9.40781, 41.18513], [9.40235, 41.19021]]], [[[9.47477, 41.23606], [9.47948, 41.22419], [9.47038, 41.17212], [9.44874, 41.18553], [9.44166, 41.18306], [9.43702, 41.18594], [9.44777, 41.20506], [9.44353, 41.21149], [9.44646, 41.2204], [9.46026, 41.24233], [9.47477, 41.23606]]], [[[9.37306, 41.22987], [9.39186, 41.24071], [9.39797, 41.25604], [9.41424, 41.26242], [9.42188, 41.26088], [9.4305, 41.24628], [9.42905, 41.2294], [9.43531, 41.21703], [9.39527, 41.2106], [9.37687, 41.21353], [9.37306, 41.22987]]], [[[9.15837, 41.24216], [9.14674, 41.23002], [9.13748, 41.24087], [9.14162, 41.24643], [9.15837, 41.24216]]], [[[9.34221, 41.22815], [9.3297, 41.23758], [9.33287, 41.25079], [9.35302, 41.24782], [9.35075, 41.23221], [9.34221, 41.22815]]], [[[9.3506, 41.28872], [9.35123, 41.27612], [9.3444, 41.27492], [9.33108, 41.28104], [9.3506, 41.28872]]], [[[9.36475, 41.28792], [9.35825, 41.2969], [9.37658, 41.30766], [9.3789, 41.29585], [9.36475, 41.28792]]], [[[9.33567, 41.30817], [9.35328, 41.29934], [9.35418, 41.29287], [9.33702, 41.2945], [9.33092, 41.30471], [9.33567, 41.30817]]], [[[9.26262, 41.3608], [9.25043, 41.36547], [9.25157, 41.37115], [9.26481, 41.37213], [9.26433, 41.36636], [9.27001, 41.36762], [9.26262, 41.3608]]], [[[9.26466, 41.47614], [9.27083, 41.46874], [9.22803, 41.45003], [9.2107, 41.44823], [9.2107, 41.44086], [9.22332, 41.42731], [9.2107, 41.40729], [9.25032, 41.42778], [9.23015, 41.38093], [9.22314, 41.37251], [9.20671, 41.36592], [9.19387, 41.36914], [9.16912, 41.38618], [9.09646, 41.40352], [9.10728, 41.42926], [9.12135, 41.43464], [9.06659, 41.46191], [9.07985, 41.47614], [9.07985, 41.48237], [9.03875, 41.46192], [9.03199, 41.46874], [9.03875, 41.47614], [9.01832, 41.46875], [9.00099, 41.48306], [8.9756, 41.48908], [8.93009, 41.49218], [8.98667, 41.51847], [9.07432, 41.54573], [9.1595, 41.55886], [9.24658, 41.56015], [9.30419, 41.55565], [9.28198, 41.53328], [9.26466, 41.53083], [9.26986, 41.51679], [9.26466, 41.50288], [9.2762, 41.49941], [9.27913, 41.49165], [9.26466, 41.47614]]], [[[10.38136, 42.83242], [10.39976, 42.86863], [10.41236, 42.87335], [10.43099, 42.86444], [10.44335, 42.84545], [10.43116, 42.82787], [10.43668, 42.80443], [10.43001, 42.78759], [10.42005, 42.77632], [10.38885, 42.7635], [10.40794, 42.75728], [10.42512, 42.74078], [10.43066, 42.72212], [10.41554, 42.70891], [10.41098, 42.71796], [10.38137, 42.72257], [10.36427, 42.74982], [10.3379, 42.76484], [10.32504, 42.76484], [10.31373, 42.74301], [10.30454, 42.75975], [10.26539, 42.74459], [10.24537, 42.75727], [10.23489, 42.73588], [10.14723, 42.7373], [10.12486, 42.74312], [10.10674, 42.75762], [10.10142, 42.784], [10.1119, 42.80137], [10.13299, 42.8119], [10.17953, 42.81874], [10.22438, 42.80443], [10.26588, 42.80443], [10.25906, 42.81191], [10.27215, 42.81875], [10.27216, 42.82733], [10.32682, 42.82623], [10.32211, 42.81171], [10.33277, 42.80598], [10.34734, 42.80585], [10.38136, 42.83242]]], [[[12.52345, 38.03144], [12.57635, 38.07171], [12.60841, 38.0624], [12.65162, 38.0915], [12.66245, 38.11627], [12.7046, 38.11083], [12.72535, 38.12592], [12.71992, 38.17548], [12.73178, 38.19275], [12.7378, 38.18098], [12.76091, 38.18097], [12.79078, 38.11709], [12.81837, 38.07795], [12.86889, 38.05133], [12.86964, 38.04255], [12.90113, 38.02806], [12.94418, 38.03286], [13.02735, 38.0624], [13.06137, 38.08348], [13.0713, 38.09553], [13.06617, 38.12303], [13.05471, 38.14183], [13.08937, 38.166], [13.08377, 38.17471], [13.10093, 38.19008], [13.11248, 38.19276], [13.15699, 38.17967], [13.20721, 38.17609], [13.23032, 38.18464], [13.23903, 38.207], [13.2544, 38.20254], [13.31812, 38.22064], [13.32324, 38.21796], [13.32838, 38.20018], [13.37191, 38.17279], [13.3733, 38.14069], [13.39137, 38.10318], [13.51352, 38.11053], [13.54126, 38.09406], [13.53932, 38.07685], [13.54737, 38.05622], [13.58708, 38.03912], [13.65113, 38.00096], [13.69799, 37.99351], [13.71191, 37.98793], [13.70509, 37.98046], [13.79078, 37.97362], [13.81267, 37.97793], [13.85719, 37.99672], [13.89828, 38.00446], [13.93849, 38.02887], [14.00717, 38.03828], [14.02052, 38.04937], [14.08326, 38.02383], [14.10629, 38.02143], [14.15138, 38.02886], [14.2732, 38.01512], [14.33123, 38.01801], [14.38461, 38.02953], [14.4319, 38.04937], [14.46412, 38.03718], [14.51173, 38.04438], [14.63461, 38.08149], [14.66774, 38.09919], [14.73399, 38.15771], [14.7448, 38.16135], [14.79811, 38.16035], [14.87403, 38.17569], [14.90708, 38.18768], [14.94474, 38.1819], [14.96974, 38.15925], [15.00734, 38.1518], [15.04899, 38.15179], [15.0687, 38.13129], [15.0879, 38.12824], [15.17742, 38.15632], [15.2033, 38.1833], [15.24073, 38.24116], [15.23718, 38.26479], [15.24317, 38.26479], [15.24633, 38.25434], [15.24073, 38.23029], [15.24537, 38.21723], [15.25758, 38.21019], [15.29184, 38.20702], [15.32106, 38.21088], [15.39967, 38.23257], [15.43377, 38.25315], [15.47291, 38.26781], [15.51288, 38.29758], [15.52866, 38.30263], [15.55925, 38.3001], [15.61598, 38.28022], [15.6516, 38.27529], [15.64242, 38.26228], [15.62428, 38.26166], [15.58375, 38.24042], [15.56967, 38.22696], [15.55991, 38.19977], [15.57592, 38.20017], [15.52703, 38.13679], [15.50033, 38.08495], [15.39259, 37.97614], [15.26645, 37.81211], [15.24122, 37.79556], [15.21306, 37.76146], [15.20655, 37.74775], [15.22021, 37.70673], [15.21606, 37.69673], [15.20216, 37.68537], [15.19677, 37.6551], [15.16391, 37.5679], [15.1159, 37.52228], [15.09669, 37.49445], [15.08953, 37.45946], [15.09205, 37.36054], [15.09669, 37.34369], [15.11069, 37.32185], [15.18002, 37.29076], [15.21745, 37.28497], [15.23666, 37.27472], [15.25195, 37.25771], [15.26122, 37.23386], [15.24488, 37.24616], [15.23561, 37.24193], [15.22024, 37.22019], [15.22169, 37.23745], [15.21583, 37.2447], [15.20541, 37.2447], [15.19288, 37.23998], [15.19905, 37.22761], [15.18344, 37.20746], [15.19467, 37.17634], [15.21648, 37.15522], [15.23325, 37.16485], [15.24756, 37.15867], [15.24756, 37.15185], [15.22918, 37.14964], [15.23178, 37.13491], [15.24659, 37.11823], [15.30322, 37.10122], [15.30786, 37.08666], [15.30274, 37.0625], [15.28793, 37.069], [15.28199, 37.06086], [15.2837, 37.04841], [15.29184, 37.04198], [15.31226, 37.044], [15.32105, 37.04022], [15.33235, 37.01163], [15.32472, 37.0085], [15.30893, 37.01777], [15.26808, 37.00043], [15.2749, 36.9936], [15.26385, 36.98713], [15.26806, 36.9731], [15.24448, 36.97207], [15.17465, 36.94408], [15.15838, 36.92422], [15.10768, 36.82014], [15.10661, 36.80858], [15.09401, 36.79955], [15.09889, 36.77945], [15.11726, 36.74693], [15.13493, 36.68769], [15.13428, 36.6752], [15.11451, 36.65991], [15.09392, 36.65494], [15.07358, 36.65913], [15.03305, 36.69392], [15.00717, 36.70279], [14.99781, 36.70222], [14.98243, 36.68888], [14.95729, 36.69783], [14.91863, 36.71988], [14.88217, 36.73066], [14.84685, 36.72626], [14.78078, 36.69938], [14.77345, 36.71003], [14.76092, 36.70622], [14.74431, 36.71914], [14.68459, 36.72603], [14.65895, 36.75381], [14.5822, 36.78132], [14.56593, 36.77832], [14.48732, 36.79337], [14.47562, 36.80517], [14.39454, 36.94501], [14.36988, 36.97309], [14.27882, 37.04401], [14.20851, 37.08112], [14.12631, 37.11225], [14.08863, 37.11774], [13.97633, 37.1103], [13.93849, 37.09594], [13.89467, 37.10078], [13.83269, 37.13955], [13.71584, 37.17138], [13.68345, 37.18936], [13.59881, 37.25674], [13.56918, 37.2735], [13.45265, 37.29883], [13.32961, 37.36628], [13.31129, 37.38084], [13.27802, 37.39371], [13.25327, 37.43179], [13.22536, 37.44604], [13.20606, 37.46393], [13.18923, 37.46972], [13.17408, 37.48701], [13.05152, 37.50068], [13.02638, 37.49324], [13.01054, 37.50673], [13.00001, 37.53547], [12.97413, 37.55744], [12.94264, 37.56851], [12.86215, 37.5764], [12.78093, 37.57421], [12.69776, 37.56274], [12.65936, 37.56514], [12.63625, 37.58223], [12.59474, 37.63789], [12.57781, 37.652], [12.56349, 37.65778], [12.52361, 37.65836], [12.50621, 37.66552], [12.48916, 37.68255], [12.46503, 37.7198], [12.45631, 37.75975], [12.42703, 37.79703], [12.42741, 37.80905], [12.44459, 37.81597], [12.44606, 37.81184], [12.46502, 37.82282], [12.47869, 37.88117], [12.46413, 37.91291], [12.49049, 37.95401], [12.50294, 37.99706], [12.50416, 38.01122], [12.49295, 38.02143], [12.52345, 38.03144]]], [[[12.28696, 37.93854], [12.31422, 37.94634], [12.33676, 37.93305], [12.3688, 37.92523], [12.35741, 37.91404], [12.34213, 37.91324], [12.31422, 37.92524], [12.29937, 37.91931], [12.28758, 37.92169], [12.27322, 37.93951], [12.28696, 37.93854]]], [[[12.07926, 37.95027], [12.06479, 37.95084], [12.04763, 37.96077], [12.03183, 37.98218], [12.03614, 37.99085], [12.05355, 37.99241], [12.06445, 37.98623], [12.07926, 37.95027]]], [[[15.00732, 38.37768], [14.98683, 38.3641], [14.94827, 38.39644], [14.94534, 38.41226], [14.95319, 38.42427], [14.98243, 38.41241], [15.00171, 38.39126], [15.00732, 38.37768]]], [[[14.20834, 40.53796], [14.19599, 40.54117], [14.19886, 40.55856], [14.21921, 40.56054], [14.26212, 40.55398], [14.25471, 40.54638], [14.20834, 40.53796]]], [[[13.84915, 40.71528], [13.85622, 40.73501], [13.87013, 40.74873], [13.86282, 40.76239], [13.88315, 40.76239], [13.9463, 40.74518], [13.9656, 40.73518], [13.96581, 40.71528], [13.94467, 40.70162], [13.93482, 40.70563], [13.91977, 40.7045], [13.89015, 40.69417], [13.84915, 40.71528]]], [[[14.01767, 40.77028], [14.03531, 40.75984], [14.02182, 40.75719], [14.02588, 40.75032], [14.01352, 40.74754], [14.01708, 40.73727], [14.00587, 40.74689], [14.001, 40.74397], [14.0041, 40.76219], [14.01767, 40.77028]]], [[[13.43196, 40.80145], [13.42692, 40.79085], [13.41475, 40.7859], [13.42417, 40.80023], [13.43196, 40.80145]]], [[[12.98219, 40.93756], [12.99177, 40.93318], [12.9686, 40.91946], [12.96095, 40.90323], [12.96647, 40.89305], [12.95834, 40.882], [12.952, 40.88155], [12.94208, 40.89981], [12.95416, 40.92165], [12.98219, 40.93756]]], [[[12.85727, 40.95001], [12.86165, 40.9307], [12.85044, 40.92603], [12.85313, 40.94798], [12.85727, 40.95001]]], [[[15.49674, 42.11603], [15.48471, 42.10144], [15.47773, 42.10412], [15.48939, 42.12449], [15.49674, 42.11603]]], [[[11.11246, 42.25288], [11.10239, 42.2543], [11.10644, 42.2378], [11.09524, 42.24328], [11.0928, 42.25811], [11.10467, 42.26332], [11.11051, 42.26121], [11.11246, 42.25288]]], [[[10.91359, 42.37503], [10.92956, 42.34056], [10.93975, 42.33066], [10.92333, 42.31874], [10.87194, 42.35387], [10.86185, 42.36628], [10.87637, 42.37444], [10.87583, 42.38656], [10.88299, 42.39214], [10.91359, 42.37503]]], [[[15.81392, 38.30381], [15.82989, 38.35124], [15.9048, 38.47394], [15.91782, 38.51679], [15.91603, 38.55036], [15.90008, 38.57827], [15.87078, 38.60423], [15.84383, 38.61812], [15.83368, 38.63378], [15.83661, 38.64899], [15.84474, 38.66049], [15.9048, 38.67939], [15.96803, 38.71259], [16.00262, 38.7254], [16.04884, 38.72772], [16.12086, 38.72093], [16.1526, 38.7309], [16.17921, 38.74828], [16.20094, 38.77644], [16.2151, 38.81415], [16.22169, 38.85659], [16.21469, 38.91901], [16.2046, 38.93407], [16.18963, 38.94355], [16.16896, 38.94686], [16.15416, 38.95522], [16.08303, 39.07527], [16.03403, 39.34524], [15.9954, 39.43877], [15.95808, 39.47757], [15.93312, 39.51366], [15.8761, 39.55164], [15.86753, 39.56391], [15.8366, 39.65266], [15.80642, 39.6955], [15.78875, 39.79662], [15.78875, 39.7904], [15.78395, 39.81], [15.76972, 39.83015], [15.78191, 39.8686], [15.77443, 39.8911], [15.74156, 39.9296], [15.72804, 39.96418], [15.6789, 40.00886], [15.65162, 40.04365], [15.63039, 40.05769], [15.62428, 40.07779], [15.6102, 40.0732], [15.53492, 40.07779], [15.51313, 40.06768], [15.4953, 40.04673], [15.45981, 40.02936], [15.42959, 39.9998], [15.4101, 39.99398], [15.34317, 40.00416], [15.3143, 40.03376], [15.30275, 40.0362], [15.28305, 40.02986], [15.26125, 40.02937], [15.26125, 40.0362], [15.27914, 40.04768], [15.26344, 40.07372], [15.2339, 40.1], [15.18996, 40.11913], [15.12721, 40.16962], [15.1128, 40.17479], [15.06568, 40.16658], [15.04722, 40.16894], [15.03493, 40.17537], [15.0228, 40.19563], [15.00312, 40.21026], [14.97591, 40.21932], [14.95709, 40.23155], [14.93814, 40.22785], [14.91116, 40.24165], [14.90693, 40.25861], [14.9319, 40.28555], [14.93914, 40.30707], [14.9324, 40.33372], [14.99449, 40.35843], [15.00043, 40.36883], [14.99827, 40.39756], [14.88884, 40.57307], [14.83546, 40.63264], [14.78199, 40.66987], [14.75221, 40.6767], [14.71998, 40.66682], [14.69015, 40.64906], [14.62574, 40.64908], [14.61329, 40.6459], [14.57129, 40.61775], [14.54448, 40.61364], [14.51638, 40.61987], [14.48658, 40.63264], [14.47136, 40.62467], [14.42205, 40.61555], [14.40153, 40.60213], [14.35581, 40.58364], [14.34262, 40.57064], [14.32983, 40.58466], [14.32799, 40.60541], [14.33775, 40.62441], [14.38738, 40.63695], [14.44422, 40.68598], [14.47637, 40.6951], [14.47975, 40.71149], [14.47413, 40.72968], [14.44264, 40.75507], [14.42129, 40.75094], [14.39444, 40.76157], [14.2942, 40.83877], [14.24838, 40.83771], [14.22364, 40.83137], [14.20316, 40.80121], [14.18221, 40.80093], [14.1656, 40.81575], [14.13524, 40.81857], [14.09596, 40.83381], [14.08253, 40.83128], [14.07618, 40.82221], [14.08251, 40.78353], [14.04771, 40.7896], [14.04117, 40.79649], [14.05226, 40.83759], [14.04446, 40.87421], [14.02134, 40.92183], [13.96534, 40.9964], [13.91799, 41.02367], [13.91066, 41.06464], [13.85172, 41.14732], [13.79049, 41.20586], [13.72185, 41.25239], [13.70851, 41.25641], [13.66335, 41.25069], [13.65659, 41.25959], [13.59441, 41.25312], [13.56365, 41.23798], [13.57543, 41.20808], [13.54396, 41.20662], [13.53423, 41.20824], [13.51442, 41.22968], [13.50711, 41.22176], [13.49969, 41.22176], [13.48024, 41.23916], [13.32439, 41.29483], [13.28582, 41.29572], [13.18702, 41.27802], [13.15121, 41.26021], [13.11451, 41.25088], [13.0905, 41.22656], [13.06821, 41.22176], [13.04462, 41.22753], [13.02369, 41.27359], [12.9795, 41.331], [12.92384, 41.37979], [12.89357, 41.39932], [12.84156, 41.4184], [12.74855, 41.42374], [12.67856, 41.45795], [12.65398, 41.46564], [12.63526, 41.44751], [12.61921, 41.45934], [12.54558, 41.54414], [12.44801, 41.63076], [12.32716, 41.71137], [12.30064, 41.71744], [12.285, 41.7272], [12.23903, 41.73628], [12.2235, 41.75069], [12.2152, 41.76814], [12.20623, 41.82734], [12.17018, 41.87958], [12.14747, 41.90347], [12.03884, 41.96516], [12.02036, 41.99307], [11.9822, 41.99975], [11.95265, 42.02228], [11.91684, 42.03791], [11.82749, 42.03418], [11.80942, 42.06635], [11.75018, 42.12792], [11.73618, 42.16889], [11.68214, 42.25214], [11.65821, 42.27936], [11.53907, 42.34886], [11.48898, 42.35948], [11.39618, 42.39298], [11.39617, 42.40038], [11.37664, 42.40689], [11.35467, 42.40721], [11.36206, 42.40039], [11.33302, 42.40059], [11.25904, 42.42084], [11.21127, 42.41889], [11.20092, 42.39546], [11.18629, 42.3793], [11.18384, 42.36629], [11.16472, 42.36933], [11.15593, 42.36629], [11.13453, 42.38418], [11.10663, 42.39127], [11.08677, 42.41836], [11.08695, 42.42945], [11.09897, 42.44268], [11.11302, 42.44635], [11.14182, 42.4388], [11.16419, 42.43983], [11.17969, 42.4565], [11.18845, 42.48027], [11.18686, 42.52082], [11.16605, 42.54622], [11.15846, 42.56403], [11.12868, 42.55806], [11.09742, 42.60688], [11.08092, 42.61271], [11.07781, 42.63223], [11.00572, 42.66792], [10.99, 42.71027], [10.94361, 42.74299], [10.89088, 42.7639], [10.73132, 42.80443], [10.75538, 42.81916], [10.7649, 42.83527], [10.76565, 42.8771], [10.77768, 42.89472], [10.76352, 42.91828], [10.68141, 42.94904], [10.6325, 42.95848], [10.58326, 42.9597], [10.53907, 42.94912], [10.54654, 42.93476], [10.51857, 42.92529], [10.49954, 42.9405], [10.47757, 42.99005], [10.5027, 43.00556], [10.5171, 43.02391], [10.53907, 43.07941], [10.5357, 43.11289], [10.54656, 43.14712], [10.53448, 43.18505], [10.52817, 43.24677], [10.43702, 43.38858], [10.37338, 43.45319], [10.35914, 43.46528], [10.32636, 43.47688], [10.31724, 43.49262], [10.29474, 43.56882], [10.26401, 43.80939], [10.25164, 43.84663], [10.21013, 43.92023], [10.18068, 43.95527], [10.1365, 43.97871], [10.10581, 44.01675], [10.03533, 44.04784], [9.98854, 44.05976], [9.98071, 44.04988], [9.96274, 44.04468], [9.88795, 44.093], [9.8768, 44.08785], [9.84474, 44.10863], [9.82643, 44.10725], [9.83325, 44.09985], [9.81959, 44.093], [9.83058, 44.07884], [9.84749, 44.07249], [9.84749, 44.06632], [9.83326, 44.05207], [9.84634, 44.04629], [9.84253, 44.04117], [9.8323, 44.04231], [9.81984, 44.06338], [9.77183, 44.07942], [9.68263, 44.13654], [9.62111, 44.14827], [9.57994, 44.17895], [9.57301, 44.1916], [9.49904, 44.22184], [9.48439, 44.24384], [9.45418, 44.23773], [9.43679, 44.2395], [9.42237, 44.25678], [9.37453, 44.2718], [9.36769, 44.29442], [9.26308, 44.33626], [9.23064, 44.3537], [9.21372, 44.33344], [9.21069, 44.30534], [9.16506, 44.31831], [9.14667, 44.32856], [9.14861, 44.34003], [9.13006, 44.36335], [9.10206, 44.37397], [9.00123, 44.38728], [8.92368, 44.41157], [8.86873, 44.40973], [8.84567, 44.41343], [8.827, 44.42845], [8.76238, 44.43212], [8.73715, 44.42878], [8.67855, 44.39469], [8.65512, 44.39468], [8.59376, 44.36275], [8.56479, 44.35716], [8.54029, 44.34004], [8.46607, 44.30427], [8.44451, 44.28388], [8.4497, 44.26435], [8.43538, 44.24043], [8.41188, 44.22704], [8.4065, 44.21503], [8.4082, 44.19351], [8.39427, 44.18226], [8.31349, 44.16047], [8.28468, 44.14826], [8.25652, 44.12836], [8.23317, 44.10358], [8.22998, 44.0725], [8.21631, 44.04524], [8.16912, 44.00666], [8.15268, 43.98322], [8.16797, 43.9565], [8.14471, 43.95258], [8.11524, 43.92769], [8.0892, 43.91987], [8.06771, 43.89668], [8.03142, 43.88752], [7.95972, 43.85286], [7.78582, 43.82197], [7.73631, 43.7982], [7.695, 43.79122], [7.57203, 43.79133], [7.54378, 43.78449], [7.50229, 43.79222], [7.47641, 43.78449], [7.4764, 43.76464], [7.45434, 43.75712], [7.40431, 43.71798], [7.36575, 43.72273], [7.35318, 43.71569], [7.3423, 43.70783], [7.33052, 43.68643], [7.30117, 43.68765], [7.28025, 43.69333], [7.25727, 43.69165], [7.22851, 43.6742], [7.2318, 43.66347], [7.20406, 43.64448], [7.19668, 43.65692], [7.17765, 43.66011], [7.15162, 43.65477], [7.13816, 43.64208], [7.06562, 43.75128], [7.03116, 43.82024], [7.01671, 43.89224], [7.01711, 43.92889], [7.03024, 43.98704], [7.19155, 44.18658], [7.14497, 44.20723], [7.10487, 44.21777], [7.04606, 44.2403], [7.03345, 44.24293], [6.99614, 44.23782], [6.98281, 44.24175], [6.9734, 44.24944], [6.95924, 44.27735], [6.92121, 44.30216], [6.90385, 44.33001], [6.86984, 44.36293], [6.86612, 44.37212], [6.87718, 44.4144], [6.88421, 44.42303], [6.9178, 44.43631], [6.86127, 44.47491], [6.83884, 44.50292], [6.83574, 44.53403], [6.84638, 44.54746], [6.89734, 44.57542], [6.93165, 44.61795], [6.9456, 44.62544], [6.93434, 44.64668], [6.94147, 44.66699], [6.95986, 44.68317], [6.98281, 44.69216], [7.0012, 44.69226], [7.03727, 44.68461], [7.05516, 44.68487], [7.04937, 44.69789], [7.01898, 44.73887], [7.00978, 44.7721], [6.99842, 44.79375], [7.0071, 44.82207], [7.00079, 44.83298], [6.98281, 44.84698], [6.93268, 44.86166], [6.91532, 44.86269], [6.86602, 44.85566], [6.84711, 44.85907], [6.77817, 44.88765], [6.74541, 44.9078], [6.72794, 44.92873], [6.7299, 44.9847], [6.7235, 45.01338], [6.69724, 45.02692], [6.66221, 45.02924], [6.65167, 45.03565], [6.63968, 45.05038], [6.63658, 45.07446], [6.6203, 45.08443], [6.60273, 45.10345], [6.61461, 45.11477], [6.6327, 45.12552], [6.66738, 45.13962], [6.7022, 45.14122], [6.73641, 45.15735], [6.77145, 45.15316], [6.80814, 45.13911], [6.84411, 45.13012], [6.87666, 45.14122], [6.87863, 45.14743], [6.86819, 45.15745], [6.87346, 45.16593], [6.91377, 45.17016], [6.92845, 45.17957], [6.94581, 45.20107], [6.95873, 45.2098], [6.99449, 45.22132], [7.02973, 45.2282], [7.05547, 45.21367], [7.0812, 45.24308], [7.10838, 45.2592], [7.10838, 45.27491], [7.09763, 45.29496], [7.09257, 45.32395], [7.13009, 45.35708], [7.15964, 45.39847], [7.16068, 45.41092], [7.09681, 45.43542], [7.072, 45.47004], [7.02849, 45.49314], [6.98281, 45.51112], [6.97526, 45.52565], [6.96979, 45.56699], [6.9549, 45.58621], [6.95294, 45.59427], [6.96948, 45.62585], [6.96338, 45.64073], [6.95108, 45.64678], [6.91863, 45.65256], [6.88256, 45.67551], [6.84307, 45.68274], [6.8161, 45.69685], [6.79595, 45.71814], [6.78199, 45.77746], [6.78272, 45.79529], [6.78809, 45.81173], [6.8008, 45.82646], [6.84336, 45.83864], [6.85856, 45.83346], [6.86444, 45.82689], [6.87066, 45.82827], [6.87346, 45.8448], [6.85745, 45.94578], [7.00294, 46.01608], [7.1066, 45.97241], [7.04139, 45.91019], [7.06694, 45.89022], [7.09019, 45.88051], [7.12089, 45.87612], [7.18373, 45.88046], [7.28667, 45.91343], [7.3618, 45.90784], [7.39384, 45.9157], [7.45296, 45.94588], [7.48273, 45.95487], [7.50371, 45.95673], [7.52438, 45.97807], [7.54112, 45.98412], [7.64303, 45.96634], [7.67372, 45.95032], [7.69398, 45.92867], [7.70628, 45.92573], [7.73201, 45.93038], [7.78007, 45.91813], [7.80756, 45.91849], [7.83123, 45.91446], [7.84374, 45.91921], [7.84962, 45.93971], [7.8702, 45.94037], [7.87292, 45.95938], [7.88378, 45.97387], [7.8982, 45.98195], [7.9691, 45.99311], [7.98585, 45.99931], [7.99835, 46.01063], [8.01065, 46.0297], [8.0182, 46.08086], [8.02533, 46.09114], [8.03535, 46.09652], [8.06688, 46.1006], [8.1106, 46.12695], [8.1323, 46.15935], [8.12951, 46.19604], [8.09995, 46.23563], [8.07308, 46.25361], [8.08734, 46.2718], [8.10687, 46.28555], [8.12848, 46.29247], [8.17188, 46.29919], [8.19255, 46.30916], [8.24175, 46.35412], [8.28154, 46.37012], [8.29746, 46.38751], [8.29704, 46.39763], [8.28661, 46.40536], [8.29498, 46.41805], [8.31627, 46.43365], [8.34345, 46.44389], [8.39916, 46.45218], [8.42789, 46.44869], [8.44163, 46.43494], [8.44577, 46.41236], [8.44629, 46.38218], [8.44287, 46.35337], [8.42665, 46.30157], [8.42324, 46.27583], [8.42716, 46.25144], [8.43812, 46.23537], [8.45652, 46.22483], [8.51026, 46.20788], [8.53868, 46.18762], [8.60183, 46.12282], [8.63087, 46.11471], [8.67749, 46.09579], [8.69505, 46.09517], [8.72389, 46.10954], [8.73216, 46.10742], [8.7395, 46.09807], [8.74714, 46.09445], [8.79386, 46.09342], [8.80895, 46.08975], [8.83438, 46.06639], [8.8196, 46.04293], [8.79097, 46.01869], [8.76792, 45.98309], [8.80037, 45.97854], [8.85773, 45.95709], [8.87096, 45.94707], [8.89814, 45.90955], [8.9121, 45.8834], [8.91375, 45.86609], [8.9, 45.8264], [8.93959, 45.83483], [8.97235, 45.82465], [9.00243, 45.82072], [9.03436, 45.84811], [9.05927, 45.88196], [9.0631, 45.89896], [9.05173, 45.91555], [9.0108, 45.92666], [9.0017, 45.93606], [8.99343, 45.95425], [8.98052, 45.96438], [8.98269, 45.97198], [9.01555, 45.99311], [8.99778, 46.02794], [9.00212, 46.03931], [9.02775, 46.05311], [9.05917, 46.06179], [9.06713, 46.07114], [9.07033, 46.08344], [9.06816, 46.10597], [9.07209, 46.11889], [9.09059, 46.13817], [9.16324, 46.17227], [9.18133, 46.20405], [9.20417, 46.21356], [9.22484, 46.23118], [9.23973, 46.267], [9.26897, 46.30937], [9.27517, 46.33138], [9.27383, 46.34425], [9.2604, 46.37973], [9.26288, 46.40663], [9.26091, 46.41665], [9.24758, 46.42303], [9.23797, 46.43655], [9.24582, 46.46104], [9.26319, 46.48512], [9.28231, 46.49737], [9.33099, 46.5015], [9.35083, 46.49786], [9.35155, 46.48548], [9.38463, 46.46642], [9.39548, 46.46941], [9.41067, 46.4889], [9.43465, 46.49833], [9.43785, 46.49205], [9.44436, 46.37528], [9.4826, 46.35681], [9.50255, 46.32074], [9.51526, 46.3086], [9.53645, 46.29862], [9.5597, 46.29273], [9.67432, 46.2918], [9.69313, 46.29707], [9.70843, 46.31175], [9.70926, 46.34239], [9.72011, 46.35089], [9.73086, 46.35071], [9.75525, 46.34053], [9.76806, 46.33862], [9.8554, 46.36696], [9.89901, 46.37216], [9.91844, 46.37115], [9.93901, 46.36746], [9.96402, 46.35609], [9.97064, 46.33981], [9.97105, 46.32002], [9.97756, 46.2981], [9.99224, 46.28436], [10.03172, 46.26007], [10.04185, 46.24307], [10.04267, 46.22049], [10.07575, 46.22002], [10.11791, 46.23113], [10.14582, 46.24333], [10.15894, 46.26245], [10.14613, 46.28028], [10.10489, 46.30937], [10.09177, 46.32896], [10.09239, 46.3381], [10.09745, 46.35164], [10.10499, 46.36136], [10.13321, 46.3811], [10.14076, 46.4029], [10.13342, 46.41402], [10.04205, 46.43272], [10.02634, 46.44626], [10.04402, 46.46698], [10.03534, 46.47107], [10.0281, 46.48393], [10.02686, 46.49318], [10.0312, 46.50383], [10.03275, 46.53297], [10.0712, 46.56439], [10.08784, 46.60439], [10.19212, 46.62682], [10.21786, 46.62697], [10.23377, 46.61798], [10.23574, 46.60669], [10.23026, 46.58615], [10.2347, 46.5753], [10.27594, 46.56553], [10.29537, 46.55109], [10.31945, 46.54605], [10.35428, 46.54832], [10.42591, 46.53533], [10.44399, 46.53773], [10.45794, 46.5537], [10.4659, 46.57848], [10.46663, 46.60429], [10.45908, 46.62356], [10.43821, 46.63566], [10.39562, 46.63881], [10.37754, 46.65328], [10.36916, 46.6724], [10.37392, 46.68191], [10.38477, 46.68901], [10.39438, 46.70082], [10.39562, 46.7264], [10.39965, 46.73555], [10.4166, 46.74301], [10.4287, 46.75565], [10.42622, 46.76942], [10.41909, 46.78397], [10.41722, 46.79885], [10.43903, 46.81688], [10.44854, 46.83223], [10.4536, 46.86316], [10.44402, 46.88177], [10.44871, 46.89927], [10.52295, 46.89131], [10.56325, 46.84993], [10.64708, 46.86376], [10.66248, 46.86096], [10.73896, 46.82955], [10.74868, 46.81944], [10.74382, 46.81252], [10.71695, 46.79521], [10.72294, 46.78645], [10.75478, 46.79076], [10.79508, 46.77689], [10.83415, 46.78025], [10.87043, 46.76407], [10.93089, 46.77399], [10.98267, 46.76774], [10.96151, 46.53181], [10.92789, 46.47619], [10.897, 46.43778], [10.76841, 46.31851], [10.73128, 46.26388], [10.71854, 46.22999], [10.73476, 46.19355], [10.75303, 46.17537], [10.89858, 46.07228], [11.03405, 45.94393], [11.21687, 46.02871], [11.28007, 46.04164], [11.31854, 46.03721], [11.34999, 46.02426], [11.37617, 46.00524], [11.44387, 45.93585], [11.47029, 45.91642], [11.50231, 45.90322], [11.56195, 45.89871], [11.62568, 45.9104], [11.69598, 45.93263], [11.92245, 46.05476], [11.93658, 46.01855], [11.95415, 46.01547], [11.96034, 46.02176], [11.96598, 46.07989], [12.03281, 46.11405], [12.23935, 45.97019], [12.25558, 45.96904], [12.25991, 45.98071], [12.12928, 46.1547], [12.17853, 46.17857], [12.20316, 46.19688], [12.23052, 46.23846], [12.38413, 46.26094], [12.38556, 46.26932], [12.37756, 46.2746], [12.24265, 46.29583], [12.24127, 46.35432], [12.31802, 46.36753], [12.38592, 46.39522], [12.42421, 46.43652], [12.54733, 46.65219], [12.62019, 46.65648], [12.66959, 46.65302], [12.70659, 46.63775], [12.73987, 46.64299], [12.77357, 46.63519], [12.83041, 46.60964], [13.0645, 46.59804], [13.14646, 46.58496], [13.21003, 46.55801], [13.23111, 46.55217], [13.27142, 46.55078], [13.37332, 46.56579], [13.41704, 46.56049], [13.47802, 46.56357], [13.50675, 46.54693], [13.54923, 46.54584], [13.6283, 46.52813], [13.6188, 46.4844], [13.63179, 46.41795], [13.39667, 46.48172], [13.38184, 46.47901], [13.38263, 46.46705], [13.4837, 46.37115], [13.45973, 46.35903], [13.43409, 46.35386], [13.42324, 46.34485], [13.39131, 46.30157], [13.36526, 46.2903], [13.37859, 46.26839], [13.38469, 46.24333], [13.39813, 46.23051], [13.40164, 46.21666], [13.41012, 46.20798], [13.4374, 46.21093], [13.42283, 46.2286], [13.4683, 46.22343], [13.48226, 46.2179], [13.51016, 46.21398], [13.55905, 46.18411], [13.58447, 46.18132], [13.61393, 46.18354], [13.63739, 46.18039], [13.64504, 46.16173], [13.93771, 46.05941], [13.95669, 46.05033], [14.02138, 46.00945], [14.08131, 45.96501], [14.08513, 45.95102], [14.16915, 45.88858], [14.249, 45.79608], [14.26306, 45.76371], [14.50788, 45.60585], [14.49858, 45.59618], [14.49227, 45.58342], [14.48214, 45.54244], [14.46892, 45.52559], [14.41124, 45.49319], [14.3728, 45.47784], [14.3268, 45.4749], [14.2804, 45.4811], [14.2187, 45.49717], [14.14552, 45.47624], [14.11969, 45.47288], [14.09292, 45.47392], [14.06666, 45.48027], [14.01396, 45.50797], [13.97189, 45.51423], [13.96497, 45.51097], [13.96145, 45.50389], [13.96145, 45.49314], [13.98264, 45.47531], [13.96982, 45.46296], [13.923, 45.44896], [13.889, 45.42364], [13.87468, 45.42511], [13.8048, 45.20061], [13.78045, 45.19675], [13.68006, 45.19504], [13.58929, 45.20594], [13.59449, 45.21263], [13.58914, 45.2307], [13.59522, 45.2508], [13.57547, 45.26488], [13.58425, 45.27606], [13.60271, 45.27912], [13.60271, 45.28535], [13.58466, 45.29321], [13.57547, 45.30646], [13.60955, 45.32014], [13.56179, 45.32637], [13.54128, 45.34614], [13.54055, 45.35675], [13.55494, 45.36107], [13.55494, 45.36734], [13.54316, 45.37617], [13.51337, 45.43622], [13.52076, 45.44302], [13.51565, 45.44814], [13.52076, 45.45726], [13.50453, 45.48406], [13.50149, 45.4986], [13.5071, 45.5119], [13.56861, 45.49079], [13.58953, 45.48884], [13.59596, 45.51813], [13.57863, 45.52339], [13.56864, 45.53924], [13.58961, 45.53579], [13.75294, 45.55288], [13.74236, 45.56977], [13.71194, 45.5934], [13.73016, 45.61309], [13.78688, 45.61115], [13.80812, 45.61432], [13.79558, 45.61701], [13.77711, 45.63544], [13.7393, 45.64911], [13.75766, 45.65497], [13.75367, 45.67231], [13.73911, 45.6916], [13.64731, 45.76203], [13.62892, 45.77261], [13.57423, 45.78962], [13.55128, 45.79243], [13.53443, 45.78205], [13.52418, 45.76008], [13.52833, 45.74055], [13.5549, 45.7372], [13.5184, 45.72484], [13.50781, 45.71443], [13.46925, 45.70686], [13.42798, 45.68115], [13.4017, 45.67545], [13.37676, 45.68317], [13.40919, 45.69131], [13.43141, 45.70686], [13.42262, 45.72407], [13.38169, 45.73006], [13.3694, 45.74462], [13.35182, 45.74031], [13.2549, 45.75606], [13.2155, 45.7788], [13.16944, 45.76874], [13.14967, 45.75154], [13.13982, 45.75487], [13.13136, 45.76887], [13.11931, 45.77196], [13.11085, 45.76765], [13.10816, 45.7582], [13.11183, 45.74885], [13.12288, 45.74462], [13.12288, 45.73722], [13.1006, 45.73623], [13.08058, 45.72761], [13.06959, 45.71369], [13.07504, 45.69684], [13.09148, 45.6892], [13.11166, 45.69135], [13.14964, 45.70374], [13.13802, 45.6894], [13.10304, 45.66901], [13.08496, 45.64192], [13.06055, 45.63667], [12.9817, 45.63483], [12.94386, 45.62857], [12.78039, 45.5534], [12.61194, 45.49626], [12.51271, 45.47045], [12.4878, 45.45674], [12.45143, 45.45043], [12.42362, 45.43805], [12.41033, 45.43622], [12.4358, 45.47492], [12.43094, 45.48403], [12.44728, 45.48432], [12.45144, 45.49824], [12.45818, 45.49824], [12.46697, 45.48558], [12.47193, 45.48591], [12.47869, 45.49079], [12.46503, 45.50445], [12.49732, 45.50673], [12.5066, 45.49824], [12.49293, 45.49824], [12.49293, 45.49079], [12.51515, 45.49274], [12.52151, 45.51898], [12.53048, 45.52558], [12.56251, 45.53164], [12.58172, 45.55288], [12.53728, 45.53583], [12.51065, 45.5589], [12.5066, 45.57331], [12.45851, 45.54833], [12.4419, 45.53034], [12.45143, 45.51191], [12.43491, 45.51236], [12.41774, 45.52359], [12.40358, 45.51813], [12.39674, 45.53925], [12.38412, 45.52302], [12.39039, 45.51398], [12.424, 45.50446], [12.42397, 45.49822], [12.3934, 45.49165], [12.38056, 45.49479], [12.38307, 45.50446], [12.35043, 45.50487], [12.30958, 45.48892], [12.27272, 45.46361], [12.2527, 45.43622], [12.2527, 45.43], [12.25894, 45.43], [12.2461, 45.41132], [12.24855, 45.40253], [12.25894, 45.39521], [12.2492, 45.38548], [12.24528, 45.36108], [12.22381, 45.35395], [12.23217, 45.34056], [12.21631, 45.31623], [12.20873, 45.30907], [12.18755, 45.30647], [12.16293, 45.31623], [12.15447, 45.31346], [12.1491, 45.29218], [12.15983, 45.2831], [12.16879, 45.26215], [12.18067, 45.25804], [12.19166, 45.26289], [12.19939, 45.2746], [12.19746, 45.29962], [12.21728, 45.29384], [12.22485, 45.25117], [12.21111, 45.24299], [12.22485, 45.23069], [12.22136, 45.21625], [12.23048, 45.20425], [12.24732, 45.19693], [12.26637, 45.1966], [12.25898, 45.20282], [12.30727, 45.23068], [12.29802, 45.2154], [12.32104, 45.17235], [12.32845, 45.10102], [12.3073, 45.10786], [12.3073, 45.12836], [12.29737, 45.10635], [12.29672, 45.08857], [12.30665, 45.07856], [12.32846, 45.0799], [12.32106, 45.09357], [12.341, 45.08124], [12.37623, 45.03897], [12.37623, 45.03217], [12.35515, 45.02464], [12.36883, 45.01097], [12.38356, 45.02644], [12.38657, 45.03876], [12.36885, 45.06559], [12.41341, 45.04287], [12.41033, 45.03217], [12.44458, 45.01096], [12.48618, 44.97651], [12.4992, 44.98371], [12.4861, 44.98371], [12.4861, 44.99114], [12.50261, 44.99143], [12.51701, 44.98746], [12.53385, 44.97004], [12.52312, 44.95002], [12.52701, 44.94335], [12.5127, 44.92232], [12.49903, 44.92145], [12.4873, 44.86225], [12.44459, 44.82052], [12.424, 44.85464], [12.43922, 44.87759], [12.44304, 44.89008], [12.43832, 44.90111], [12.42693, 44.90498], [12.40691, 44.8913], [12.3921, 44.86839], [12.39161, 44.85883], [12.41652, 44.85114], [12.40821, 44.83625], [12.39674, 44.83348], [12.39674, 44.82665], [12.424, 44.82049], [12.41592, 44.80315], [12.39795, 44.79378], [12.37567, 44.79223], [12.30299, 44.84292], [12.29233, 44.84325], [12.26637, 44.82665], [12.26637, 44.8205], [12.28002, 44.8205], [12.25359, 44.75129], [12.24659, 44.71162], [12.2527, 44.6684], [12.28577, 44.60292], [12.28004, 44.53189], [12.2837, 44.48762], [12.32106, 44.3537], [12.34199, 44.32973], [12.35027, 44.28815], [12.36883, 44.25068], [12.38998, 44.22272], [12.41717, 44.19546], [12.45801, 44.1664], [12.47877, 44.13935], [12.51092, 44.11457], [12.54737, 44.09345], [12.57422, 44.08559], [12.63136, 44.0301], [12.69158, 43.99063], [12.75611, 43.97187], [12.80396, 43.96685], [12.86215, 43.93537], [12.92887, 43.91583], [12.94728, 43.89761], [13.25327, 43.70319], [13.38981, 43.64459], [13.39967, 43.63565], [13.44662, 43.62371], [13.4734, 43.61201], [13.50441, 43.63275], [13.51611, 43.63173], [13.52101, 43.62271], [13.54321, 43.61322], [13.57887, 43.5729], [13.59791, 43.56952], [13.61556, 43.56048], [13.62451, 43.54719], [13.61695, 43.53132], [13.76027, 43.26374], [13.78027, 43.23652], [13.79078, 43.19208], [13.83487, 43.1271], [13.8487, 43.09145], [13.86541, 43.00731], [13.94467, 42.79829], [14.00123, 42.69843], [14.06323, 42.62482], [14.07537, 42.59882], [14.22055, 42.47016], [14.28419, 42.42829], [14.38737, 42.37294], [14.42905, 42.32172], [14.56023, 42.22565], [14.59588, 42.20856], [14.65349, 42.19107], [14.69369, 42.18536], [14.70923, 42.17548], [14.71704, 42.16006], [14.7295, 42.09911], [14.74073, 42.08462], [14.78041, 42.07513], [14.83546, 42.04414], [14.8711, 42.03181], [14.95156, 42.02112], [14.99365, 42.01064], [15.04518, 41.96898], [15.06316, 41.96429], [15.12338, 41.93427], [15.16537, 41.9278], [15.28175, 41.92803], [15.40056, 41.90778], [15.44606, 41.90693], [15.61134, 41.92803], [15.77443, 41.92121], [16.02711, 41.94407], [16.14046, 41.9199], [16.1609, 41.89265], [16.17919, 41.89329], [16.17604, 41.87739], [16.19304, 41.80854], [16.19287, 41.79092], [16.18446, 41.77977], [16.14575, 41.74886], [16.10719, 41.73762], [16.06315, 41.70149], [16.02751, 41.67993], [15.9253, 41.64004], [15.90008, 41.61465], [15.89137, 41.57685], [15.89633, 41.53644], [15.91179, 41.50288], [15.9336, 41.47944], [15.96111, 41.45946], [16.02166, 41.4278], [16.08513, 41.41266], [16.11411, 41.39289], [16.30127, 41.32793], [16.4603, 41.26264], [16.52067, 41.25014], [16.59392, 41.20698], [16.83031, 41.14638], [16.85141, 41.13296], [16.85817, 41.13296], [16.85816, 41.14035], [16.86442, 41.14036], [16.88527, 41.12397], [17.05739, 41.08175], [17.2028, 41.02112], [17.2762, 40.98031], [17.31006, 40.95477], [17.34791, 40.9121], [17.37769, 40.90228], [17.4134, 40.8812], [17.47609, 40.83015], [17.51221, 40.82029], [17.54835, 40.80195], [17.63453, 40.78497], [17.74837, 40.74761], [17.84392, 40.69416], [17.92188, 40.683], [17.95557, 40.67057], [17.95493, 40.64692], [17.99195, 40.65313], [18.007, 40.65069], [18.0158, 40.62519], [18.04321, 40.60199], [18.03745, 40.55695], [18.11996, 40.50458], [18.21168, 40.46475], [18.23828, 40.45766], [18.2588, 40.43065], [18.30322, 40.39988], [18.34376, 40.35163], [18.37044, 40.33868], [18.43707, 40.2681], [18.50001, 40.15249], [18.51611, 40.13922], [18.51108, 40.12759], [18.51611, 40.10448], [18.49187, 40.08466], [18.48356, 40.05517], [18.43409, 40.02253], [18.41139, 39.97883], [18.39259, 39.91608], [18.40007, 39.87882], [18.38648, 39.82534], [18.38916, 39.81709], [18.36833, 39.79663], [18.33839, 39.80012], [18.28207, 39.8332], [18.26564, 39.83759], [18.21128, 39.83935], [18.16189, 39.86055], [18.13063, 39.88349], [18.07155, 39.91153], [17.99539, 39.99527], [17.99539, 40.00266], [18.01108, 40.00336], [18.02027, 40.0102], [18.02215, 40.02167], [18.0158, 40.0362], [18.00514, 40.04487], [17.96748, 40.05732], [18.00294, 40.07445], [18.011, 40.09602], [17.99724, 40.12043], [17.92605, 40.17626], [17.91962, 40.19074], [17.917, 40.22687], [17.91114, 40.2403], [17.89969, 40.24909], [17.91277, 40.24909], [17.91277, 40.25532], [17.86313, 40.28563], [17.84767, 40.29003], [17.51175, 40.30376], [17.49391, 40.30745], [17.44044, 40.331], [17.39943, 40.33101], [17.36818, 40.35151], [17.21291, 40.4062], [17.20023, 40.42039], [17.22348, 40.42841], [17.24301, 40.44139], [17.2479, 40.45734], [17.22758, 40.47444], [17.24741, 40.48028], [17.29575, 40.47321], [17.31625, 40.48188], [17.32325, 40.49848], [17.30405, 40.49946], [17.26175, 40.48872], [17.26857, 40.49616], [17.24741, 40.50283], [17.18995, 40.48189], [17.18182, 40.4853], [17.16619, 40.50918], [17.15602, 40.5124], [17.04957, 40.51911], [16.97609, 40.49262], [16.91212, 40.44522], [16.78272, 40.30158], [16.7614, 40.2696], [16.73071, 40.20068], [16.71599, 40.19359], [16.67944, 40.14607], [16.62452, 40.10798], [16.60475, 40.08446], [16.59693, 40.04678], [16.59938, 40.03413], [16.63159, 39.96621], [16.60548, 39.94294], [16.58919, 39.91983], [16.54225, 39.8854], [16.49171, 39.80549], [16.48976, 39.77521], [16.50213, 39.74706], [16.52856, 39.7215], [16.51564, 39.6896], [16.54591, 39.66087], [16.59148, 39.63679], [16.62485, 39.62531], [16.74976, 39.62001], [16.78248, 39.61163], [16.81626, 39.59088], [16.8462, 39.55268], [16.906, 39.52972], [16.95297, 39.49921], [16.99537, 39.49273], [17.01148, 39.48614], [17.05714, 39.44164], [17.08855, 39.42259], [17.1242, 39.409], [17.15868, 39.40619], [17.12224, 39.33832], [17.11451, 39.26935], [17.11769, 39.25601], [17.14567, 39.21068], [17.12224, 39.12104], [17.12452, 39.09089], [17.15846, 39.04047], [17.20636, 39.02948], [17.17661, 39.01211], [17.17237, 39.00519], [17.17236, 38.96052], [17.1277, 38.92878], [17.10402, 38.8991], [17.09498, 38.91913], [17.07057, 38.9228], [17.04225, 38.91625], [17.02199, 38.90596], [16.99635, 38.92951], [16.98129, 38.9372], [16.95729, 38.94009], [16.83855, 38.9182], [16.72779, 38.87885], [16.68775, 38.85586], [16.67074, 38.84065], [16.61061, 38.81656], [16.58562, 38.79784], [16.57439, 38.78506], [16.56372, 38.75675], [16.53883, 38.72333], [16.53484, 38.6999], [16.54907, 38.68992], [16.55885, 38.59602], [16.57698, 38.52855], [16.56947, 38.42932], [16.56136, 38.41633], [16.50814, 38.37154], [16.49757, 38.36929], [16.46705, 38.34871], [16.43507, 38.33999], [16.33985, 38.30085], [16.30633, 38.27709], [16.16944, 38.14322], [16.15187, 38.11083], [16.12542, 38.00466], [16.10143, 37.96066], [16.07733, 37.94001], [16.06316, 37.93269], [16.00099, 37.91902], [15.94215, 37.93309], [15.76149, 37.92525], [15.73465, 37.93106], [15.6846, 37.95342], [15.66579, 37.96687], [15.64553, 37.98835], [15.63512, 38.0091], [15.63837, 38.02773], [15.65846, 38.04255], [15.62405, 38.09211], [15.62746, 38.10736], [15.6478, 38.14313], [15.63284, 38.22028], [15.6508, 38.24112], [15.6846, 38.2532], [15.78647, 38.27802], [15.81392, 38.30381]], [[7.67298, 44.19656], [7.56499, 44.16593], [7.56557, 44.15377], [7.58414, 44.15123], [7.68332, 44.17452], [7.69024, 44.18426], [7.68407, 44.19396], [7.67298, 44.19656]]], [[[12.32147, 45.34804], [12.32802, 45.37244], [12.37184, 45.42487], [12.38917, 45.43354], [12.40748, 45.43065], [12.43085, 45.41571], [12.41822, 45.42036], [12.37623, 45.42255], [12.32147, 45.34804]]], [[[12.36378, 45.44965], [12.36207, 45.43814], [12.33823, 45.42783], [12.32066, 45.42984], [12.31659, 45.44306], [12.32985, 45.4588], [12.34717, 45.4588], [12.36378, 45.44965]]], [[[12.37546, 45.45388], [12.39731, 45.46003], [12.41408, 45.47308], [12.41839, 45.46874], [12.39609, 45.44941], [12.38536, 45.44571], [12.37546, 45.45388]]]]}}]}