{"type": "FeatureCollection", "features": [{"type": "Feature", "properties": {"map_title": "제1차 세계 대전의 전개", "source": "미래엔 세계사 교과서 4권 181쪽", "volume": 4, "page": 181, "legend": "연합국", "name": "그리스", "name_en": "Greece", "period": "1914–1918", "kind": "국가", "alliance": "연합국", "coast_snap": "Natural Earth 10m 해안선에 맞춤", "border_snap": "현대 국경(Natural Earth 10m)에 맞춘 구간 약 748 km"}, "geometry": {"type": "MultiPolygon", "coordinates": [[[[23.11013, 35.90116], [23.10387, 35.89209], [23.07844, 35.88861], [23.05821, 35.89067], [23.03737, 35.8972], [22.99962, 35.92101], [22.98556, 35.93702], [22.97663, 35.95498], [22.9743, 35.97428], [22.98007, 35.99438], [23.00516, 36.05247], [23.01858, 36.108], [23.02745, 36.12104], [23.03884, 36.12858], [23.05204, 36.13124], [23.08082, 36.1242], [23.10748, 36.10461], [23.11873, 36.09052], [23.12889, 36.06664], [23.12792, 36.04147], [23.12152, 36.02513], [23.09554, 35.98372], [23.09292, 35.97208], [23.09761, 35.93686], [23.11013, 35.90116]]], [[[23.00245, 36.14663], [22.99074, 36.13705], [22.98756, 36.15156], [22.94957, 36.16499], [22.95004, 36.17626], [22.92922, 36.17797], [22.90871, 36.20596], [22.91619, 36.2851], [22.89968, 36.32819], [22.90158, 36.33812], [22.93264, 36.38124], [22.94459, 36.38938], [22.95638, 36.38344], [23.01173, 36.3083], [23.0769, 36.27073], [23.0944, 36.25433], [23.10384, 36.23721], [23.06625, 36.22639], [23.05844, 36.21646], [23.052, 36.14485], [23.01442, 36.14834], [23.00245, 36.14663]]], [[[22.95265, 36.50547], [22.96982, 36.51122], [22.97674, 36.50747], [22.98218, 36.49941], [22.98934, 36.47044], [22.98601, 36.45826], [22.96583, 36.47606], [22.95159, 36.47525], [22.94034, 36.46605], [22.93165, 36.46476], [22.92507, 36.46907], [22.92939, 36.48411], [22.95265, 36.50547]]], [[[21.75051, 36.71241], [21.75954, 36.75189], [21.76417, 36.75396], [21.78003, 36.7475], [21.77783, 36.69939], [21.76796, 36.70826], [21.76417, 36.71988], [21.75051, 36.71241]]], [[[21.72613, 36.79481], [21.72933, 36.78877], [21.71632, 36.78132], [21.71655, 36.77094], [21.69582, 36.74043], [21.70087, 36.79108], [21.70949, 36.80173], [21.72613, 36.79481]]], [[[23.45778, 36.90645], [23.44974, 36.92913], [23.46723, 36.90661], [23.46388, 36.90401], [23.45778, 36.90645]]], [[[21.549, 37.04536], [21.5373, 37.05744], [21.55259, 37.06428], [21.55867, 37.05382], [21.54665, 37.03237], [21.549, 37.04536]]], [[[23.15203, 37.23999], [23.13133, 37.24367], [23.09443, 37.27473], [23.10934, 37.28523], [23.12842, 37.28839], [23.15825, 37.27154], [23.16471, 37.25381], [23.16235, 37.24422], [23.15203, 37.23999]]], [[[23.53256, 37.36392], [23.55299, 37.37091], [23.58714, 37.37091], [23.57113, 37.35835], [23.5477, 37.34985], [23.52329, 37.34664], [23.50514, 37.34984], [23.50878, 37.3299], [23.49683, 37.32002], [23.37429, 37.30269], [23.37451, 37.30964], [23.46364, 37.35732], [23.48737, 37.36344], [23.53256, 37.36392]]], [[[23.65833, 37.45023], [23.64417, 37.43457], [23.63212, 37.42754], [23.61385, 37.42387], [23.60109, 37.42537], [23.59338, 37.43098], [23.59017, 37.43964], [23.59095, 37.4503], [23.6023, 37.47341], [23.61488, 37.48625], [23.64384, 37.5002], [23.65789, 37.50151], [23.66701, 37.49749], [23.67143, 37.48927], [23.67134, 37.47793], [23.65833, 37.45023]]], [[[23.47732, 37.55588], [23.48178, 37.55645], [23.49204, 37.53913], [23.51157, 37.52904], [23.52563, 37.52801], [23.52563, 37.5218], [23.50635, 37.51285], [23.48121, 37.5096], [23.4559, 37.51252], [23.43631, 37.52179], [23.43629, 37.52802], [23.46461, 37.53376], [23.4759, 37.54455], [23.47732, 37.55588]]], [[[23.52803, 37.6643], [23.54517, 37.64887], [23.55029, 37.63149], [23.54288, 37.60625], [23.53425, 37.59511], [23.51105, 37.57851], [23.4981, 37.57416], [23.47988, 37.57418], [23.46801, 37.58086], [23.45756, 37.59442], [23.45477, 37.61387], [23.45946, 37.63021], [23.46919, 37.64469], [23.48241, 37.65632], [23.49759, 37.66414], [23.51328, 37.66712], [23.52803, 37.6643]]], [[[23.42564, 37.76821], [23.54615, 37.77439], [23.56314, 37.76825], [23.54493, 37.74506], [23.54614, 37.73347], [23.53207, 37.72533], [23.52563, 37.69246], [23.48414, 37.67887], [23.45738, 37.69246], [23.45738, 37.69928], [23.46901, 37.70502], [23.46827, 37.7145], [23.45932, 37.72333], [23.43443, 37.7336], [23.42704, 37.74802], [23.42564, 37.76821]]], [[[21.01718, 37.57369], [20.98606, 37.58989], [20.96201, 37.61275], [20.9367, 37.66135], [20.90793, 37.73124], [20.89389, 37.73347], [20.87916, 37.72822], [20.86328, 37.71061], [20.84352, 37.70156], [20.84376, 37.68993], [20.85302, 37.67259], [20.84685, 37.65331], [20.81512, 37.65153], [20.77719, 37.68627], [20.70437, 37.73835], [20.70216, 37.75454], [20.68044, 37.76997], [20.64243, 37.8111], [20.61949, 37.82282], [20.6257, 37.83739], [20.6221, 37.8513], [20.6277, 37.85761], [20.61949, 37.86441], [20.65983, 37.91035], [20.68572, 37.92958], [20.70898, 37.92523], [20.74195, 37.86229], [20.77719, 37.84333], [20.80885, 37.84954], [20.84986, 37.83649], [20.85882, 37.83095], [20.88462, 37.85648], [20.89633, 37.8557], [20.94382, 37.82609], [21.02208, 37.76287], [21.0696, 37.71484], [21.12254, 37.64613], [21.13236, 37.62246], [21.13047, 37.61104], [21.11693, 37.5881], [21.09608, 37.56945], [21.075, 37.56047], [21.04963, 37.56283], [21.01718, 37.57369]]], [[[23.52174, 37.91397], [23.51823, 37.8986], [23.50131, 37.90607], [23.48145, 37.88972], [23.46705, 37.88423], [23.4214, 37.89298], [23.40212, 37.906], [23.40882, 37.92176], [23.42287, 37.933], [23.43949, 37.93959], [23.46852, 37.93203], [23.49204, 37.95628], [23.49773, 37.96686], [23.48561, 37.96625], [23.46043, 37.95255], [23.42208, 37.96004], [23.45737, 37.97362], [23.42945, 37.98794], [23.45151, 37.98826], [23.47047, 37.98046], [23.47486, 37.98941], [23.47048, 37.99408], [23.47821, 37.99884], [23.49529, 38.00184], [23.51824, 37.99908], [23.53686, 37.98802], [23.53272, 37.97508], [23.54712, 37.95888], [23.54615, 37.95254], [23.57347, 37.95254], [23.53932, 37.93952], [23.54345, 37.92886], [23.52174, 37.91397]]], [[[20.73357, 38.06242], [20.71821, 38.06647], [20.68165, 38.09781], [20.65301, 38.11115], [20.61459, 38.11982], [20.58074, 38.11547], [20.56495, 38.09033], [20.5464, 38.10204], [20.50978, 38.11079], [20.49612, 38.12446], [20.48927, 38.15925], [20.46878, 38.19276], [20.48121, 38.19013], [20.50978, 38.17227], [20.50978, 38.17967], [20.49383, 38.19172], [20.44532, 38.27619], [20.43507, 38.2788], [20.42791, 38.26166], [20.43603, 38.2122], [20.43473, 38.19278], [20.42529, 38.17529], [20.38007, 38.15181], [20.37403, 38.16901], [20.3454, 38.18212], [20.33906, 38.20018], [20.35694, 38.22858], [20.35378, 38.25324], [20.37965, 38.27399], [20.3921, 38.30012], [20.39992, 38.36403], [20.40675, 38.34357], [20.41358, 38.34357], [20.42726, 38.36333], [20.45509, 38.32307], [20.46322, 38.33147], [20.47047, 38.31513], [20.47901, 38.30948], [20.5298, 38.33747], [20.53875, 38.35407], [20.53956, 38.37421], [20.53095, 38.39202], [20.55128, 38.38516], [20.53781, 38.42589], [20.54363, 38.45917], [20.53778, 38.47393], [20.57178, 38.47393], [20.62769, 38.34357], [20.62602, 38.32826], [20.59913, 38.30264], [20.63054, 38.25796], [20.64291, 38.2534], [20.68162, 38.2821], [20.67481, 38.26781], [20.69352, 38.26462], [20.709, 38.22696], [20.7513, 38.19676], [20.76222, 38.1704], [20.79769, 38.13129], [20.80501, 38.11579], [20.80776, 38.09976], [20.80468, 38.08296], [20.79468, 38.06612], [20.76368, 38.06989], [20.73357, 38.06242]]], [[[20.64777, 38.40542], [20.64015, 38.4466], [20.61453, 38.46711], [20.61948, 38.48137], [20.63551, 38.47297], [20.64422, 38.47866], [20.65448, 38.50185], [20.67187, 38.49754], [20.67407, 38.48501], [20.66114, 38.46088], [20.67823, 38.46185], [20.70177, 38.45018], [20.70994, 38.47197], [20.75433, 38.55015], [20.78906, 38.59916], [20.75173, 38.62605], [20.73699, 38.65217], [20.74644, 38.66347], [20.78305, 38.67498], [20.80501, 38.66567], [20.78858, 38.64473], [20.76287, 38.63911], [20.75961, 38.62739], [20.79187, 38.60191], [20.81624, 38.62425], [20.84436, 38.63441], [20.8642, 38.63469], [20.87935, 38.62836], [20.88556, 38.62147], [20.90383, 38.64276], [20.94516, 38.65248], [20.95166, 38.64923], [20.95288, 38.63886], [20.94165, 38.6274], [20.89498, 38.60254], [20.89619, 38.58333], [20.89195, 38.56413], [20.87833, 38.53967], [20.83856, 38.50759], [20.77484, 38.46674], [20.71754, 38.43703], [20.70453, 38.43436], [20.69529, 38.40897], [20.67481, 38.37767], [20.69239, 38.37132], [20.71583, 38.37153], [20.71583, 38.37767], [20.70218, 38.38515], [20.7225, 38.38516], [20.71584, 38.39202], [20.73877, 38.38426], [20.75746, 38.37154], [20.73756, 38.37153], [20.74366, 38.34439], [20.75001, 38.3347], [20.76367, 38.3305], [20.76367, 38.32307], [20.71915, 38.31567], [20.70583, 38.31827], [20.68801, 38.33656], [20.69532, 38.34357], [20.66734, 38.37153], [20.64777, 38.40542]]], [[[20.90755, 38.54903], [20.8939, 38.54903], [20.8939, 38.55646], [20.93214, 38.60301], [20.94106, 38.60422], [20.90935, 38.56293], [20.90755, 38.54903]]], [[[20.68164, 38.60425], [20.66481, 38.61091], [20.64894, 38.60859], [20.64088, 38.60057], [20.64762, 38.58382], [20.63088, 38.58833], [20.63331, 38.60423], [20.61363, 38.60701], [20.60231, 38.62678], [20.58546, 38.61791], [20.55127, 38.56953], [20.54462, 38.56954], [20.56236, 38.69123], [20.58123, 38.72435], [20.60245, 38.7815], [20.61215, 38.78583], [20.64528, 38.82819], [20.68628, 38.85007], [20.6902, 38.84138], [20.70215, 38.83697], [20.71778, 38.8227], [20.72933, 38.78172], [20.72439, 38.76148], [20.72884, 38.73062], [20.69695, 38.68985], [20.69874, 38.68281], [20.70606, 38.68041], [20.72249, 38.70725], [20.72073, 38.63862], [20.71598, 38.62703], [20.70948, 38.62568], [20.70216, 38.63841], [20.69532, 38.63841], [20.70215, 38.61792], [20.68784, 38.62474], [20.68164, 38.60425]]], [[[21.28442, 38.01535], [21.36704, 38.12108], [21.37371, 38.14448], [21.37429, 38.22062], [21.40854, 38.18594], [21.40092, 38.21473], [21.42067, 38.20234], [21.47396, 38.19602], [21.52394, 38.166], [21.60304, 38.1518], [21.62232, 38.15477], [21.67481, 38.17967], [21.70134, 38.20527], [21.74137, 38.26943], [21.76418, 38.29579], [21.84946, 38.34128], [21.91554, 38.33051], [21.93702, 38.33063], [21.9559, 38.33672], [21.97804, 38.32355], [22.02035, 38.31321], [22.03785, 38.28213], [22.04884, 38.27481], [22.08937, 38.26166], [22.11361, 38.2678], [22.14331, 38.24908], [22.16139, 38.2132], [22.20606, 38.20017], [22.21852, 38.18818], [22.25792, 38.18587], [22.31284, 38.17227], [22.33123, 38.17889], [22.36346, 38.15827], [22.41481, 38.13788], [22.43279, 38.14325], [22.51148, 38.12929], [22.62062, 38.08348], [22.68042, 38.06659], [22.77811, 38.00112], [22.7964, 37.97679], [22.82129, 37.96917], [22.8672, 37.93952], [22.88266, 37.93757], [22.92238, 37.94635], [22.9463, 37.94623], [22.97535, 37.97899], [22.95094, 38.00243], [22.92384, 38.01179], [22.89918, 38.02778], [22.88088, 38.02889], [22.88746, 38.03364], [22.85405, 38.03511], [22.87521, 38.04911], [22.91163, 38.06013], [22.94289, 38.08347], [22.96973, 38.08196], [23.01905, 38.06525], [23.03907, 38.06988], [23.06861, 38.05891], [23.10092, 38.0624], [23.17286, 38.07949], [23.18972, 38.09438], [23.21664, 38.10334], [23.2103, 38.11538], [23.19418, 38.12694], [23.17556, 38.1313], [23.17556, 38.14496], [23.2234, 38.1518], [23.2234, 38.15925], [23.12845, 38.17227], [23.14894, 38.18594], [23.12273, 38.20807], [23.10963, 38.21011], [23.07748, 38.18579], [23.06638, 38.1832], [23.03225, 38.18595], [23.03225, 38.19277], [23.05201, 38.19278], [23.02508, 38.21662], [22.95192, 38.22529], [22.93377, 38.22207], [22.92237, 38.20702], [22.95053, 38.20978], [22.96305, 38.20404], [22.96947, 38.19279], [22.92254, 38.19746], [22.90871, 38.19279], [22.89503, 38.24116], [22.88819, 38.24116], [22.88088, 38.22697], [22.87468, 38.24116], [22.82, 38.23298], [22.80568, 38.22697], [22.76484, 38.248], [22.79884, 38.28213], [22.74237, 38.29707], [22.71941, 38.31029], [22.69647, 38.31689], [22.67532, 38.34357], [22.68442, 38.36107], [22.67018, 38.38154], [22.6465, 38.38996], [22.6268, 38.37153], [22.64485, 38.36961], [22.64616, 38.36181], [22.63673, 38.35628], [22.61232, 38.36384], [22.58717, 38.33674], [22.58717, 38.33051], [22.60644, 38.32306], [22.60644, 38.31689], [22.59816, 38.31074], [22.60026, 38.30264], [22.58835, 38.29297], [22.57643, 38.2902], [22.56252, 38.29353], [22.54568, 38.30264], [22.52623, 38.33173], [22.53883, 38.33674], [22.52516, 38.35883], [22.47731, 38.40567], [22.46843, 38.42113], [22.40162, 38.45344], [22.40836, 38.4156], [22.37371, 38.39204], [22.386, 38.38019], [22.39478, 38.38515], [22.3986, 38.37592], [22.39609, 38.3682], [22.38111, 38.35786], [22.38794, 38.35102], [22.38233, 38.34269], [22.36753, 38.34188], [22.32252, 38.35102], [22.28493, 38.34733], [22.26645, 38.35855], [22.22486, 38.36005], [22.20932, 38.35293], [22.19597, 38.33954], [22.18921, 38.32308], [22.16879, 38.35102], [22.14578, 38.354], [22.14772, 38.36408], [22.13258, 38.37275], [22.04908, 38.3985], [22.02955, 38.39924], [22.01124, 38.39205], [21.98764, 38.41059], [21.95786, 38.41169], [21.92897, 38.4029], [21.87924, 38.37801], [21.86385, 38.37778], [21.84051, 38.39887], [21.83123, 38.39667], [21.78224, 38.36367], [21.77459, 38.35261], [21.77164, 38.33365], [21.76254, 38.32837], [21.71632, 38.35786], [21.65797, 38.35786], [21.61354, 38.34497], [21.59962, 38.35102], [21.53541, 38.31395], [21.52393, 38.29581], [21.51805, 38.2958], [21.50847, 38.30223], [21.47609, 38.30607], [21.46925, 38.31293], [21.42843, 38.33051], [21.44532, 38.33404], [21.48976, 38.30947], [21.48268, 38.32461], [21.48976, 38.33674], [21.47609, 38.34379], [21.47608, 38.35102], [21.48976, 38.35786], [21.46999, 38.35786], [21.47608, 38.37153], [21.45856, 38.36637], [21.44264, 38.37153], [21.42215, 38.3641], [21.42848, 38.38373], [21.41627, 38.39411], [21.37746, 38.39888], [21.3699, 38.40819], [21.36012, 38.46772], [21.33904, 38.48753], [21.32252, 38.49628], [21.3086, 38.49437], [21.35328, 38.43293], [21.33904, 38.43293], [21.34645, 38.42609], [21.33659, 38.3957], [21.29119, 38.37767], [21.29866, 38.37153], [21.29119, 38.36409], [21.27768, 38.37092], [21.26954, 38.36786], [21.26637, 38.3614], [21.27221, 38.35444], [21.23926, 38.33113], [21.21263, 38.33052], [21.18963, 38.34138], [21.18133, 38.33051], [21.19993, 38.32307], [21.17779, 38.31437], [21.17448, 38.30265], [21.15562, 38.30391], [21.14039, 38.33674], [21.08525, 38.34358], [21.10572, 38.35297], [21.10939, 38.36042], [21.10621, 38.37153], [21.09256, 38.3641], [21.1062, 38.38513], [21.10328, 38.37816], [21.11354, 38.37393], [21.12501, 38.37995], [21.14039, 38.39887], [21.12241, 38.41035], [21.11476, 38.40961], [21.1062, 38.39888], [21.09497, 38.4029], [21.08678, 38.41048], [21.07896, 38.43293], [21.08522, 38.44035], [21.10678, 38.42544], [21.11622, 38.42805], [21.11988, 38.44038], [21.10621, 38.43293], [21.11085, 38.44611], [21.10142, 38.46475], [21.10621, 38.48139], [21.07897, 38.48754], [21.09938, 38.49437], [21.08523, 38.50186], [21.0949, 38.51978], [21.09596, 38.53193], [21.08668, 38.53644], [21.04692, 38.51126], [21.03582, 38.50692], [21.03054, 38.51142], [21.01687, 38.54589], [21.02467, 38.60847], [21.00369, 38.62646], [20.98813, 38.66401], [20.97902, 38.67255], [20.9269, 38.67666], [20.91441, 38.68623], [20.88315, 38.77936], [20.87338, 38.79531], [20.85987, 38.80353], [20.84522, 38.79963], [20.83058, 38.78779], [20.81137, 38.76254], [20.80405, 38.77338], [20.77329, 38.76095], [20.76368, 38.78172], [20.72934, 38.80353], [20.72934, 38.80976], [20.74937, 38.85724], [20.76735, 38.86431], [20.8003, 38.86457], [20.80519, 38.86774], [20.7942, 38.87979], [20.76451, 38.8918], [20.75605, 38.90689], [20.75745, 38.93987], [20.76978, 38.95895], [20.78159, 38.935], [20.81707, 38.92137], [20.83595, 38.9289], [20.85988, 38.96051], [20.8667, 38.96051], [20.87106, 38.94745], [20.86671, 38.94009], [20.87224, 38.93281], [20.86671, 38.92642], [20.90382, 38.92805], [20.91578, 38.9361], [20.92068, 38.95432], [20.92749, 38.95432], [20.93718, 38.94404], [20.97535, 38.94684], [21.00945, 38.93423], [21.02734, 38.93259], [21.02556, 38.89802], [21.0608, 38.88222], [21.08522, 38.86432], [21.08889, 38.87848], [21.09938, 38.88544], [21.09166, 38.90452], [21.10231, 38.91082], [21.12111, 38.91011], [21.13701, 38.9025], [21.16082, 38.878], [21.17262, 38.87352], [21.17742, 38.87604], [21.18133, 38.88544], [21.16969, 38.89582], [21.16684, 38.91087], [21.15455, 38.9134], [21.14019, 38.94108], [21.14723, 38.95433], [21.14195, 38.96239], [21.14504, 38.97138], [21.15262, 38.9767], [21.16082, 38.97419], [21.15992, 38.99775], [21.13559, 39.02338], [21.08522, 39.06293], [21.07439, 39.05003], [21.07892, 39.0363], [21.06528, 39.04051], [21.05519, 39.0375], [21.03736, 39.02196], [21.05832, 39.00899], [21.0032, 39.01513], [21.00318, 39.02196], [20.9909, 39.02425], [20.96567, 39.03937], [20.95355, 39.03427], [20.9442, 39.03857], [20.93484, 39.05671], [20.9485, 39.06293], [20.9485, 39.06977], [20.92018, 39.06453], [20.90138, 39.07722], [20.89389, 39.07722], [20.88818, 39.06721], [20.87037, 39.05931], [20.86671, 39.05305], [20.87094, 39.04312], [20.88646, 39.03645], [20.84495, 39.03694], [20.85987, 39.04247], [20.85776, 39.05891], [20.85499, 39.0655], [20.84622, 39.06295], [20.8462, 39.07722], [20.83237, 39.07689], [20.82573, 39.06982], [20.83806, 39.09174], [20.83416, 39.10847], [20.82244, 39.11449], [20.81137, 39.10457], [20.80519, 39.1114], [20.79541, 39.09863], [20.77719, 39.09089], [20.77719, 39.08344], [20.79182, 39.08079], [20.78401, 39.04927], [20.76157, 39.03242], [20.7575, 39.02196], [20.74318, 39.02949], [20.74537, 39.01472], [20.7575, 39.01512], [20.80388, 38.9853], [20.82349, 38.97784], [20.83178, 38.96369], [20.82878, 38.96053], [20.82035, 38.96217], [20.80209, 38.97065], [20.76637, 38.97761], [20.7575, 38.97419], [20.74692, 38.95795], [20.73512, 38.95011], [20.70225, 38.99815], [20.71583, 39.01512], [20.70574, 39.04857], [20.69301, 39.0644], [20.67198, 39.08071], [20.59589, 39.12386], [20.51783, 39.20075], [20.47887, 39.22517], [20.48243, 39.23428], [20.47514, 39.25534], [20.48243, 39.28266], [20.46022, 39.2773], [20.44825, 39.2895], [20.43344, 39.28287], [20.4192, 39.28337], [20.39356, 39.29694], [20.36557, 39.28768], [20.32489, 39.30379], [20.29283, 39.33344], [20.2907, 39.36465], [20.25896, 39.39728], [20.23603, 39.39937], [20.24285, 39.41242], [20.21562, 39.44033], [20.26734, 39.44693], [20.26393, 39.46076], [20.2156, 39.48872], [20.2156, 39.49493], [20.25506, 39.49238], [20.26393, 39.50861], [20.23601, 39.52082], [20.22202, 39.52131], [20.22241, 39.50862], [20.20216, 39.52041], [20.1907, 39.52168], [20.20191, 39.52973], [20.18312, 39.53327], [20.14959, 39.53364], [20.13359, 39.52975], [20.14552, 39.54707], [20.14667, 39.57068], [20.15406, 39.56391], [20.1609, 39.56436], [20.17457, 39.57685], [20.17458, 39.59796], [20.18824, 39.60419], [20.18181, 39.62446], [20.14821, 39.63753], [20.08888, 39.67308], [20.04422, 39.68101], [20.01002, 39.69355], [19.99684, 39.69257], [19.99585, 39.68672], [19.98903, 39.68672], [19.98359, 39.70136], [19.98694, 39.71771], [20.0027, 39.74824], [19.98066, 39.75731], [19.99586, 39.78294], [20.01629, 39.84504], [20.00978, 39.86567], [19.99928, 39.87141], [19.96169, 39.87858], [19.95883, 39.88935], [19.94117, 39.89899], [19.90644, 39.90645], [19.9066, 39.91283], [19.94117, 39.94001], [19.92385, 39.95283], [19.88006, 40.01757], [20.00624, 40.01706], [20.29791, 39.98691], [20.31001, 39.98986], [20.35993, 39.99105], [20.37646, 39.99374], [20.38907, 40.02944], [20.40044, 40.04526], [20.41377, 40.05719], [20.43279, 40.06381], [20.46597, 40.06081], [20.49987, 40.07146], [20.55289, 40.06541], [20.57779, 40.06727], [20.64756, 40.09404], [20.66823, 40.13807], [20.66037, 40.17889], [20.66502, 40.18437], [20.68528, 40.19119], [20.69644, 40.21507], [20.69458, 40.25558], [20.69913, 40.27837], [20.70698, 40.28808], [20.73665, 40.30364], [20.77044, 40.36255], [20.77385, 40.3749], [20.769, 40.41257], [20.77065, 40.42198], [20.77954, 40.42901], [20.8092, 40.4366], [20.82667, 40.46482], [20.84, 40.47164], [20.86677, 40.47205], [20.91193, 40.45955], [20.93684, 40.47252], [20.95265, 40.49365], [20.95193, 40.50606], [20.95792, 40.51494], [20.98149, 40.52326], [20.98831, 40.5335], [21.01353, 40.5489], [21.0188, 40.55897], [21.02252, 40.58662], [21.03316, 40.6214], [21.03668, 40.63974], [21.03534, 40.65938], [21.02882, 40.67685], [21.01859, 40.6909], [20.98903, 40.71767], [21.0711, 40.85269], [21.11213, 40.85394], [21.18303, 40.87017], [21.20907, 40.86908], [21.26096, 40.86082], [21.29537, 40.86087], [21.32927, 40.86629], [21.34488, 40.87306], [21.38126, 40.9005], [21.40493, 40.90862], [21.42942, 40.90898], [21.50952, 40.9005], [21.55365, 40.87043], [21.58156, 40.86629], [21.62372, 40.8944], [21.64884, 40.8958], [21.6569, 40.91823], [21.68512, 40.92799], [21.737, 40.91916], [21.76552, 40.92391], [21.77813, 40.93373], [21.78371, 40.96417], [21.79364, 40.97357], [21.83126, 40.99352], [21.845, 41.01238], [21.88066, 41.03843], [21.8943, 41.05383], [21.8972, 41.08127], [21.90123, 41.09078], [21.90908, 41.09749], [21.9651, 41.12436], [22.02907, 41.13858], [22.04819, 41.15186], [22.05553, 41.14989], [22.06277, 41.13718], [22.10338, 41.12152], [22.12436, 41.12721], [22.16033, 41.15191], [22.18317, 41.15992], [22.20581, 41.16142], [22.30265, 41.1455], [22.30875, 41.12498], [22.31505, 41.12442], [22.32342, 41.1285], [22.38016, 41.1317], [22.42181, 41.11465], [22.45148, 41.11367], [22.50067, 41.12214], [22.54925, 41.11852], [22.57126, 41.11951], [22.59018, 41.12514], [22.60733, 41.13599], [22.62449, 41.15263], [22.62935, 41.17707], [22.64454, 41.18023], [22.65611, 41.17806], [22.6741, 41.15661], [22.7049, 41.13966], [22.71575, 41.1456], [22.72722, 41.16581], [22.73673, 41.20441], [22.74086, 41.28358], [22.7513, 41.31521], [22.78097, 41.33489], [22.82603, 41.34099], [22.92235, 41.33515], [23.11521, 41.31267], [23.15717, 41.31634], [23.1797, 41.32135], [23.19954, 41.33298], [23.20482, 41.3427], [23.20978, 41.36859], [23.22425, 41.37903], [23.26993, 41.39727], [23.2877, 41.3982], [23.3062, 41.38838], [23.32605, 41.36931], [23.34724, 41.37122], [23.3955, 41.39525], [23.41452, 41.3999], [23.51301, 41.39773], [23.57895, 41.372], [23.61244, 41.37102], [23.62774, 41.37851], [23.65285, 41.39763], [23.67218, 41.40295], [23.70535, 41.40316], [23.73822, 41.39747], [23.75445, 41.40068], [23.77708, 41.42905], [23.79207, 41.43448], [23.83093, 41.43561], [23.8516, 41.43959], [23.86772, 41.44548], [23.8948, 41.46434], [23.90286, 41.46352], [23.94989, 41.43758], [23.96467, 41.43835], [23.98131, 41.45086], [23.99712, 41.45701], [24.00074, 41.46414], [24.02285, 41.45308], [24.03474, 41.45132], [24.0459, 41.45545], [24.052, 41.463], [24.04735, 41.52574], [24.0766, 41.53602], [24.11649, 41.53338], [24.14626, 41.52677], [24.16279, 41.51204], [24.17024, 41.51158], [24.1816, 41.53736], [24.19628, 41.54703], [24.23328, 41.5618], [24.25075, 41.56346], [24.26687, 41.54976], [24.2864, 41.54036], [24.28682, 41.51762], [24.29612, 41.51524], [24.31824, 41.52077], [24.345, 41.5184], [24.38748, 41.52667], [24.42397, 41.52522], [24.43885, 41.5277], [24.45921, 41.54951], [24.51016, 41.56165], [24.53094, 41.54754], [24.54334, 41.52134], [24.54944, 41.48543], [24.56773, 41.46812], [24.58106, 41.46021], [24.58044, 41.44052], [24.59584, 41.42977], [24.64431, 41.42765], [24.63822, 41.41768], [24.6809, 41.41551], [24.6992, 41.40895], [24.71873, 41.39572], [24.75263, 41.36275], [24.77444, 41.34807], [24.79428, 41.3474], [24.80286, 41.36192], [24.80017, 41.37934], [24.80327, 41.39267], [24.84213, 41.39473], [24.87293, 41.40187], [24.88637, 41.40063], [24.91696, 41.38636], [25.08036, 41.33407], [25.10186, 41.33665], [25.11653, 41.32074], [25.15788, 41.30611], [25.1771, 41.29386], [25.21968, 41.24973], [25.23911, 41.2409], [25.26226, 41.2381], [25.28572, 41.2394], [25.45346, 41.28043], [25.4791, 41.28379], [25.50509, 41.28058], [25.51491, 41.28348], [25.52369, 41.29169], [25.53796, 41.31221], [25.55149, 41.31567], [25.63976, 41.31107], [25.67996, 41.29717], [25.69967, 41.03376], [25.68531, 40.93774], [25.71893, 40.96348], [25.79391, 41.00584], [25.87903, 41.03634], [25.92475, 41.04674], [25.9947, 41.0543], [26.22618, 40.89931], [26.23238, 40.88567], [26.2392, 40.88567], [26.24634, 40.89146], [26.26039, 40.92045], [26.26649, 40.92045], [26.27517, 40.91027], [26.2822, 40.90722], [26.30401, 40.90903], [26.52211, 40.74846], [26.55318, 40.68229], [26.56611, 40.62584], [26.50563, 40.59859], [26.47706, 40.6131], [26.44467, 40.61904], [26.39975, 40.60416], [26.37306, 40.61445], [26.3023, 40.60114], [26.11761, 40.602], [26.09132, 40.60542], [26.07692, 40.61181], [26.05374, 40.66059], [26.06088, 40.67585], [26.05812, 40.6977], [26.04811, 40.71963], [26.03324, 40.73505], [26.04689, 40.7425], [26.036, 40.75776], [26.02735, 40.79613], [26.00589, 40.80395], [26.00587, 40.81078], [26.05372, 40.81623], [26.06056, 40.82075], [26.05397, 40.83096], [26.03891, 40.83251], [26.01222, 40.82445], [26.00587, 40.83877], [25.99838, 40.83877], [26.00587, 40.81704], [25.99842, 40.81704], [25.98292, 40.83088], [25.95167, 40.84553], [25.91863, 40.85297], [25.89666, 40.84493], [25.8257, 40.84969], [25.80323, 40.85651], [25.73219, 40.85176], [25.6045, 40.87617], [25.56715, 40.86544], [25.53778, 40.87044], [25.48683, 40.89712], [25.41969, 40.90641], [25.38299, 40.91902], [25.34083, 40.94172], [25.29965, 40.95185], [25.26612, 40.92692], [25.2593, 40.92692], [25.2588, 40.93195], [25.18068, 40.94271], [25.13406, 40.96288], [25.14016, 40.98358], [25.15846, 40.99429], [25.16993, 40.9958], [25.13844, 41.01008], [25.0573, 41.00947], [25.03907, 41.00605], [25.03955, 40.98957], [25.01905, 40.97525], [24.99171, 40.96845], [24.99902, 40.94994], [24.98975, 40.94214], [24.95387, 40.94115], [24.8921, 40.92064], [24.86354, 40.90522], [24.83398, 40.87475], [24.80201, 40.85347], [24.7658, 40.86542], [24.72836, 40.85274], [24.70875, 40.85176], [24.69013, 40.85859], [24.69752, 40.86542], [24.66277, 40.87971], [24.63542, 40.8586], [24.62868, 40.8586], [24.59622, 40.90119], [24.60076, 40.9138], [24.57554, 40.92671], [24.56666, 40.95173], [24.50514, 40.96161], [24.47291, 40.95173], [24.46412, 40.94116], [24.44313, 40.94806], [24.41554, 40.94554], [24.39178, 40.93647], [24.37223, 40.91414], [24.31267, 40.87971], [24.33222, 40.86304], [24.33134, 40.85527], [24.30982, 40.85053], [24.30568, 40.84174], [24.31528, 40.83222], [24.34064, 40.83128], [24.11011, 40.72786], [24.07281, 40.72143], [24.03004, 40.72335], [23.98667, 40.7321], [23.87403, 40.77765], [23.84205, 40.78335], [23.80926, 40.78042], [23.75408, 40.76301], [23.7107, 40.73762], [23.69703, 40.72142], [23.69174, 40.69538], [23.70021, 40.67365], [23.71803, 40.65868], [23.75562, 40.64565], [23.78649, 40.60637], [23.79265, 40.58796], [23.83351, 40.56379], [23.84669, 40.56029], [23.88884, 40.56378], [23.89527, 40.55305], [23.91487, 40.53888], [23.91552, 40.52961], [23.90723, 40.52539], [23.83823, 40.51874], [23.82301, 40.50698], [23.81902, 40.48774], [23.82667, 40.46137], [23.86818, 40.41352], [23.91554, 40.38935], [23.96388, 40.37946], [24.00245, 40.38638], [24.01173, 40.39248], [24.01157, 40.40184], [23.99124, 40.43407], [23.99871, 40.44086], [23.99125, 40.44769], [24.0114, 40.44915], [24.0288, 40.43207], [24.05323, 40.39248], [24.08578, 40.36603], [24.1089, 40.35741], [24.12843, 40.36517], [24.17985, 40.3515], [24.20395, 40.31737], [24.23361, 40.31671], [24.26651, 40.2888], [24.32065, 40.22797], [24.3833, 40.17914], [24.39372, 40.15271], [24.36109, 40.1324], [24.31861, 40.12471], [24.29999, 40.12809], [24.28614, 40.16055], [24.2383, 40.187], [24.16896, 40.27529], [24.12843, 40.29003], [24.04787, 40.30119], [24.01922, 40.3105], [23.93653, 40.36518], [23.92262, 40.36933], [23.88502, 40.36519], [23.83351, 40.37202], [23.78223, 40.3527], [23.75961, 40.3492], [23.73048, 40.35895], [23.69972, 40.32636], [23.69361, 40.30923], [23.69565, 40.29291], [23.71632, 40.25532], [23.75765, 40.23167], [23.76433, 40.2154], [23.77858, 40.2027], [23.86769, 40.17276], [23.88022, 40.17632], [23.89673, 40.17132], [23.94068, 40.14155], [23.98023, 40.13067], [23.99121, 40.11872], [23.98999, 40.11002], [23.97739, 40.10049], [23.97755, 40.09081], [24.00114, 40.07493], [24.00488, 40.06721], [24.00169, 40.05878], [23.98422, 40.05362], [23.98683, 40.04218], [23.99342, 40.03754], [24.01171, 40.04364], [24.01222, 40.02656], [24.0192, 40.0163], [23.99252, 39.99885], [23.98805, 39.98998], [23.9987, 39.98159], [23.9987, 39.97477], [23.97934, 39.97431], [23.9699, 39.96808], [23.97283, 39.96186], [23.9912, 39.96109], [23.99121, 39.95361], [23.93995, 39.95247], [23.9197, 39.95637], [23.92286, 39.97476], [23.90066, 39.97119], [23.89765, 39.97793], [23.90252, 39.98843], [23.86086, 40.00581], [23.85621, 40.01675], [23.8449, 40.02411], [23.83123, 40.02652], [23.82407, 40.02192], [23.82664, 40.00892], [23.78526, 40.06699], [23.7933, 40.09382], [23.77834, 40.10164], [23.7645, 40.12617], [23.67547, 40.21792], [23.64177, 40.23542], [23.5403, 40.24479], [23.48414, 40.2696], [23.43849, 40.2792], [23.39829, 40.27774], [23.365, 40.2617], [23.3401, 40.22797], [23.33766, 40.20844], [23.36362, 40.15046], [23.40082, 40.14383], [23.46925, 40.06708], [23.49887, 40.0423], [23.60271, 39.99848], [23.67025, 39.98606], [23.67596, 39.96109], [23.69728, 39.9405], [23.74787, 39.93048], [23.73998, 39.92318], [23.70314, 39.91268], [23.61647, 39.92333], [23.47096, 39.97162], [23.44654, 39.97476], [23.36063, 39.9611], [23.3816, 40.00267], [23.36069, 40.03263], [23.35271, 40.05707], [23.31659, 40.08886], [23.30593, 40.10448], [23.31959, 40.13679], [23.32456, 40.17495], [23.31861, 40.21052], [23.29908, 40.23542], [23.25864, 40.25312], [23.19956, 40.26627], [23.16619, 40.27985], [23.14894, 40.27645], [23.09693, 40.3061], [23.02916, 40.32576], [23.01092, 40.35122], [22.96388, 40.37946], [22.9275, 40.3885], [22.88822, 40.38631], [22.89772, 40.40204], [22.88966, 40.41836], [22.86022, 40.4477], [22.86744, 40.44945], [22.8672, 40.45392], [22.83092, 40.48579], [22.82164, 40.50214], [22.84352, 40.50917], [22.94158, 40.51716], [22.98316, 40.55268], [22.9769, 40.57062], [22.94176, 40.58735], [22.94956, 40.60541], [22.93377, 40.63093], [22.91049, 40.6446], [22.88307, 40.64728], [22.85402, 40.63947], [22.86108, 40.62055], [22.85058, 40.59342], [22.81592, 40.57063], [22.79567, 40.5708], [22.77833, 40.57807], [22.75856, 40.56778], [22.74594, 40.55524], [22.74252, 40.54035], [22.75032, 40.52278], [22.73666, 40.52961], [22.73665, 40.51534], [22.73048, 40.51534], [22.73048, 40.52277], [22.72316, 40.52277], [22.719, 40.51098], [22.71095, 40.51163], [22.68898, 40.52278], [22.68849, 40.52749], [22.67351, 40.52684], [22.65772, 40.51667], [22.65626, 40.50454], [22.67527, 40.49617], [22.65968, 40.49291], [22.65072, 40.47282], [22.6268, 40.48188], [22.60288, 40.48127], [22.57911, 40.46821], [22.60376, 40.44399], [22.60872, 40.42817], [22.60646, 40.41356], [22.63998, 40.38369], [22.65836, 40.37945], [22.66113, 40.36905], [22.62062, 40.31049], [22.59034, 40.24164], [22.59082, 40.23017], [22.5525, 40.16657], [22.54965, 40.14387], [22.56771, 40.1105], [22.57287, 40.08794], [22.5713, 40.05427], [22.58765, 40.0449], [22.60027, 40.0163], [22.66717, 39.97435], [22.69092, 39.96816], [22.69858, 39.96088], [22.70785, 39.96136], [22.71013, 39.93378], [22.73048, 39.8854], [22.77866, 39.84984], [22.80132, 39.84016], [22.84051, 39.8032], [22.85874, 39.77298], [22.87176, 39.71581], [22.90194, 39.65864], [22.92514, 39.59951], [22.93946, 39.58063], [23.00489, 39.5434], [23.05591, 39.52724], [23.09763, 39.50157], [23.11411, 39.46699], [23.12566, 39.45441], [23.21094, 39.37933], [23.22381, 39.35859], [23.27132, 39.32294], [23.29225, 39.26899], [23.34228, 39.19261], [23.34375, 39.17964], [23.30127, 39.15136], [23.20973, 39.13182], [23.23021, 39.12442], [23.23022, 39.11816], [23.20362, 39.10457], [23.1692, 39.10659], [23.14625, 39.10175], [23.11549, 39.0883], [23.09214, 39.08935], [23.05203, 39.09773], [23.07309, 39.12442], [23.06773, 39.138], [23.08107, 39.14719], [23.11409, 39.15911], [23.1006, 39.10456], [23.17172, 39.13495], [23.18238, 39.14614], [23.17557, 39.15546], [23.18133, 39.15867], [23.19093, 39.1581], [23.19923, 39.15143], [23.21713, 39.17963], [23.17556, 39.23428], [23.17986, 39.2508], [23.16912, 39.26854], [23.13461, 39.29694], [23.09816, 39.3122], [23.02053, 39.31754], [23.01856, 39.33047], [22.99806, 39.35712], [22.93588, 39.36058], [22.94287, 39.34415], [22.93279, 39.336], [22.92905, 39.3242], [22.93214, 39.3122], [22.94286, 39.30317], [22.84254, 39.28848], [22.82618, 39.27216], [22.82618, 39.22126], [22.85401, 39.15913], [22.8602, 39.15913], [22.88087, 39.17963], [22.87698, 39.19037], [22.89013, 39.18426], [22.89503, 39.1728], [22.90186, 39.17962], [22.92058, 39.12515], [22.93605, 39.1114], [22.93588, 39.11612], [22.94288, 39.11815], [22.93605, 39.13181], [22.9611, 39.11904], [22.98243, 39.08442], [22.99804, 39.06977], [22.99195, 39.05732], [22.99804, 39.04927], [22.96648, 39.03465], [22.95883, 39.02513], [22.96388, 39.00898], [23.01532, 39.03318], [23.04219, 39.04003], [23.07308, 39.04246], [23.07308, 39.03629], [23.0647, 39.02876], [23.02328, 39.00845], [23.00716, 38.97395], [22.98454, 38.95434], [22.95639, 38.95433], [22.93605, 38.94684], [22.94286, 38.93261], [22.92856, 38.93159], [22.89873, 38.91969], [22.85987, 38.92853], [22.84653, 38.92642], [22.83667, 38.89648], [22.82959, 38.89168], [22.8047, 38.89102], [22.79199, 38.87801], [22.73268, 38.87239], [22.71827, 38.8898], [22.68897, 38.87801], [22.62159, 38.9145], [22.58082, 38.89363], [22.55209, 38.88923], [22.53882, 38.87801], [22.52508, 38.88544], [22.52508, 38.85814], [22.57291, 38.86431], [22.57291, 38.85815], [22.55388, 38.84809], [22.56332, 38.83625], [22.58277, 38.83198], [22.59344, 38.84446], [22.60025, 38.84446], [22.59344, 38.83023], [22.63266, 38.83514], [22.64112, 38.83023], [22.69028, 38.84999], [22.70264, 38.85064], [22.74806, 38.79922], [22.77833, 38.78172], [22.81593, 38.78924], [22.82927, 38.78607], [22.8597, 38.76717], [22.8672, 38.75507], [22.88782, 38.77125], [22.91488, 38.77557], [22.94532, 38.75812], [23.01628, 38.75445], [23.04199, 38.74672], [23.0594, 38.72772], [23.0905, 38.64911], [23.1045, 38.63841], [23.12355, 38.63691], [23.15643, 38.65346], [23.18247, 38.65375], [23.19606, 38.66633], [23.16817, 38.67939], [23.18678, 38.68597], [23.20492, 38.68267], [23.25375, 38.66181], [23.30591, 38.65264], [23.33121, 38.63027], [23.33331, 38.60446], [23.29331, 38.57909], [23.28541, 38.55646], [23.29542, 38.5681], [23.30738, 38.56854], [23.34059, 38.54556], [23.38159, 38.53534], [23.38133, 38.52847], [23.3401, 38.52237], [23.32927, 38.50837], [23.33497, 38.50361], [23.41847, 38.50433], [23.51938, 38.49067], [23.54298, 38.51169], [23.56699, 38.50123], [23.60133, 38.47394], [23.5735, 38.46088], [23.5735, 38.45344], [23.5962, 38.44676], [23.60009, 38.44062], [23.59401, 38.42609], [23.62501, 38.41401], [23.67286, 38.35643], [23.70997, 38.33674], [23.78199, 38.34356], [23.80502, 38.33251], [23.91245, 38.29824], [23.95101, 38.29091], [23.99122, 38.25422], [24.03858, 38.22394], [24.05063, 38.21068], [24.06901, 38.20473], [24.07308, 38.19648], [24.06951, 38.17353], [24.08055, 38.16601], [24.07, 38.16279], [24.06414, 38.1551], [24.05941, 38.13133], [24.05323, 38.14525], [24.03777, 38.14374], [23.98902, 38.12263], [23.99, 38.10212], [24.00913, 38.04059], [24.03271, 38.00776], [24.01173, 37.96686], [24.01587, 37.93745], [24.01173, 37.92524], [24.03443, 37.92291], [24.04329, 37.91644], [24.04638, 37.90599], [24.04224, 37.90071], [24.01173, 37.89175], [24.02784, 37.88032], [24.05322, 37.87807], [24.0464, 37.87059], [24.06689, 37.8644], [24.05934, 37.84854], [24.06689, 37.83711], [24.05763, 37.83218], [24.05323, 37.82282], [24.07717, 37.8109], [24.08464, 37.80174], [24.0874, 37.78522], [24.08187, 37.75251], [24.05942, 37.73347], [24.07308, 37.72723], [24.07308, 37.7198], [24.05942, 37.71979], [24.05942, 37.71357], [24.06577, 37.7128], [24.06689, 37.69933], [24.06397, 37.70501], [24.05942, 37.69929], [24.0721, 37.68952], [24.03272, 37.65153], [23.94973, 37.67744], [23.94306, 37.68993], [23.94337, 37.72724], [23.92271, 37.72119], [23.90252, 37.78189], [23.88885, 37.77442], [23.8816, 37.79108], [23.86557, 37.80768], [23.8475, 37.8181], [23.83351, 37.816], [23.813, 37.82966], [23.80729, 37.80859], [23.78663, 37.81216], [23.77899, 37.80234], [23.77662, 37.81428], [23.76452, 37.816], [23.77084, 37.82831], [23.76645, 37.83893], [23.74482, 37.85762], [23.7422, 37.87665], [23.70054, 37.9252], [23.69703, 37.93952], [23.68019, 37.94587], [23.62812, 37.9327], [23.62812, 37.93953], [23.6408, 37.94579], [23.64178, 37.95254], [23.62664, 37.9475], [23.61036, 37.96214], [23.5608, 37.9728], [23.55299, 37.98046], [23.58888, 38.00633], [23.59787, 38.02107], [23.59059, 38.0388], [23.57684, 38.04564], [23.55982, 38.04256], [23.52182, 38.04255], [23.49464, 38.02889], [23.47088, 38.02778], [23.44996, 38.02143], [23.41188, 37.99437], [23.39527, 37.98794], [23.42945, 37.98045], [23.40894, 37.97432], [23.32984, 37.98046], [23.22682, 37.97362], [23.18922, 37.95881], [23.14234, 37.93009], [23.09409, 37.91105], [23.05201, 37.92524], [23.04273, 37.92195], [23.01515, 37.92524], [23.01025, 37.89697], [22.99513, 37.88215], [22.99952, 37.8627], [23.01254, 37.84756], [23.03224, 37.85076], [23.04965, 37.84357], [23.0735, 37.84113], [23.09718, 37.84357], [23.1141, 37.85076], [23.14625, 37.82583], [23.18237, 37.80914], [23.17644, 37.78998], [23.18237, 37.77441], [23.12818, 37.76048], [23.12094, 37.74091], [23.14584, 37.72582], [23.17553, 37.71978], [23.16383, 37.68159], [23.17553, 37.64469], [23.16188, 37.64468], [23.16863, 37.61416], [23.19011, 37.60732], [23.23024, 37.58259], [23.23764, 37.59002], [23.27467, 37.56122], [23.29224, 37.55588], [23.32301, 37.53742], [23.33668, 37.53547], [23.36036, 37.54767], [23.35914, 37.57429], [23.34059, 37.60029], [23.3122, 37.61055], [23.3122, 37.61737], [23.34783, 37.63441], [23.39869, 37.63787], [23.40902, 37.62592], [23.40429, 37.59927], [23.39078, 37.57136], [23.37428, 37.55589], [23.39503, 37.54141], [23.42204, 37.53546], [23.42205, 37.52802], [23.39527, 37.5218], [23.39527, 37.51496], [23.43629, 37.50812], [23.47917, 37.49066], [23.52563, 37.4597], [23.51889, 37.45303], [23.52563, 37.4392], [23.44654, 37.41463], [23.30592, 37.41193], [23.31217, 37.39827], [23.26271, 37.40103], [23.2644, 37.39082], [23.23024, 37.38459], [23.22999, 37.37494], [23.23707, 37.37031], [23.25755, 37.3709], [23.25131, 37.35733], [23.27797, 37.34984], [23.26207, 37.34395], [23.18605, 37.34064], [23.1854, 37.33218], [23.20361, 37.30269], [23.16863, 37.29952], [23.14146, 37.30952], [23.14145, 37.31635], [23.16188, 37.31635], [23.16188, 37.32315], [23.12339, 37.32478], [23.11413, 37.33616], [23.13461, 37.32933], [23.12241, 37.34569], [23.1006, 37.35733], [23.09278, 37.35079], [23.0731, 37.35522], [23.07261, 37.40109], [23.09498, 37.38955], [23.10524, 37.39692], [23.11412, 37.42559], [23.14145, 37.41193], [23.13201, 37.44863], [23.09718, 37.46223], [23.06202, 37.45499], [23.04594, 37.45971], [23.05942, 37.46654], [23.04591, 37.48701], [23.01124, 37.46906], [23.0049, 37.45973], [22.9909, 37.49575], [22.98072, 37.50878], [22.96388, 37.5218], [22.94289, 37.52181], [22.93605, 37.53547], [22.92156, 37.54035], [22.90187, 37.54165], [22.91432, 37.5388], [22.92237, 37.52804], [22.90235, 37.53486], [22.88502, 37.53315], [22.85402, 37.51497], [22.81936, 37.53547], [22.82618, 37.54906], [22.80202, 37.56086], [22.79592, 37.56916], [22.79884, 37.5764], [22.77833, 37.59687], [22.73846, 37.58088], [22.72641, 37.56635], [22.72316, 37.54165], [22.73665, 37.51838], [22.73048, 37.49445], [22.75033, 37.46654], [22.75034, 37.44261], [22.76481, 37.43178], [22.75799, 37.39826], [22.81933, 37.34369], [22.81251, 37.32933], [22.82618, 37.32911], [22.81935, 37.31635], [22.82998, 37.3081], [22.86085, 37.25568], [22.9067, 37.19368], [22.91162, 37.18342], [22.9004, 37.17292], [22.89503, 37.13386], [22.90317, 37.12128], [22.92205, 37.11799], [22.95638, 37.12395], [22.96386, 37.1103], [22.9568, 37.10676], [22.96386, 37.10342], [22.95639, 37.09593], [22.97347, 37.09096], [22.98169, 37.08271], [22.97916, 37.07783], [22.96388, 37.08295], [22.99983, 37.03327], [22.99806, 37.02147], [23.01171, 36.98677], [22.99073, 36.98676], [23.00489, 36.96686], [23.01172, 36.97308], [23.01635, 36.95527], [23.01173, 36.93891], [23.04899, 36.8769], [23.04591, 36.86909], [23.09326, 36.81826], [23.09181, 36.79833], [23.08058, 36.79499], [23.08058, 36.78876], [23.11409, 36.78131], [23.09441, 36.76081], [23.0944, 36.74372], [23.08863, 36.73291], [23.07586, 36.73385], [23.05201, 36.74714], [23.03094, 36.72557], [23.02565, 36.71564], [23.03906, 36.7062], [23.03224, 36.69257], [23.05939, 36.69256], [23.03443, 36.67487], [23.03566, 36.64908], [23.08058, 36.57929], [23.1346, 36.55536], [23.14536, 36.54194], [23.15501, 36.54108], [23.14145, 36.53425], [23.14819, 36.51716], [23.13461, 36.50755], [23.15187, 36.48729], [23.20361, 36.45612], [23.19605, 36.43254], [23.16188, 36.44619], [23.15186, 36.43562], [23.13933, 36.43408], [23.09475, 36.44319], [23.07838, 36.46528], [23.06627, 36.47346], [23.07211, 36.49311], [23.06511, 36.5091], [23.05104, 36.52245], [23.03566, 36.52802], [22.97242, 36.52021], [22.92921, 36.59634], [22.87471, 36.63052], [22.88893, 36.64248], [22.88429, 36.65424], [22.83717, 36.68651], [22.81935, 36.66525], [22.81496, 36.67056], [22.81715, 36.71796], [22.80079, 36.77578], [22.78688, 36.79344], [22.76515, 36.80418], [22.68556, 36.80948], [22.62257, 36.80345], [22.5774, 36.78303], [22.5791, 36.74039], [22.54615, 36.72142], [22.53346, 36.70722], [22.52508, 36.68513], [22.54029, 36.6852], [22.5498, 36.67828], [22.55249, 36.65096], [22.54568, 36.65096], [22.53386, 36.67056], [22.52508, 36.67145], [22.51678, 36.66616], [22.51002, 36.64802], [22.531, 36.6328], [22.52604, 36.61238], [22.51271, 36.60279], [22.50465, 36.62425], [22.49, 36.61701], [22.48406, 36.60663], [22.48658, 36.52509], [22.51147, 36.46662], [22.50734, 36.46109], [22.51147, 36.45234], [22.4983, 36.44526], [22.49391, 36.43476], [22.50464, 36.40454], [22.49545, 36.40534], [22.49097, 36.39096], [22.47976, 36.40205], [22.4699, 36.45234], [22.45533, 36.46223], [22.42043, 36.47355], [22.40838, 36.48713], [22.40162, 36.48713], [22.39136, 36.47851], [22.38136, 36.48046], [22.35452, 36.51191], [22.36745, 36.54791], [22.38356, 36.54418], [22.38819, 36.55606], [22.38404, 36.5725], [22.37373, 36.58271], [22.38795, 36.60252], [22.36746, 36.60254], [22.37136, 36.64272], [22.38795, 36.64411], [22.38795, 36.65095], [22.36843, 36.65649], [22.37063, 36.67357], [22.38795, 36.7062], [22.35842, 36.70228], [22.33938, 36.72647], [22.32374, 36.75788], [22.30544, 36.7751], [22.30698, 36.79458], [22.29168, 36.82014], [22.22153, 36.89753], [22.20021, 36.9064], [22.17506, 36.89119], [22.13788, 36.91715], [22.13349, 36.93211], [22.14064, 36.93716], [22.14772, 36.95604], [22.15317, 37.02119], [22.08562, 37.03339], [22.04811, 37.03514], [22.03004, 37.03095], [21.99219, 37.01212], [21.9546, 37.00365], [21.94313, 36.99331], [21.93735, 36.97997], [21.92172, 36.86323], [21.93489, 36.83422], [21.92856, 36.82225], [21.95623, 36.80345], [21.97021, 36.80173], [21.97021, 36.795], [21.94508, 36.78994], [21.93881, 36.78319], [21.94222, 36.77509], [21.93587, 36.76603], [21.88257, 36.72656], [21.87404, 36.72672], [21.82276, 36.80858], [21.78972, 36.80475], [21.76417, 36.795], [21.75229, 36.805], [21.72879, 36.81264], [21.7225, 36.82225], [21.70738, 36.81803], [21.6885, 36.84956], [21.69239, 36.85904], [21.6885, 36.89118], [21.70948, 36.92593], [21.70997, 36.94269], [21.70265, 36.95726], [21.68816, 36.96454], [21.66804, 36.95944], [21.67742, 36.96328], [21.68165, 36.97309], [21.66774, 36.97093], [21.6618, 36.95944], [21.6548, 36.9947], [21.5993, 37.04573], [21.57876, 37.07652], [21.56966, 37.11651], [21.56757, 37.15632], [21.57453, 37.19258], [21.59215, 37.22015], [21.65496, 37.26073], [21.6823, 37.28392], [21.69581, 37.31635], [21.69142, 37.35663], [21.67482, 37.39598], [21.60711, 37.4995], [21.54998, 37.56147], [21.44305, 37.61861], [21.40219, 37.65542], [21.34327, 37.66934], [21.32374, 37.66494], [21.31852, 37.6379], [21.31228, 37.6379], [21.30828, 37.66625], [21.29869, 37.6726], [21.31105, 37.6931], [21.31186, 37.7263], [21.29526, 37.77167], [21.28492, 37.7851], [21.22731, 37.81192], [21.12209, 37.8374], [21.11306, 37.84334], [21.10761, 37.85546], [21.11158, 37.87043], [21.10623, 37.87808], [21.13357, 37.94635], [21.14039, 37.94635], [21.1644, 37.92963], [21.20777, 37.94603], [21.25164, 37.97622], [21.27752, 38.00095], [21.29151, 37.99722], [21.32594, 38.02143], [21.32594, 38.02888], [21.31853, 38.0351], [21.28442, 38.01535]], [[21.61279, 40.16522], [21.66114, 40.04086], [21.66952, 40.03545], [21.68005, 40.03771], [21.68952, 40.16961], [21.93708, 39.97705], [21.94991, 39.97505], [21.95665, 39.98081], [21.95568, 39.98771], [21.78597, 40.22405], [22.05669, 40.23973], [22.06493, 40.2442], [22.0656, 40.25192], [22.05822, 40.25719], [21.78, 40.32415], [21.99332, 40.51818], [21.9953, 40.52724], [21.98805, 40.53252], [21.9781, 40.53164], [21.7045, 40.40228], [21.69435, 40.68236], [21.68874, 40.68977], [21.67752, 40.69027], [21.67105, 40.68427], [21.58491, 40.40432], [21.48634, 40.56626], [21.4709, 40.57071], [21.46405, 40.56071], [21.50741, 40.39322], [21.26917, 40.47535], [21.2591, 40.47442], [21.25363, 40.46696], [21.25785, 40.45991], [21.46486, 40.32688], [21.16846, 40.25152], [21.16499, 40.24187], [21.17414, 40.23583], [21.5222, 40.21567], [21.45275, 40.00219], [21.45901, 39.9919], [21.47404, 39.99523], [21.61279, 40.16522]]], [[[20.21942, 39.14013], [20.21747, 39.15265], [20.22877, 39.15635], [20.25828, 39.13288], [20.24699, 39.12964], [20.22739, 39.14081], [20.21942, 39.14013]]], [[[23.44468, 39.19847], [23.47047, 39.2138], [23.50374, 39.19427], [23.51285, 39.17853], [23.50513, 39.15914], [23.48902, 39.16877], [23.47511, 39.15778], [23.46045, 39.13183], [23.4253, 39.14867], [23.39529, 39.14616], [23.3987, 39.16364], [23.42945, 39.17621], [23.44468, 39.19847]]], [[[20.19011, 39.20262], [20.2019, 39.17964], [20.16872, 39.18282], [20.13868, 39.20905], [20.12823, 39.22296], [20.12535, 39.23602], [20.14039, 39.24167], [20.19011, 39.20262]]], [[[19.85864, 39.65884], [19.84498, 39.65884], [19.84498, 39.65266], [19.90382, 39.62906], [19.92749, 39.6253], [19.92331, 39.60335], [19.91715, 39.59887], [19.90016, 39.60419], [19.91187, 39.5834], [19.93653, 39.47297], [19.96144, 39.46296], [20.00247, 39.45408], [20.03273, 39.43928], [20.05047, 39.44033], [20.07407, 39.44895], [20.08187, 39.44732], [20.09675, 39.42303], [20.10237, 39.40393], [20.11767, 39.37799], [20.11792, 39.371], [20.10573, 39.36466], [20.0324, 39.39501], [19.99928, 39.39937], [19.95484, 39.42609], [19.9118, 39.43033], [19.9075, 39.435], [19.92172, 39.43781], [19.9275, 39.44717], [19.87973, 39.46076], [19.87891, 39.45321], [19.86574, 39.46838], [19.85473, 39.48923], [19.84777, 39.50937], [19.84083, 39.55199], [19.82887, 39.57233], [19.80982, 39.58906], [19.74856, 39.62003], [19.71892, 39.67308], [19.68971, 39.67415], [19.68134, 39.68], [19.67434, 39.69355], [19.67701, 39.7167], [19.67172, 39.72407], [19.65318, 39.71469], [19.65016, 39.74177], [19.64161, 39.74795], [19.6265, 39.74825], [19.6675, 39.79351], [19.79908, 39.8028], [19.85182, 39.82452], [19.86557, 39.82102], [19.89283, 39.80341], [19.92872, 39.79218], [19.93434, 39.78294], [19.94117, 39.78294], [19.94117, 39.79034], [19.94799, 39.79034], [19.94629, 39.75923], [19.93376, 39.74116], [19.84156, 39.70417], [19.83595, 39.69245], [19.83912, 39.67988], [19.84767, 39.66999], [19.85864, 39.66624], [19.85864, 39.65884]]], [[[19.5102, 39.77709], [19.51371, 39.78409], [19.53848, 39.75963], [19.53167, 39.75626], [19.5237, 39.75919], [19.5102, 39.77709]]], [[[19.56562, 39.89122], [19.57456, 39.90008], [19.59456, 39.89101], [19.59253, 39.87955], [19.57521, 39.87581], [19.56562, 39.89122]]], [[[24.12842, 34.86273], [24.12143, 34.83613], [24.12574, 34.82689], [24.13525, 34.82176], [24.13525, 34.81502], [24.10858, 34.81657], [24.04641, 34.84907], [24.04641, 34.85528], [24.0669, 34.85847], [24.08058, 34.86895], [24.12842, 34.86273]]], [[[24.27822, 36.59115], [24.27702, 36.60724], [24.28257, 36.62509], [24.29333, 36.64009], [24.3051, 36.64611], [24.31729, 36.64524], [24.32964, 36.63961], [24.36562, 36.61532], [24.37626, 36.61185], [24.38905, 36.61243], [24.40749, 36.62255], [24.43617, 36.66989], [24.33126, 36.68702], [24.32701, 36.69936], [24.34067, 36.71239], [24.32702, 36.71988], [24.35426, 36.75396], [24.3816, 36.73355], [24.39535, 36.7359], [24.40724, 36.70726], [24.42652, 36.69937], [24.4607, 36.69937], [24.47145, 36.70425], [24.45916, 36.72671], [24.45053, 36.73355], [24.43686, 36.7275], [24.40888, 36.75398], [24.40888, 36.76081], [24.42026, 36.77105], [24.45045, 36.7534], [24.47438, 36.74714], [24.51271, 36.76398], [24.53337, 36.768], [24.54606, 36.75397], [24.54606, 36.68892], [24.57714, 36.67811], [24.58973, 36.66905], [24.59721, 36.65915], [24.59969, 36.64882], [24.59742, 36.63848], [24.57976, 36.61949], [24.5507, 36.6062], [24.46968, 36.5794], [24.39291, 36.52897], [24.37813, 36.5251], [24.36259, 36.52523], [24.33478, 36.53631], [24.29523, 36.56417], [24.2848, 36.57681], [24.27822, 36.59115]]], [[[24.64479, 36.74727], [24.60833, 36.78113], [24.62184, 36.79498], [24.6438, 36.79295], [24.64226, 36.78876], [24.66577, 36.77464], [24.66772, 36.76398], [24.65934, 36.75057], [24.64479, 36.74727]]], [[[24.60075, 36.84274], [24.60815, 36.83592], [24.60815, 36.82909], [24.57276, 36.78194], [24.55613, 36.78041], [24.53985, 36.78448], [24.52118, 36.81737], [24.5342, 36.83612], [24.56178, 36.84564], [24.58595, 36.83649], [24.60075, 36.84274]]], [[[24.67559, 36.84682], [24.66111, 36.84222], [24.64007, 36.84751], [24.57156, 36.88459], [24.55592, 36.88755], [24.52366, 36.88459], [24.51401, 36.89359], [24.51397, 36.91188], [24.52938, 36.92716], [24.55599, 36.938], [24.58965, 36.94306], [24.62553, 36.941], [24.65795, 36.93024], [24.68043, 36.90911], [24.68631, 36.87593], [24.68054, 36.85335], [24.67559, 36.84682]]], [[[24.64967, 37.04198], [24.6434, 37.04287], [24.64228, 37.0488], [24.65593, 37.0488], [24.6893, 37.0292], [24.70435, 37.03513], [24.75163, 36.98578], [24.76455, 36.95684], [24.7627, 36.94539], [24.74855, 36.93936], [24.71062, 36.90422], [24.67899, 36.95131], [24.66927, 36.97826], [24.67652, 37.00043], [24.65406, 37.02432], [24.64228, 37.02774], [24.64967, 37.04198]]], [[[24.4983, 37.19965], [24.5149, 37.20599], [24.52612, 37.19965], [24.53464, 37.16794], [24.53239, 37.13013], [24.52613, 37.14444], [24.51881, 37.14444], [24.51889, 37.13207], [24.50795, 37.1158], [24.49831, 37.11031], [24.49098, 37.12226], [24.4983, 37.12397], [24.48976, 37.12812], [24.4725, 37.12836], [24.46413, 37.12399], [24.45948, 37.13719], [24.45053, 37.13012], [24.43442, 37.13418], [24.42254, 37.12399], [24.41913, 37.13564], [24.43051, 37.14444], [24.42304, 37.15473], [24.43621, 37.16486], [24.43477, 37.17549], [24.4437, 37.17853], [24.43624, 37.18534], [24.46828, 37.20208], [24.4856, 37.20611], [24.4983, 37.19965]]], [[[23.70185, 37.15318], [23.66544, 37.14071], [23.6277, 37.13235], [23.59395, 37.12773], [23.55999, 37.12774], [23.56443, 37.14549], [23.58156, 37.16207], [23.60767, 37.17717], [23.67272, 37.20172], [23.75235, 37.21858], [23.75021, 37.1918], [23.73177, 37.1701], [23.70185, 37.15318]]], [[[24.75748, 37.20168], [24.78376, 37.25674], [24.78748, 37.28015], [24.7827, 37.30249], [24.76272, 37.34009], [24.75661, 37.35793], [24.7576, 37.38169], [24.76469, 37.39382], [24.77595, 37.40041], [24.79031, 37.40271], [24.88718, 37.39064], [24.88868, 37.39826], [24.86136, 37.39827], [24.86804, 37.41445], [24.88185, 37.4256], [24.86821, 37.43178], [24.88673, 37.43529], [24.89812, 37.44868], [24.90235, 37.48017], [24.89537, 37.51043], [24.92327, 37.50881], [24.92768, 37.4573], [24.91951, 37.39273], [24.91562, 37.37982], [24.90549, 37.37493], [24.92156, 37.34232], [24.93203, 37.29986], [24.93277, 37.27681], [24.92858, 37.2612], [24.92176, 37.25046], [24.91265, 37.2432], [24.86034, 37.22256], [24.84496, 37.21291], [24.79914, 37.17058], [24.77616, 37.16063], [24.76213, 37.1595], [24.75552, 37.17403], [24.75444, 37.18802], [24.75748, 37.20168]]], [[[24.62448, 37.37874], [24.62816, 37.39466], [24.655, 37.42693], [24.67379, 37.43202], [24.68708, 37.42193], [24.694, 37.40236], [24.69358, 37.37906], [24.6849, 37.35788], [24.66725, 37.34473], [24.64046, 37.34566], [24.63355, 37.34933], [24.62574, 37.36219], [24.62448, 37.37874]]], [[[24.44368, 37.47285], [24.43051, 37.44603], [24.4694, 37.42747], [24.48252, 37.4126], [24.47778, 37.39083], [24.46339, 37.39448], [24.45281, 37.38345], [24.44368, 37.34984], [24.41179, 37.32397], [24.36795, 37.30953], [24.38547, 37.36094], [24.40211, 37.37092], [24.40211, 37.37714], [24.38845, 37.3846], [24.39682, 37.40152], [24.39479, 37.41177], [24.38453, 37.41682], [24.36795, 37.41195], [24.37486, 37.43846], [24.43621, 37.487], [24.44368, 37.487], [24.44368, 37.47285]]], [[[23.9196, 37.48826], [23.93392, 37.4785], [23.94254, 37.46317], [23.92613, 37.46703], [23.91546, 37.48033], [23.89684, 37.49019], [23.89813, 37.49448], [23.9196, 37.48826]]], [[[24.39575, 37.62467], [24.31299, 37.53824], [24.29347, 37.52571], [24.27541, 37.53169], [24.2781, 37.62287], [24.28933, 37.64532], [24.30568, 37.66082], [24.32065, 37.65835], [24.33383, 37.67259], [24.32066, 37.67259], [24.32066, 37.67885], [24.33969, 37.68625], [24.3611, 37.67886], [24.36166, 37.68503], [24.37476, 37.68625], [24.4025, 37.65575], [24.39575, 37.62467]]], [[[24.65971, 37.60687], [24.68429, 37.61282], [24.71608, 37.63104], [24.73292, 37.63206], [24.74104, 37.62592], [24.74121, 37.5957], [24.71783, 37.59362], [24.67238, 37.6005], [24.65971, 37.60687]]], [[[23.93866, 37.65708], [23.94712, 37.65479], [23.94889, 37.65692], [23.95971, 37.65139], [23.95971, 37.64282], [23.9411, 37.64217], [23.93557, 37.6459], [23.93866, 37.65708]]], [[[24.12641, 37.74302], [24.14315, 37.7527], [24.15112, 37.73408], [24.1486, 37.72265], [24.1431, 37.71859], [24.10516, 37.64527], [24.09988, 37.65941], [24.12641, 37.74302]]], [[[23.76335, 37.76399], [23.75385, 37.76517], [23.75523, 37.77511], [23.76351, 37.77597], [23.76335, 37.76399]]], [[[24.27783, 37.9851], [24.26523, 37.97859], [24.25416, 37.98163], [24.2396, 37.97774], [24.2287, 37.98282], [24.22789, 37.98835], [24.24286, 38.01296], [24.25408, 38.01995], [24.2634, 38.01863], [24.28289, 37.99819], [24.27783, 37.9851]]], [[[23.32301, 38.76252], [23.20232, 38.8299], [23.14356, 38.85065], [23.06911, 38.84659], [23.03639, 38.87446], [22.96941, 38.88911], [22.95639, 38.88544], [22.95639, 38.878], [22.9839, 38.87352], [22.99194, 38.86469], [22.99072, 38.85066], [22.98153, 38.84498], [22.8558, 38.83295], [22.83303, 38.82276], [22.83743, 38.85447], [22.87485, 38.8749], [22.90748, 38.88231], [22.95281, 38.90159], [22.98292, 38.90766], [23.03566, 38.92642], [23.04592, 38.94684], [23.08676, 38.95433], [23.09734, 38.97207], [23.09443, 38.98785], [23.10906, 38.99177], [23.12746, 39.0058], [23.13778, 39.0089], [23.19972, 39.00898], [23.27296, 39.03876], [23.29908, 39.04246], [23.32985, 39.02196], [23.37158, 39.01031], [23.38159, 39.00153], [23.37436, 38.98249], [23.38461, 38.96752], [23.40455, 38.95783], [23.42562, 38.95432], [23.45069, 38.87458], [23.48048, 38.83808], [23.52466, 38.82318], [23.56788, 38.79385], [23.59399, 38.78924], [23.59401, 38.77021], [23.60759, 38.77557], [23.61997, 38.76553], [23.66228, 38.75507], [23.6727, 38.76043], [23.68336, 38.75507], [23.70265, 38.76507], [23.72266, 38.76194], [23.73844, 38.74941], [23.75359, 38.71918], [23.79299, 38.70226], [23.8576, 38.68252], [23.90634, 38.67932], [23.94776, 38.66942], [23.96656, 38.67011], [23.98423, 38.68621], [24.00571, 38.67805], [24.07309, 38.67938], [24.15537, 38.65277], [24.13494, 38.64387], [24.12623, 38.6352], [24.1211, 38.6081], [24.12647, 38.59858], [24.21607, 38.53953], [24.23144, 38.52237], [24.20655, 38.50682], [24.18816, 38.47411], [24.18434, 38.43964], [24.20393, 38.41868], [24.20395, 38.41272], [24.18507, 38.40762], [24.18816, 38.39883], [24.21077, 38.37767], [24.21485, 38.33641], [24.25244, 38.29238], [24.25262, 38.26557], [24.25781, 38.25898], [24.24513, 38.24116], [24.25245, 38.22797], [24.29225, 38.20018], [24.32699, 38.18593], [24.33758, 38.16283], [24.34441, 38.15925], [24.39258, 38.164], [24.42066, 38.14737], [24.47779, 38.13874], [24.49692, 38.1463], [24.58764, 38.15923], [24.57895, 38.10932], [24.57993, 38.08422], [24.59448, 38.0624], [24.56665, 37.98795], [24.55185, 37.97807], [24.50957, 37.96263], [24.47718, 37.96241], [24.47096, 37.98046], [24.44777, 38.01056], [24.4297, 38.02119], [24.40309, 38.01191], [24.3864, 37.99653], [24.4021, 37.98794], [24.4021, 37.98046], [24.38689, 37.97038], [24.37176, 37.97192], [24.33864, 37.99674], [24.31383, 38.02925], [24.31399, 38.0351], [24.327, 38.04255], [24.31479, 38.06489], [24.30568, 38.07176], [24.29226, 38.0699], [24.28631, 38.08625], [24.2693, 38.0954], [24.24871, 38.09687], [24.23146, 38.09033], [24.21778, 38.09687], [24.20396, 38.09034], [24.20477, 38.09682], [24.21078, 38.0978], [24.21078, 38.12446], [24.20281, 38.13007], [24.18605, 38.1274], [24.18297, 38.135], [24.21079, 38.166], [24.20875, 38.17862], [24.19403, 38.19213], [24.18531, 38.21796], [24.1727, 38.22655], [24.15699, 38.22956], [24.14259, 38.22695], [24.14875, 38.21322], [24.12625, 38.21748], [24.13113, 38.23582], [24.1631, 38.26781], [24.15349, 38.28132], [24.14552, 38.28091], [24.12843, 38.26781], [24.12574, 38.25609], [24.1094, 38.2563], [24.11476, 38.2753], [24.10094, 38.2753], [24.12159, 38.30948], [24.07944, 38.32538], [24.02546, 38.33052], [24.05974, 38.34125], [24.0669, 38.35102], [24.05904, 38.36029], [24.05942, 38.37767], [24.04225, 38.40152], [24.03891, 38.39542], [23.98081, 38.39887], [23.91236, 38.39204], [23.84376, 38.40567], [23.79371, 38.39851], [23.70997, 38.4125], [23.66334, 38.40421], [23.64918, 38.40567], [23.63852, 38.41551], [23.61443, 38.46088], [23.60743, 38.4538], [23.594, 38.45344], [23.63575, 38.50092], [23.6281, 38.51511], [23.62812, 38.52236], [23.63551, 38.52237], [23.63551, 38.52855], [23.59995, 38.57136], [23.53976, 38.58235], [23.50534, 38.59727], [23.49773, 38.63101], [23.45315, 38.65803], [23.44597, 38.67674], [23.38161, 38.70727], [23.35336, 38.73139], [23.33767, 38.73896], [23.32301, 38.76252]]], [[[24.58188, 38.7873], [24.57, 38.77814], [24.56665, 38.76254], [24.53242, 38.79608], [24.57398, 38.80976], [24.5653, 38.83435], [24.63232, 38.77365], [24.62774, 38.7708], [24.64796, 38.77411], [24.67238, 38.77226], [24.68602, 38.7678], [24.70141, 38.75328], [24.71181, 38.71054], [24.72003, 38.69867], [24.72803, 38.69327], [24.75187, 38.68568], [24.80452, 38.69171], [24.81664, 38.69037], [24.82751, 38.68517], [24.83667, 38.67471], [24.84099, 38.66409], [24.83992, 38.64135], [24.82881, 38.61868], [24.81119, 38.59864], [24.78009, 38.57891], [24.75812, 38.57284], [24.71311, 38.5735], [24.66992, 38.58548], [24.62646, 38.60409], [24.58501, 38.61601], [24.57455, 38.62324], [24.57074, 38.63626], [24.57666, 38.66304], [24.57544, 38.67601], [24.54262, 38.72366], [24.54284, 38.73308], [24.54902, 38.74266], [24.56687, 38.75464], [24.59856, 38.76601], [24.62297, 38.77001], [24.61379, 38.77311], [24.60076, 38.79267], [24.58188, 38.7873]]], [[[24.34264, 38.83406], [24.35588, 38.85052], [24.37288, 38.84072], [24.37174, 38.8337], [24.35775, 38.82752], [24.34264, 38.83406]]], [[[24.45935, 38.90312], [24.55376, 38.84312], [24.54039, 38.83699], [24.53696, 38.84821], [24.52833, 38.85155], [24.50515, 38.84449], [24.50522, 38.85505], [24.48261, 38.86279], [24.47779, 38.878], [24.47097, 38.87117], [24.4546, 38.88483], [24.43622, 38.87802], [24.43493, 38.88836], [24.44563, 38.9033], [24.45935, 38.90312]]], [[[23.66969, 39.1114], [23.66969, 39.11815], [23.62779, 39.14729], [23.62143, 39.15554], [23.61744, 39.16913], [23.58719, 39.20758], [23.60132, 39.2138], [23.60444, 39.20846], [23.61442, 39.20758], [23.66554, 39.16966], [23.69663, 39.15534], [23.73046, 39.14614], [23.72674, 39.1315], [23.77302, 39.12926], [23.79264, 39.12441], [23.79264, 39.11815], [23.74352, 39.08197], [23.77044, 39.072], [23.80937, 39.04755], [23.82091, 39.03684], [23.82332, 39.03079], [23.81701, 39.01736], [23.80222, 39.0026], [23.77457, 38.98999], [23.75487, 38.99588], [23.72942, 39.00957], [23.67823, 39.04753], [23.64664, 39.08437], [23.6401, 39.10742], [23.64476, 39.11254], [23.66633, 39.10928], [23.66969, 39.1114]]], [[[23.83353, 39.14615], [23.87306, 39.18016], [23.88599, 39.20978], [23.90035, 39.16678], [23.86451, 39.144], [23.83353, 39.14615]]], [[[24.18091, 39.14778], [24.16102, 39.1355], [24.14569, 39.13191], [24.13744, 39.14086], [24.13891, 39.1662], [24.14545, 39.18499], [24.15552, 39.19921], [24.18404, 39.21785], [24.25983, 39.24327], [24.27208, 39.25095], [24.31766, 39.30446], [24.34085, 39.32381], [24.3531, 39.32635], [24.36572, 39.32317], [24.37401, 39.31565], [24.38041, 39.29222], [24.37798, 39.26538], [24.37237, 39.2444], [24.36345, 39.22716], [24.35236, 39.2172], [24.33935, 39.21268], [24.27374, 39.21182], [24.25545, 39.20669], [24.18091, 39.14778]]], [[[23.89331, 40.33831], [23.91179, 40.34108], [23.92001, 40.3229], [23.94181, 40.31407], [23.9414, 40.31009], [23.88739, 40.32666], [23.88374, 40.33108], [23.89331, 40.33831]]], [[[24.54212, 40.48369], [24.53586, 40.50386], [24.53344, 40.52719], [24.54088, 40.63067], [24.53078, 40.63094], [24.51679, 40.63911], [24.51203, 40.66705], [24.51834, 40.69269], [24.53339, 40.7182], [24.56667, 40.75556], [24.64226, 40.80393], [24.67457, 40.79169], [24.73169, 40.78351], [24.74383, 40.75935], [24.77517, 40.74889], [24.78637, 40.73506], [24.76547, 40.73432], [24.75929, 40.72337], [24.76661, 40.71149], [24.78638, 40.70782], [24.78638, 40.68794], [24.7693, 40.68342], [24.7658, 40.66966], [24.78085, 40.62478], [24.80367, 40.59736], [24.81615, 40.57684], [24.82086, 40.55764], [24.81951, 40.51759], [24.81512, 40.49601], [24.79906, 40.45667], [24.78732, 40.44164], [24.77302, 40.43157], [24.75187, 40.42532], [24.69391, 40.42256], [24.62926, 40.43187], [24.59971, 40.44041], [24.57483, 40.451], [24.55668, 40.46319], [24.54212, 40.48369]]], [[[25.68199, 34.87803], [25.688, 34.88132], [25.71876, 34.87771], [25.72991, 34.88148], [25.73209, 34.87515], [25.7007, 34.86527], [25.68459, 34.86963], [25.68199, 34.87803]]], [[[26.14973, 34.93334], [26.13299, 34.92262], [26.12193, 34.93586], [26.12746, 34.9474], [26.14746, 34.94313], [26.14973, 34.93334]]], [[[23.58448, 35.56452], [23.58035, 35.57591], [23.60474, 35.61258], [23.60816, 35.5517], [23.61988, 35.52408], [23.63948, 35.51898], [23.64177, 35.50702], [23.65943, 35.50121], [23.70297, 35.50288], [23.71844, 35.51284], [23.72787, 35.52985], [23.73048, 35.55418], [23.71279, 35.60678], [23.72364, 35.61689], [23.7112, 35.64887], [23.71599, 35.66172], [23.74181, 35.68695], [23.75001, 35.68658], [23.77897, 35.67153], [23.77897, 35.66405], [23.76783, 35.65388], [23.77897, 35.60944], [23.77898, 35.57591], [23.79949, 35.54462], [23.81715, 35.53482], [23.90138, 35.52716], [23.92905, 35.5207], [23.94419, 35.52496], [24.0254, 35.5207], [24.04469, 35.52765], [24.05764, 35.55292], [24.09409, 35.55418], [24.08181, 35.58991], [24.11525, 35.60129], [24.16041, 35.59706], [24.18294, 35.58559], [24.20329, 35.54181], [24.18294, 35.51326], [24.14259, 35.50703], [24.08123, 35.51496], [24.0669, 35.50702], [24.07195, 35.49836], [24.1867, 35.45181], [24.2225, 35.46117], [24.25244, 35.47905], [24.26403, 35.43286], [24.26547, 35.36986], [24.3401, 35.34833], [24.42807, 35.36968], [24.46412, 35.36245], [24.48537, 35.37213], [24.5936, 35.39118], [24.67657, 35.42339], [24.72069, 35.42723], [24.82015, 35.41302], [24.84083, 35.404], [24.89552, 35.42449], [24.95753, 35.404], [24.96957, 35.41576], [24.97146, 35.42445], [25.01872, 35.41502], [25.02963, 35.40327], [25.05322, 35.40399], [25.04705, 35.38044], [25.05535, 35.35521], [25.077, 35.34447], [25.10678, 35.34248], [25.19685, 35.34936], [25.22136, 35.33568], [25.30698, 35.34316], [25.34636, 35.33609], [25.36166, 35.34315], [25.3685, 35.33568], [25.37599, 35.34315], [25.4253, 35.29955], [25.45362, 35.29413], [25.48194, 35.29743], [25.65964, 35.3493], [25.70777, 35.33568], [25.76635, 35.33567], [25.74788, 35.31076], [25.72478, 35.29413], [25.73219, 35.28791], [25.72608, 35.27875], [25.72926, 35.26455], [25.73902, 35.26], [25.7378, 35.27741], [25.74284, 35.28533], [25.75072, 35.28417], [25.75895, 35.27432], [25.75367, 35.26748], [25.75895, 35.25999], [25.75326, 35.25261], [25.74464, 35.25715], [25.73219, 35.24632], [25.7351, 35.2375], [25.71949, 35.21137], [25.72477, 35.19111], [25.71274, 35.18285], [25.72853, 35.13337], [25.75318, 35.13311], [25.79526, 35.11514], [25.81764, 35.11595], [25.83033, 35.12238], [25.84768, 35.15057], [25.88307, 35.16446], [25.89667, 35.18487], [25.97853, 35.19546], [26.03322, 35.2258], [26.05502, 35.22712], [26.06056, 35.23329], [26.06739, 35.23329], [26.08139, 35.22358], [26.11962, 35.21531], [26.10825, 35.20539], [26.12973, 35.19587], [26.15512, 35.19794], [26.17945, 35.20718], [26.19777, 35.21906], [26.19094, 35.22581], [26.25933, 35.28434], [26.29396, 35.28791], [26.28649, 35.30096], [26.30079, 35.30097], [26.29398, 35.31524], [26.31395, 35.31524], [26.32369, 35.33652], [26.34021, 35.3514], [26.37656, 35.36933], [26.37473, 35.3441], [26.35311, 35.30849], [26.33289, 35.28378], [26.31763, 35.29], [26.31266, 35.29761], [26.26596, 35.26], [26.28387, 35.20824], [26.29949, 35.18553], [26.32111, 35.19792], [26.285, 35.1507], [26.29394, 35.13646], [26.28695, 35.11843], [26.25099, 35.06306], [26.24096, 35.03906], [26.13331, 34.9994], [26.10524, 34.99934], [26.08172, 35.01976], [26.02028, 35.02095], [25.98487, 35.03913], [25.9603, 35.02897], [25.92408, 35.03408], [25.88152, 35.02709], [25.80811, 35.00577], [25.60125, 35.01358], [25.50619, 34.98457], [25.41521, 34.99372], [25.34767, 34.99152], [25.30397, 34.98477], [25.27952, 34.97251], [25.22315, 34.95418], [25.20769, 34.95149], [25.15089, 34.95572], [25.12892, 34.95148], [25.10776, 34.9379], [25.0774, 34.94473], [25.04493, 34.94074], [25.01905, 34.93164], [24.98374, 34.93871], [24.73855, 34.93164], [24.73855, 34.93789], [24.75172, 34.94648], [24.75522, 34.95791], [24.75214, 34.99592], [24.75896, 35.04149], [24.74285, 35.07722], [24.71811, 35.09398], [24.61899, 35.09741], [24.59474, 35.10152], [24.58025, 35.1092], [24.56463, 35.10616], [24.5324, 35.13646], [24.50074, 35.15241], [24.48121, 35.15591], [24.46412, 35.15014], [24.40383, 35.17504], [24.40211, 35.19111], [24.2929, 35.18232], [24.21779, 35.19112], [24.20395, 35.20539], [24.1827, 35.19794], [24.11134, 35.19796], [24.08465, 35.20454], [24.08057, 35.19454], [24.04982, 35.19112], [24.03143, 35.19771], [24.00327, 35.22671], [23.98764, 35.2333], [23.90162, 35.23122], [23.8602, 35.23632], [23.82667, 35.25259], [23.81226, 35.24479], [23.79949, 35.24632], [23.78207, 35.2347], [23.71168, 35.23672], [23.68336, 35.22583], [23.66912, 35.23729], [23.61027, 35.23498], [23.58718, 35.2395], [23.58033, 35.26], [23.553, 35.26684], [23.53102, 35.28848], [23.51826, 35.29414], [23.52564, 35.30097], [23.5193, 35.30174], [23.51824, 35.30754], [23.54615, 35.31525], [23.54819, 35.32148], [23.55299, 35.32148], [23.54185, 35.33637], [23.54615, 35.35619], [23.5386, 35.37409], [23.5735, 35.43476], [23.55984, 35.45182], [23.57846, 35.50056], [23.5661, 35.50703], [23.5726, 35.52045], [23.56611, 35.52749], [23.58123, 35.55268], [23.58448, 35.56452]]], [[[25.22258, 35.46372], [25.24609, 35.44973], [25.23667, 35.42745], [25.21583, 35.43692], [25.20867, 35.43347], [25.18687, 35.44128], [25.18647, 35.44779], [25.22258, 35.46372]]], [[[25.76783, 36.40159], [25.80298, 36.38958], [25.83546, 36.36616], [25.85513, 36.36359], [25.84685, 36.3503], [25.81764, 36.36359], [25.77687, 36.35384], [25.74643, 36.35799], [25.73245, 36.37304], [25.73025, 36.38011], [25.74952, 36.38768], [25.76783, 36.40159]]], [[[25.36851, 36.46663], [25.36851, 36.47345], [25.38209, 36.47963], [25.41797, 36.47039], [25.45255, 36.45012], [25.47929, 36.42414], [25.49137, 36.39769], [25.48929, 36.37804], [25.47998, 36.35786], [25.46528, 36.34262], [25.44662, 36.33634], [25.44152, 36.3373], [25.40608, 36.31706], [25.38021, 36.31007], [25.35401, 36.30806], [25.32956, 36.31182], [25.34329, 36.40845], [25.35238, 36.42701], [25.36606, 36.43758], [25.38283, 36.44132], [25.40111, 36.43943], [25.41672, 36.434], [25.42189, 36.45112], [25.36851, 36.46663]]], [[[24.93477, 36.57457], [24.94484, 36.56511], [24.95012, 36.55334], [24.94794, 36.52732], [24.93149, 36.50553], [24.91894, 36.49907], [24.90108, 36.49569], [24.88515, 36.49685], [24.87156, 36.50178], [24.85319, 36.52001], [24.84933, 36.53179], [24.84969, 36.54433], [24.85933, 36.56233], [24.87323, 36.57219], [24.89127, 36.57919], [24.9105, 36.58163], [24.93477, 36.57457]]], [[[25.42013, 36.59385], [25.4125, 36.57355], [25.40039, 36.56792], [25.37956, 36.56748], [25.3258, 36.57934], [25.30029, 36.59019], [25.2809, 36.60333], [25.27171, 36.61795], [25.27677, 36.63323], [25.28595, 36.64059], [25.31092, 36.64857], [25.3398, 36.64931], [25.37814, 36.64151], [25.39929, 36.63002], [25.41451, 36.6134], [25.42013, 36.59385]]], [[[25.10468, 36.69936], [25.14625, 36.71986], [25.18578, 36.71913], [25.18343, 36.70621], [25.12928, 36.66016], [25.09311, 36.63663], [25.06741, 36.63789], [25.10468, 36.69936]]], [[[25.26272, 36.76764], [25.30697, 36.79497], [25.34799, 36.74714], [25.39942, 36.72797], [25.40941, 36.7124], [25.39698, 36.71052], [25.39015, 36.70368], [25.39518, 36.6789], [25.37322, 36.65373], [25.33815, 36.66818], [25.27297, 36.71988], [25.2798, 36.72671], [25.25182, 36.72672], [25.26272, 36.76764]]], [[[25.86313, 36.83592], [25.85159, 36.83113], [25.84548, 36.83662], [25.84548, 36.84955], [25.97185, 36.89802], [25.97185, 36.9042], [25.95071, 36.91162], [25.95071, 36.91844], [25.97836, 36.92495], [25.99491, 36.93541], [25.99782, 36.88466], [25.93704, 36.84997], [25.98446, 36.86329], [26.00964, 36.86369], [26.03069, 36.85744], [26.05091, 36.84237], [26.05474, 36.82926], [26.04608, 36.81776], [26.0289, 36.80756], [25.96555, 36.78231], [25.95324, 36.77474], [25.93998, 36.75575], [25.91581, 36.70289], [25.89339, 36.68158], [25.87321, 36.66783], [25.82239, 36.63893], [25.76879, 36.61474], [25.72619, 36.60293], [25.69715, 36.6032], [25.68652, 36.61071], [25.69023, 36.62351], [25.70404, 36.63973], [25.77556, 36.70098], [25.82986, 36.78136], [25.79867, 36.77278], [25.75555, 36.76998], [25.73905, 36.79497], [25.75327, 36.78876], [25.7741, 36.80711], [25.78865, 36.80919], [25.80055, 36.80174], [25.82301, 36.80873], [25.84547, 36.80858], [25.86313, 36.83592]]], [[[25.47756, 36.83503], [25.45785, 36.82486], [25.43442, 36.82267], [25.42312, 36.83251], [25.43159, 36.84506], [25.47073, 36.87054], [25.47834, 36.87066], [25.47096, 36.86323], [25.47851, 36.86001], [25.47756, 36.83503]]], [[[25.67399, 36.87947], [25.65463, 36.87891], [25.60867, 36.88374], [25.61483, 36.89386], [25.64967, 36.91159], [25.6844, 36.89118], [25.67399, 36.87947]]], [[[25.0259, 37.00788], [25.0355, 37.02191], [25.07277, 37.04217], [25.0879, 37.04197], [25.06826, 36.99365], [25.09564, 36.98699], [25.16405, 36.96256], [25.19236, 36.94824], [25.21086, 36.93362], [25.21536, 36.91957], [25.2006, 36.90198], [25.17269, 36.89472], [25.13688, 36.89655], [25.09859, 36.90628], [25.06334, 36.92267], [25.03679, 36.94453], [25.02466, 36.97068], [25.03011, 36.9907], [25.0259, 37.00788]]], [[[25.59502, 37.09935], [25.58072, 37.01759], [25.55228, 36.96879], [25.52613, 36.95942], [25.49138, 36.93212], [25.44989, 36.91846], [25.43252, 36.93905], [25.42311, 36.96686], [25.38895, 36.98677], [25.39405, 36.99811], [25.38072, 37.01875], [25.38209, 37.03514], [25.36695, 37.05956], [25.35548, 37.07136], [25.34182, 37.07674], [25.34201, 37.08311], [25.35239, 37.08909], [25.36166, 37.08295], [25.37184, 37.08906], [25.40945, 37.12396], [25.47462, 37.16181], [25.49514, 37.1891], [25.52215, 37.19318], [25.5337, 37.20066], [25.57454, 37.17853], [25.58626, 37.16063], [25.59244, 37.14252], [25.59502, 37.09935]]], [[[25.27978, 37.06249], [25.26612, 37.06249], [25.26612, 37.055], [25.27978, 37.055], [25.27978, 37.04882], [25.26881, 37.04613], [25.24453, 37.01439], [25.20443, 36.98897], [25.18849, 36.98531], [25.15285, 36.98677], [25.10338, 37.01289], [25.11298, 37.06273], [25.12514, 37.07435], [25.15626, 37.08979], [25.13577, 37.09382], [25.15009, 37.11053], [25.20956, 37.14391], [25.23875, 37.15182], [25.22397, 37.13435], [25.23194, 37.12751], [25.25929, 37.12397], [25.27296, 37.1376], [25.26614, 37.15183], [25.29329, 37.15183], [25.26295, 37.08983], [25.26287, 37.07559], [25.27978, 37.06927], [25.27978, 37.06249]]], [[[25.82911, 37.09733], [25.81911, 37.09692], [25.80738, 37.10342], [25.80055, 37.09595], [25.78055, 37.12396], [25.7966, 37.12389], [25.83463, 37.13758], [25.82838, 37.12397], [25.84204, 37.11029], [25.82911, 37.09733]]], [[[25.32284, 37.38542], [25.27213, 37.38712], [25.21478, 37.39762], [25.12086, 37.4217], [25.05438, 37.44605], [25.02341, 37.46387], [25.00895, 37.48247], [25.00957, 37.49193], [25.0163, 37.50142], [25.03888, 37.51414], [25.06722, 37.51779], [25.09962, 37.5147], [25.23328, 37.48063], [25.25738, 37.47829], [25.30774, 37.4972], [25.32792, 37.49719], [25.3384, 37.49139], [25.34951, 37.47523], [25.36876, 37.47927], [25.37729, 37.46743], [25.38209, 37.46967], [25.38421, 37.4819], [25.42823, 37.4862], [25.44361, 37.47504], [25.46289, 37.47003], [25.46552, 37.46313], [25.45728, 37.44604], [25.40772, 37.43684], [25.40259, 37.41817], [25.38258, 37.41974], [25.33665, 37.415], [25.32284, 37.38542]]], [[[24.87169, 37.54932], [24.84379, 37.5675], [24.82266, 37.59029], [24.79631, 37.63688], [24.78801, 37.66041], [24.77708, 37.67313], [24.76674, 37.67507], [24.71235, 37.6673], [24.69996, 37.66823], [24.69146, 37.67202], [24.68672, 37.67836], [24.6856, 37.68695], [24.69382, 37.70977], [24.73664, 37.76241], [24.77008, 37.78902], [24.80218, 37.80336], [24.83707, 37.80351], [24.82814, 37.81729], [24.81658, 37.82388], [24.79999, 37.816], [24.7942, 37.84382], [24.73854, 37.89175], [24.7317, 37.89175], [24.72461, 37.88191], [24.71616, 37.87911], [24.71218, 37.88435], [24.71803, 37.89859], [24.68387, 37.93268], [24.69565, 37.93553], [24.69019, 37.9565], [24.70192, 37.97263], [24.75701, 37.99656], [24.77906, 38.00022], [24.7937, 37.99408], [24.79469, 37.97712], [24.8208, 37.97035], [24.83007, 37.96307], [24.84083, 37.91901], [24.87501, 37.90599], [24.95386, 37.90598], [24.96354, 37.89696], [24.94337, 37.84333], [24.98485, 37.81598], [24.9712, 37.80915], [24.972, 37.79638], [24.95753, 37.7744], [24.96437, 37.76874], [24.98048, 37.77398], [24.99149, 37.76833], [24.99438, 37.7541], [24.98536, 37.73579], [24.95753, 37.70673], [24.9637, 37.68628], [24.95754, 37.68628], [24.91604, 37.7198], [24.8921, 37.76822], [24.88204, 37.77037], [24.89824, 37.73855], [24.91688, 37.66662], [24.93011, 37.64053], [24.95005, 37.62495], [25.00238, 37.60744], [25.01201, 37.60168], [25.0182, 37.59389], [25.02186, 37.5757], [25.01649, 37.56032], [25.00409, 37.54787], [24.98676, 37.53845], [24.94597, 37.52894], [24.91165, 37.53203], [24.87169, 37.54932]]], [[[26.12973, 38.47846], [26.14241, 38.47394], [26.1364, 38.46772], [26.15405, 38.46726], [26.15454, 38.46089], [26.14243, 38.4466], [26.13933, 38.41889], [26.14991, 38.34357], [26.16357, 38.30265], [26.13706, 38.29963], [26.11354, 38.28425], [26.10222, 38.26171], [26.11206, 38.23749], [26.11206, 38.22261], [26.04005, 38.20018], [26.01943, 38.15918], [26.00978, 38.15674], [25.97461, 38.16615], [25.94239, 38.19497], [25.9341, 38.19551], [25.9245, 38.20312], [25.91041, 38.22696], [25.88984, 38.22067], [25.88982, 38.24799], [25.8733, 38.23974], [25.86607, 38.24568], [25.87624, 38.27529], [25.88615, 38.28196], [25.91725, 38.28897], [25.93426, 38.30263], [25.96437, 38.30264], [25.97561, 38.33722], [25.9922, 38.34357], [25.98701, 38.35481], [25.98536, 38.39204], [25.97805, 38.38517], [25.96746, 38.3985], [25.95071, 38.40567], [25.95631, 38.41454], [25.95558, 38.42821], [25.94386, 38.45344], [25.9319, 38.4632], [25.8901, 38.47386], [25.87507, 38.48373], [25.83466, 38.52855], [25.83279, 38.54409], [25.8489, 38.58038], [25.99537, 38.60422], [26.06396, 38.59002], [26.10825, 38.54279], [26.11541, 38.55516], [26.12192, 38.55646], [26.12135, 38.56232], [26.11575, 38.5633], [26.13071, 38.56719], [26.14377, 38.56424], [26.16357, 38.54279], [26.15089, 38.53042], [26.14437, 38.49291], [26.12192, 38.48754], [26.12973, 38.47846]]], [[[25.52797, 38.58204], [25.54098, 38.58126], [25.52337, 38.59721], [25.52615, 38.60423], [25.53323, 38.60679], [25.54664, 38.5974], [25.56007, 38.60931], [25.58082, 38.60423], [25.58082, 38.61171], [25.58887, 38.61171], [25.62231, 38.5838], [25.62262, 38.57892], [25.61492, 38.57697], [25.60498, 38.53536], [25.59395, 38.5373], [25.59487, 38.5181], [25.59046, 38.50138], [25.58242, 38.48697], [25.57066, 38.47643], [25.55503, 38.47134], [25.53837, 38.47456], [25.52773, 38.48534], [25.51161, 38.51052], [25.46567, 38.53359], [25.46234, 38.53834], [25.46103, 38.55379], [25.46962, 38.56562], [25.48544, 38.57411], [25.52797, 38.58204]]], [[[25.0513, 39.3739], [25.05338, 39.36136], [25.04501, 39.34642], [25.02664, 39.33194], [25.00296, 39.32198], [24.97715, 39.31722], [24.95241, 39.31843], [24.95839, 39.33734], [24.973, 39.35525], [24.99326, 39.36997], [25.01622, 39.37929], [25.0389, 39.38091], [25.0513, 39.3739]]], [[[25.40188, 39.85252], [25.43437, 39.86676], [25.46426, 39.87223], [25.4781, 39.86792], [25.48218, 39.86265], [25.48327, 39.84459], [25.47865, 39.82885], [25.44309, 39.76704], [25.43188, 39.73449], [25.4317, 39.71723], [25.43576, 39.70362], [25.45858, 39.65271], [25.46168, 39.63604], [25.45871, 39.62136], [25.44747, 39.60973], [25.42593, 39.60214], [25.40709, 39.60346], [25.38937, 39.61256], [25.33972, 39.65069], [25.32373, 39.65492], [25.30777, 39.64892], [25.29158, 39.62925], [25.28669, 39.61574], [25.28127, 39.56658], [25.27625, 39.55301], [25.26653, 39.5436], [25.25028, 39.53994], [25.21659, 39.54697], [25.20568, 39.55697], [25.19551, 39.58291], [25.18191, 39.60082], [25.12043, 39.63108], [25.11116, 39.64629], [25.10921, 39.67937], [25.10452, 39.69986], [25.0693, 39.74811], [25.05952, 39.76614], [25.05742, 39.78327], [25.0672, 39.7985], [25.08671, 39.80821], [25.10533, 39.80891], [25.14934, 39.80018], [25.16775, 39.801], [25.21367, 39.8193], [25.23632, 39.82443], [25.25658, 39.82282], [25.30009, 39.81169], [25.3225, 39.81133], [25.34823, 39.81964], [25.40188, 39.85252]]], [[[25.06842, 39.99687], [25.05683, 39.9383], [25.0559, 39.9359], [25.04706, 39.94746], [25.04542, 39.98469], [25.03339, 39.98844], [25.03339, 39.99526], [25.06842, 39.99687]]], [[[25.75676, 39.93177], [25.7369, 39.94785], [25.73382, 39.97263], [25.74734, 39.99575], [25.77342, 40.0114], [25.80879, 40.02112], [25.85016, 40.02641], [25.97566, 40.031], [26.06138, 40.03919], [26.12291, 40.03888], [26.17862, 40.03171], [26.21961, 40.01601], [26.23415, 40.00281], [26.23955, 39.9894], [26.23761, 39.97608], [26.22981, 39.96322], [26.20209, 39.94047], [26.1675, 39.92427], [26.1454, 39.91763], [26.10272, 39.91122], [26.0603, 39.9116], [25.98901, 39.91889], [25.8301, 39.91858], [25.78925, 39.9226], [25.75676, 39.93177]]], [[[25.70914, 40.28006], [25.65449, 40.27711], [25.61963, 40.28254], [25.57632, 40.30751], [25.50521, 40.36481], [25.58646, 40.40456], [25.61998, 40.41539], [25.63469, 40.41643], [25.67925, 40.40898], [25.73186, 40.39275], [25.77966, 40.37131], [25.80918, 40.34831], [25.81004, 40.3389], [25.79455, 40.32012], [25.74807, 40.29392], [25.70914, 40.28006]]], [[[25.68864, 40.475], [25.6975, 40.461], [25.69068, 40.4477], [25.69531, 40.43269], [25.6786, 40.42202], [25.63446, 40.50123], [25.65618, 40.49624], [25.68864, 40.475]]], [[[27.17233, 36.511], [27.12889, 36.48874], [27.11594, 36.48522], [27.10406, 36.48715], [27.0934, 36.49662], [27.08614, 36.51569], [27.08621, 36.54045], [27.09227, 36.56808], [27.10309, 36.59572], [27.11753, 36.62046], [27.1345, 36.63937], [27.15288, 36.64947], [27.17155, 36.64779], [27.17857, 36.64299], [27.18707, 36.6288], [27.20191, 36.58561], [27.21837, 36.5704], [27.23773, 36.56285], [27.29961, 36.55614], [27.31682, 36.54899], [27.32996, 36.53419], [27.33753, 36.50854], [27.33733, 36.47664], [27.32728, 36.46153], [27.31007, 36.4595], [27.28822, 36.46674], [27.20359, 36.51395], [27.18782, 36.51515], [27.17233, 36.511]]], [[[26.34468, 36.70849], [26.3847, 36.70987], [26.40971, 36.70626], [26.429, 36.69605], [26.43439, 36.68751], [26.43582, 36.67617], [26.43072, 36.65984], [26.4187, 36.64686], [26.40165, 36.63647], [26.32154, 36.60472], [26.30826, 36.59496], [26.29978, 36.58266], [26.27945, 36.52188], [26.27087, 36.50983], [26.25814, 36.50148], [26.23361, 36.49859], [26.20231, 36.5166], [26.16307, 36.52184], [26.15486, 36.52768], [26.1553, 36.54537], [26.1622, 36.56176], [26.20164, 36.60955], [26.23081, 36.61201], [26.25146, 36.62361], [26.29722, 36.68549], [26.31203, 36.69904], [26.34468, 36.70849]]], [[[27.35688, 36.86525], [27.35952, 36.85882], [27.35647, 36.84717], [27.34487, 36.83692], [27.3183, 36.82331], [27.33086, 36.84464], [27.35688, 36.86525]]], [[[27.05092, 36.99998], [27.06172, 36.99219], [27.0689, 36.97862], [27.0724, 36.95824], [27.04893, 36.94327], [27.00536, 36.89641], [26.97718, 36.8785], [26.91921, 36.85932], [26.8918, 36.83724], [26.8321, 36.77239], [26.81892, 36.76262], [26.80743, 36.75914], [26.79813, 36.76262], [26.79236, 36.77148], [26.79066, 36.79867], [26.80031, 36.82786], [26.80849, 36.8395], [26.81834, 36.8473], [26.85862, 36.86229], [26.88012, 36.87525], [26.89553, 36.89346], [26.92164, 36.93871], [26.94061, 36.96009], [26.97982, 36.98534], [27.01995, 37.00087], [27.03683, 37.00269], [27.05092, 36.99998]]], [[[27.14899, 36.92558], [27.19444, 36.96091], [27.19652, 36.95809], [27.19357, 36.94488], [27.18482, 36.93756], [27.16778, 36.92929], [27.14899, 36.92558]]], [[[26.99579, 37.06498], [27.00041, 37.05041], [26.99839, 37.03481], [26.98672, 37.02103], [26.97451, 37.01611], [26.94368, 37.01743], [26.92871, 37.01013], [26.89274, 36.98307], [26.87137, 36.97763], [26.86595, 36.98186], [26.86772, 36.99104], [26.89078, 37.0305], [26.89564, 37.04198], [26.89472, 37.05005], [26.82125, 37.05197], [26.81318, 37.05642], [26.81588, 37.06419], [26.83282, 37.07589], [26.85809, 37.08725], [26.91669, 37.10016], [26.95441, 37.09758], [26.96921, 37.09207], [26.98569, 37.0796], [26.99579, 37.06498]]], [[[26.76786, 37.06586], [26.76856, 37.0546], [26.76268, 37.04035], [26.75733, 37.03389], [26.73979, 37.02463], [26.69298, 37.03208], [26.64815, 37.02084], [26.63272, 37.02035], [26.61527, 37.02541], [26.61211, 37.03242], [26.61995, 37.04047], [26.63542, 37.04876], [26.69376, 37.0681], [26.73979, 37.07391], [26.75632, 37.07231], [26.76786, 37.06586]]], [[[26.71234, 37.17816], [26.70655, 37.16542], [26.69233, 37.15718], [26.6729, 37.15324], [26.65154, 37.15349], [26.6315, 37.15786], [26.6161, 37.16629], [26.60862, 37.17869], [26.61233, 37.19499], [26.62209, 37.20543], [26.63615, 37.21204], [26.67014, 37.21418], [26.68655, 37.20999], [26.70021, 37.20248], [26.7094, 37.19181], [26.71234, 37.17816]]], [[[26.39173, 37.32362], [26.40583, 37.32813], [26.41852, 37.32672], [26.42901, 37.32075], [26.43645, 37.31159], [26.44003, 37.30059], [26.43889, 37.28912], [26.43224, 37.2785], [26.41924, 37.27003], [26.40384, 37.26587], [26.39112, 37.26728], [26.38146, 37.27306], [26.37521, 37.28196], [26.37273, 37.29273], [26.37441, 37.30412], [26.38061, 37.31485], [26.39173, 37.32362]]], [[[26.56521, 37.30819], [26.56702, 37.28377], [26.55396, 37.27306], [26.54641, 37.27717], [26.54477, 37.2884], [26.53274, 37.29174], [26.52859, 37.30073], [26.53883, 37.33812], [26.53372, 37.36066], [26.5364, 37.3727], [26.56886, 37.37433], [26.59034, 37.36444], [26.60368, 37.34943], [26.60588, 37.33944], [26.60084, 37.33736], [26.58872, 37.34479], [26.57244, 37.34715], [26.56373, 37.3417], [26.55843, 37.32975], [26.54884, 37.32657], [26.56521, 37.30819]]], [[[26.34803, 37.49453], [26.34997, 37.48857], [26.33793, 37.45977], [26.30922, 37.42612], [26.29031, 37.41412], [26.26927, 37.40888], [26.24676, 37.41313], [26.2536, 37.43492], [26.27678, 37.48176], [26.3002, 37.49644], [26.31752, 37.49991], [26.34803, 37.49453]]], [[[26.4297, 37.57754], [26.4183, 37.57892], [26.40854, 37.57475], [26.39602, 37.57613], [26.44036, 37.6026], [26.45052, 37.59589], [26.45688, 37.57506], [26.44671, 37.56469], [26.43622, 37.56762], [26.4297, 37.57754]]], [[[26.52825, 37.62596], [26.54069, 37.61668], [26.53133, 37.5974], [26.5166, 37.58361], [26.49912, 37.57526], [26.50131, 37.56118], [26.51092, 37.54924], [26.51115, 37.53653], [26.50294, 37.5275], [26.48887, 37.54036], [26.48601, 37.55309], [26.47495, 37.56658], [26.47488, 37.60478], [26.48486, 37.60313], [26.49195, 37.58633], [26.49806, 37.5854], [26.50309, 37.59486], [26.51376, 37.59858], [26.5101, 37.62433], [26.49709, 37.62743], [26.49644, 37.63768], [26.50523, 37.65049], [26.51352, 37.6533], [26.53068, 37.64179], [26.52825, 37.62596]]], [[[26.31909, 37.63427], [26.23085, 37.5715], [26.21414, 37.56523], [26.12794, 37.55581], [26.10825, 37.54906], [26.06739, 37.5218], [26.0298, 37.5218], [25.99073, 37.51318], [25.97634, 37.51603], [25.97187, 37.53547], [25.97997, 37.54883], [26.01238, 37.57502], [26.02639, 37.60081], [26.04201, 37.61701], [26.07423, 37.63787], [26.15642, 37.6328], [26.17726, 37.63787], [26.19744, 37.63227], [26.22722, 37.63959], [26.25424, 37.652], [26.28078, 37.67543], [26.31365, 37.68316], [26.36213, 37.68625], [26.34456, 37.6595], [26.31909, 37.63427]]], [[[26.58345, 37.70447], [26.58026, 37.74057], [26.5842, 37.75243], [26.59499, 37.76137], [26.64389, 37.77241], [26.65806, 37.79278], [26.67796, 37.79652], [26.7169, 37.711], [26.70826, 37.71357], [26.65724, 37.7049], [26.62843, 37.69066], [26.62289, 37.67887], [26.61549, 37.67887], [26.61549, 37.68627], [26.60922, 37.68627], [26.5984, 37.67721], [26.58345, 37.70447]]], [[[26.35613, 38.31688], [26.38502, 38.31843], [26.39186, 38.32502], [26.38332, 38.34355], [26.39894, 38.33552], [26.41749, 38.33674], [26.47592, 38.36689], [26.47706, 38.38687], [26.46803, 38.40762], [26.45152, 38.41869], [26.45152, 38.42608], [26.47689, 38.41668], [26.48911, 38.4062], [26.4979, 38.40729], [26.51303, 38.43293], [26.44077, 38.4728], [26.42205, 38.46971], [26.41423, 38.45629], [26.40723, 38.45345], [26.38788, 38.45426], [26.40382, 38.48754], [26.39991, 38.49958], [26.36974, 38.53524], [26.37582, 38.52855], [26.3592, 38.57674], [26.34865, 38.62151], [26.3512, 38.65046], [26.3563, 38.66168], [26.41407, 38.67938], [26.46531, 38.67273], [26.48763, 38.66428], [26.53978, 38.62344], [26.55583, 38.60541], [26.58299, 38.56461], [26.60325, 38.54139], [26.60875, 38.49404], [26.60861, 38.46802], [26.58815, 38.46088], [26.60523, 38.45358], [26.60498, 38.44477], [26.58815, 38.41869], [26.60587, 38.41664], [26.5808, 38.26951], [26.56748, 38.22768], [26.52381, 38.14739], [26.51551, 38.16552], [26.5193, 38.17967], [26.49171, 38.17403], [26.44223, 38.21198], [26.41749, 38.22065], [26.42415, 38.20019], [26.4175, 38.20019], [26.39016, 38.22383], [26.39487, 38.25165], [26.39015, 38.26166], [26.38331, 38.26166], [26.37501, 38.23481], [26.35374, 38.22833], [26.32863, 38.23506], [26.28663, 38.26105], [26.23464, 38.27384], [26.23904, 38.29571], [26.26539, 38.28669], [26.28591, 38.31866], [26.30763, 38.32307], [26.30763, 38.33051], [26.28892, 38.34065], [26.28616, 38.35895], [26.29412, 38.36984], [26.30763, 38.35786], [26.31175, 38.37111], [26.32113, 38.37765], [26.32592, 38.35493], [26.3143, 38.33674], [26.34635, 38.32879], [26.35613, 38.31688]]], [[[26.32912, 38.422], [26.32538, 38.4413], [26.35539, 38.45314], [26.36092, 38.4444], [26.354, 38.42622], [26.32912, 38.422]]], [[[26.27875, 38.49747], [26.27491, 38.51199], [26.27914, 38.51519], [26.29329, 38.49848], [26.29037, 38.49178], [26.27875, 38.49747]]], [[[26.23056, 38.53346], [26.24122, 38.52639], [26.26807, 38.52048], [26.26995, 38.51305], [26.25245, 38.50203], [26.24806, 38.50939], [26.23626, 38.50671], [26.20388, 38.5147], [26.18459, 38.53865], [26.18508, 38.54217], [26.20354, 38.54106], [26.21469, 38.53319], [26.23056, 38.53346]]], [[[26.94386, 38.80874], [26.96078, 38.80614], [26.97145, 38.81916], [26.95877, 38.84446], [26.9909, 38.85505], [27.01336, 38.87115], [27.03374, 38.8606], [27.01624, 38.82125], [26.98817, 38.77686], [26.92975, 38.71009], [26.85184, 38.64939], [26.78826, 38.61528], [26.7532, 38.61792], [26.75945, 38.63841], [26.74643, 38.63867], [26.71911, 38.65266], [26.73366, 38.66363], [26.75318, 38.66633], [26.73306, 38.68983], [26.7191, 38.72093], [26.73733, 38.73066], [26.78891, 38.73941], [26.81821, 38.75543], [26.83058, 38.74726], [26.85157, 38.74566], [26.88852, 38.73404], [26.90349, 38.73457], [26.89724, 38.74827], [26.92303, 38.76214], [26.93141, 38.75507], [26.93507, 38.77045], [26.93141, 38.78925], [26.92458, 38.78173], [26.89725, 38.81655], [26.93766, 38.83021], [26.94386, 38.80874]]], [[[26.80105, 39.4062], [26.80267, 39.42208], [26.81859, 39.39849], [26.84393, 39.34347], [26.91421, 39.27493], [26.97007, 39.21022], [27.01788, 39.13896], [27.03447, 39.10385], [27.05314, 39.03116], [27.05742, 38.9751], [27.05338, 38.93253], [27.04127, 38.94009], [27.01286, 38.92207], [26.9826, 38.91963], [26.96241, 38.94009], [26.93426, 38.9309], [26.92457, 38.94009], [26.86622, 38.91341], [26.85565, 38.91756], [26.8401, 38.93586], [26.8065, 38.95015], [26.79722, 38.97313], [26.79915, 38.99815], [26.81471, 39.01512], [26.81471, 39.02196], [26.79366, 39.02197], [26.82881, 39.04717], [26.87306, 39.06293], [26.88315, 39.0716], [26.87526, 39.09089], [26.82374, 39.14908], [26.77097, 39.1732], [26.73782, 39.19721], [26.73902, 39.20759], [26.71876, 39.26288], [26.70143, 39.26899], [26.62908, 39.26839], [26.60924, 39.27522], [26.61931, 39.28315], [26.63244, 39.31324], [26.64552, 39.31756], [26.65478, 39.31321], [26.65382, 39.30646], [26.63592, 39.30317], [26.63592, 39.29694], [26.65602, 39.29426], [26.67067, 39.28266], [26.66481, 39.29808], [26.67026, 39.30598], [26.69117, 39.31623], [26.70901, 39.33705], [26.81471, 39.39936], [26.80105, 39.4062]]], [[[26.06056, 39.2895], [26.0731, 39.3032], [26.09379, 39.31042], [26.16277, 39.32364], [26.17254, 39.3354], [26.1636, 39.37884], [26.34331, 39.38294], [26.36214, 39.37884], [26.35475, 39.35651], [26.37338, 39.34691], [26.40023, 39.34124], [26.41747, 39.33047], [26.37965, 39.28266], [26.38217, 39.27709], [26.42416, 39.2451], [26.46631, 39.22923], [26.50473, 39.185], [26.5397, 39.16596], [26.52662, 39.15913], [26.53077, 39.15062], [26.54712, 39.13532], [26.55055, 39.11921], [26.56762, 39.11814], [26.56625, 39.09797], [26.57944, 39.07534], [26.6123, 39.04926], [26.61002, 39.02294], [26.59742, 39.01196], [26.56764, 39.02196], [26.55144, 39.01504], [26.5394, 39.01935], [26.5193, 39.03628], [26.52662, 39.04247], [26.51612, 39.05264], [26.52662, 39.08344], [26.51516, 39.09102], [26.50587, 39.1092], [26.48927, 39.11367], [26.45493, 39.1114], [26.43702, 39.1035], [26.45297, 39.08641], [26.49194, 39.06293], [26.52882, 39.02106], [26.54713, 39.00898], [26.54711, 38.98787], [26.48905, 38.97254], [26.42416, 38.96736], [26.40737, 38.96943], [26.37517, 38.97891], [26.33912, 38.98294], [26.27638, 39.01065], [26.21713, 39.0207], [26.15529, 39.02498], [26.11557, 39.06672], [26.10426, 39.07465], [26.08791, 39.07722], [26.08792, 39.08345], [26.10917, 39.09266], [26.12192, 39.09089], [26.16017, 39.09772], [26.19142, 39.12758], [26.2256, 39.13182], [26.29347, 39.17715], [26.29021, 39.18675], [26.26979, 39.20075], [26.2256, 39.20759], [26.18735, 39.20205], [26.17335, 39.19501], [26.16017, 39.18334], [26.14526, 39.15568], [26.09742, 39.10566], [26.08277, 39.09516], [26.06397, 39.0909], [26.04269, 39.09329], [25.95859, 39.11759], [25.91993, 39.13711], [25.88893, 39.14473], [25.85434, 39.17207], [25.83466, 39.17964], [25.83466, 39.18707], [25.84596, 39.19038], [25.84995, 39.19941], [25.85515, 39.22126], [25.84207, 39.22801], [25.85353, 39.2364], [25.85867, 39.25921], [25.88307, 39.26899], [25.91725, 39.29693], [25.92408, 39.29693], [25.93637, 39.27656], [26.0062, 39.28631], [26.03321, 39.28266], [26.04689, 39.30314], [26.05372, 39.2895], [26.06056, 39.2895]]], [[[26.11297, 39.45918], [26.07424, 39.47452], [26.07001, 39.49628], [26.10725, 39.58704], [26.24603, 39.61185], [26.33602, 39.6208], [26.42598, 39.6161], [26.50687, 39.60402], [26.58801, 39.58083], [26.65637, 39.54934], [26.4568, 39.52119], [26.36215, 39.48136], [26.28663, 39.48762], [26.26295, 39.48135], [26.24927, 39.46566], [26.23178, 39.47451], [26.15249, 39.45921], [26.11297, 39.45918]]], [[[26.21813, 40.29686], [26.23178, 40.31013], [26.21016, 40.32175], [26.25018, 40.34951], [26.30145, 40.36468], [26.32114, 40.36518], [26.33612, 40.38531], [26.38575, 40.40986], [26.4328, 40.43983], [26.49171, 40.45653], [26.55098, 40.49286], [26.52662, 40.44065], [26.48049, 40.37969], [26.41981, 40.32672], [26.34741, 40.28399], [26.26774, 40.25347], [26.2479, 40.27912], [26.21813, 40.29686]]]]}}]}