{"type": "FeatureCollection", "features": [{"type": "Feature", "properties": {"name": "미국 세력 범위(하와이·마커스섬·팔미라 제도)", "name_en": "US sphere (Hawaii, Marcus, Palmyra)", "period": "1914년경", "kind": "세력권", "legend": "미국령 (지도의 굵은 테두리)", "map_title": "제국주의 열강의 아시아·태평양 분할(1914년경)", "source": "미래엔 세계사 교과서 3권 157쪽", "volume": 3, "page": 157, "note": "섬들을 묶은 테두리 범위(바다 포함) — 실제 영토가 아니라 관할 섬 무리의 범위 표시", "group": "미국 세력 범위", "map_folder": "3권_p157_제국주의 열강의 아시아·태평양 분할"}, "geometry": {"type": "Polygon", "coordinates": [[[176.3767, 12.30755], [176.29147, 8.67401], [176.27095, 7.58513], [176.26179, 6.49988], [176.26648, 5.78032], [176.27331, 5.42223], [176.28373, 5.06552], [176.29818, 4.71035], [176.30922, 4.63241], [176.32017, 4.59467], [176.35235, 4.52355], [176.37327, 4.49092], [176.42367, 4.43316], [176.45265, 4.40864], [176.51664, 4.36951], [176.58649, 4.34493], [176.65931, 4.33587], [177.31972, 4.32827], [177.99511, 4.32485], [179.38317, 4.32738], [180.81119, 4.33833], [187.91123, 4.42076], [195.9425, 4.49962], [199.35312, 4.53727], [203.09794, 4.58593], [203.13949, 4.58857], [203.18061, 4.5953], [203.22088, 4.60604], [203.25988, 4.6207], [203.29724, 4.63912], [203.33257, 4.66111], [203.36551, 4.68645], [203.39572, 4.7149], [203.42292, 4.74613], [205.92154, 7.9245], [205.96349, 7.98963], [205.97967, 8.02476], [206.0017, 8.09857], [206.00938, 8.17488], [206.02086, 10.02651], [206.05452, 14.0652], [206.06264, 15.51703], [206.06416, 16.59835], [206.05625, 18.02838], [206.00786, 21.16216], [206.00516, 21.20088], [205.99821, 21.23911], [205.98708, 21.27645], [205.97189, 21.31248], [205.9528, 21.34683], [205.93003, 21.3791], [205.90382, 21.40896], [205.87445, 21.43608], [203.42707, 23.47425], [201.7945, 24.86165], [200.9775, 25.5478], [200.15929, 26.22008], [199.33912, 26.87964], [198.24295, 27.74282], [197.14522, 28.59093], [195.77316, 29.63379], [194.40317, 30.66043], [194.34274, 30.69738], [194.27508, 30.72387], [194.20259, 30.73898], [194.1278, 30.74217], [191.5839, 30.64047], [185.78424, 30.39152], [183.27026, 30.28869], [180.42366, 30.18329], [179.01191, 30.13671], [177.60785, 30.09469], [176.21113, 30.05749], [174.82117, 30.02526], [173.43712, 29.99807], [172.05798, 29.97592], [170.68261, 29.95876], [169.30981, 29.94651], [167.59552, 29.93798], [165.88099, 29.93686], [165.80565, 29.93018], [165.73412, 29.91021], [165.66932, 29.87774], [164.31611, 29.02015], [161.89432, 27.48104], [159.74852, 26.11247], [158.13713, 25.08031], [156.51903, 24.03787], [154.61704, 22.80146], [152.96728, 21.71677], [152.66567, 21.51092], [152.64019, 21.4873], [152.59752, 21.43318], [152.56717, 21.37159], [152.55028, 21.30481], [152.54746, 21.23533], [152.55882, 21.16569], [152.58397, 21.09849], [152.62195, 21.03621], [152.67141, 20.98115], [152.73052, 20.93535], [152.7971, 20.90048], [154.86251, 20.24223], [156.5506, 19.69871], [158.23228, 19.14965], [159.90382, 18.59558], [161.56082, 18.03696], [163.19824, 17.47379], [164.4903, 17.01969], [165.76318, 16.56196], [167.01394, 16.10005], [167.93601, 15.75056], [168.84361, 15.3983], [169.73669, 15.04329], [170.32433, 14.80519], [171.19531, 14.44627], [173.76315, 13.36585], [174.61999, 13.00925], [175.48676, 12.65719], [176.3767, 12.30755]]]}}]}