{"type": "FeatureCollection", "features": [{"type": "Feature", "properties": {"name": "북위", "name_en": "Northern Wei", "period": "386–534", "kind": "국가", "legend": "북위(북조)", "map_title": "남북조 시대의 형세(5세기)", "source": "미래엔 세계사 교과서 1권 27쪽", "volume": 1, "page": 27, "coast_snap": "Natural Earth 10m 해안선에 맞춤", "border_snap": "현대 국경(Natural Earth 10m)에 맞춘 구간 약 376 km"}, "geometry": {"type": "MultiPolygon", "coordinates": [[[[87.96259, 41.26408], [88.06792, 41.22684], [88.17771, 41.19825], [88.52335, 41.13231], [88.63304, 41.11733], [88.90348, 41.09012], [89.02684, 41.07141], [89.50617, 40.96356], [89.72163, 40.90526], [89.8247, 40.87045], [89.92448, 40.83073], [90.01697, 40.78711], [90.10843, 40.73567], [90.19235, 40.67912], [90.26628, 40.62078], [90.54801, 40.36682], [90.62584, 40.30455], [90.70642, 40.24906], [90.78813, 40.20279], [90.88366, 40.16718], [91.00578, 40.14025], [91.14363, 40.12015], [91.29326, 40.1051], [91.59177, 40.08745], [91.83017, 40.08166], [92.02736, 40.08948], [92.22234, 40.1169], [92.39965, 40.15929], [92.569, 40.21471], [92.73293, 40.28079], [92.89175, 40.3543], [93.20377, 40.51423], [93.32999, 40.60464], [93.41152, 40.71489], [93.4526, 40.84441], [93.45725, 40.97883], [93.43858, 41.11216], [93.28888, 41.66822], [93.22655, 41.94697], [93.20727, 42.13243], [93.20817, 42.22584], [93.21628, 42.30867], [93.23462, 42.38842], [93.26842, 42.46684], [93.29365, 42.50728], [93.47247, 42.7384], [93.49608, 42.75671], [93.56766, 42.79045], [93.67711, 42.83077], [93.79615, 42.85511], [93.92241, 42.866], [94.05278, 42.86599], [94.18497, 42.85765], [94.31565, 42.84371], [94.6405, 42.79844], [94.78854, 42.77314], [94.92741, 42.74427], [95.15521, 42.68635], [95.29409, 42.67221], [95.41859, 42.65208], [95.49046, 42.6504], [95.64619, 42.67858], [95.70797, 42.68307], [95.8328, 42.66635], [95.97814, 42.63675], [96.07932, 42.59931], [96.36972, 42.46392], [96.48973, 42.40162], [96.69974, 42.27193], [96.75264, 42.24678], [96.98736, 42.16417], [97.095, 42.11587], [97.2169, 42.044], [97.33304, 41.96606], [97.55002, 41.78869], [97.70625, 41.67535], [97.79557, 41.6219], [97.88401, 41.57768], [97.99, 41.53584], [98.09686, 41.50503], [98.19729, 41.48567], [98.29853, 41.47343], [98.41246, 41.4659], [98.64018, 41.46438], [99.03039, 41.48318], [99.31589, 41.4796], [99.43155, 41.48702], [99.49482, 41.49563], [99.79248, 41.55654], [100.03078, 41.59144], [100.25179, 41.63771], [100.47505, 41.67646], [100.73386, 41.75208], [101.12681, 41.85704], [101.3578, 41.91459], [101.47524, 41.93852], [101.59614, 41.95768], [101.87903, 41.98303], [102.03416, 42.18461], [103.07348, 42.00452], [103.69143, 41.75923], [103.72099, 41.75557], [104.0194, 41.79971], [104.09572, 41.57428], [104.1725, 41.54622], [104.25283, 41.53055], [104.50492, 41.65655], [104.60124, 41.64544], [104.89234, 41.64477], [104.91368, 41.63834], [104.93543, 41.62242], [104.97383, 41.58614], [105.01481, 41.59614], [105.2009, 41.74347], [105.21826, 41.74844], [105.27448, 41.75546], [105.32595, 41.7767], [105.3582, 41.78585], [105.40274, 41.81153], [105.47385, 41.84034], [105.86861, 41.99348], [106.02678, 42.04531], [106.16358, 41.84273], [106.2693, 41.83112], [106.70084, 41.74534], [106.87413, 41.71778], [107.8201, 41.63593], [107.99925, 41.62676], [108.17984, 41.62593], [108.88807, 41.63995], [109.06154, 41.65273], [109.21885, 41.67613], [109.30075, 41.69333], [109.46478, 41.73695], [109.61591, 41.78393], [109.76423, 41.8401], [109.98792, 41.93749], [110.19903, 42.01134], [110.73342, 42.24286], [110.87348, 42.29277], [111.01631, 42.3312], [111.16957, 42.35577], [111.30881, 42.36119], [111.4406, 42.35217], [111.57283, 42.33158], [111.70542, 42.30191], [112.08547, 42.19607], [112.20979, 42.16536], [112.3965, 42.13353], [112.5879, 42.11876], [112.76666, 42.11876], [112.95484, 42.13], [113.13876, 42.1489], [113.69893, 42.22105], [113.85805, 42.23624], [114.01962, 42.24504], [114.17674, 42.24636], [114.33609, 42.23919], [114.48919, 42.22267], [114.63364, 42.19644], [114.77366, 42.15846], [114.90669, 42.10733], [115.08749, 42.00479], [115.23946, 41.88037], [115.37135, 41.73911], [115.49063, 41.58653], [115.71856, 41.27624], [115.83967, 41.13405], [115.97878, 41.00454], [116.04153, 40.95945], [116.17464, 40.88669], [116.32045, 40.82393], [116.58229, 40.72448], [116.66449, 40.70948], [116.89426, 40.68437], [117.0426, 40.65087], [117.13388, 40.63854], [117.23281, 40.64163], [117.42035, 40.66738], [117.51233, 40.67352], [117.56178, 40.6683], [117.65286, 40.64878], [117.69898, 40.64801], [117.73809, 40.65864], [117.79279, 40.69594], [117.9031, 40.71507], [118.06876, 40.72135], [118.31808, 40.71623], [118.40691, 40.7213], [118.49398, 40.73258], [118.7441, 40.78974], [118.93867, 40.81336], [119.07145, 40.83742], [119.42678, 40.9255], [119.73588, 40.99566], [119.87363, 41.0154], [120.00974, 41.02422], [120.09578, 41.02486], [120.14454, 41.01952], [120.23081, 40.9984], [120.43764, 40.96793], [120.53266, 40.96337], [120.59656, 41.03691], [120.64176, 41.07497], [120.71313, 41.11994], [120.82318, 41.10746], [120.90949, 41.08227], [120.95046, 41.0647], [121.02309, 41.02173], [121.05538, 40.99595], [121.10806, 40.93894], [121.1346, 40.8958], [121.11086, 40.87592], [121.07993, 40.86298], [121.08026, 40.8284], [121.06572, 40.8184], [121.06834, 40.8034], [121.04986, 40.79741], [121.02963, 40.82648], [121.00498, 40.83308], [120.99098, 40.83128], [120.97047, 40.81794], [120.96323, 40.80659], [120.9685, 40.7836], [120.93629, 40.75556], [120.93954, 40.74055], [120.99439, 40.73626], [121.01026, 40.73085], [121.02072, 40.71934], [120.96264, 40.70929], [120.94019, 40.69126], [120.868, 40.67869], [120.84776, 40.6831], [120.82532, 40.67403], [120.79842, 40.59968], [120.77003, 40.58576], [120.67879, 40.52192], [120.65911, 40.48377], [120.62094, 40.47443], [120.6041, 40.46516], [120.59702, 40.45002], [120.59736, 40.42243], [120.58407, 40.41373], [120.5621, 40.41132], [120.54566, 40.40241], [120.53907, 40.38288], [120.54753, 40.37616], [120.58838, 40.38431], [120.59114, 40.3673], [120.50176, 40.32691], [120.50488, 40.24909], [120.49251, 40.23127], [120.47169, 40.2141], [120.43604, 40.1945], [120.358, 40.1918], [120.30903, 40.17967], [120.26131, 40.14673], [120.18898, 40.12617], [120.11859, 40.10009], [119.95028, 40.0565], [119.91531, 40.03615], [119.91198, 39.9981], [119.8755, 39.99474], [119.81105, 39.97305], [119.77442, 39.95052], [119.74965, 39.9524], [119.70821, 39.93494], [119.6609, 39.93268], [119.62061, 39.91105], [119.57186, 39.9043], [119.53559, 39.89083], [119.51987, 39.8583], [119.53068, 39.81471], [119.46679, 39.81485], [119.42941, 39.79531], [119.34986, 39.73176], [119.33961, 39.71556], [119.31394, 39.64095], [119.28492, 39.59546], [119.26759, 39.59797], [119.24537, 39.59447], [119.22324, 39.58466], [119.20859, 39.56957], [119.209, 39.5502], [119.243, 39.57069], [119.22934, 39.53596], [119.24269, 39.54588], [119.26241, 39.57751], [119.27014, 39.58063], [119.28138, 39.57501], [119.26198, 39.53508], [119.25642, 39.49311], [119.27091, 39.48888], [119.29709, 39.45521], [119.30506, 39.43298], [119.27942, 39.38401], [119.25565, 39.36553], [119.22585, 39.35778], [119.20335, 39.36344], [119.1848, 39.35481], [119.12913, 39.29394], [119.01563, 39.18977], [118.9935, 39.17963], [118.92632, 39.13076], [118.89431, 39.12443], [118.89431, 39.13182], [118.94199, 39.15913], [118.95631, 39.18806], [118.96998, 39.1933], [118.94557, 39.19212], [118.88065, 39.17281], [118.88551, 39.18525], [118.87143, 39.2001], [118.87379, 39.21381], [118.85898, 39.20751], [118.84052, 39.17564], [118.79568, 39.15172], [118.72778, 39.14726], [118.61936, 39.16104], [118.59015, 39.14832], [118.52711, 39.14924], [118.51938, 39.13935], [118.52913, 39.12466], [118.48709, 39.10203], [118.46911, 39.09779], [118.34427, 39.03072], [118.3261, 39.03094], [118.30013, 39.04056], [118.26786, 39.04301], [118.23529, 39.05311], [118.20713, 39.07671], [118.17094, 39.13525], [118.14053, 39.17283], [118.0964, 39.20239], [118.04538, 39.21897], [118.02802, 39.2198], [117.93116, 39.2121], [117.88559, 39.20112], [117.75732, 39.11446], [117.73756, 39.1064], [117.71542, 39.1114], [117.71827, 39.093], [117.75147, 39.06791], [117.77525, 38.98106], [117.7295, 38.98436], [117.70192, 38.99531], [117.70875, 38.98102], [117.584, 38.81159], [117.57626, 38.77375], [117.57321, 38.71375], [117.55878, 38.69094], [117.56046, 38.6571], [117.54355, 38.62132], [117.56596, 38.6125], [117.66805, 38.44616], [117.71608, 38.37851], [117.80389, 38.29402], [117.83717, 38.2709], [117.94169, 38.23394], [117.97754, 38.19484], [117.989, 38.19855], [118.00719, 38.197], [118.05372, 38.17325], [118.05777, 38.16108], [118.05241, 38.15366], [118.06521, 38.14308], [118.08481, 38.13874], [118.11923, 38.15228], [118.14609, 38.14248], [118.21608, 38.14492], [118.44925, 38.10771], [118.51229, 38.08807], [118.54298, 38.06834], [118.57301, 38.0799], [118.61562, 38.12498], [118.65488, 38.14569], [118.76035, 38.15512], [118.8401, 38.15256], [118.95002, 38.09726], [118.92481, 38.05777], [118.94198, 38.04938], [118.95614, 38.03359], [118.9734, 37.99649], [118.99659, 37.96312], [119.04862, 37.9478], [119.09248, 37.91277], [119.11694, 37.85327], [119.1557, 37.82396], [119.20683, 37.80283], [119.24307, 37.76948], [119.25958, 37.71585], [119.25565, 37.67188], [119.21774, 37.67526], [119.18931, 37.70073], [119.12014, 37.73751], [119.06947, 37.74063], [119.03713, 37.72209], [119.01074, 37.65376], [118.97665, 37.61091], [118.96998, 37.59345], [118.95418, 37.4922], [118.86954, 37.49174], [118.82502, 37.49662], [118.78185, 37.50482], [118.70003, 37.5308], [118.66118, 37.54873], [118.59229, 37.5923], [118.52075, 37.6604], [118.48777, 37.65142], [118.46052, 37.63279], [118.43068, 37.59292], [118.38919, 37.47356], [118.34529, 37.39813], [117.74718, 36.72017], [117.67247, 36.65441], [117.55382, 36.56612], [116.94956, 36.16579], [116.8156, 36.05148], [116.75922, 35.97904], [116.59703, 35.68798], [116.50391, 35.5473], [116.2999, 35.28943], [115.99976, 34.87208], [115.8448, 34.66631], [115.75964, 34.56482], [115.64271, 34.43843], [115.51556, 34.31195], [115.37914, 34.18465], [115.23832, 34.05977], [114.95133, 33.82024], [114.67286, 33.60295], [114.54932, 33.51309], [114.42458, 33.43211], [114.2991, 33.36409], [114.16905, 33.31088], [114.03683, 33.27748], [113.89989, 33.26646], [113.75783, 33.28109], [113.61109, 33.32391], [113.49798, 33.37083], [112.94472, 33.64221], [112.82914, 33.69282], [112.71062, 33.73836], [112.42233, 33.8177], [112.1742, 33.84339], [111.9535, 33.82622], [111.74632, 33.77429], [111.55148, 33.70036], [111.13348, 33.52007], [110.88563, 33.43354], [110.65222, 33.38864], [110.41337, 33.3879], [110.17382, 33.42402], [109.93354, 33.48958], [109.69817, 33.5755], [109.46413, 33.6761], [109.23724, 33.78232], [108.65975, 34.06336], [108.52983, 34.12073], [108.39351, 34.17241], [108.26075, 34.21162], [108.12867, 34.23615], [108.00774, 34.24183], [107.82939, 34.21845], [107.65088, 34.16027], [107.49747, 34.08083], [107.35789, 33.98647], [107.21953, 33.87689], [106.95389, 33.65332], [106.45451, 33.28727], [105.97542, 32.93092], [105.68509, 32.73533], [105.47487, 32.60809], [104.86501, 32.2564], [104.67259, 32.13607], [104.49431, 32.01197], [104.32643, 31.87695], [104.16944, 31.72571], [104.15866, 31.79255], [104.16082, 31.87513], [104.18358, 31.9467], [104.21446, 31.99996], [104.25588, 32.05378], [104.30437, 32.10584], [104.50397, 32.28556], [104.61057, 32.3998], [104.69533, 32.52171], [104.76065, 32.64675], [104.81206, 32.77638], [104.85297, 32.90924], [104.88667, 33.04366], [104.9582, 33.36498], [104.9693, 33.43778], [104.96908, 33.49066], [104.94611, 33.72792], [104.9236, 33.7991], [104.87914, 33.87209], [104.84446, 33.91094], [104.76853, 33.97189], [104.68238, 34.01814], [104.58342, 34.05284], [104.46644, 34.07734], [104.39514, 34.08148], [104.34533, 34.07693], [104.30254, 34.06365], [104.25344, 34.03044], [104.08863, 34.10708], [103.98178, 34.16339], [103.7248, 34.31795], [103.6521, 34.37172], [103.63359, 34.39011], [103.6029, 34.43588], [103.58495, 34.48766], [103.56046, 34.65131], [103.54586, 34.70147], [103.51906, 34.75014], [103.47742, 34.79266], [103.44027, 34.8205], [103.32834, 34.88712], [103.2528, 34.91734], [103.2091, 34.93009], [103.10469, 34.94932], [102.99748, 34.95571], [102.71714, 34.95149], [102.64297, 34.95821], [102.57851, 34.97374], [102.4485, 35.0156], [102.2329, 35.06592], [102.1928, 35.08251], [102.15726, 35.10387], [102.12261, 35.13358], [102.08008, 35.18629], [102.04931, 35.24278], [102.02692, 35.30404], [102.01146, 35.36866], [101.97937, 35.62545], [101.838, 36.54833], [101.824, 36.6105], [101.72214, 36.87307], [101.63655, 37.03412], [101.58422, 37.1174], [101.52315, 37.19738], [101.45165, 37.27019], [101.36714, 37.33265], [101.26521, 37.38157], [101.14449, 37.41104], [100.97037, 37.42921], [100.61147, 37.45235], [100.43364, 37.47201], [100.40738, 37.51303], [100.35953, 37.55009], [100.29137, 37.58953], [100.2016, 37.63373], [99.80637, 37.80903], [99.71744, 37.84398], [99.53487, 37.90151], [99.24464, 37.97069], [98.9255, 38.03537], [98.68775, 38.07558], [98.44537, 38.10932], [98.19622, 38.13609], [97.94151, 38.15446], [97.69428, 38.16251], [97.44553, 38.15912], [97.20892, 38.1429], [96.79315, 38.08243], [96.64379, 38.07484], [96.30389, 38.08276], [95.45637, 38.11877], [95.28364, 38.12016], [95.14449, 38.11534], [95.01435, 38.10351], [94.88774, 38.08594], [94.38858, 37.98977], [93.89469, 37.91017], [93.76085, 37.87806], [93.58433, 37.82507], [93.30721, 37.76511], [93.04295, 37.66887], [92.91102, 37.63019], [92.78507, 37.60978], [92.53413, 37.5801], [92.41349, 37.55137], [92.26546, 37.49214], [92.1278, 37.41612], [91.99681, 37.32253], [91.88236, 37.21741], [91.7857, 37.0994], [91.72042, 36.98254], [91.68351, 36.85573], [91.68626, 36.73135], [91.71052, 36.6211], [91.74786, 36.52513], [91.77878, 36.47884], [91.8178, 36.43829], [91.87196, 36.39813], [91.93541, 36.36294], [92.14798, 36.26826], [92.1903, 36.24348], [92.22821, 36.2142], [92.26386, 36.17697], [92.29598, 36.13229], [92.31868, 36.08949], [92.33426, 36.04452], [92.34246, 35.99802], [92.34281, 35.94755], [92.33508, 35.89971], [92.31954, 35.85267], [92.29527, 35.80533], [92.26342, 35.76064], [92.21552, 35.71016], [92.04271, 35.56219], [91.9231, 35.42295], [91.82186, 35.33734], [91.62621, 35.1541], [91.36828, 34.9468], [91.25204, 34.86492], [91.13102, 34.7925], [90.99894, 34.73092], [90.86056, 34.68727], [90.71301, 34.6646], [90.55083, 34.66698], [90.48298, 34.67636], [90.41557, 34.68998], [90.08192, 34.78331], [89.90882, 34.8246], [89.81076, 34.85491], [89.72106, 34.89644], [89.67837, 34.92385], [89.58717, 35.00218], [89.54118, 35.05], [89.50514, 35.09939], [89.47783, 35.1582], [89.43187, 35.33221], [89.33873, 35.50412], [89.29202, 35.60477], [89.25875, 35.71327], [89.24655, 35.82463], [89.26243, 36.0494], [89.26318, 36.16061], [89.24541, 36.2614], [89.21005, 36.38313], [89.17855, 36.45871], [89.0866, 36.59093], [89.03664, 36.70117], [88.97165, 36.87344], [88.92219, 36.98415], [88.81363, 37.18662], [88.76677, 37.25588], [88.71068, 37.31154], [88.46253, 37.52652], [88.34794, 37.60709], [88.23231, 37.67429], [88.1065, 37.73663], [87.9752, 37.79385], [87.41961, 38.01166], [87.2922, 38.07143], [87.17339, 38.13633], [87.06481, 38.20655], [86.96636, 38.28302], [86.87806, 38.36666], [86.79987, 38.45837], [86.73071, 38.56089], [86.68712, 38.65212], [86.65432, 38.75239], [86.6078, 38.95131], [86.60231, 39.00656], [86.60966, 39.1698], [86.57443, 39.29197], [86.57102, 39.33512], [86.61027, 39.84939], [86.62945, 40.27237], [86.6404, 40.38402], [86.67859, 40.60238], [86.73783, 40.81929], [86.81725, 41.03933], [86.86347, 41.13081], [86.9248, 41.21556], [87.00455, 41.29626], [87.09875, 41.36465], [87.20662, 41.41705], [87.32617, 41.44853], [87.45605, 41.45471], [87.59587, 41.43059], [87.7037, 41.39066], [87.96259, 41.26408]]], [[[117.76912, 38.94391], [117.76213, 38.92928], [117.7782, 38.92708], [117.78564, 38.93845], [117.81477, 38.93045], [117.81092, 38.91487], [117.78929, 38.90464], [117.71837, 38.92136], [117.69712, 38.93478], [117.71371, 38.96644], [117.7315, 38.95447], [117.76912, 38.94391]]], [[[117.81926, 38.9584], [117.87912, 38.94661], [117.88004, 38.93054], [117.73323, 38.96429], [117.72045, 38.97394], [117.72995, 38.97672], [117.80885, 38.96423], [117.81926, 38.9584]]], [[[118.62871, 39.04855], [118.61465, 39.06764], [118.63274, 39.07457], [118.64866, 39.05585], [118.64872, 39.04465], [118.59431, 38.97221], [118.5143, 38.91945], [118.5027, 38.91904], [118.4803, 38.93482], [118.4909, 38.94319], [118.47071, 38.97055], [118.46954, 39.00656], [118.4785, 39.04285], [118.4882, 39.05048], [118.52637, 39.04668], [118.55972, 39.00312], [118.57781, 39.00862], [118.62871, 39.04855]]], [[[117.77335, 39.04757], [117.79598, 39.04987], [117.81079, 39.02719], [117.82676, 38.98393], [117.81969, 38.97742], [117.80323, 38.97961], [117.79122, 38.98928], [117.77335, 39.04757]]], [[[120.82592, 40.4923], [120.81804, 40.48453], [120.80266, 40.48286], [120.78508, 40.4707], [120.77729, 40.47464], [120.77436, 40.48542], [120.79029, 40.49299], [120.79185, 40.50701], [120.79998, 40.50707], [120.80455, 40.5156], [120.82105, 40.51125], [120.82592, 40.4923]]]]}}]}