{"type": "FeatureCollection", "features": [{"type": "Feature", "properties": {"name": "인구 밀집 지역", "name_en": "Densely populated areas", "period": "19세기 전반", "kind": "기타", "legend": "인구 밀집 지역", "map_title": "산업 혁명 시기 영국", "source": "미래엔 세계사 교과서 3권 151쪽", "volume": 3, "page": 151, "coast_snap": "Natural Earth 10m 해안선에 맞춤"}, "geometry": {"type": "MultiPolygon", "coordinates": [[[[-4.75804, 50.57484], [-4.71099, 50.62531], [-4.62914, 50.68822], [-4.51345, 50.74514], [-4.41617, 50.7757], [-4.28566, 50.79861], [-4.18463, 50.80428], [-4.10535, 50.79818], [-4.10087, 50.80824], [-4.04552, 50.87906], [-3.96411, 50.94768], [-3.86154, 51.00406], [-3.76333, 51.03944], [-3.63393, 51.06641], [-3.52207, 51.0749], [-3.38642, 51.06663], [-3.28402, 51.04859], [-3.18868, 51.01876], [-3.12521, 50.99038], [-3.04524, 50.94369], [-2.98061, 50.88783], [-2.93864, 50.83857], [-2.91571, 50.80072], [-2.89181, 50.73371], [-2.96276, 50.72329], [-2.9982, 50.70825], [-3.02184, 50.7065], [-3.05972, 50.71332], [-3.07136, 50.711], [-3.12548, 50.6853], [-3.16649, 50.69282], [-3.25984, 50.67455], [-3.29557, 50.63753], [-3.36816, 50.6171], [-3.40777, 50.62142], [-3.42097, 50.62946], [-3.45043, 50.67231], [-3.45861, 50.67756], [-3.46776, 50.67642], [-3.46784, 50.66698], [-3.45531, 50.6579], [-3.43336, 50.61026], [-3.46727, 50.5856], [-3.48176, 50.56855], [-3.50597, 50.52082], [-3.50503, 50.50121], [-3.48748, 50.45943], [-3.53213, 50.45478], [-3.54943, 50.44652], [-3.55626, 50.43211], [-3.54931, 50.4156], [-3.53197, 50.41022], [-3.48747, 50.41155], [-3.48747, 50.40477], [-3.49829, 50.3837], [-3.52013, 50.37482], [-3.52694, 50.34981], [-3.53889, 50.34444], [-3.57055, 50.35639], [-3.57781, 50.33406], [-3.62157, 50.32193], [-3.63199, 50.31232], [-3.65331, 50.25104], [-3.64564, 50.22603], [-3.66064, 50.22103], [-3.71801, 50.2124], [-3.77424, 50.22297], [-3.78897, 50.2124], [-3.82632, 50.2342], [-3.88418, 50.28046], [-3.96101, 50.32225], [-4.0056, 50.30923], [-4.03295, 50.29492], [-4.05434, 50.30037], [-4.0702, 50.30923], [-4.06404, 50.32225], [-4.086, 50.32625], [-4.10842, 50.33683], [-4.11871, 50.35187], [-4.10497, 50.37067], [-4.15273, 50.37068], [-4.16571, 50.37658], [-4.18381, 50.40107], [-4.19148, 50.41763], [-4.15953, 50.45942], [-4.17943, 50.45307], [-4.20055, 50.45942], [-4.2124, 50.44148], [-4.23473, 50.4383], [-4.23473, 50.43212], [-4.22022, 50.42584], [-4.21613, 50.41572], [-4.2285, 50.39737], [-4.28991, 50.39737], [-4.27302, 50.3819], [-4.21622, 50.38776], [-4.19377, 50.37691], [-4.22851, 50.37067], [-4.2285, 50.36384], [-4.20057, 50.36384], [-4.208, 50.35639], [-4.18006, 50.35638], [-4.18006, 50.35017], [-4.19799, 50.34223], [-4.19377, 50.32226], [-4.21499, 50.32316], [-4.2351, 50.34955], [-4.25235, 50.35639], [-4.33772, 50.37067], [-4.3837, 50.3675], [-4.45621, 50.33821], [-4.49536, 50.32845], [-4.65982, 50.32225], [-4.67344, 50.31543], [-4.68716, 50.34272], [-4.69432, 50.34345], [-4.71134, 50.3359], [-4.7521, 50.33031], [-4.7633, 50.32209], [-4.75546, 50.30175], [-4.78336, 50.2779], [-4.77653, 50.26508], [-4.78015, 50.25552], [-4.81102, 50.32684], [-4.82199, 50.41287], [-4.8016, 50.49812], [-4.75804, 50.57484]]], [[[-1.93251, 50.64443], [-1.95115, 50.62979], [-1.99357, 50.66423], [-2.03563, 50.71331], [-2.00251, 50.6813], [-1.95282, 50.67658], [-1.94589, 50.66885], [-1.95295, 50.65184], [-1.93251, 50.64443]]], [[[-2.02907, 51.34931], [-2.02344, 51.32408], [-2.03662, 51.30401], [-2.11025, 51.24348], [-2.14958, 51.22484], [-2.1945, 51.22199], [-2.21476, 51.22853], [-2.23118, 51.24146], [-2.24187, 51.26154], [-2.23832, 51.29204], [-2.21067, 51.3041], [-2.15283, 51.3125], [-2.12361, 51.32687], [-2.11333, 51.35184], [-2.07808, 51.36923], [-2.04478, 51.36464], [-2.02907, 51.34931]]], [[[-3.27865, 51.68709], [-3.19702, 51.73508], [-3.12278, 51.76627], [-3.05913, 51.81156], [-2.97252, 51.85417], [-2.87428, 51.88575], [-2.83484, 51.89296], [-2.82252, 51.90705], [-2.78491, 51.99422], [-2.73732, 52.05402], [-2.69476, 52.09121], [-2.58609, 52.12233], [-2.47262, 52.13865], [-2.35612, 52.14068], [-2.24133, 52.12833], [-2.20517, 52.11958], [-2.20282, 52.13199], [-2.17656, 52.1545], [-2.13586, 52.16879], [-2.11537, 52.1712], [-2.07966, 52.1675], [-2.0635, 52.15609], [-2.06326, 52.13996], [-2.0754, 52.12216], [-2.09645, 52.10571], [-2.11765, 52.09599], [-2.03528, 52.06305], [-1.97668, 52.03006], [-1.90673, 51.97869], [-1.85313, 51.91949], [-1.8189, 51.85594], [-1.809, 51.82243], [-1.80335, 51.73402], [-1.82702, 51.65753], [-1.85631, 51.60981], [-1.9176, 51.5421], [-2.00003, 51.48444], [-2.07495, 51.44612], [-2.11196, 51.40933], [-2.15967, 51.37357], [-2.23857, 51.29506], [-2.28435, 51.2619], [-2.34801, 51.22378], [-2.4297, 51.18775], [-2.45741, 51.10918], [-2.50334, 51.03978], [-2.50014, 51.03226], [-2.48764, 51.02793], [-2.5441, 51.02064], [-2.65568, 51.01689], [-2.76564, 51.02673], [-2.81997, 51.03685], [-2.90735, 51.06174], [-3.00777, 51.08046], [-3.10148, 51.11036], [-3.16874, 51.13872], [-3.25739, 51.19202], [-3.16309, 51.2067], [-3.09675, 51.20454], [-3.05753, 51.20816], [-3.02929, 51.22039], [-3.02184, 51.21357], [-3.03555, 51.19929], [-3.02184, 51.19245], [-3.00479, 51.21312], [-2.99958, 51.23322], [-3.00815, 51.25454], [-3.01061, 51.31098], [-3.02181, 51.32281], [-3.00243, 51.31908], [-2.99218, 51.32193], [-2.98777, 51.34666], [-2.95958, 51.37425], [-2.97466, 51.38422], [-2.95295, 51.39849], [-2.92101, 51.39444], [-2.79857, 51.48261], [-2.71642, 51.49958], [-2.69616, 51.51264], [-2.60781, 51.60736], [-2.58043, 51.61864], [-2.55637, 51.65924], [-2.49918, 51.69676], [-2.46498, 51.72589], [-2.4049, 51.74116], [-2.38854, 51.75043], [-2.38077, 51.76191], [-2.38337, 51.77326], [-2.39806, 51.78213], [-2.40241, 51.76358], [-2.4204, 51.75312], [-2.48209, 51.74287], [-2.52213, 51.70637], [-2.58169, 51.68171], [-2.69352, 51.59635], [-2.71313, 51.58662], [-2.76049, 51.57978], [-2.8164, 51.55558], [-2.85872, 51.54614], [-2.94335, 51.54256], [-2.95628, 51.54573], [-2.97468, 51.56297], [-2.98404, 51.55854], [-3.01571, 51.53165], [-3.10562, 51.49722], [-3.1317, 51.48041], [-3.14539, 51.45995], [-3.17272, 51.45311], [-3.16008, 51.43183], [-3.16716, 51.41047], [-3.18481, 51.39762], [-3.21886, 51.40278], [-3.28942, 51.38423], [-3.41129, 51.39147], [-3.41912, 51.46859], [-3.40287, 51.53806], [-3.36911, 51.59903], [-3.34364, 51.63017], [-3.27865, 51.68709]]], [[[-1.70528, 52.50284], [-1.73718, 52.46216], [-1.77892, 52.43109], [-1.81097, 52.41922], [-1.84581, 52.41544], [-1.8815, 52.41885], [-1.91613, 52.42858], [-1.94776, 52.44379], [-1.97447, 52.46361], [-1.99429, 52.48723], [-2.00528, 52.51386], [-2.00049, 52.54929], [-1.98941, 52.56117], [-1.90369, 52.60348], [-1.90569, 52.6563], [-1.89339, 52.68002], [-1.87013, 52.69133], [-1.83017, 52.69538], [-1.76368, 52.69246], [-1.7172, 52.67179], [-1.68958, 52.63784], [-1.6795, 52.59526], [-1.68536, 52.54871], [-1.70528, 52.50284]]], [[[-1.57171, 53.07774], [-1.54973, 53.07008], [-1.53546, 53.05041], [-1.53302, 53.02173], [-1.54535, 53.00102], [-1.6461, 52.92884], [-1.65842, 52.92496], [-1.68618, 52.93088], [-1.71827, 52.96593], [-1.72032, 52.98782], [-1.69331, 53.02761], [-1.64411, 53.05986], [-1.59631, 53.08142], [-1.60225, 53.07793], [-1.57171, 53.07774]]], [[[-2.23599, 53.0274], [-2.26029, 53.01669], [-2.29731, 53.01073], [-2.33292, 53.01171], [-2.36973, 53.01958], [-2.38282, 53.02607], [-2.51583, 52.97615], [-2.61245, 52.95409], [-2.69185, 52.94366], [-2.86013, 52.94446], [-3.05815, 52.97119], [-3.21026, 53.00851], [-3.42071, 53.07728], [-3.51236, 53.12313], [-3.58644, 53.17823], [-3.61659, 53.20898], [-3.66581, 53.28781], [-3.6022, 53.28889], [-3.56233, 53.29442], [-3.37205, 53.35089], [-3.33032, 53.35178], [-3.2716, 53.33069], [-3.2508, 53.31257], [-3.12223, 53.26227], [-3.08776, 53.23469], [-3.08454, 53.27546], [-3.13541, 53.33381], [-3.18505, 53.37709], [-3.18633, 53.39276], [-3.17551, 53.40273], [-3.15759, 53.40866], [-3.09423, 53.41738], [-3.05825, 53.43475], [-3.03555, 53.43374], [-3.0122, 53.41669], [-2.95295, 53.32392], [-2.91055, 53.29633], [-2.8815, 53.2884], [-2.85057, 53.28913], [-2.83755, 53.30279], [-2.80614, 53.29658], [-2.7755, 53.29987], [-2.74812, 53.30964], [-2.75363, 53.32253], [-2.74315, 53.33853], [-2.73449, 53.34443], [-2.71744, 53.34272], [-2.69978, 53.35179], [-2.76439, 53.34516], [-2.77538, 53.34101], [-2.78239, 53.32637], [-2.7998, 53.32104], [-2.84366, 53.32393], [-2.88616, 53.3335], [-2.92494, 53.35001], [-2.98082, 53.39277], [-3.10189, 53.55805], [-3.08782, 53.58747], [-3.02206, 53.6526], [-2.95172, 53.70807], [-2.91145, 53.72504], [-2.89904, 53.73542], [-2.98485, 53.73608], [-3.02146, 53.7458], [-3.04917, 53.76952], [-3.05636, 53.80305], [-3.04491, 53.87848], [-3.05661, 53.90615], [-3.04066, 53.92352], [-3.01756, 53.93194], [-2.92569, 53.9527], [-2.90926, 53.95383], [-2.88854, 53.94603], [-2.88173, 53.9567], [-2.85798, 53.9676], [-2.86923, 53.97883], [-2.83446, 53.99982], [-2.83007, 54.01602], [-2.86485, 54.0043], [-2.89549, 54.00236], [-2.91818, 54.03433], [-2.89208, 54.05012], [-2.85887, 54.08099], [-2.82677, 54.08881], [-2.79597, 54.12519], [-2.85424, 54.19408], [-2.83288, 54.19904], [-2.81029, 54.2119], [-2.79524, 54.22948], [-2.79597, 54.24872], [-2.80281, 54.24872], [-2.80663, 54.23371], [-2.82087, 54.22175], [-2.90465, 54.18765], [-2.92042, 54.16206], [-2.9392, 54.15511], [-2.9842, 54.15315], [-2.9977, 54.15958], [-3.01724, 54.18987], [-3.00817, 54.20034], [-3.01537, 54.2119], [-3.03576, 54.22598], [-3.04918, 54.22207], [-3.04473, 54.20806], [-3.06092, 54.16213], [-3.09073, 54.13947], [-3.11792, 54.10884], [-3.14525, 54.10004], [-3.14539, 54.06382], [-3.18977, 54.09789], [-3.21955, 54.10079], [-3.24094, 54.11213], [-3.23314, 54.15917], [-3.24838, 54.16682], [-3.24838, 54.17364], [-3.2152, 54.17984], [-3.20678, 54.20893], [-3.20739, 54.26301], [-3.22313, 54.25764], [-3.23135, 54.24722], [-3.24096, 54.22207], [-3.23217, 54.20254], [-3.30679, 54.19189], [-3.32851, 54.20474], [-3.40736, 54.27774], [-3.41289, 54.29377], [-3.40412, 54.31855], [-3.41344, 54.34296], [-3.44016, 54.35176], [-3.47427, 54.3935], [-3.49796, 54.40603], [-3.59187, 54.4831], [-3.61317, 54.49165], [-3.634, 54.51307], [-3.61156, 54.52993], [-3.59032, 54.56464], [-3.56391, 54.64253], [-3.54677, 54.66568], [-3.46871, 54.69455], [-3.33249, 54.72694], [-3.2159, 54.74037], [-3.13266, 54.7437], [-2.99404, 54.73565], [-2.92134, 54.72562], [-2.84522, 54.70905], [-2.79027, 54.69311], [-2.68523, 54.6523], [-2.77169, 54.62328], [-2.7756, 54.61147], [-2.76611, 54.6074], [-2.61915, 54.59295], [-2.54871, 54.5775], [-2.49397, 54.53239], [-2.43814, 54.4732], [-2.36487, 54.46153], [-2.2734, 54.4374], [-2.23127, 54.39065], [-2.21066, 54.35803], [-2.18604, 54.28965], [-2.18194, 54.23603], [-2.19004, 54.17424], [-2.18422, 54.12194], [-2.18807, 54.08622], [-2.22047, 54.00555], [-2.22837, 53.95768], [-2.25213, 53.89436], [-2.22892, 53.85472], [-2.20707, 53.84554], [-2.16224, 53.84898], [-2.13757, 53.85745], [-2.01897, 53.93217], [-1.96915, 53.94816], [-1.91963, 53.95499], [-1.84635, 53.95435], [-1.70967, 53.93889], [-1.63474, 53.95299], [-1.57586, 53.95295], [-1.54075, 53.94577], [-1.50304, 53.92506], [-1.49057, 53.89622], [-1.50308, 53.86621], [-1.53436, 53.83579], [-1.57823, 53.80608], [-1.68376, 53.75182], [-1.92666, 53.65231], [-2.01004, 53.60804], [-2.05196, 53.57563], [-2.1397, 53.48496], [-2.10368, 53.39757], [-2.10069, 53.3272], [-2.12064, 53.25784], [-2.16265, 53.19212], [-2.19182, 53.16105], [-2.26275, 53.10295], [-2.22687, 53.07357], [-2.22319, 53.04141], [-2.23599, 53.0274]]], [[[-2.0318, 55.39203], [-1.94395, 55.44764], [-1.89187, 55.4716], [-1.7691, 55.51222], [-1.63078, 55.53726], [-1.60295, 55.52362], [-1.61132, 55.50804], [-1.58936, 55.49567], [-1.58497, 55.48371], [-1.58139, 55.41695], [-1.58934, 55.37653], [-1.58332, 55.35472], [-1.55855, 55.3287], [-1.55588, 55.31108], [-1.56823, 55.27961], [-1.55647, 55.25503], [-1.52101, 55.22939], [-1.52916, 55.21625], [-1.50799, 55.19465], [-1.52212, 55.16747], [-1.51793, 55.15713], [-1.49598, 55.13459], [-1.48009, 55.0854], [-1.4596, 55.07859], [-1.41291, 55.00031], [-1.37024, 54.97553], [-1.36268, 54.96479], [-1.35582, 54.90428], [-1.29678, 54.77993], [-1.27546, 54.74844], [-1.24047, 54.72167], [-1.17225, 54.70123], [-1.17225, 54.6938], [-1.19262, 54.69379], [-1.19245, 54.68928], [-1.16472, 54.65276], [-1.18248, 54.63923], [-1.20629, 54.63296], [-1.20372, 54.62572], [-1.18212, 54.61929], [-1.17224, 54.62612], [-1.1647, 54.6118], [-1.15266, 54.61319], [-1.13805, 54.64654], [-1.10363, 54.62466], [-1.04207, 54.61708], [-0.99348, 54.59813], [-0.78792, 54.56077], [-0.77022, 54.55423], [-0.79748, 54.53334], [-0.8847, 54.48374], [-0.93508, 54.46255], [-1.04324, 54.42994], [-1.10198, 54.41823], [-1.22165, 54.40544], [-1.3426, 54.4046], [-1.47949, 54.39002], [-1.59941, 54.39183], [-1.68742, 54.40241], [-1.74473, 54.45206], [-1.77212, 54.4844], [-1.79361, 54.51774], [-1.81619, 54.57325], [-1.85212, 54.61622], [-1.89493, 54.68353], [-1.96677, 54.83573], [-2.07276, 54.97053], [-2.12799, 55.07449], [-2.14596, 55.13189], [-2.19084, 55.22912], [-2.14667, 55.26096], [-2.10719, 55.32106], [-2.07858, 55.35236], [-2.0318, 55.39203]]], [[[-1.34322, 50.76118], [-1.31851, 50.77215], [-1.29577, 50.77317], [-1.14428, 50.73379], [-1.10913, 50.73285], [-1.09705, 50.72695], [-1.09703, 50.71332], [-1.08277, 50.71331], [-1.06233, 50.6926], [-1.06234, 50.6853], [-1.07532, 50.67854], [-1.12865, 50.66645], [-1.16222, 50.64598], [-1.16846, 50.60347], [-1.27921, 50.58252], [-1.31587, 50.58933], [-1.48595, 50.66934], [-1.49743, 50.67231], [-1.53515, 50.66938], [-1.56945, 50.65805], [-1.54531, 50.6861], [-1.50592, 50.7077], [-1.41872, 50.73377], [-1.42536, 50.72012], [-1.40087, 50.72199], [-1.34322, 50.76118]]], [[[-1.02074, 50.79514], [-0.99869, 50.80101], [-0.97255, 50.82977], [-0.95987, 50.82933], [-0.94783, 50.81782], [-0.95987, 50.80207], [-0.93885, 50.78839], [-0.93884, 50.78096], [-1.02073, 50.78841], [-1.02074, 50.79514]]], [[[-2.0547, 51.05643], [-2.02083, 51.09915], [-1.96034, 51.09827], [-1.90536, 51.14765], [-1.82549, 51.19756], [-1.73082, 51.2368], [-1.67859, 51.25194], [-1.57025, 51.2717], [-1.5139, 51.27645], [-1.40034, 51.27528], [-1.28876, 51.25984], [-1.23573, 51.24703], [-1.12174, 51.20877], [-1.01209, 51.20626], [-0.92577, 51.14623], [-0.85543, 51.21243], [-0.84812, 51.23296], [-0.84243, 51.30827], [-0.8344, 51.32588], [-0.7932, 51.35925], [-0.69315, 51.39075], [-0.66462, 51.40743], [-0.65885, 51.42515], [-0.67213, 51.45474], [-0.67057, 51.46621], [-0.65672, 51.48263], [-0.61858, 51.49817], [-0.60483, 51.513], [-0.60841, 51.53519], [-0.64293, 51.57417], [-0.64332, 51.58444], [-0.63155, 51.60151], [-0.60657, 51.61509], [-0.55132, 51.62971], [-0.41272, 51.6558], [-0.30609, 51.69885], [-0.25004, 51.71011], [-0.21951, 51.70573], [-0.16123, 51.67747], [-0.12958, 51.68132], [-0.08696, 51.69455], [-0.04647, 51.69231], [0.05929, 51.76687], [0.13482, 51.80475], [0.17592, 51.87565], [0.23388, 51.93519], [0.30908, 51.93567], [0.42089, 51.92444], [0.46332, 51.91605], [0.46693, 51.97476], [0.49798, 52.05996], [0.51638, 52.06707], [0.53957, 52.10356], [0.59633, 52.1639], [0.64424, 52.19937], [0.68443, 52.23838], [0.71386, 52.25499], [0.83046, 52.30587], [0.90688, 52.32789], [1.01347, 52.349], [1.12525, 52.35723], [1.26589, 52.35068], [1.37687, 52.33154], [1.43044, 52.31671], [1.52718, 52.27839], [1.62986, 52.21696], [1.62559, 52.18068], [1.58248, 52.08169], [1.50367, 52.06098], [1.48682, 52.04903], [1.47202, 52.05622], [1.46366, 52.03496], [1.3435, 51.94287], [1.33229, 51.9401], [1.26442, 51.99437], [1.23487, 52.00031], [1.18523, 52.02509], [1.15789, 52.02851], [1.15789, 52.02167], [1.21437, 51.99144], [1.27076, 51.98151], [1.27101, 51.95645], [1.25074, 51.95962], [1.20574, 51.95344], [1.16529, 51.96703], [1.0691, 51.95344], [1.09547, 51.94575], [1.26205, 51.93915], [1.28198, 51.94659], [1.27848, 51.92793], [1.19955, 51.87767], [1.22788, 51.86738], [1.26441, 51.864], [1.28662, 51.88164], [1.28824, 51.86058], [1.27636, 51.8448], [1.21945, 51.81195], [1.16781, 51.79024], [1.13542, 51.78173], [1.06544, 51.77531], [1.04665, 51.77705], [0.97983, 51.84357], [0.97706, 51.82461], [0.96233, 51.81396], [0.92514, 51.80256], [0.88697, 51.78213], [0.8737, 51.74731], [0.8357, 51.73371], [0.79176, 51.74116], [0.7671, 51.73945], [0.69858, 51.72004], [0.74927, 51.70847], [0.76075, 51.69269], [0.78908, 51.71014], [0.85304, 51.7189], [0.88356, 51.72687], [0.91237, 51.74151], [0.93002, 51.74359], [0.94555, 51.7337], [0.93816, 51.70637], [0.95181, 51.67841], [0.938, 51.6645], [0.93815, 51.64126], [0.93471, 51.63587], [0.91147, 51.62385], [0.93849, 51.62499], [0.95181, 51.61701], [0.92422, 51.58817], [0.87329, 51.55948], [0.81625, 51.53718], [0.77125, 51.52828], [0.69207, 51.53632], [0.65056, 51.53579], [0.62337, 51.52205], [0.58229, 51.51655], [0.56886, 51.50838], [0.55274, 51.51797], [0.45607, 51.50556], [0.44166, 51.47704], [0.42848, 51.46711], [0.38453, 51.45311], [0.44842, 51.45995], [0.46954, 51.48039], [0.53484, 51.49167], [0.69483, 51.47703], [0.70964, 51.47035], [0.72191, 51.45628], [0.72314, 51.44671], [0.71314, 51.44124], [0.69239, 51.43953], [0.64096, 51.44416], [0.60938, 51.42513], [0.57277, 51.41958], [0.55454, 51.41218], [0.58238, 51.39346], [0.67188, 51.39105], [0.7129, 51.38422], [0.70039, 51.40982], [0.70535, 51.41949], [0.72641, 51.41901], [0.73927, 51.38793], [0.76442, 51.36441], [0.97722, 51.34919], [1.10093, 51.37322], [1.17493, 51.37762], [1.17151, 51.30886], [1.14393, 51.23644], [1.11433, 51.19259], [1.06074, 51.1357], [0.99129, 51.08569], [0.90843, 51.04446], [0.84285, 51.01988], [0.73402, 50.99312], [0.61945, 50.98083], [0.51121, 50.97842], [0.38859, 50.99015], [0.29842, 51.00765], [0.20167, 51.03731], [0.11089, 51.0756], [0.0792, 51.08314], [0.03506, 51.09998], [-0.06716, 51.11957], [-0.07865, 51.115], [-0.0928, 51.08803], [-0.16519, 51.09734], [-0.30091, 51.0983], [-0.6415, 51.05643], [-0.82532, 51.02521], [-0.79891, 50.95769], [-0.79526, 50.87241], [-0.81269, 50.79733], [-0.84083, 50.74618], [-0.91147, 50.77782], [-0.90586, 50.78802], [-0.86364, 50.80207], [-0.86364, 50.80825], [-0.90469, 50.82933], [-0.9217, 50.82161], [-0.92894, 50.82283], [-0.91902, 50.83617], [-0.9392, 50.84325], [-0.97077, 50.84699], [-1.02074, 50.84366], [-1.05624, 50.78304], [-1.08275, 50.78096], [-1.10302, 50.79548], [-1.06916, 50.84366], [-1.08731, 50.8498], [-1.1647, 50.84366], [-1.12378, 50.81879], [-1.12492, 50.78873], [-1.13806, 50.78096], [-1.15111, 50.78141], [-1.18561, 50.79243], [-1.19929, 50.80793], [-1.2552, 50.83194], [-1.30141, 50.84366], [-1.33894, 50.87271], [-1.46642, 50.91816], [-1.46642, 50.91193], [-1.42561, 50.90009], [-1.32334, 50.82594], [-1.3143, 50.81216], [-1.31731, 50.80025], [-1.41869, 50.7884], [-1.40496, 50.78097], [-1.40495, 50.77473], [-1.45051, 50.76935], [-1.48755, 50.75773], [-1.52473, 50.76105], [-1.55941, 50.71923], [-1.60212, 50.73176], [-1.69302, 50.73994], [-1.77172, 50.72013], [-1.85741, 50.72696], [-1.89635, 50.71629], [-1.94001, 50.69084], [-1.94929, 50.71332], [-1.9877, 50.72012], [-2.02196, 50.72012], [-2.03897, 50.73994], [-2.05103, 50.73177], [-2.08324, 50.78802], [-2.09672, 50.82686], [-2.10478, 50.88433], [-2.09712, 50.96344], [-2.0547, 51.05643]], [[-0.01344, 51.17707], [-0.00421, 51.18481], [-0.02969, 51.20512], [-0.07006, 51.23067], [-0.08641, 51.22457], [-0.08767, 51.19045], [-0.07827, 51.18353], [-0.01344, 51.17707]]], [[[-0.99368, 51.41423], [-0.9776, 51.38296], [-0.97842, 51.36633], [-1.00078, 51.33827], [-1.02355, 51.32983], [-1.07279, 51.331], [-1.09594, 51.33933], [-1.11308, 51.35254], [-1.12074, 51.36756], [-1.11411, 51.39785], [-1.10238, 51.41136], [-1.06861, 51.43063], [-1.02999, 51.43346], [-0.99368, 51.41423]]], [[[0.93636, 51.37105], [0.91147, 51.36441], [0.79477, 51.37055], [0.77508, 51.37531], [0.7339, 51.41218], [0.74684, 51.43964], [0.75393, 51.4457], [0.76694, 51.44793], [0.90098, 51.41734], [0.93245, 51.39769], [0.94213, 51.383], [0.93636, 51.37105]]], [[[0.25976, 52.10924], [0.24238, 52.12038], [0.23157, 52.14561], [0.23542, 52.15838], [0.25687, 52.17568], [0.30767, 52.18272], [0.34157, 52.17623], [0.35142, 52.16845], [0.35364, 52.15619], [0.33904, 52.12698], [0.30532, 52.10563], [0.28359, 52.10322], [0.25976, 52.10924]]], [[[-1.46508, 52.32357], [-1.50601, 52.33841], [-1.51811, 52.36856], [-1.50709, 52.40536], [-1.47826, 52.44006], [-1.43681, 52.46371], [-1.38803, 52.46718], [-1.33782, 52.44137], [-1.32378, 52.42513], [-1.31659, 52.39234], [-1.32211, 52.37685], [-1.34797, 52.3502], [-1.389, 52.33266], [-1.46508, 52.32357]]]]}}]}