{"type": "FeatureCollection", "features": [{"type": "Feature", "properties": {"name": "베네치아(1866년 병합)", "name_en": "Venetia (annexed 1866)", "period": "1866년", "kind": "기타", "legend": "1866년에 병합", "map_title": "이탈리아의 통일 과정", "source": "미래엔 세계사 교과서 3권 145쪽", "volume": 3, "page": 145, "coast_snap": "Natural Earth 10m 해안선에 맞춤", "border_snap": "현대 국경(Natural Earth 10m)에 맞춘 구간 약 122 km"}, "geometry": {"type": "MultiPolygon", "coordinates": [[[[12.37184, 45.42487], [12.38917, 45.43354], [12.40748, 45.43065], [12.43085, 45.41571], [12.37623, 45.42255], [12.32147, 45.34804], [12.32802, 45.37244], [12.37184, 45.42487]]], [[[12.32985, 45.4588], [12.34717, 45.4588], [12.36378, 45.44965], [12.3621, 45.43833], [12.33725, 45.42741], [12.32066, 45.42984], [12.31659, 45.44306], [12.32985, 45.4588]]], [[[10.90858, 45.17078], [10.91514, 45.19983], [10.89409, 45.23248], [10.89215, 45.24971], [10.91305, 45.28267], [10.96162, 45.33017], [10.98584, 45.36476], [10.99112, 45.38496], [10.99011, 45.44493], [10.99777, 45.46531], [11.07137, 45.53942], [11.12743, 45.60747], [11.19133, 45.6438], [11.28133, 45.67675], [11.37449, 45.70091], [11.50799, 45.71939], [11.54589, 45.72948], [11.57089, 45.7425], [11.61114, 45.77732], [11.653, 45.84036], [11.67041, 45.90108], [11.65552, 45.93436], [11.584, 45.98643], [11.56719, 46.00491], [11.54989, 46.04801], [11.5649, 46.0792], [11.60465, 46.1009], [11.66139, 46.11556], [11.85552, 46.14206], [11.90186, 46.15298], [11.94432, 46.17587], [11.95825, 46.20567], [11.95149, 46.23179], [11.91945, 46.28985], [11.91543, 46.31726], [11.93335, 46.342], [11.98363, 46.36289], [12.04685, 46.37611], [12.18016, 46.38776], [12.45098, 46.38611], [12.71556, 46.39315], [12.79381, 46.38926], [12.87415, 46.37885], [12.9607, 46.3631], [13.04378, 46.34145], [13.36526, 46.2903], [13.37859, 46.26839], [13.38469, 46.24333], [13.39813, 46.23051], [13.40164, 46.21666], [13.41012, 46.20798], [13.4374, 46.21093], [13.42283, 46.2286], [13.4683, 46.22343], [13.48226, 46.2179], [13.51016, 46.21398], [13.55905, 46.18411], [13.58447, 46.18132], [13.61393, 46.18354], [13.63739, 46.18039], [13.64504, 46.16173], [13.61641, 46.12504], [13.5051, 46.06603], [13.48226, 46.04484], [13.49032, 46.03895], [13.4928, 46.03249], [13.49001, 46.02556], [13.46179, 46.00639], [13.50944, 45.96743], [13.53941, 45.96903], [13.57166, 45.97983], [13.60587, 45.98541], [13.62282, 45.96639], [13.60824, 45.92655], [13.56928, 45.86454], [13.56597, 45.83033], [13.58127, 45.80925], [13.60917, 45.7986], [13.66033, 45.79204], [13.72106, 45.76166], [13.69601, 45.72612], [13.62892, 45.77261], [13.57423, 45.78962], [13.55128, 45.79243], [13.53443, 45.78205], [13.52418, 45.76008], [13.52833, 45.74055], [13.5549, 45.7372], [13.5184, 45.72484], [13.50781, 45.71443], [13.46925, 45.70686], [13.42798, 45.68115], [13.4017, 45.67545], [13.37676, 45.68317], [13.40919, 45.69131], [13.43141, 45.70686], [13.42262, 45.72407], [13.38169, 45.73006], [13.3694, 45.74462], [13.35182, 45.74031], [13.2549, 45.75606], [13.2155, 45.7788], [13.16944, 45.76874], [13.14967, 45.75154], [13.13982, 45.75487], [13.13136, 45.76887], [13.11931, 45.77196], [13.11085, 45.76765], [13.10817, 45.7582], [13.11183, 45.74885], [13.12288, 45.74462], [13.12288, 45.73722], [13.1006, 45.73623], [13.08058, 45.72761], [13.06959, 45.71369], [13.07504, 45.69684], [13.09148, 45.6892], [13.11166, 45.69135], [13.14964, 45.70374], [13.13802, 45.6894], [13.10304, 45.66901], [13.08496, 45.64192], [13.06055, 45.63667], [12.9817, 45.63483], [12.94386, 45.62857], [12.78039, 45.5534], [12.61194, 45.49626], [12.51271, 45.47044], [12.4878, 45.45674], [12.45143, 45.45043], [12.42362, 45.43805], [12.41033, 45.43623], [12.4358, 45.47492], [12.43094, 45.48403], [12.44728, 45.48432], [12.45144, 45.49824], [12.45818, 45.49824], [12.46697, 45.48558], [12.47193, 45.48591], [12.47869, 45.49079], [12.46503, 45.50445], [12.49732, 45.50673], [12.5066, 45.49824], [12.49293, 45.49824], [12.49293, 45.49079], [12.51515, 45.49274], [12.52151, 45.51898], [12.53048, 45.52558], [12.56251, 45.53164], [12.58172, 45.55288], [12.53728, 45.53583], [12.51065, 45.5589], [12.5066, 45.57331], [12.45851, 45.54833], [12.4419, 45.53034], [12.45143, 45.51191], [12.43491, 45.51236], [12.41774, 45.52359], [12.40358, 45.51813], [12.39674, 45.53925], [12.38412, 45.52302], [12.39039, 45.51398], [12.424, 45.50446], [12.42397, 45.49822], [12.3934, 45.49165], [12.38056, 45.49479], [12.38307, 45.50446], [12.35043, 45.50487], [12.30958, 45.48892], [12.27272, 45.46361], [12.2527, 45.43623], [12.2527, 45.43], [12.25894, 45.43], [12.2461, 45.41132], [12.24855, 45.40253], [12.25894, 45.39521], [12.2492, 45.38548], [12.24528, 45.36108], [12.22381, 45.35395], [12.23217, 45.34056], [12.21631, 45.31623], [12.20873, 45.30907], [12.18755, 45.30647], [12.16293, 45.31623], [12.15447, 45.31346], [12.1491, 45.29218], [12.15983, 45.2831], [12.16879, 45.26215], [12.18068, 45.25804], [12.19166, 45.26288], [12.19939, 45.2746], [12.19746, 45.29962], [12.21728, 45.29384], [12.22485, 45.25117], [12.21111, 45.24299], [12.22485, 45.23069], [12.22137, 45.21625], [12.23048, 45.20425], [12.24732, 45.19693], [12.26637, 45.1966], [12.25898, 45.20282], [12.30727, 45.23068], [12.29802, 45.2154], [12.32104, 45.17235], [12.32845, 45.10102], [12.3073, 45.10786], [12.3073, 45.12836], [12.29737, 45.10635], [12.29672, 45.08857], [12.30665, 45.07856], [12.32846, 45.0799], [12.32106, 45.09357], [12.341, 45.08124], [12.37623, 45.03897], [12.37623, 45.03217], [12.35515, 45.02464], [12.36883, 45.01097], [12.38356, 45.02643], [12.38657, 45.03876], [12.36885, 45.06559], [12.41341, 45.04287], [12.41033, 45.03217], [12.44458, 45.01096], [12.48618, 44.97651], [12.4992, 44.98371], [12.4861, 44.98371], [12.48609, 44.99114], [12.50261, 44.99143], [12.51701, 44.98746], [12.53385, 44.97004], [12.52312, 44.95002], [12.52701, 44.94335], [12.5127, 44.92232], [12.49903, 44.92145], [12.4873, 44.86225], [12.44459, 44.82052], [12.424, 44.85464], [12.43922, 44.87759], [12.44304, 44.89008], [12.43832, 44.90111], [12.42693, 44.90498], [12.40691, 44.8913], [12.3921, 44.86839], [12.39161, 44.85883], [12.41652, 44.85114], [12.40821, 44.83625], [12.39674, 44.83348], [12.39674, 44.82665], [12.424, 44.82049], [12.41592, 44.80315], [12.39795, 44.79378], [12.37567, 44.79223], [12.30299, 44.84292], [12.29233, 44.84325], [12.26637, 44.82665], [12.26637, 44.8205], [12.28002, 44.8205], [12.25359, 44.75129], [12.24659, 44.71161], [12.2527, 44.6684], [12.28577, 44.60292], [12.28232, 44.50417], [12.21292, 44.52381], [12.09537, 44.51344], [11.9971, 44.51936], [11.94844, 44.52755], [11.85729, 44.55338], [11.81398, 44.57127], [11.75744, 44.60211], [11.73893, 44.68997], [11.72711, 44.69116], [11.67789, 44.67514], [11.63172, 44.67763], [11.60291, 44.69611], [11.56811, 44.73578], [11.52195, 44.76734], [11.48734, 44.78362], [11.41138, 44.80736], [11.32813, 44.82138], [11.19715, 44.82911], [11.05495, 44.82692], [10.94974, 44.81637], [10.94364, 44.82397], [10.95404, 44.84641], [10.94915, 44.8682], [10.93015, 44.89212], [10.87075, 44.93269], [10.7503, 44.99546], [10.72932, 45.01253], [10.71932, 45.02813], [10.71933, 45.04347], [10.74782, 45.07534], [10.88572, 45.15133], [10.90858, 45.17078]]], [[[12.37546, 45.45388], [12.39731, 45.46003], [12.41408, 45.47308], [12.41839, 45.46874], [12.39609, 45.44941], [12.38536, 45.44571], [12.37546, 45.45388]]], [[[13.58961, 45.53579], [13.63245, 45.54027], [13.61016, 45.49069], [13.58457, 45.45113], [13.53332, 45.39602], [13.51337, 45.43622], [13.52076, 45.44302], [13.51565, 45.44814], [13.52076, 45.45726], [13.50453, 45.48406], [13.50149, 45.4986], [13.5071, 45.5119], [13.56861, 45.49079], [13.58953, 45.48884], [13.59596, 45.51813], [13.57863, 45.52339], [13.56864, 45.53924], [13.58961, 45.53579]]]]}}]}