{"type": "FeatureCollection", "features": [{"type": "Feature", "properties": {"name": "제노바", "name_en": "Genoa", "category": "도시", "year": "", "coord_source": "실제 위치", "map_lon": 8.94596, "map_lat": 44.40514, "legend": "가리발디 원정 출발지", "map_title": "이탈리아의 통일 과정", "source": "미래엔 세계사 교과서 3권 145쪽", "volume": 3, "page": 145}, "geometry": {"type": "Point", "coordinates": [8.946, 44.405]}}, {"type": "Feature", "properties": {"name": "피렌체", "name_en": "Florence", "category": "도시", "year": "", "coord_source": "실제 위치", "map_lon": 11.25603, "map_lat": 43.77008, "legend": "", "map_title": "이탈리아의 통일 과정", "source": "미래엔 세계사 교과서 3권 145쪽", "volume": 3, "page": 145}, "geometry": {"type": "Point", "coordinates": [11.256, 43.77]}}, {"type": "Feature", "properties": {"name": "베네치아", "name_en": "Venice", "category": "도시", "year": "", "coord_source": "실제 위치", "map_lon": 12.3361, "map_lat": 45.43839, "legend": "", "map_title": "이탈리아의 통일 과정", "source": "미래엔 세계사 교과서 3권 145쪽", "volume": 3, "page": 145}, "geometry": {"type": "Point", "coordinates": [12.336, 45.438]}}, {"type": "Feature", "properties": {"name": "로마", "name_en": "Rome", "category": "수도", "year": "", "coord_source": "실제 위치", "map_lon": 12.49545, "map_lat": 41.90263, "legend": "교황령의 중심, 1871년 이탈리아 왕국 수도", "map_title": "이탈리아의 통일 과정", "source": "미래엔 세계사 교과서 3권 145쪽", "volume": 3, "page": 145}, "geometry": {"type": "Point", "coordinates": [12.496, 41.903]}}, {"type": "Feature", "properties": {"name": "나폴리", "name_en": "Naples", "category": "수도", "year": "", "coord_source": "실제 위치", "map_lon": 14.26791, "map_lat": 40.85196, "legend": "양시칠리아(나폴리) 왕국의 수도", "map_title": "이탈리아의 통일 과정", "source": "미래엔 세계사 교과서 3권 145쪽", "volume": 3, "page": 145}, "geometry": {"type": "Point", "coordinates": [14.268, 40.852]}}, {"type": "Feature", "properties": {"name": "팔레르모", "name_en": "Palermo", "category": "도시", "year": "", "coord_source": "실제 위치", "map_lon": 13.36069, "map_lat": 38.11613, "legend": "", "map_title": "이탈리아의 통일 과정", "source": "미래엔 세계사 교과서 3권 145쪽", "volume": 3, "page": 145}, "geometry": {"type": "Point", "coordinates": [13.361, 38.116]}}]}