{"type": "FeatureCollection", "features": [{"type": "Feature", "properties": {"name": "잉카 제국", "name_en": "Inca Empire", "period": "1438–1533", "kind": "국가", "legend": "잉카 제국(빗금)", "map_title": "16세기 포르투갈과 에스파냐의 교역망 확대", "source": "미래엔 세계사 교과서 2권 103쪽", "volume": 2, "page": 103, "coast_snap": "Natural Earth 10m 해안선에 맞춤", "border_snap": "현대 국경(Natural Earth 10m)에 맞춘 구간 약 220 km"}, "geometry": {"type": "MultiPolygon", "coordinates": [[[[-81.08579, -5.81551], [-81.08466, -5.79969], [-81.07519, -5.7868], [-81.0575, -5.78798], [-81.03828, -5.8181], [-80.97159, -5.84596], [-80.93993, -5.85084], [-80.90339, -5.81463], [-80.86401, -5.74394], [-80.85621, -5.65046], [-80.88122, -5.57387], [-80.93182, -5.46382], [-81.0019, -5.39154], [-80.97914, -5.36632], [-80.92502, -5.32185], [-80.86363, -5.2891], [-80.83018, -5.27722], [-80.76138, -5.26385], [-80.69162, -5.2642], [-80.62759, -5.27704], [-80.59557, -5.33939], [-80.58798, -5.34315], [-80.5803, -5.33817], [-80.5384, -4.66737], [-80.43594, -4.46537], [-80.46997, -4.44608], [-80.48353, -4.43399], [-80.49229, -4.41301], [-80.48854, -4.39596], [-80.35631, -4.22057], [-80.34527, -4.19845], [-80.39142, -4.20414], [-80.43472, -4.21695], [-80.4696, -4.21323], [-80.49077, -4.169], [-80.71817, -4.20923], [-80.77408, -4.30062], [-80.82541, -4.29347], [-80.89257, -4.27128], [-80.92406, -4.25541], [-80.98143, -4.21505], [-81.03062, -4.16362], [-81.07239, -4.09585], [-81.06249, -4.08571], [-81.04657, -4.0529], [-80.99277, -3.97196], [-80.96133, -3.93919], [-80.92381, -3.90985], [-80.88292, -3.8869], [-80.86779, -3.87274], [-80.85236, -3.80828], [-80.83445, -3.77321], [-80.8076, -3.73944], [-80.77144, -3.70997], [-80.61311, -3.61566], [-80.58458, -3.58807], [-80.54231, -3.52614], [-80.53624, -3.50531], [-80.49372, -3.4892], [-80.42418, -3.49147], [-80.40502, -3.48724], [-80.38451, -3.47869], [-80.36824, -3.46551], [-80.3587, -3.4367], [-80.34105, -3.40325], [-80.3441, -3.37884], [-80.34104, -3.36859], [-80.32763, -3.36053], [-80.30689, -3.32077], [-80.32055, -3.35556], [-80.31432, -3.37607], [-80.30232, -3.3668], [-80.2967, -3.33538], [-80.28645, -3.32075], [-80.2591, -3.34808], [-80.17317, -3.32758], [-80.14517, -3.33123], [-80.13557, -3.32757], [-80.10827, -3.29681], [-80.07056, -3.21839], [-80.05988, -3.20405], [-80.03752, -3.20828], [-80.03288, -3.23211], [-80.03995, -3.27988], [-80.0292, -3.27353], [-80.00893, -3.24188], [-79.96801, -3.21461], [-79.9532, -3.19744], [-79.94347, -3.17653], [-79.93325, -3.1152], [-79.87487, -3.00547], [-79.88482, -2.98805], [-79.88124, -2.96561], [-79.83457, -2.80682], [-79.80138, -2.74098], [-79.79767, -2.71771], [-79.77642, -2.65945], [-79.73498, -2.61159], [-79.72643, -2.59384], [-79.72509, -2.56976], [-79.73152, -2.52508], [-79.74502, -2.49017], [-79.74828, -2.48463], [-79.78128, -2.48498], [-79.78953, -2.48104], [-79.80161, -2.46257], [-79.82091, -2.40895], [-79.83945, -2.37704], [-79.84044, -2.30462], [-79.84756, -2.24528], [-79.83983, -2.20957], [-79.86188, -2.17961], [-79.86863, -2.1609], [-79.86802, -2.14886], [-79.85411, -2.12029], [-79.86187, -2.10801], [-79.84642, -2.09174], [-79.81835, -2.07985], [-79.81346, -2.05641], [-79.8059, -2.04518], [-79.77286, -2.02663], [-79.76561, -2.00498], [-79.83137, -2.04355], [-79.8346, -2.07001], [-79.87434, -2.07537], [-79.8817, -2.08375], [-79.89196, -2.1159], [-79.90046, -2.15594], [-79.90184, -2.18483], [-79.89574, -2.2138], [-79.86531, -2.26678], [-79.86303, -2.29713], [-79.87858, -2.49187], [-79.88916, -2.53248], [-79.89601, -2.54324], [-79.93304, -2.58014], [-79.984, -2.60515], [-79.9982, -2.60813], [-80.00844, -2.6032], [-80.01431, -2.58978], [-80.04369, -2.58944], [-80.06358, -2.57724], [-80.06891, -2.56081], [-80.05552, -2.54519], [-80.02571, -2.52508], [-80.01211, -2.48903], [-80.0018, -2.48017], [-79.97484, -2.47723], [-79.95494, -2.49765], [-79.94376, -2.49831], [-79.93419, -2.49261], [-79.92968, -2.48415], [-79.93635, -2.46299], [-79.94083, -2.48398], [-79.95434, -2.47959], [-79.97794, -2.45672], [-79.99987, -2.45924], [-80.03433, -2.47388], [-80.03994, -2.45989], [-80.0358, -2.43817], [-80.01696, -2.3952], [-80.00893, -2.35883], [-79.97794, -2.34743], [-79.95002, -2.30722], [-79.98315, -2.32707], [-80.01269, -2.32643], [-80.03287, -2.34637], [-80.07605, -2.45769], [-80.14411, -2.55309], [-80.17497, -2.58652], [-80.20759, -2.60076], [-80.22244, -2.62307], [-80.2318, -2.62867], [-80.24136, -2.6285], [-80.25536, -2.61159], [-80.27001, -2.60508], [-80.27961, -2.61256], [-80.28311, -2.62908], [-80.27961, -2.64918], [-80.24853, -2.67987], [-80.24504, -2.68817], [-80.24544, -2.72112], [-80.25549, -2.73023], [-80.27843, -2.72713], [-80.32054, -2.71061], [-80.39631, -2.64918], [-80.42979, -2.64234], [-80.46788, -2.61793], [-80.57409, -2.49285], [-80.65665, -2.41579], [-80.71805, -2.39126], [-80.75051, -2.39235], [-80.80323, -2.37484], [-80.82188, -2.36638], [-80.86392, -2.32928], [-80.88598, -2.3209], [-80.91364, -2.31877], [-80.9212, -2.30974], [-80.92711, -2.27597], [-80.95656, -2.23199], [-80.94208, -2.20569], [-80.93129, -2.21733], [-80.90634, -2.21626], [-80.87057, -2.2033], [-80.81966, -2.16228], [-80.7807, -2.14284], [-80.74498, -2.10291], [-80.73745, -2.0435], [-80.75154, -2.0132], [-80.75867, -1.98529], [-80.74871, -1.97957], [-80.68441, -1.95446], [-80.65049, -1.94676], [-80.58112, -1.94167], [-80.51151, -1.95051], [-80.47783, -1.96002], [-80.4217, -1.98461], [-80.41343, -1.9826], [-80.17546, -1.44943], [-80.2109, -1.04275], [-80.21777, -1.03931], [-80.22466, -1.04252], [-80.2453, -1.08135], [-80.28576, -1.13489], [-80.3385, -1.12209], [-80.37112, -1.10935], [-80.43201, -1.07449], [-80.4855, -1.02797], [-80.52886, -0.97216], [-80.56227, -0.90456], [-80.54721, -0.88849], [-80.51585, -0.74193], [-80.49745, -0.69222], [-80.4576, -0.61255], [-80.44896, -0.60607], [-80.422, -0.59961], [-80.41984, -0.62551], [-80.40582, -0.64603], [-80.3788, -0.65789], [-80.29901, -0.66223], [-80.299, -0.65036], [-80.35718, -0.63628], [-80.37787, -0.63616], [-80.39173, -0.62548], [-80.41556, -0.57375], [-80.42958, -0.56834], [-80.437, -0.55772], [-80.43822, -0.53383], [-80.44897, -0.50567], [-80.45206, -0.47674], [-80.46624, -0.44517], [-80.48459, -0.42358], [-80.49641, -0.38158], [-80.48579, -0.3674], [-80.46516, -0.36525], [-80.43273, -0.33919], [-80.39135, -0.27435], [-80.37122, -0.22284], [-80.34966, -0.21526], [-80.32369, -0.17319], [-80.30535, -0.18937], [-80.26437, -0.16365], [-80.21467, -0.16589], [-80.18037, -0.17194], [-80.11462, -0.19393], [-80.05376, -0.22868], [-80.00056, -0.27478], [-79.95707, -0.33045], [-79.94253, -0.35594], [-80.01713, -0.43309], [-79.96204, -0.53492], [-79.81845, -0.54645], [-79.35649, -0.54252], [-78.88096, -0.00604], [-78.31627, 0.64841], [-77.74968, 0.00478], [-76.74878, -0.23543], [-77.18145, -1.11523], [-77.1502, -3.45847], [-77.549, -4.0612], [-77.54647, -5.10489], [-76.86024, -6.02303], [-76.16789, -6.1795], [-75.4621, -7.23621], [-74.90244, -7.37848], [-75.16474, -9.81284], [-74.61597, -11.21228], [-74.35108, -11.90552], [-73.5584, -12.76745], [-72.76764, -13.01414], [-72.22315, -12.67604], [-71.68734, -12.3295], [-71.35521, -12.73309], [-71.03397, -13.13023], [-70.1141, -14.28947], [-69.22909, -14.57447], [-68.34065, -14.84622], [-67.80611, -16.32624], [-67.43578, -17.30281], [-66.61034, -17.88974], [-66.1788, -18.18431], [-65.72951, -18.48158], [-65.37839, -18.70597], [-64.75274, -19.09318], [-64.86062, -19.67233], [-64.94483, -20.25542], [-65.00875, -20.83984], [-64.50576, -21.42774], [-64.13119, -21.85], [-63.95095, -22.0108], [-63.96811, -22.06651], [-63.97581, -22.07384], [-63.99565, -22.08294], [-64.00438, -22.09927], [-64.01978, -22.15539], [-64.05102, -22.22918], [-64.0588, -22.24035], [-64.07888, -22.25058], [-64.08624, -22.25792], [-64.15151, -22.41654], [-63.92599, -22.5141], [-63.83285, -23.28319], [-64.27316, -23.97785], [-64.70065, -24.66913], [-64.74095, -25.91596], [-64.78533, -27.12499], [-65.40315, -27.94233], [-66.00536, -28.7284], [-65.87898, -29.68867], [-66.62719, -30.53216], [-67.85685, -30.87905], [-68.6123, -31.70906], [-68.92092, -32.03574], [-69.39101, -32.5197], [-69.72478, -32.84963], [-70.00022, -32.8766], [-70.00017, -32.889], [-70.01714, -32.91659], [-70.03425, -32.97695], [-70.04249, -32.99266], [-70.05649, -33.00134], [-70.08892, -33.00827], [-70.10295, -33.01829], [-70.11119, -33.03845], [-70.09548, -33.07131], [-70.09218, -33.09178], [-70.10977, -33.14945], [-70.10946, -33.1696], [-70.10083, -33.18686], [-70.08569, -33.20133], [-70.05179, -33.22531], [-70.04112, -33.23895], [-70.01001, -33.2991], [-70.22246, -33.44466], [-70.27275, -33.78031], [-70.35385, -34.24119], [-70.76203, -34.59607], [-71.17864, -34.9407], [-71.60152, -35.27346], [-72.02873, -35.59248], [-71.99438, -35.19247], [-72.00146, -35.186], [-72.07662, -35.17461], [-72.1174, -35.16337], [-72.19258, -35.13175], [-72.22797, -35.11085], [-72.21349, -35.08131], [-72.20344, -35.04062], [-72.1932, -34.908], [-72.1878, -34.88552], [-72.14542, -34.82936], [-72.13181, -34.78436], [-72.10302, -34.76092], [-72.05724, -34.65879], [-72.05395, -34.5698], [-72.04239, -34.50791], [-72.04259, -34.4861], [-72.05548, -34.42816], [-72.04807, -34.40391], [-71.99523, -34.37005], [-71.98713, -34.33506], [-71.98912, -34.25416], [-71.99523, -34.2125], [-72.01886, -34.18141], [-72.02683, -34.16269], [-72.01862, -34.14099], [-71.96052, -34.07529], [-71.93138, -34.02208], [-71.90661, -34.00945], [-71.90525, -33.97284], [-71.87792, -33.94549], [-71.86026, -33.91188], [-71.83541, -33.82675], [-71.81635, -33.78708], [-71.80808, -33.77696], [-71.78547, -33.76377], [-71.7445, -33.75693], [-71.68765, -33.72088], [-71.67186, -33.6985], [-71.65437, -33.65651], [-71.64517, -33.61289], [-71.64516, -33.56878], [-71.62466, -33.54144], [-71.64078, -33.50058], [-71.70591, -33.43434], [-71.70725, -33.38991], [-71.69749, -33.37038], [-71.67561, -33.36338], [-71.67219, -33.35857], [-71.67186, -33.32578], [-71.6761, -33.30096], [-71.70725, -33.24667], [-71.72574, -33.15398], [-71.76185, -33.10198], [-71.74351, -33.08637], [-71.69034, -33.08563], [-71.67931, -33.07155], [-71.66616, -33.03607], [-71.64574, -33.01899], [-71.59358, -33.01946], [-71.58239, -33.01686], [-71.56823, -33.00189], [-71.56451, -32.98407], [-71.55264, -32.96429], [-71.55576, -32.9319], [-71.52107, -32.89658], [-71.5183, -32.87314], [-71.53684, -32.83123], [-71.54868, -32.78485], [-71.54213, -32.77362], [-71.53213, -32.76923], [-71.50113, -32.76678], [-71.49498, -32.74619], [-71.50673, -32.71088], [-71.46548, -32.69948], [-71.45417, -32.68564], [-71.44591, -32.64275], [-71.44913, -32.5971], [-71.45474, -32.57301], [-71.4767, -32.53525], [-71.47141, -32.51581], [-71.43969, -32.48504], [-71.44138, -32.47226], [-71.43167, -32.42645], [-71.42609, -32.41058], [-71.40795, -32.38633], [-71.41246, -32.36956], [-71.44591, -32.34173], [-71.4671, -32.33172], [-71.46711, -32.31504], [-71.48131, -32.26653], [-71.5305, -32.22665], [-71.54213, -32.20517], [-71.54209, -32.1598], [-71.5279, -32.12607], [-71.52691, -32.08337], [-71.50772, -31.97747], [-71.51138, -31.9612], [-71.52598, -31.94117], [-71.52789, -31.9166], [-71.52268, -31.90651], [-71.50113, -31.88982], [-71.50646, -31.86924], [-71.53961, -31.83766], [-71.53871, -31.82464], [-71.52172, -31.80625], [-71.51452, -31.79046], [-71.51496, -31.77549], [-71.57037, -31.59157], [-71.56945, -31.51922], [-71.59366, -31.44411], [-71.60845, -31.42018], [-71.64712, -31.20208], [-71.66616, -31.16985], [-71.66781, -31.15075], [-71.65255, -31.06427], [-71.58507, -31.03887], [-71.50615, -31.02364], [-71.46285, -31.02095], [-71.45513, -31.0157], [-71.47477, -30.78455], [-71.48316, -30.77727], [-71.55631, -30.77537], [-71.59688, -30.76933], [-71.63607, -30.75994], [-71.70202, -30.73501], [-71.69896, -30.70892], [-71.71344, -30.61492], [-71.6949, -30.54485], [-71.70344, -30.50832], [-71.68615, -30.4498], [-71.67682, -30.34254], [-71.63775, -30.24147], [-71.6344, -30.23829], [-71.62097, -30.24668], [-71.6088, -30.27516], [-71.58747, -30.28493], [-71.54214, -30.28533], [-71.50609, -30.2719], [-71.50113, -30.26181], [-71.50448, -30.23971], [-71.49096, -30.23821], [-71.44591, -30.16238], [-71.42431, -30.18475], [-71.41462, -30.18808], [-71.39879, -30.17669], [-71.38256, -30.14772], [-71.37645, -30.07887], [-71.3824, -30.04607], [-71.3946, -30.01678], [-71.41245, -29.99179], [-71.40103, -29.97813], [-71.38443, -29.98431], [-71.37976, -29.9695], [-71.35855, -29.9616], [-71.36049, -29.94964], [-71.35069, -29.93085], [-71.33984, -29.92979], [-71.31965, -29.94329], [-71.29776, -29.93385], [-71.28661, -29.91025], [-71.28258, -29.88014], [-71.28515, -29.83611], [-71.31944, -29.79998], [-71.33591, -29.72812], [-71.33535, -29.7112], [-71.32022, -29.69695], [-71.31851, -29.66562], [-71.32306, -29.65594], [-71.29719, -29.62265], [-71.28808, -29.60312], [-71.31151, -29.58668], [-71.32324, -29.56798], [-71.33604, -29.525], [-71.33348, -29.50408], [-71.31945, -29.47186], [-71.30724, -29.42116], [-71.30883, -29.40887], [-71.33604, -29.38103], [-71.34716, -29.31683], [-71.36091, -29.29559], [-71.37609, -29.2824], [-71.46938, -29.22877], [-71.48692, -29.21184], [-71.49428, -29.19264], [-71.49619, -29.1347], [-71.48131, -29.10784], [-71.48209, -29.09344], [-71.49581, -29.08126], [-71.43079, -29.02895], [-71.36225, -28.99348], [-71.32468, -28.98011], [-71.24748, -28.96374], [-71.20764, -28.9606], [-71.09301, -28.96855], [-71.05263, -28.83566], [-71.05943, -28.82581], [-71.12361, -28.82011], [-71.16254, -28.81209], [-71.2368, -28.7861], [-71.3039, -28.74775], [-71.34517, -28.71374], [-71.30187, -28.6749], [-71.28767, -28.61891], [-71.28893, -28.60703], [-71.3126, -28.58342], [-71.31622, -28.57293], [-71.30748, -28.56171], [-71.27009, -28.54046], [-71.26159, -28.52166], [-71.26987, -28.48602], [-71.2678, -28.47666], [-71.26048, -28.47243], [-71.23363, -28.47047], [-71.21036, -28.44671], [-71.18859, -28.40545], [-71.17394, -28.36061], [-71.17223, -28.32643], [-71.18334, -28.30153], [-71.19358, -28.29436], [-71.17223, -28.26776], [-71.16015, -28.21168], [-71.15709, -28.14284], [-71.16002, -28.12021], [-71.17307, -28.09295], [-71.15172, -28.06455], [-71.14733, -28.04892], [-71.13255, -27.92329], [-71.12437, -27.9013], [-71.10326, -27.88421], [-71.09716, -27.87396], [-71.10471, -27.83896], [-71.08462, -27.82293], [-71.07875, -27.7807], [-71.04869, -27.72308], [-71.03868, -27.66644], [-71.02457, -27.65546], [-71.01325, -27.67156], [-70.9711, -27.66035], [-70.9525, -27.66106], [-70.93934, -27.63812], [-70.91242, -27.62184], [-70.91901, -27.58603], [-70.91856, -27.54388], [-70.89167, -27.4931], [-70.90518, -27.4415], [-70.94578, -27.37184], [-70.94493, -27.34954], [-70.93269, -27.29803], [-70.95489, -27.24359], [-70.94494, -27.21494], [-70.95994, -27.18816], [-70.95994, -27.16139], [-70.94142, -27.11357], [-70.92927, -27.10671], [-70.91707, -27.10688], [-70.90819, -27.12916], [-70.90046, -27.1325], [-70.87084, -27.11785], [-70.87058, -27.09247], [-70.85245, -27.07155], [-70.84873, -27.04803], [-70.8452, -27.04601], [-70.83332, -27.05153], [-70.81843, -27.04795], [-70.82273, -27.02362], [-70.78865, -26.99627], [-70.80694, -26.9306], [-70.80639, -26.91619], [-70.82273, -26.88697], [-70.82247, -26.86604], [-70.78588, -26.78782], [-70.77179, -26.7724], [-70.73247, -26.74928], [-70.75614, -26.71343], [-70.74707, -26.69224], [-70.73034, -26.68182], [-70.71498, -26.60858], [-70.6953, -26.56854], [-70.69245, -26.54437], [-70.70468, -26.51149], [-70.70664, -26.49285], [-70.68664, -26.45648], [-70.68562, -26.4345], [-70.69928, -26.393], [-70.69127, -26.38356], [-70.66664, -26.38527], [-70.65654, -26.35583], [-70.62995, -26.34098], [-70.64241, -26.31533], [-70.68143, -26.30449], [-70.67544, -26.27692], [-70.65706, -26.2658], [-70.64826, -26.23577], [-70.66453, -26.20281], [-70.66495, -26.17571], [-70.67193, -26.16082], [-70.66173, -26.13405], [-70.65826, -26.06463], [-70.63781, -26.04412], [-70.63073, -26.00953], [-70.63598, -25.97471], [-70.64892, -25.94362], [-70.69667, -25.88518], [-70.71036, -25.83538], [-70.73993, -25.8291], [-70.72399, -25.77872], [-70.70031, -25.77338], [-70.69162, -25.74145], [-70.69247, -25.69153], [-70.68667, -25.66807], [-70.6734, -25.65391], [-70.65081, -25.64831], [-70.63478, -25.6255], [-70.63781, -25.58148], [-70.65143, -25.54078], [-70.64698, -25.52185], [-70.62287, -25.50418], [-70.60367, -25.50164], [-70.53848, -25.46819], [-70.53091, -25.4568], [-70.52134, -25.40326], [-70.51365, -25.38634], [-70.47643, -25.38633], [-70.46492, -25.38242], [-70.44481, -25.3449], [-70.45286, -25.31805], [-70.4392, -25.27646], [-70.4344, -25.2361], [-70.437, -25.19346], [-70.44909, -25.15293], [-70.47273, -25.11932], [-70.49717, -25.10425], [-70.50059, -25.09547], [-70.48859, -25.03949], [-70.46874, -25.0001], [-70.47273, -24.97527], [-70.52097, -24.91904], [-70.53173, -24.87314], [-70.55589, -24.8108], [-70.5559, -24.76588], [-70.57639, -24.7317], [-70.57639, -24.65326], [-70.5548, -24.60589], [-70.56542, -24.5617], [-70.57838, -24.54658], [-70.58283, -24.52507], [-70.56112, -24.48182], [-70.54192, -24.41523], [-70.55589, -24.36517], [-70.54162, -24.35149], [-70.54773, -24.32726], [-70.53288, -24.30573], [-70.53071, -24.27884], [-70.53424, -24.26079], [-70.53058, -24.24473], [-70.51366, -24.21445], [-70.51965, -24.20114], [-70.5061, -24.16738], [-70.51954, -24.12383], [-70.50942, -24.1222], [-70.50402, -24.11484], [-70.50032, -24.09743], [-70.50231, -24.06764], [-70.50841, -24.03769], [-70.52635, -23.99627], [-70.5006, -23.91269], [-70.51328, -23.85907], [-70.49446, -23.83758], [-70.49847, -23.78438], [-70.49445, -23.76874], [-70.48416, -23.75519], [-70.4392, -23.71404], [-70.42125, -23.68467], [-70.39411, -23.61435], [-70.39074, -23.57692], [-70.4043, -23.55187], [-70.41308, -23.51125], [-70.44051, -23.49265], [-70.49698, -23.46947], [-70.51224, -23.4805], [-70.52067, -23.50401], [-70.53253, -23.51658], [-70.53932, -23.53226], [-70.60583, -23.51065], [-70.62134, -23.53107], [-70.6316, -23.51704], [-70.62501, -23.47475], [-70.61387, -23.44721], [-70.60172, -23.44411], [-70.58507, -23.4236], [-70.59928, -23.4049], [-70.60461, -23.35749], [-70.59154, -23.32627], [-70.60079, -23.28172], [-70.60011, -23.24423], [-70.58609, -23.21328], [-70.5678, -23.20022], [-70.56284, -23.175], [-70.5722, -23.1552], [-70.56517, -23.13099], [-70.58067, -23.10832], [-70.5621, -23.05967], [-70.53697, -23.03282], [-70.50618, -23.01004], [-70.49353, -23.02663], [-70.5006, -23.0556], [-70.48439, -23.08603], [-70.46803, -23.09623], [-70.45075, -23.09708], [-70.42542, -23.08853], [-70.37286, -23.05087], [-70.35635, -23.02988], [-70.33715, -23.00262], [-70.32739, -22.95658], [-70.29703, -22.91774], [-70.29157, -22.90195], [-70.28775, -22.8681], [-70.31256, -22.79062], [-70.30199, -22.76198], [-70.3032, -22.74774], [-70.28112, -22.69524], [-70.28774, -22.66571], [-70.281, -22.65789], [-70.28774, -22.63161], [-70.28229, -22.6238], [-70.26968, -22.61956], [-70.26724, -22.60711], [-70.28082, -22.56596], [-70.24059, -22.48756], [-70.25421, -22.45664], [-70.24673, -22.38519], [-70.24819, -22.32757], [-70.2355, -22.29811], [-70.22289, -22.16237], [-70.22495, -22.14691], [-70.21117, -22.10174], [-70.21323, -22.08295], [-70.19848, -22.07513], [-70.18615, -22.04144], [-70.18529, -22.025], [-70.20009, -22.00555], [-70.19213, -22.00107], [-70.17789, -21.97308], [-70.18276, -21.96396], [-70.17162, -21.93206], [-70.17382, -21.91766], [-70.19211, -21.88438], [-70.15005, -21.86199], [-70.14607, -21.8117], [-70.15313, -21.75994], [-70.14436, -21.73349], [-70.14881, -21.72251], [-70.15021, -21.6535], [-70.13984, -21.63265], [-70.10364, -21.6087], [-70.09615, -21.59122], [-70.08715, -21.54564], [-70.0744, -21.53794], [-70.07142, -21.52256], [-70.0829, -21.48333], [-70.0617, -21.4503], [-70.0587, -21.43338], [-70.09271, -21.36513], [-70.09409, -21.34548], [-70.06867, -21.30584], [-70.07782, -21.26356], [-70.08682, -21.25505], [-70.08009, -21.23332], [-70.09517, -21.20316], [-70.0952, -21.18984], [-70.11025, -21.1737], [-70.11832, -21.14007], [-70.13071, -21.12395], [-70.12328, -21.11028], [-70.1273, -21.0892], [-70.16441, -21.04049], [-70.17128, -21.01458], [-70.16827, -20.99701], [-70.15025, -20.96302], [-70.13047, -20.94658], [-70.12746, -20.93527], [-70.14111, -20.91546], [-70.13657, -20.90068], [-70.14113, -20.88092], [-70.15401, -20.85621], [-70.19417, -20.81583], [-70.21383, -20.81158], [-70.1972, -20.80453], [-70.19042, -20.79178], [-70.20408, -20.7627], [-70.20562, -20.73956], [-70.19213, -20.7199], [-70.19213, -20.71307], [-70.20579, -20.70623], [-70.19563, -20.67694], [-70.1942, -20.64463], [-70.20579, -20.52809], [-70.1765, -20.49179], [-70.16669, -20.44807], [-70.17492, -20.40358], [-70.19212, -20.3668], [-70.18687, -20.35427], [-70.14574, -20.33041], [-70.13073, -20.26678], [-70.16485, -20.20875], [-70.16233, -20.19655], [-70.14965, -20.18906], [-70.14436, -20.17864], [-70.15118, -20.13763], [-70.12706, -20.09173], [-70.12328, -20.0722], [-70.13686, -20.0416], [-70.12328, -19.99993], [-70.14435, -19.89007], [-70.13687, -19.84905], [-70.15859, -19.81845], [-70.15859, -19.7907], [-70.14932, -19.73724], [-70.15119, -19.71941], [-70.18414, -19.62939], [-70.24252, -19.59821], [-70.21442, -19.59636], [-70.20275, -19.56902], [-70.19957, -19.53436], [-70.21398, -19.4611], [-70.22612, -19.4369], [-70.22631, -19.41082], [-70.24059, -19.3733], [-70.26601, -19.33473], [-70.26081, -19.3235], [-70.28774, -19.30095], [-70.28087, -19.26344], [-70.27956, -19.20452], [-70.26623, -19.1784], [-70.28086, -19.16041], [-70.2753, -19.13307], [-70.27742, -19.10898], [-70.31272, -19.0219], [-70.30896, -18.97147], [-70.32011, -18.94428], [-70.33016, -18.87921], [-70.34518, -18.83936], [-70.35657, -18.77357], [-70.34293, -18.73594], [-70.3429, -18.70802], [-70.33617, -18.67571], [-70.33922, -18.65398], [-70.35044, -18.63633], [-70.33525, -18.61758], [-70.33882, -18.57797], [-70.33428, -18.546], [-70.3225, -18.51336], [-70.32932, -18.47186], [-70.30637, -18.46056], [-70.30356, -18.44544], [-70.34948, -18.38318], [-70.41974, -18.31642], [-70.5622, -18.22448], [-70.68325, -18.16169], [-70.73338, -18.11549], [-70.74767, -18.09441], [-70.76817, -18.08814], [-70.82616, -18.03672], [-70.8435, -18.02662], [-70.87905, -18.01656], [-70.89166, -18.00562], [-70.91462, -17.94655], [-70.94489, -17.93157], [-71.00715, -17.89023], [-71.08657, -17.86906], [-71.13809, -17.82073], [-71.17289, -17.79649], [-71.20352, -17.76263], [-71.21923, -17.75156], [-71.26781, -17.7312], [-71.30456, -17.70599], [-71.3258, -17.69524], [-71.34691, -17.69101], [-71.38442, -17.69783], [-71.38515, -17.68727], [-71.364, -17.65618], [-71.35961, -17.63307], [-71.36842, -17.593], [-71.37768, -17.49236], [-71.39581, -17.43417], [-71.40026, -17.40032], [-71.4186, -17.38933], [-71.44591, -17.35516], [-71.4815, -17.33102], [-71.49771, -17.29713], [-71.51452, -17.2846], [-71.59308, -17.26555], [-71.64147, -17.23162], [-71.8078, -17.19125], [-71.84585, -17.17445], [-71.87791, -17.1491], [-71.9486, -17.0735], [-72.00308, -17.04258], [-72.04727, -17.02777], [-72.10993, -17.02312], [-72.11815, -17.01929], [-72.12352, -17.00937], [-72.12438, -16.97772], [-72.13805, -16.96478], [-72.17853, -16.94214], [-72.19726, -16.91644], [-72.2211, -16.90594], [-72.26895, -16.89518], [-72.29336, -16.88062], [-72.29735, -16.84352], [-72.30651, -16.82415], [-72.36221, -16.76133], [-72.38508, -16.7457], [-72.41397, -16.74129], [-72.44009, -16.71445], [-72.48803, -16.69036], [-72.52965, -16.68351], [-72.58776, -16.65936], [-72.69235, -16.66064], [-72.78132, -16.62932], [-72.88834, -16.55462], [-73.06024, -16.49487], [-73.09382, -16.46014], [-73.13763, -16.43872], [-73.17516, -16.41326], [-73.19254, -16.40716], [-73.2319, -16.40792], [-73.28014, -16.38836], [-73.29621, -16.39559], [-73.30467, -16.38193], [-73.31729, -16.34043], [-73.326, -16.33074], [-73.3651, -16.3199], [-73.42032, -16.29315], [-73.48201, -16.27883], [-73.59891, -16.23985], [-73.6762, -16.22787], [-73.70068, -16.24457], [-73.70028, -16.2207], [-73.73502, -16.19012], [-73.8429, -16.1465], [-74.00424, -16.03692], [-74.03281, -16.0123], [-74.0279, -15.9888], [-74.04662, -15.96014], [-74.16169, -15.90106], [-74.22061, -15.89128], [-74.23692, -15.88103], [-74.25016, -15.86614], [-74.25336, -15.85573], [-74.26574, -15.84766], [-74.28995, -15.8396], [-74.32794, -15.84804], [-74.39801, -15.82686], [-74.44639, -15.79224], [-74.46307, -15.72672], [-74.53855, -15.70254], [-74.68079, -15.6421], [-74.75122, -15.60464], [-74.84755, -15.56629], [-74.86864, -15.53805], [-74.97891, -15.48246], [-75.00642, -15.4612], [-75.01989, -15.45713], [-75.04869, -15.4607], [-75.10611, -15.40862], [-75.16079, -15.39332], [-75.16698, -15.37762], [-75.18941, -15.36954], [-75.19098, -15.3621], [-75.17581, -15.35172], [-75.15542, -15.34642], [-75.15164, -15.33299], [-75.16686, -15.31129], [-75.19595, -15.29363], [-75.23643, -15.27678], [-75.26315, -15.25043], [-75.2438, -15.2514], [-75.23278, -15.24578], [-75.22842, -15.23577], [-75.23412, -15.21453], [-75.28962, -15.16107], [-75.30956, -15.15203], [-75.3618, -15.14478], [-75.37645, -15.13404], [-75.39415, -15.09393], [-75.44102, -15.02776], [-75.44811, -15.00799], [-75.4558, -14.99814], [-75.50275, -14.96363], [-75.50276, -14.92547], [-75.50658, -14.91823], [-75.55065, -14.88494], [-75.6807, -14.82092], [-75.74833, -14.77098], [-75.7982, -14.74732], [-75.80997, -14.73699], [-75.83942, -14.72632], [-75.86677, -14.68955], [-75.91588, -14.66382], [-75.93064, -14.64934], [-75.92729, -14.62683], [-75.93277, -14.58002], [-75.96328, -14.53476], [-75.97342, -14.52873], [-75.9765, -14.51739], [-75.96483, -14.49249], [-75.98064, -14.4611], [-76.03717, -14.42929], [-76.08186, -14.3777], [-76.11679, -14.37064], [-76.1332, -14.35963], [-76.14354, -14.3279], [-76.11611, -14.32487], [-76.10828, -14.31574], [-76.10671, -14.30586], [-76.14916, -14.22389], [-76.18113, -14.21062], [-76.20226, -14.16855], [-76.21544, -14.16123], [-76.24994, -14.14781], [-76.25158, -14.1698], [-76.27119, -14.20091], [-76.29042, -14.16741], [-76.28206, -14.14092], [-76.28281, -14.1037], [-76.29172, -14.08099], [-76.2812, -14.07331], [-76.28086, -14.05739], [-76.26791, -14.04972], [-76.27417, -14.03904], [-76.26945, -14.02006], [-76.27886, -14.0086], [-76.28456, -13.99164], [-76.27281, -13.9874], [-76.27044, -13.9625], [-76.27743, -13.9451], [-76.2953, -13.93449], [-76.29783, -13.92213], [-76.29271, -13.90049], [-76.29784, -13.89422], [-76.30846, -13.89178], [-76.31505, -13.89666], [-76.31786, -13.9127], [-76.32486, -13.92099], [-76.3373, -13.91645], [-76.3544, -13.91943], [-76.37303, -13.90883], [-76.39395, -13.90801], [-76.39109, -13.86786], [-76.37759, -13.83589], [-76.36671, -13.82202], [-76.37135, -13.80918], [-76.36201, -13.80165], [-76.34413, -13.80545], [-76.32575, -13.7912], [-76.29591, -13.79345], [-76.29048, -13.80477], [-76.3006, -13.8191], [-76.30295, -13.83269], [-76.26177, -13.86143], [-76.25398, -13.85087], [-76.25312, -13.8295], [-76.22432, -13.73387], [-76.22133, -13.68662], [-76.19815, -13.62249], [-76.18126, -13.53948], [-76.18786, -13.46494], [-76.19603, -13.42815], [-76.2211, -13.35756], [-76.27428, -13.28729], [-76.30707, -13.25689], [-76.45095, -13.07171], [-76.48334, -13.03629], [-76.49095, -13.01208], [-76.50547, -12.99016], [-76.51646, -12.94615], [-76.51167, -12.91082], [-76.51623, -12.86992], [-76.54231, -12.83196], [-76.61106, -12.77434], [-76.63003, -12.75066], [-76.68178, -12.65537], [-76.68147, -12.61932], [-76.73618, -12.55241], [-76.79907, -12.50934], [-76.81174, -12.48268], [-76.79113, -12.45672], [-76.78243, -12.41921], [-76.79089, -12.38105], [-76.82542, -12.35247], [-76.85365, -12.30264], [-76.94896, -12.2501], [-77.00626, -12.22633], [-77.01719, -12.22575], [-77.03811, -12.20455], [-77.04694, -12.18076], [-77.03832, -12.15374], [-77.05394, -12.11419], [-77.08898, -12.08896], [-77.13288, -12.07578], [-77.1749, -12.07186], [-77.14509, -12.02305], [-77.14074, -11.9992], [-77.1459, -11.93206], [-77.16186, -11.87949], [-77.18177, -11.84565], [-77.18723, -11.82529], [-77.18144, -11.80058], [-77.19636, -11.77682], [-77.19633, -11.76785], [-77.17798, -11.77037], [-77.16706, -11.75654], [-77.17109, -11.73614], [-77.19541, -11.69134], [-77.19982, -11.6701], [-77.21093, -11.64642], [-77.22545, -11.62721], [-77.25299, -11.61483], [-77.26434, -11.60412], [-77.28473, -11.57537], [-77.27774, -11.56585], [-77.28189, -11.54949], [-77.29897, -11.52995], [-77.32047, -11.49375], [-77.34031, -11.48592], [-77.36046, -11.46111], [-77.4208, -11.43075], [-77.45336, -11.40374], [-77.60851, -11.32244], [-77.64725, -11.29231], [-77.64485, -11.2799], [-77.65208, -11.237], [-77.64513, -11.23082], [-77.64796, -11.22235], [-77.63985, -11.21394], [-77.61856, -11.21631], [-77.5978, -11.20684], [-77.59368, -11.19107], [-77.59468, -11.16512], [-77.61859, -11.12719], [-77.61276, -11.1154], [-77.63336, -11.09269], [-77.62869, -11.08257], [-77.63897, -11.06498], [-77.63432, -11.05656], [-77.64287, -11.03728], [-77.66129, -11.01446], [-77.64681, -10.99648], [-77.66437, -10.96026], [-77.66314, -10.9473], [-77.67054, -10.92752], [-77.71154, -10.86803], [-77.70917, -10.85225], [-77.75315, -10.81576], [-77.75304, -10.80109], [-77.7478, -10.79207], [-77.76487, -10.76885], [-77.76368, -10.76152], [-77.80767, -10.72404], [-77.8192, -10.70135], [-77.84849, -10.67375], [-77.91196, -10.56639], [-77.90957, -10.55511], [-77.92259, -10.53078], [-77.96848, -10.49391], [-77.9663, -10.47807], [-77.97716, -10.45598], [-78.01097, -10.41277], [-78.01292, -10.40326], [-78.00483, -10.39375], [-78.00643, -10.38248], [-78.05579, -10.34752], [-78.05817, -10.30191], [-78.08554, -10.27742], [-78.0955, -10.24067], [-78.09073, -10.22884], [-78.10493, -10.20113], [-78.16659, -10.1414], [-78.18232, -10.11084], [-78.18283, -10.10069], [-78.16797, -10.09342], [-78.16961, -10.08097], [-78.1787, -10.06904], [-78.17794, -10.04251], [-78.19389, -10.02087], [-78.19798, -9.99739], [-78.21507, -9.96286], [-78.23462, -9.95254], [-78.2363, -9.94689], [-78.22874, -9.93566], [-78.22992, -9.90073], [-78.24159, -9.87597], [-78.24325, -9.85894], [-78.23888, -9.83873], [-78.22989, -9.82504], [-78.22942, -9.79378], [-78.2687, -9.75879], [-78.30111, -9.72191], [-78.30754, -9.69841], [-78.32442, -9.68098], [-78.33246, -9.66296], [-78.36989, -9.61543], [-78.37443, -9.58478], [-78.36807, -9.55693], [-78.38703, -9.54671], [-78.39002, -9.51617], [-78.39939, -9.50188], [-78.4059, -9.47772], [-78.38508, -9.45143], [-78.39321, -9.43538], [-78.40629, -9.43521], [-78.42715, -9.41953], [-78.4316, -9.39242], [-78.42872, -9.37607], [-78.41475, -9.36213], [-78.4257, -9.35797], [-78.44297, -9.34091], [-78.4486, -9.32822], [-78.46133, -9.3235], [-78.48395, -9.33024], [-78.50648, -9.30503], [-78.50968, -9.28442], [-78.52671, -9.26963], [-78.50875, -9.25587], [-78.49728, -9.25331], [-78.4897, -9.23345], [-78.48819, -9.21354], [-78.49741, -9.18954], [-78.51615, -9.17809], [-78.53566, -9.17257], [-78.55856, -9.18373], [-78.56192, -9.19172], [-78.55736, -9.19969], [-78.55312, -9.24417], [-78.56444, -9.24078], [-78.57767, -9.21345], [-78.61114, -9.17652], [-78.61039, -9.16589], [-78.61438, -9.16053], [-78.60964, -9.15593], [-78.57057, -9.16833], [-78.55969, -9.14843], [-78.55945, -9.12819], [-78.56803, -9.10422], [-78.59203, -9.07744], [-78.62372, -9.07917], [-78.63254, -9.07227], [-78.6417, -9.0562], [-78.64021, -9.03983], [-78.62851, -9.01334], [-78.63719, -9.00462], [-78.66137, -8.99576], [-78.66195, -8.98514], [-78.65387, -8.98719], [-78.64909, -8.98059], [-78.64891, -8.95865], [-78.65477, -8.93333], [-78.682, -8.88252], [-78.76429, -8.77511], [-78.76208, -8.75651], [-78.74305, -8.74002], [-78.74075, -8.71146], [-78.74524, -8.68818], [-78.74308, -8.67291], [-78.75933, -8.60833], [-78.81973, -8.52825], [-78.85924, -8.49131], [-78.88195, -8.47454], [-78.91331, -8.46249], [-78.94025, -8.43552], [-78.93479, -8.42296], [-78.91933, -8.42711], [-78.90656, -8.4179], [-78.90212, -8.37676], [-78.96368, -8.2867], [-78.96549, -8.26476], [-78.98994, -8.23198], [-78.98574, -8.21742], [-79.01836, -8.18056], [-79.12421, -8.08965], [-79.12466, -8.06507], [-79.29986, -7.93849], [-79.35152, -7.88093], [-79.38394, -7.83399], [-79.3957, -7.79243], [-79.46593, -7.71593], [-79.46116, -7.70868], [-79.44905, -7.70481], [-79.43684, -7.69363], [-79.43529, -7.67439], [-79.48425, -7.59349], [-79.5825, -7.46363], [-79.58875, -7.41152], [-79.57794, -7.39978], [-79.57376, -7.38654], [-79.59667, -7.33109], [-79.59578, -7.3125], [-79.61276, -7.26639], [-79.697, -7.17801], [-79.68909, -7.13091], [-79.70824, -7.10678], [-79.8661, -6.94991], [-79.87748, -6.92898], [-79.93154, -6.88347], [-79.94537, -6.85202], [-79.94902, -6.82009], [-79.96468, -6.78735], [-79.9884, -6.75785], [-80.00455, -6.7409], [-80.11892, -6.65061], [-80.2981, -6.54445], [-80.79052, -6.29968], [-80.85313, -6.2395], [-80.92607, -6.18939], [-81.01413, -6.13889], [-81.1013, -6.07219], [-81.1308, -6.03455], [-81.15141, -5.97587], [-81.15021, -5.88308], [-81.13148, -5.86752], [-81.11885, -5.83992], [-81.09634, -5.83856], [-81.08579, -5.81551]]], [[[-76.22031, -14.27466], [-76.2203, -14.26328], [-76.21247, -14.25949], [-76.19524, -14.2633], [-76.18584, -14.28305], [-76.17567, -14.28838], [-76.17959, -14.2952], [-76.19134, -14.29291], [-76.22031, -14.27466]]], [[[-76.44166, -13.85396], [-76.47024, -13.85385], [-76.46769, -13.84176], [-76.45913, -13.83347], [-76.45682, -13.82292], [-76.44599, -13.8237], [-76.44367, -13.83049], [-76.4367, -13.83353], [-76.44166, -13.85396]]], [[[-77.24411, -12.05889], [-77.19402, -12.09988], [-77.18156, -12.1159], [-77.20439, -12.11488], [-77.23666, -12.09334], [-77.25365, -12.06349], [-77.24411, -12.05889]]], [[[-80.86383, -6.47583], [-80.86743, -6.46652], [-80.86358, -6.45638], [-80.86709, -6.44058], [-80.87537, -6.43305], [-80.86732, -6.42237], [-80.85313, -6.375], [-80.84298, -6.38161], [-80.85543, -6.40553], [-80.84176, -6.42889], [-80.8396, -6.47524], [-80.86383, -6.47583]]], [[[-80.13557, -2.69695], [-80.05969, -2.66278], [-80.01452, -2.66425], [-79.94579, -2.70664], [-79.90283, -2.71747], [-79.90722, -2.73235], [-79.91674, -2.74502], [-79.92765, -2.75416], [-79.97794, -2.77581], [-79.98112, -2.7846], [-79.99519, -2.79803], [-80.01269, -2.83416], [-80.0231, -2.84303], [-80.03371, -2.86123], [-80.06494, -2.92424], [-80.08115, -2.93085], [-80.09437, -2.94586], [-80.09377, -2.96926], [-80.109, -2.98358], [-80.13104, -3.02091], [-80.16682, -3.01735], [-80.20373, -3.0341], [-80.25157, -3.02604], [-80.26593, -3.01848], [-80.27179, -2.99664], [-80.2658, -2.96095], [-80.26221, -2.84111], [-80.25872, -2.82759], [-80.22496, -2.76531], [-80.21067, -2.72487], [-80.1966, -2.71476], [-80.13557, -2.69695]]], [[[-79.8287, -2.59205], [-79.83325, -2.63601], [-79.85751, -2.65117], [-79.87723, -2.64967], [-79.88179, -2.62694], [-79.85671, -2.5596], [-79.81964, -2.48593], [-79.80901, -2.51168], [-79.78473, -2.52078], [-79.77258, -2.54199], [-79.79381, -2.57383], [-79.8287, -2.59205]]]]}}]}