{"type": "FeatureCollection", "features": [{"type": "Feature", "properties": {"map_title": "아시리아와 아케메네스 왕조 페르시아의 영역", "source": "미래엔 세계사 교과서 1권 40쪽", "volume": 1, "page": 40, "name": "아시리아", "name_en": "Neo-Assyrian Empire", "period": "기원전 7세기 전반(최대)", "kind": "국가", "legend": "아시리아의 최대 영역", "coast_snap": "Natural Earth 10m 해안선에 맞춤", "border_snap": "현대 국경(Natural Earth 10m)에 맞춘 구간 약 612 km"}, "geometry": {"type": "MultiPolygon", "coordinates": [[[[36.04704, 22.72611], [36.04209, 22.72087], [36.03835, 22.73717], [36.05593, 22.76072], [36.06624, 22.76689], [36.0617, 22.7554], [36.06665, 22.72815], [36.0616, 22.72999], [36.05568, 22.74327], [36.0433, 22.73188], [36.04704, 22.72611]]], [[[35.71834, 23.19863], [35.71923, 23.19183], [35.68809, 23.20963], [35.67384, 23.2248], [35.6635, 23.22606], [35.66082, 23.22099], [35.63648, 23.22789], [35.62517, 23.22634], [35.60882, 23.21145], [35.60076, 23.21621], [35.61929, 23.20207], [35.58969, 23.21105], [35.59042, 23.21629], [35.5822, 23.22663], [35.64031, 23.23224], [35.6482, 23.23667], [35.67685, 23.23037], [35.69615, 23.23674], [35.70409, 23.22098], [35.69907, 23.22386], [35.69793, 23.22045], [35.71834, 23.19863]]], [[[33.9896, 26.72029], [33.95509, 26.79003], [33.97535, 26.79006], [34.00286, 26.73185], [34.00358, 26.70822], [33.9896, 26.72029]]], [[[34.00709, 27.47606], [33.97633, 27.48724], [33.95631, 27.50438], [33.93358, 27.49483], [33.9245, 27.50142], [33.9136, 27.52371], [33.92558, 27.5342], [33.96412, 27.53411], [33.99391, 27.51431], [34.02848, 27.50201], [34.03842, 27.46662], [34.05127, 27.45482], [34.05127, 27.44865], [34.0311, 27.45149], [34.00709, 27.47606]]], [[[34.51189, 27.96747], [34.52882, 27.96589], [34.57273, 27.97217], [34.50949, 27.9402], [34.49636, 27.95515], [34.49781, 27.96874], [34.48953, 27.99604], [34.49323, 28.00095], [34.49635, 27.99604], [34.5049, 28.00991], [34.51734, 28.01654], [34.54063, 28.00294], [34.54418, 27.99605], [34.50685, 27.98623], [34.50318, 27.97557], [34.51189, 27.96747]]], [[[32.97706, 31.09125], [32.98308, 31.08991], [32.98922, 31.07365], [32.97511, 31.08649], [32.96974, 31.08657], [32.97706, 31.09125]]], [[[33.27004, 31.21675], [33.30111, 31.21588], [33.35255, 31.19489], [33.40601, 31.18446], [33.43295, 31.17206], [33.47584, 31.1418], [33.45436, 31.15469], [33.29868, 31.2128], [33.27004, 31.21675]]], [[[33.10255, 31.22675], [33.07643, 31.21874], [32.9559, 31.16315], [32.93476, 31.14796], [32.94647, 31.16327], [33.0669, 31.21743], [33.10475, 31.24029], [33.26245, 31.22361], [33.25611, 31.21932], [33.2435, 31.21932], [33.15309, 31.23176], [33.11899, 31.22363], [33.10255, 31.22675]]], [[[36.63103, 22.25214], [36.63747, 22.27692], [36.64893, 22.28143], [36.65168, 22.27784], [36.6443, 22.27322], [36.66146, 22.2615], [36.65992, 22.24439], [36.65805, 22.25491], [36.63103, 22.25214]]], [[[36.20086, 22.65168], [36.18531, 22.67292], [36.17025, 22.6838], [36.19434, 22.68532], [36.20678, 22.65986], [36.20086, 22.65168]]], [[[36.21795, 22.7934], [36.214, 22.81356], [36.2238, 22.80259], [36.22185, 22.79267], [36.25014, 22.78949], [36.20656, 22.7843], [36.19683, 22.79091], [36.21795, 22.7934]]], [[[48.31687, 29.42701], [48.26925, 29.4297], [48.27004, 29.45596], [48.2811, 29.47109], [48.2965, 29.4729], [48.35359, 29.45752], [48.37321, 29.44305], [48.3891, 29.42464], [48.39945, 29.39764], [48.39735, 29.38751], [48.37302, 29.39393], [48.33593, 29.42059], [48.31687, 29.42701]]], [[[48.08516, 29.87988], [48.09507, 29.89471], [48.10922, 29.89361], [48.13356, 29.87987], [48.1587, 29.87922], [48.16652, 29.88593], [48.16083, 29.90155], [48.1937, 29.91645], [48.19744, 29.92536], [48.18133, 29.93513], [48.16993, 29.93647], [48.15675, 29.93115], [48.14724, 29.93513], [48.14045, 29.95195], [48.14039, 29.96979], [48.12274, 29.96968], [48.11673, 29.97407], [48.13356, 29.98968], [48.16212, 29.99566], [48.18889, 29.98335], [48.34448, 29.79059], [48.35954, 29.75446], [48.3527, 29.70979], [48.33382, 29.67927], [48.3032, 29.64535], [48.26628, 29.61596], [48.22901, 29.59993], [48.18605, 29.60393], [48.16163, 29.62971], [48.12672, 29.70234], [48.08513, 29.76781], [48.07374, 29.77969], [48.05373, 29.79003], [48.04609, 29.80044], [48.10955, 29.83332], [48.11329, 29.8391], [48.11915, 29.8736], [48.08516, 29.87988]]], [[[48.10919, 30.02798], [48.10612, 30.01765], [48.07887, 30.00406], [48.05835, 29.98356], [48.02347, 29.96999], [48.01077, 29.98046], [48.0093, 29.98688], [48.0547, 30.02448], [48.10919, 30.02798]]], [[[29.61889, 31.02942], [29.76596, 31.12157], [29.78151, 31.14792], [29.80934, 31.14232], [29.83839, 31.15412], [29.88461, 31.18952], [29.87566, 31.20087], [29.86356, 31.19637], [29.87697, 31.21356], [29.88477, 31.21376], [29.89088, 31.20319], [29.8982, 31.20319], [29.95623, 31.25006], [29.98316, 31.26325], [30.0033, 31.28723], [30.02508, 31.29487], [30.04908, 31.31306], [30.04169, 31.31548], [30.04226, 31.3205], [30.06958, 31.33346], [30.06666, 31.30488], [30.0949, 31.28559], [30.136, 31.27485], [30.17262, 31.27143], [30.1447, 31.25161], [30.14405, 31.24657], [30.15209, 31.24413], [30.14015, 31.23725], [30.14373, 31.22948], [30.16521, 31.21678], [30.20678, 31.23792], [30.20167, 31.22651], [30.2072, 31.22089], [30.22047, 31.2202], [30.25457, 31.25161], [30.2614, 31.24413], [30.26881, 31.26529], [30.27506, 31.26529], [30.27662, 31.2464], [30.28875, 31.23794], [30.30299, 31.27143], [30.28761, 31.27822], [30.24091, 31.2653], [30.2409, 31.27143], [30.25457, 31.27143], [30.25457, 31.27827], [30.23846, 31.27399], [30.17946, 31.27144], [30.17945, 31.27823], [30.21656, 31.28644], [30.25172, 31.30341], [30.31284, 31.35057], [30.33448, 31.38101], [30.3484, 31.42133], [30.35239, 31.4632], [30.34394, 31.49798], [30.35076, 31.49799], [30.36459, 31.46011], [30.37843, 31.44668], [30.39861, 31.44334], [30.37062, 31.46162], [30.35572, 31.49112], [30.36216, 31.50872], [30.42563, 31.47362], [30.45639, 31.46271], [30.49252, 31.45921], [30.53582, 31.46385], [30.67652, 31.49616], [30.97389, 31.58672], [30.97388, 31.57991], [30.86638, 31.54828], [30.7361, 31.48871], [30.69337, 31.46386], [30.66603, 31.45702], [30.6281, 31.43432], [30.55787, 31.42219], [30.54265, 31.40241], [30.54265, 31.39496], [30.56324, 31.3902], [30.58323, 31.39497], [30.59864, 31.38736], [30.62672, 31.38866], [30.65382, 31.39582], [30.66603, 31.4055], [30.67507, 31.42156], [30.69507, 31.41689], [30.72755, 31.38813], [30.73439, 31.38813], [30.74074, 31.4055], [30.75621, 31.42299], [30.77467, 31.43683], [30.79851, 31.44647], [30.83741, 31.42914], [30.87371, 31.43451], [30.88574, 31.42914], [30.87843, 31.42699], [30.87892, 31.42227], [30.89243, 31.41909], [30.90943, 31.42381], [30.93971, 31.44334], [30.93329, 31.44514], [30.93971, 31.457], [30.97396, 31.44407], [30.98072, 31.43651], [30.99692, 31.45112], [31.00807, 31.47134], [31.00231, 31.47984], [31.02174, 31.49799], [31.0233, 31.51382], [31.02915, 31.51849], [31.07154, 31.51724], [31.09742, 31.50483], [31.10157, 31.4925], [31.11915, 31.49311], [31.12924, 31.50446], [31.11111, 31.51227], [31.13038, 31.51699], [31.11109, 31.53974], [31.07081, 31.56537], [31.0232, 31.58299], [30.97804, 31.5843], [31.01238, 31.5969], [31.09742, 31.60789], [31.12892, 31.60486], [31.22124, 31.57979], [31.37831, 31.51861], [31.41961, 31.49116], [31.52369, 31.44965], [31.55681, 31.44334], [31.59742, 31.44449], [31.7483, 31.48159], [31.83791, 31.52533], [31.87436, 31.53558], [31.91293, 31.53489], [31.94483, 31.52093], [31.9642, 31.48241], [31.99577, 31.44574], [32.00904, 31.41718], [32.02491, 31.40005], [32.05698, 31.37515], [32.10425, 31.36147], [32.12916, 31.33739], [32.19953, 31.29509], [32.16876, 31.30083], [32.07011, 31.35399], [32.08009, 31.35399], [32.09059, 31.34715], [32.08351, 31.35883], [32.05601, 31.36287], [32.04396, 31.37515], [32.0066, 31.39533], [31.99498, 31.39498], [31.98569, 31.42036], [31.9683, 31.4365], [31.9935, 31.43781], [31.91798, 31.52399], [31.8895, 31.53205], [31.87891, 31.51851], [31.86525, 31.52534], [31.86523, 31.51228], [31.85092, 31.5185], [31.84474, 31.49799], [31.86523, 31.49799], [31.85971, 31.48688], [31.875, 31.46332], [31.87208, 31.44961], [31.8789, 31.44961], [31.8789, 31.44335], [31.87208, 31.44334], [31.8789, 31.42915], [31.87208, 31.42914], [31.86207, 31.45059], [31.8519, 31.45612], [31.8379, 31.45702], [31.84165, 31.4645], [31.83041, 31.45881], [31.82423, 31.44334], [31.83375, 31.44379], [31.8379, 31.44961], [31.85841, 31.44334], [31.85841, 31.43651], [31.85092, 31.43651], [31.85483, 31.42316], [31.8789, 31.41608], [31.86166, 31.40763], [31.8379, 31.41608], [31.83855, 31.41083], [31.83041, 31.40864], [31.84472, 31.39497], [31.83074, 31.37979], [31.82789, 31.36835], [31.83692, 31.36188], [31.8584, 31.36147], [31.8584, 31.354], [31.82504, 31.36066], [31.81056, 31.354], [31.80388, 31.36005], [31.79721, 31.35952], [31.79021, 31.34345], [31.80273, 31.33129], [31.79021, 31.32665], [31.79589, 31.31099], [31.76905, 31.29877], [31.76694, 31.28465], [31.7732, 31.27586], [31.78419, 31.27338], [31.7964, 31.27827], [31.79023, 31.28509], [31.82079, 31.27815], [31.82861, 31.27411], [31.83416, 31.25161], [31.86101, 31.24237], [31.88575, 31.22362], [31.89355, 31.24013], [31.90624, 31.25159], [31.90064, 31.23607], [31.90625, 31.22362], [31.89259, 31.22362], [31.89259, 31.21678], [31.90624, 31.21678], [31.89845, 31.20991], [31.89943, 31.20319], [31.91293, 31.21064], [31.91977, 31.20319], [31.91977, 31.21063], [31.9266, 31.21063], [31.92164, 31.19648], [31.92644, 31.187], [31.93474, 31.18757], [31.94027, 31.20318], [31.95192, 31.20458], [31.98658, 31.23028], [32.00925, 31.22362], [31.99497, 31.22362], [31.99497, 31.21678], [32.00929, 31.21064], [32.0228, 31.22361], [32.03711, 31.21678], [32.02963, 31.18952], [32.04394, 31.19635], [32.04036, 31.18232], [32.02963, 31.17585], [32.03688, 31.1503], [32.01612, 31.13491], [32.01612, 31.12808], [32.03517, 31.12971], [32.04396, 31.14175], [32.05013, 31.14174], [32.05454, 31.12299], [32.07007, 31.1144], [32.07007, 31.10693], [32.05258, 31.10078], [32.04396, 31.08649], [32.05698, 31.07966], [32.06683, 31.08499], [32.08378, 31.0844], [32.09059, 31.07966], [32.09059, 31.07345], [32.08375, 31.07343], [32.08375, 31.06599], [32.10646, 31.05337], [32.1198, 31.05292], [32.13209, 31.0598], [32.13209, 31.06599], [32.11744, 31.06631], [32.10744, 31.07283], [32.098, 31.09332], [32.14633, 31.07966], [32.13837, 31.09332], [32.15943, 31.09333], [32.15943, 31.10078], [32.15286, 31.10659], [32.16627, 31.11439], [32.16684, 31.10834], [32.17994, 31.10692], [32.17604, 31.11781], [32.18386, 31.12493], [32.19483, 31.12579], [32.20574, 31.1092], [32.23414, 31.10488], [32.24822, 31.10692], [32.27223, 31.11888], [32.28346, 31.13654], [32.28053, 31.15498], [32.26249, 31.16961], [32.28981, 31.16962], [32.2951, 31.21337], [32.28981, 31.23046], [32.27297, 31.24885], [32.27053, 31.25755], [32.28297, 31.26529], [32.24676, 31.27924], [32.22633, 31.28205], [32.21413, 31.27828], [32.20705, 31.29506], [32.30023, 31.28148], [32.31381, 31.27269], [32.33138, 31.27142], [32.33383, 31.25471], [32.34425, 31.24189], [32.35914, 31.23347], [32.39009, 31.22635], [32.42018, 31.19636], [32.4812, 31.14886], [32.50953, 31.10692], [32.56568, 31.07054], [32.60157, 31.06098], [32.64552, 31.0598], [32.68751, 31.06444], [32.76197, 31.0812], [32.85076, 31.1188], [32.92042, 31.15541], [32.92726, 31.15541], [32.92726, 31.14794], [32.89536, 31.1374], [32.8396, 31.10123], [32.80714, 31.09333], [32.75245, 31.07137], [32.66651, 31.05231], [32.715, 31.05231], [32.71502, 31.04556], [32.70069, 31.03872], [32.73129, 31.03876], [32.74285, 31.04263], [32.74921, 31.05231], [32.75537, 31.0523], [32.7562, 31.04654], [32.76954, 31.04556], [32.83107, 31.07965], [32.88282, 31.09357], [32.89308, 31.10076], [32.91774, 31.09223], [32.9144, 31.08731], [32.90675, 31.08649], [32.90675, 31.07966], [32.91725, 31.08283], [32.94093, 31.09333], [32.94093, 31.10078], [32.91359, 31.10078], [32.9136, 31.10691], [32.92709, 31.11179], [32.94421, 31.10778], [32.95948, 31.09846], [32.96876, 31.08649], [32.97511, 31.06599], [32.96127, 31.06599], [32.99448, 31.05557], [33.00994, 31.0563], [33.02345, 31.06599], [33.02345, 31.07343], [33.00914, 31.07966], [33.00914, 31.0865], [33.05746, 31.10078], [33.05251, 31.1083], [33.0643, 31.13491], [33.05746, 31.13491], [33.03028, 31.11441], [33.02377, 31.10773], [33.03027, 31.10077], [32.99415, 31.09846], [32.95446, 31.10691], [32.98463, 31.10952], [33.03029, 31.16217], [33.07862, 31.17585], [33.09784, 31.19155], [33.10939, 31.19643], [33.12646, 31.19635], [33.12646, 31.18953], [33.09864, 31.18952], [33.09864, 31.18329], [33.1111, 31.17536], [33.15771, 31.11787], [33.15357, 31.11238], [33.12647, 31.10078], [33.12403, 31.10757], [33.11899, 31.10692], [33.11899, 31.10078], [33.13574, 31.09076], [33.14469, 31.07786], [33.1443, 31.06257], [33.13331, 31.04556], [33.18767, 31.06167], [33.22145, 31.0598], [33.22145, 31.06599], [33.20777, 31.07343], [33.20094, 31.07343], [33.20094, 31.06598], [33.19483, 31.06599], [33.19485, 31.07342], [33.2479, 31.09125], [33.26247, 31.10077], [33.26979, 31.10078], [33.26246, 31.09333], [33.26979, 31.08649], [33.28541, 31.09272], [33.29656, 31.07966], [33.30397, 31.07966], [33.30323, 31.0998], [33.31764, 31.10078], [33.30812, 31.10513], [33.27723, 31.10691], [33.38648, 31.11441], [33.37771, 31.13255], [33.40642, 31.13727], [33.40644, 31.15542], [33.42066, 31.14794], [33.44093, 31.15119], [33.49952, 31.12808], [33.57252, 31.12156], [33.59205, 31.11441], [33.59206, 31.12127], [33.61476, 31.11538], [33.64796, 31.11726], [33.85434, 31.16348], [34.04705, 31.22919], [34.22267, 31.32665], [34.28142, 31.3767], [34.30162, 31.40769], [34.3484, 31.43765], [34.36818, 31.46816], [34.44337, 31.53457], [34.47877, 31.57827], [34.48952, 31.6004], [34.51393, 31.62714], [34.60963, 31.76553], [34.69313, 31.92631], [34.71193, 31.95161], [34.74334, 32.03986], [34.74335, 32.06036], [34.75701, 32.0666], [34.83766, 32.28071], [34.9041, 32.56042], [34.90984, 32.57026], [34.92091, 32.62824], [34.91914, 32.64297], [34.94207, 32.72451], [34.94753, 32.81415], [34.9555, 32.83418], [34.97047, 32.84137], [35.00343, 32.82754], [35.02768, 32.82661], [35.06707, 32.86685], [35.0796, 32.90583], [35.07781, 32.91787], [35.06545, 32.92309], [35.07154, 32.93793], [35.07843, 32.99857], [35.0962, 33.05036], [35.09215, 33.06769], [35.10646, 33.08076], [35.09963, 33.08759], [35.10523, 33.08902], [35.10646, 33.09504], [35.10046, 33.09567], [35.09963, 33.10126], [35.12532, 33.13237], [35.14763, 33.14033], [35.16782, 33.17015], [35.16181, 33.17694], [35.17107, 33.17658], [35.17465, 33.17015], [35.20476, 33.2248], [35.20916, 33.25462], [35.18834, 33.28001], [35.20973, 33.2934], [35.22478, 33.312], [35.24366, 33.3557], [35.25051, 33.40973], [35.27508, 33.44497], [35.27102, 33.4575], [35.32301, 33.49091], [35.34913, 33.51386], [35.36258, 33.55657], [35.40064, 33.64313], [35.3944, 33.64997], [35.40992, 33.66128], [35.42165, 33.70233], [35.43849, 33.71137], [35.43795, 33.7236], [35.47731, 33.8039], [35.48325, 33.87246], [35.47048, 33.90208], [35.47585, 33.90997], [35.48658, 33.91298], [35.51735, 33.90253], [35.57203, 33.90998], [35.59311, 33.94477], [35.59197, 33.95043], [35.58572, 33.95092], [35.6134, 33.99296], [35.63673, 33.99531], [35.64088, 33.99942], [35.64039, 34.00853], [35.62722, 34.01985], [35.62698, 34.04426], [35.64332, 34.08808], [35.64772, 34.11913], [35.63033, 34.15305], [35.62722, 34.20112], [35.64772, 34.22215], [35.65296, 34.28459], [35.66522, 34.31134], [35.68873, 34.3283], [35.70582, 34.3166], [35.75075, 34.38979], [35.80616, 34.41498], [35.82358, 34.43452], [35.80544, 34.45869], [35.80544, 34.4649], [35.82399, 34.46084], [35.90333, 34.47797], [35.98316, 34.53864], [35.98878, 34.55272], [35.98683, 34.6208], [35.93118, 34.74096], [35.92897, 34.79072], [35.90847, 34.82177], [35.86689, 34.92422], [35.8729, 34.92691], [35.88136, 34.94497], [35.87356, 34.95832], [35.87892, 34.97016], [35.87356, 34.97883], [35.89536, 35.00678], [35.90056, 35.02192], [35.88788, 35.06135], [35.88788, 35.1092], [35.9411, 35.18037], [35.96241, 35.19794], [35.9533, 35.2248], [35.91531, 35.28791], [35.92897, 35.32148], [35.91671, 35.40306], [35.91896, 35.41767], [35.86061, 35.47907], [35.8301, 35.49348], [35.81837, 35.50894], [35.78126, 35.49959], [35.77053, 35.50422], [35.77809, 35.54116], [35.73709, 35.56168], [35.74334, 35.5821], [35.7234, 35.57614], [35.72341, 35.58209], [35.76336, 35.59829], [35.77849, 35.61274], [35.78435, 35.63056], [35.77118, 35.66779], [35.77663, 35.67511], [35.80006, 35.68146], [35.84034, 35.74746], [35.83595, 35.78998], [35.81186, 35.83539], [35.79862, 35.84967], [35.84685, 35.84723], [35.87086, 35.85179], [35.88103, 35.86668], [35.88528, 35.88597], [35.96608, 35.99363], [35.97674, 36.00096], [35.97543, 36.0185], [35.94842, 36.08784], [35.85234, 36.21336], [35.84099, 36.24453], [35.79861, 36.28169], [35.78738, 36.30427], [35.78873, 36.32002], [35.82448, 36.36106], [35.85678, 36.36978], [35.87356, 36.39769], [35.90846, 36.41816], [35.91872, 36.44818], [35.9424, 36.46433], [35.99024, 36.47964], [36.04494, 36.53765], [36.05543, 36.53827], [36.18914, 36.60399], [36.21616, 36.65778], [36.21559, 36.67048], [36.20246, 36.69963], [36.19874, 36.78457], [36.18897, 36.80174], [36.12989, 36.86929], [36.09547, 36.89712], [36.0586, 36.91844], [36.02027, 36.92634], [35.98504, 36.9156], [35.95086, 36.89102], [35.8938, 36.83491], [35.85385, 36.81582], [35.80543, 36.7751], [35.7671, 36.76774], [35.68409, 36.76463], [35.64772, 36.75397], [35.62452, 36.72602], [35.61355, 36.71988], [35.61818, 36.73164], [35.6067, 36.74038], [35.57301, 36.70067], [35.57944, 36.68513], [35.59448, 36.70172], [35.61687, 36.69623], [35.6198, 36.71239], [35.62916, 36.70824], [35.63404, 36.69937], [35.64047, 36.71336], [35.63404, 36.72671], [35.6481, 36.73321], [35.66481, 36.71239], [35.69606, 36.72393], [35.70913, 36.71987], [35.65016, 36.69782], [35.62257, 36.68073], [35.6067, 36.65778], [35.60865, 36.64688], [35.62208, 36.65424], [35.66676, 36.69611], [35.69554, 36.7062], [35.65797, 36.6752], [35.63315, 36.63093], [35.63134, 36.60717], [35.62376, 36.60265], [35.59855, 36.59144], [35.55714, 36.58748], [35.54467, 36.58952], [35.50367, 36.61685], [35.49, 36.61392], [35.47869, 36.59854], [35.53095, 36.58273], [35.44549, 36.59634], [35.41326, 36.58369], [35.40446, 36.57193], [35.37403, 36.56159], [35.34603, 36.5411], [35.33579, 36.54561], [35.32016, 36.56468], [35.29449, 36.57259], [34.98227, 36.72077], [34.94646, 36.72797], [34.90042, 36.71989], [34.90789, 36.74038], [34.89357, 36.74601], [34.85255, 36.78132], [34.77076, 36.81607], [34.76498, 36.80859], [34.73585, 36.82168], [34.69288, 36.81387], [34.62672, 36.78877], [34.58513, 36.78132], [34.5547, 36.76765], [34.53405, 36.74053], [34.50318, 36.72671], [34.41521, 36.66292], [34.30746, 36.60859], [34.27622, 36.58698], [34.19044, 36.49852], [34.17773, 36.47338], [34.14747, 36.45917], [34.11198, 36.4296], [34.07732, 36.41389], [34.07788, 36.32885], [34.05779, 36.31591], [33.99977, 36.30292], [33.98927, 36.28168], [33.99828, 36.28602], [33.99585, 36.27953], [33.96876, 36.24689], [33.95899, 36.21358], [33.94143, 36.21338], [33.95094, 36.2377], [33.94597, 36.2652], [33.93092, 36.29047], [33.8711, 36.31489], [33.85548, 36.30492], [33.82788, 36.27172], [33.81105, 36.2674], [33.8247, 36.25992], [33.79907, 36.23067], [33.74285, 36.21337], [33.70525, 36.18171], [33.68825, 36.13705], [33.66034, 36.17488], [33.65659, 36.18867], [33.64723, 36.19257], [33.61988, 36.18545], [33.55225, 36.12752], [33.53055, 36.13081], [33.5442, 36.13703], [33.5442, 36.14448], [33.45826, 36.15815], [33.4367, 36.15469], [33.38649, 36.13704], [33.32683, 36.15009], [33.30835, 36.13224], [33.24195, 36.1308], [33.21214, 36.12407], [33.18865, 36.12581], [33.15691, 36.13703], [33.13404, 36.13178], [33.11197, 36.10323], [33.08773, 36.08284], [33.07114, 36.08926], [33.02687, 36.08927], [32.94093, 36.1035], [32.86524, 36.07185], [32.85669, 36.06099], [32.80372, 36.02718], [32.76059, 36.02949], [32.67038, 36.04681], [32.63205, 36.06211], [32.56788, 36.0961], [32.51314, 36.10315], [32.43727, 36.13867], [32.41961, 36.15949], [32.36769, 36.17691], [32.37129, 36.24404], [32.37855, 36.27928], [32.40519, 36.34591], [32.42455, 36.3775], [32.44798, 36.40776], [32.50466, 36.46125], [32.57282, 36.50448], [32.61478, 36.5234], [32.66866, 36.45701], [32.69621, 36.44027], [32.73954, 36.42749], [32.85883, 36.45851], [32.86819, 36.48261], [32.96162, 36.63732], [33.08652, 36.78666], [33.23357, 36.93792], [33.83135, 37.51561], [34.07567, 37.74872], [34.18381, 37.838], [34.44744, 38.05448], [34.84485, 38.33321], [35.26519, 38.58379], [35.70509, 38.80551], [36.16213, 38.99794], [36.38779, 39.07608], [36.63449, 39.16089], [37.12348, 39.29482], [37.69233, 39.40285], [38.25462, 39.49949], [38.82172, 39.53404], [39.36607, 39.55295], [39.88482, 39.4974], [40.38066, 39.42773], [40.88896, 39.28889], [41.15516, 39.22273], [41.43149, 39.16119], [41.7176, 39.06979], [42.0131, 38.98564], [42.31668, 38.90976], [42.62701, 38.84281], [42.93699, 38.74452], [43.25017, 38.65543], [43.5648, 38.57583], [43.88121, 38.5053], [43.98272, 38.46998], [44.28751, 38.45373], [44.2905, 38.4166], [44.28658, 38.39099], [44.28952, 38.38226], [44.29867, 38.37719], [44.3134, 38.37182], [44.36337, 38.36461], [44.39634, 38.37967], [44.40905, 38.38179], [44.42466, 38.37704], [44.43882, 38.36756], [44.45112, 38.35404], [44.45876, 38.33833], [44.45918, 38.32242], [44.73026, 38.23083], [45.09001, 38.13246], [45.37096, 38.01222], [45.64937, 37.90056], [45.92513, 37.79722], [46.19877, 37.70175], [46.84712, 37.41153], [47.06221, 37.31412], [47.45166, 37.12839], [47.79234, 36.94385], [48.07243, 36.74448], [48.18714, 36.62803], [48.29752, 36.50398], [48.38823, 36.3594], [48.477, 36.20455], [48.60805, 35.85073], [48.68259, 35.48543], [48.71135, 35.11035], [48.69532, 34.73411], [48.6407, 34.3598], [48.56479, 33.98268], [48.39742, 33.20915], [48.32934, 32.80727], [48.31248, 32.54532], [48.33242, 32.28403], [48.39093, 32.02387], [48.47596, 31.76511], [48.82064, 30.85687], [48.83203, 30.85153], [48.87474, 30.86321], [48.9571, 30.87452], [49.07403, 30.87735], [49.11948, 30.84554], [49.17264, 30.79249], [49.21315, 30.73086], [49.29075, 30.57952], [49.32722, 30.49199], [49.3631, 30.35199], [49.37158, 30.25923], [49.36946, 30.22341], [49.35879, 30.17293], [49.32928, 30.17227], [49.27148, 30.15489], [49.24513, 30.15649], [49.2357, 30.16511], [49.23707, 30.20637], [49.21601, 30.22379], [49.2212, 30.26455], [49.20916, 30.27147], [49.19287, 30.23775], [49.17847, 30.22591], [49.16139, 30.22379], [49.14333, 30.23355], [49.12403, 30.25641], [49.08351, 30.26485], [49.01713, 30.29846], [49.00368, 30.3094], [48.99708, 30.34162], [48.9795, 30.36176], [48.9533, 30.37352], [48.92117, 30.38077], [48.93181, 30.39716], [48.94858, 30.40105], [49.01075, 30.39594], [49.06227, 30.40806], [49.08236, 30.40378], [49.12338, 30.38508], [49.17643, 30.37274], [49.20289, 30.34663], [49.22772, 30.38922], [49.25717, 30.42186], [49.26384, 30.44965], [49.24318, 30.44604], [49.22829, 30.45442], [49.21902, 30.4698], [49.21119, 30.50633], [49.16824, 30.47702], [49.17506, 30.49746], [49.16676, 30.50878], [49.13405, 30.49747], [49.11012, 30.51797], [49.08937, 30.51115], [49.03435, 30.51927], [49.01734, 30.51114], [48.98146, 30.51561], [48.95297, 30.50019], [48.94565, 30.47972], [48.97267, 30.46947], [49.0044, 30.46402], [49.02947, 30.45027], [49.03727, 30.43252], [49.01734, 30.41494], [48.94646, 30.42158], [48.93482, 30.41865], [48.88014, 30.37458], [48.86232, 30.34561], [48.87369, 30.33665], [48.85963, 30.31623], [48.86704, 30.29474], [48.92114, 30.25043], [48.93596, 30.21041], [48.94163, 30.16538], [48.92799, 30.12067], [48.93481, 30.07997], [48.92863, 30.06022], [48.91528, 30.04219], [48.89722, 30.02946], [48.87672, 30.02449], [48.80885, 30.03144], [48.79135, 30.02449], [48.77198, 30.03238], [48.702, 30.03194], [48.65952, 30.05223], [48.64332, 30.05541], [48.64064, 30.03807], [48.65893, 30.00727], [48.66162, 29.99348], [48.65137, 29.97501], [48.63379, 29.96305], [48.61085, 29.95703], [48.53745, 29.96304], [48.53745, 29.96988], [48.53077, 29.9562], [48.55494, 29.95649], [48.55924, 29.9466], [48.54688, 29.93473], [48.52029, 29.92892], [48.41159, 29.93851], [48.33547, 29.96142], [48.29957, 29.98452], [48.26466, 29.99397], [48.20924, 30.02448], [48.16578, 30.03754], [48.11915, 30.04499], [48.07634, 30.04564], [48.03826, 30.03685], [47.96901, 30.00407], [47.95167, 30.08832], [47.93482, 30.10708], [47.9485, 30.06232], [47.94093, 30.02652], [47.9485, 30.01765], [47.94801, 29.99404], [47.97532, 29.94232], [47.98268, 29.86066], [47.99562, 29.8277], [48.02174, 29.77973], [48.05242, 29.74299], [48.07887, 29.74395], [48.11915, 29.65453], [48.16129, 29.60162], [48.18082, 29.56242], [48.17675, 29.54192], [48.1543, 29.53917], [48.11323, 29.5548], [48.09255, 29.56583], [48.08595, 29.57502], [48.02386, 29.58481], [47.96553, 29.5763], [47.91061, 29.5318], [47.84926, 29.50198], [47.80704, 29.46762], [47.76386, 29.41294], [47.71839, 29.39419], [47.70472, 29.36363], [47.727, 29.36193], [47.79174, 29.37248], [47.8373, 29.38749], [47.85113, 29.3802], [47.82261, 29.36343], [47.81643, 29.33756], [47.84093, 29.32293], [47.8579, 29.32303], [47.89919, 29.33525], [47.9054, 29.35926], [47.9202, 29.36486], [47.93933, 29.35943], [47.95937, 29.37244], [47.96989, 29.38723], [47.98574, 29.39375], [48.02524, 29.35489], [48.06327, 29.34337], [48.10025, 29.34994], [48.09207, 29.28723], [48.09538, 29.25775], [48.10613, 29.21353], [48.12843, 29.17389], [48.13376, 29.15377], [48.15846, 29.01728], [48.17604, 28.98379], [48.22592, 28.91828], [48.24098, 28.90567], [48.27946, 28.89443], [48.28239, 28.87938], [48.27687, 28.83959], [48.28517, 28.81989], [48.32879, 28.75996], [48.39355, 28.74339], [48.3838, 28.72801], [48.37965, 28.71035], [48.38671, 28.67513], [48.36622, 28.68871], [48.36598, 28.67573], [48.37988, 28.66767], [48.3677, 28.65673], [48.35271, 28.66144], [48.35182, 28.64053], [48.36101, 28.63556], [48.37468, 28.64167], [48.38672, 28.65399], [48.39356, 28.59565], [48.40528, 28.56989], [48.45639, 28.51846], [48.49463, 28.50014], [48.49845, 28.49308], [48.50765, 28.44916], [48.50782, 28.41572], [48.49903, 28.39338], [48.47608, 28.40078], [48.46876, 28.38711], [48.50489, 28.38964], [48.51734, 28.39899], [48.52394, 28.41444], [48.53548, 28.40762], [48.51783, 28.35419], [48.52223, 28.31883], [48.53492, 28.29881], [48.6185, 28.21707], [48.62353, 28.20527], [48.60174, 28.16738], [48.60084, 28.14777], [48.60646, 28.12645], [48.65478, 28.06159], [48.65211, 28.04609], [48.702, 28.02399], [48.74708, 28.02398], [48.79199, 28.00702], [48.78451, 27.98925], [48.76401, 27.98924], [48.74684, 27.98163], [48.74236, 27.97525], [48.74366, 27.96133], [48.77329, 27.92975], [48.79624, 27.91364], [48.8147, 27.90668], [48.83766, 27.8723], [48.87793, 27.83681], [48.88265, 27.82673], [48.87379, 27.80659], [48.87451, 27.76993], [48.85295, 27.7377], [48.83923, 27.72861], [48.84767, 27.74872], [48.84848, 27.7873], [48.8576, 27.80353], [48.85287, 27.81794], [48.83806, 27.80402], [48.82178, 27.76684], [48.80503, 27.75651], [48.82553, 27.8111], [48.82057, 27.83002], [48.81251, 27.8286], [48.80405, 27.81501], [48.78004, 27.7141], [48.79135, 27.71491], [48.79689, 27.71971], [48.81128, 27.74281], [48.81129, 27.69819], [48.81528, 27.68757], [48.82456, 27.68895], [48.8392, 27.70805], [48.84619, 27.69709], [48.84547, 27.66714], [48.85808, 27.66283], [48.86769, 27.66779], [48.88013, 27.68753], [48.88046, 27.67009], [48.76824, 27.61129], [48.69503, 27.58449], [48.61721, 27.57082], [48.53735, 27.57091], [48.45996, 27.58462], [48.39297, 27.60887], [48.37522, 27.68712], [48.37822, 27.7795], [48.31481, 27.84187], [47.98354, 27.75648], [47.48633, 27.76262], [47.0266, 27.88506], [46.60076, 28.09723], [46.20252, 28.3767], [45.82667, 28.70233], [45.6401, 28.88612], [45.64918, 29.11929], [45.13095, 29.16035], [45.14085, 29.39736], [45.11472, 29.42459], [44.71352, 29.7538], [44.27756, 29.96906], [43.82179, 30.10903], [43.64206, 29.94238], [42.85871, 30.49468], [42.75604, 30.57155], [42.56972, 30.41059], [42.45344, 30.44564], [42.03505, 30.65023], [41.65821, 30.95638], [41.56335, 31.07069], [41.68507, 31.27876], [41.15925, 31.54669], [41.28264, 31.74799], [41.22989, 31.94052], [41.17502, 32.08257], [41.11248, 32.20252], [41.04141, 32.3071], [40.96118, 32.40336], [40.87482, 32.49323], [40.59064, 32.76683], [40.49252, 32.87206], [40.28585, 33.13857], [39.81427, 33.80202], [39.53465, 34.13209], [39.22139, 34.40935], [38.86985, 34.59217], [38.48611, 34.62987], [38.0675, 34.47578], [37.84393, 34.30864], [37.63988, 34.09661], [37.45537, 33.85037], [37.28933, 33.57856], [37.14189, 33.29114], [37.01444, 32.99893], [36.90958, 32.71052], [36.8903, 32.64221], [37.0299, 32.43755], [36.81938, 32.31679], [36.80657, 32.31304], [36.79251, 32.31353], [36.75094, 32.08409], [36.58522, 31.3599], [36.52832, 31.14431], [36.46441, 30.93306], [36.39084, 30.7278], [36.33994, 30.61436], [36.2794, 30.50815], [36.20978, 30.40963], [36.13122, 30.31851], [36.04509, 30.23593], [35.95081, 30.16098], [35.84853, 30.09389], [35.73958, 30.03556], [35.62557, 29.99027], [35.27843, 29.90047], [35.19394, 29.86695], [35.19656, 29.85702], [35.23987, 29.82982], [35.31922, 29.75945], [35.36552, 29.69643], [35.3965, 29.62368], [35.37982, 29.56951], [35.36219, 29.52709], [35.31337, 29.29637], [35.34262, 29.29194], [35.2923, 29.06347], [35.28455, 29.05103], [35.27369, 28.99541], [35.25187, 28.9539], [35.05036, 28.64521], [35.03998, 28.52063], [35.02889, 28.44837], [34.99685, 28.33928], [34.94687, 28.24833], [34.87559, 28.169], [34.80784, 28.11338], [34.79371, 28.11107], [34.78141, 28.09451], [34.77077, 28.09294], [34.77076, 28.1059], [34.76498, 28.1059], [34.76498, 28.09911], [34.75702, 28.09912], [34.74732, 28.11201], [34.73638, 28.10604], [34.72724, 28.11232], [34.70924, 28.14008], [34.69499, 28.12647], [34.68198, 28.13516], [34.67456, 28.11279], [34.64715, 28.09911], [34.64715, 28.09292], [34.66829, 28.07859], [34.66829, 28.0712], [34.65528, 28.06502], [34.64715, 28.07119], [34.64143, 28.0417], [34.63501, 28.03328], [34.61306, 28.03023], [34.62045, 28.03767], [34.61306, 28.04451], [34.60874, 28.05853], [34.60621, 28.09602], [34.59889, 28.10326], [34.57441, 28.09408], [34.57887, 28.1059], [34.57278, 28.11278], [34.58742, 28.13182], [34.62672, 28.16055], [34.62047, 28.16739], [34.62713, 28.17666], [34.64031, 28.18105], [34.64031, 28.17642], [34.63347, 28.17487], [34.6517, 28.16779], [34.65772, 28.17056], [34.6609, 28.18106], [34.65528, 28.18106], [34.65528, 28.18789], [34.64814, 28.19424], [34.6496, 28.20087], [34.66831, 28.20897], [34.6649, 28.22451], [34.67458, 28.27045], [34.68873, 28.26362], [34.68873, 28.27729], [34.68043, 28.27167], [34.67458, 28.27725], [34.69467, 28.29442], [34.71502, 28.32746], [34.73048, 28.36359], [34.74107, 28.41059], [34.76059, 28.43659], [34.775, 28.48317], [34.80377, 28.52713], [34.79343, 28.61943], [34.77848, 28.6645], [34.79696, 28.72599], [34.82537, 28.78437], [34.82537, 28.79059], [34.81912, 28.7906], [34.83611, 28.81647], [34.83855, 28.82856], [34.83277, 28.84562], [34.84409, 28.87641], [34.84197, 28.88963], [34.82538, 28.89424], [34.82538, 28.90037], [34.8401, 28.92243], [34.85629, 28.96381], [34.86378, 29.00625], [34.85256, 29.0314], [34.85256, 29.04507], [34.87355, 29.08527], [34.89351, 29.17451], [34.90935, 29.21015], [34.90937, 29.23065], [34.94207, 29.25047], [34.93266, 29.28901], [34.93638, 29.30385], [34.94809, 29.29828], [34.95069, 29.30573], [34.95558, 29.30512], [34.94533, 29.3369], [34.9494, 29.3517], [34.96241, 29.35977], [34.96906, 29.45102], [34.9761, 29.47703], [34.99781, 29.51797], [34.99684, 29.53388], [34.97608, 29.55215], [34.96241, 29.55216], [34.96022, 29.55952], [34.95558, 29.55899], [34.95121, 29.54545], [34.91977, 29.50739], [34.91081, 29.48995], [34.88673, 29.49006], [34.85971, 29.47215], [34.83814, 29.43294], [34.82537, 29.42862], [34.83326, 29.42617], [34.83276, 29.42114], [34.81764, 29.41218], [34.8152, 29.4064], [34.81908, 29.40071], [34.80519, 29.39643], [34.81225, 29.38764], [34.77759, 29.3461], [34.75701, 29.33308], [34.7451, 29.31598], [34.73658, 29.31126], [34.74528, 29.29133], [34.72901, 29.25047], [34.729, 29.19892], [34.72363, 29.18668], [34.695, 29.1645], [34.68999, 29.13417], [34.67457, 29.10651], [34.67457, 29.03441], [34.68652, 29.01243], [34.68577, 28.98888], [34.64674, 28.96743], [34.64031, 28.9488], [34.64599, 28.92235], [34.64713, 28.86287], [34.62045, 28.84585], [34.62631, 28.80263], [34.62045, 28.79059], [34.63346, 28.7707], [34.62281, 28.75983], [34.62451, 28.73599], [34.61524, 28.72419], [34.60767, 28.70149], [34.58424, 28.67235], [34.57031, 28.62617], [34.53012, 28.5727], [34.51631, 28.53878], [34.51059, 28.53799], [34.5236, 28.50731], [34.51156, 28.48779], [34.469, 28.45539], [34.47526, 28.44795], [34.46168, 28.44204], [34.45428, 28.4289], [34.44116, 28.37348], [34.42742, 28.35611], [34.40691, 28.30801], [34.41066, 28.27814], [34.42057, 28.25617], [34.41293, 28.23314], [34.45532, 28.17487], [34.43872, 28.10985], [34.42675, 28.08154], [34.44401, 28.05354], [34.42742, 27.98306], [34.43488, 27.97558], [34.40073, 27.96874], [34.38998, 27.94527], [34.37696, 27.93818], [34.37085, 27.92366], [34.33131, 27.91413], [34.3387, 27.90669], [34.32706, 27.87929], [34.26921, 27.87398], [34.22888, 27.87492], [34.10541, 27.89701], [34.10067, 27.88805], [34.11446, 27.8411], [34.12063, 27.79657], [34.07846, 27.8007], [34.05467, 27.8144], [33.98756, 27.88666], [33.97381, 27.88924], [33.91676, 27.93574], [33.90398, 27.9418], [33.89088, 27.94253], [33.87941, 27.93465], [33.86557, 27.96133], [33.8589, 27.95516], [33.80422, 27.99605], [33.79371, 28.01313], [33.76337, 28.024], [33.76393, 28.04902], [33.71601, 28.07527], [33.7155, 28.09292], [33.68448, 28.12417], [33.67264, 28.14579], [33.67457, 28.16055], [33.66033, 28.17487], [33.65406, 28.17487], [33.65406, 28.1674], [33.64666, 28.1674], [33.63478, 28.18131], [33.61818, 28.2333], [33.6128, 28.24063], [33.60565, 28.23629], [33.56471, 28.2971], [33.43394, 28.36641], [33.40016, 28.41445], [33.369, 28.44233], [33.36915, 28.44794], [33.30519, 28.48974], [33.29478, 28.49942], [33.27882, 28.52753], [33.25621, 28.54414], [33.26246, 28.55158], [33.26246, 28.54414], [33.26979, 28.54414], [33.26295, 28.57705], [33.2461, 28.5795], [33.23764, 28.56611], [33.2562, 28.55158], [33.23944, 28.5566], [33.2287, 28.56941], [33.21901, 28.628], [33.19485, 28.67512], [33.22828, 28.76386], [33.21015, 28.78507], [33.20476, 28.80516], [33.18101, 28.81851], [33.17459, 28.83698], [33.16733, 28.90016], [33.17758, 28.91836], [33.16587, 28.97606], [33.17791, 28.98957], [33.17075, 29.00308], [33.15919, 29.01411], [33.1531, 29.01338], [33.14503, 29.03172], [33.13648, 29.03461], [33.12648, 29.03141], [33.11606, 29.04312], [33.07863, 29.06489], [33.06121, 29.10139], [33.04022, 29.11812], [33.02345, 29.14061], [33.00913, 29.14741], [33.00294, 29.16112], [32.95786, 29.20209], [32.91952, 29.21768], [32.8856, 29.24307], [32.86834, 29.29743], [32.84597, 29.30834], [32.83955, 29.31601], [32.81741, 29.35977], [32.82106, 29.39704], [32.81723, 29.41405], [32.7903, 29.42545], [32.74157, 29.45596], [32.7492, 29.45596], [32.74537, 29.46312], [32.72853, 29.46963], [32.73536, 29.47728], [32.73471, 29.48383], [32.72853, 29.48383], [32.72145, 29.46748], [32.72851, 29.45597], [32.71503, 29.45597], [32.7225, 29.49274], [32.72413, 29.53954], [32.71241, 29.58047], [32.68085, 29.59993], [32.68686, 29.61815], [32.68088, 29.66163], [32.69386, 29.70604], [32.69068, 29.73363], [32.65644, 29.77709], [32.64845, 29.79462], [32.6255, 29.81525], [32.60452, 29.82417], [32.60956, 29.83388], [32.6255, 29.84634], [32.62534, 29.87425], [32.61248, 29.89374], [32.57156, 29.9289], [32.58432, 29.93871], [32.57781, 29.9488], [32.58546, 29.95246], [32.56162, 29.97639], [32.57781, 29.98355], [32.57781, 30.01142], [32.57154, 30.01142], [32.55746, 29.97647], [32.57049, 29.95576], [32.57154, 29.94257], [32.56415, 29.94258], [32.56178, 29.95523], [32.55397, 29.9621], [32.54273, 29.96255], [32.53004, 29.95622], [32.51344, 29.96157], [32.49391, 29.95063], [32.4769, 29.9322], [32.46795, 29.91523], [32.46681, 29.89688], [32.47291, 29.88198], [32.48699, 29.87157], [32.50951, 29.86684], [32.49155, 29.85407], [32.39283, 29.73436], [32.36394, 29.68822], [32.35808, 29.67194], [32.35736, 29.63036], [32.35156, 29.61368], [32.33766, 29.59992], [32.33766, 29.59248], [32.34845, 29.58486], [32.36855, 29.55738], [32.3768, 29.53608], [32.45119, 29.48741], [32.49733, 29.44009], [32.52873, 29.42351], [32.55718, 29.39762], [32.58122, 29.36912], [32.59138, 29.34971], [32.60548, 29.29194], [32.61866, 29.26118], [32.63232, 29.24307], [32.62867, 29.21894], [32.65895, 29.11055], [32.65967, 29.0891], [32.63892, 29.06135], [32.62818, 29.05703], [32.62468, 29.04816], [32.63232, 29.03758], [32.6255, 28.97272], [32.67334, 28.92153], [32.68084, 28.88056], [32.70752, 28.85634], [32.7492, 28.80484], [32.78451, 28.79938], [32.80689, 28.77814], [32.82073, 28.74761], [32.86891, 28.57892], [32.92725, 28.55157], [32.96342, 28.51787], [32.97291, 28.49982], [33.00293, 28.48948], [33.01303, 28.46304], [33.04176, 28.41413], [33.05078, 28.40692], [33.04957, 28.40135], [33.04322, 28.40078], [33.08757, 28.36859], [33.10654, 28.3473], [33.10532, 28.32563], [33.11971, 28.30894], [33.12648, 28.2875], [33.20052, 28.21136], [33.21217, 28.18993], [33.24194, 28.17486], [33.24936, 28.14289], [33.28321, 28.13238], [33.31642, 28.09638], [33.33813, 28.08543], [33.33611, 28.05679], [33.3436, 28.0506], [33.36605, 28.05067], [33.37468, 28.03587], [33.44192, 28.0164], [33.51253, 27.95905], [33.53541, 27.91641], [33.55437, 27.89647], [33.57616, 27.85049], [33.59204, 27.79126], [33.57155, 27.79126], [33.56007, 27.81342], [33.48894, 27.84589], [33.48219, 27.84589], [33.47348, 27.82319], [33.48219, 27.80492], [33.51172, 27.77509], [33.52272, 27.7519], [33.55144, 27.76161], [33.55786, 27.75991], [33.55249, 27.73188], [33.53679, 27.70808], [33.55047, 27.69505], [33.57495, 27.68137], [33.59204, 27.65347], [33.59204, 27.64665], [33.55787, 27.68138], [33.55047, 27.68138], [33.55786, 27.65966], [33.55048, 27.65966], [33.5442, 27.67919], [33.52654, 27.67756], [33.50717, 27.66372], [33.49635, 27.64663], [33.51984, 27.63565], [33.56469, 27.57152], [33.55828, 27.55711], [33.55787, 27.53677], [33.61817, 27.50811], [33.63298, 27.49583], [33.64039, 27.45482], [33.67114, 27.42039], [33.68482, 27.3557], [33.69166, 27.34186], [33.72478, 27.31371], [33.82518, 27.25983], [33.83838, 27.24258], [33.83838, 27.19416], [33.82472, 27.18049], [33.83676, 27.12075], [33.84718, 27.107], [33.88314, 27.08079], [33.90137, 27.05874], [33.90868, 27.04215], [33.89373, 27.04393], [33.89389, 27.0279], [33.90089, 27.01423], [33.921, 26.98917], [33.95167, 26.93098], [33.99097, 26.90741], [33.996, 26.89678], [34.00358, 26.84917], [33.99623, 26.83806], [33.97967, 26.83712], [33.95965, 26.8498], [33.94825, 26.831], [33.94581, 26.79999], [33.9519, 26.74336], [33.93214, 26.6826], [33.94142, 26.65351], [33.95541, 26.64301], [34.0034, 26.62574], [34.014, 26.61163], [34.02394, 26.58072], [34.05639, 26.5423], [34.07054, 26.51509], [34.10483, 26.42666], [34.17749, 26.31484], [34.26197, 26.13947], [34.30102, 26.08779], [34.33871, 26.00178], [34.41728, 25.9034], [34.43474, 25.86188], [34.5018, 25.77163], [34.54673, 25.72475], [34.5641, 25.69369], [34.63346, 25.5694], [34.64715, 25.52204], [34.67139, 25.47972], [34.68189, 25.4287], [34.69996, 25.40103], [34.74333, 25.3513], [34.76499, 25.29609], [34.79492, 25.25438], [34.8069, 25.21162], [34.93913, 25.00336], [34.94304, 24.97126], [34.95373, 24.94414], [34.98975, 24.90501], [34.99391, 24.84931], [35.00221, 24.81562], [35.01026, 24.80443], [35.06362, 24.76389], [35.08072, 24.73541], [35.10955, 24.64378], [35.14601, 24.5859], [35.16026, 24.57461], [35.16064, 24.5585], [35.14444, 24.52767], [35.14456, 24.50021], [35.18571, 24.48565], [35.23546, 24.40013], [35.3704, 24.30625], [35.39171, 24.28294], [35.42865, 24.18595], [35.45593, 24.15874], [35.49383, 24.1089], [35.51051, 24.11123], [35.49378, 24.13896], [35.5039, 24.14053], [35.52419, 24.12127], [35.55205, 24.11049], [35.58836, 24.07583], [35.60272, 24.0481], [35.60526, 24.01882], [35.63563, 24.00186], [35.66685, 24.00724], [35.71728, 23.99341], [35.73856, 23.98331], [35.75374, 23.96865], [35.77482, 23.92391], [35.79252, 23.90229], [35.78578, 23.89306], [35.75036, 23.93242], [35.73601, 23.93321], [35.68452, 23.91093], [35.64575, 23.92556], [35.59854, 23.92943], [35.57999, 23.93636], [35.56178, 23.95718], [35.55145, 23.9604], [35.55055, 23.96548], [35.51393, 23.97712], [35.50492, 23.971], [35.49122, 23.94758], [35.48387, 23.91779], [35.49064, 23.87], [35.47477, 23.79792], [35.48322, 23.77249], [35.50171, 23.76869], [35.51014, 23.75638], [35.50611, 23.73457], [35.51021, 23.68392], [35.50368, 23.5559], [35.48943, 23.49702], [35.49334, 23.48237], [35.52432, 23.43872], [35.54742, 23.39428], [35.55143, 23.37751], [35.5503, 23.33023], [35.57468, 23.21257], [35.62097, 23.13949], [35.65463, 23.07375], [35.66782, 22.98261], [35.67506, 22.96662], [35.6953, 22.93213], [35.73707, 22.88398], [35.76368, 22.87043], [35.72342, 22.93186], [35.74293, 22.93129], [35.7557, 22.9223], [35.77105, 22.8906], [35.78492, 22.8332], [35.80127, 22.82257], [35.84755, 22.76299], [35.88596, 22.7357], [35.94019, 22.71661], [35.96949, 22.69798], [36.1203, 22.67574], [36.19776, 22.65168], [36.22608, 22.63543], [36.27466, 22.59235], [36.2904, 22.56839], [36.29637, 22.522], [36.31342, 22.49161], [36.37452, 22.44526], [36.40476, 22.43288], [36.40157, 22.44856], [36.40685, 22.44857], [36.42809, 22.42604], [36.42282, 22.3976], [36.43982, 22.35644], [36.50791, 22.32794], [36.56261, 22.29682], [36.6233, 22.24957], [36.71372, 22.16914], [36.73276, 22.15961], [36.74757, 22.16096], [36.75685, 22.17689], [36.78208, 22.16455], [36.79565, 22.15078], [36.81821, 22.10883], [36.87194, 22.07411], [36.89537, 22.06612], [36.89844, 22.01749], [36.8838, 21.99665], [36.88051, 21.98049], [36.8737, 21.97408], [36.8401, 21.96613], [36.86393, 21.94936], [36.87353, 21.9361], [36.8742, 21.81525], [36.89681, 21.67788], [36.88787, 21.65013], [36.90202, 21.64105], [36.90594, 21.61709], [36.93053, 21.5857], [36.98406, 21.46581], [37.11362, 21.27806], [37.19873, 21.20236], [37.22508, 21.17085], [37.15384, 21.15606], [37.14862, 21.17097], [37.15952, 21.20645], [37.14861, 21.21874], [37.12143, 21.22427], [37.10499, 21.20751], [37.0984, 21.18089], [37.10357, 21.15359], [37.04876, 21.15737], [36.97645, 21.17478], [36.65173, 21.28485], [36.59628, 21.40001], [36.54756, 21.48121], [36.51939, 21.54564], [36.50487, 21.61441], [36.50522, 21.68878], [36.49809, 21.70935], [36.30331, 21.76694], [36.28607, 21.99568], [34.99232, 21.99558], [34.97608, 22.22312], [34.92461, 22.24413], [34.63736, 22.38435], [34.32587, 22.55597], [34.0173, 22.73271], [33.71207, 22.91487], [33.41061, 23.103], [33.1137, 23.2973], [32.82196, 23.49776], [32.53582, 23.70413], [32.25551, 23.91601], [31.85748, 24.22633], [31.65883, 24.39134], [31.46849, 24.5641], [31.29316, 24.74478], [31.13816, 24.93489], [31.0096, 25.13513], [30.91304, 25.34698], [30.68048, 25.99493], [30.46056, 26.62518], [30.32647, 27.03511], [30.20646, 27.43677], [30.10345, 27.83056], [30.06048, 28.0251], [29.98643, 28.40943], [29.90511, 28.98373], [29.81415, 29.77621], [29.75922, 30.18893], [29.73893, 30.29804], [29.6857, 30.50941], [29.66457, 30.61509], [29.65291, 30.6194], [29.61855, 30.6053], [29.54583, 30.63319], [29.51081, 30.6523], [29.44922, 30.69802], [29.39849, 30.75388], [29.36179, 30.81638], [29.33916, 30.88818], [29.50327, 30.95669], [29.55633, 30.99091], [29.60377, 31.01203], [29.61889, 31.02942]], [[32.33663, 30.38737], [32.29516, 30.36974], [32.22594, 30.32462], [32.22004, 30.30878], [32.22504, 30.2691], [32.22222, 30.25349], [32.1944, 30.22213], [32.19909, 30.21285], [32.21078, 30.21324], [32.31532, 30.29476], [32.3817, 30.33215], [32.38432, 30.34021], [32.3751, 30.36565], [32.36033, 30.38792], [32.33663, 30.38737]]], [[[49.00847, 30.46593], [49.0115, 30.49881], [49.02914, 30.50198], [49.03533, 30.49816], [49.03981, 30.50263], [49.06217, 30.50125], [49.05804, 30.49018], [49.06421, 30.4646], [49.04013, 30.46556], [49.03842, 30.46971], [49.02931, 30.45779], [49.02678, 30.46621], [49.02182, 30.46149], [49.00847, 30.46593]]]]}}]}