{"type": "FeatureCollection", "features": [{"type": "Feature", "properties": {"map_title": "1939~1941년 사이 유럽에서의 전쟁 상황", "source": "미래엔 세계사 교과서 4권 190쪽", "volume": 4, "page": 190, "legend": "소련이 병합한 지역(1939~1941)", "name": "발트 3국(추정)", "name_en": "", "period": "1939–1941", "kind": "국가", "group": "발트 3국", "coast_snap": "Natural Earth 10m 해안선에 맞춤", "border_snap": "현대 국경(Natural Earth 10m)에 맞춘 구간 약 570 km", "map_folder": "4권_p190_1939~1941년 사이 유럽에서의 전쟁 상황"}, "geometry": {"type": "MultiPolygon", "coordinates": [[[[22.80593, 58.90358], [23.15054, 59.0143], [23.1529, 58.99674], [23.3367, 58.93586], [23.40229, 58.90929], [23.42356, 58.89665], [23.46287, 58.86589], [23.45509, 58.883], [23.42239, 58.90868], [23.42207, 58.92869], [23.44371, 58.94403], [23.5101, 58.9416], [23.53192, 58.95668], [23.54916, 58.95083], [23.58448, 58.95356], [23.61671, 58.96768], [23.6277, 58.97915], [23.62159, 59.01533], [23.60548, 59.03266], [23.55983, 59.0528], [23.61443, 59.0113], [23.58033, 59.00507], [23.55982, 58.9914], [23.55297, 58.9709], [23.5433, 58.96987], [23.52564, 58.98395], [23.46128, 58.99239], [23.41985, 59.01616], [23.48708, 59.05551], [23.54023, 59.07931], [23.65992, 59.11812], [23.84906, 59.16181], [23.98057, 59.18165], [24.11631, 59.1878], [24.25261, 59.1801], [24.38401, 59.15858], [24.503, 59.12463], [24.61448, 59.07667], [24.68041, 59.08267], [24.7716, 59.07432], [24.9835, 59.04488], [25.04832, 59.04203], [25.06372, 59.04707], [25.06444, 59.05406], [25.02777, 59.09347], [25.02636, 59.10169], [25.03558, 59.10653], [25.09061, 59.10403], [25.17511, 59.07396], [25.2153, 59.06657], [25.26983, 59.07289], [25.48042, 59.11264], [25.53396, 59.11637], [25.58204, 59.10722], [25.67635, 59.06665], [25.7876, 59.04324], [25.88594, 59.03327], [25.9353, 59.04578], [26.01544, 59.0888], [26.06186, 59.09964], [26.11854, 59.08808], [26.17429, 59.04936], [26.26028, 59.02465], [26.34969, 59.00858], [26.44342, 59.02331], [26.6072, 59.01222], [26.78986, 59.01032], [26.82403, 59.01813], [26.86253, 59.05346], [26.89055, 59.0618], [26.92417, 59.06292], [26.97451, 59.03582], [26.9952, 59.03292], [27.0267, 59.04328], [27.0858, 59.08204], [27.10197, 59.08797], [27.14373, 59.09246], [27.16248, 59.08559], [27.15443, 59.04513], [27.48242, 58.87759], [27.69441, 58.97594], [27.71333, 58.9919], [27.72438, 59.01444], [27.76717, 59.05593], [27.8015, 59.10205], [28.23394, 59.01864], [28.28775, 59.00146], [28.35751, 58.98855], [28.47077, 58.9859], [28.88229, 58.99053], [29.26555, 58.94542], [29.31311, 58.94443], [29.36032, 58.94981], [29.47282, 58.97675], [29.56581, 59.00529], [29.62692, 58.91042], [29.23852, 58.8524], [28.84746, 58.62892], [28.50091, 58.53908], [28.07919, 58.20315], [28.0072, 58.01428], [28.1686, 57.72311], [27.80983, 57.70843], [27.78781, 57.69907], [27.74485, 57.63995], [27.52817, 57.52848], [27.52279, 57.49202], [27.52564, 57.46838], [27.51484, 57.44789], [27.51132, 57.4304], [27.53628, 57.41569], [27.64082, 57.389], [27.70795, 57.34813], [27.80913, 57.31394], [27.82774, 57.30495], [27.84029, 57.29064], [27.84613, 57.26731], [27.84117, 57.21121], [27.83394, 57.18049], [27.82433, 57.15907], [27.79405, 57.14339], [27.70098, 57.11879], [27.68222, 57.1037], [27.69607, 57.08546], [27.74547, 57.06799], [27.75074, 57.04236], [27.72335, 56.9988], [27.71514, 56.9574], [27.64873, 56.87927], [27.62837, 56.84415], [27.66118, 56.83927], [27.74407, 56.8648], [27.7864, 56.87126], [27.83084, 56.86428], [27.91352, 56.82015], [27.9189, 56.80589], [27.87611, 56.75943], [27.86546, 56.74269], [27.88262, 56.72548], [27.98101, 56.68701], [27.99134, 56.66998], [27.99217, 56.62499], [27.99744, 56.60383], [28.01098, 56.58756], [28.02866, 56.57675], [28.10865, 56.55518], [28.12612, 56.54776], [28.13222, 56.53598], [28.12524, 56.52714], [28.09925, 56.5134], [28.09325, 56.50159], [28.09646, 56.49195], [28.10452, 56.48306], [28.16426, 56.43795], [28.16787, 56.42712], [28.16426, 56.39281], [28.16715, 56.36987], [27.76881, 56.33065], [27.73563, 56.28307], [27.21452, 56.20256], [26.96546, 56.09728], [26.8278, 55.9875], [26.42644, 56.02736], [26.14196, 55.86756], [26.07942, 55.89814], [26.01762, 55.93736], [25.87127, 55.99214], [25.76626, 56.05865], [25.7088, 56.08105], [25.4443, 55.89656], [25.19456, 55.68888], [25.19313, 55.68055], [25.20599, 55.67503], [25.68697, 55.6418], [25.39749, 55.51366], [24.87952, 55.52161], [24.66802, 55.39575], [24.31108, 55.37423], [24.07455, 55.26702], [24.10653, 55.11883], [23.90059, 54.95562], [23.90877, 54.94882], [24.23846, 54.84764], [24.19446, 54.77248], [23.9014, 54.78997], [23.80346, 54.89109], [23.79077, 54.89567], [23.47178, 54.88725], [23.28795, 54.81272], [22.84835, 54.81381], [22.84577, 54.79614], [22.83285, 54.77867], [22.78665, 54.75599], [22.76484, 54.73712], [22.72484, 54.72338], [22.72278, 54.71857], [22.72702, 54.70534], [22.70087, 54.67956], [22.31102, 54.72651], [22.19772, 54.74575], [21.85573, 54.76214], [21.57784, 54.76944], [21.56619, 54.7645], [21.52105, 54.70382], [21.47846, 54.66017], [21.4155, 54.61096], [21.38058, 54.38399], [19.85574, 54.43127], [19.84318, 54.58383], [19.81676, 54.58694], [19.88317, 54.65619], [19.89633, 54.66218], [19.90018, 54.68756], [19.95631, 54.7569], [19.95883, 54.79682], [19.92068, 54.88959], [19.94078, 54.93439], [19.97646, 54.96441], [19.99585, 54.96807], [20.0337, 54.94819], [20.07496, 54.9544], [20.14356, 54.95181], [20.20582, 54.95843], [20.36557, 54.94619], [20.40699, 54.95161], [20.48243, 54.97553], [20.63404, 55.04877], [20.80822, 55.17609], [20.82228, 55.18098], [20.99952, 55.357], [21.04152, 55.41608], [21.08237, 55.49763], [21.09938, 55.5987], [21.09068, 55.63313], [21.09352, 55.69554], [21.08524, 55.72283], [21.11744, 55.69977], [21.13152, 55.65558], [21.13351, 55.56805], [21.11988, 55.52704], [21.11987, 55.48945], [21.08717, 55.44107], [21.10619, 55.42743], [21.10619, 55.42121], [21.0735, 55.39179], [21.03798, 55.3288], [20.98894, 55.29133], [20.9895, 55.27042], [20.94109, 55.24868], [20.93701, 55.23775], [20.9131, 55.23322], [20.90333, 55.22582], [20.90551, 55.21858], [20.89064, 55.21259], [20.88403, 55.19807], [20.82373, 55.14314], [20.77361, 55.11449], [20.68783, 55.05069], [20.55851, 54.98197], [20.53338, 54.97358], [20.53094, 54.96467], [20.55812, 54.94082], [20.76368, 54.94769], [20.80518, 54.94081], [20.86036, 54.91132], [20.96909, 54.89981], [21.03932, 54.904], [21.05592, 54.91444], [21.07895, 54.89981], [21.09067, 54.90156], [21.10622, 54.91351], [21.19028, 54.92691], [21.23015, 54.93891], [21.24342, 54.96125], [21.21937, 55.01345], [21.19508, 55.1354], [21.18134, 55.17109], [21.18141, 55.19366], [21.18883, 55.20831], [21.20167, 55.21441], [21.22291, 55.20148], [21.23683, 55.20063], [21.25904, 55.20498], [21.26759, 55.21174], [21.27328, 55.23265], [21.26443, 55.284], [21.27085, 55.28802], [21.28533, 55.28705], [21.29119, 55.29707], [21.27418, 55.32734], [21.25947, 55.33625], [21.25709, 55.36937], [21.24659, 55.37018], [21.18882, 55.33863], [21.18338, 55.34618], [21.2243, 55.39932], [21.2483, 55.41787], [21.24838, 55.44233], [21.22291, 55.52021], [21.19518, 55.54697], [21.19508, 55.58511], [21.15756, 55.64175], [21.14723, 55.67817], [21.09938, 55.72907], [21.07441, 55.74494], [21.06052, 55.78943], [21.04469, 55.87396], [21.04474, 55.91796], [21.05836, 55.95185], [21.05258, 56.07754], [21.02882, 56.14741], [20.98394, 56.21067], [20.9691, 56.25348], [20.98268, 56.29076], [20.97052, 56.38871], [21.00318, 56.4348], [21.01059, 56.47574], [21.00053, 56.51041], [21.00637, 56.51996], [21.02426, 56.51048], [21.04469, 56.4621], [21.03053, 56.44843], [21.04469, 56.44221], [21.04469, 56.42113], [21.03053, 56.40811], [21.06178, 56.38703], [21.07716, 56.39521], [21.07976, 56.40306], [21.06861, 56.42406], [21.07211, 56.46955], [21.05836, 56.50365], [21.03053, 56.52416], [21.00312, 56.53002], [20.99222, 56.5489], [21.01053, 56.5987], [21.05836, 56.68867], [21.0652, 56.77432], [21.0529, 56.82914], [21.06521, 56.84633], [21.14723, 56.87641], [21.15676, 56.88556], [21.22291, 56.9077], [21.27798, 56.94936], [21.36012, 56.98969], [21.3825, 57.00894], [21.40162, 57.0375], [21.41359, 57.07319], [21.41481, 57.11384], [21.40108, 57.15131], [21.41481, 57.18488], [21.41263, 57.25024], [21.42151, 57.28889], [21.44949, 57.32001], [21.48024, 57.33364], [21.51777, 57.3876], [21.58912, 57.43879], [21.69907, 57.55516], [21.72943, 57.57365], [21.77166, 57.58611], [21.9559, 57.59296], [21.99928, 57.60033], [22.47904, 57.74112], [22.47446, 57.69857], [22.53725, 57.65431], [22.57002, 57.62376], [22.61818, 57.55781], [22.64111, 57.48849], [22.63844, 57.4181], [22.61069, 57.34976], [22.58727, 57.3164], [22.52425, 57.25531], [22.44192, 57.20264], [22.36072, 57.24867], [22.34697, 57.25002], [22.33697, 57.24595], [22.30004, 57.11945], [22.29792, 57.08333], [22.30937, 57.0515], [22.32512, 57.04236], [22.34937, 57.03753], [22.56032, 57.02281], [22.59711, 57.00536], [22.61104, 57.00718], [22.6171, 57.01425], [22.5903, 57.08466], [22.55412, 57.14246], [22.5142, 57.16221], [22.53421, 57.18264], [22.61083, 57.23891], [22.70701, 57.28626], [22.81861, 57.32243], [22.88211, 57.33665], [22.95842, 57.36765], [23.03978, 57.39185], [23.08334, 57.37824], [23.1302, 57.37079], [23.13803, 57.34317], [23.17467, 57.29711], [23.19874, 57.22419], [23.2224, 57.20701], [23.26092, 57.09894], [23.29264, 57.08893], [23.3401, 57.05858], [23.42286, 57.04023], [23.50855, 57.03123], [23.56967, 56.98627], [23.58513, 56.97907], [23.63201, 56.97093], [23.69516, 56.96727], [23.86606, 56.99018], [23.95289, 57.01325], [23.99122, 57.03124], [24.03567, 57.06899], [24.07456, 57.07494], [24.21078, 57.12372], [24.21955, 57.13818], [24.23863, 57.14956], [24.27858, 57.16104], [24.27884, 57.17178], [24.2885, 57.17872], [24.31267, 57.1883], [24.37916, 57.23021], [24.40064, 57.25812], [24.40886, 57.29816], [24.37989, 57.50654], [24.37517, 57.52855], [24.35859, 57.55036], [24.37477, 57.61347], [24.35768, 57.68549], [24.29959, 57.74384], [24.28603, 57.83279], [24.29596, 57.85706], [24.32439, 57.88679], [24.33386, 57.92133], [24.38111, 57.98383], [24.3983, 58.02326], [24.46412, 58.07217], [24.46414, 58.12055], [24.47291, 58.15473], [24.45485, 58.1962], [24.46754, 58.21784], [24.47089, 58.25071], [24.49148, 58.26569], [24.54851, 58.28929], [24.56039, 58.31232], [24.55104, 58.33373], [24.52882, 58.35065], [24.44418, 58.38614], [24.40317, 58.39533], [24.36183, 58.39728], [24.34441, 58.39271], [24.327, 58.38813], [24.31593, 58.37995], [24.29575, 58.35497], [24.28686, 58.31855], [24.24332, 58.28023], [24.21078, 58.2714], [24.15602, 58.27684], [24.11166, 58.24105], [24.0838, 58.25071], [24.05323, 58.27827], [23.98024, 58.31843], [23.91383, 58.33332], [23.85508, 58.33957], [23.83351, 58.35395], [23.82447, 58.35456], [23.80568, 58.34652], [23.77711, 58.35497], [23.75562, 58.34004], [23.741, 58.34309], [23.71892, 58.39956], [23.68361, 58.42198], [23.67754, 58.43499], [23.68434, 58.49966], [23.67897, 58.52416], [23.66383, 58.5362], [23.63494, 58.5284], [23.62241, 58.52913], [23.58458, 58.54474], [23.57338, 58.55217], [23.56121, 58.58316], [23.54615, 58.5799], [23.51637, 58.55465], [23.50149, 58.56249], [23.49808, 58.57221], [23.51824, 58.60375], [23.49319, 58.67341], [23.49775, 58.6966], [23.50654, 58.70538], [23.5359, 58.70279], [23.54664, 58.70962], [23.53006, 58.72285], [23.53307, 58.74745], [23.58448, 58.73794], [23.69703, 58.75115], [23.75522, 58.73359], [23.8025, 58.7307], [23.80486, 58.74799], [23.78339, 58.75585], [23.77962, 58.76623], [23.78549, 58.77798], [23.79949, 58.78535], [23.81617, 58.78461], [23.87436, 58.77167], [23.81568, 58.79995], [23.78419, 58.80097], [23.75766, 58.78536], [23.73951, 58.798], [23.71909, 58.79906], [23.67652, 58.79219], [23.60336, 58.79483], [23.5708, 58.78802], [23.54272, 58.77539], [23.50255, 58.77673], [23.48798, 58.76011], [23.45329, 58.7391], [23.41, 58.72303], [23.36045, 58.71121], [23.30696, 58.70296], [23.19785, 58.69469], [22.83725, 58.68966], [22.75187, 58.6956], [22.71492, 58.70335], [22.69468, 58.7146], [22.68682, 58.72854], [22.68733, 58.73346], [22.68098, 58.72407], [22.65494, 58.70279], [22.61117, 58.69051], [22.55568, 58.68701], [22.50173, 58.69478], [22.46309, 58.71646], [22.49724, 58.73753], [22.44949, 58.78681], [22.44371, 58.81932], [22.38035, 58.82126], [22.30253, 58.83927], [22.25191, 58.85627], [22.23757, 58.86429], [22.23517, 58.87112], [22.24823, 58.87617], [22.30416, 58.88355], [22.4091, 58.88933], [22.50357, 58.90283], [22.64041, 58.91249], [22.71052, 58.91191], [22.80593, 58.90358]], [[23.50578, 58.81146], [23.51881, 58.81265], [23.52613, 58.81977], [23.46677, 58.86195], [23.49395, 58.83451], [23.50578, 58.81146]]], [[[18.29011, 56.93926], [18.29848, 56.94817], [18.32052, 56.96734], [18.31152, 56.94807], [18.29011, 56.93926]]], [[[23.93802, 58.13727], [23.95535, 58.15179], [23.98422, 58.15712], [24.01334, 58.1535], [24.02207, 58.13007], [24.00243, 58.10856], [23.97072, 58.09961], [23.94332, 58.11341], [23.93802, 58.13727]]], [[[22.49596, 58.17604], [22.50944, 58.17494], [22.52961, 58.14927], [22.5, 58.12113], [22.49692, 58.13068], [22.47733, 58.14297], [22.49596, 58.17604]]], [[[22.14772, 58.07958], [22.16506, 58.11689], [22.20297, 58.1479], [22.18035, 58.16083], [22.14186, 58.1695], [22.07228, 58.17586], [22.053, 58.1866], [22.01686, 58.23387], [21.99383, 58.2447], [21.92889, 58.24511], [21.89651, 58.25073], [21.86786, 58.2646], [21.85159, 58.28161], [21.84329, 58.30215], [21.85565, 58.30686], [21.90821, 58.29873], [21.87332, 58.34161], [21.89454, 58.34649], [21.94459, 58.31875], [21.96339, 58.32661], [21.95495, 58.34406], [21.96804, 58.35455], [21.99049, 58.35786], [22.01124, 58.35395], [21.99008, 58.38695], [21.94597, 58.43228], [21.90113, 58.46841], [21.83242, 58.51095], [21.88859, 58.49815], [21.91627, 58.50117], [21.92849, 58.51837], [21.99561, 58.51251], [22.02096, 58.49906], [22.06422, 58.45669], [22.07358, 58.42691], [22.08937, 58.42219], [22.09848, 58.42609], [22.09311, 58.44953], [22.1039, 58.48744], [22.12652, 58.50448], [22.17189, 58.52155], [22.19429, 58.54571], [22.21556, 58.54417], [22.22885, 58.51057], [22.24334, 58.50483], [22.2732, 58.50202], [22.28836, 58.56932], [22.32162, 58.58463], [22.46306, 58.59292], [22.55031, 58.62957], [22.58318, 58.6345], [22.61264, 58.6057], [22.64812, 58.58674], [22.68214, 58.60032], [22.73634, 58.58808], [22.75799, 58.59292], [22.81137, 58.62294], [22.84637, 58.61343], [22.90007, 58.62021], [22.98975, 58.60174], [23.03647, 58.58417], [23.09103, 58.57096], [23.12582, 58.5351], [23.14829, 58.52155], [23.18865, 58.5104], [23.25556, 58.49992], [23.31804, 58.47266], [23.33324, 58.45637], [23.32495, 58.4423], [23.2614, 58.46589], [23.23764, 58.45637], [23.26173, 58.45161], [23.27798, 58.43652], [23.23488, 58.4399], [23.19607, 58.45637], [23.18189, 58.47468], [23.1565, 58.47752], [23.13036, 58.43953], [23.10865, 58.42903], [23.08424, 58.42963], [23.08674, 58.39497], [23.04247, 58.3715], [23.02198, 58.36324], [22.97755, 58.38166], [22.95484, 58.38105], [22.94752, 58.37263], [22.96947, 58.36017], [22.90267, 58.31184], [22.85402, 58.29873], [22.8112, 58.27343], [22.74293, 58.27383], [22.7212, 58.27033], [22.71013, 58.25776], [22.75665, 58.24225], [22.72314, 58.22542], [22.66921, 58.22151], [22.65496, 58.2447], [22.62135, 58.25275], [22.58619, 58.24779], [22.56495, 58.23519], [22.535, 58.25405], [22.51757, 58.23042], [22.50415, 58.22355], [22.49726, 58.22306], [22.49098, 58.2447], [22.47682, 58.2451], [22.42164, 58.22164], [22.38795, 58.22675], [22.32342, 58.20661], [22.27174, 58.17426], [22.26531, 58.11484], [22.2294, 58.0524], [22.19988, 58.02603], [22.20295, 57.99397], [22.19023, 57.98405], [22.04834, 57.91512], [22.01687, 57.91451], [21.9901, 57.93562], [21.99073, 57.95824], [21.96414, 57.97139], [21.96341, 57.98402], [21.99757, 57.98404], [22.02136, 58.02122], [22.08572, 58.08258], [22.09621, 58.0864], [22.13551, 58.07673], [22.14772, 58.07958]]], [[[23.1758, 58.68109], [23.19811, 58.68056], [23.28834, 58.66648], [23.34347, 58.6449], [23.3475, 58.60716], [23.38176, 58.57973], [23.40021, 58.55541], [23.37989, 58.54755], [23.36215, 58.53247], [23.31373, 58.54466], [23.27858, 58.54637], [23.23487, 58.53466], [23.22382, 58.53548], [23.13461, 58.5799], [23.08326, 58.59052], [23.05936, 58.60346], [23.06286, 58.62457], [23.07511, 58.62969], [23.10613, 58.62421], [23.12094, 58.62832], [23.13463, 58.66181], [23.15465, 58.67592], [23.1758, 58.68109]]], [[[23.36834, 58.97673], [23.39321, 58.99762], [23.38475, 58.98054], [23.36834, 58.97673]]]]}}]}