{"type": "FeatureCollection", "features": [{"type": "Feature", "properties": {"name": "마다가스카르", "name_en": "Madagascar", "period": "1913년경", "kind": "식민지", "legend": "마다가스카르", "map_title": "제국주의 열강의 아프리카 분할(1913년경)", "source": "미래엔 세계사 교과서 3권 156쪽", "volume": 3, "page": 156, "note": "프랑스령", "coast_snap": "Natural Earth 10m 해안선에 맞춤", "group": "마다가스카르", "map_folder": "3권_p156_제국주의 열강의 아프리카 분할(1913년경)"}, "geometry": {"type": "MultiPolygon", "coordinates": [[[[43.2741, -22.21601], [43.29518, -22.23447], [43.30177, -22.21884], [43.29518, -22.16611], [43.26092, -22.16561], [43.24732, -22.1258], [43.24685, -22.03509], [43.261, -21.99383], [43.26272, -21.9599], [43.27468, -21.94639], [43.28834, -21.9389], [43.28094, -21.91172], [43.2825, -21.89837], [43.30209, -21.86445], [43.31381, -21.87886], [43.31528, -21.89577], [43.30885, -21.93206], [43.32928, -21.90504], [43.3362, -21.76882], [43.34748, -21.7501], [43.41415, -21.67508], [43.43129, -21.66243], [43.45069, -21.65986], [43.47267, -21.67205], [43.47268, -21.40521], [43.5075, -21.30953], [43.51531, -21.32659], [43.52328, -21.32676], [43.54225, -21.30951], [43.56959, -21.29599], [43.58693, -21.27485], [43.64259, -21.27606], [43.68002, -21.26606], [43.73463, -21.28167], [43.75953, -21.27272], [43.78859, -21.25115], [43.81276, -21.2243], [43.82276, -21.19939], [43.82797, -21.16982], [43.86378, -21.07627], [43.90165, -20.88271], [43.96462, -20.76736], [43.98561, -20.74799], [44.01832, -20.74041], [44.03639, -20.72552], [44.09034, -20.63055], [44.12583, -20.49831], [44.1517, -20.46602], [44.15854, -20.49334], [44.18288, -20.4389], [44.19666, -20.4218], [44.25473, -20.37607], [44.25132, -20.34393], [44.26125, -20.30755], [44.33412, -20.16983], [44.35574, -20.13813], [44.41538, -20.08318], [44.43897, -20.05535], [44.47389, -19.98626], [44.47934, -19.91277], [44.47185, -19.87949], [44.45339, -19.87704], [44.43979, -19.84222], [44.4118, -19.83537], [44.39829, -19.82415], [44.37496, -19.79138], [44.37087, -19.77402], [44.37489, -19.76029], [44.40968, -19.70143], [44.41179, -19.65049], [44.40359, -19.62176], [44.40497, -19.61013], [44.43295, -19.58904], [44.44045, -19.55487], [44.44842, -19.54438], [44.47047, -19.54062], [44.48374, -19.52321], [44.47975, -19.48398], [44.45965, -19.41766], [44.44467, -19.38584], [44.42555, -19.35621], [44.37811, -19.31259], [44.37087, -19.30095], [44.36305, -19.26816], [44.344, -19.23553], [44.25193, -19.12143], [44.2344, -19.0888], [44.22758, -19.0544], [44.2344, -18.99627], [44.2479, -18.9651], [44.2479, -18.90374], [44.24172, -18.89007], [44.25473, -18.86972], [44.26092, -18.8449], [44.25734, -18.80389], [44.18588, -18.61077], [44.0496, -18.42633], [44.04176, -18.39672], [44.04184, -18.19801], [44.00265, -18.00386], [44.00099, -17.93811], [44.03061, -17.8139], [44.03566, -17.76946], [44.03028, -17.75457], [44.00637, -17.73308], [43.99244, -17.68743], [43.92922, -17.60165], [43.9236, -17.57731], [43.9326, -17.48518], [43.94304, -17.45597], [43.99415, -17.37567], [44.01206, -17.33409], [44.01832, -17.33124], [44.03012, -17.33701], [44.03647, -17.32952], [44.04578, -17.30038], [44.14552, -17.15594], [44.15171, -17.09443], [44.1797, -17.09515], [44.20411, -17.0569], [44.23818, -16.97077], [44.27223, -16.93336], [44.28583, -16.90228], [44.30926, -16.87428], [44.34051, -16.8139], [44.36652, -16.77705], [44.40162, -16.73984], [44.43068, -16.70037], [44.43979, -16.65553], [44.41181, -16.57301], [44.41685, -16.54893], [44.42848, -16.53771], [44.43881, -16.5426], [44.43979, -16.56699], [44.45558, -16.54095], [44.46339, -16.51336], [44.4629, -16.48545], [44.45338, -16.4577], [44.41596, -16.40326], [44.40074, -16.37301], [44.39822, -16.34043], [44.4103, -16.31377], [44.43605, -16.27898], [44.44468, -16.19574], [44.45282, -16.18671], [44.46941, -16.18223], [44.53696, -16.17654], [44.75506, -16.19695], [44.78231, -16.19087], [44.79444, -16.19168], [44.83619, -16.22064], [44.85426, -16.22536], [44.86834, -16.22088], [44.89159, -16.19105], [44.90548, -16.18323], [44.96111, -16.16961], [44.95299, -16.16278], [45.04021, -16.1181], [45.09412, -16.03859], [45.13869, -15.99091], [45.22731, -15.94988], [45.26637, -15.92394], [45.27344, -15.93011], [45.27719, -15.97633], [45.29561, -16.03651], [45.28875, -16.09043], [45.29038, -16.10345], [45.29786, -16.11199], [45.31365, -16.115], [45.32895, -16.11012], [45.35809, -16.07685], [45.3921, -16.06439], [45.40626, -16.05486], [45.41293, -16.03924], [45.41041, -16.03053], [45.3908, -16.02336], [45.37893, -16.0114], [45.37079, -15.99456], [45.3703, -15.98187], [45.37941, -15.97382], [45.54274, -15.95672], [45.57007, -15.94306], [45.57748, -15.97096], [45.59033, -15.98756], [45.59058, -16.00172], [45.57976, -16.03069], [45.58041, -16.04078], [45.5979, -16.03242], [45.60475, -16.05185], [45.61207, -16.04957], [45.62184, -16.0324], [45.61159, -15.98089], [45.61461, -15.96983], [45.63836, -15.94305], [45.63837, -15.91522], [45.64625, -15.89121], [45.64576, -15.88104], [45.62144, -15.85076], [45.62868, -15.83701], [45.66114, -15.80366], [45.69386, -15.78315], [45.70427, -15.7825], [45.73585, -15.79258], [45.76588, -15.79421], [45.80201, -15.81658], [45.82447, -15.81341], [45.89796, -15.7746], [45.92693, -15.77118], [45.94836, -15.77415], [45.95605, -15.78298], [45.95428, -15.8161], [45.95875, -15.83994], [45.98146, -15.84686], [46.01579, -15.84687], [46.04298, -15.8611], [46.06609, -15.86191], [46.04983, -15.82635], [46.07081, -15.79608], [46.07097, -15.77858], [46.00995, -15.81437], [46.01581, -15.79225], [46.03046, -15.76929], [46.07427, -15.73104], [46.09769, -15.71698], [46.14422, -15.70372], [46.21876, -15.70669], [46.23063, -15.71072], [46.23539, -15.71728], [46.23699, -15.73968], [46.24902, -15.75807], [46.22583, -15.80632], [46.20737, -15.81951], [46.24512, -15.85248], [46.29298, -15.94069], [46.33107, -15.97723], [46.33222, -15.94281], [46.3379, -15.93622], [46.34595, -15.93866], [46.36508, -15.96356], [46.38494, -15.95916], [46.39332, -15.94183], [46.39259, -15.9201], [46.3856, -15.90212], [46.41195, -15.89968], [46.4485, -15.9415], [46.46876, -15.95672], [46.47918, -15.94891], [46.44435, -15.88104], [46.42458, -15.87248], [46.38315, -15.83489], [46.35825, -15.82635], [46.31748, -15.8264], [46.29901, -15.81568], [46.3008, -15.80902], [46.32472, -15.79225], [46.35125, -15.75205], [46.35564, -15.73252], [46.34474, -15.71706], [46.30861, -15.71769], [46.30373, -15.71022], [46.3327, -15.63015], [46.39617, -15.57659], [46.45908, -15.50792], [46.48243, -15.49116], [46.48862, -15.51165], [46.60475, -15.42426], [46.65772, -15.42205], [46.68043, -15.41546], [46.66725, -15.40683], [46.63625, -15.39852], [46.63259, -15.38885], [46.64333, -15.37803], [46.70094, -15.36435], [46.80397, -15.29193], [46.87941, -15.22504], [46.92164, -15.21307], [46.94969, -15.19837], [46.96502, -15.19509], [46.97144, -15.19843], [46.97722, -15.24725], [46.99732, -15.28216], [47.07472, -15.32421], [47.07487, -15.33635], [47.0498, -15.37476], [47.01157, -15.40545], [46.96705, -15.49228], [46.95509, -15.52597], [46.95826, -15.54957], [46.969, -15.55185], [46.98553, -15.50498], [46.99725, -15.49473], [47.05104, -15.48382], [47.11655, -15.45518], [47.14763, -15.44648], [47.18002, -15.45713], [47.21632, -15.44378], [47.23211, -15.43328], [47.23536, -15.41546], [47.23146, -15.40976], [47.19948, -15.40015], [47.17906, -15.36549], [47.16554, -15.29567], [47.16228, -15.29266], [47.1408, -15.29363], [47.11183, -15.30623], [47.11037, -15.28216], [47.11988, -15.25791], [47.09539, -15.25936], [47.08791, -15.25465], [47.08172, -15.23431], [47.05788, -15.21624], [47.05593, -15.19362], [47.06472, -15.17206], [47.09198, -15.13495], [47.20574, -15.04664], [47.2274, -14.98749], [47.24152, -14.96953], [47.29199, -14.9233], [47.33506, -14.90415], [47.3589, -14.90154], [47.37184, -14.89056], [47.37485, -14.86728], [47.36834, -14.84661], [47.35206, -14.84352], [47.34108, -14.85247], [47.33521, -14.86858], [47.32406, -14.87427], [47.30861, -14.87517], [47.29917, -14.86955], [47.28372, -14.84695], [47.28989, -14.84694], [47.32016, -14.80006], [47.445, -14.67144], [47.45883, -14.66157], [47.46533, -14.66547], [47.4756, -14.68865], [47.49609, -14.71161], [47.49301, -14.78338], [47.49676, -14.79852], [47.51392, -14.80918], [47.51709, -14.81959], [47.50342, -14.84693], [47.44597, -14.9122], [47.43084, -14.93572], [47.42066, -14.96559], [47.41041, -15.08782], [47.41375, -15.09987], [47.42774, -15.1076], [47.43963, -15.10516], [47.48243, -15.08026], [47.5005, -15.05299], [47.52297, -14.99872], [47.55128, -14.97667], [47.56251, -14.98504], [47.56496, -14.94997], [47.57057, -14.93329], [47.6421, -14.80039], [47.65187, -14.75889], [47.68442, -14.72649], [47.69094, -14.69248], [47.72136, -14.67498], [47.75294, -14.63486], [47.76368, -14.60573], [47.79265, -14.58758], [47.79713, -14.56635], [47.83961, -14.6242], [47.85914, -14.6408], [47.9036, -14.65441], [47.9144, -14.66204], [47.91961, -14.674], [47.92066, -14.70973], [47.93523, -14.69378], [47.93629, -14.67156], [47.92807, -14.6513], [47.91441, -14.6408], [47.94215, -14.61925], [47.9686, -14.62217], [47.98852, -14.64317], [47.99622, -14.6752], [47.9948, -14.74334], [48.00026, -14.7623], [48.01686, -14.73707], [48.02247, -14.7077], [48.02215, -14.6666], [48.01303, -14.63006], [47.99293, -14.61419], [47.9795, -14.6098], [47.94484, -14.57635], [47.92604, -14.5665], [47.91098, -14.56878], [47.86671, -14.59196], [47.85377, -14.59448], [47.84002, -14.5914], [47.82496, -14.57936], [47.81072, -14.55088], [47.80388, -14.54559], [47.77564, -14.58359], [47.75295, -14.60051], [47.72138, -14.54534], [47.73561, -14.52483], [47.70836, -14.47014], [47.71469, -14.45794], [47.70152, -14.44638], [47.7032, -14.40293], [47.70949, -14.36956], [47.72185, -14.33828], [47.74245, -14.3126], [47.77369, -14.2903], [47.77786, -14.24456], [47.79087, -14.22325], [47.81446, -14.21601], [47.86101, -14.24879], [47.90691, -14.2436], [47.92677, -14.24627], [47.93482, -14.24359], [47.94353, -14.23252], [47.95533, -14.18524], [47.94174, -14.13486], [47.92652, -14.11102], [47.90701, -14.0997], [47.9201, -14.08605], [47.94158, -14.0919], [47.98268, -14.12078], [48.00749, -14.13259], [48.01367, -14.14056], [48.01497, -14.15358], [48.00026, -14.17254], [47.97853, -14.26238], [47.97511, -14.2973], [47.98276, -14.32537], [47.99627, -14.32562], [48.00294, -14.31756], [48.00311, -14.28526], [48.03395, -14.26238], [48.03395, -14.25384], [48.01833, -14.23349], [48.01051, -14.20957], [48.01776, -14.1876], [48.04477, -14.15162], [48.05096, -14.1303], [48.04819, -14.08408], [48.03932, -14.06634], [47.99951, -14.05303], [47.94111, -14.00409], [48.0171, -13.96543], [48.0171, -13.95281], [47.969, -13.92213], [47.92873, -13.90634], [47.9175, -13.89763], [47.8913, -13.8497], [47.87587, -13.78448], [47.88381, -13.72846], [47.9275, -13.70924], [47.91684, -13.69378], [47.8952, -13.67896], [47.89328, -13.65374], [47.90432, -13.60321], [47.91782, -13.58263], [47.95297, -13.59026], [47.96119, -13.56553], [47.9656, -13.52077], [47.98488, -13.50678], [47.99537, -13.50678], [48.00309, -13.51735], [47.9826, -13.54314], [47.98951, -13.55836], [48.01049, -13.55154], [48.00514, -13.56365], [48.00734, -13.5748], [48.01531, -13.58017], [48.02711, -13.57513], [48.03534, -13.54999], [48.05096, -13.54412], [48.03257, -13.52459], [48.03127, -13.5172], [48.06837, -13.51736], [48.08366, -13.52875], [48.09938, -13.59938], [48.12713, -13.58702], [48.14242, -13.5954], [48.17187, -13.68565], [48.1753, -13.716], [48.1784, -13.72137], [48.19401, -13.72699], [48.18133, -13.74676], [48.19239, -13.76686], [48.21852, -13.78582], [48.24822, -13.79998], [48.27036, -13.80535], [48.29868, -13.79827], [48.3274, -13.77996], [48.34116, -13.75555], [48.32457, -13.72967], [48.33155, -13.71412], [48.33205, -13.66139], [48.35955, -13.59938], [48.33775, -13.56414], [48.33336, -13.54633], [48.35271, -13.53787], [48.36426, -13.54356], [48.39356, -13.58571], [48.40725, -13.54955], [48.42759, -13.52419], [48.45896, -13.51658], [48.48976, -13.51735], [48.48977, -13.49703], [48.51287, -13.51678], [48.52467, -13.52305], [48.53419, -13.52077], [48.5066, -13.44915], [48.48228, -13.41513], [48.4787, -13.38798], [48.48228, -13.36046], [48.49789, -13.36396], [48.507, -13.37315], [48.52392, -13.39463], [48.52442, -13.4109], [48.54274, -13.42295], [48.60499, -13.44549], [48.63942, -13.43573], [48.67465, -13.44232], [48.71095, -13.43231], [48.74741, -13.41155], [48.78012, -13.38388], [48.80502, -13.35296], [48.78771, -13.33291], [48.80194, -13.30463], [48.8392, -13.26043], [48.82126, -13.22467], [48.81869, -13.17663], [48.84346, -13.081], [48.85679, -13.053], [48.88453, -13.01653], [48.90554, -12.96112], [48.93065, -12.93354], [48.94166, -12.9284], [48.93728, -12.90309], [48.95314, -12.83847], [48.95533, -12.8117], [48.91482, -12.74981], [48.90187, -12.68239], [48.88697, -12.66082], [48.8703, -12.65764], [48.86591, -12.64723], [48.86623, -12.63714], [48.88014, -12.61932], [48.87331, -12.59198], [48.88697, -12.56463], [48.8794, -12.55267], [48.86793, -12.55145], [48.83921, -12.56461], [48.83872, -12.53525], [48.82984, -12.51849], [48.79763, -12.48951], [48.77369, -12.43524], [48.77084, -12.45475], [48.73001, -12.43499], [48.74204, -12.42539], [48.75962, -12.39814], [48.77084, -12.39708], [48.79363, -12.40569], [48.85248, -12.41371], [48.87386, -12.43174], [48.90406, -12.48895], [48.91505, -12.49481], [48.94581, -12.47991], [48.95533, -12.46917], [48.95948, -12.4542], [48.96218, -12.40081], [48.97576, -12.37347], [48.97577, -12.34613], [48.9845, -12.33362], [48.99741, -12.32367], [49.01157, -12.32001], [49.02418, -12.32578], [49.03078, -12.30788], [49.0534, -12.29193], [49.0652, -12.27729], [49.07993, -12.29518], [49.1198, -12.24262], [49.13624, -12.25612], [49.15122, -12.25075], [49.16261, -12.23447], [49.16822, -12.21592], [49.16067, -12.1928], [49.16148, -12.18154], [49.16703, -12.17043], [49.18922, -12.15375], [49.19907, -12.15203], [49.20151, -12.14666], [49.18686, -12.12363], [49.16139, -12.11955], [49.14088, -12.09857], [49.09305, -12.09855], [49.10646, -12.08027], [49.14666, -12.06756], [49.16139, -12.05073], [49.17651, -12.06114], [49.20916, -12.10605], [49.216, -12.09857], [49.2234, -12.10605], [49.22446, -12.08668], [49.21681, -12.06504], [49.202, -12.04811], [49.18197, -12.04368], [49.19186, -12.02717], [49.21599, -12.0097], [49.2095, -11.99326], [49.2125, -11.98612], [49.24237, -11.95388], [49.26002, -11.94363], [49.27808, -11.9477], [49.31592, -11.98594], [49.32259, -12.0001], [49.32276, -12.0289], [49.34912, -12.06618], [49.35304, -12.14625], [49.37085, -12.18329], [49.37305, -12.19817], [49.3672, -12.19865], [49.32944, -12.15716], [49.32016, -12.15537], [49.29851, -12.18173], [49.28493, -12.17839], [49.27358, -12.16752], [49.26384, -12.14023], [49.25318, -12.1452], [49.24, -12.16286], [49.23707, -12.17425], [49.24919, -12.18028], [49.22967, -12.2221], [49.26539, -12.22479], [49.2837, -12.2309], [49.29175, -12.23944], [49.27125, -12.2636], [49.27638, -12.28135], [49.2815, -12.28484], [49.299, -12.25937], [49.30714, -12.25515], [49.32585, -12.27728], [49.31951, -12.29518], [49.34938, -12.29852], [49.36687, -12.2916], [49.37257, -12.27435], [49.35842, -12.24619], [49.36314, -12.23285], [49.38136, -12.22284], [49.39274, -12.22976], [49.42171, -12.27435], [49.42823, -12.31146], [49.45541, -12.35149], [49.45623, -12.37347], [49.47153, -12.35199], [49.49659, -12.34613], [49.51172, -12.34874], [49.53939, -12.37819], [49.54574, -12.40203], [49.53829, -12.40687], [49.50099, -12.39739], [49.49041, -12.407], [49.52768, -12.44264], [49.53907, -12.44411], [49.5586, -12.42069], [49.58631, -12.48176], [49.59494, -12.52992], [49.59245, -12.54264], [49.58277, -12.54078], [49.57472, -12.52972], [49.57211, -12.48952], [49.56609, -12.5167], [49.58089, -12.57366], [49.57552, -12.59579], [49.56324, -12.6168], [49.56251, -12.62786], [49.57472, -12.65667], [49.60027, -12.64724], [49.63528, -12.67438], [49.65332, -12.69476], [49.67529, -12.75709], [49.6548, -12.80486], [49.67262, -12.79844], [49.68881, -12.80486], [49.70704, -12.77614], [49.71218, -12.74864], [49.71934, -12.7401], [49.73048, -12.73806], [49.74414, -12.74343], [49.73666, -12.75709], [49.76384, -12.76713], [49.80493, -12.80487], [49.80193, -12.83929], [49.81471, -12.86582], [49.82407, -12.87624], [49.83668, -12.88055], [49.86426, -12.88048], [49.87378, -12.88837], [49.87451, -12.90846], [49.85629, -12.91693], [49.85255, -12.92441], [49.86704, -12.94207], [49.90446, -12.96234], [49.91383, -12.99717], [49.94214, -13.03387], [49.94407, -13.08782], [49.93531, -13.16806], [49.94215, -13.2195], [49.94597, -13.23211], [49.97314, -13.2711], [49.97624, -13.28851], [49.97267, -13.33131], [49.9769, -13.34612], [49.99049, -13.35394], [50.01368, -13.34483], [50.02409, -13.34613], [50.03288, -13.36053], [50.0241, -13.41155], [50.02613, -13.43841], [50.04054, -13.497], [50.05201, -13.52418], [50.07251, -13.54413], [50.07252, -13.5783], [50.07936, -13.60613], [50.08522, -13.61207], [50.09928, -13.61518], [50.10547, -13.6417], [50.09742, -13.67571], [50.13395, -13.75018], [50.1429, -13.78314], [50.15349, -13.98252], [50.17351, -14.05682], [50.17625, -14.08536], [50.17529, -14.12119], [50.16326, -14.16709], [50.16424, -14.22308], [50.17107, -14.2348], [50.19605, -14.25727], [50.21291, -14.28742], [50.2136, -14.31605], [50.18922, -14.43914], [50.20345, -14.50433], [50.21078, -14.61517], [50.23804, -14.66961], [50.24088, -14.70599], [50.23226, -14.73821], [50.20973, -14.75067], [50.21892, -14.76287], [50.25749, -14.78485], [50.2652, -14.7976], [50.2837, -14.87916], [50.35524, -15.03314], [50.42222, -15.11837], [50.43213, -15.13421], [50.44044, -15.16806], [50.47656, -15.19509], [50.48991, -15.21933], [50.49829, -15.25205], [50.50387, -15.31644], [50.48756, -15.35361], [50.49085, -15.37785], [50.47804, -15.41863], [50.4834, -15.44345], [50.4629, -15.47015], [50.45595, -15.50529], [50.43824, -15.55495], [50.42985, -15.60027], [50.34099, -15.7636], [50.33318, -15.79225], [50.34326, -15.79803], [50.33687, -15.81108], [50.26442, -15.90211], [50.24153, -15.95826], [50.22993, -15.97102], [50.21404, -15.97502], [50.18287, -15.97332], [50.16815, -15.98462], [50.14796, -15.93532], [50.13087, -15.91937], [50.1067, -15.92253], [50.05747, -15.88103], [50.03892, -15.85947], [50.02467, -15.77117], [50.01253, -15.7664], [49.98536, -15.74224], [49.96512, -15.70256], [49.96267, -15.66937], [49.97584, -15.62664], [49.95973, -15.60565], [49.9341, -15.5979], [49.90562, -15.56161], [49.9031, -15.54876], [49.90903, -15.50026], [49.90114, -15.44964], [49.9074, -15.43092], [49.90113, -15.4223], [49.87762, -15.41888], [49.85141, -15.43205], [49.75034, -15.43597], [49.71778, -15.44671], [49.69549, -15.46649], [49.63844, -15.54461], [49.63942, -15.57049], [49.66097, -15.6277], [49.66211, -15.6416], [49.66091, -15.65589], [49.64796, -15.68304], [49.67725, -15.71934], [49.68531, -15.75286], [49.69947, -15.78574], [49.70631, -15.8362], [49.73372, -15.90569], [49.72326, -15.93914], [49.69264, -15.99147], [49.6836, -16.02028], [49.68312, -16.05364], [49.68979, -16.08685], [49.70265, -16.115], [49.72877, -16.13942], [49.79395, -16.16205], [49.82276, -16.17987], [49.8457, -16.21209], [49.84985, -16.24082], [49.82862, -16.3344], [49.82692, -16.3733], [49.83237, -16.40797], [49.8606, -16.42938], [49.8631, -16.44432], [49.85402, -16.50514], [49.854, -16.53964], [49.79663, -16.64104], [49.76774, -16.67343], [49.72316, -16.7081], [49.72495, -16.754], [49.73211, -16.77508], [49.74732, -16.79681], [49.76832, -16.81561], [49.78989, -16.82643], [49.81365, -16.83017], [49.8403, -16.82758], [49.77833, -16.85555], [49.71974, -16.86403], [49.69483, -16.87712], [49.62452, -16.88567], [49.60841, -16.89658], [49.59571, -16.91204], [49.52898, -17.04168], [49.48248, -17.16745], [49.43133, -17.28387], [49.4214, -17.35516], [49.42596, -17.37021], [49.45627, -17.41737], [49.50404, -17.66279], [49.5096, -17.72772], [49.49766, -17.79705], [49.41391, -18.06707], [49.41391, -18.10182], [49.41798, -18.11549], [49.43837, -18.14266], [49.44075, -18.15423], [49.41456, -18.1701], [49.38412, -18.22552], [49.35921, -18.424], [49.32586, -18.47186], [49.3018, -18.54039], [49.24317, -18.65683], [49.1911, -18.8427], [49.11345, -19.01246], [49.07692, -19.06561], [48.98576, -19.37906], [48.85963, -19.68467], [48.82553, -19.84222], [48.82373, -19.90276], [48.79135, -19.99307], [48.77272, -19.96445], [48.75953, -19.9555], [48.7505, -19.96575], [48.75465, -19.97731], [48.77897, -20.00921], [48.7845, -20.02435], [48.78174, -20.0372], [48.69923, -20.19988], [48.64178, -20.34539], [48.56227, -20.57708], [48.46247, -20.93201], [48.43019, -20.97918], [48.43442, -20.99358], [48.4475, -20.98091], [48.45492, -20.98456], [48.45557, -21.01409], [48.43133, -21.05853], [48.4148, -21.14397], [48.37859, -21.22389], [48.35669, -21.35369], [48.32814, -21.41465], [48.20173, -21.79638], [47.94744, -22.34824], [47.93359, -22.41415], [47.90064, -22.48113], [47.8587, -22.74571], [47.83937, -22.80657], [47.83382, -22.90097], [47.80002, -23.012], [47.76238, -23.11012], [47.73804, -23.25546], [47.61947, -23.59057], [47.60222, -23.56536], [47.59653, -23.56317], [47.57496, -23.59873], [47.58188, -23.60459], [47.59831, -23.60606], [47.61605, -23.61444], [47.62012, -23.64039], [47.56858, -23.85292], [47.51446, -23.98668], [47.49687, -24.01618], [47.46876, -24.0363], [47.4485, -24.0451], [47.45508, -24.05645], [47.44824, -24.08464], [47.43084, -24.11785], [47.37077, -24.27011], [47.36305, -24.27653], [47.3296, -24.2636], [47.32472, -24.26963], [47.33838, -24.32431], [47.31225, -24.48593], [47.22845, -24.68016], [47.20338, -24.71648], [47.20117, -24.76246], [47.1942, -24.77803], [47.14283, -24.81406], [47.12892, -24.8449], [47.13745, -24.90927], [47.12615, -24.93432], [47.10906, -24.90976], [47.10564, -24.87916], [47.09685, -24.89332], [47.09879, -24.9406], [47.09456, -24.96013], [47.08724, -24.96835], [47.04086, -24.98854], [47.01271, -25.01246], [46.96451, -25.06579], [46.95485, -25.07096], [46.94117, -25.0442], [46.92661, -25.04371], [46.83497, -25.11062], [46.79412, -25.12786], [46.76978, -25.15349], [46.74147, -25.14959], [46.72217, -25.16667], [46.65365, -25.18384], [46.50221, -25.1618], [46.38657, -25.16481], [46.23764, -25.19818], [46.03972, -25.27776], [45.91407, -25.33734], [45.77418, -25.40814], [45.67374, -25.49457], [45.6342, -25.51474], [45.61158, -25.51653], [45.5612, -25.55998], [45.4922, -25.57365], [45.20769, -25.58489], [45.16261, -25.59855], [45.14553, -25.59538], [45.13609, -25.58416], [45.12664, -25.54583], [45.11818, -25.52956], [45.08766, -25.50823], [44.98079, -25.47173], [44.93814, -25.43832], [44.92555, -25.40781], [44.9087, -25.39373], [44.83473, -25.34401], [44.76734, -25.31439], [44.72779, -25.30364], [44.62208, -25.28973], [44.51658, -25.28437], [44.36972, -25.25681], [44.3511, -25.24748], [44.33619, -25.20892], [44.30373, -25.17538], [44.29641, -25.1535], [44.31577, -25.1609], [44.36402, -25.20778], [44.38404, -25.22088], [44.40089, -25.22145], [44.40943, -25.21055], [44.40496, -25.18816], [44.38879, -25.1909], [44.34978, -25.16033], [44.31804, -25.14422], [44.28273, -25.14038], [44.24758, -25.1272], [44.18718, -25.06699], [44.1517, -25.05047], [44.10858, -25.04801], [44.02883, -24.99895], [44.01736, -24.97722], [44.01092, -24.89861], [44.00099, -24.86541], [43.92849, -24.77459], [43.91837, -24.74216], [43.92799, -24.65244], [43.9183, -24.61907], [43.90821, -24.60215], [43.85537, -24.55104], [43.83985, -24.50579], [43.80665, -24.47926], [43.73716, -24.43571], [43.70672, -24.40618], [43.67287, -24.33489], [43.65627, -24.18532], [43.66961, -24.01328], [43.65212, -23.91644], [43.66521, -23.8786], [43.64373, -23.79778], [43.62478, -23.76189], [43.63901, -23.74131], [43.63698, -23.67051], [43.64162, -23.63893], [43.66375, -23.61941], [43.73097, -23.59205], [43.7483, -23.57008], [43.74643, -23.55389], [43.73293, -23.52776], [43.73461, -23.50944], [43.75457, -23.48887], [43.76124, -23.4638], [43.74724, -23.4402], [43.72056, -23.4196], [43.70143, -23.39544], [43.65895, -23.35784], [43.63901, -23.35149], [43.63095, -23.34464], [43.61428, -23.28199], [43.61004, -23.19231], [43.59685, -23.11761], [43.58318, -23.07586], [43.55592, -23.04827], [43.48757, -23.00155], [43.4603, -22.95566], [43.42775, -22.93059], [43.39341, -22.89511], [43.36118, -22.84319], [43.35133, -22.78851], [43.33873, -22.76132], [43.33351, -22.70908], [43.32164, -22.68084], [43.31568, -22.64528], [43.29177, -22.61077], [43.28493, -22.5875], [43.28834, -22.518], [43.27801, -22.42588], [43.26401, -22.3777], [43.24026, -22.33229], [43.24057, -22.30267], [43.22292, -22.25481], [43.22515, -22.23621], [43.24684, -22.21837], [43.2741, -22.21601]]], [[[49.85738, -16.91952], [49.88819, -16.88152], [49.95582, -16.77972], [49.96462, -16.73415], [49.97301, -16.72134], [50.02409, -16.69038], [50.01986, -16.71453], [49.98374, -16.78672], [49.95726, -16.86426], [49.90856, -16.96676], [49.87281, -17.01312], [49.84448, -17.07219], [49.82619, -17.09439], [49.8174, -17.06715], [49.82247, -17.04155], [49.85084, -16.97772], [49.85738, -16.91952]]], [[[48.3758, -13.24366], [48.40426, -13.22483], [48.41064, -13.22505], [48.42535, -13.23705], [48.43963, -13.25731], [48.45244, -13.2843], [48.45941, -13.33887], [48.46371, -13.44237], [48.36529, -13.39105], [48.36621, -13.40065], [48.35954, -13.40796], [48.32838, -13.41512], [48.31837, -13.40065], [48.29802, -13.40813], [48.26173, -13.40243], [48.23585, -13.38714], [48.22902, -13.38714], [48.229, -13.40064], [48.216, -13.39462], [48.20632, -13.38258], [48.19969, -13.36129], [48.19501, -13.31878], [48.20444, -13.28232], [48.20387, -13.26979], [48.18875, -13.26425], [48.19876, -13.25125], [48.22934, -13.2623], [48.24285, -13.25678], [48.25904, -13.26735], [48.26922, -13.26832], [48.27687, -13.26426], [48.27817, -13.25652], [48.26386, -13.23308], [48.26501, -13.21174], [48.28491, -13.21325], [48.2974, -13.19559], [48.31836, -13.2003], [48.32641, -13.21283], [48.32546, -13.22937], [48.31495, -13.24676], [48.32373, -13.25189], [48.33641, -13.28308], [48.3758, -13.24366]]]]}}, {"type": "Feature", "properties": {"name": "마다가스카르", "name_en": "Madagascar", "period": "1914년", "kind": "식민지", "level": "개별 지역", "colonizer": "프랑스령", "legend": "마다가스카르", "map_title": "아프리카의 저항 운동", "source": "미래엔 세계사 교과서 3권 173쪽", "volume": 3, "page": 173, "coast_snap": "Natural Earth 10m 해안선에 맞춤", "group": "마다가스카르", "map_folder": "3권_p173_아프리카의 저항 운동"}, "geometry": {"type": "MultiPolygon", "coordinates": [[[[43.24684, -22.21837], [43.2741, -22.21601], [43.29518, -22.23447], [43.30177, -22.21884], [43.29518, -22.16611], [43.26092, -22.16561], [43.24732, -22.1258], [43.24685, -22.03509], [43.261, -21.99383], [43.26272, -21.9599], [43.27468, -21.94639], [43.28834, -21.9389], [43.28094, -21.91172], [43.2825, -21.89837], [43.30209, -21.86445], [43.31381, -21.87886], [43.31528, -21.89577], [43.30885, -21.93206], [43.32928, -21.90504], [43.3362, -21.76882], [43.34748, -21.7501], [43.41415, -21.67508], [43.43129, -21.66243], [43.45069, -21.65986], [43.47267, -21.67205], [43.47268, -21.40521], [43.5075, -21.30953], [43.51531, -21.32659], [43.52328, -21.32676], [43.54225, -21.30951], [43.56959, -21.29599], [43.58693, -21.27485], [43.64259, -21.27606], [43.68002, -21.26606], [43.73463, -21.28167], [43.75953, -21.27272], [43.78859, -21.25115], [43.81276, -21.2243], [43.82276, -21.19939], [43.82797, -21.16982], [43.86378, -21.07627], [43.87347, -21.02677], [43.94305, -21.03865], [43.97927, -21.05008], [44.04644, -21.08226], [44.1089, -21.12873], [44.12046, -21.12723], [44.16009, -21.01328], [44.37586, -20.64077], [44.48449, -20.53452], [44.55909, -20.35037], [44.55305, -20.34056], [44.4989, -20.32795], [44.43031, -20.29918], [44.36938, -20.25862], [44.31525, -20.20555], [44.35574, -20.13813], [44.41538, -20.08318], [44.43898, -20.05535], [44.47389, -19.98626], [44.47934, -19.91277], [44.47185, -19.87949], [44.45339, -19.87704], [44.43979, -19.84222], [44.4118, -19.83537], [44.39829, -19.82415], [44.37496, -19.79138], [44.37087, -19.77402], [44.37489, -19.76029], [44.40968, -19.70143], [44.41179, -19.65049], [44.40359, -19.62176], [44.40497, -19.61013], [44.43295, -19.58904], [44.44045, -19.55487], [44.44842, -19.54438], [44.47047, -19.54062], [44.48374, -19.52321], [44.47975, -19.48398], [44.45965, -19.41766], [44.44467, -19.38584], [44.42555, -19.35621], [44.37811, -19.31259], [44.37087, -19.30095], [44.36305, -19.26816], [44.344, -19.23553], [44.25193, -19.12143], [44.2344, -19.0888], [44.22758, -19.0544], [44.2344, -18.99627], [44.2479, -18.9651], [44.2479, -18.90374], [44.24172, -18.89007], [44.25473, -18.86972], [44.26092, -18.8449], [44.25734, -18.80389], [44.18588, -18.61077], [44.0496, -18.42633], [44.04176, -18.39672], [44.04184, -18.19801], [44.00265, -18.00386], [44.00099, -17.93811], [44.03061, -17.8139], [44.03566, -17.76946], [44.03028, -17.75457], [44.00637, -17.73308], [43.99244, -17.68743], [43.92922, -17.60165], [43.9236, -17.57731], [43.9326, -17.48518], [43.94304, -17.45597], [43.99415, -17.37567], [44.01206, -17.33409], [44.01832, -17.33124], [44.03012, -17.33701], [44.03647, -17.32952], [44.04578, -17.30038], [44.14552, -17.15594], [44.15171, -17.09443], [44.1797, -17.09515], [44.20411, -17.0569], [44.23818, -16.97077], [44.27223, -16.93336], [44.28583, -16.90228], [44.30926, -16.87428], [44.34051, -16.8139], [44.36652, -16.77705], [44.40162, -16.73984], [44.43068, -16.70037], [44.43979, -16.65553], [44.41181, -16.57301], [44.41685, -16.54893], [44.42848, -16.53771], [44.43881, -16.5426], [44.43979, -16.56699], [44.45558, -16.54095], [44.46339, -16.51336], [44.4629, -16.48545], [44.45338, -16.4577], [44.41596, -16.40326], [44.40074, -16.37301], [44.39822, -16.34043], [44.4103, -16.31377], [44.43605, -16.27899], [44.44468, -16.19574], [44.45282, -16.18671], [44.46941, -16.18223], [44.53696, -16.17654], [44.75506, -16.19695], [44.78231, -16.19087], [44.79444, -16.19168], [44.83619, -16.22064], [44.85426, -16.22536], [44.86834, -16.22088], [44.89159, -16.19105], [44.90548, -16.18323], [44.96111, -16.16961], [44.95299, -16.16278], [45.04021, -16.1181], [45.09412, -16.03859], [45.13869, -15.99091], [45.22731, -15.94988], [45.26637, -15.92394], [45.27344, -15.93011], [45.27719, -15.97633], [45.29561, -16.03651], [45.28875, -16.09043], [45.29038, -16.10345], [45.29786, -16.11199], [45.31365, -16.115], [45.32895, -16.11012], [45.35809, -16.07685], [45.3921, -16.06439], [45.40626, -16.05486], [45.41293, -16.03924], [45.41041, -16.03053], [45.3908, -16.02336], [45.37893, -16.0114], [45.37079, -15.99456], [45.3703, -15.98187], [45.37941, -15.97382], [45.54274, -15.95672], [45.57007, -15.94306], [45.57748, -15.97096], [45.59033, -15.98756], [45.59058, -16.00172], [45.57976, -16.03069], [45.58041, -16.04079], [45.5979, -16.03242], [45.60475, -16.05185], [45.61207, -16.04957], [45.62184, -16.0324], [45.61159, -15.98089], [45.61461, -15.96983], [45.63836, -15.94305], [45.63837, -15.91522], [45.64625, -15.89121], [45.64576, -15.88104], [45.62144, -15.85076], [45.62868, -15.83701], [45.66114, -15.80366], [45.69386, -15.78315], [45.70427, -15.7825], [45.73585, -15.79258], [45.76588, -15.79421], [45.80201, -15.81658], [45.82447, -15.81341], [45.89796, -15.7746], [45.92693, -15.77118], [45.94836, -15.77415], [45.95605, -15.78298], [45.95428, -15.8161], [45.95875, -15.83994], [45.98146, -15.84686], [46.01579, -15.84687], [46.04298, -15.8611], [46.06609, -15.86191], [46.04983, -15.82635], [46.07081, -15.79608], [46.07097, -15.77858], [46.00995, -15.81437], [46.01581, -15.79225], [46.03046, -15.76929], [46.07427, -15.73104], [46.09769, -15.71698], [46.14422, -15.70372], [46.21876, -15.70669], [46.23063, -15.71072], [46.23539, -15.71728], [46.23699, -15.73968], [46.24902, -15.75807], [46.22583, -15.80632], [46.20737, -15.81951], [46.24512, -15.85248], [46.29298, -15.94069], [46.33107, -15.97723], [46.33222, -15.94281], [46.3379, -15.93622], [46.34595, -15.93866], [46.36508, -15.96356], [46.38494, -15.95916], [46.39332, -15.94183], [46.39259, -15.9201], [46.3856, -15.90212], [46.41195, -15.89968], [46.4485, -15.9415], [46.46876, -15.95672], [46.47918, -15.94891], [46.44435, -15.88104], [46.42458, -15.87248], [46.38315, -15.83489], [46.35825, -15.82635], [46.31748, -15.8264], [46.29901, -15.81568], [46.3008, -15.80902], [46.32472, -15.79225], [46.35125, -15.75205], [46.35564, -15.73252], [46.34474, -15.71706], [46.30861, -15.71769], [46.30373, -15.71022], [46.3327, -15.63015], [46.39617, -15.57659], [46.45908, -15.50792], [46.48243, -15.49116], [46.48862, -15.51165], [46.60475, -15.42426], [46.65772, -15.42205], [46.68043, -15.41546], [46.66725, -15.40683], [46.63625, -15.39852], [46.63259, -15.38885], [46.64333, -15.37803], [46.70094, -15.36435], [46.80397, -15.29193], [46.87941, -15.22504], [46.92164, -15.21307], [46.94969, -15.19837], [46.96502, -15.19509], [46.97144, -15.19843], [46.97722, -15.24725], [46.99732, -15.28216], [47.07472, -15.32421], [47.07487, -15.33635], [47.0498, -15.37476], [47.01157, -15.40545], [46.96705, -15.49228], [46.95509, -15.52597], [46.95826, -15.54957], [46.969, -15.55185], [46.98553, -15.50498], [46.99725, -15.49473], [47.05104, -15.48382], [47.11655, -15.45518], [47.14763, -15.44648], [47.18002, -15.45713], [47.21632, -15.44378], [47.23211, -15.43328], [47.23536, -15.41546], [47.23146, -15.40976], [47.19948, -15.40015], [47.17906, -15.36549], [47.16554, -15.29567], [47.16228, -15.29266], [47.1408, -15.29363], [47.11183, -15.30623], [47.11037, -15.28216], [47.11988, -15.25791], [47.09539, -15.25936], [47.08791, -15.25465], [47.08172, -15.23431], [47.05788, -15.21624], [47.05593, -15.19362], [47.06472, -15.17206], [47.09198, -15.13495], [47.20574, -15.04665], [47.2274, -14.98749], [47.24152, -14.96953], [47.29199, -14.9233], [47.33506, -14.90415], [47.3589, -14.90154], [47.37184, -14.89056], [47.37485, -14.86728], [47.36834, -14.84661], [47.35206, -14.84352], [47.34108, -14.85247], [47.33521, -14.86858], [47.32406, -14.87427], [47.30861, -14.87517], [47.29917, -14.86955], [47.28372, -14.84695], [47.28989, -14.84694], [47.32016, -14.80006], [47.445, -14.67144], [47.45883, -14.66157], [47.46533, -14.66547], [47.4756, -14.68865], [47.49609, -14.71161], [47.49301, -14.78338], [47.49676, -14.79852], [47.51392, -14.80918], [47.51709, -14.81959], [47.50342, -14.84693], [47.44597, -14.91221], [47.43084, -14.93572], [47.42066, -14.96559], [47.41041, -15.08782], [47.41375, -15.09987], [47.42774, -15.1076], [47.43963, -15.10516], [47.48243, -15.08026], [47.5005, -15.05299], [47.52297, -14.99872], [47.55128, -14.97667], [47.56251, -14.98504], [47.56496, -14.94997], [47.57057, -14.93329], [47.6421, -14.80039], [47.65187, -14.75889], [47.68442, -14.72649], [47.69094, -14.69248], [47.72136, -14.67498], [47.75294, -14.63486], [47.76368, -14.60573], [47.79265, -14.58758], [47.79713, -14.56635], [47.83961, -14.6242], [47.85914, -14.6408], [47.9036, -14.65441], [47.9144, -14.66204], [47.91961, -14.67401], [47.92066, -14.70973], [47.93523, -14.69378], [47.93629, -14.67156], [47.92807, -14.6513], [47.91441, -14.6408], [47.94215, -14.61925], [47.9686, -14.62217], [47.98852, -14.64317], [47.99622, -14.6752], [47.9948, -14.74334], [48.00026, -14.7623], [48.01686, -14.73707], [48.02247, -14.7077], [48.02215, -14.6666], [48.01303, -14.63006], [47.99293, -14.61419], [47.9795, -14.6098], [47.94484, -14.57635], [47.92604, -14.5665], [47.91098, -14.56878], [47.86671, -14.59196], [47.85377, -14.59448], [47.84002, -14.5914], [47.82496, -14.57936], [47.81072, -14.55088], [47.80388, -14.54559], [47.77564, -14.58359], [47.75295, -14.60051], [47.72138, -14.54534], [47.73561, -14.52484], [47.70836, -14.47014], [47.71469, -14.45794], [47.70152, -14.44638], [47.7032, -14.40293], [47.70949, -14.36956], [47.72185, -14.33828], [47.74245, -14.3126], [47.77369, -14.2903], [47.77786, -14.24456], [47.79087, -14.22325], [47.81446, -14.21601], [47.86101, -14.24879], [47.90691, -14.2436], [47.92677, -14.24627], [47.93482, -14.24358], [47.94353, -14.23252], [47.95533, -14.18524], [47.94174, -14.13486], [47.92652, -14.11102], [47.90701, -14.0997], [47.9201, -14.08605], [47.94158, -14.0919], [47.98268, -14.12078], [48.00749, -14.13259], [48.01367, -14.14056], [48.01497, -14.15358], [48.00026, -14.17254], [47.97853, -14.26238], [47.97511, -14.2973], [47.98276, -14.32537], [47.99627, -14.32562], [48.00294, -14.31756], [48.00311, -14.28526], [48.03395, -14.26238], [48.03395, -14.25384], [48.01833, -14.23349], [48.01051, -14.20957], [48.01776, -14.1876], [48.04477, -14.15162], [48.05096, -14.1303], [48.04819, -14.08408], [48.03932, -14.06634], [47.99951, -14.05303], [47.94111, -14.00409], [48.0171, -13.96543], [48.0171, -13.95281], [47.969, -13.92213], [47.92873, -13.90634], [47.9175, -13.89763], [47.8913, -13.8497], [47.87587, -13.78448], [47.88381, -13.72846], [47.9275, -13.70924], [47.91684, -13.69378], [47.8952, -13.67896], [47.89328, -13.65374], [47.90432, -13.60321], [47.91782, -13.58263], [47.95297, -13.59026], [47.96119, -13.56553], [47.9656, -13.52077], [47.98488, -13.50678], [47.99537, -13.50678], [48.00309, -13.51735], [47.9826, -13.54314], [47.98951, -13.55836], [48.01049, -13.55154], [48.00514, -13.56365], [48.00734, -13.5748], [48.01531, -13.58017], [48.02711, -13.57513], [48.03534, -13.54999], [48.05096, -13.54412], [48.03257, -13.52459], [48.03127, -13.5172], [48.06837, -13.51736], [48.08366, -13.52875], [48.09938, -13.59938], [48.12713, -13.58702], [48.14242, -13.5954], [48.17187, -13.68565], [48.1753, -13.716], [48.1784, -13.72137], [48.19401, -13.72699], [48.18133, -13.74676], [48.19239, -13.76686], [48.21852, -13.78582], [48.24822, -13.79998], [48.27036, -13.80535], [48.29868, -13.79827], [48.3274, -13.77996], [48.34116, -13.75555], [48.32457, -13.72967], [48.33155, -13.71413], [48.33205, -13.66139], [48.35955, -13.59938], [48.33775, -13.56414], [48.33336, -13.54633], [48.35271, -13.53787], [48.36426, -13.54356], [48.39356, -13.58571], [48.40725, -13.54955], [48.42759, -13.52419], [48.45896, -13.51658], [48.48976, -13.51735], [48.48977, -13.49703], [48.51287, -13.51678], [48.52467, -13.52305], [48.53419, -13.52077], [48.5066, -13.44915], [48.48228, -13.41513], [48.4787, -13.38798], [48.48228, -13.36046], [48.49789, -13.36396], [48.507, -13.37315], [48.52392, -13.39463], [48.52442, -13.4109], [48.54274, -13.42295], [48.60499, -13.44549], [48.63942, -13.43573], [48.67465, -13.44232], [48.71095, -13.43231], [48.74741, -13.41155], [48.78012, -13.38388], [48.80502, -13.35296], [48.78771, -13.33291], [48.80194, -13.30463], [48.8392, -13.26043], [48.82126, -13.22467], [48.81869, -13.17663], [48.84346, -13.081], [48.85679, -13.053], [48.88453, -13.01653], [48.90554, -12.96112], [48.93065, -12.93354], [48.94166, -12.9284], [48.93728, -12.90309], [48.95314, -12.83847], [48.95533, -12.8117], [48.91482, -12.74981], [48.90187, -12.68239], [48.88697, -12.66082], [48.8703, -12.65764], [48.86591, -12.64723], [48.86623, -12.63714], [48.88014, -12.61932], [48.87331, -12.59198], [48.88697, -12.56463], [48.8794, -12.55267], [48.86793, -12.55145], [48.83921, -12.56461], [48.83872, -12.53525], [48.82984, -12.51849], [48.79763, -12.48951], [48.77369, -12.43524], [48.77084, -12.45475], [48.73001, -12.43499], [48.74204, -12.42539], [48.75962, -12.39814], [48.77084, -12.39708], [48.79363, -12.40569], [48.85248, -12.41371], [48.87386, -12.43174], [48.90406, -12.48895], [48.91505, -12.49481], [48.94581, -12.47991], [48.95533, -12.46917], [48.95948, -12.4542], [48.96218, -12.40081], [48.97576, -12.37347], [48.97577, -12.34613], [48.9845, -12.33362], [48.99741, -12.32367], [49.01157, -12.32001], [49.02418, -12.32578], [49.03078, -12.30788], [49.0534, -12.29193], [49.0652, -12.27729], [49.07993, -12.29518], [49.1198, -12.24262], [49.13624, -12.25612], [49.15122, -12.25075], [49.16261, -12.23447], [49.16822, -12.21592], [49.16067, -12.1928], [49.16148, -12.18154], [49.16703, -12.17043], [49.18922, -12.15375], [49.19907, -12.15203], [49.20151, -12.14666], [49.18686, -12.12363], [49.16139, -12.11955], [49.14088, -12.09857], [49.09305, -12.09855], [49.10646, -12.08027], [49.14666, -12.06756], [49.16139, -12.05073], [49.17651, -12.06114], [49.20916, -12.10605], [49.216, -12.09857], [49.2234, -12.10605], [49.22446, -12.08668], [49.21681, -12.06504], [49.202, -12.04811], [49.18197, -12.04368], [49.19186, -12.02717], [49.21599, -12.0097], [49.2095, -11.99326], [49.2125, -11.98612], [49.24237, -11.95388], [49.26002, -11.94363], [49.27808, -11.9477], [49.31592, -11.98594], [49.32259, -12.0001], [49.32276, -12.0289], [49.34912, -12.06618], [49.35304, -12.14625], [49.37085, -12.18329], [49.37305, -12.19817], [49.3672, -12.19865], [49.32944, -12.15716], [49.32016, -12.15537], [49.29851, -12.18173], [49.28493, -12.17839], [49.27358, -12.16752], [49.26384, -12.14023], [49.25318, -12.1452], [49.24, -12.16286], [49.23707, -12.17425], [49.24919, -12.18028], [49.22967, -12.2221], [49.26539, -12.22479], [49.2837, -12.2309], [49.29175, -12.23944], [49.27125, -12.2636], [49.27638, -12.28134], [49.2815, -12.28485], [49.299, -12.25937], [49.30714, -12.25515], [49.32585, -12.27728], [49.31951, -12.29518], [49.34938, -12.29852], [49.36687, -12.2916], [49.37257, -12.27435], [49.35842, -12.24619], [49.36314, -12.23285], [49.38136, -12.22284], [49.39274, -12.22976], [49.42171, -12.27435], [49.42823, -12.31146], [49.45541, -12.35149], [49.45623, -12.37347], [49.47153, -12.35199], [49.49659, -12.34613], [49.51172, -12.34874], [49.53939, -12.37819], [49.54574, -12.40203], [49.53829, -12.40687], [49.50099, -12.39739], [49.49041, -12.407], [49.52768, -12.44264], [49.53907, -12.44411], [49.5586, -12.42069], [49.58631, -12.48176], [49.59494, -12.52992], [49.59245, -12.54264], [49.58277, -12.54078], [49.57472, -12.52972], [49.57211, -12.48952], [49.56609, -12.5167], [49.58089, -12.57366], [49.57552, -12.59579], [49.56324, -12.6168], [49.56251, -12.62786], [49.57472, -12.65667], [49.60027, -12.64724], [49.63528, -12.67438], [49.65332, -12.69476], [49.67529, -12.75709], [49.6548, -12.80486], [49.67262, -12.79844], [49.68881, -12.80486], [49.70704, -12.77614], [49.71218, -12.74864], [49.71934, -12.7401], [49.73048, -12.73806], [49.74414, -12.74343], [49.73666, -12.75709], [49.76384, -12.76713], [49.80493, -12.80487], [49.80193, -12.83929], [49.81471, -12.86582], [49.82407, -12.87623], [49.83668, -12.88055], [49.86426, -12.88048], [49.87378, -12.88837], [49.87451, -12.90846], [49.85629, -12.91692], [49.85255, -12.92441], [49.86704, -12.94207], [49.90446, -12.96234], [49.91383, -12.99717], [49.94214, -13.03387], [49.94407, -13.08782], [49.93531, -13.16806], [49.94215, -13.2195], [49.94597, -13.23211], [49.97314, -13.2711], [49.97624, -13.28851], [49.97267, -13.33131], [49.9769, -13.34612], [49.99049, -13.35394], [50.01368, -13.34483], [50.02409, -13.34613], [50.03288, -13.36053], [50.0241, -13.41155], [50.02613, -13.43841], [50.04054, -13.497], [50.05201, -13.52418], [50.07251, -13.54413], [50.07252, -13.5783], [50.07936, -13.60613], [50.08522, -13.61207], [50.09928, -13.61518], [50.10547, -13.6417], [50.09742, -13.67571], [50.13395, -13.75018], [50.1429, -13.78314], [50.15349, -13.98252], [50.17351, -14.05682], [50.17625, -14.08536], [50.17529, -14.12119], [50.16326, -14.16709], [50.16424, -14.22308], [50.17107, -14.2348], [50.19605, -14.25727], [50.21291, -14.28742], [50.2136, -14.31605], [50.18922, -14.43914], [50.20345, -14.50433], [50.21078, -14.61517], [50.23804, -14.66961], [50.24088, -14.70599], [50.23226, -14.73821], [50.20973, -14.75067], [50.21892, -14.76287], [50.25749, -14.78485], [50.2652, -14.7976], [50.2837, -14.87916], [50.35524, -15.03314], [50.42222, -15.11837], [50.43213, -15.13421], [50.44044, -15.16806], [50.47656, -15.19509], [50.48991, -15.21933], [50.49829, -15.25205], [50.50387, -15.31644], [50.48756, -15.35361], [50.49085, -15.37785], [50.47804, -15.41863], [50.4834, -15.44345], [50.4629, -15.47015], [50.45595, -15.50529], [50.43824, -15.55495], [50.42985, -15.60027], [50.34099, -15.7636], [50.33318, -15.79225], [50.34326, -15.79803], [50.33687, -15.81108], [50.26441, -15.90211], [50.24153, -15.95826], [50.22993, -15.97102], [50.21404, -15.97502], [50.18287, -15.97332], [50.16815, -15.98462], [50.14796, -15.93532], [50.13087, -15.91937], [50.1067, -15.92253], [50.05747, -15.88103], [50.03892, -15.85947], [50.02467, -15.77117], [50.01253, -15.7664], [49.98536, -15.74224], [49.96512, -15.70256], [49.96267, -15.66937], [49.97584, -15.62664], [49.95973, -15.60565], [49.9341, -15.5979], [49.90562, -15.56161], [49.9031, -15.54876], [49.90903, -15.50026], [49.90114, -15.44964], [49.9074, -15.43092], [49.90113, -15.4223], [49.87762, -15.41888], [49.85141, -15.43205], [49.75034, -15.43597], [49.71778, -15.44671], [49.69549, -15.46649], [49.63844, -15.54461], [49.63942, -15.57049], [49.66097, -15.6277], [49.66211, -15.6416], [49.66091, -15.65589], [49.64796, -15.68304], [49.67725, -15.71934], [49.68531, -15.75286], [49.69947, -15.78574], [49.70631, -15.8362], [49.73372, -15.90569], [49.72326, -15.93914], [49.69264, -15.99147], [49.6836, -16.02028], [49.68312, -16.05364], [49.68979, -16.08685], [49.70265, -16.115], [49.72877, -16.13942], [49.79395, -16.16205], [49.82276, -16.17987], [49.8457, -16.21209], [49.84985, -16.24082], [49.82862, -16.3344], [49.82692, -16.37331], [49.83237, -16.40797], [49.8606, -16.42938], [49.8631, -16.44432], [49.85402, -16.50514], [49.854, -16.53964], [49.79663, -16.64104], [49.76774, -16.67343], [49.72315, -16.7081], [49.72495, -16.754], [49.73211, -16.77508], [49.74732, -16.79681], [49.76832, -16.81561], [49.78989, -16.82643], [49.81365, -16.83017], [49.8403, -16.82758], [49.77833, -16.85555], [49.71974, -16.86403], [49.69483, -16.87712], [49.62452, -16.88568], [49.60841, -16.89658], [49.59571, -16.91204], [49.52898, -17.04168], [49.48248, -17.16745], [49.43133, -17.28387], [49.4214, -17.35516], [49.42595, -17.37021], [49.45627, -17.41737], [49.50404, -17.66279], [49.5096, -17.72772], [49.49766, -17.79705], [49.41391, -18.06707], [49.41391, -18.10182], [49.41798, -18.11549], [49.43837, -18.14266], [49.44075, -18.15423], [49.41456, -18.1701], [49.38413, -18.22552], [49.35921, -18.424], [49.32586, -18.47186], [49.3018, -18.54039], [49.24318, -18.65683], [49.1911, -18.8427], [49.11345, -19.01246], [49.07692, -19.06561], [48.98576, -19.37906], [48.85963, -19.68467], [48.82553, -19.84222], [48.82373, -19.90276], [48.79135, -19.99307], [48.77272, -19.96445], [48.75953, -19.9555], [48.7505, -19.96575], [48.75465, -19.97731], [48.77897, -20.00921], [48.7845, -20.02435], [48.78174, -20.0372], [48.69923, -20.19988], [48.64178, -20.34539], [48.56227, -20.57708], [48.46247, -20.93201], [48.43019, -20.97918], [48.43442, -20.99358], [48.4475, -20.98091], [48.45492, -20.98456], [48.45557, -21.01409], [48.43133, -21.05853], [48.4148, -21.14397], [48.37859, -21.22389], [48.35669, -21.35369], [48.32814, -21.41465], [48.20173, -21.79638], [47.94744, -22.34824], [47.93359, -22.41415], [47.90064, -22.48113], [47.8587, -22.74571], [47.83937, -22.80657], [47.83382, -22.90097], [47.80002, -23.012], [47.76238, -23.11012], [47.73804, -23.25546], [47.61947, -23.59057], [47.60222, -23.56536], [47.59653, -23.56316], [47.57496, -23.59873], [47.58188, -23.60459], [47.59831, -23.60606], [47.61605, -23.61444], [47.62012, -23.64039], [47.56858, -23.85292], [47.51446, -23.98668], [47.49687, -24.01618], [47.46876, -24.0363], [47.4485, -24.0451], [47.45508, -24.05645], [47.44824, -24.08464], [47.43084, -24.11785], [47.37077, -24.27011], [47.36305, -24.27653], [47.3296, -24.2636], [47.32472, -24.26963], [47.33838, -24.32431], [47.31225, -24.48593], [47.22845, -24.68016], [47.20338, -24.71648], [47.20117, -24.76246], [47.1942, -24.77803], [47.14283, -24.81406], [47.12892, -24.8449], [47.13745, -24.90927], [47.12615, -24.93432], [47.10906, -24.90976], [47.10564, -24.87916], [47.09685, -24.89332], [47.09879, -24.9406], [47.09456, -24.96013], [47.08724, -24.96835], [47.04086, -24.98854], [47.01271, -25.01246], [46.96451, -25.06579], [46.95485, -25.07096], [46.94117, -25.0442], [46.92661, -25.04372], [46.83497, -25.11062], [46.79412, -25.12786], [46.76978, -25.15349], [46.74147, -25.14959], [46.72217, -25.16667], [46.65365, -25.18384], [46.50221, -25.1618], [46.38657, -25.16481], [46.23764, -25.19818], [46.03972, -25.27776], [45.91407, -25.33734], [45.77418, -25.40814], [45.67374, -25.49457], [45.6342, -25.51474], [45.61158, -25.51653], [45.5612, -25.55998], [45.4922, -25.57365], [45.20769, -25.58489], [45.16261, -25.59855], [45.14553, -25.59538], [45.13609, -25.58416], [45.12664, -25.54583], [45.11818, -25.52956], [45.08766, -25.50823], [44.98079, -25.47173], [44.93814, -25.43832], [44.92555, -25.40781], [44.9087, -25.39373], [44.83473, -25.34401], [44.76734, -25.31439], [44.72779, -25.30364], [44.62208, -25.28973], [44.51658, -25.28437], [44.36972, -25.25681], [44.3511, -25.24748], [44.33619, -25.20892], [44.30373, -25.17538], [44.29641, -25.1535], [44.31577, -25.1609], [44.36402, -25.20778], [44.38404, -25.22088], [44.40089, -25.22145], [44.40943, -25.21055], [44.40496, -25.18816], [44.38879, -25.1909], [44.34978, -25.16033], [44.31804, -25.14422], [44.28273, -25.14038], [44.24758, -25.1272], [44.18719, -25.06699], [44.1517, -25.05047], [44.10858, -25.04801], [44.02883, -24.99895], [44.01736, -24.97722], [44.01092, -24.89861], [44.00099, -24.86541], [43.92849, -24.77459], [43.91837, -24.74216], [43.92799, -24.65244], [43.9183, -24.61907], [43.90821, -24.60215], [43.85537, -24.55104], [43.83985, -24.50579], [43.80665, -24.47926], [43.73716, -24.43571], [43.70672, -24.40618], [43.67287, -24.33489], [43.65627, -24.18532], [43.66961, -24.01328], [43.65212, -23.91644], [43.66521, -23.8786], [43.64373, -23.79778], [43.62478, -23.76189], [43.63901, -23.74131], [43.63698, -23.67051], [43.64162, -23.63893], [43.66375, -23.61941], [43.73097, -23.59206], [43.7483, -23.57008], [43.74643, -23.55389], [43.73293, -23.52776], [43.73461, -23.50944], [43.75457, -23.48886], [43.76124, -23.4638], [43.74724, -23.4402], [43.72056, -23.4196], [43.70143, -23.39544], [43.65895, -23.35784], [43.63901, -23.35149], [43.63095, -23.34464], [43.61428, -23.28199], [43.61004, -23.19231], [43.59685, -23.11761], [43.58318, -23.07586], [43.55592, -23.04827], [43.48757, -23.00155], [43.4603, -22.95566], [43.42775, -22.93059], [43.39341, -22.89511], [43.36118, -22.84319], [43.35133, -22.78851], [43.33873, -22.76132], [43.33351, -22.70908], [43.32164, -22.68084], [43.31568, -22.64528], [43.29177, -22.61077], [43.28493, -22.5875], [43.28834, -22.518], [43.278, -22.42588], [43.26401, -22.3777], [43.24026, -22.33229], [43.24057, -22.30267], [43.22292, -22.25481], [43.22541, -22.23404], [43.24684, -22.21837]]], [[[49.85738, -16.91952], [49.88819, -16.88152], [49.95582, -16.77972], [49.96462, -16.73415], [49.97301, -16.72134], [50.02409, -16.69038], [50.01986, -16.71453], [49.98374, -16.78672], [49.95726, -16.86426], [49.90856, -16.96676], [49.87281, -17.01312], [49.84448, -17.07219], [49.82619, -17.09439], [49.8174, -17.06715], [49.82247, -17.04155], [49.85084, -16.97772], [49.85738, -16.91952]]], [[[48.24285, -13.25678], [48.25904, -13.26735], [48.26922, -13.26832], [48.27687, -13.26426], [48.27817, -13.25652], [48.26386, -13.23308], [48.26931, -13.20111], [48.30078, -13.19542], [48.31836, -13.2003], [48.32641, -13.21283], [48.32546, -13.22937], [48.31495, -13.24676], [48.32373, -13.25189], [48.33362, -13.27212], [48.34205, -13.30527], [48.35416, -13.31227], [48.33204, -13.36045], [48.36499, -13.38796], [48.36621, -13.40065], [48.35954, -13.40796], [48.32838, -13.41512], [48.31837, -13.40065], [48.29802, -13.40813], [48.26173, -13.40243], [48.23585, -13.38714], [48.22902, -13.38714], [48.229, -13.40064], [48.216, -13.39462], [48.20632, -13.38258], [48.19969, -13.36129], [48.19501, -13.31878], [48.20444, -13.28232], [48.20387, -13.26979], [48.18875, -13.26425], [48.19876, -13.25125], [48.22934, -13.2623], [48.24285, -13.25678]]]]}}]}