{"type": "FeatureCollection", "features": [{"type": "Feature", "properties": {"name": "히타이트", "name_en": "Hittites", "period": "기원전 17–12세기", "kind": "국가", "legend": "히타이트", "map_title": "여러 지역에서 형성된 다양한 문명", "source": "미래엔 세계사 교과서 1권 14–15쪽", "volume": 1, "page": "14–15", "coast_snap": "Natural Earth 10m 해안선에 맞춤", "border_snap": "현대 국경(Natural Earth 10m)에 맞춘 구간 약 226 km", "group": "히타이트", "map_folder": "1권_p014-015_여러 지역에서 형성된 다양한 문명"}, "geometry": {"type": "MultiPolygon", "coordinates": [[[[27.04126, 36.96685], [27.03386, 36.95262], [27.04127, 36.95262], [27.04127, 36.95942], [27.04752, 36.95941], [27.04037, 36.94506], [26.99342, 36.95262], [26.9834, 36.92952], [26.97608, 36.92594], [26.95191, 36.93163], [26.94508, 36.92595], [26.92986, 36.94278], [26.92115, 36.94709], [26.91165, 36.9458], [26.93141, 36.96686], [26.92532, 36.98168], [26.95118, 37.02119], [26.95192, 37.03514], [26.94361, 37.04072], [26.92457, 37.03516], [26.91739, 37.04146], [26.90349, 37.06249], [26.8856, 37.07559], [26.88982, 37.08978], [26.90162, 37.0773], [26.98576, 37.0489], [26.98599, 37.04198], [26.97291, 37.04198], [26.98219, 37.02875], [27.00586, 37.01618], [27.00709, 37.00043], [27.02394, 37.01267], [27.04126, 37.00787], [27.04427, 36.99624], [27.03688, 36.97846], [27.04126, 36.96685]]], [[[27.08831, 37.05399], [27.07791, 37.05724], [27.08457, 37.0641], [27.1092, 37.05784], [27.10637, 37.05391], [27.08831, 37.05399]]], [[[26.88688, 37.1057], [26.8755, 37.1037], [26.86988, 37.09806], [26.84995, 37.09846], [26.83759, 37.10473], [26.83758, 37.11213], [26.85231, 37.12458], [26.84303, 37.12515], [26.82976, 37.11872], [26.81724, 37.11987], [26.81041, 37.12938], [26.81691, 37.14655], [26.7951, 37.15547], [26.77623, 37.16967], [26.77273, 37.18268], [26.78819, 37.19122], [26.79802, 37.19058], [26.80032, 37.19928], [26.80828, 37.20025], [26.84977, 37.18731], [26.85286, 37.18179], [26.84409, 37.16201], [26.86426, 37.1533], [26.87184, 37.1341], [26.88688, 37.1166], [26.88688, 37.1057]]], [[[26.77483, 37.28116], [26.76727, 37.27738], [26.76274, 37.28077], [26.75929, 37.29295], [26.76555, 37.29328], [26.75929, 37.29768], [26.73895, 37.29423], [26.7352, 37.29955], [26.71958, 37.30131], [26.70982, 37.31412], [26.71382, 37.32108], [26.72242, 37.31794], [26.72023, 37.32798], [26.72966, 37.32737], [26.74969, 37.30911], [26.76808, 37.30443], [26.78451, 37.30885], [26.79248, 37.29601], [26.78451, 37.27701], [26.78012, 37.27397], [26.77483, 37.28116]]], [[[26.58872, 37.34479], [26.57049, 37.34594], [26.57293, 37.37285], [26.59668, 37.35919], [26.60612, 37.33955], [26.60084, 37.33736], [26.58872, 37.34479]]], [[[26.70983, 37.40262], [26.71665, 37.41274], [26.71786, 37.40542], [26.73397, 37.39866], [26.73805, 37.39049], [26.75903, 37.37613], [26.74415, 37.3606], [26.74163, 37.37458], [26.73635, 37.3728], [26.72584, 37.3867], [26.71975, 37.38732], [26.70983, 37.40262]]], [[[26.94296, 37.46263], [26.92695, 37.47419], [26.97226, 37.47215], [26.97901, 37.47564], [27.00765, 37.45693], [27.00724, 37.45165], [26.98829, 37.45881], [26.97429, 37.44641], [26.96461, 37.45409], [26.95834, 37.44393], [26.95005, 37.44718], [26.94296, 37.46263]]], [[[26.45052, 37.59589], [26.45688, 37.57506], [26.44671, 37.56469], [26.43622, 37.56762], [26.4297, 37.57754], [26.39602, 37.57613], [26.40558, 37.58621], [26.42156, 37.59011], [26.44036, 37.6026], [26.45052, 37.59589]]], [[[26.51352, 37.6533], [26.53068, 37.64179], [26.52825, 37.62596], [26.54069, 37.61668], [26.53133, 37.5974], [26.5166, 37.58361], [26.49912, 37.57526], [26.50131, 37.56118], [26.51092, 37.54924], [26.51115, 37.53653], [26.50294, 37.5275], [26.48887, 37.54036], [26.48601, 37.55309], [26.47495, 37.56658], [26.47404, 37.60284], [26.47844, 37.60556], [26.48486, 37.60313], [26.49195, 37.58633], [26.49806, 37.5854], [26.50309, 37.59486], [26.51376, 37.59858], [26.5101, 37.62434], [26.49709, 37.62743], [26.49644, 37.63768], [26.50523, 37.65049], [26.51352, 37.6533]]], [[[26.31365, 37.68316], [26.36213, 37.68625], [26.34456, 37.6595], [26.31909, 37.63427], [26.23085, 37.5715], [26.21387, 37.56514], [26.12794, 37.55581], [26.10825, 37.54906], [26.07829, 37.52758], [26.05787, 37.51924], [26.0298, 37.5218], [25.99073, 37.51318], [25.97634, 37.51603], [25.97187, 37.53547], [25.97961, 37.54843], [26.01117, 37.57404], [26.02639, 37.60081], [26.04186, 37.61687], [26.07423, 37.63787], [26.15642, 37.6328], [26.17726, 37.63787], [26.19744, 37.63227], [26.22722, 37.63959], [26.25424, 37.652], [26.28078, 37.67543], [26.31365, 37.68316]]], [[[26.62843, 37.69066], [26.62289, 37.67887], [26.61549, 37.67887], [26.61549, 37.68627], [26.60922, 37.68627], [26.5984, 37.67721], [26.58361, 37.70388], [26.58026, 37.74079], [26.58401, 37.75226], [26.59499, 37.76137], [26.64389, 37.77241], [26.65806, 37.79278], [26.77152, 37.81406], [26.80641, 37.81451], [26.84205, 37.80914], [26.88185, 37.78539], [26.91694, 37.77768], [26.96607, 37.74775], [26.9699, 37.75878], [26.94511, 37.78871], [26.97364, 37.78449], [26.99341, 37.79611], [26.99399, 37.784], [27.02101, 37.77717], [27.06784, 37.77439], [27.03386, 37.76138], [27.03224, 37.75316], [27.04754, 37.72724], [27.05877, 37.73378], [27.06526, 37.72907], [27.0612, 37.70674], [27.03696, 37.71288], [27.00082, 37.70661], [26.91, 37.67805], [26.86931, 37.64469], [26.79738, 37.64469], [26.78746, 37.64721], [26.76092, 37.68968], [26.75099, 37.69668], [26.72731, 37.70157], [26.70826, 37.71357], [26.65724, 37.7049], [26.62843, 37.69066]]], [[[26.14377, 38.56424], [26.16357, 38.54279], [26.15089, 38.53042], [26.14437, 38.49291], [26.12192, 38.48754], [26.12973, 38.47846], [26.14241, 38.47394], [26.1364, 38.46772], [26.15405, 38.46726], [26.15454, 38.46089], [26.14243, 38.4466], [26.13933, 38.41889], [26.14991, 38.34357], [26.16357, 38.30265], [26.13706, 38.29963], [26.11354, 38.28425], [26.10222, 38.26171], [26.11206, 38.23749], [26.11206, 38.22261], [26.04005, 38.20018], [26.01943, 38.15918], [26.00978, 38.15674], [25.97461, 38.16615], [25.94239, 38.19497], [25.9341, 38.19551], [25.9245, 38.20312], [25.91041, 38.22696], [25.88984, 38.22067], [25.88982, 38.24799], [25.8733, 38.23974], [25.86607, 38.24568], [25.87624, 38.27529], [25.88615, 38.28196], [25.91725, 38.28897], [25.93426, 38.30263], [25.96437, 38.30264], [25.97561, 38.33722], [25.9922, 38.34357], [25.98701, 38.35481], [25.98536, 38.39204], [25.97805, 38.38517], [25.96746, 38.3985], [25.95071, 38.40567], [25.95631, 38.41454], [25.95558, 38.42821], [25.94386, 38.45344], [25.9319, 38.4632], [25.88959, 38.4741], [25.84314, 38.51552], [25.83466, 38.52855], [25.83279, 38.54409], [25.8489, 38.58038], [25.99569, 38.6042], [26.06396, 38.59002], [26.10825, 38.54279], [26.11541, 38.55516], [26.12192, 38.55646], [26.12135, 38.56232], [26.11575, 38.5633], [26.13071, 38.56719], [26.14377, 38.56424]]], [[[26.36092, 38.4444], [26.354, 38.42622], [26.32912, 38.422], [26.32538, 38.4413], [26.35539, 38.45314], [26.36092, 38.4444]]], [[[26.70216, 38.54278], [26.72241, 38.53274], [26.72998, 38.52086], [26.73121, 38.49486], [26.74544, 38.4833], [26.74756, 38.47586], [26.74381, 38.46374], [26.73162, 38.45837], [26.72169, 38.46927], [26.69826, 38.47713], [26.69289, 38.48286], [26.70216, 38.54278]]], [[[26.27914, 38.51519], [26.29329, 38.49848], [26.29037, 38.49178], [26.27875, 38.49747], [26.27491, 38.51199], [26.27914, 38.51519]]], [[[26.18459, 38.53865], [26.18508, 38.54217], [26.20401, 38.54096], [26.21469, 38.53319], [26.23056, 38.53346], [26.24122, 38.52639], [26.26807, 38.52048], [26.26995, 38.51305], [26.25245, 38.50203], [26.24806, 38.50939], [26.23626, 38.50671], [26.20388, 38.5147], [26.18459, 38.53865]]], [[[25.52311, 38.53287], [25.51815, 38.52913], [25.49376, 38.53222], [25.50783, 38.55259], [25.51766, 38.55222], [25.5229, 38.54582], [25.52311, 38.53287]]], [[[25.5608, 38.5633], [25.52322, 38.5974], [25.53323, 38.60679], [25.54664, 38.5974], [25.56007, 38.60931], [25.58082, 38.60423], [25.58082, 38.61171], [25.58887, 38.61171], [25.62231, 38.5838], [25.62262, 38.57892], [25.61492, 38.57697], [25.60498, 38.53536], [25.57154, 38.54125], [25.56081, 38.53536], [25.5608, 38.5633]]], [[[26.55144, 39.01504], [26.5394, 39.01935], [26.5193, 39.03628], [26.52662, 39.04247], [26.51612, 39.05264], [26.52662, 39.08344], [26.51516, 39.09102], [26.50587, 39.1092], [26.48927, 39.11367], [26.45493, 39.1114], [26.43702, 39.1035], [26.45297, 39.08641], [26.49194, 39.06293], [26.52882, 39.02106], [26.54713, 39.00898], [26.54711, 38.98787], [26.48927, 38.97257], [26.42416, 38.96736], [26.37517, 38.97891], [26.33912, 38.98294], [26.27638, 39.01065], [26.21713, 39.0207], [26.15529, 39.02498], [26.11557, 39.06672], [26.10426, 39.07465], [26.08791, 39.07722], [26.08792, 39.08345], [26.10206, 39.09089], [26.16017, 39.09772], [26.17679, 39.11597], [26.54768, 39.1254], [26.55681, 39.11689], [26.56762, 39.11814], [26.56625, 39.09797], [26.57944, 39.07534], [26.6123, 39.04926], [26.61002, 39.02294], [26.59742, 39.01196], [26.56764, 39.02196], [26.55144, 39.01504]]], [[[26.06397, 39.0909], [25.99188, 39.10799], [26.10386, 39.11285], [26.08277, 39.09516], [26.06397, 39.0909]]], [[[32.92044, 35.39776], [32.94434, 35.39451], [32.9667, 35.38366], [32.92584, 35.38326], [32.92044, 35.39776]]], [[[34.31967, 35.58617], [34.36117, 35.60814], [34.54407, 35.67832], [34.59249, 35.69195], [34.57887, 35.67837], [34.57275, 35.64355], [34.54233, 35.63727], [34.44142, 35.58364], [34.37398, 35.53604], [34.33425, 35.57215], [34.28762, 35.57757], [34.31967, 35.58617]]], [[[29.73975, 36.1224], [29.75067, 36.13881], [29.76408, 36.13569], [29.74708, 36.12548], [29.73975, 36.1224]]], [[[29.59529, 36.16668], [29.59327, 36.15217], [29.60213, 36.14781], [29.60302, 36.14163], [29.58554, 36.13414], [29.57753, 36.12531], [29.55919, 36.12105], [29.5696, 36.1509], [29.57943, 36.1617], [29.59529, 36.16668]]], [[[29.49903, 36.1497], [29.48538, 36.1553], [29.49399, 36.16107], [29.50845, 36.15469], [29.49903, 36.1497]]], [[[29.84279, 36.16715], [29.83969, 36.17056], [29.91194, 36.19948], [29.88461, 36.17309], [29.84279, 36.16715]]], [[[27.53337, 36.2418], [27.56536, 36.24492], [27.61646, 36.24261], [27.61865, 36.2281], [27.61011, 36.21651], [27.58286, 36.21256], [27.55055, 36.21589], [27.53151, 36.21175], [27.5189, 36.21687], [27.51744, 36.2309], [27.53337, 36.2418]]], [[[27.70476, 36.24715], [27.69566, 36.25381], [27.70224, 36.26606], [27.68411, 36.2644], [27.69451, 36.28036], [27.71152, 36.28574], [27.7207, 36.27684], [27.71924, 36.26708], [27.70476, 36.24715]]], [[[28.22242, 36.45599], [28.23975, 36.43866], [28.23974, 36.43253], [28.22584, 36.41796], [28.23633, 36.37304], [28.21119, 36.35765], [28.20508, 36.32266], [28.17547, 36.29043], [28.16352, 36.23792], [28.14845, 36.22606], [28.13054, 36.18547], [28.10328, 36.18545], [28.09522, 36.16788], [28.08578, 36.16498], [28.08059, 36.15457], [27.68776, 36.15926], [27.77198, 36.19782], [27.76744, 36.20596], [27.77605, 36.21162], [27.78056, 36.23282], [27.80325, 36.2702], [27.83741, 36.28099], [27.89968, 36.34015], [27.95924, 36.35676], [28.11842, 36.42767], [28.18393, 36.42446], [28.21389, 36.45546], [28.22242, 36.45599]]], [[[27.43848, 36.41814], [27.44466, 36.40453], [27.43885, 36.39468], [27.41586, 36.38033], [27.37794, 36.38204], [27.36477, 36.39338], [27.35745, 36.41022], [27.3628, 36.42499], [27.34962, 36.43122], [27.33814, 36.42841], [27.32178, 36.41137], [27.31496, 36.41137], [27.2969, 36.42756], [27.29523, 36.45592], [27.30063, 36.47343], [27.31023, 36.45771], [27.3558, 36.47963], [27.36849, 36.47239], [27.38168, 36.44416], [27.3968, 36.43866], [27.38746, 36.42084], [27.39959, 36.41014], [27.42067, 36.40864], [27.43848, 36.41814]]], [[[27.81528, 36.61001], [27.8286, 36.61298], [27.8357, 36.60253], [27.86987, 36.62425], [27.8767, 36.61685], [27.86305, 36.60252], [27.87321, 36.60545], [27.87062, 36.57779], [27.8767, 36.5616], [27.86305, 36.55537], [27.87208, 36.55036], [27.8767, 36.54109], [27.8545, 36.53051], [27.82831, 36.52803], [27.82831, 36.53424], [27.84938, 36.54792], [27.7925, 36.56697], [27.80787, 36.57587], [27.76004, 36.57588], [27.78696, 36.60627], [27.78786, 36.61684], [27.80152, 36.62424], [27.80152, 36.61685], [27.81814, 36.63401], [27.84174, 36.64462], [27.861, 36.6467], [27.86303, 36.63788], [27.82228, 36.62376], [27.81528, 36.61001]]], [[[27.16676, 36.61505], [27.1858, 36.61566], [27.19466, 36.60692], [27.20605, 36.5871], [27.198, 36.56831], [27.17457, 36.56054], [27.14015, 36.56323], [27.12974, 36.56953], [27.12626, 36.58027], [27.13723, 36.60008], [27.16676, 36.61505]]], [[[28.91537, 36.65552], [28.90854, 36.6671], [28.91148, 36.68068], [28.9157, 36.68288], [28.93839, 36.67605], [28.91537, 36.65552]]], [[[27.3231, 36.84863], [27.2142, 36.82388], [27.19077, 36.81232], [27.12989, 36.76082], [27.10906, 36.7583], [27.08318, 36.76123], [27.04754, 36.77509], [26.99204, 36.75361], [26.97576, 36.74079], [26.986, 36.71988], [26.97169, 36.71625], [26.96567, 36.70555], [26.97289, 36.67891], [26.95534, 36.68172], [26.93752, 36.69262], [26.91785, 36.71593], [26.92027, 36.75116], [26.92652, 36.76551], [26.93767, 36.76081], [26.95875, 36.7813], [26.98601, 36.76765], [27.0075, 36.78783], [27.02077, 36.80857], [27.06122, 36.83933], [27.16424, 36.89117], [27.28093, 36.90789], [27.29152, 36.89183], [27.34099, 36.88189], [27.35579, 36.86323], [27.3231, 36.84863]]], [[[27.10867, 36.95372], [27.13421, 36.95864], [27.14438, 36.95376], [27.15195, 36.95888], [27.16293, 36.95697], [27.16748, 36.94859], [27.16179, 36.93716], [27.17511, 36.92252], [27.13267, 36.92508], [27.10899, 36.94872], [27.10867, 36.95372]]], [[[27.44582, 36.97], [27.44231, 36.97936], [27.42353, 36.99177], [27.43092, 36.99676], [27.49064, 36.97284], [27.49023, 36.96602], [27.4743, 36.95882], [27.44582, 36.97]]], [[[27.09221, 37.28766], [27.10579, 37.27867], [27.10181, 37.27429], [27.09287, 37.27213], [27.08238, 37.27811], [27.08766, 37.30202], [27.10334, 37.2995], [27.09221, 37.28766]]], [[[26.32592, 38.35493], [26.3143, 38.33674], [26.34636, 38.3288], [26.35613, 38.31688], [26.38502, 38.31843], [26.39186, 38.32502], [26.38332, 38.34355], [26.39894, 38.33552], [26.41749, 38.33674], [26.47592, 38.36689], [26.47706, 38.38687], [26.46803, 38.40762], [26.45152, 38.41869], [26.45152, 38.42608], [26.47689, 38.41668], [26.48911, 38.4062], [26.4979, 38.40729], [26.51303, 38.43293], [26.44077, 38.47281], [26.42205, 38.46971], [26.41423, 38.45629], [26.40723, 38.45345], [26.38788, 38.45426], [26.40382, 38.48754], [26.39991, 38.49958], [26.36974, 38.53524], [26.37582, 38.52855], [26.3592, 38.57674], [26.349, 38.63569], [26.3563, 38.66168], [26.41378, 38.67933], [26.46558, 38.67266], [26.50532, 38.65285], [26.55569, 38.60558], [26.5608, 38.59003], [26.584, 38.56094], [26.63037, 38.51923], [26.6433, 38.46772], [26.62916, 38.46089], [26.61085, 38.46841], [26.58815, 38.46088], [26.60523, 38.45358], [26.60498, 38.44477], [26.58815, 38.41869], [26.61182, 38.41624], [26.62207, 38.40533], [26.65707, 38.3288], [26.67311, 38.3072], [26.69459, 38.31318], [26.69996, 38.32575], [26.67751, 38.34358], [26.67068, 38.38516], [26.68714, 38.41956], [26.70241, 38.43015], [26.71909, 38.42609], [26.71909, 38.43291], [26.72535, 38.43292], [26.74807, 38.40492], [26.76686, 38.36408], [26.78736, 38.37151], [26.7951, 38.35863], [26.84547, 38.37152], [26.92457, 38.37767], [26.98976, 38.39887], [27.01336, 38.41249], [27.04249, 38.40762], [27.06121, 38.41249], [27.08863, 38.40225], [27.11183, 38.41401], [27.13544, 38.43365], [27.16424, 38.4466], [27.16424, 38.45344], [27.15447, 38.45942], [27.14309, 38.45345], [27.13624, 38.46088], [27.11695, 38.45394], [27.08334, 38.45673], [27.07472, 38.45345], [27.04908, 38.4632], [27.02231, 38.46247], [26.93542, 38.43489], [26.94508, 38.4466], [26.92792, 38.45605], [26.89763, 38.4947], [26.84906, 38.51254], [26.82692, 38.5262], [26.81476, 38.54274], [26.8742, 38.50747], [26.88982, 38.50804], [26.88982, 38.51488], [26.87778, 38.52635], [26.83523, 38.54901], [26.84889, 38.5974], [26.83424, 38.60822], [26.81373, 38.59765], [26.79365, 38.59741], [26.80104, 38.61172], [26.77931, 38.61774], [26.7532, 38.61792], [26.75945, 38.63841], [26.74643, 38.63867], [26.71911, 38.65266], [26.73366, 38.66363], [26.75318, 38.66633], [26.73306, 38.68983], [26.7191, 38.72093], [26.73756, 38.73077], [26.78891, 38.73941], [26.81821, 38.75543], [26.83058, 38.74726], [26.85157, 38.74566], [26.88852, 38.73404], [26.90349, 38.73457], [26.89724, 38.74827], [26.92303, 38.76214], [26.93141, 38.75507], [26.93507, 38.77045], [26.93141, 38.78925], [26.92458, 38.78173], [26.89725, 38.81655], [26.93766, 38.83021], [26.94386, 38.80874], [26.96078, 38.80614], [26.97145, 38.81916], [26.95877, 38.84446], [26.9909, 38.85505], [27.01336, 38.87115], [27.03354, 38.8605], [27.05502, 38.87108], [27.06267, 38.88687], [27.04129, 38.89168], [27.05787, 38.91852], [27.05779, 38.92976], [27.04127, 38.94009], [27.01286, 38.92207], [26.98288, 38.91963], [26.96241, 38.94009], [26.93426, 38.9309], [26.92457, 38.94009], [26.86622, 38.91341], [26.85565, 38.91756], [26.8401, 38.93586], [26.8065, 38.95015], [26.79722, 38.97313], [26.79915, 38.99815], [26.81471, 39.01512], [26.81471, 39.02196], [26.79366, 39.02197], [26.82881, 39.04717], [26.87306, 39.06293], [26.88315, 39.0716], [26.87525, 39.09089], [26.84226, 39.13082], [27.21449, 39.13486], [27.30317, 39.12239], [27.34617, 39.11107], [27.42683, 39.07886], [27.49965, 39.03329], [27.51673, 38.96643], [27.52353, 38.89584], [27.51179, 38.80651], [27.52419, 38.79821], [27.72656, 38.98029], [28.55198, 38.98838], [29.40045, 38.99073], [29.62753, 39.18377], [30.76266, 39.17159], [30.99266, 39.36346], [31.32743, 39.35686], [32.06729, 39.83262], [32.43293, 40.47422], [32.72354, 40.61709], [32.76147, 40.86627], [33.13552, 41.10595], [33.47263, 41.09762], [33.705, 41.29114], [34.08652, 41.28322], [34.84439, 41.27475], [35.01086, 41.07256], [35.33975, 41.06942], [35.77759, 40.65532], [36.22739, 40.24071], [36.57134, 40.23596], [36.7486, 40.03047], [37.61117, 40.03513], [38.45047, 40.03371], [38.98079, 39.57726], [38.88284, 38.92587], [39.36749, 38.58483], [39.33446, 38.34108], [39.81951, 38.00537], [39.78637, 37.76687], [40.45817, 37.27138], [40.61053, 37.06356], [40.52572, 37.02588], [40.47983, 37.01516], [40.43518, 37.01061], [40.41389, 37.00402], [40.19014, 36.88442], [40.15272, 36.87036], [40.11521, 36.86473], [40.07924, 36.85486], [40.00073, 36.81705], [40.13618, 36.61499], [40.10688, 36.4484], [39.51921, 36.14275], [39.47632, 35.90762], [38.71588, 35.45555], [37.92956, 34.97691], [37.01632, 34.38705], [36.8464, 34.38928], [36.58198, 34.2999], [36.57682, 34.30767], [36.55584, 34.31108], [36.51863, 34.35364], [36.51677, 34.36987], [36.52359, 34.37979], [36.52979, 34.4031], [36.53062, 34.41418], [36.52514, 34.42294], [36.50922, 34.43242], [36.50188, 34.4303], [36.49465, 34.43426], [36.48018, 34.44914], [36.46323, 34.45524], [36.4498, 34.46454], [36.43987, 34.47746], [36.43347, 34.49433], [36.41972, 34.49834], [36.39233, 34.50014], [36.3327, 34.49417], [36.21322, 34.2865], [36.17855, 34.26859], [36.17488, 34.25857], [36.20126, 34.21548], [36.11919, 34.16534], [36.08093, 34.13396], [36.07781, 34.10144], [36.30231, 33.96439], [36.26717, 33.91039], [36.28164, 33.89111], [36.3111, 33.87199], [36.35037, 33.86641], [36.36763, 33.85755], [36.36959, 33.83701], [36.3575, 33.82378], [36.33828, 33.82119], [36.30055, 33.82869], [36.24919, 33.84974], [36.23182, 33.85253], [36.21663, 33.84775], [36.18656, 33.83021], [36.16568, 33.8298], [36.13829, 33.85062], [36.10243, 33.83228], [36.05044, 33.81644], [36.02708, 33.7843], [35.99401, 33.7607], [35.97416, 33.73215], [35.94843, 33.70921], [35.94988, 33.6827], [35.94719, 33.67309], [35.92538, 33.66167], [35.92156, 33.6403], [35.39591, 33.63234], [35.40064, 33.64313], [35.3944, 33.64997], [35.40992, 33.66128], [35.42165, 33.70233], [35.43849, 33.71137], [35.43795, 33.7236], [35.47731, 33.8039], [35.48325, 33.87246], [35.47059, 33.90227], [35.47585, 33.90997], [35.48658, 33.91298], [35.51734, 33.90253], [35.57203, 33.90998], [35.59311, 33.94477], [35.59197, 33.95043], [35.58572, 33.95092], [35.6134, 33.99296], [35.63673, 33.99531], [35.64088, 33.99942], [35.64039, 34.00853], [35.62722, 34.01985], [35.62698, 34.04426], [35.64332, 34.08808], [35.64772, 34.11913], [35.63033, 34.15305], [35.62722, 34.20112], [35.64772, 34.22215], [35.65296, 34.28459], [35.66522, 34.31134], [35.68873, 34.3283], [35.70582, 34.3166], [35.75075, 34.38979], [35.80616, 34.41498], [35.82358, 34.43452], [35.80544, 34.45869], [35.80544, 34.4649], [35.82398, 34.46084], [35.90333, 34.47797], [35.98316, 34.53864], [35.98878, 34.55272], [35.98683, 34.6208], [35.93118, 34.74096], [35.92897, 34.79072], [35.90847, 34.82177], [35.86689, 34.92422], [35.8729, 34.92691], [35.88136, 34.94497], [35.87356, 34.95832], [35.87892, 34.97016], [35.87356, 34.97883], [35.89536, 35.00678], [35.90056, 35.02192], [35.88788, 35.06135], [35.88788, 35.1092], [35.9411, 35.18037], [35.96241, 35.19794], [35.9533, 35.2248], [35.91531, 35.28791], [35.92897, 35.32148], [35.91671, 35.40306], [35.91896, 35.41767], [35.86061, 35.47907], [35.8301, 35.49348], [35.81837, 35.50894], [35.78126, 35.49959], [35.77053, 35.50422], [35.77809, 35.54116], [35.73709, 35.56168], [35.74334, 35.5821], [35.72341, 35.57593], [35.7234, 35.58187], [35.76336, 35.59829], [35.77849, 35.61274], [35.78435, 35.63056], [35.77118, 35.66779], [35.77663, 35.67511], [35.80006, 35.68146], [35.84034, 35.74746], [35.83595, 35.78998], [35.81186, 35.83539], [35.79862, 35.84967], [35.84685, 35.84724], [35.87086, 35.85179], [35.88103, 35.86668], [35.88528, 35.88597], [35.96608, 35.99363], [35.97674, 36.00096], [35.97543, 36.0185], [35.94842, 36.08784], [35.85234, 36.21336], [35.84099, 36.24453], [35.79861, 36.28169], [35.78738, 36.30427], [35.78876, 36.32025], [35.82448, 36.36106], [35.85678, 36.36978], [35.87356, 36.39769], [35.90846, 36.41816], [35.91872, 36.44818], [35.9424, 36.46433], [35.99024, 36.47964], [36.04494, 36.53765], [36.05543, 36.53828], [36.18914, 36.60399], [36.21616, 36.65778], [36.21559, 36.67048], [36.20246, 36.69963], [36.20249, 36.76919], [36.18898, 36.80174], [36.12989, 36.86929], [36.09547, 36.89712], [36.0586, 36.91844], [36.02027, 36.92634], [35.98504, 36.9156], [35.95086, 36.89102], [35.8938, 36.83491], [35.85385, 36.81582], [35.80543, 36.7751], [35.7671, 36.76774], [35.68409, 36.76464], [35.64772, 36.75397], [35.62452, 36.72602], [35.61355, 36.71988], [35.61818, 36.73164], [35.6067, 36.74038], [35.57301, 36.70067], [35.57944, 36.68513], [35.59448, 36.70172], [35.61687, 36.69623], [35.6198, 36.71239], [35.62916, 36.70824], [35.63404, 36.69937], [35.64047, 36.71337], [35.63404, 36.72671], [35.6481, 36.73321], [35.66481, 36.71239], [35.69606, 36.72393], [35.70913, 36.71987], [35.65016, 36.69782], [35.62257, 36.68073], [35.6067, 36.65778], [35.60865, 36.64688], [35.62208, 36.65424], [35.66676, 36.69611], [35.69554, 36.7062], [35.65797, 36.6752], [35.63315, 36.63093], [35.63134, 36.60717], [35.62354, 36.60253], [35.59855, 36.59144], [35.55714, 36.58748], [35.54467, 36.58952], [35.50367, 36.61685], [35.49, 36.61392], [35.47869, 36.59854], [35.53095, 36.58273], [35.44549, 36.59634], [35.41326, 36.58369], [35.40446, 36.57193], [35.37403, 36.56159], [35.34603, 36.5411], [35.33579, 36.54561], [35.32016, 36.56468], [35.29449, 36.57259], [34.98227, 36.72077], [34.94646, 36.72797], [34.90042, 36.71989], [34.90789, 36.74038], [34.89357, 36.74601], [34.85255, 36.78132], [34.77076, 36.81607], [34.76498, 36.80859], [34.73585, 36.82168], [34.69288, 36.81387], [34.62672, 36.78877], [34.58513, 36.78132], [34.5547, 36.76765], [34.53405, 36.74053], [34.50318, 36.72671], [34.41521, 36.66292], [34.30747, 36.60859], [34.27622, 36.58698], [34.19044, 36.49852], [34.17773, 36.47338], [34.14747, 36.45917], [34.11198, 36.4296], [34.07732, 36.41389], [34.07788, 36.32885], [34.05779, 36.31591], [33.99977, 36.30292], [33.98927, 36.28168], [33.99828, 36.28602], [33.99585, 36.27953], [33.96876, 36.24689], [33.95899, 36.21358], [33.94143, 36.21338], [33.95094, 36.2377], [33.94597, 36.2652], [33.93092, 36.29047], [33.8711, 36.31489], [33.85548, 36.30492], [33.82788, 36.27172], [33.81105, 36.2674], [33.8247, 36.25992], [33.79907, 36.23067], [33.74285, 36.21337], [33.70525, 36.18171], [33.68825, 36.13705], [33.66034, 36.17488], [33.65659, 36.18867], [33.64723, 36.19257], [33.61988, 36.18545], [33.55225, 36.12752], [33.53056, 36.13081], [33.5442, 36.13703], [33.5442, 36.14448], [33.45826, 36.15815], [33.4367, 36.15469], [33.38649, 36.13704], [33.32683, 36.15009], [33.30835, 36.13224], [33.24195, 36.1308], [33.21214, 36.12407], [33.18898, 36.12573], [33.15691, 36.13703], [33.13404, 36.13178], [33.11197, 36.10323], [33.08773, 36.08284], [33.07114, 36.08926], [33.02687, 36.08927], [32.94093, 36.1035], [32.86524, 36.07185], [32.85669, 36.06099], [32.80372, 36.02718], [32.76059, 36.02949], [32.67038, 36.04681], [32.63205, 36.06211], [32.56788, 36.0961], [32.51314, 36.10315], [32.43727, 36.13867], [32.41961, 36.15949], [32.3655, 36.17797], [32.3187, 36.22858], [32.31032, 36.22949], [32.2873, 36.24483], [32.27613, 36.28783], [32.2527, 36.31533], [32.19216, 36.35839], [32.17433, 36.40241], [32.14845, 36.43366], [32.1321, 36.43867], [32.10206, 36.48615], [32.08717, 36.49332], [32.01881, 36.54654], [31.98781, 36.54996], [31.96827, 36.56159], [31.90798, 36.56266], [31.88803, 36.58112], [31.86248, 36.58869], [31.83465, 36.59235], [31.81675, 36.58952], [31.80738, 36.59683], [31.76906, 36.61002], [31.73658, 36.64228], [31.70323, 36.6437], [31.62762, 36.67085], [31.5962, 36.69571], [31.40756, 36.76341], [31.3786, 36.76766], [31.37631, 36.79194], [31.34083, 36.80858], [30.93971, 36.857], [30.77589, 36.84957], [30.74784, 36.85576], [30.68653, 36.89118], [30.62859, 36.85956], [30.60174, 36.83812], [30.56984, 36.78132], [30.56577, 36.70018], [30.57666, 36.6789], [30.56267, 36.66254], [30.55616, 36.63788], [30.55787, 36.61962], [30.57667, 36.5895], [30.58349, 36.59633], [30.58105, 36.57518], [30.56723, 36.53986], [30.56982, 36.52803], [30.52084, 36.48973], [30.50879, 36.4543], [30.48699, 36.42695], [30.48795, 36.41816], [30.47462, 36.4016], [30.47633, 36.38422], [30.48715, 36.37027], [30.50162, 36.36359], [30.49415, 36.34931], [30.51985, 36.34186], [30.47877, 36.30858], [30.46681, 36.28783], [30.4782, 36.2923], [30.48794, 36.28782], [30.45167, 36.26179], [30.44075, 36.23933], [30.42726, 36.22627], [30.39862, 36.20598], [30.4004, 36.24811], [30.39601, 36.26553], [30.38429, 36.27424], [30.36053, 36.26863], [30.25457, 36.3083], [30.23374, 36.30891], [30.19614, 36.30379], [30.15854, 36.29865], [30.14926, 36.28986], [30.14469, 36.25435], [30.13844, 36.25435], [30.13103, 36.27424], [30.12476, 36.24691], [30.11061, 36.25434], [30.1106, 36.24007], [30.07301, 36.2469], [30.04819, 36.25878], [30.03484, 36.25434], [30.05592, 36.25434], [30.05589, 36.24689], [29.98845, 36.21777], [29.9734, 36.21963], [29.961, 36.21387], [29.91652, 36.21906], [29.88136, 36.19843], [29.83009, 36.18545], [29.83758, 36.18285], [29.83693, 36.17797], [29.80258, 36.17182], [29.80258, 36.16498], [29.82307, 36.16498], [29.7955, 36.14536], [29.77978, 36.13944], [29.76173, 36.13703], [29.76173, 36.14448], [29.7754, 36.15815], [29.76238, 36.15656], [29.75489, 36.1507], [29.74342, 36.16096], [29.71925, 36.16267], [29.70704, 36.15815], [29.69995, 36.14615], [29.6893, 36.14448], [29.67238, 36.12338], [29.66822, 36.14378], [29.63397, 36.15706], [29.62397, 36.17776], [29.63738, 36.17243], [29.64324, 36.17792], [29.6421, 36.18696], [29.63453, 36.19164], [29.58352, 36.18546], [29.58352, 36.19163], [29.59254, 36.19579], [29.62387, 36.19912], [29.60222, 36.20702], [29.5215, 36.20598], [29.49474, 36.21096], [29.43214, 36.24006], [29.42042, 36.23063], [29.41163, 36.2674], [29.40578, 36.26017], [29.39186, 36.2674], [29.3816, 36.2639], [29.3571, 36.23567], [29.34963, 36.23262], [29.34084, 36.23738], [29.32936, 36.2541], [29.32228, 36.24691], [29.25687, 36.29688], [29.23463, 36.32429], [29.17499, 36.33984], [29.15846, 36.35676], [29.14471, 36.34933], [29.14081, 36.36245], [29.14471, 36.37718], [29.11689, 36.37719], [29.12428, 36.38345], [29.1128, 36.38939], [29.09638, 36.39095], [29.10907, 36.40647], [29.13038, 36.41136], [29.12429, 36.41815], [29.13014, 36.43651], [29.1242, 36.4536], [29.11134, 36.46678], [29.09638, 36.47346], [29.09657, 36.47978], [29.12428, 36.49331], [29.11492, 36.55268], [29.09637, 36.54793], [29.08432, 36.56025], [29.03639, 36.54533], [29.01447, 36.54792], [29.03272, 36.55182], [29.03688, 36.56147], [29.02053, 36.5895], [29.04176, 36.62424], [29.05584, 36.61424], [29.08091, 36.63861], [29.09637, 36.6441], [29.09059, 36.6271], [29.09881, 36.6236], [29.11061, 36.62637], [29.11687, 36.63422], [29.10922, 36.652], [29.09636, 36.66523], [29.03419, 36.701], [28.95632, 36.72753], [28.93898, 36.75129], [28.89088, 36.71239], [28.8977, 36.69938], [28.86354, 36.69257], [28.86246, 36.66792], [28.84995, 36.66523], [28.86352, 36.65094], [28.85678, 36.64411], [28.87037, 36.63052], [28.87664, 36.63052], [28.88803, 36.64842], [28.89015, 36.65762], [28.88405, 36.67143], [28.9017, 36.65827], [28.89534, 36.64143], [28.86354, 36.61685], [28.86962, 36.60664], [28.85848, 36.60129], [28.82888, 36.60254], [28.81863, 36.61173], [28.81863, 36.62079], [28.82717, 36.62774], [28.84254, 36.63052], [28.84254, 36.63788], [28.80502, 36.65526], [28.78786, 36.65096], [28.78273, 36.67739], [28.74635, 36.6977], [28.70167, 36.70506], [28.6649, 36.69258], [28.65992, 36.71101], [28.64918, 36.71833], [28.63592, 36.7145], [28.62338, 36.69938], [28.60354, 36.73355], [28.61256, 36.74714], [28.61671, 36.767], [28.61411, 36.78535], [28.60353, 36.79499], [28.60304, 36.79963], [28.61036, 36.80174], [28.60621, 36.81013], [28.61036, 36.81607], [28.60353, 36.81607], [28.59669, 36.795], [28.57586, 36.81952], [28.54615, 36.82343], [28.52443, 36.8133], [28.52783, 36.78879], [28.51775, 36.79564], [28.48685, 36.80175], [28.5005, 36.80858], [28.5005, 36.81607], [28.46389, 36.81876], [28.45623, 36.82831], [28.45266, 36.84955], [28.46632, 36.85334], [28.452, 36.88361], [28.44744, 36.88304], [28.4362, 36.86474], [28.37672, 36.85444], [28.39064, 36.83592], [28.41472, 36.83709], [28.4248, 36.82909], [28.396, 36.78951], [28.37697, 36.78878], [28.31495, 36.81607], [28.30877, 36.81607], [28.31494, 36.795], [28.27818, 36.79646], [28.27395, 36.80516], [28.27834, 36.81415], [28.31495, 36.82225], [28.31495, 36.82909], [28.27312, 36.852], [28.25717, 36.84618], [28.24318, 36.82978], [28.23666, 36.81322], [28.23951, 36.79881], [28.25341, 36.78876], [28.24887, 36.76683], [28.28857, 36.74257], [28.29508, 36.7199], [28.26726, 36.7309], [28.2531, 36.72785], [28.24658, 36.7124], [28.23357, 36.71988], [28.22543, 36.7062], [28.23356, 36.69937], [28.1819, 36.68464], [28.16228, 36.67268], [28.1115, 36.60419], [28.08814, 36.58907], [28.0617, 36.59634], [28.05502, 36.58658], [28.04184, 36.58271], [28.04801, 36.56904], [28.0359, 36.56477], [28.01832, 36.56704], [28.01384, 36.57587], [28.00366, 36.56193], [27.9909, 36.55977], [27.97796, 36.56563], [27.96609, 36.57587], [27.97291, 36.5895], [27.95926, 36.60252], [28.03443, 36.60252], [28.05397, 36.60961], [28.08961, 36.64411], [28.07594, 36.65778], [28.04804, 36.63791], [28.06121, 36.66474], [28.05795, 36.67666], [28.03793, 36.69062], [28.02963, 36.67037], [28.00017, 36.6789], [27.98016, 36.67586], [27.97023, 36.67984], [27.96609, 36.68878], [28.00701, 36.69937], [28.00019, 36.70619], [28.02752, 36.7062], [28.04185, 36.71987], [28.07976, 36.72207], [28.08959, 36.7267], [28.08595, 36.7106], [28.1006, 36.70962], [28.11638, 36.71882], [28.11687, 36.73355], [28.10743, 36.7392], [28.08768, 36.74087], [28.08222, 36.74714], [28.08417, 36.75372], [28.11004, 36.77508], [28.13054, 36.75397], [28.11842, 36.8006], [28.09498, 36.80142], [28.06909, 36.7751], [28.04721, 36.76334], [28.03932, 36.76448], [28.03443, 36.77509], [28.0197, 36.76314], [27.96607, 36.74715], [27.95925, 36.74715], [27.95411, 36.75959], [27.91766, 36.7404], [27.91245, 36.75414], [27.89031, 36.7404], [27.87037, 36.75259], [27.86304, 36.74039], [27.85649, 36.74038], [27.82618, 36.75747], [27.80649, 36.76081], [27.78785, 36.75399], [27.78785, 36.76081], [27.77605, 36.75594], [27.73609, 36.76081], [27.71941, 36.75625], [27.69848, 36.73421], [27.68426, 36.72671], [27.68685, 36.71113], [27.67311, 36.67963], [27.67114, 36.6578], [27.61988, 36.67646], [27.60304, 36.6789], [27.55975, 36.67464], [27.55454, 36.68513], [27.48634, 36.66523], [27.47267, 36.65096], [27.44842, 36.66523], [27.41578, 36.66901], [27.40432, 36.66524], [27.40203, 36.67748], [27.39405, 36.68415], [27.38299, 36.68476], [27.3703, 36.67892], [27.36915, 36.68447], [27.36283, 36.68513], [27.36866, 36.69741], [27.35582, 36.70621], [27.35582, 36.71237], [27.38478, 36.70502], [27.41432, 36.7093], [27.42311, 36.71967], [27.42727, 36.73566], [27.44985, 36.75403], [27.48317, 36.75397], [27.55665, 36.76267], [27.59246, 36.76081], [27.6115, 36.76533], [27.62339, 36.80174], [27.64535, 36.80645], [27.69117, 36.78433], [27.70541, 36.78875], [27.7212, 36.78168], [27.74822, 36.7844], [27.76002, 36.78132], [27.79909, 36.80662], [27.88649, 36.80882], [27.89714, 36.81231], [27.90366, 36.80581], [27.93995, 36.79564], [27.99443, 36.79834], [28.0105, 36.79433], [28.02752, 36.78132], [28.03077, 36.79173], [28.05543, 36.80858], [28.04908, 36.82062], [28.03956, 36.82665], [28.00703, 36.8291], [28.01386, 36.83592], [28.02329, 36.83324], [28.02459, 36.8391], [28.00704, 36.85699], [28.02125, 36.86321], [28.02866, 36.86018], [28.05543, 36.87067], [28.05543, 36.8769], [28.02127, 36.91159], [28.03443, 36.9042], [28.04184, 36.91161], [28.02754, 36.92592], [28.0617, 36.92593], [28.0617, 36.93212], [28.04184, 36.93212], [28.04185, 36.9389], [28.06567, 36.93923], [28.0822, 36.93212], [28.09352, 36.93788], [28.10328, 36.93212], [28.12013, 36.93768], [28.14194, 36.9287], [28.15724, 36.93212], [28.16529, 36.91161], [28.16814, 36.93342], [28.15724, 36.93891], [28.15725, 36.94578], [28.17449, 36.94598], [28.18523, 36.93891], [28.21241, 36.97309], [28.21241, 36.98054], [28.19892, 36.98054], [28.21242, 37.00042], [28.22853, 36.99055], [28.24464, 36.98819], [28.2531, 36.99372], [28.24661, 37.00787], [28.3296, 37.03046], [28.32936, 37.03677], [28.31495, 37.04881], [28.3047, 37.05085], [28.17433, 37.03515], [28.12623, 37.03587], [28.10727, 37.03213], [28.11002, 37.01412], [28.09295, 37.02143], [27.98658, 37.03514], [27.95183, 37.02148], [27.91139, 37.02774], [27.88624, 37.02619], [27.8047, 37.0046], [27.78785, 37.00788], [27.78044, 36.99361], [27.76287, 36.9973], [27.73952, 36.99361], [27.71974, 37.00519], [27.68767, 37.00544], [27.65577, 36.99653], [27.63648, 36.98055], [27.59034, 36.99828], [27.56715, 36.99665], [27.56201, 36.97311], [27.52833, 36.99128], [27.47267, 36.9936], [27.43849, 37.02774], [27.42351, 37.02717], [27.40805, 37.01684], [27.40431, 37.02774], [27.39682, 37.02774], [27.38331, 36.99362], [27.37893, 37.00072], [27.38331, 37.00788], [27.37649, 37.01412], [27.38168, 37.01895], [27.37648, 37.02774], [27.32862, 37.01411], [27.33268, 36.99706], [27.3265, 36.986], [27.30063, 36.97309], [27.30809, 36.95943], [27.28696, 36.95943], [27.28093, 36.96686], [27.2632, 36.96338], [27.25271, 36.97834], [27.2461, 37.01777], [27.22878, 37.06183], [27.23912, 37.08294], [27.26417, 37.08902], [27.29444, 37.1103], [27.27906, 37.11758], [27.26043, 37.11031], [27.25296, 37.12395], [27.26043, 37.11774], [27.27166, 37.12884], [27.30299, 37.11957], [27.32179, 37.12397], [27.3218, 37.15866], [27.3396, 37.15053], [27.3423, 37.13011], [27.34897, 37.13011], [27.36159, 37.14862], [27.36931, 37.15069], [27.37648, 37.14444], [27.3833, 37.15182], [27.38657, 37.13007], [27.4043, 37.1301], [27.42547, 37.11962], [27.43846, 37.12395], [27.431, 37.11774], [27.44557, 37.09699], [27.45981, 37.0895], [27.47511, 37.09252], [27.54152, 37.12595], [27.56512, 37.12564], [27.57553, 37.13011], [27.57553, 37.1376], [27.55454, 37.13011], [27.54721, 37.16181], [27.53956, 37.17829], [27.52786, 37.18538], [27.52786, 37.19281], [27.57472, 37.20115], [27.58766, 37.1988], [27.57553, 37.17853], [27.59474, 37.18594], [27.60987, 37.19965], [27.59425, 37.20429], [27.58857, 37.2111], [27.58936, 37.23049], [27.60987, 37.24746], [27.61598, 37.27473], [27.59441, 37.28384], [27.58936, 37.27474], [27.55323, 37.27293], [27.54306, 37.24965], [27.53052, 37.23632], [27.51466, 37.22933], [27.50004, 37.23384], [27.51775, 37.246], [27.51987, 37.2591], [27.5088, 37.26805], [27.48634, 37.26789], [27.46364, 37.25204], [27.45885, 37.258], [27.46145, 37.26752], [27.48634, 37.29523], [27.49138, 37.32734], [27.48015, 37.34369], [27.47267, 37.34369], [27.46852, 37.31563], [27.44613, 37.30562], [27.41831, 37.30949], [27.39683, 37.32315], [27.3887, 37.34528], [27.39675, 37.36562], [27.41522, 37.38165], [27.43849, 37.39082], [27.42652, 37.40595], [27.40724, 37.41275], [27.38657, 37.41205], [27.37029, 37.4051], [27.35644, 37.37914], [27.3462, 37.3706], [27.32179, 37.37092], [27.32179, 37.36351], [27.33642, 37.3557], [27.33033, 37.35164], [27.2715, 37.34858], [27.24611, 37.33618], [27.2317, 37.34809], [27.21877, 37.34371], [27.21193, 37.35733], [27.20135, 37.35229], [27.19079, 37.35733], [27.20753, 37.37641], [27.2051, 37.39826], [27.22625, 37.4051], [27.21748, 37.4313], [27.2225, 37.47675], [27.20509, 37.47274], [27.19264, 37.47866], [27.17777, 37.46657], [27.19044, 37.51268], [27.1846, 37.52802], [27.18824, 37.53449], [27.18044, 37.54458], [27.18458, 37.55589], [27.20037, 37.54755], [27.20932, 37.5633], [27.20851, 37.59687], [27.13624, 37.63105], [27.04885, 37.65015], [27.0115, 37.66572], [27.02102, 37.68632], [27.03834, 37.69012], [27.12721, 37.68854], [27.21314, 37.71345], [27.24952, 37.74433], [27.2566, 37.75951], [27.26043, 37.81598], [27.23717, 37.84545], [27.23908, 37.8642], [27.26043, 37.88422], [27.26539, 37.90168], [27.26044, 37.91901], [27.27475, 37.92902], [27.26629, 37.95136], [27.23911, 37.98794], [27.21372, 37.98094], [27.14084, 37.98612], [27.11639, 37.99409], [27.1019, 38.01268], [27.07017, 38.02001], [27.06471, 38.0406], [27.05592, 38.04572], [27.02703, 38.0494], [26.97543, 38.06525], [26.94923, 38.06737], [26.8934, 38.05622], [26.88151, 38.03841], [26.87306, 38.03511], [26.86493, 38.04036], [26.84207, 38.07608], [26.84645, 38.10342], [26.83522, 38.13129], [26.79363, 38.17227], [26.77606, 38.16524], [26.77151, 38.17748], [26.77369, 38.20702], [26.76027, 38.21674], [26.70826, 38.20703], [26.63592, 38.2036], [26.62288, 38.13875], [26.60922, 38.14497], [26.61214, 38.11787], [26.6071, 38.10831], [26.59498, 38.10396], [26.56764, 38.14497], [26.56715, 38.12398], [26.5569, 38.12231], [26.52378, 38.14741], [26.51551, 38.16552], [26.5193, 38.17967], [26.49171, 38.17403], [26.44223, 38.21198], [26.41749, 38.22065], [26.42415, 38.20019], [26.4175, 38.20019], [26.39016, 38.22383], [26.39487, 38.25165], [26.39015, 38.26166], [26.38331, 38.26166], [26.37501, 38.23481], [26.35401, 38.22827], [26.32863, 38.23506], [26.28663, 38.26105], [26.23464, 38.27384], [26.23879, 38.29579], [26.26539, 38.28669], [26.28591, 38.31866], [26.30763, 38.32306], [26.30763, 38.33051], [26.28892, 38.34065], [26.28616, 38.35895], [26.29412, 38.36984], [26.30763, 38.35786], [26.31175, 38.37111], [26.32113, 38.37765], [26.32592, 38.35493]]], [[[27.16357, 37.59435], [27.15919, 37.58885], [27.18439, 37.55872], [27.16831, 37.57022], [27.16929, 37.56478], [27.14952, 37.59666], [27.15944, 37.59898], [27.16357, 37.59435]]]]}}]}