{"type": "FeatureCollection", "features": [{"type": "Feature", "properties": {"map_title": "그리스·페르시아 전쟁", "source": "미래엔 세계사 교과서 1권 45쪽", "volume": 1, "page": 45, "name": "그리스와 그 동맹국", "name_en": "Greek allies", "period": "기원전 492–479", "kind": "국가", "legend": "그리스와 그 동맹국", "coast_snap": "Natural Earth 10m 해안선에 맞춤", "group": "그리스(고대)", "map_folder": "1권_p045_그리스·페르시아 전쟁"}, "geometry": {"type": "MultiPolygon", "coordinates": [[[[22.95638, 36.38344], [23.01173, 36.3083], [23.0769, 36.27073], [23.0944, 36.25433], [23.10384, 36.23721], [23.06625, 36.22639], [23.05786, 36.21002], [23.052, 36.14485], [23.01442, 36.14834], [23.00245, 36.14663], [22.99074, 36.13705], [22.98756, 36.15156], [22.94957, 36.16499], [22.95004, 36.17626], [22.92922, 36.17797], [22.90871, 36.20596], [22.91619, 36.2851], [22.89968, 36.32819], [22.90163, 36.33832], [22.93264, 36.38124], [22.94459, 36.38938], [22.95638, 36.38344]]], [[[22.50465, 36.40475], [22.49545, 36.40534], [22.49097, 36.39096], [22.47976, 36.40205], [22.4699, 36.45234], [22.45533, 36.46223], [22.42043, 36.47355], [22.40838, 36.48713], [22.40162, 36.48713], [22.39136, 36.47851], [22.38136, 36.48046], [22.35452, 36.51191], [22.36745, 36.54791], [22.38356, 36.54418], [22.38819, 36.55606], [22.38404, 36.5725], [22.37373, 36.58271], [22.38795, 36.60252], [22.36746, 36.60254], [22.36794, 36.63084], [22.37136, 36.64272], [22.38795, 36.64411], [22.38795, 36.65095], [22.36843, 36.65649], [22.37063, 36.67357], [22.38795, 36.7062], [22.35842, 36.70228], [22.33938, 36.72647], [22.32374, 36.75788], [22.30544, 36.7751], [22.30698, 36.79458], [22.29168, 36.82014], [22.22153, 36.89753], [22.20021, 36.9064], [22.17506, 36.89119], [22.13788, 36.91715], [22.13349, 36.93211], [22.14064, 36.93716], [22.14772, 36.95604], [22.15317, 37.02119], [22.08562, 37.03339], [22.04811, 37.03514], [22.03004, 37.03095], [21.99219, 37.01212], [21.9546, 37.00365], [21.94313, 36.99331], [21.93735, 36.97997], [21.92172, 36.86323], [21.93489, 36.83422], [21.92856, 36.82225], [21.95623, 36.80345], [21.97021, 36.80173], [21.97021, 36.795], [21.94508, 36.78994], [21.93881, 36.78319], [21.94222, 36.77509], [21.93587, 36.76603], [21.88257, 36.72656], [21.87404, 36.72672], [21.82276, 36.80858], [21.78972, 36.80476], [21.76417, 36.795], [21.72879, 36.81264], [21.71883, 36.82123], [21.70738, 36.81803], [21.6885, 36.84956], [21.69239, 36.85904], [21.6885, 36.89118], [21.70948, 36.92593], [21.70997, 36.94269], [21.70265, 36.95726], [21.68344, 36.96334], [21.66804, 36.95944], [21.67742, 36.96328], [21.68165, 36.97309], [21.66773, 36.97093], [21.6618, 36.95944], [21.6548, 36.9947], [21.5993, 37.04573], [21.57876, 37.07652], [21.56966, 37.11651], [21.56757, 37.15632], [21.57453, 37.19258], [21.59215, 37.22015], [21.65496, 37.26073], [21.6823, 37.28392], [21.69581, 37.31635], [21.69142, 37.35663], [21.67482, 37.39598], [21.60711, 37.4995], [21.54998, 37.56147], [21.44305, 37.61861], [21.40219, 37.65542], [21.34327, 37.66934], [21.32374, 37.66494], [21.31852, 37.6379], [21.31228, 37.6379], [21.30828, 37.66625], [21.29869, 37.6726], [21.31105, 37.6931], [21.31186, 37.7263], [21.29526, 37.77167], [21.28492, 37.7851], [21.22731, 37.81192], [21.12209, 37.8374], [21.11306, 37.84334], [21.10768, 37.85526], [21.11158, 37.87043], [21.10623, 37.87808], [21.13357, 37.94635], [21.14039, 37.94635], [21.1644, 37.92963], [21.20777, 37.94603], [21.25164, 37.97622], [21.27752, 38.00095], [21.29151, 37.99722], [21.32594, 38.02143], [21.32594, 38.02888], [21.31853, 38.0351], [21.28442, 38.01535], [21.36703, 38.12108], [21.3719, 38.13814], [21.37429, 38.22062], [21.40854, 38.18594], [21.40092, 38.21473], [21.42067, 38.20234], [21.47396, 38.19602], [21.52898, 38.1651], [21.60304, 38.1518], [21.62232, 38.15477], [21.67482, 38.17967], [21.70134, 38.20527], [21.74137, 38.26943], [21.76418, 38.29579], [21.84946, 38.34128], [21.91554, 38.33051], [21.93702, 38.33063], [21.9559, 38.33672], [21.97804, 38.32355], [22.02035, 38.31321], [22.03785, 38.28213], [22.04884, 38.27481], [22.08937, 38.26166], [22.11361, 38.2678], [22.14331, 38.24908], [22.16139, 38.2132], [22.20606, 38.20017], [22.21852, 38.18818], [22.25792, 38.18587], [22.31284, 38.17227], [22.33123, 38.17889], [22.36346, 38.15827], [22.41481, 38.13789], [22.43279, 38.14325], [22.51148, 38.12929], [22.62062, 38.08348], [22.68042, 38.06659], [22.77811, 38.00112], [22.7964, 37.97679], [22.82129, 37.96917], [22.8672, 37.93952], [22.88266, 37.93757], [22.92238, 37.94635], [22.9463, 37.94623], [22.97535, 37.97899], [22.95094, 38.00243], [22.92384, 38.01179], [22.89918, 38.02778], [22.88088, 38.02889], [22.88746, 38.03364], [22.85405, 38.03511], [22.87521, 38.04911], [22.91163, 38.06013], [22.94289, 38.08347], [22.96973, 38.08196], [23.01905, 38.06525], [23.03907, 38.06988], [23.06861, 38.0589], [23.10092, 38.0624], [23.17286, 38.0795], [23.18972, 38.09438], [23.21664, 38.10334], [23.2103, 38.11538], [23.19418, 38.12694], [23.17556, 38.1313], [23.17556, 38.14496], [23.2234, 38.1518], [23.2234, 38.15925], [23.12845, 38.17227], [23.14894, 38.18594], [23.12273, 38.20807], [23.10963, 38.21011], [23.07748, 38.18579], [23.06638, 38.1832], [23.03225, 38.18595], [23.03225, 38.19277], [23.05201, 38.19278], [23.02508, 38.21662], [22.95192, 38.22529], [22.93377, 38.22207], [22.92237, 38.20702], [22.95053, 38.20978], [22.96305, 38.20404], [22.96947, 38.19279], [22.92254, 38.19746], [22.90871, 38.19279], [22.89503, 38.24116], [22.88819, 38.24116], [22.88088, 38.22697], [22.87468, 38.24116], [22.82, 38.23298], [22.80568, 38.22697], [22.76484, 38.248], [22.79884, 38.28213], [22.74237, 38.29707], [22.71941, 38.31029], [22.69647, 38.31689], [22.67532, 38.34357], [22.68442, 38.36107], [22.67018, 38.38154], [22.6465, 38.38996], [22.6268, 38.37153], [22.64485, 38.36961], [22.64616, 38.36181], [22.63673, 38.35628], [22.61232, 38.36384], [22.58717, 38.33674], [22.58717, 38.33051], [22.60644, 38.32306], [22.60644, 38.31689], [22.59816, 38.31074], [22.60026, 38.30264], [22.58835, 38.29297], [22.57643, 38.2902], [22.56252, 38.29353], [22.54568, 38.30264], [22.52623, 38.33173], [22.53883, 38.33674], [22.52516, 38.35883], [22.47731, 38.40567], [22.46843, 38.42113], [22.40162, 38.45344], [22.40836, 38.4156], [22.37371, 38.39204], [22.386, 38.38019], [22.39478, 38.38515], [22.3986, 38.37592], [22.39609, 38.3682], [22.38111, 38.35786], [22.38794, 38.35102], [22.38233, 38.34269], [22.36753, 38.34188], [22.32252, 38.35102], [22.28493, 38.34733], [22.26645, 38.35855], [22.22486, 38.36005], [22.20932, 38.35293], [22.19597, 38.33954], [22.18921, 38.32308], [22.16879, 38.35102], [22.14578, 38.354], [22.14772, 38.36408], [22.13258, 38.37275], [22.04908, 38.3985], [22.02955, 38.39924], [22.01124, 38.39205], [21.98764, 38.41059], [21.95786, 38.41169], [21.92897, 38.4029], [21.87924, 38.37801], [21.86385, 38.37778], [21.8405, 38.39887], [21.83123, 38.39667], [21.78224, 38.36367], [21.77459, 38.35261], [21.77164, 38.33365], [21.76254, 38.32837], [21.71632, 38.35786], [21.65797, 38.35786], [21.61354, 38.34497], [21.59962, 38.35102], [21.53541, 38.31395], [21.52393, 38.29581], [21.51776, 38.29581], [21.50847, 38.30223], [21.47609, 38.30607], [21.46925, 38.31293], [21.42843, 38.33051], [21.44532, 38.33404], [21.48976, 38.30948], [21.48268, 38.32461], [21.48976, 38.33674], [21.47608, 38.34379], [21.47608, 38.35102], [21.48976, 38.35786], [21.46999, 38.35786], [21.47608, 38.37153], [21.45856, 38.36637], [21.44264, 38.37153], [21.42215, 38.3641], [21.42848, 38.38373], [21.41627, 38.39411], [21.37746, 38.39888], [21.3699, 38.40819], [21.36012, 38.46772], [21.33904, 38.48754], [21.32252, 38.49628], [21.3086, 38.49437], [21.35328, 38.43293], [21.33904, 38.43293], [21.34645, 38.42609], [21.33659, 38.3957], [21.29119, 38.37767], [21.29866, 38.37153], [21.29119, 38.36409], [21.27768, 38.37092], [21.26954, 38.36786], [21.26637, 38.3614], [21.27221, 38.35444], [21.23926, 38.33113], [21.21263, 38.33052], [21.18963, 38.34138], [21.18133, 38.33051], [21.19993, 38.32307], [21.17506, 38.3133], [21.17448, 38.30265], [21.15562, 38.30391], [21.14039, 38.33674], [21.08525, 38.34358], [21.10572, 38.35297], [21.10939, 38.36042], [21.10621, 38.37153], [21.09256, 38.3641], [21.1062, 38.38513], [21.10328, 38.37816], [21.11354, 38.37393], [21.12501, 38.37995], [21.14039, 38.39887], [21.12241, 38.41035], [21.11476, 38.40961], [21.1062, 38.39888], [21.09497, 38.4029], [21.08181, 38.42072], [21.07896, 38.43293], [21.08522, 38.44035], [21.10678, 38.42544], [21.11622, 38.42805], [21.11988, 38.44038], [21.10621, 38.43293], [21.11085, 38.44611], [21.10142, 38.46475], [21.10621, 38.48139], [21.07897, 38.48754], [21.09938, 38.49437], [21.08523, 38.50186], [21.09474, 38.51789], [21.09596, 38.53193], [21.08668, 38.53644], [21.06351, 38.52176], [21.06579, 38.49817], [21.10761, 38.45169], [21.10898, 38.44664], [21.09592, 38.44135], [21.07117, 38.43952], [21.02244, 38.44593], [21.01835, 38.44273], [21.01794, 38.43642], [21.02292, 38.41271], [21.02071, 38.40848], [20.99982, 38.41531], [20.98615, 38.42495], [20.95732, 38.46113], [20.91946, 38.53933], [20.91506, 38.56724], [20.91683, 38.57267], [20.90935, 38.56293], [20.90755, 38.54903], [20.8939, 38.54903], [20.8939, 38.55646], [20.93214, 38.60301], [20.96807, 38.61588], [21.00081, 38.61729], [21.02089, 38.61171], [21.00369, 38.62646], [20.98813, 38.66401], [20.97902, 38.67255], [20.94012, 38.67293], [20.9269, 38.67666], [20.91441, 38.68623], [20.88315, 38.77936], [20.87338, 38.79531], [20.85987, 38.80353], [20.84523, 38.79963], [20.81137, 38.76254], [20.80405, 38.77338], [20.77329, 38.76095], [20.76368, 38.78172], [20.72934, 38.80353], [20.74937, 38.85724], [20.76735, 38.86431], [20.8003, 38.86457], [20.80519, 38.86774], [20.7942, 38.87979], [20.76451, 38.8918], [20.75605, 38.90689], [20.75745, 38.93987], [20.76978, 38.95895], [20.78159, 38.935], [20.81707, 38.92137], [20.83595, 38.9289], [20.85988, 38.96051], [20.8667, 38.96051], [20.87106, 38.94745], [20.86671, 38.94009], [20.87224, 38.93281], [20.86671, 38.92642], [20.90382, 38.92805], [20.91578, 38.9361], [20.92068, 38.95432], [20.92749, 38.95432], [20.93719, 38.94404], [20.97535, 38.94684], [21.00945, 38.93423], [21.02734, 38.93259], [21.02556, 38.89802], [21.0608, 38.88222], [21.08522, 38.86432], [21.08889, 38.87848], [21.09938, 38.88544], [21.09166, 38.90452], [21.10231, 38.91082], [21.12086, 38.91021], [21.13701, 38.9025], [21.16801, 38.87527], [21.17427, 38.87578], [21.18133, 38.88544], [21.16969, 38.89582], [21.16684, 38.91087], [21.15455, 38.9134], [21.14182, 38.93103], [21.14016, 38.94131], [21.14723, 38.95433], [21.14195, 38.96239], [21.14504, 38.97138], [21.15261, 38.9767], [21.16082, 38.97419], [21.15992, 38.99775], [21.13559, 39.02338], [21.08522, 39.06293], [21.07439, 39.05004], [21.07892, 39.0363], [21.06528, 39.04051], [21.05519, 39.0375], [21.03736, 39.02196], [21.05832, 39.00899], [21.0032, 39.01513], [21.00318, 39.02196], [20.9909, 39.02425], [20.96567, 39.03937], [20.95355, 39.03427], [20.9442, 39.03857], [20.93484, 39.05671], [20.9485, 39.06293], [20.9485, 39.06977], [20.92018, 39.06453], [20.90138, 39.07722], [20.89389, 39.07722], [20.88818, 39.06721], [20.87037, 39.05931], [20.86671, 39.05305], [20.87094, 39.04312], [20.88646, 39.03645], [20.84495, 39.03694], [20.85987, 39.04247], [20.85776, 39.05891], [20.85499, 39.0655], [20.84622, 39.06295], [20.8462, 39.07722], [20.83237, 39.07689], [20.82573, 39.06982], [20.83806, 39.09174], [20.83416, 39.10847], [20.82244, 39.11449], [20.81137, 39.10457], [20.80519, 39.1114], [20.79541, 39.09863], [20.77719, 39.09089], [20.77719, 39.08344], [20.79182, 39.08079], [20.78401, 39.04927], [20.76157, 39.03242], [20.7575, 39.02196], [20.74318, 39.02948], [20.74537, 39.01472], [20.7575, 39.01512], [20.80388, 38.9853], [20.82349, 38.97784], [20.82966, 38.97058], [20.83178, 38.96369], [20.82896, 38.96069], [20.76637, 38.97761], [20.7575, 38.97419], [20.74692, 38.95795], [20.73512, 38.95011], [20.70901, 38.98444], [20.70217, 38.99836], [20.71583, 39.01512], [20.70695, 39.0446], [20.72431, 39.07874], [20.7445, 39.10561], [20.75391, 39.12996], [20.78966, 39.19261], [20.83332, 39.2522], [20.90758, 39.32663], [20.99524, 39.38662], [21.07785, 39.42281], [21.13669, 39.42099], [21.22404, 39.40666], [21.30717, 39.37916], [21.38092, 39.34019], [21.41411, 39.31652], [21.508, 39.23713], [21.55777, 39.18128], [21.57947, 39.14895], [21.60984, 39.07957], [21.62209, 38.99108], [21.62955, 38.95971], [21.63397, 38.95273], [21.6413, 38.91036], [21.64211, 38.87524], [21.63867, 38.84108], [21.6223, 38.77168], [21.6733, 38.73609], [21.73976, 38.75008], [21.78277, 38.6217], [21.79326, 38.52611], [21.88159, 38.50096], [21.93405, 38.47701], [21.9439, 38.47732], [22.01381, 38.63681], [22.07083, 38.7315], [22.11324, 38.78459], [22.1832, 38.84398], [22.23311, 38.9103], [22.28913, 38.96118], [22.41182, 39.04615], [22.48976, 39.08145], [22.57398, 39.10402], [22.61864, 39.11053], [22.70766, 39.1132], [22.90749, 39.08891], [22.99525, 39.06407], [22.99195, 39.05732], [22.99804, 39.04927], [22.96648, 39.03465], [22.95883, 39.02513], [22.96388, 39.00898], [23.01532, 39.03318], [23.04219, 39.04003], [23.04858, 39.03852], [23.07308, 39.04246], [23.06789, 39.03397], [23.06996, 39.03348], [23.0647, 39.02876], [23.02328, 39.00845], [23.00716, 38.97395], [22.98454, 38.95434], [22.95639, 38.95433], [22.93605, 38.94684], [22.94286, 38.93261], [22.92856, 38.93159], [22.89845, 38.91963], [22.85987, 38.92853], [22.84653, 38.92642], [22.83667, 38.89648], [22.82959, 38.89168], [22.8047, 38.89102], [22.79199, 38.87801], [22.73268, 38.87239], [22.71827, 38.8898], [22.68897, 38.87801], [22.62159, 38.9145], [22.58082, 38.89363], [22.55209, 38.88923], [22.53882, 38.87801], [22.52508, 38.88544], [22.52508, 38.85814], [22.57291, 38.86431], [22.57291, 38.85815], [22.55388, 38.84809], [22.56332, 38.83625], [22.58277, 38.83198], [22.59344, 38.84446], [22.60025, 38.84446], [22.59344, 38.83023], [22.63266, 38.83514], [22.64112, 38.83023], [22.69028, 38.84999], [22.70264, 38.85064], [22.74806, 38.79922], [22.77129, 38.78579], [22.78423, 38.7829], [22.81593, 38.78924], [22.82927, 38.78607], [22.8597, 38.76717], [22.8672, 38.75507], [22.88782, 38.77125], [22.91488, 38.77557], [22.94532, 38.75812], [23.01628, 38.75445], [23.04199, 38.74672], [23.0594, 38.72772], [23.0905, 38.64912], [23.1045, 38.63841], [23.12355, 38.63691], [23.15643, 38.65346], [23.18247, 38.65375], [23.19606, 38.66633], [23.16817, 38.67939], [23.18678, 38.68597], [23.20492, 38.68267], [23.25375, 38.66181], [23.30591, 38.65264], [23.33121, 38.63027], [23.33331, 38.60446], [23.29331, 38.57909], [23.28541, 38.55646], [23.29542, 38.5681], [23.30738, 38.56854], [23.34059, 38.54556], [23.38159, 38.53534], [23.38133, 38.52847], [23.3401, 38.52237], [23.32928, 38.50837], [23.33497, 38.50361], [23.41847, 38.50433], [23.51938, 38.49067], [23.54323, 38.5116], [23.56722, 38.50112], [23.60133, 38.47394], [23.5735, 38.46088], [23.5735, 38.45344], [23.5962, 38.44676], [23.60009, 38.44062], [23.59401, 38.42609], [23.62501, 38.41401], [23.67286, 38.35643], [23.70997, 38.33674], [23.78199, 38.34356], [23.80502, 38.33251], [23.91245, 38.29824], [23.95101, 38.29091], [23.99122, 38.25422], [24.03858, 38.22394], [24.05063, 38.21068], [24.06901, 38.20473], [24.07308, 38.19648], [24.06951, 38.17353], [24.08055, 38.16601], [24.07, 38.16279], [24.06414, 38.1551], [24.05941, 38.13133], [24.05323, 38.14525], [24.03777, 38.14374], [23.98902, 38.12263], [23.99, 38.10212], [24.00913, 38.0406], [24.03271, 38.00776], [24.01173, 37.96686], [24.01587, 37.93745], [24.01173, 37.92524], [24.03443, 37.92291], [24.04329, 37.91644], [24.04638, 37.90599], [24.04224, 37.90071], [24.01173, 37.89175], [24.02784, 37.88032], [24.05322, 37.87807], [24.0464, 37.87059], [24.06689, 37.8644], [24.05934, 37.84854], [24.06689, 37.83711], [24.05763, 37.83218], [24.05323, 37.82282], [24.07717, 37.8109], [24.08464, 37.80174], [24.0874, 37.78522], [24.08187, 37.75251], [24.05942, 37.73347], [24.07308, 37.72723], [24.07308, 37.7198], [24.05942, 37.71979], [24.05942, 37.71357], [24.06577, 37.7128], [24.06689, 37.69933], [24.06398, 37.70502], [24.05942, 37.69929], [24.0721, 37.68952], [24.03272, 37.65153], [23.98308, 37.67032], [23.94973, 37.67744], [23.94306, 37.68993], [23.94337, 37.72724], [23.92271, 37.72119], [23.90252, 37.78189], [23.88885, 37.77442], [23.8816, 37.79108], [23.86557, 37.80768], [23.8475, 37.8181], [23.83351, 37.816], [23.81918, 37.82966], [23.813, 37.82966], [23.80729, 37.80859], [23.78663, 37.81216], [23.77899, 37.80234], [23.77662, 37.81428], [23.76452, 37.816], [23.77084, 37.82832], [23.76645, 37.83894], [23.74482, 37.85762], [23.7422, 37.87665], [23.70054, 37.9252], [23.69703, 37.93952], [23.68019, 37.94587], [23.62812, 37.9327], [23.62812, 37.93953], [23.6408, 37.94579], [23.64177, 37.95254], [23.62664, 37.9475], [23.61036, 37.96214], [23.5608, 37.9728], [23.55299, 37.98046], [23.58888, 38.00633], [23.59791, 38.02114], [23.59059, 38.0388], [23.57455, 38.04678], [23.55982, 38.04256], [23.52182, 38.04255], [23.49464, 38.02889], [23.47088, 38.02778], [23.44996, 38.02143], [23.41188, 37.99437], [23.39527, 37.98794], [23.42945, 37.98046], [23.40894, 37.97432], [23.32984, 37.98046], [23.22682, 37.97362], [23.18922, 37.95881], [23.14234, 37.93009], [23.09409, 37.91105], [23.05201, 37.92524], [23.04273, 37.92195], [23.01515, 37.92524], [23.01025, 37.89697], [22.99513, 37.88215], [22.99952, 37.8627], [23.01254, 37.84756], [23.03224, 37.85076], [23.04965, 37.84357], [23.0735, 37.84113], [23.1052, 37.84698], [23.11265, 37.8757], [23.13161, 37.90128], [23.1533, 37.90924], [23.17515, 37.90157], [23.19506, 37.88233], [23.21023, 37.85193], [23.21441, 37.8304], [23.21286, 37.81161], [23.20699, 37.79621], [23.19817, 37.785], [23.18115, 37.7776], [23.18237, 37.77441], [23.12818, 37.76048], [23.12094, 37.74091], [23.14584, 37.72582], [23.17553, 37.71978], [23.16383, 37.68159], [23.17553, 37.64469], [23.16188, 37.64468], [23.16863, 37.61416], [23.19011, 37.60732], [23.23023, 37.58259], [23.23764, 37.59002], [23.27467, 37.56123], [23.29224, 37.55588], [23.32301, 37.53742], [23.33668, 37.53547], [23.36036, 37.54767], [23.35914, 37.57429], [23.34059, 37.60029], [23.3122, 37.61055], [23.3122, 37.61737], [23.34783, 37.63441], [23.39869, 37.63787], [23.40902, 37.62592], [23.40429, 37.59927], [23.39078, 37.57136], [23.37428, 37.55589], [23.39503, 37.54141], [23.42204, 37.53546], [23.42205, 37.52802], [23.39527, 37.5218], [23.39527, 37.51496], [23.43629, 37.50812], [23.47917, 37.49066], [23.52563, 37.4597], [23.51889, 37.45303], [23.52563, 37.4392], [23.44654, 37.41463], [23.30592, 37.41193], [23.31217, 37.39827], [23.26271, 37.40103], [23.2644, 37.39082], [23.23024, 37.38459], [23.22999, 37.37494], [23.23707, 37.37031], [23.25755, 37.3709], [23.25131, 37.35733], [23.27797, 37.34984], [23.26207, 37.34395], [23.18605, 37.34064], [23.1854, 37.33218], [23.20361, 37.30269], [23.16863, 37.29952], [23.14146, 37.30952], [23.14145, 37.31635], [23.16188, 37.31635], [23.16188, 37.32315], [23.12339, 37.32478], [23.11413, 37.33616], [23.13461, 37.32933], [23.12241, 37.34569], [23.1006, 37.35733], [23.09278, 37.35079], [23.0731, 37.35522], [23.07261, 37.40109], [23.09498, 37.38955], [23.10524, 37.39692], [23.11412, 37.42559], [23.14145, 37.41193], [23.13201, 37.44863], [23.09718, 37.46223], [23.06202, 37.45499], [23.04594, 37.45971], [23.05942, 37.46654], [23.04591, 37.48701], [23.01124, 37.46906], [23.0049, 37.45973], [22.9909, 37.49575], [22.98072, 37.50878], [22.96388, 37.5218], [22.94289, 37.52181], [22.93605, 37.53547], [22.92156, 37.54035], [22.90187, 37.54165], [22.91432, 37.5388], [22.92237, 37.52804], [22.90235, 37.53486], [22.88502, 37.53315], [22.85402, 37.51497], [22.81936, 37.53547], [22.82618, 37.54906], [22.80202, 37.56086], [22.79592, 37.56916], [22.79884, 37.5764], [22.77833, 37.59687], [22.73846, 37.58088], [22.72641, 37.56635], [22.72316, 37.54165], [22.73665, 37.51838], [22.73048, 37.49445], [22.75033, 37.46654], [22.75034, 37.44261], [22.76481, 37.43178], [22.75799, 37.39826], [22.81933, 37.34369], [22.81251, 37.32933], [22.82618, 37.32911], [22.81935, 37.31635], [22.82998, 37.3081], [22.86085, 37.25568], [22.9067, 37.19368], [22.91162, 37.18342], [22.9004, 37.17292], [22.89503, 37.13386], [22.90317, 37.12128], [22.92205, 37.11799], [22.95638, 37.12395], [22.96386, 37.1103], [22.9568, 37.10676], [22.96386, 37.10342], [22.95639, 37.09593], [22.97347, 37.09096], [22.98169, 37.08271], [22.97916, 37.07783], [22.96388, 37.08295], [22.99983, 37.03327], [22.99806, 37.02147], [23.01171, 36.98677], [22.99073, 36.98676], [23.00489, 36.96686], [23.01172, 36.97308], [23.01635, 36.95527], [23.01173, 36.93891], [23.04899, 36.8769], [23.04591, 36.86909], [23.09326, 36.81826], [23.09181, 36.79833], [23.08058, 36.79499], [23.08058, 36.78876], [23.11409, 36.78131], [23.09441, 36.76081], [23.0944, 36.74372], [23.08863, 36.73291], [23.07586, 36.73385], [23.05201, 36.74714], [23.03094, 36.72557], [23.02564, 36.71564], [23.03906, 36.7062], [23.03224, 36.69257], [23.05939, 36.69256], [23.03443, 36.67487], [23.03566, 36.64908], [23.08058, 36.57929], [23.1346, 36.55536], [23.14536, 36.54194], [23.15501, 36.54108], [23.14145, 36.53425], [23.14819, 36.51716], [23.13461, 36.50755], [23.15187, 36.48729], [23.20361, 36.45612], [23.19605, 36.43254], [23.16188, 36.44619], [23.15186, 36.43562], [23.13933, 36.43408], [23.09475, 36.44319], [23.07838, 36.46528], [23.06627, 36.47346], [23.07211, 36.49311], [23.06511, 36.5091], [23.05104, 36.52245], [23.03565, 36.52802], [22.97242, 36.52021], [22.92921, 36.59634], [22.87471, 36.63052], [22.88893, 36.64248], [22.88429, 36.65424], [22.83717, 36.68651], [22.81935, 36.66525], [22.81496, 36.67056], [22.8169, 36.71244], [22.80079, 36.77578], [22.78688, 36.79344], [22.76515, 36.80418], [22.68556, 36.80948], [22.62257, 36.80345], [22.5774, 36.78303], [22.5791, 36.74039], [22.54615, 36.72142], [22.53346, 36.70722], [22.52508, 36.68513], [22.54029, 36.6852], [22.5498, 36.67828], [22.55249, 36.65096], [22.54568, 36.65096], [22.53386, 36.67056], [22.52508, 36.67145], [22.51678, 36.66616], [22.51002, 36.64802], [22.531, 36.6328], [22.52604, 36.61238], [22.51271, 36.60279], [22.50465, 36.62425], [22.48912, 36.61548], [22.48406, 36.60663], [22.48658, 36.52509], [22.51147, 36.46662], [22.50734, 36.46109], [22.51147, 36.45234], [22.4983, 36.44526], [22.49391, 36.43476], [22.50465, 36.40475]]], [[[22.92939, 36.48411], [22.95265, 36.50547], [22.96982, 36.51122], [22.97674, 36.50747], [22.98218, 36.49941], [22.98934, 36.47044], [22.98601, 36.45826], [22.96583, 36.47606], [22.95159, 36.47525], [22.94034, 36.46605], [22.93165, 36.46476], [22.92507, 36.46907], [22.92939, 36.48411]]], [[[21.75748, 36.7442], [21.76417, 36.75396], [21.78003, 36.7475], [21.77783, 36.69939], [21.76796, 36.70826], [21.76417, 36.71988], [21.75051, 36.71241], [21.75748, 36.7442]]], [[[21.70949, 36.80173], [21.72933, 36.79499], [21.72933, 36.78877], [21.71632, 36.78132], [21.71655, 36.77094], [21.69582, 36.74043], [21.70087, 36.79108], [21.70949, 36.80173]]], [[[21.54665, 37.03237], [21.549, 37.04536], [21.5373, 37.05744], [21.55282, 37.06438], [21.55867, 37.05382], [21.54665, 37.03237]]], [[[23.15203, 37.23999], [23.13104, 37.24373], [23.09443, 37.27473], [23.10521, 37.283], [23.12842, 37.28839], [23.15128, 37.27664], [23.16244, 37.26435], [23.16373, 37.24983], [23.16235, 37.24422], [23.15203, 37.23999]]], [[[20.86328, 37.71061], [20.84352, 37.70156], [20.84376, 37.68993], [20.85302, 37.67259], [20.85013, 37.6578], [20.83032, 37.70624], [20.822, 37.74147], [20.81841, 37.8465], [20.8501, 37.8364], [20.88578, 37.81409], [20.91798, 37.76529], [20.98682, 37.72988], [20.99633, 37.69932], [20.98308, 37.71231], [20.95436, 37.72386], [20.89389, 37.73347], [20.87916, 37.72822], [20.86328, 37.71061]]], [[[20.90383, 38.64276], [20.94516, 38.65248], [20.95166, 38.64923], [20.95288, 38.63886], [20.94165, 38.6274], [20.89812, 38.60602], [20.87866, 38.58443], [20.87063, 38.58252], [20.87014, 38.6035], [20.89066, 38.62741], [20.88821, 38.62877], [20.90383, 38.64276]]], [[[20.78713, 38.59981], [20.75378, 38.62453], [20.74095, 38.65689], [20.74644, 38.66347], [20.78305, 38.67498], [20.80501, 38.66567], [20.78858, 38.64473], [20.76287, 38.63911], [20.75961, 38.62739], [20.80002, 38.59547], [20.78713, 38.59981]]], [[[20.71981, 38.71871], [20.68906, 38.84512], [20.71778, 38.8227], [20.72933, 38.78172], [20.72389, 38.76996], [20.72971, 38.73564], [20.71981, 38.71871]]], [[[21.16364, 38.90467], [21.16392, 38.90719], [21.16396, 38.9057], [21.16364, 38.90467]]], [[[23.27176, 35.90423], [23.27605, 35.90468], [23.278, 35.89745], [23.31576, 35.87953], [23.33072, 35.86493], [23.33229, 35.8427], [23.32115, 35.83763], [23.29568, 35.85957], [23.28086, 35.88265], [23.27176, 35.90423]]], [[[23.44974, 36.92913], [23.46723, 36.90661], [23.46388, 36.90401], [23.45778, 36.90645], [23.44974, 36.92913]]], [[[23.5477, 37.34985], [23.52329, 37.34664], [23.50514, 37.34984], [23.50878, 37.3299], [23.49683, 37.32002], [23.37429, 37.30269], [23.37429, 37.30951], [23.46364, 37.35732], [23.48764, 37.3635], [23.53256, 37.36392], [23.55299, 37.37091], [23.58714, 37.37091], [23.57113, 37.35835], [23.5477, 37.34985]]], [[[23.43073, 37.39171], [23.43217, 37.38063], [23.42953, 37.36944], [23.41608, 37.34854], [23.3979, 37.33238], [23.37252, 37.32222], [23.33651, 37.32081], [23.295, 37.31075], [23.26928, 37.31492], [23.268, 37.32826], [23.27514, 37.33605], [23.34685, 37.37393], [23.39497, 37.40723], [23.41623, 37.40972], [23.42447, 37.40378], [23.43073, 37.39171]]], [[[23.91546, 37.48033], [23.89684, 37.49019], [23.89813, 37.49448], [23.9196, 37.48826], [23.93372, 37.47865], [23.94254, 37.46317], [23.92613, 37.46703], [23.91546, 37.48033]]], [[[23.48121, 37.5096], [23.4559, 37.51252], [23.43631, 37.52179], [23.43629, 37.52802], [23.4718, 37.53846], [23.47732, 37.55588], [23.48178, 37.55645], [23.49204, 37.53913], [23.51157, 37.52904], [23.52563, 37.52801], [23.52563, 37.5218], [23.50635, 37.51285], [23.48121, 37.5096]]], [[[23.93557, 37.6459], [23.93866, 37.65708], [23.95337, 37.6568], [23.95971, 37.65139], [23.95971, 37.64282], [23.9411, 37.64217], [23.93557, 37.6459]]], [[[24.09988, 37.65941], [24.12641, 37.74302], [24.14315, 37.7527], [24.15112, 37.73408], [24.10516, 37.64527], [24.09988, 37.65941]]], [[[23.53207, 37.72533], [23.52563, 37.69246], [23.48414, 37.67887], [23.45738, 37.69246], [23.45738, 37.69928], [23.469, 37.70502], [23.46827, 37.7145], [23.45932, 37.72333], [23.43443, 37.7336], [23.42704, 37.74802], [23.42564, 37.76821], [23.54587, 37.77439], [23.56314, 37.76825], [23.54493, 37.74506], [23.54614, 37.73347], [23.53207, 37.72533]]], [[[23.75523, 37.77511], [23.76351, 37.77597], [23.76335, 37.76399], [23.75385, 37.76517], [23.75157, 37.76951], [23.75449, 37.76976], [23.75523, 37.77511]]], [[[23.48145, 37.88972], [23.46705, 37.88423], [23.42167, 37.8929], [23.40839, 37.89859], [23.40212, 37.906], [23.40211, 37.91195], [23.40896, 37.92194], [23.43947, 37.93959], [23.46852, 37.93203], [23.4817, 37.94172], [23.49773, 37.96686], [23.48561, 37.96625], [23.46043, 37.95255], [23.42208, 37.96004], [23.45737, 37.97362], [23.42945, 37.98794], [23.44232, 37.98875], [23.47047, 37.98046], [23.47486, 37.98941], [23.47048, 37.99408], [23.47821, 37.99884], [23.49529, 38.00184], [23.51824, 37.99908], [23.53686, 37.98802], [23.53273, 37.97508], [23.54712, 37.95888], [23.54615, 37.95254], [23.57347, 37.95254], [23.53932, 37.93952], [23.54345, 37.92886], [23.52174, 37.91397], [23.51823, 37.8986], [23.50131, 37.90607], [23.48145, 37.88972]]], [[[23.45315, 38.65803], [23.44597, 38.67674], [23.38161, 38.70727], [23.35336, 38.73139], [23.33767, 38.73896], [23.32301, 38.76252], [23.20232, 38.8299], [23.14356, 38.85065], [23.06911, 38.84659], [23.03639, 38.87446], [22.96941, 38.88911], [22.95639, 38.88544], [22.95639, 38.878], [22.9839, 38.87352], [22.99194, 38.86469], [22.99072, 38.85066], [22.98153, 38.84498], [22.8558, 38.83295], [22.83303, 38.82276], [22.83743, 38.85447], [22.87485, 38.8749], [22.90748, 38.88231], [22.95281, 38.90159], [22.98292, 38.90766], [23.03566, 38.92642], [23.04592, 38.94684], [23.08676, 38.95433], [23.09734, 38.97207], [23.09443, 38.98785], [23.10906, 38.99177], [23.12746, 39.0058], [23.19972, 39.00898], [23.27296, 39.03876], [23.29908, 39.04246], [23.32984, 39.02196], [23.37158, 39.01031], [23.38159, 39.00153], [23.37486, 38.9838], [23.38461, 38.96752], [23.40455, 38.95783], [23.42562, 38.95432], [23.45069, 38.87458], [23.48048, 38.83808], [23.52466, 38.82318], [23.56788, 38.79385], [23.59399, 38.78924], [23.594, 38.77021], [23.60759, 38.77557], [23.61996, 38.76553], [23.66228, 38.75507], [23.6727, 38.76043], [23.68336, 38.75507], [23.70265, 38.76507], [23.72266, 38.76194], [23.73844, 38.74941], [23.75359, 38.71918], [23.79419, 38.70175], [23.8576, 38.68252], [23.90634, 38.67932], [23.94777, 38.66942], [23.96656, 38.67011], [23.98423, 38.68621], [24.00571, 38.67805], [24.07309, 38.67938], [24.15537, 38.65277], [24.13494, 38.64387], [24.12623, 38.6352], [24.1211, 38.6081], [24.12648, 38.59858], [24.21607, 38.53953], [24.23144, 38.52237], [24.20655, 38.50682], [24.18816, 38.47411], [24.18434, 38.43964], [24.20393, 38.41868], [24.20395, 38.41272], [24.18507, 38.40762], [24.18816, 38.39883], [24.21077, 38.37767], [24.21485, 38.33641], [24.25244, 38.29238], [24.25262, 38.26557], [24.25781, 38.25898], [24.24513, 38.24116], [24.25245, 38.22797], [24.29225, 38.20018], [24.32699, 38.18593], [24.33758, 38.16283], [24.34441, 38.15925], [24.39258, 38.164], [24.42067, 38.14737], [24.47779, 38.13874], [24.49692, 38.1463], [24.58764, 38.15923], [24.57895, 38.10932], [24.57993, 38.08422], [24.59448, 38.0624], [24.56665, 37.98795], [24.55185, 37.97807], [24.50957, 37.96263], [24.48805, 37.96004], [24.47718, 37.96241], [24.47096, 37.98046], [24.44776, 38.01056], [24.4297, 38.02119], [24.40309, 38.01191], [24.3864, 37.99653], [24.4021, 37.98794], [24.4021, 37.98046], [24.38689, 37.97038], [24.37176, 37.97192], [24.33864, 37.99674], [24.31383, 38.02925], [24.31399, 38.0351], [24.327, 38.04255], [24.31479, 38.06489], [24.30568, 38.07176], [24.29226, 38.0699], [24.28631, 38.08625], [24.2693, 38.0954], [24.24871, 38.09687], [24.23146, 38.09033], [24.21778, 38.09687], [24.20396, 38.09034], [24.20477, 38.09682], [24.21078, 38.0978], [24.21078, 38.12446], [24.20281, 38.13007], [24.18605, 38.1274], [24.18297, 38.135], [24.21078, 38.166], [24.20875, 38.17862], [24.19403, 38.19213], [24.18531, 38.21796], [24.1727, 38.22655], [24.15699, 38.22956], [24.14259, 38.22695], [24.14875, 38.21322], [24.12625, 38.21748], [24.13113, 38.23582], [24.1631, 38.26781], [24.15349, 38.28132], [24.14552, 38.28091], [24.12843, 38.26781], [24.12574, 38.25609], [24.1094, 38.2563], [24.11476, 38.2753], [24.10094, 38.2753], [24.12159, 38.30948], [24.07944, 38.32538], [24.02546, 38.33052], [24.05974, 38.34125], [24.0669, 38.35102], [24.05904, 38.36029], [24.05942, 38.37767], [24.04225, 38.40152], [24.03891, 38.39542], [23.98081, 38.39887], [23.91236, 38.39204], [23.84376, 38.40567], [23.79371, 38.39851], [23.70997, 38.4125], [23.66334, 38.40421], [23.64918, 38.40567], [23.63852, 38.41551], [23.61443, 38.46088], [23.60743, 38.4538], [23.594, 38.45344], [23.63575, 38.50092], [23.6281, 38.51511], [23.62812, 38.52236], [23.63551, 38.52237], [23.63551, 38.52855], [23.59995, 38.57136], [23.53976, 38.58235], [23.50534, 38.59727], [23.49773, 38.63101], [23.45315, 38.65803]]], [[[23.79264, 39.11815], [23.74122, 39.08028], [23.71681, 39.07723], [23.69256, 39.08893], [23.66603, 39.09277], [23.65806, 39.09773], [23.65847, 39.10431], [23.66969, 39.1114], [23.66969, 39.11815], [23.62765, 39.14744], [23.61744, 39.16914], [23.58719, 39.20758], [23.59452, 39.21065], [23.6177, 39.20479], [23.66554, 39.16966], [23.69662, 39.15534], [23.73046, 39.14614], [23.72674, 39.1315], [23.77302, 39.12926], [23.79264, 39.11815]]], [[[23.34375, 39.17964], [23.30127, 39.15136], [23.20973, 39.13182], [23.23021, 39.12442], [23.23022, 39.11816], [23.20362, 39.10457], [23.1692, 39.10659], [23.14625, 39.10175], [23.11549, 39.0883], [23.08341, 39.09118], [23.12396, 39.11455], [23.17172, 39.13495], [23.18129, 39.14764], [23.19575, 39.15588], [23.19923, 39.15143], [23.21811, 39.16789], [23.2567, 39.1852], [23.33174, 39.20872], [23.34228, 39.19261], [23.34375, 39.17964]]], [[[23.47511, 39.15778], [23.46045, 39.13183], [23.4253, 39.14867], [23.39529, 39.14616], [23.3987, 39.16364], [23.42945, 39.17621], [23.44468, 39.19847], [23.47047, 39.2138], [23.50374, 39.19427], [23.51285, 39.17853], [23.50513, 39.15914], [23.48902, 39.16877], [23.47511, 39.15778]]], [[[24.36459, 36.66303], [24.327, 36.65096], [24.32294, 36.66535], [24.33131, 36.68716], [24.32701, 36.69936], [24.34067, 36.71239], [24.32702, 36.71988], [24.35426, 36.75396], [24.3816, 36.73355], [24.39535, 36.7359], [24.40724, 36.70726], [24.42652, 36.69937], [24.4607, 36.69937], [24.47145, 36.70425], [24.45916, 36.72671], [24.45053, 36.73355], [24.43686, 36.7275], [24.40888, 36.75398], [24.40888, 36.76081], [24.42026, 36.77105], [24.45045, 36.7534], [24.47438, 36.74714], [24.51271, 36.76398], [24.53337, 36.768], [24.54606, 36.75397], [24.54606, 36.6981], [24.5917, 36.69942], [24.69906, 36.68824], [24.72614, 36.68085], [24.74051, 36.67101], [24.73885, 36.65825], [24.72037, 36.64709], [24.69057, 36.64222], [24.65724, 36.6421], [24.60941, 36.64821], [24.57561, 36.65785], [24.55024, 36.66969], [24.53563, 36.68307], [24.51861, 36.67373], [24.48463, 36.66524], [24.36459, 36.66303]]], [[[24.62184, 36.79498], [24.6438, 36.79295], [24.64226, 36.78876], [24.66577, 36.77464], [24.66772, 36.76398], [24.65934, 36.75057], [24.64479, 36.74727], [24.60833, 36.78113], [24.62184, 36.79498]]], [[[24.60815, 36.82909], [24.57276, 36.78194], [24.55613, 36.78041], [24.53984, 36.78448], [24.52118, 36.81737], [24.5342, 36.83612], [24.56178, 36.84564], [24.58595, 36.83649], [24.60075, 36.84274], [24.60815, 36.83592], [24.60815, 36.82909]]], [[[24.4983, 37.12397], [24.47682, 37.1283], [24.46413, 37.12399], [24.45948, 37.13719], [24.45053, 37.13012], [24.43442, 37.13418], [24.42865, 37.12923], [24.42654, 37.09829], [24.41572, 37.16442], [24.37952, 37.31334], [24.36795, 37.30953], [24.38547, 37.36094], [24.40211, 37.37092], [24.40211, 37.37714], [24.38845, 37.3846], [24.39682, 37.40152], [24.39479, 37.41177], [24.38453, 37.41682], [24.36795, 37.41195], [24.37486, 37.43846], [24.43621, 37.487], [24.44368, 37.487], [24.44364, 37.47254], [24.43051, 37.44603], [24.4694, 37.42747], [24.48252, 37.4126], [24.47778, 37.39083], [24.46339, 37.39448], [24.45281, 37.38345], [24.44368, 37.34984], [24.41179, 37.32397], [24.38, 37.3135], [24.41851, 37.25054], [24.43225, 37.21508], [24.43463, 37.18739], [24.43198, 37.1616], [24.43621, 37.16486], [24.43476, 37.17548], [24.4437, 37.17853], [24.43623, 37.18537], [24.46828, 37.20208], [24.4856, 37.20611], [24.50147, 37.20086], [24.5149, 37.20599], [24.52612, 37.19965], [24.53464, 37.16794], [24.53239, 37.13013], [24.52613, 37.14444], [24.51881, 37.14444], [24.51889, 37.13207], [24.5153, 37.12288], [24.50843, 37.11652], [24.56481, 37.1046], [24.62397, 37.08434], [24.66821, 37.0583], [24.68583, 37.03124], [24.6893, 37.0292], [24.70435, 37.03513], [24.75163, 36.98578], [24.76578, 36.94921], [24.74855, 36.93936], [24.71062, 36.90422], [24.67899, 36.95131], [24.66927, 36.97826], [24.67536, 36.99689], [24.65043, 36.98473], [24.6292, 36.98389], [24.62105, 36.98805], [24.57305, 37.04406], [24.54444, 37.07252], [24.50566, 37.09905], [24.46722, 37.11628], [24.47456, 37.11889], [24.49388, 37.11754], [24.49098, 37.12226], [24.4983, 37.12397]], [[24.43019, 37.14419], [24.43051, 37.14444], [24.43025, 37.1448], [24.43019, 37.14419]]], [[[24.34715, 37.44807], [24.31523, 37.49454], [24.34415, 37.45348], [24.34715, 37.44807]]], [[[24.32066, 37.67885], [24.33969, 37.68625], [24.36109, 37.67886], [24.36166, 37.68503], [24.37476, 37.68625], [24.4025, 37.65575], [24.39575, 37.62467], [24.31299, 37.53824], [24.29347, 37.52571], [24.27541, 37.53169], [24.2781, 37.62287], [24.28933, 37.64532], [24.30568, 37.66082], [24.32065, 37.65835], [24.33383, 37.67259], [24.32066, 37.67259], [24.32066, 37.67885]]], [[[24.24286, 38.01296], [24.25437, 38.01993], [24.26319, 38.01877], [24.27544, 38.00934], [24.28296, 37.9984], [24.27783, 37.9851], [24.26498, 37.97847], [24.25416, 37.98163], [24.2396, 37.97774], [24.2287, 37.98282], [24.22789, 37.98835], [24.24286, 38.01296]]], [[[24.55697, 38.80392], [24.57152, 38.77933], [24.56665, 38.76254], [24.53242, 38.79608], [24.55697, 38.80392]]], [[[24.42596, 38.69117], [24.39697, 38.69157], [24.38079, 38.70215], [24.37068, 38.72113], [24.35803, 38.76294], [24.32235, 38.84242], [24.31685, 38.87805], [24.32139, 38.89758], [24.3262, 38.90197], [24.3393, 38.90248], [24.36257, 38.88996], [24.39651, 38.86008], [24.45477, 38.79952], [24.48565, 38.77527], [24.50628, 38.76541], [24.53554, 38.76541], [24.54775, 38.76077], [24.55241, 38.75477], [24.55528, 38.73909], [24.55095, 38.72195], [24.53776, 38.69885], [24.52319, 38.68415], [24.50423, 38.67881], [24.49528, 38.68033], [24.47864, 38.69222], [24.4575, 38.69886], [24.44494, 38.69944], [24.42596, 38.69117]]], [[[24.4546, 38.88483], [24.43622, 38.87802], [24.43899, 38.89728], [24.45846, 38.90868], [24.52187, 38.85044], [24.50515, 38.84449], [24.50522, 38.85505], [24.48261, 38.86279], [24.47779, 38.878], [24.47097, 38.87117], [24.4546, 38.88483]]], [[[24.8498, 36.64693], [24.84085, 36.66522], [24.86192, 36.66593], [24.94792, 36.62433], [24.96049, 36.60696], [24.95812, 36.60625], [24.9637, 36.59635], [24.92287, 36.60229], [24.89552, 36.62425], [24.8498, 36.64693]]], [[[25.06741, 36.63789], [25.10468, 36.69936], [25.14625, 36.71986], [25.18578, 36.71913], [25.18343, 36.70621], [25.12928, 36.66016], [25.09311, 36.63663], [25.06741, 36.63789]]], [[[25.03054, 36.98896], [25.0259, 37.00788], [25.0355, 37.02191], [25.07252, 37.04209], [25.0879, 37.04197], [25.05991, 36.97309], [25.08104, 36.95264], [25.06667, 36.95516], [25.04722, 36.9691], [25.03054, 36.98896]]], [[[25.20956, 37.14391], [25.23875, 37.15182], [25.22397, 37.13435], [25.23194, 37.12751], [25.25929, 37.12397], [25.27296, 37.1376], [25.26614, 37.15183], [25.29329, 37.15183], [25.26295, 37.08983], [25.26287, 37.07559], [25.27978, 37.06927], [25.27978, 37.06249], [25.26612, 37.06249], [25.26612, 37.055], [25.27978, 37.055], [25.27978, 37.04882], [25.26881, 37.04613], [25.24453, 37.01439], [25.20443, 36.98897], [25.18849, 36.98531], [25.15285, 36.98677], [25.10338, 37.01289], [25.11298, 37.06273], [25.12535, 37.07452], [25.15626, 37.08979], [25.13577, 37.09382], [25.15009, 37.11053], [25.17876, 37.12956], [25.20956, 37.14391]]], [[[24.90068, 37.48743], [24.88872, 37.4811], [24.80472, 37.46417], [24.6589, 37.45074], [24.58139, 37.45175], [24.55556, 37.45616], [24.53983, 37.46281], [24.53652, 37.47123], [24.54601, 37.48014], [24.56526, 37.48854], [24.72802, 37.52729], [24.80625, 37.53604], [24.86485, 37.52861], [24.9087, 37.51316], [24.91255, 37.50927], [24.92176, 37.52386], [24.94199, 37.53142], [24.94585, 37.52431], [24.93875, 37.49475], [24.95508, 37.47065], [24.95746, 37.4595], [24.94337, 37.43549], [24.96358, 37.41836], [24.96609, 37.40758], [24.96403, 37.40177], [24.88186, 37.36353], [24.88868, 37.39826], [24.86136, 37.39827], [24.86404, 37.40729], [24.87958, 37.42663], [24.86821, 37.43178], [24.88673, 37.43529], [24.89812, 37.44868], [24.90235, 37.48017], [24.90068, 37.48743]]], [[[25.09838, 37.42708], [25.07216, 37.41079], [25.03563, 37.39799], [25.00449, 37.395], [24.98041, 37.40007], [24.96799, 37.41227], [24.97685, 37.43223], [25.00324, 37.45689], [25.03917, 37.48213], [25.08263, 37.50543], [25.11204, 37.51561], [25.12626, 37.51319], [25.13091, 37.50187], [25.12519, 37.46558], [25.11528, 37.44571], [25.09838, 37.42708]]], [[[25.0879, 37.64468], [25.10377, 37.65374], [25.12248, 37.65171], [25.13981, 37.64272], [25.14942, 37.63105], [25.16481, 37.64581], [25.19263, 37.64129], [25.2456, 37.62421], [25.23878, 37.61738], [25.25277, 37.60871], [25.25927, 37.59004], [25.23471, 37.56289], [25.22729, 37.53743], [25.21599, 37.53292], [25.16994, 37.53865], [25.1421, 37.55272], [25.11558, 37.56013], [25.10328, 37.57844], [25.08059, 37.58687], [25.04705, 37.61738], [24.9979, 37.63789], [24.98433, 37.65827], [24.98514, 37.67892], [24.9979, 37.68186], [25.05323, 37.67885], [25.06738, 37.67259], [25.06738, 37.66519], [25.05991, 37.66519], [25.05991, 37.65835], [25.07747, 37.65492], [25.0879, 37.64468]]], [[[24.71783, 37.59362], [24.67238, 37.6005], [24.65971, 37.60687], [24.68365, 37.61247], [24.71608, 37.63104], [24.73292, 37.63206], [24.74104, 37.62592], [24.74121, 37.5957], [24.71783, 37.59362]]], [[[24.96437, 37.76874], [24.98048, 37.77398], [24.9917, 37.76821], [24.99438, 37.7541], [24.98536, 37.73579], [24.95753, 37.70673], [24.9637, 37.68628], [24.95754, 37.68628], [24.91604, 37.7198], [24.8945, 37.76536], [24.93276, 37.80076], [24.96888, 37.82652], [24.98485, 37.81598], [24.9712, 37.80915], [24.972, 37.79638], [24.95834, 37.78124], [24.95753, 37.7744], [24.96437, 37.76874]]], [[[24.71616, 37.87911], [24.71218, 37.88435], [24.71803, 37.89859], [24.68387, 37.93268], [24.69538, 37.93655], [24.69013, 37.95628], [24.69363, 37.96576], [24.75077, 37.99385], [24.70006, 37.93326], [24.77022, 37.87545], [24.81208, 37.82175], [24.79999, 37.816], [24.7942, 37.84382], [24.73854, 37.89175], [24.7317, 37.89175], [24.72461, 37.88191], [24.71616, 37.87911]]], [[[25.36851, 36.47345], [25.38209, 36.47963], [25.41797, 36.47039], [25.4524, 36.45026], [25.47916, 36.42438], [25.49136, 36.39744], [25.49036, 36.38824], [25.44211, 36.3715], [25.40002, 36.36131], [25.36169, 36.35676], [25.37366, 36.36164], [25.40943, 36.36359], [25.43678, 36.39094], [25.42663, 36.42295], [25.41628, 36.43253], [25.42189, 36.45112], [25.36851, 36.46663], [25.36851, 36.47345]]], [[[25.37322, 36.65373], [25.3377, 36.66844], [25.27297, 36.71988], [25.2798, 36.72671], [25.25182, 36.72672], [25.26272, 36.76764], [25.30697, 36.79497], [25.33671, 36.80893], [25.36421, 36.80836], [25.37383, 36.80352], [25.37798, 36.79625], [25.37487, 36.78715], [25.36295, 36.77672], [25.33072, 36.76731], [25.34799, 36.74714], [25.39942, 36.72797], [25.40941, 36.7124], [25.39698, 36.71052], [25.39015, 36.70368], [25.39518, 36.6789], [25.37322, 36.65373]]], [[[25.8144, 36.80689], [25.84547, 36.80858], [25.86313, 36.83592], [25.85159, 36.83113], [25.84548, 36.83662], [25.84548, 36.84955], [25.97185, 36.89802], [25.97185, 36.9042], [25.95071, 36.91162], [25.95071, 36.91844], [25.97836, 36.92495], [25.99839, 36.9389], [26.00586, 36.9389], [26.03541, 36.91299], [26.07422, 36.89801], [26.0747, 36.8933], [26.06739, 36.89119], [26.05014, 36.89696], [26.01596, 36.88948], [26.00587, 36.89118], [25.9214, 36.84105], [25.89356, 36.80346], [25.87964, 36.795], [25.79867, 36.77278], [25.75581, 36.76998], [25.73905, 36.79497], [25.75327, 36.78876], [25.7741, 36.80711], [25.78891, 36.80922], [25.80738, 36.80174], [25.8144, 36.80689]]], [[[25.43442, 36.82267], [25.42312, 36.83251], [25.44716, 36.85752], [25.47096, 36.87066], [25.47834, 36.87066], [25.47096, 36.86323], [25.47851, 36.86001], [25.47756, 36.83503], [25.45785, 36.82486], [25.43442, 36.82267]]], [[[25.67399, 36.87947], [25.65463, 36.87891], [25.60867, 36.88374], [25.6146, 36.89374], [25.64967, 36.91159], [25.6844, 36.89118], [25.67399, 36.87947]]], [[[25.49514, 37.1891], [25.52215, 37.19318], [25.5337, 37.20066], [25.57454, 37.17853], [25.58626, 37.16063], [25.59244, 37.14252], [25.59502, 37.09935], [25.58081, 37.01777], [25.55249, 36.96895], [25.52613, 36.95942], [25.49138, 36.93212], [25.44989, 36.91846], [25.43252, 36.93905], [25.42311, 36.96686], [25.38895, 36.98677], [25.39168, 37.00179], [25.38072, 37.01875], [25.38209, 37.03514], [25.36695, 37.05956], [25.34182, 37.07674], [25.34182, 37.08295], [25.35239, 37.08909], [25.36166, 37.08295], [25.40945, 37.12396], [25.47462, 37.16181], [25.49514, 37.1891]]], [[[25.80055, 37.09595], [25.78055, 37.12396], [25.8054, 37.12633], [25.83463, 37.13758], [25.82838, 37.12397], [25.84204, 37.11029], [25.82911, 37.09733], [25.81911, 37.09692], [25.80738, 37.10342], [25.80055, 37.09595]]], [[[25.30699, 37.47273], [25.31268, 37.48822], [25.34799, 37.50811], [25.37729, 37.46743], [25.38209, 37.46967], [25.3856, 37.48993], [25.39536, 37.49395], [25.42676, 37.48699], [25.44361, 37.47504], [25.46289, 37.47003], [25.46552, 37.46313], [25.45728, 37.44604], [25.40772, 37.43683], [25.40259, 37.41817], [25.38258, 37.41974], [25.30699, 37.41194], [25.30927, 37.43618], [25.3213, 37.4392], [25.32643, 37.46288], [25.32244, 37.47102], [25.30699, 37.47273]]]]}}]}