{"type": "FeatureCollection", "features": [{"type": "Feature", "properties": {"name": "대흥(장안)", "name_en": "Daxing (Chang'an)", "category": "수도", "year": null, "coord_source": "실제 위치", "map_lon": 108.93999, "map_lat": 34.27, "legend": "대흥(장안)", "map_title": "수의 대운하", "source": "미래엔 세계사 교과서 1권 28쪽", "volume": 1, "page": 28}, "geometry": {"type": "Point", "coordinates": [108.94, 34.27]}}, {"type": "Feature", "properties": {"name": "퉁관", "name_en": "Tongguan", "category": "도시", "year": null, "coord_source": "실제 위치", "map_lon": 110.25004, "map_lat": 34.54998, "legend": "퉁관", "map_title": "수의 대운하", "source": "미래엔 세계사 교과서 1권 28쪽", "volume": 1, "page": 28}, "geometry": {"type": "Point", "coordinates": [110.25, 34.55]}}, {"type": "Feature", "properties": {"name": "뤄양", "name_en": "Luoyang", "category": "도시", "year": null, "coord_source": "실제 위치", "map_lon": 112.44998, "map_lat": 34.62006, "legend": "뤄양", "map_title": "수의 대운하", "source": "미래엔 세계사 교과서 1권 28쪽", "volume": 1, "page": 28}, "geometry": {"type": "Point", "coordinates": [112.45, 34.62]}}, {"type": "Feature", "properties": {"name": "린칭", "name_en": "Linqing", "category": "도시", "year": null, "coord_source": "실제 위치", "map_lon": 115.69999, "map_lat": 36.83993, "legend": "린칭", "map_title": "수의 대운하", "source": "미래엔 세계사 교과서 1권 28쪽", "volume": 1, "page": 28}, "geometry": {"type": "Point", "coordinates": [115.7, 36.84]}}, {"type": "Feature", "properties": {"name": "탁군", "name_en": "Zhuo Commandery (Zhuozhou)", "category": "도시", "year": null, "coord_source": "실제 위치", "map_lon": 115.97009, "map_lat": 39.49004, "legend": "탁군", "map_title": "수의 대운하", "source": "미래엔 세계사 교과서 1권 28쪽", "volume": 1, "page": 28}, "geometry": {"type": "Point", "coordinates": [115.97, 39.49]}}, {"type": "Feature", "properties": {"name": "양저우", "name_en": "Yangzhou", "category": "도시", "year": null, "coord_source": "실제 위치", "map_lon": 119.42004, "map_lat": 32.39, "legend": "양저우", "map_title": "수의 대운하", "source": "미래엔 세계사 교과서 1권 28쪽", "volume": 1, "page": 28}, "geometry": {"type": "Point", "coordinates": [119.42, 32.39]}}, {"type": "Feature", "properties": {"name": "여항(항저우)", "name_en": "Yuhang (Hangzhou)", "category": "도시", "year": null, "coord_source": "실제 위치", "map_lon": 120.16001, "map_lat": 30.26989, "legend": "여항(항저우)", "map_title": "수의 대운하", "source": "미래엔 세계사 교과서 1권 28쪽", "volume": 1, "page": 28}, "geometry": {"type": "Point", "coordinates": [120.16, 30.27]}}]}