{"type": "FeatureCollection", "features": [{"type": "Feature", "properties": {"map_title": "제1차 세계 대전 전후의 유럽", "source": "미래엔 세계사 교과서 4권 184쪽", "volume": 4, "page": 184, "legend": "제1차 세계 대전 이후 일시적 자치 또는 독립된 지역", "name": "우크라이나", "name_en": "Ukraine", "period": "1917–1921", "kind": "기타", "phase": "전후", "group": "우크라이나", "coast_snap": "Natural Earth 10m 해안선에 맞춤", "border_snap": "현대 국경(Natural Earth 10m)에 맞춘 구간 약 970 km", "map_folder": "4권_p184_제1차 세계 대전 전후의 유럽"}, "geometry": {"type": "MultiPolygon", "coordinates": [[[[36.73847, 45.20829], [36.60216, 45.15797], [36.57815, 45.18708], [36.57734, 45.19416], [36.5862, 45.20282], [36.70672, 45.20283], [36.72967, 45.20628], [36.78855, 45.23103], [36.73847, 45.20829]]], [[[37.60577, 45.31199], [37.53898, 45.34624], [37.59164, 45.33803], [37.60768, 45.32241], [37.60577, 45.31199]]], [[[36.89527, 45.42999], [37.06666, 45.35383], [37.0897, 45.3476], [36.98259, 45.33119], [36.9556, 45.31831], [36.94728, 45.32022], [36.94282, 45.31634], [36.78883, 45.29219], [36.76662, 45.31952], [36.75808, 45.35423], [36.77572, 45.3648], [36.8025, 45.31269], [36.81218, 45.31639], [36.8122, 45.34739], [36.8475, 45.36107], [36.8475, 45.36734], [36.81739, 45.36762], [36.78159, 45.38764], [36.77003, 45.38788], [36.72779, 45.37177], [36.68799, 45.3315], [36.66815, 45.32637], [36.66653, 45.3404], [36.7051, 45.39101], [36.83326, 45.44301], [36.84767, 45.43407], [36.89527, 45.42999]]], [[[29.8567, 45.64912], [30.0755, 45.7923], [30.12576, 45.81132], [29.90773, 45.66628], [29.80745, 45.61434], [29.73111, 45.59142], [29.80144, 45.62189], [29.81479, 45.64106], [29.8567, 45.64912]]], [[[32.95485, 46.05173], [32.97868, 46.05328], [32.99936, 46.0353], [33.04509, 46.0379], [33.05745, 46.02521], [33.03974, 46.01219], [32.61942, 46.06001], [32.62673, 46.06589], [32.63933, 46.06], [32.78321, 46.04633], [32.85206, 46.05629], [32.88168, 46.0554], [32.91358, 46.0388], [32.95485, 46.05173]]], [[[32.10182, 46.16669], [31.73716, 46.22078], [31.58034, 46.26277], [31.54901, 46.28242], [31.52187, 46.31345], [31.50514, 46.35469], [31.50442, 46.37334], [31.52197, 46.36847], [31.55437, 46.29633], [31.57797, 46.27558], [31.61818, 46.25922], [32.07051, 46.18249], [32.16622, 46.14938], [32.10182, 46.16669]]], [[[26.83693, 49.69521], [26.90109, 49.98426], [27.02157, 50.24755], [27.22492, 50.475], [27.33358, 50.56734], [27.36527, 50.61001], [27.38244, 50.66584], [27.37297, 50.73955], [27.28539, 50.92049], [27.23868, 51.06506], [27.23222, 51.21109], [27.25809, 51.35462], [27.26746, 51.5875], [27.25403, 51.59538], [27.25971, 51.6123], [27.27449, 51.6338], [27.27749, 51.65114], [27.24793, 51.65566], [27.20359, 51.65514], [27.18902, 51.66377], [27.18106, 51.68341], [27.18416, 51.73144], [27.17785, 51.74708], [27.47782, 51.8879], [27.49286, 51.92197], [27.53453, 52.06438], [27.53922, 52.14841], [27.52655, 52.1868], [27.4956, 52.22697], [27.44455, 52.26634], [27.29082, 52.35745], [27.24642, 52.39354], [27.18229, 52.4736], [27.14407, 52.56028], [27.12331, 52.65046], [27.10745, 52.79132], [27.09888, 52.98262], [27.11338, 53.26513], [27.16231, 53.56586], [27.18095, 53.64413], [27.22863, 53.75361], [27.27582, 53.80465], [27.3622, 53.87281], [27.40348, 53.92832], [27.41122, 53.95979], [27.40609, 54.0148], [27.34638, 54.17574], [27.34533, 54.28746], [27.39268, 54.38015], [27.478, 54.45757], [27.59124, 54.52384], [27.98731, 54.69234], [28.1046, 54.75272], [28.1826, 54.81097], [28.2318, 54.87313], [28.25568, 54.93727], [28.25826, 55.00581], [28.24098, 55.0793], [28.20809, 55.15265], [28.10452, 55.30491], [27.83858, 55.58266], [27.7941, 55.63967], [27.75787, 55.71164], [27.84905, 55.76789], [28.04275, 55.8264], [28.10361, 55.83889], [28.1626, 55.84426], [28.22147, 55.84036], [28.27316, 55.82592], [28.32954, 55.80027], [28.38713, 55.76717], [28.49769, 55.68898], [28.60281, 55.593], [28.62138, 55.58283], [28.78311, 55.56321], [28.88047, 55.55941], [28.97764, 55.56334], [29.05828, 55.55732], [29.13969, 55.51885], [29.40232, 55.42508], [29.58508, 55.33866], [29.62225, 55.31573], [29.64667, 55.27933], [29.75431, 55.15361], [29.78304, 55.13452], [29.80906, 55.12834], [29.84614, 55.12645], [30.10633, 55.14182], [30.16352, 55.13826], [30.44024, 55.02151], [30.81484, 54.92802], [30.81743, 54.91763], [30.82745, 54.90254], [30.82611, 54.87748], [30.81071, 54.86151], [30.78787, 54.84771], [30.76813, 54.82994], [30.76265, 54.80198], [30.77061, 54.78601], [30.78606, 54.77934], [30.8273, 54.77102], [30.98062, 54.70565], [30.9955, 54.68984], [30.99902, 54.67134], [31.02093, 54.67367], [31.10516, 54.66829], [31.12862, 54.64039], [31.16795, 54.62158], [31.57339, 54.57959], [31.68569, 54.59166], [31.72781, 54.5878], [31.77176, 54.57369], [31.85585, 54.52821], [32.03717, 54.39356], [32.04581, 54.36866], [32.04295, 54.32519], [32.0294, 54.27764], [32.0212, 54.26219], [31.73675, 54.09417], [31.74812, 54.08631], [31.77127, 54.04854], [31.78352, 54.0458], [31.81385, 54.05706], [31.82264, 54.05345], [31.82357, 54.04549], [31.84651, 53.99231], [31.84145, 53.98456], [31.83793, 53.96213], [31.82646, 53.94017], [31.81013, 53.8826], [31.79256, 53.85744], [31.7538, 53.81961], [31.74466, 53.79486], [31.78729, 53.79439], [31.87318, 53.77713], [32.0836, 53.80964], [32.10603, 53.80695], [32.16484, 53.78168], [32.29041, 53.76085], [32.32581, 53.74545], [32.35738, 53.71972], [32.3718, 53.7144], [32.44213, 53.71393], [32.46156, 53.7068], [32.48058, 53.69207], [32.48781, 53.68468], [32.49019, 53.67714], [32.48781, 53.66964], [32.48058, 53.66241], [32.39909, 53.63538], [32.4011, 53.60986], [32.41149, 53.58236], [32.42942, 53.56159], [32.45293, 53.5464], [32.53081, 53.52144], [32.55427, 53.51079], [32.5768, 53.48604], [32.5843, 53.48423], [32.60057, 53.4924], [32.63571, 53.49265], [32.65029, 53.48764], [32.64166, 53.46898], [32.64677, 53.45798], [32.65824, 53.45565], [32.70124, 53.46211], [32.71953, 53.43948], [32.70444, 53.36641], [32.71747, 53.33494], [32.69793, 53.32589], [32.64987, 53.33367], [32.57995, 53.32437], [32.59592, 53.30827], [32.56915, 53.29884], [32.53732, 53.29507], [32.50564, 53.29719], [32.48058, 53.30517], [32.45485, 53.30044], [32.4472, 53.28876], [32.45598, 53.27778], [32.47913, 53.27492], [32.45567, 53.23667], [32.42295, 53.20396], [32.69882, 53.05193], [32.78358, 53.01349], [32.98721, 52.94376], [33.03066, 52.92306], [33.0677, 52.89807], [33.08926, 52.86887], [33.10527, 52.79295], [33.18932, 52.60818], [33.19651, 52.36895], [33.18286, 52.3673], [33.16664, 52.36006], [33.12798, 52.33272], [33.09904, 52.32477], [33.07961, 52.30559], [33.07041, 52.30417], [33.04825, 52.30908], [33.03011, 52.3036], [32.92686, 52.24692], [32.90898, 52.2411], [32.89079, 52.24232], [32.84418, 52.26234], [32.81482, 52.262], [32.7556, 52.25239], [32.72542, 52.25208], [32.52843, 52.31621], [32.48058, 52.30714], [32.39428, 52.32681], [32.35356, 52.32159], [32.3395, 52.28725], [32.367, 52.2472], [32.36131, 52.23591], [32.32824, 52.21917], [32.31883, 52.20141], [32.30674, 52.14118], [32.2777, 52.10266], [32.57628, 51.95869], [32.69347, 51.72648], [32.76473, 51.63192], [32.85533, 51.54913], [32.95591, 51.48294], [33.07946, 51.42231], [33.22951, 51.36511], [33.39599, 51.31275], [33.57608, 51.26317], [33.61577, 51.26224], [33.83333, 51.30441], [34.18595, 51.24891], [34.25789, 51.22956], [34.28176, 51.22643], [34.29954, 51.23163], [34.33695, 51.25114], [34.37178, 51.25685], [34.40899, 51.25313], [34.51348, 51.22956], [34.57818, 51.23669], [34.60836, 51.23401], [34.62241, 51.22476], [34.63316, 51.19561], [34.64277, 51.18062], [34.65745, 51.17166], [34.67492, 51.16768], [34.74809, 51.16473], [34.81754, 51.17473], [34.89961, 51.19646], [34.94612, 51.21429], [34.96182, 51.21532], [34.99944, 51.20209], [35.05939, 51.21233], [35.07872, 51.20762], [35.09132, 51.19768], [35.09918, 51.18318], [35.12378, 51.09133], [35.14362, 51.05849], [35.17256, 51.04063], [35.20646, 51.03893], [35.27426, 51.0488], [35.30868, 51.04732], [35.3464, 51.0366], [35.35508, 51.02559], [35.34671, 51.00826], [35.33255, 50.99994], [35.27808, 50.99265], [35.28222, 50.98154], [35.28222, 50.95426], [35.2848, 50.94433], [35.29359, 50.93762], [35.31715, 50.9342], [35.32914, 50.92909], [35.34175, 50.91586], [35.34144, 50.87648], [35.34857, 50.86377], [35.36903, 50.84604], [35.37772, 50.83375], [35.37906, 50.79721], [35.39312, 50.78837], [35.41823, 50.77892], [35.43849, 50.76238], [35.44707, 50.73432], [35.44376, 50.70946], [35.44541, 50.6875], [35.46887, 50.66854], [35.39157, 50.64637], [35.37617, 50.63458], [35.37772, 50.62182], [35.42526, 50.50048], [35.44645, 50.47604], [35.24063, 50.28333], [35.37485, 50.01533], [35.40142, 50.00228], [35.90296, 49.86016], [36.48619, 49.77674], [37.03648, 49.22655], [36.95922, 49.17513], [36.95469, 49.16627], [36.95908, 49.15578], [37.31467, 48.87556], [37.33658, 48.86654], [37.36538, 48.86227], [37.86682, 48.84796], [38.61478, 48.53088], [38.64318, 48.52303], [39.30433, 48.50573], [39.63172, 48.58691], [39.67027, 48.5884], [39.69011, 48.59368], [39.80918, 48.58375], [39.83533, 48.57347], [39.85507, 48.55611], [39.86953, 48.50991], [39.8654, 48.50148], [39.84215, 48.49906], [39.84473, 48.4835], [39.86478, 48.46983], [39.8962, 48.42392], [39.91449, 48.3847], [39.92411, 48.37612], [39.88411, 48.34635], [39.81589, 48.30816], [39.88483, 48.27899], [39.90519, 48.28065], [39.95738, 48.29338], [39.97888, 48.29008], [39.99325, 48.27323], [39.99066, 48.25375], [39.97764, 48.23546], [40.2378, 48.08931], [40.43983, 47.92736], [40.47945, 47.9195], [40.54221, 47.92625], [40.64163, 47.91241], [41.21691, 47.78213], [41.31625, 47.75377], [41.36554, 47.74827], [41.41586, 47.71596], [41.47117, 47.68804], [41.53217, 47.66351], [41.64054, 47.63114], [41.76218, 47.56094], [41.94631, 47.48209], [42.07423, 47.44459], [42.14659, 47.41035], [42.19287, 47.39384], [42.29692, 47.36642], [42.46731, 47.32973], [42.52349, 47.31141], [42.64416, 47.25547], [42.74875, 47.19023], [42.83104, 47.15332], [42.86391, 47.11827], [43.00342, 47.02174], [43.05128, 46.96572], [43.06571, 46.92904], [43.06608, 46.8904], [43.0585, 46.87044], [43.01307, 46.81882], [43.01315, 46.78994], [43.00706, 46.78132], [42.87957, 46.70837], [42.78872, 46.67547], [42.66313, 46.64501], [42.5416, 46.60886], [42.31627, 46.56592], [42.22591, 46.5419], [42.1489, 46.50619], [42.08183, 46.45508], [42.0678, 46.43253], [42.07071, 46.41901], [42.08387, 46.40804], [42.13506, 46.38484], [42.16647, 46.35657], [42.18294, 46.32461], [42.20151, 46.24157], [42.20035, 46.18365], [42.1842, 46.10269], [42.16075, 46.06198], [42.12303, 46.02744], [42.06648, 45.99863], [42.02688, 45.9869], [41.96265, 45.97546], [41.82378, 45.96166], [41.62206, 45.95107], [41.42113, 45.95252], [41.08505, 45.96355], [40.69693, 46.00551], [40.55735, 46.01567], [40.37456, 46.01721], [40.24209, 46.01234], [40.18732, 45.99547], [40.10484, 45.94285], [40.08634, 45.92586], [40.04496, 45.86895], [39.97725, 45.82178], [39.96483, 45.79661], [39.78635, 45.7611], [39.61323, 45.7363], [39.55521, 45.74333], [39.38131, 45.78796], [39.32236, 45.79437], [39.26643, 45.79226], [39.2259, 45.78403], [39.18647, 45.76861], [39.12646, 45.72934], [39.04218, 45.66101], [39.00674, 45.64339], [38.98448, 45.63799], [38.93979, 45.64039], [38.91389, 45.64971], [38.86521, 45.68147], [38.83794, 45.69231], [38.78031, 45.70127], [38.6838, 45.69757], [38.6697, 45.69265], [38.66642, 45.68061], [38.60295, 45.67286], [38.46979, 45.60908], [38.43398, 45.5798], [38.36108, 45.53496], [38.25778, 45.48956], [38.26829, 45.4006], [38.263, 45.34729], [38.21503, 45.33771], [38.13481, 45.30059], [38.0431, 45.27395], [37.94509, 45.26024], [37.8756, 45.25758], [37.76626, 45.26679], [37.70143, 45.28045], [37.61813, 45.30735], [37.6351, 45.33378], [37.65162, 45.31269], [37.71022, 45.30028], [37.72047, 45.29963], [37.73601, 45.30614], [37.73829, 45.3107], [37.6999, 45.33918], [37.7064, 45.35126], [37.72047, 45.357], [37.73756, 45.37474], [37.74773, 45.39399], [37.75807, 45.39521], [37.75807, 45.40204], [37.71707, 45.389], [37.72348, 45.41462], [37.70771, 45.43692], [37.70291, 45.45725], [37.7444, 45.44302], [37.74439, 45.45043], [37.68606, 45.48404], [37.70265, 45.54316], [37.69972, 45.56281], [37.64942, 45.58495], [37.64275, 45.6035], [37.6351, 45.6081], [37.62306, 45.60139], [37.6233, 45.58588], [37.6364, 45.57099], [37.66245, 45.56655], [37.66243, 45.55908], [37.6351, 45.55288], [37.65502, 45.50821], [37.65308, 45.50439], [37.64194, 45.50446], [37.64078, 45.45596], [37.61914, 45.41841], [37.60825, 45.41585], [37.58629, 45.43244], [37.59425, 45.47712], [37.5874, 45.60037], [37.60793, 45.66274], [37.62647, 45.66827], [37.63476, 45.66071], [37.6311, 45.649], [37.61459, 45.64228], [37.64193, 45.63543], [37.67091, 45.60969], [37.67888, 45.61078], [37.68232, 45.62799], [37.70289, 45.62177], [37.70069, 45.63467], [37.67605, 45.64912], [37.66685, 45.66901], [37.76337, 45.72458], [37.82944, 45.75316], [37.8611, 45.8061], [37.87485, 45.84101], [37.90197, 45.95051], [37.91873, 45.9914], [37.94013, 46.02033], [37.97186, 46.04002], [38.03785, 46.05654], [38.09748, 46.05781], [38.04705, 46.03856], [38.03248, 46.02521], [38.05486, 46.03266], [38.06623, 46.03254], [38.07397, 46.02521], [38.07226, 46.01374], [38.05144, 45.99262], [38.04184, 45.96109], [38.04615, 45.9536], [38.07797, 45.95208], [38.08033, 45.94636], [38.07301, 45.90876], [38.01531, 45.85761], [38.00123, 45.83259], [38.0145, 45.81843], [38.03956, 45.81607], [38.06031, 45.82661], [38.0469, 45.84089], [38.04983, 45.85488], [38.07399, 45.88182], [38.0975, 45.95074], [38.1211, 45.97134], [38.1312, 45.99006], [38.13894, 46.03009], [38.16277, 46.06], [38.16214, 46.10195], [38.1675, 46.1205], [38.24849, 46.1415], [38.27197, 46.13568], [38.31959, 46.09345], [38.35449, 46.08245], [38.40919, 46.04633], [38.44581, 46.03425], [38.48178, 46.03266], [38.52589, 46.03879], [38.54998, 46.0312], [38.55991, 46.03266], [38.5735, 46.0642], [38.57602, 46.08735], [38.57081, 46.10468], [38.55681, 46.11518], [38.30007, 46.21866], [38.28534, 46.23213], [38.27125, 46.27416], [38.21707, 46.30591], [38.1229, 46.37751], [38.08766, 46.39643], [38.06788, 46.40144], [37.98064, 46.40034], [37.97495, 46.39427], [37.97779, 46.38215], [38.0187, 46.36848], [37.99537, 46.35445], [37.97073, 46.36197], [37.90505, 46.41104], [37.86297, 46.45478], [37.82734, 46.47651], [37.75514, 46.64594], [37.73074, 46.66267], [37.73074, 46.67011], [37.73536, 46.66962], [37.73783, 46.67622], [37.85222, 46.6225], [37.8816, 46.62913], [37.92465, 46.61555], [37.98227, 46.6175], [38.03679, 46.62946], [38.07032, 46.64594], [38.1037, 46.67597], [38.12331, 46.68646], [38.21388, 46.69619], [38.27174, 46.73235], [38.31365, 46.67634], [38.46225, 46.64696], [38.57545, 46.6538], [38.59164, 46.65925], [38.59816, 46.67792], [38.58579, 46.69587], [38.55307, 46.71727], [38.51344, 46.73249], [38.47055, 46.74348], [38.42799, 46.74486], [38.38933, 46.73159], [38.37819, 46.70818], [38.36819, 46.75544], [38.403, 46.77998], [38.40302, 46.82095], [38.43532, 46.84674], [38.47462, 46.86187], [38.55307, 46.84829], [38.60906, 46.85968], [38.69093, 46.86384], [38.76629, 46.88678], [38.80372, 46.89354], [38.86574, 46.94293], [38.93735, 46.94746], [38.99138, 46.97797], [39.03632, 47.01365], [39.06023, 47.02171], [39.07521, 47.03265], [39.09741, 47.02903], [39.10499, 47.01679], [39.11492, 47.01276], [39.12672, 47.01382], [39.15309, 47.02634], [39.26189, 47.00861], [39.28004, 47.01276], [39.2894, 47.02729], [39.30356, 47.0847], [39.32505, 47.09877], [39.36785, 47.10615], [39.38868, 47.11518], [39.35467, 47.13105], [39.32936, 47.12836], [39.2798, 47.08798], [39.26492, 47.09663], [39.26199, 47.10761], [39.2732, 47.13565], [39.25458, 47.14013], [39.24921, 47.14814], [39.25605, 47.18976], [39.27296, 47.1918], [39.28159, 47.20527], [39.28004, 47.23526], [39.26401, 47.26081], [39.18605, 47.26875], [39.15651, 47.27969], [39.13884, 47.27343], [39.08814, 47.28644], [39.01343, 47.25447], [38.97682, 47.2569], [38.94459, 47.25275], [38.93051, 47.22162], [38.93774, 47.18977], [38.93164, 47.18501], [38.88657, 47.18146], [38.84742, 47.16357], [38.77223, 47.16356], [38.64496, 47.13773], [38.55307, 47.13565], [38.56803, 47.12201], [38.56803, 47.11519], [38.51743, 47.11905], [38.49294, 47.12809], [38.47822, 47.1423], [38.49439, 47.14899], [38.50961, 47.17162], [38.53102, 47.18232], [38.55991, 47.21821], [38.59262, 47.22968], [38.77564, 47.24551], [38.80779, 47.26264], [38.82114, 47.27631], [38.82065, 47.28644], [38.81039, 47.28783], [38.78289, 47.2591], [38.59457, 47.24128], [38.5534, 47.2298], [38.51905, 47.21076], [38.5005, 47.18159], [38.46266, 47.16181], [38.44897, 47.14029], [38.42821, 47.13363], [38.26539, 47.1188], [38.22413, 47.10834], [38.1963, 47.0895], [38.14225, 47.03767], [38.10811, 47.02637], [38.13038, 47.05842], [38.13006, 47.07465], [38.10435, 47.08162], [38.07154, 47.0998], [38.02621, 47.08162], [37.96209, 47.09593], [37.95045, 47.09127], [37.8611, 47.10151], [37.75326, 47.07527], [37.71066, 47.07417], [37.58074, 47.0904], [37.5464, 47.08161], [37.48292, 47.03596], [37.37794, 46.93391], [37.3352, 46.88248], [37.31302, 46.87557], [37.31739, 46.90082], [37.29542, 46.92023], [37.26075, 46.93269], [37.22706, 46.937], [37.20818, 46.93358], [37.16228, 46.90909], [37.02882, 46.87556], [36.9846, 46.85238], [36.93881, 46.8395], [36.88623, 46.80403], [36.85369, 46.80048], [36.86237, 46.77673], [36.8296, 46.73188], [36.81215, 46.68039], [36.7937, 46.65364], [36.76929, 46.63741], [36.74384, 46.64217], [36.74384, 46.64959], [36.77166, 46.64346], [36.79029, 46.67129], [36.8025, 46.72476], [36.75807, 46.75886], [36.69606, 46.77998], [36.67921, 46.77303], [36.63396, 46.77998], [36.61703, 46.77668], [36.59001, 46.75887], [36.5241, 46.75886], [36.48267, 46.74169], [36.43246, 46.73485], [36.40016, 46.72394], [36.3711, 46.70844], [36.30348, 46.65925], [36.28435, 46.63642], [36.27832, 46.60742], [36.27086, 46.60742], [36.26759, 46.62556], [36.2479, 46.61905], [36.24578, 46.61085], [36.24075, 46.61994], [36.24431, 46.63532], [36.23065, 46.64216], [36.21664, 46.65868], [36.18946, 46.66901], [36.13445, 46.66268], [36.06202, 46.67011], [35.92589, 46.65233], [35.90162, 46.65274], [35.77117, 46.60126], [35.74195, 46.58442], [35.62889, 46.49862], [35.49147, 46.44798], [35.44527, 46.40585], [35.38014, 46.36848], [35.28465, 46.25937], [35.26352, 46.24226], [35.20923, 46.16962], [35.16201, 46.1284], [35.1211, 46.11848], [35.09652, 46.1042], [35.06227, 46.09862], [34.99972, 46.0737], [34.98212, 46.07783], [34.98538, 46.08747], [35.01711, 46.11277], [35.05193, 46.12824], [35.04446, 46.14191], [35.14894, 46.16413], [35.20045, 46.18301], [35.29136, 46.29336], [35.32781, 46.31924], [35.34213, 46.33576], [35.34604, 46.36103], [35.31153, 46.33764], [35.29176, 46.33642], [35.2676, 46.35107], [35.25861, 46.3736], [35.26451, 46.3998], [35.28452, 46.4374], [35.25051, 46.44356], [35.21457, 46.46267], [35.19142, 46.49429], [35.18832, 46.51244], [35.16668, 46.49315], [35.174, 46.47333], [35.20198, 46.44049], [35.2137, 46.41181], [35.20947, 46.39643], [35.20149, 46.38533], [35.16782, 46.36103], [35.10812, 46.29753], [35.07503, 46.27107], [35.03076, 46.25179], [34.92653, 46.23506], [34.91388, 46.2383], [34.9048, 46.25568], [34.89357, 46.25178], [34.88216, 46.22175], [34.83888, 46.20767], [34.81227, 46.17666], [34.82423, 46.07795], [34.83862, 46.04734], [34.87436, 45.92609], [34.90521, 45.88831], [34.95818, 45.78954], [35.04444, 45.67007], [35.3322, 45.37124], [35.48072, 45.2978], [35.51783, 45.29548], [35.695, 45.33039], [35.71599, 45.34056], [35.74334, 45.36107], [35.75295, 45.38641], [35.76743, 45.38898], [35.78842, 45.40746], [35.80398, 45.44916], [35.81716, 45.46405], [35.83327, 45.47088], [35.85766, 45.46942], [35.86002, 45.45954], [35.84693, 45.42626], [35.85401, 45.41401], [35.94662, 45.37214], [35.98601, 45.36274], [36.02231, 45.36811], [36.05177, 45.39521], [36.06887, 45.42999], [36.11794, 45.45709], [36.13746, 45.46205], [36.25245, 45.46149], [36.28403, 45.47662], [36.29997, 45.47333], [36.30737, 45.46092], [36.29884, 45.44302], [36.3117, 45.44351], [36.34051, 45.45725], [36.41179, 45.43622], [36.47055, 45.44577], [36.49025, 45.44306], [36.53297, 45.40892], [36.5486, 45.4123], [36.56667, 45.42519], [36.58326, 45.42738], [36.61353, 45.40888], [36.63834, 45.35127], [36.63086, 45.34057], [36.59832, 45.33431], [36.57521, 45.33602], [36.54518, 45.3474], [36.52182, 45.34992], [36.50245, 45.34687], [36.48927, 45.33633], [36.48439, 45.31639], [36.49723, 45.30073], [36.4821, 45.28881], [36.45037, 45.28535], [36.43727, 45.27204], [36.41798, 45.22993], [36.40886, 45.14948], [36.41481, 45.12836], [36.42754, 45.11821], [36.2048, 45.08865], [36.09307, 45.08122], [36.00036, 45.08023], [35.89177, 45.09025], [35.83848, 45.10156], [35.77852, 45.11877], [35.6986, 45.15192], [35.63927, 45.14988], [35.58851, 45.11986], [35.54737, 45.1197], [35.5062, 45.11351], [35.46957, 45.10102], [35.41676, 45.07087], [35.3988, 45.03887], [35.35447, 45.02642], [35.2621, 45.01062], [35.18291, 45.00403], [35.04674, 45.01059], [34.9361, 45.02997], [34.82834, 45.06782], [34.7494, 45.11146], [34.68431, 45.16484], [34.67487, 45.17536], [34.77582, 45.17999], [34.86426, 45.19613], [34.87366, 45.20522], [34.66317, 45.42286], [34.60953, 45.41353], [34.51851, 45.40987], [34.3527, 45.42276], [34.22069, 45.42673], [33.95296, 45.40718], [33.88586, 45.39693], [33.87833, 45.387], [33.96856, 45.31061], [33.99568, 45.28232], [34.03756, 45.22153], [34.06187, 45.16403], [34.03411, 45.11107], [34.01034, 45.07953], [33.95143, 45.0231], [33.85366, 44.95622], [33.72935, 44.90214], [33.60933, 44.87197], [33.61988, 44.90864], [33.61964, 44.93146], [33.60564, 44.98745], [33.58513, 45.01868], [33.56251, 45.09394], [33.53745, 45.11738], [33.46909, 45.14884], [33.41342, 45.18452], [33.3965, 45.18977], [33.35515, 45.18574], [33.25962, 45.15609], [33.24008, 45.17963], [33.1736, 45.19661], [33.1233, 45.23786], [33.09849, 45.24812], [33.07862, 45.27167], [33.04323, 45.28535], [32.9406, 45.34252], [32.89926, 45.35423], [32.75017, 45.36335], [32.72853, 45.36107], [32.66309, 45.32015], [32.59149, 45.32015], [32.53541, 45.33804], [32.51288, 45.34057], [32.48163, 45.40888], [32.49514, 45.43553], [32.52497, 45.45802], [32.64357, 45.52167], [32.70484, 45.53107], [32.73471, 45.5454], [32.75783, 45.56463], [32.77332, 45.56651], [32.81398, 45.55907], [32.82789, 45.5624], [32.82701, 45.59552], [32.86845, 45.6302], [32.93678, 45.6625], [33.17612, 45.74311], [33.181, 45.75519], [33.15921, 45.7685], [33.16067, 45.77879], [33.1692, 45.7844], [33.19483, 45.76512], [33.23015, 45.75092], [33.26539, 45.75381], [33.33815, 45.78563], [33.37428, 45.79654], [33.41001, 45.8266], [33.4819, 45.85439], [33.50766, 45.84296], [33.53012, 45.84186], [33.55421, 45.84707], [33.57839, 45.86814], [33.61988, 45.88181], [33.6419, 45.87587], [33.65895, 45.85932], [33.69166, 45.86075], [33.69355, 45.91448], [33.70867, 45.90974], [33.77703, 45.92963], [33.73959, 45.94782], [33.68246, 45.95844], [33.65724, 45.95694], [33.63201, 45.94442], [33.6199, 45.95075], [33.64682, 45.97972], [33.63202, 45.98827], [33.63113, 45.99653], [33.64357, 46.01496], [33.62796, 46.06781], [33.64845, 46.09003], [33.64357, 46.10468], [33.61346, 46.14521], [33.59653, 46.15575], [33.57154, 46.14936], [33.53248, 46.12153], [33.53126, 46.10688], [33.55786, 46.09471], [33.55786, 46.08732], [33.50563, 46.08027], [33.49578, 46.06786], [33.51626, 46.04634], [33.48553, 46.05317], [33.42384, 46.0533], [33.38429, 46.08759], [33.35776, 46.10383], [33.33107, 46.10749], [33.3108, 46.08732], [33.30584, 46.09235], [33.29032, 46.09472], [33.31772, 46.1197], [33.31568, 46.13101], [33.29347, 46.13569], [33.21463, 46.12825], [33.22535, 46.15412], [33.23512, 46.22382], [33.21192, 46.20628], [33.17505, 46.15315], [33.12289, 46.1359], [33.10329, 46.13838], [33.02345, 46.16987], [33.03247, 46.14102], [33.01823, 46.12768], [32.89955, 46.11522], [32.88266, 46.12067], [32.84482, 46.12138], [32.78981, 46.13434], [32.76629, 46.13569], [32.71404, 46.12007], [32.58823, 46.1044], [32.54371, 46.08048], [32.50343, 46.07613], [32.30285, 46.11661], [32.28053, 46.12759], [32.26248, 46.12825], [32.24197, 46.17666], [32.26092, 46.18862], [32.2693, 46.20458], [32.23927, 46.19526], [32.21315, 46.19307], [32.12868, 46.20971], [32.11542, 46.21455], [32.07789, 46.2495], [32.05014, 46.26606], [32.01781, 46.25761], [31.96844, 46.27571], [31.88575, 46.32001], [31.88989, 46.28384], [31.88233, 46.27913], [31.81919, 46.2806], [31.78591, 46.2924], [31.77249, 46.30269], [31.76736, 46.31818], [31.77997, 46.33177], [31.79982, 46.34222], [31.83741, 46.34954], [31.89259, 46.34113], [31.96827, 46.35106], [32.02964, 46.38897], [32.06186, 46.39379], [32.05356, 46.40599], [32.00782, 46.44896], [31.99171, 46.45356], [31.9546, 46.451], [31.91066, 46.45589], [31.74855, 46.49994], [31.72641, 46.50088], [31.7107, 46.49543], [31.69028, 46.47858], [31.68652, 46.42993], [31.66358, 46.47211], [31.6412, 46.48226], [31.52468, 46.56402], [31.50835, 46.58756], [31.58155, 46.54523], [31.75636, 46.55426], [31.79021, 46.54726], [31.86183, 46.51927], [31.94711, 46.51926], [32.03346, 46.50629], [32.11197, 46.51239], [32.22152, 46.49542], [32.27613, 46.47089], [32.31756, 46.46434], [32.36101, 46.46686], [32.39967, 46.47834], [32.42701, 46.49885], [32.40839, 46.51728], [32.43574, 46.54315], [32.52476, 46.59271], [32.57097, 46.59642], [32.58839, 46.60432], [32.6338, 46.63312], [32.64552, 46.6496], [32.56739, 46.61849], [32.54371, 46.62173], [32.40902, 46.56893], [32.33579, 46.56217], [32.26931, 46.5876], [32.24822, 46.60741], [32.21126, 46.5877], [32.16993, 46.58076], [32.14633, 46.56026], [32.13211, 46.5703], [32.11793, 46.60688], [32.10108, 46.6149], [32.02281, 46.62914], [31.97997, 46.67685], [31.97071, 46.71288], [31.94026, 46.75909], [31.93622, 46.80036], [31.95477, 46.83144], [31.9817, 46.86034], [32.00245, 46.89545], [32.0075, 46.91523], [32.00668, 46.93049], [31.99594, 46.94038], [31.94606, 46.94669], [31.9359, 46.95482], [31.93922, 46.96796], [31.9769, 47.00934], [31.97096, 47.01634], [31.9437, 47.01895], [31.88114, 47.01504], [31.86526, 47.02636], [31.89324, 47.06843], [31.89682, 47.09272], [31.88234, 47.1186], [31.84556, 47.13403], [31.83058, 47.18675], [31.81674, 47.19709], [31.75766, 47.21621], [31.74855, 47.22846], [31.75213, 47.25585], [31.74171, 47.2591], [31.72055, 47.23188], [31.72682, 47.22053], [31.76173, 47.20051], [31.80616, 47.19269], [31.81625, 47.18085], [31.8156, 47.12263], [31.82, 47.11709], [31.84473, 47.11297], [31.87428, 47.09382], [31.86645, 47.07706], [31.84474, 47.0537], [31.83741, 47.00845], [31.86899, 46.99885], [31.91407, 47.00308], [31.9471, 46.99908], [31.91774, 46.97626], [31.90431, 46.96052], [31.89943, 46.94383], [31.90772, 46.92646], [31.92563, 46.92292], [31.96827, 46.937], [31.97277, 46.91515], [31.96337, 46.88569], [31.94507, 46.85953], [31.92318, 46.84831], [31.89861, 46.84292], [31.87745, 46.82827], [31.86476, 46.80659], [31.86525, 46.77997], [31.90673, 46.73823], [31.89943, 46.694], [31.90852, 46.66275], [31.89941, 46.64961], [31.85866, 46.62922], [31.81471, 46.62304], [31.7715, 46.62752], [31.67408, 46.65323], [31.61443, 46.6496], [31.59718, 46.64322], [31.57854, 46.6173], [31.55682, 46.61491], [31.53452, 46.62718], [31.49302, 46.62874], [31.48505, 46.63228], [31.48098, 46.64643], [31.4909, 46.6634], [31.54615, 46.72761], [31.56023, 46.74909], [31.55984, 46.75885], [31.61818, 46.81346], [31.60613, 46.8264], [31.584, 46.79365], [31.54933, 46.77998], [31.52276, 46.75015], [31.50831, 46.7452], [31.48162, 46.75886], [31.45606, 46.79605], [31.44068, 46.80048], [31.45582, 46.75458], [31.50211, 46.72772], [31.50585, 46.7204], [31.47819, 46.68379], [31.46266, 46.67524], [31.41618, 46.62914], [31.39666, 46.62604], [31.33766, 46.60128], [31.28297, 46.6149], [31.27556, 46.60742], [31.25668, 46.6164], [31.18686, 46.62914], [31.15952, 46.62897], [31.10816, 46.61775], [30.99138, 46.60126], [30.95923, 46.58341], [30.93914, 46.58771], [30.92604, 46.5843], [30.8666, 46.55574], [30.8545, 46.55342], [30.80258, 46.56025], [30.7907, 46.55292], [30.75489, 46.51586], [30.78207, 46.45722], [30.79817, 46.44644], [30.78354, 46.43085], [30.77246, 46.39643], [30.71452, 46.34798], [30.66066, 46.3509], [30.65187, 46.34455], [30.68652, 46.32001], [30.68238, 46.29955], [30.65349, 46.25959], [30.58351, 46.19033], [30.56161, 46.16145], [30.52328, 46.13377], [30.49414, 46.08048], [30.37127, 45.99795], [30.26168, 45.89575], [30.2046, 45.85569], [30.13846, 45.81979], [30.13526, 45.88915], [30.12745, 45.89134], [30.11061, 45.87507], [30.09457, 45.81485], [30.08671, 45.81355], [30.07244, 45.82099], [30.06121, 45.81348], [30.01466, 45.83967], [29.99073, 45.84707], [29.96852, 45.83893], [29.95288, 45.77199], [29.93238, 45.79243], [29.93914, 45.81045], [29.93507, 45.81615], [29.92628, 45.81379], [29.91871, 45.79987], [29.92237, 45.76944], [29.93929, 45.75153], [29.93238, 45.72422], [29.91969, 45.74055], [29.89822, 45.75154], [29.89617, 45.76362], [29.88771, 45.76512], [29.87403, 45.75154], [29.82374, 45.74763], [29.80242, 45.73749], [29.79575, 45.71735], [29.80323, 45.70417], [29.84302, 45.69065], [29.86499, 45.67234], [29.80958, 45.64859], [29.78907, 45.65526], [29.78387, 45.64663], [29.78907, 45.63544], [29.74594, 45.62263], [29.73375, 45.61435], [29.73504, 45.64057], [29.72397, 45.66743], [29.70525, 45.68842], [29.68264, 45.69685], [29.67922, 45.75153], [29.69386, 45.78132], [29.68043, 45.79828], [29.65333, 45.81387], [29.64283, 45.82722], [29.63819, 45.82632], [29.63136, 45.81354], [29.65185, 45.78901], [29.62957, 45.7635], [29.62273, 45.73623], [29.63752, 45.70991], [29.6032, 45.69131], [29.59718, 45.65229], [29.59936, 45.60444], [29.58969, 45.55907], [29.62908, 45.5467], [29.64845, 45.5454], [29.66684, 45.54816], [29.70695, 45.57323], [29.66162, 45.52587], [29.63803, 45.51386], [29.62671, 45.49507], [29.60515, 45.48701], [29.60572, 45.47818], [29.6211, 45.45441], [29.6408, 45.4418], [29.65187, 45.44302], [29.65632, 45.47424], [29.67236, 45.47711], [29.6753, 45.44961], [29.68653, 45.45356], [29.68589, 45.45725], [29.70215, 45.4566], [29.70867, 45.45279], [29.71323, 45.43623], [29.72447, 45.46816], [29.73227, 45.47572], [29.74739, 45.46344], [29.75585, 45.42789], [29.74779, 45.41429], [29.72771, 45.41568], [29.74187, 45.40453], [29.75016, 45.38581], [29.75488, 45.31269], [29.72975, 45.25812], [29.72973, 45.23774], [29.69211, 45.21669], [29.67449, 45.21358], [29.62387, 45.2165], [29.64975, 45.1778], [29.667, 45.16421], [29.69953, 45.1618], [29.67652, 45.1446], [29.6644, 45.11693], [29.6593, 45.06195], [29.58835, 45.04344], [29.53919, 45.0356], [29.44072, 45.03036], [29.34149, 45.03887], [29.24766, 45.06061], [29.16097, 45.09502], [28.95284, 45.28509], [28.95738, 45.29202], [28.96043, 45.31129], [28.96648, 45.31987], [28.97366, 45.3237], [29.00462, 45.32607], [29.01816, 45.33088], [29.06952, 45.3608], [29.1275, 45.37454], [29.15014, 45.38788], [29.17432, 45.38896], [29.19158, 45.40617], [29.22817, 45.42374], [29.08442, 45.64], [29.09044, 45.71103], [29.11841, 45.74901], [29.17552, 45.80508], [29.1852, 45.83919], [28.95687, 46.00138], [28.95893, 46.02102], [28.94116, 46.06468], [28.93878, 46.08928], [28.94643, 46.10509], [28.98085, 46.13212], [29.00348, 46.15894], [29.01537, 46.18261], [29.00984, 46.20436], [28.95062, 46.24312], [28.93351, 46.25899], [28.93289, 46.27263], [28.94581, 46.30498], [28.94488, 46.32074], [28.92731, 46.36802], [28.91925, 46.40466], [28.92545, 46.43277], [28.94581, 46.45479], [29.02033, 46.48952], [29.07495, 46.50367], [29.16275, 46.53809], [29.02853, 46.7433], [29.02624, 46.76778], [28.98584, 46.80015], [28.97287, 46.80438], [28.88393, 46.78071], [28.68956, 47.04652], [28.78997, 47.40084], [28.78732, 47.41633], [28.72474, 47.54436], [28.71242, 47.55198], [28.6961, 47.55293], [28.58909, 47.51985], [28.46202, 47.7254], [28.44691, 47.7381], [28.21385, 47.81662], [28.03821, 47.81945], [28.03729, 47.91659], [28.03064, 47.92974], [28.01843, 47.93816], [27.9982, 47.94047], [27.83377, 47.91619], [27.77173, 48.015], [27.53988, 48.20486], [27.29323, 48.25261], [27.13973, 48.21309], [27.00867, 48.21273], [26.79238, 48.22179], [26.59287, 48.23672], [26.52912, 48.24593], [26.52013, 48.27], [26.65321, 48.50895], [26.73496, 48.79185], [26.77766, 49.08932], [26.83693, 49.69521]]], [[[27.84852, 55.76772], [27.75785, 55.71168], [27.74858, 55.74452], [27.84852, 55.76772]]]]}}, {"type": "Feature", "properties": {"name": "우크라이나", "name_en": "Ukraine", "period": "1991년", "kind": "국가", "legend": "독립 국가 연합(CIS, 1991년 기준)", "map_title": "소련의 해체와 동유럽의 변화", "source": "미래엔 세계사 교과서 4권 201쪽", "volume": 4, "page": 201, "geometry_source": "Natural Earth 10m 국가 경계", "group": "우크라이나", "map_folder": "4권_p201_소련의 해체와 동유럽의 변화"}, "geometry": {"type": "MultiPolygon", "coordinates": [[[[31.82584, 52.10406], [31.85871, 52.09987], [31.88206, 52.08641], [31.88749, 52.07003], [31.88775, 52.05155], [31.89204, 52.03618], [31.91038, 52.02907], [31.92723, 52.03109], [31.98056, 52.04762], [32.01694, 52.0498], [32.07714, 52.03995], [32.09559, 52.04073], [32.23331, 52.08085], [32.2777, 52.10266], [32.30674, 52.14119], [32.31883, 52.20141], [32.32824, 52.21916], [32.36131, 52.23591], [32.367, 52.2472], [32.3395, 52.28725], [32.35356, 52.32159], [32.39428, 52.32681], [32.48058, 52.30714], [32.52843, 52.31621], [32.72542, 52.25208], [32.7556, 52.25239], [32.81482, 52.26201], [32.84418, 52.26234], [32.89079, 52.24232], [32.90898, 52.2411], [32.92686, 52.24692], [33.03011, 52.3036], [33.04825, 52.30908], [33.07041, 52.30417], [33.07961, 52.30559], [33.09904, 52.32477], [33.12798, 52.33272], [33.16664, 52.36006], [33.18286, 52.3673], [33.19651, 52.36895], [33.29433, 52.3573], [33.35898, 52.35755], [33.37618, 52.35525], [33.41933, 52.33833], [33.43732, 52.33916], [33.48052, 52.35776], [33.49943, 52.34099], [33.49303, 52.30314], [33.51008, 52.28753], [33.53168, 52.28883], [33.6002, 52.33079], [33.68795, 52.35582], [33.73358, 52.36099], [33.77895, 52.36006], [33.80407, 52.35461], [33.81523, 52.34508], [33.8391, 52.31391], [33.85874, 52.30216], [33.9007, 52.28585], [33.91951, 52.26976], [33.94442, 52.23578], [33.95775, 52.22469], [34.02193, 52.1979], [34.03888, 52.18648], [34.06534, 52.15863], [34.07103, 52.14896], [34.07392, 52.12832], [34.05666, 52.10581], [34.06255, 52.05021], [34.06824, 52.03101], [34.08033, 52.01362], [34.1011, 51.99251], [34.10441, 51.9753], [34.09666, 51.96058], [34.09624, 51.95182], [34.14616, 51.95161], [34.16642, 51.94226], [34.20342, 51.91231], [34.22843, 51.89926], [34.23422, 51.87828], [34.246, 51.87546], [34.26492, 51.8812], [34.2767, 51.88123], [34.29458, 51.87389], [34.32775, 51.8505], [34.38573, 51.81766], [34.41271, 51.77769], [34.41416, 51.73646], [34.37633, 51.7086], [34.3569, 51.70555], [34.29819, 51.70615], [34.12797, 51.68075], [34.08911, 51.66662], [34.0795, 51.6431], [34.09066, 51.63321], [34.12601, 51.627], [34.14007, 51.62119], [34.15299, 51.58398], [34.20239, 51.54616], [34.21541, 51.532], [34.22368, 51.51476], [34.22595, 51.49288], [34.2121, 51.45503], [34.21965, 51.42728], [34.21706, 51.41707], [34.2088, 51.41146], [34.18699, 51.40831], [34.18192, 51.40234], [34.18585, 51.39415], [34.21572, 51.37376], [34.24735, 51.36343], [34.28032, 51.36126], [34.30016, 51.36839], [34.30874, 51.33462], [34.28362, 51.30124], [34.24394, 51.27408], [34.18595, 51.24891], [34.25789, 51.22956], [34.28176, 51.22644], [34.29954, 51.23163], [34.33695, 51.25114], [34.37178, 51.25685], [34.40899, 51.25313], [34.51348, 51.22956], [34.57818, 51.23669], [34.60836, 51.23401], [34.62241, 51.22476], [34.63316, 51.19561], [34.64277, 51.18062], [34.65745, 51.17166], [34.67492, 51.16768], [34.74809, 51.16473], [34.81754, 51.17473], [34.89961, 51.19646], [34.94611, 51.21429], [34.96182, 51.21532], [34.99945, 51.20209], [35.05939, 51.21233], [35.07872, 51.20763], [35.09132, 51.19768], [35.09918, 51.18318], [35.12378, 51.09133], [35.14362, 51.05849], [35.17256, 51.04063], [35.20646, 51.03893], [35.27426, 51.0488], [35.30868, 51.04733], [35.3464, 51.0366], [35.35508, 51.0256], [35.34671, 51.00826], [35.33255, 50.99994], [35.27808, 50.99265], [35.28222, 50.98154], [35.2848, 50.94433], [35.29359, 50.93762], [35.31715, 50.9342], [35.32914, 50.92909], [35.34175, 50.91586], [35.34144, 50.87648], [35.34857, 50.86377], [35.36903, 50.84604], [35.37772, 50.83375], [35.37906, 50.79721], [35.39312, 50.78837], [35.41823, 50.77892], [35.43849, 50.76238], [35.44707, 50.73432], [35.44376, 50.70946], [35.44541, 50.6875], [35.46887, 50.66854], [35.39156, 50.64637], [35.37617, 50.63459], [35.37772, 50.62182], [35.42526, 50.50048], [35.44645, 50.47604], [35.52272, 50.45951], [35.54081, 50.45005], [35.55466, 50.43325], [35.5623, 50.40964], [35.56385, 50.39181], [35.57016, 50.37646], [35.59217, 50.36049], [35.6114, 50.35171], [35.65212, 50.34111], [35.6732, 50.34018], [35.69687, 50.34515], [35.73769, 50.38158], [35.77438, 50.3869], [35.80539, 50.41217], [35.83743, 50.42323], [35.93189, 50.43015], [36.10584, 50.42111], [36.13323, 50.4116], [36.14077, 50.39295], [36.1693, 50.3837], [36.26903, 50.28138], [36.29198, 50.27404], [36.31585, 50.27486], [36.33952, 50.28148], [36.38799, 50.30644], [36.41, 50.30458], [36.43057, 50.29688], [36.45269, 50.29357], [36.48018, 50.28086], [36.51212, 50.27642], [36.53641, 50.26753], [36.53889, 50.26505], [36.53165, 50.22882], [36.53465, 50.21993], [36.54953, 50.21218], [36.59439, 50.20443], [36.61692, 50.20639], [36.63583, 50.21404], [36.66043, 50.24386], [36.68265, 50.26065], [36.84863, 50.3237], [36.91406, 50.3391], [36.9801, 50.34215], [37.05172, 50.33533], [37.19704, 50.36241], [37.2267, 50.37708], [37.2852, 50.41527], [37.31475, 50.42297], [37.41521, 50.43186], [37.43527, 50.42493], [37.48002, 50.34003], [37.56818, 50.31254], [37.59918, 50.29089], [37.60156, 50.24903], [37.58864, 50.21461], [37.59029, 50.20381], [37.59712, 50.19694], [37.63184, 50.1741], [37.72765, 50.0787], [37.76341, 50.06258], [37.84278, 50.03912], [37.88175, 50.02305], [37.91586, 50.00331], [37.94655, 49.97819], [37.979, 49.94145], [37.99533, 49.92135], [37.99585, 49.9059], [38.0004, 49.8998], [38.06654, 49.92724], [38.07915, 49.92992], [38.09031, 49.92843], [38.11905, 49.91918], [38.16618, 49.94057], [38.17134, 49.98408], [38.16411, 50.03038], [38.17393, 50.06015], [38.18984, 50.06278], [38.25382, 50.05906], [38.28121, 50.06242], [38.29991, 50.06051], [38.31407, 50.0495], [38.34415, 49.99209], [38.35604, 49.98057], [38.37629, 49.97494], [38.42011, 49.97178], [38.46115, 49.9569], [38.49753, 49.94817], [38.57018, 49.95664], [38.61948, 49.95075], [38.66465, 49.96517], [38.6756, 49.92703], [38.68728, 49.9138], [38.74785, 49.88543], [38.85223, 49.86579], [38.88634, 49.84518], [38.91052, 49.82058], [38.9374, 49.80347], [39.03227, 49.80735], [39.04912, 49.81055], [39.06834, 49.82109], [39.11713, 49.8644], [39.15578, 49.8736], [39.18276, 49.85851], [39.23805, 49.76513], [39.26089, 49.74451], [39.28993, 49.73206], [39.32766, 49.72632], [39.36724, 49.73185], [39.406, 49.74425], [39.44362, 49.74952], [39.49912, 49.72813], [39.55751, 49.72399], [39.57043, 49.7133], [39.59741, 49.64798], [39.62293, 49.61346], [39.65332, 49.59982], [39.68867, 49.59346], [39.72918, 49.5808], [39.78106, 49.5484], [39.80153, 49.5422], [39.82871, 49.54147], [39.88938, 49.55326], [39.9147, 49.56297], [39.97402, 49.60256], [39.99811, 49.60824], [40.01774, 49.60788], [40.11552, 49.59057], [40.13071, 49.57982], [40.12606, 49.55909], [40.11066, 49.54535], [40.072, 49.53067], [40.05433, 49.51977], [40.0349, 49.48706], [40.04089, 49.45548], [40.06198, 49.42582], [40.10135, 49.38546], [40.14807, 49.3496], [40.15954, 49.33358], [40.15717, 49.31585], [40.1427, 49.2819], [40.14166, 49.24578], [40.13401, 49.23627], [40.09092, 49.21726], [40.05774, 49.18279], [40.03841, 49.16852], [39.97961, 49.14186], [39.95211, 49.12455], [39.93093, 49.10057], [39.92607, 49.08651], [39.92338, 49.05799], [39.91873, 49.04781], [39.90726, 49.04259], [39.89134, 49.04176], [39.8315, 49.04528], [39.74892, 49.02621], [39.69828, 49.02838], [39.68112, 49.02032], [39.67399, 48.97014], [39.68753, 48.95758], [39.72598, 48.93701], [39.74737, 48.90534], [39.75874, 48.89541], [39.78231, 48.88844], [39.86189, 48.87645], [39.90819, 48.87841], [39.93764, 48.85624], [39.95036, 48.85278], [39.97227, 48.86033], [40.00885, 48.88782], [40.03428, 48.8856], [40.05381, 48.86921], [40.05278, 48.84973], [40.03872, 48.82999], [40.0196, 48.81315], [39.97527, 48.78968], [39.93496, 48.78669], [39.82416, 48.81563], [39.80122, 48.8149], [39.77941, 48.80772], [39.75936, 48.79284], [39.73631, 48.76152], [39.7114, 48.7548], [39.70293, 48.74659], [39.63172, 48.58691], [39.67027, 48.58841], [39.69011, 48.59368], [39.80918, 48.58375], [39.83532, 48.57347], [39.85507, 48.55611], [39.86953, 48.50991], [39.8654, 48.50149], [39.84215, 48.49906], [39.84473, 48.4835], [39.86478, 48.46983], [39.8962, 48.42392], [39.91449, 48.3847], [39.9241, 48.37612], [39.88411, 48.34635], [39.81589, 48.30816], [39.88483, 48.27899], [39.90519, 48.28065], [39.95739, 48.29338], [39.97888, 48.29008], [39.99325, 48.27323], [39.99066, 48.25375], [39.97764, 48.23546], [39.96048, 48.22207], [39.91263, 48.19768], [39.89372, 48.18298], [39.84308, 48.11975], [39.83119, 48.09998], [39.82902, 48.07678], [39.84432, 48.04567], [39.84297, 48.0364], [39.77879, 48.02921], [39.76815, 48.02433], [39.75988, 48.01495], [39.76194, 48.00978], [39.78024, 47.99314], [39.7944, 47.97131], [39.79615, 47.96136], [39.79398, 47.9457], [39.77703, 47.91374], [39.78292, 47.88656], [39.77559, 47.85801], [39.75905, 47.83295], [39.73383, 47.816], [39.70076, 47.81153], [39.60061, 47.82948], [39.57002, 47.83093], [39.50935, 47.82277], [39.45705, 47.83129], [39.41396, 47.82318], [39.39163, 47.82261], [39.34006, 47.84357], [39.3197, 47.84602], [39.17356, 47.83705], [39.11351, 47.82856], [39.09294, 47.83209], [39.0391, 47.85692], [38.87724, 47.86124], [38.83094, 47.84824], [38.79621, 47.81992], [38.771, 47.78083], [38.75332, 47.73515], [38.74516, 47.69311], [38.73451, 47.67714], [38.71302, 47.67572], [38.67788, 47.68518], [38.66217, 47.68329], [38.64336, 47.67352], [38.58765, 47.6343], [38.56222, 47.62663], [38.35294, 47.6071], [38.31903, 47.59131], [38.2934, 47.56278], [38.27439, 47.52785], [38.26033, 47.49294], [38.26364, 47.42171], [38.25795, 47.39323], [38.23336, 47.36241], [38.20338, 47.33463], [38.19057, 47.31691], [38.18871, 47.30099], [38.20101, 47.29063], [38.22033, 47.28879], [38.25764, 47.29275], [38.27573, 47.29182], [38.29185, 47.28704], [38.30095, 47.27603], [38.29816, 47.25603], [38.28472, 47.24115], [38.2225, 47.21523], [38.20349, 47.19231], [38.19698, 47.16239], [38.20142, 47.13074], [38.21664, 47.10326], [38.1963, 47.0895], [38.14226, 47.03766], [38.10808, 47.02635], [38.13038, 47.05842], [38.13006, 47.07465], [38.10434, 47.08161], [38.07154, 47.0998], [38.02622, 47.08161], [37.96209, 47.09593], [37.95045, 47.09125], [37.86109, 47.10151], [37.75327, 47.07526], [37.7103, 47.07416], [37.58074, 47.0904], [37.5464, 47.08161], [37.48292, 47.03596], [37.37794, 46.93391], [37.35174, 46.89875], [37.33522, 46.88247], [37.313, 46.87556], [37.31739, 46.90082], [37.29542, 46.92023], [37.26075, 46.93268], [37.22706, 46.937], [37.20818, 46.93358], [37.16228, 46.90908], [37.04656, 46.87775], [37.02882, 46.87556], [36.98487, 46.85248], [36.93881, 46.8395], [36.88624, 46.80402], [36.85369, 46.80048], [36.86248, 46.77692], [36.84913, 46.75446], [36.8296, 46.73188], [36.81227, 46.68057], [36.79371, 46.65363], [36.7693, 46.6374], [36.74383, 46.64216], [36.74383, 46.6496], [36.77166, 46.64346], [36.79029, 46.67129], [36.80226, 46.70702], [36.8025, 46.72476], [36.75807, 46.75886], [36.71013, 46.77277], [36.69606, 46.77998], [36.67921, 46.77302], [36.63396, 46.77998], [36.61704, 46.77668], [36.59002, 46.75886], [36.5241, 46.75886], [36.48268, 46.74168], [36.43247, 46.73485], [36.40016, 46.72394], [36.3711, 46.70844], [36.30348, 46.65925], [36.28435, 46.63642], [36.27833, 46.60741], [36.27084, 46.60741], [36.27117, 46.62222], [36.26759, 46.62556], [36.24789, 46.61904], [36.24578, 46.61083], [36.24073, 46.61994], [36.24431, 46.63532], [36.23064, 46.64216], [36.21664, 46.65868], [36.18946, 46.66901], [36.13445, 46.66266], [36.06202, 46.67011], [35.92555, 46.65229], [35.90162, 46.65274], [35.77117, 46.60126], [35.74195, 46.58442], [35.66131, 46.51927], [35.62867, 46.49848], [35.51051, 46.45722], [35.49147, 46.44798], [35.44549, 46.40599], [35.38014, 46.36848], [35.28452, 46.25922], [35.26352, 46.24226], [35.20948, 46.16987], [35.18474, 46.14549], [35.16179, 46.12824], [35.1211, 46.11848], [35.09653, 46.10419], [35.06227, 46.09862], [35.03858, 46.08609], [35.00001, 46.07364], [34.98211, 46.07783], [34.98536, 46.08747], [35.0171, 46.11278], [35.05193, 46.12824], [35.04444, 46.14191], [35.14894, 46.16413], [35.20045, 46.18301], [35.22787, 46.22175], [35.2518, 46.24022], [35.29135, 46.29336], [35.32781, 46.31924], [35.34213, 46.33576], [35.34604, 46.36103], [35.31153, 46.33763], [35.29176, 46.33641], [35.26759, 46.35106], [35.25856, 46.37336], [35.2645, 46.39981], [35.28452, 46.4374], [35.2505, 46.44355], [35.21461, 46.46263], [35.20167, 46.4763], [35.19142, 46.49429], [35.18832, 46.51244], [35.16668, 46.49315], [35.174, 46.47333], [35.202, 46.4405], [35.20509, 46.42756], [35.21372, 46.41181], [35.20948, 46.39643], [35.20151, 46.38532], [35.16782, 46.36103], [35.10841, 46.29776], [35.07504, 46.27106], [35.03077, 46.25178], [34.92652, 46.23505], [34.91407, 46.2381], [34.90805, 46.24429], [34.9048, 46.25568], [34.89357, 46.25178], [34.88657, 46.24274], [34.88217, 46.22175], [34.83888, 46.20767], [34.81764, 46.18623], [34.81227, 46.17666], [34.81129, 46.16625], [34.8191, 46.14191], [34.82423, 46.07795], [34.83855, 46.04755], [34.87436, 45.92609], [34.90504, 45.88862], [34.95818, 45.78954], [35.00189, 45.729], [34.97567, 45.71732], [34.95233, 45.72199], [34.91733, 45.74766], [34.87066, 45.77333], [34.80998, 45.785], [34.78898, 45.80366], [34.78431, 45.82933], [34.78431, 45.89934], [34.76331, 45.93201], [34.73531, 45.95301], [34.68864, 45.97402], [34.64197, 45.98102], [34.56963, 45.97635], [34.52995, 45.98102], [34.50429, 45.95068], [34.46461, 45.95535], [34.41094, 45.98802], [34.39227, 46.00902], [34.36194, 46.05569], [34.33393, 46.06969], [34.30126, 46.06969], [34.23592, 46.0977], [34.20092, 46.10003], [34.16125, 46.09069], [34.10524, 46.09536], [34.06791, 46.1047], [34.0259, 46.11636], [33.9909, 46.13036], [33.89289, 46.17704], [33.84622, 46.1957], [33.80188, 46.20271], [33.75521, 46.19337], [33.71573, 46.19574], [33.67028, 46.21811], [33.66162, 46.21017], [33.67146, 46.17295], [33.66045, 46.14818], [33.62852, 46.12494], [33.61346, 46.14521], [33.59653, 46.15575], [33.57154, 46.14936], [33.54982, 46.13642], [33.53248, 46.12153], [33.53126, 46.10688], [33.55787, 46.09471], [33.55787, 46.08731], [33.53126, 46.08592], [33.50563, 46.08027], [33.49578, 46.06786], [33.51629, 46.04633], [33.48553, 46.05317], [33.42384, 46.05329], [33.38429, 46.08759], [33.35776, 46.10383], [33.33107, 46.10749], [33.3108, 46.08731], [33.30584, 46.09235], [33.29029, 46.09471], [33.30689, 46.10615], [33.31772, 46.1197], [33.31568, 46.13101], [33.29347, 46.13569], [33.21461, 46.12824], [33.22535, 46.15412], [33.23512, 46.22382], [33.21193, 46.20629], [33.17506, 46.15314], [33.12289, 46.13589], [33.10328, 46.13837], [33.0818, 46.14936], [33.02345, 46.16987], [33.03248, 46.14102], [33.01824, 46.12767], [32.89926, 46.11522], [32.88266, 46.12067], [32.84457, 46.12141], [32.78981, 46.13435], [32.76629, 46.13569], [32.71404, 46.12006], [32.58823, 46.1044], [32.56756, 46.09658], [32.54371, 46.08047], [32.50343, 46.07612], [32.3025, 46.11668], [32.28053, 46.12759], [32.26246, 46.12824], [32.24741, 46.17072], [32.24195, 46.17666], [32.26092, 46.18863], [32.26678, 46.19481], [32.2693, 46.20458], [32.23927, 46.19526], [32.21314, 46.19306], [32.12867, 46.2097], [32.11541, 46.21455], [32.07789, 46.2495], [32.05014, 46.26606], [32.01808, 46.25751], [31.96843, 46.2757], [31.88575, 46.32001], [31.88404, 46.30866], [31.8899, 46.28384], [31.88234, 46.27912], [31.81918, 46.28059], [31.80112, 46.28506], [31.77247, 46.30268], [31.76734, 46.31818], [31.77996, 46.33177], [31.79981, 46.34223], [31.81674, 46.34797], [31.83741, 46.34956], [31.89259, 46.34113], [31.96827, 46.35106], [32.02963, 46.38898], [32.05519, 46.39057], [32.06186, 46.39379], [32.05356, 46.40599], [32.00782, 46.44896], [31.99171, 46.45356], [31.9546, 46.45099], [31.91065, 46.45588], [31.77166, 46.49584], [31.74855, 46.49994], [31.72641, 46.50088], [31.7107, 46.49543], [31.69028, 46.47858], [31.68507, 46.46137], [31.68653, 46.42988], [31.66359, 46.47211], [31.65577, 46.47834], [31.64145, 46.48208], [31.52443, 46.56419], [31.50831, 46.58759], [31.54029, 46.57005], [31.56666, 46.55036], [31.58155, 46.54523], [31.75636, 46.55427], [31.79021, 46.54727], [31.86183, 46.51927], [31.94711, 46.51927], [32.03346, 46.50629], [32.09116, 46.51284], [32.11166, 46.51244], [32.22153, 46.49543], [32.27613, 46.47089], [32.31756, 46.46434], [32.36101, 46.46686], [32.39967, 46.47834], [32.42701, 46.49885], [32.40838, 46.51728], [32.43572, 46.54316], [32.52475, 46.59272], [32.57097, 46.59642], [32.58839, 46.60431], [32.6338, 46.63312], [32.64552, 46.6496], [32.56739, 46.61848], [32.54371, 46.62173], [32.40903, 46.56891], [32.33579, 46.56216], [32.2693, 46.58759], [32.24822, 46.60741], [32.23683, 46.60444], [32.22006, 46.59072], [32.21095, 46.58759], [32.16993, 46.58076], [32.14633, 46.56025], [32.13209, 46.5703], [32.11793, 46.60688], [32.10108, 46.61489], [32.03956, 46.62348], [32.0228, 46.62914], [31.99293, 46.65742], [31.97983, 46.67707], [31.97071, 46.71288], [31.94028, 46.75886], [31.93621, 46.80036], [31.95476, 46.83145], [31.9817, 46.86034], [32.00245, 46.89545], [32.0075, 46.91523], [32.00668, 46.93049], [31.99594, 46.94038], [31.94606, 46.94668], [31.93588, 46.95482], [31.93922, 46.96796], [31.9769, 47.00935], [31.97096, 47.01634], [31.9437, 47.01895], [31.90016, 47.01362], [31.88111, 47.01504], [31.86525, 47.02635], [31.89324, 47.06843], [31.89682, 47.09272], [31.88234, 47.1186], [31.86818, 47.12735], [31.84555, 47.13402], [31.8379, 47.14924], [31.83448, 47.17894], [31.83058, 47.18675], [31.81674, 47.19709], [31.75766, 47.21621], [31.74855, 47.22846], [31.75327, 47.24852], [31.75213, 47.25585], [31.74171, 47.2591], [31.72055, 47.23188], [31.72682, 47.22053], [31.74244, 47.20917], [31.76173, 47.20051], [31.80616, 47.19269], [31.81625, 47.18085], [31.8156, 47.12263], [31.82, 47.11709], [31.84474, 47.11298], [31.87428, 47.09382], [31.86647, 47.07705], [31.84474, 47.0537], [31.83741, 47.00845], [31.86899, 46.99885], [31.91407, 47.00308], [31.94711, 46.99909], [31.91774, 46.97626], [31.90431, 46.96052], [31.89943, 46.94383], [31.90772, 46.92646], [31.92563, 46.92292], [31.96827, 46.937], [31.97283, 46.91535], [31.96339, 46.88569], [31.94508, 46.85952], [31.92319, 46.84829], [31.89861, 46.84292], [31.87745, 46.82827], [31.86476, 46.80659], [31.86525, 46.77998], [31.90284, 46.74518], [31.90675, 46.73823], [31.89943, 46.694], [31.90854, 46.66275], [31.89943, 46.6496], [31.8921, 46.64362], [31.85841, 46.62914], [31.81471, 46.62303], [31.7715, 46.62751], [31.67408, 46.65322], [31.61443, 46.6496], [31.59718, 46.64321], [31.57887, 46.61734], [31.55681, 46.61489], [31.53452, 46.62718], [31.49301, 46.62873], [31.48504, 46.63227], [31.48097, 46.64643], [31.4909, 46.6634], [31.54615, 46.72761], [31.56023, 46.74909], [31.55983, 46.75886], [31.57211, 46.7663], [31.61818, 46.81346], [31.60613, 46.8264], [31.59783, 46.82046], [31.584, 46.79365], [31.54933, 46.77998], [31.52296, 46.75031], [31.50831, 46.74518], [31.48162, 46.75886], [31.45606, 46.79605], [31.44068, 46.80048], [31.45191, 46.77546], [31.45582, 46.75458], [31.46193, 46.74868], [31.50213, 46.72773], [31.50587, 46.7204], [31.4782, 46.68378], [31.46266, 46.67524], [31.42856, 46.63764], [31.41619, 46.62914], [31.39666, 46.62604], [31.33766, 46.60126], [31.3239, 46.60615], [31.29575, 46.60887], [31.28297, 46.61489], [31.27556, 46.60741], [31.25668, 46.6164], [31.18686, 46.62914], [31.15952, 46.62897], [31.10816, 46.61774], [31.05454, 46.61274], [30.99138, 46.60126], [30.95924, 46.5834], [30.93914, 46.58771], [30.92604, 46.5843], [30.86695, 46.55581], [30.8545, 46.55341], [30.80258, 46.56025], [30.7907, 46.55292], [30.75489, 46.51586], [30.75831, 46.50259], [30.77524, 46.47769], [30.78207, 46.45722], [30.79347, 46.45234], [30.79819, 46.44644], [30.79038, 46.44147], [30.78354, 46.43085], [30.77247, 46.39643], [30.73129, 46.35859], [30.71453, 46.34797], [30.66065, 46.3509], [30.65187, 46.34455], [30.6565, 46.33902], [30.67937, 46.32832], [30.68653, 46.32001], [30.68678, 46.30903], [30.68238, 46.29955], [30.65349, 46.25959], [30.58351, 46.19033], [30.56186, 46.16169], [30.5477, 46.14777], [30.53199, 46.14191], [30.52329, 46.13377], [30.49415, 46.08047], [30.37127, 45.99795], [30.2614, 45.89549], [30.20493, 45.85586], [30.13844, 45.81977], [30.14096, 45.83295], [30.13527, 45.88915], [30.12745, 45.89134], [30.11061, 45.87507], [30.09457, 45.81485], [30.08668, 45.81354], [30.07244, 45.82099], [30.06121, 45.81346], [30.01466, 45.83967], [29.99073, 45.84707], [29.96852, 45.83893], [29.96046, 45.81916], [29.95289, 45.77196], [29.93238, 45.79243], [29.93238, 45.79987], [29.93914, 45.81045], [29.93507, 45.81615], [29.92628, 45.81379], [29.91871, 45.79987], [29.91774, 45.7829], [29.92237, 45.76944], [29.9393, 45.75153], [29.93238, 45.72419], [29.91969, 45.74055], [29.8982, 45.75153], [29.89617, 45.76362], [29.88771, 45.76512], [29.88168, 45.76301], [29.87403, 45.75153], [29.82374, 45.74763], [29.80242, 45.73749], [29.79575, 45.71735], [29.80323, 45.70417], [29.84303, 45.69066], [29.865, 45.67235], [29.86012, 45.66893], [29.80958, 45.64859], [29.78907, 45.65526], [29.78386, 45.64663], [29.78907, 45.63544], [29.74594, 45.62263], [29.73373, 45.61433], [29.73504, 45.64057], [29.72397, 45.66743], [29.70525, 45.68842], [29.68263, 45.69685], [29.68531, 45.70425], [29.67921, 45.75153], [29.69386, 45.78132], [29.68043, 45.79828], [29.65333, 45.81387], [29.64283, 45.82722], [29.63819, 45.82632], [29.63136, 45.81354], [29.65187, 45.78901], [29.64796, 45.78119], [29.62957, 45.76349], [29.62387, 45.75153], [29.62273, 45.73623], [29.63754, 45.70991], [29.6032, 45.69131], [29.59718, 45.65229], [29.59938, 45.60444], [29.58969, 45.55907], [29.62908, 45.5467], [29.64845, 45.5454], [29.66684, 45.54816], [29.70704, 45.57331], [29.66163, 45.52587], [29.63803, 45.51386], [29.62672, 45.49506], [29.60515, 45.48701], [29.60572, 45.47818], [29.6211, 45.45441], [29.6408, 45.4418], [29.65187, 45.44302], [29.65561, 45.45185], [29.65382, 45.46402], [29.65602, 45.47419], [29.67237, 45.47712], [29.67237, 45.45384], [29.6753, 45.44961], [29.68653, 45.45356], [29.68588, 45.45726], [29.70216, 45.45661], [29.70867, 45.45279], [29.71323, 45.43623], [29.72446, 45.46817], [29.73227, 45.47574], [29.74741, 45.46345], [29.75465, 45.44725], [29.75587, 45.42788], [29.74781, 45.41429], [29.72771, 45.41568], [29.74187, 45.40453], [29.75017, 45.38581], [29.7562, 45.32123], [29.75147, 45.30414], [29.72975, 45.25812], [29.72771, 45.24775], [29.72975, 45.23774], [29.70875, 45.22333], [29.67449, 45.21357], [29.65903, 45.21589], [29.66649, 45.23063], [29.66499, 45.23786], [29.65925, 45.24417], [29.67228, 45.27295], [29.66711, 45.31186], [29.65026, 45.34612], [29.5697, 45.39496], [29.43064, 45.43041], [29.35374, 45.43594], [29.32212, 45.44384], [29.29928, 45.42891], [29.28181, 45.42229], [29.22817, 45.42374], [29.19158, 45.40617], [29.17432, 45.38896], [29.15014, 45.38788], [29.1275, 45.37454], [29.06952, 45.3608], [29.01816, 45.33088], [29.00462, 45.32607], [28.97366, 45.3237], [28.96648, 45.31987], [28.96043, 45.31129], [28.95738, 45.29202], [28.95284, 45.28509], [28.92989, 45.2791], [28.91005, 45.28737], [28.88085, 45.30618], [28.85811, 45.30907], [28.83181, 45.3223], [28.81631, 45.32607], [28.78975, 45.32142], [28.79016, 45.29207], [28.76153, 45.28184], [28.75967, 45.27419], [28.76727, 45.25776], [28.80267, 45.24417], [28.7914, 45.23497], [28.77869, 45.23109], [28.71006, 45.22696], [28.57705, 45.24809], [28.49416, 45.27889], [28.40517, 45.29507], [28.33024, 45.32292], [28.31081, 45.34783], [28.2812, 45.40183], [28.28642, 45.42173], [28.26688, 45.44048], [28.23764, 45.45206], [28.21293, 45.4502], [28.1995, 45.46177], [28.21728, 45.49335], [28.2705, 45.52151], [28.34192, 45.51764], [28.41685, 45.50379], [28.48093, 45.50198], [28.50201, 45.50875], [28.50646, 45.52058], [28.49824, 45.55872], [28.51044, 45.57102], [28.53689, 45.5798], [28.5231, 45.59324], [28.51131, 45.63504], [28.474, 45.65794], [28.48093, 45.66946], [28.51524, 45.70202], [28.5325, 45.71008], [28.56144, 45.71659], [28.56764, 45.7246], [28.56061, 45.7432], [28.57668, 45.76191], [28.64361, 45.76651], [28.66975, 45.77731], [28.67327, 45.78687], [28.66975, 45.81204], [28.6773, 45.81658], [28.70639, 45.82113], [28.73828, 45.83756], [28.74505, 45.85048], [28.74644, 45.87059], [28.72841, 45.92195], [28.72918, 45.93864], [28.74024, 45.95322], [28.7576, 45.96117], [28.93196, 45.99316], [28.95687, 46.00138], [28.95894, 46.02102], [28.94116, 46.06468], [28.93878, 46.08928], [28.94643, 46.10509], [28.98085, 46.13212], [29.00348, 46.15894], [29.01536, 46.18261], [29.00984, 46.20436], [28.95061, 46.24312], [28.93351, 46.25899], [28.93289, 46.27263], [28.94581, 46.30498], [28.94488, 46.32074], [28.92731, 46.36802], [28.91925, 46.40466], [28.92545, 46.43277], [28.94581, 46.45479], [29.02033, 46.48951], [29.07495, 46.50367], [29.16275, 46.53809], [29.18424, 46.53804], [29.20021, 46.52398], [29.20678, 46.50251], [29.20564, 46.40611], [29.18342, 46.37761], [29.18373, 46.36717], [29.20068, 46.35712], [29.2229, 46.36647], [29.25917, 46.39435], [29.28326, 46.39743], [29.29008, 46.41024], [29.28594, 46.43949], [29.28915, 46.45164], [29.30672, 46.472], [29.32077, 46.46874], [29.34423, 46.43417], [29.36211, 46.41593], [29.37472, 46.41619], [29.41823, 46.46249], [29.43684, 46.4767], [29.45761, 46.48471], [29.48087, 46.48205], [29.48645, 46.47587], [29.48624, 46.46249], [29.47529, 46.44755], [29.47332, 46.4398], [29.48087, 46.42515], [29.54143, 46.41303], [29.55564, 46.4042], [29.56944, 46.38229], [29.58298, 46.36965], [29.59859, 46.36306], [29.61564, 46.36182], [29.63207, 46.36606], [29.64551, 46.37559], [29.65295, 46.3919], [29.64799, 46.41639], [29.6544, 46.4227], [29.68272, 46.42293], [29.70287, 46.42833], [29.71382, 46.44306], [29.71413, 46.47117], [29.72695, 46.4558], [29.77956, 46.4211], [29.80033, 46.39836], [29.80674, 46.38089], [29.80819, 46.35469], [29.82813, 46.3394], [29.84777, 46.34146], [29.88467, 46.3642], [29.91867, 46.37366], [30.03727, 46.36893], [30.08114, 46.3742], [30.10719, 46.3919], [30.13158, 46.42283], [30.11824, 46.42869], [30.10202, 46.43073], [30.08693, 46.42887], [30.07701, 46.42283], [30.06001, 46.4368], [30.01406, 46.46202], [30.02171, 46.47065], [30.00285, 46.49422], [29.98926, 46.49869], [29.97055, 46.49174], [29.96022, 46.50595], [29.91609, 46.51881], [29.90193, 46.53083], [29.89883, 46.55313], [29.9381, 46.55734], [29.94967, 46.57886], [29.93128, 46.61917], [29.9319, 46.63237], [29.9444, 46.66248], [29.95262, 46.72469], [29.95112, 46.74312], [29.9318, 46.77244], [29.92818, 46.80975], [29.91743, 46.81397], [29.89852, 46.80665], [29.88963, 46.80717], [29.87221, 46.83771], [29.84363, 46.85414], [29.75413, 46.85802], [29.73584, 46.86719], [29.71248, 46.89344], [29.69615, 46.90468], [29.63187, 46.9144], [29.59848, 46.93538], [29.56748, 46.93466], [29.55869, 46.94574], [29.57249, 47.01176], [29.59543, 47.03214], [29.60303, 47.04576], [29.6021, 47.06101], [29.59486, 47.0746], [29.58339, 47.08521], [29.57016, 47.09144], [29.55135, 47.0902], [29.53099, 47.06602], [29.52014, 47.05992], [29.51146, 47.06602], [29.47787, 47.11154], [29.48087, 47.11749], [29.53037, 47.12369], [29.54484, 47.13557], [29.55063, 47.16017], [29.5404, 47.21255], [29.54402, 47.23425], [29.56872, 47.24314], [29.58019, 47.26045], [29.57926, 47.2836], [29.57006, 47.30678], [29.55657, 47.32404], [29.53988, 47.33422], [29.52097, 47.33892], [29.48087, 47.33827], [29.47064, 47.32275], [29.45916, 47.2935], [29.4417, 47.28213], [29.42557, 47.27867], [29.40955, 47.27975], [29.38082, 47.29298], [29.36759, 47.30823], [29.36408, 47.33688], [29.35891, 47.35272], [29.34584, 47.36584], [29.30083, 47.37819], [29.2814, 47.41147], [29.2507, 47.42538], [29.23261, 47.44633], [29.21835, 47.4516], [29.20187, 47.44659], [29.19241, 47.43581], [29.18207, 47.42987], [29.16388, 47.43938], [29.15562, 47.45], [29.1304, 47.4932], [29.11743, 47.53333], [29.1305, 47.55963], [29.15618, 47.58278], [29.18207, 47.61322], [29.19241, 47.65092], [29.19148, 47.68626], [29.19696, 47.7175], [29.23861, 47.756], [29.23473, 47.7668], [29.22197, 47.77481], [29.18745, 47.78321], [29.17784, 47.78972], [29.17773, 47.8007], [29.18672, 47.81822], [29.23277, 47.85708], [29.23602, 47.87072], [29.226, 47.87558], [29.18662, 47.88364], [29.17256, 47.89101], [29.16461, 47.9056], [29.15582, 47.93987], [29.14797, 47.95537], [29.13629, 47.96818], [29.12399, 47.97599], [29.09273, 47.98017], [29.06105, 47.96976], [29.01723, 47.93108], [28.98085, 47.92638], [28.95036, 47.9348], [28.9148, 47.95315], [28.88256, 47.97676], [28.85569, 48.00792], [28.83253, 48.02482], [28.82757, 48.05702], [28.81155, 48.08291], [28.80592, 48.10381], [28.79925, 48.11179], [28.77125, 48.12445], [28.73507, 48.12869], [28.66562, 48.12934], [28.57363, 48.15497], [28.5416, 48.15595], [28.51932, 48.14913], [28.50108, 48.11283], [28.49002, 48.06549], [28.47958, 48.06492], [28.44744, 48.08275], [28.41902, 48.12223], [28.43566, 48.13469], [28.4369, 48.14985], [28.42729, 48.16337], [28.41158, 48.1707], [28.38863, 48.16859], [28.36497, 48.14151], [28.34957, 48.12973], [28.32859, 48.12701], [28.31742, 48.13536], [28.31556, 48.14928], [28.32218, 48.16321], [28.36336, 48.19101], [28.37003, 48.21163], [28.36817, 48.23062], [28.35773, 48.23861], [28.34058, 48.24011], [28.29448, 48.23649], [28.24032, 48.21163], [28.21696, 48.20814], [28.19991, 48.21173], [28.18937, 48.22305], [28.18575, 48.24238], [28.17852, 48.25886], [28.16208, 48.25718], [28.13108, 48.23959], [28.09325, 48.23744], [28.07868, 48.24491], [28.09831, 48.28411], [28.09284, 48.30207], [28.07641, 48.31493], [28.05594, 48.3215], [27.96706, 48.32889], [27.92644, 48.33943], [27.86484, 48.39891], [27.84986, 48.40963], [27.78526, 48.44157], [27.75177, 48.45198], [27.62703, 48.45126], [27.60687, 48.45782], [27.60481, 48.48412], [27.583, 48.48603], [27.55706, 48.47436], [27.50383, 48.47237], [27.48089, 48.45141], [27.42022, 48.41715], [27.40347, 48.41149], [27.38983, 48.41501], [27.36141, 48.43281], [27.34219, 48.43611], [27.30601, 48.42366], [27.24648, 48.37374], [27.20855, 48.36062], [27.17579, 48.3618], [27.06882, 48.38888], [27.0374, 48.39968], [27.02634, 48.3971], [27.02541, 48.38986], [27.03306, 48.3602], [27.02768, 48.35775], [27.00464, 48.35876], [26.99058, 48.36237], [26.98107, 48.35568], [26.94324, 48.35126], [26.90872, 48.36524], [26.87596, 48.384], [26.84278, 48.39374], [26.83193, 48.39136], [26.82563, 48.37777], [26.81695, 48.37173], [26.78806, 48.37596], [26.77752, 48.36617], [26.78935, 48.32594], [26.79008, 48.30705], [26.78573, 48.29411], [26.77436, 48.28718], [26.75457, 48.28615], [26.73592, 48.29183], [26.69943, 48.32511], [26.6798, 48.33018], [26.6691, 48.30881], [26.63608, 48.29488], [26.62512, 48.28289], [26.61789, 48.25897], [26.5874, 48.24936], [26.44467, 48.22773], [26.39744, 48.22621], [26.33026, 48.20851], [26.30349, 48.21205], [26.29615, 48.179], [26.2975, 48.15634], [26.28695, 48.12471], [26.27073, 48.0936], [26.25533, 48.07234], [26.20479, 48.03738], [26.17306, 47.99314], [26.12572, 47.97842], [26.02929, 47.9778], [25.96573, 47.9649], [25.91809, 47.96816], [25.90124, 47.96596], [25.87096, 47.95702], [25.81835, 47.95258], [25.75252, 47.9346], [25.26174, 47.89858], [25.21896, 47.87847], [25.12191, 47.77031], [25.07995, 47.74293], [25.01742, 47.72458], [24.8966, 47.71006], [24.87779, 47.71874], [24.80823, 47.79574], [24.79366, 47.80447], [24.71284, 47.82592], [24.67914, 47.84013], [24.66147, 47.85388], [24.64927, 47.89522], [24.63367, 47.90829], [24.60845, 47.92193], [24.56163, 47.94054], [24.5421, 47.94382], [24.48556, 47.9432], [24.42851, 47.95253], [24.40919, 47.95206], [24.38624, 47.94369], [24.34718, 47.92088], [24.29788, 47.91979], [24.23101, 47.89703], [24.2093, 47.89759], [24.15018, 47.91292], [24.13117, 47.91454], [24.09479, 47.93793], [24.02523, 47.95325], [24.0088, 47.96121], [23.97727, 47.96229], [23.87661, 47.93444], [23.85522, 47.93423], [23.84839, 47.94966], [23.79651, 47.98198], [23.78008, 47.98751], [23.71052, 47.98508], [23.64613, 47.99661], [23.58174, 48.00157], [23.56324, 48.00575], [23.51446, 47.99898], [23.50371, 47.99289], [23.49431, 47.98054], [23.48159, 47.97216], [23.46082, 47.97134], [23.39447, 47.99345], [23.37473, 47.99056], [23.36005, 47.99314], [23.33752, 48.01087], [23.28977, 48.03821], [23.24864, 48.07123], [23.23138, 48.07973], [23.16172, 48.0959], [23.13908, 48.09813], [23.11862, 48.09154], [23.09898, 48.07123], [23.07655, 48.02451], [23.06312, 48.00746], [23.02033, 47.98472], [23.00442, 47.98307], [22.98819, 47.98637], [22.9393, 48.00565], [22.92411, 48.00482], [22.91574, 47.99299], [22.92421, 47.97273], [22.91584, 47.95919], [22.89786, 47.95098], [22.8776, 47.94674], [22.84081, 47.96679], [22.83244, 47.97893], [22.84949, 47.99314], [22.85135, 48.0088], [22.86158, 48.02839], [22.85476, 48.0473], [22.83099, 48.07244], [22.80143, 48.09097], [22.76557, 48.10453], [22.76205, 48.10926], [22.74572, 48.11629], [22.69322, 48.10177], [22.62118, 48.10177], [22.60547, 48.09704], [22.58304, 48.12482], [22.56889, 48.15652], [22.55576, 48.17716], [22.48145, 48.24259], [22.46905, 48.24414], [22.44972, 48.23768], [22.43422, 48.23675], [22.39453, 48.24476], [22.37086, 48.23739], [22.35712, 48.2431], [22.30813, 48.29369], [22.29738, 48.314], [22.29872, 48.34914], [22.29128, 48.35757], [22.25676, 48.35728], [22.25697, 48.37322], [22.27185, 48.40346], [22.23609, 48.41529], [22.20198, 48.41816], [22.16922, 48.40953], [22.1593, 48.40232], [22.13284, 48.4048], [22.13377, 48.47684], [22.14483, 48.49311], [22.14834, 48.50882], [22.13666, 48.54934], [22.13873, 48.56959], [22.15372, 48.58587], [22.21904, 48.62094], [22.24322, 48.65119], [22.29428, 48.66763], [22.3103, 48.68168], [22.32249, 48.70034], [22.3289, 48.72158], [22.32766, 48.74302], [22.33076, 48.75641], [22.35649, 48.77614], [22.36569, 48.79439], [22.36156, 48.83645], [22.36228, 48.84425], [22.3689, 48.85645], [22.41179, 48.88777], [22.41489, 48.91169], [22.449, 48.97143], [22.46657, 48.98053], [22.50501, 48.98425], [22.52052, 48.99293], [22.5201, 49.00983], [22.52475, 49.03287], [22.53964, 49.0722], [22.56072, 49.08553], [22.58077, 49.08145], [22.61829, 49.05422], [22.64289, 49.04316], [22.72195, 49.04104], [22.74448, 49.04554], [22.75533, 49.04471], [22.78396, 49.02135], [22.8129, 49.01288], [22.83502, 48.99975], [22.85528, 48.99401], [22.86696, 49.00998], [22.84318, 49.04311], [22.84442, 49.0567], [22.85352, 49.07628], [22.85342, 49.08476], [22.84132, 49.09489], [22.77807, 49.12031], [22.74882, 49.14558], [22.71637, 49.16057], [22.72143, 49.1616], [22.70573, 49.16884], [22.68784, 49.15592], [22.68175, 49.16124], [22.70293, 49.19503], [22.71709, 49.23043], [22.73394, 49.26087], [22.73776, 49.27539], [22.71978, 49.38298], [22.67958, 49.41895], [22.67307, 49.43585], [22.66686, 49.47838], [22.64092, 49.52876], [22.66583, 49.56736], [22.74169, 49.63366], [22.76619, 49.67423], [22.77735, 49.68048], [22.8098, 49.68632], [22.82665, 49.69738], [22.88825, 49.76973], [22.89796, 49.77743], [22.92442, 49.78544], [22.9331, 49.79107], [22.95119, 49.82662], [22.99305, 49.85443], [23.10146, 49.95711], [23.14125, 49.98548], [23.17784, 50.00398], [23.20792, 50.03395], [23.43643, 50.19347], [23.56531, 50.25781], [23.64417, 50.31269], [23.65802, 50.32561], [23.67125, 50.35357], [23.6822, 50.36825], [23.69574, 50.37677], [23.713, 50.3824], [23.74752, 50.38938], [23.9287, 50.39083], [23.98131, 50.40478], [24.00776, 50.4485], [24.01066, 50.49278], [24.07505, 50.51428], [24.10771, 50.54084], [24.10254, 50.54363], [24.09541, 50.55686], [24.08528, 50.60441], [24.10843, 50.62988], [24.0828, 50.66916], [24.07494, 50.69019], [24.08104, 50.71298], [24.05417, 50.71716], [24.02688, 50.72802], [24.01283, 50.74331], [24.02585, 50.76083], [24.02585, 50.76703], [23.99795, 50.7692], [23.97428, 50.77618], [23.9595, 50.78889], [23.95764, 50.80801], [23.96994, 50.82517], [23.99288, 50.83623], [24.02048, 50.83855], [24.04694, 50.8291], [24.0673, 50.83483], [24.10047, 50.83499], [24.13086, 50.83907], [24.14316, 50.85643], [24.13024, 50.86894], [24.04694, 50.89803], [23.97934, 50.93751], [23.96436, 50.95322], [23.95505, 50.98356], [23.944, 50.9942], [23.91175, 51.00681], [23.91599, 51.02087], [23.90421, 51.06272], [23.89552, 51.07611], [23.86927, 51.10174], [23.85449, 51.12153], [23.85821, 51.13073], [23.87475, 51.13613], [23.86359, 51.14827], [23.81604, 51.17879], [23.76519, 51.19902], [23.74266, 51.21625], [23.68727, 51.2924], [23.67021, 51.29938], [23.65089, 51.29961], [23.63518, 51.3047], [23.62867, 51.32596], [23.63404, 51.3393], [23.64779, 51.354], [23.66556, 51.36581], [23.68386, 51.37028], [23.67766, 51.38379], [23.6789, 51.39407], [23.68603, 51.40105], [23.6976, 51.40443], [23.68944, 51.41642], [23.64872, 51.45397], [23.64717, 51.46019], [23.66277, 51.48019], [23.61482, 51.49722], [23.6081, 51.51122], [23.60624, 51.5174], [23.61544, 51.51311], [23.62412, 51.5159], [23.62867, 51.53122], [23.62629, 51.54089], [23.59332, 51.59696], [23.59435, 51.60496], [23.61668, 51.62478], [23.72623, 51.64486], [23.74969, 51.64447], [23.82028, 51.63127], [23.84529, 51.62982], [23.88488, 51.61987], [23.91289, 51.59858], [23.94131, 51.58192], [23.98131, 51.586], [24.13075, 51.66979], [24.24413, 51.71821], [24.27235, 51.74289], [24.29612, 51.80813], [24.31152, 51.82756], [24.3479, 51.86115], [24.3696, 51.8751], [24.39079, 51.88001], [24.63977, 51.89213], [24.72183, 51.88234], [25.00274, 51.91048], [25.09266, 51.93975], [25.13803, 51.94895], [25.1833, 51.94975], [25.35197, 51.92148], [25.68348, 51.91802], [25.76791, 51.92851], [25.98113, 51.90347], [26.05059, 51.90482], [26.08076, 51.90066], [26.14536, 51.86485], [26.17533, 51.85671], [26.40777, 51.85061], [26.41976, 51.84686], [26.41697, 51.83064], [26.41925, 51.82092], [26.43154, 51.81022], [26.4456, 51.8056], [26.66574, 51.80139], [26.85477, 51.74935], [26.92082, 51.74253], [27.02159, 51.76454], [27.10995, 51.76242], [27.15109, 51.75676], [27.17786, 51.74708], [27.18416, 51.73144], [27.18106, 51.68341], [27.18902, 51.66377], [27.20359, 51.65514], [27.24793, 51.65566], [27.27749, 51.65114], [27.27449, 51.6338], [27.25971, 51.6123], [27.25403, 51.59538], [27.26746, 51.5875], [27.32906, 51.59696], [27.38838, 51.59073], [27.409, 51.59171], [27.43097, 51.59843], [27.45877, 51.6175], [27.47727, 51.62367], [27.51231, 51.62313], [27.62062, 51.5959], [27.67684, 51.59481], [27.69265, 51.58923], [27.70516, 51.56835], [27.69731, 51.54319], [27.66413, 51.49285], [27.68377, 51.47552], [27.71426, 51.46371], [27.73012, 51.46515], [27.74056, 51.47141], [27.79255, 51.5173], [27.79715, 51.5306], [27.79322, 51.56502], [27.79952, 51.5852], [27.81255, 51.60202], [27.83125, 51.61292], [27.8542, 51.61533], [27.87559, 51.60804], [27.93605, 51.56701], [27.95476, 51.56078], [27.97315, 51.55781], [28.07082, 51.55763], [28.09015, 51.56205], [28.11423, 51.57561], [28.16622, 51.6331], [28.18761, 51.6452], [28.21004, 51.65196], [28.2304, 51.65114], [28.24513, 51.64062], [28.2489, 51.6306], [28.24937, 51.61308], [28.25779, 51.60176], [28.31091, 51.57445], [28.33386, 51.52838], [28.34688, 51.52515], [28.35964, 51.52936], [28.38553, 51.54505], [28.43535, 51.56613], [28.46124, 51.57166], [28.48837, 51.57202], [28.57808, 51.56011], [28.60392, 51.55355], [28.6127, 51.53993], [28.61518, 51.51957], [28.6373, 51.44963], [28.64702, 51.43901], [28.66355, 51.43399], [28.69115, 51.44342], [28.70396, 51.44262], [28.71823, 51.41162], [28.72877, 51.40126], [28.74675, 51.41399], [28.75161, 51.42875], [28.74944, 51.46686], [28.75223, 51.48371], [28.77187, 51.51128], [28.79988, 51.53262], [28.83191, 51.54828], [28.86364, 51.55892], [28.89289, 51.56287], [28.95459, 51.56326], [28.98085, 51.56946], [28.99997, 51.58241], [29.02363, 51.61403], [29.04358, 51.62618], [29.06322, 51.6306], [29.08368, 51.63122], [29.12389, 51.62504], [29.14797, 51.61564], [29.16042, 51.60331], [29.18145, 51.56701], [29.21484, 51.53546], [29.22651, 51.51905], [29.23044, 51.49288], [29.22104, 51.46696], [29.22776, 51.45562], [29.2444, 51.44789], [29.26486, 51.43291], [29.2846, 51.39175], [29.297, 51.37371], [29.31995, 51.36557], [29.34057, 51.3701], [29.37968, 51.39154], [29.40273, 51.39614], [29.4464, 51.3849], [29.46629, 51.38506], [29.50547, 51.43746], [29.5682, 51.44963], [29.59735, 51.47396], [29.61802, 51.48564], [29.63776, 51.49089], [29.6608, 51.49314], [29.68272, 51.4912], [29.69997, 51.48371], [29.71651, 51.46567], [29.7253, 51.45045], [29.73791, 51.4395], [29.82865, 51.42996], [29.84663, 51.43291], [29.85676, 51.43986], [29.87361, 51.45919], [29.88627, 51.46479], [29.89655, 51.4642], [29.91257, 51.45743], [29.92508, 51.45787], [29.98575, 51.47787], [30.00869, 51.48208], [30.14863, 51.48443], [30.17731, 51.4795], [30.20537, 51.4665], [30.25689, 51.42505], [30.30738, 51.4096], [30.32019, 51.40208], [30.32903, 51.38862], [30.33001, 51.37035], [30.31988, 51.3416], [30.31709, 51.34059], [30.32454, 51.32997], [30.35513, 51.30527], [30.36846, 51.29767], [30.38376, 51.29392], [30.4281, 51.29175], [30.44277, 51.28305], [30.46504, 51.26194], [30.50809, 51.25767], [30.53202, 51.24462], [30.53961, 51.23517], [30.55067, 51.2368], [30.55532, 51.24346], [30.55662, 51.26731], [30.57723, 51.28901], [30.57992, 51.30367], [30.61046, 51.31754], [30.63831, 51.33586], [30.63242, 51.3641], [30.64555, 51.36746], [30.64452, 51.37268], [30.63242, 51.38397], [30.61816, 51.41872], [30.60602, 51.42456], [30.58788, 51.42735], [30.584, 51.43921], [30.58602, 51.45185], [30.59356, 51.4589], [30.61816, 51.45965], [30.61816, 51.46714], [30.59728, 51.47427], [30.58891, 51.48182], [30.584, 51.49383], [30.58974, 51.50197], [30.5854, 51.50939], [30.56287, 51.52177], [30.57641, 51.53112], [30.584, 51.54226], [30.53414, 51.55326], [30.52256, 51.56272], [30.52256, 51.56892], [30.54313, 51.57639], [30.54313, 51.58259], [30.51512, 51.59626], [30.51512, 51.60367], [30.54385, 51.62013], [30.55662, 51.62362], [30.54995, 51.63719], [30.57031, 51.6515], [30.56432, 51.6653], [30.57599, 51.68641], [30.57031, 51.69992], [30.62498, 51.7061], [30.63056, 51.7156], [30.63506, 51.73969], [30.64617, 51.74708], [30.64617, 51.75454], [30.61816, 51.76134], [30.67056, 51.79053], [30.66963, 51.80606], [30.66198, 51.81942], [30.70281, 51.85376], [30.71397, 51.86696], [30.73454, 51.87373], [30.74167, 51.89792], [30.7795, 51.89792], [30.78818, 51.90061], [30.8106, 51.91838], [30.8106, 51.92518], [30.80523, 51.92934], [30.80306, 51.93913], [30.83138, 51.9459], [30.85804, 51.95763], [30.87933, 51.97365], [30.88088, 51.98817], [30.8969, 51.99833], [30.90838, 51.99835], [30.9152, 51.99259], [30.94124, 51.9938], [30.95013, 52.00677], [30.94052, 52.02008], [30.91127, 52.02256], [30.92471, 52.04228], [30.91881, 52.05918], [30.93442, 52.06972], [30.95933, 52.07468], [31.09632, 52.07961], [31.13482, 52.07667], [31.15921, 52.06811], [31.2049, 52.04393], [31.22898, 52.03822], [31.25244, 52.0445], [31.28427, 52.08124], [31.30442, 52.09749], [31.38308, 52.11749], [31.47485, 52.11778], [31.64993, 52.09685], [31.82584, 52.10406]]], [[[32.99936, 46.03531], [33.0451, 46.03791], [33.05747, 46.02521], [33.04005, 46.01215], [32.61939, 46.06], [32.63136, 46.06623], [32.63933, 46.06], [32.78321, 46.04633], [32.85206, 46.0563], [32.88168, 46.05541], [32.91358, 46.0388], [32.95484, 46.05174], [32.97869, 46.05329], [32.99936, 46.03531]]], [[[32.07081, 46.18244], [32.16627, 46.14936], [32.14389, 46.15266], [32.10182, 46.16669], [31.73715, 46.22077], [31.58033, 46.26276], [31.549, 46.28242], [31.52198, 46.31322], [31.50506, 46.35493], [31.5044, 46.37336], [31.52198, 46.36848], [31.53842, 46.32583], [31.55437, 46.29633], [31.57797, 46.27558], [31.61818, 46.25922], [32.07081, 46.18244]]], [[[30.07569, 45.79243], [30.12599, 45.81147], [29.90805, 45.66645], [29.80747, 45.61433], [29.73097, 45.59138], [29.78126, 45.61066], [29.80144, 45.62189], [29.81479, 45.64106], [29.8567, 45.64912], [29.87273, 45.65827], [29.90162, 45.68049], [30.07569, 45.79243]]]]}}]}