{"type": "FeatureCollection", "features": [{"type": "Feature", "properties": {"name": "영토 경계(1914년)", "category": "경계선", "period": "1914년", "legend": "영토 경계(1914년)", "map_title": "아프리카의 저항 운동", "source": "미래엔 세계사 교과서 3권 173쪽", "volume": 3, "page": 173}, "geometry": {"type": "MultiLineString", "coordinates": [[[-17.0484, 20.81881], [-16.9442, 21.24733], [-16.08799, 21.29453], [-15.24323, 21.33484], [-14.40066, 21.36894], [-13.55732, 21.39879], [-13.23646, 21.835], [-13.31684, 22.91349], [-12.79649, 23.4017], [-12.20233, 23.55858], [-12.18963, 23.98844], [-12.15852, 24.83899], [-12.10156, 26.09936], [-10.94762, 26.15645], [-9.03242, 26.24423], [-8.92262, 26.69244], [-8.88111, 27.88002]], [[-16.7125, 12.36402], [-16.25526, 12.46246], [-15.77469, 12.42999], [-15.32787, 12.65047], [-15.13972, 12.65141], [-14.74885, 12.66289], [-14.55208, 12.66003], [-14.35841, 12.64258], [-14.17081, 12.60404], [-13.99219, 12.53791], [-13.82536, 12.43775], [-13.85452, 12.40406], [-13.88715, 12.37402], [-13.92282, 12.34785], [-13.9611, 12.32574], [-14.00156, 12.30789], [-14.04378, 12.29451], [-14.08734, 12.2858], [-14.1318, 12.28195], [-14.12365, 12.24487], [-14.10654, 12.21182], [-14.08264, 12.18168], [-13.96267, 12.06853], [-13.93744, 12.0367], [-13.91683, 11.99653], [-13.90609, 11.9534], [-13.90464, 11.90931], [-13.91195, 11.86626], [-13.92746, 11.82623], [-13.95064, 11.79118], [-13.98097, 11.76305], [-14.01794, 11.74376], [-14.05207, 11.73512], [-14.0872, 11.73212], [-14.15962, 11.73805], [-14.30701, 11.76289], [-14.37426, 11.76424], [-14.43978, 11.75572], [-14.50312, 11.73828], [-14.56375, 11.71283], [-14.62117, 11.68033], [-14.6749, 11.64173], [-14.72445, 11.59795], [-14.76936, 11.54995], [-14.8096, 11.49882], [-14.84611, 11.44509], [-14.91012, 11.33163], [-14.96588, 11.21316], [-15.01794, 11.09315], [-15.03908, 11.05974], [-15.06854, 11.03435], [-15.08432, 11.02749], [-15.09969, 11.02601], [-15.11381, 11.03104], [-15.1259, 11.04371]], [[-16.73316, 13.02369], [-16.67595, 13.17147], [-16.20614, 13.13997], [-15.90167, 13.33095], [-15.39516, 13.36605], [-15.27145, 13.56221], [-14.87073, 13.30284], [-14.49993, 13.1762], [-14.00147, 13.32865], [-14.17171, 13.53287], [-14.5453, 13.39339], [-14.73037, 13.59747], [-14.94734, 13.60316], [-15.06947, 13.78976], [-15.56442, 13.7202], [-15.6108, 13.57164], [-16.60863, 13.5844]], [[-10.65449, 8.17901], [-10.77306, 8.2093], [-11.09621, 8.00487], [-10.8615, 8.3665], [-10.98308, 8.70807], [-11.12994, 8.81056], [-11.06714, 8.99315], [-11.31566, 9.36007], [-11.55957, 9.73717], [-12.15616, 9.79468], [-12.40915, 9.70606], [-12.71924, 9.75147], [-12.9222, 9.28725], [-13.07631, 9.19403], [-13.18357, 9.02476], [-13.34971, 8.90113]], [[-13.09494, 27.61869], [-12.62284, 27.65172], [-12.13845, 27.69177], [-11.65961, 27.74413], [-11.18952, 27.81598], [-10.7285, 27.91571], [-10.2875, 28.05088], [-9.87777, 28.22825], [-9.50701, 28.45396], [-9.41965, 28.51952], [-9.16585, 28.72269], [-9.07928, 28.78815], [-8.98932, 28.85025], [-8.89445, 28.90765], [-8.79316, 28.95898]], [[-11.6675, 6.93178], [-11.53172, 7.1384], [-11.18446, 7.33439], [-10.94609, 7.56862], [-10.95137, 7.8123], [-10.6745, 7.93449], [-10.65451, 8.1789], [-10.50742, 8.25751], [-10.41947, 8.1648], [-10.13815, 8.2588], [-9.8583, 8.08876], [-9.66641, 7.54584], [-9.74009, 7.24339], [-9.53775, 7.22058], [-9.3916, 7.06861], [-9.15892, 7.08564], [-8.91975, 7.48239], [-8.74257, 7.37072]], [[-10.51997, 29.0172], [-10.41687, 28.83943], [-10.29338, 28.74173], [-10.15473, 28.71497], [-10.00758, 28.74992], [-9.85858, 28.83704], [-9.714, 28.9665], [-9.5794, 29.12823], [-9.45949, 29.31196], [-9.99137, 29.66284]], [[-8.88107, 27.88011], [-8.85434, 28.89339], [-8.22337, 29.35007], [-7.90025, 29.57726], [-7.57164, 29.80316], [-6.87947, 29.82569], [-6.72309, 30.07513], [-5.80193, 30.22524], [-5.44727, 30.54237], [-5.09001, 30.85619], [-3.85219, 31.3165], [-4.01877, 31.9709], [-3.19682, 32.10113], [-3.00908, 32.37033], [-1.41689, 32.40531], [-1.17343, 32.78317], [-1.65001, 33.19248], [-1.72117, 33.60255]], [[-8.89443, 27.49132], [-8.18746, 27.09701], [-7.4689, 26.69149], [-6.02065, 25.83888], [-4.77546, 25.06041], [-3.51465, 24.28565], [-1.42561, 22.8782], [-0.38781, 22.16617], [0.67324, 21.45157], [0.69119, 21.12096], [1.47011, 20.57307], [2.02948, 20.35247], [2.77491, 20.13391], [2.73304, 19.27836], [3.81437, 19.44379], [5.40033, 19.78173], [6.35671, 20.6001], [7.31427, 21.39653], [8.73058, 22.3058], [10.2165, 23.13362], [10.95955, 23.53424], [11.70245, 23.93022]], [[-8.74257, 7.37072], [-8.74264, 7.37088]], [[-8.74257, 7.37072], [-8.74255, 7.3707]], [[-7.70941, 4.37158], [-7.80778, 4.87728], [-7.57697, 5.23921], [-7.60051, 5.70324], [-8.01671, 5.85544], [-8.07646, 6.11913], [-8.41736, 6.18954], [-8.84491, 6.40284], [-8.63783, 6.56609], [-8.56261, 6.96897], [-8.74257, 7.37072]], [[-6.14193, 34.79657], [-5.66284, 34.47737], [-5.14487, 34.21122], [-4.60099, 33.99845], [-4.03744, 33.83438], [-3.45877, 33.71511], [-2.86835, 33.63782], [-2.26915, 33.60059], [-1.72117, 33.60255]], [[-3.16858, 5.06724], [-2.95537, 5.12686], [-2.99841, 5.58845], [-3.20121, 5.62252], [-3.47365, 6.60424], [-3.26308, 6.98682], [-3.03088, 7.82247], [-2.76612, 8.08556], [-2.88562, 8.70318], [-3.01112, 8.92991], [-2.98873, 9.32648], [-3.09714, 10.10417], [-3.27731, 10.46771], [-3.203, 10.84022], [-1.49892, 10.88444], [-0.94938, 10.81207], [-0.71591, 11.00394], [-0.54678, 11.07633], [-0.25376, 11.01444]], [[-1.72117, 33.60255], [-1.76904, 33.882], [-1.7418, 34.85287], [-2.05676, 35.1103]], [[-1.72117, 33.60255], [-1.66441, 33.60252]], [[1.05966, 5.98678], [0.84723, 6.23427], [0.5664, 6.40006], [0.36799, 6.76426], [0.51117, 7.2291], [0.33499, 7.3782], [0.41239, 7.71174], [0.38424, 8.09521], [0.51817, 8.2142], [0.16086, 8.66135], [0.27706, 8.81397], [0.29466, 9.35214], [-0.01556, 9.38069], [0.10249, 10.00576], [0.02517, 10.29156], [-0.34385, 10.58895], [-0.25371, 11.01433], [0.21351, 10.85509], [0.62196, 10.93237]], [[1.6054, 6.14491], [1.65809, 6.28877], [1.49631, 6.53607], [1.40096, 6.88535], [1.52092, 6.92036], [1.42867, 8.31117], [1.40526, 9.03532], [1.11721, 9.41771], [1.10052, 9.92472], [0.73256, 10.17086], [0.51842, 10.42106], [0.62202, 10.93224]], [[2.67808, 6.27599], [2.66725, 6.67728], [2.68128, 7.36466], [2.56238, 7.84879], [2.62575, 8.99609], [2.93212, 9.05432], [3.00141, 9.49504], [3.17849, 9.78655], [3.36392, 9.85901], [3.50723, 10.13264], [3.41635, 10.28288], [3.44376, 10.45273], [3.59949, 10.40502], [3.6565, 10.69383], [3.52214, 11.09816], [3.25394, 11.43305], [3.38071, 11.70762], [3.40158, 12.56138], [3.73071, 12.87488], [3.86213, 13.52802], [4.54583, 13.8792], [4.93623, 13.83132], [5.25283, 13.98812], [5.86857, 13.71734], [6.06952, 13.76976], [6.66275, 13.08699], [7.62666, 13.40846], [8.52646, 12.97533], [9.398, 12.84525], [9.9049, 13.3144], [11.20724, 13.42779], [12.25162, 13.04886], [13.13491, 13.68411], [13.37981, 13.63642]], [[8.53906, 4.78134], [8.91522, 5.62703], [8.81544, 5.86476], [10.05315, 7.01137], [10.10241, 6.89201], [10.40712, 6.88087], [10.48597, 7.09648], [10.90651, 6.72968], [10.98792, 6.39025], [11.24581, 6.43307], [11.73176, 7.05956], [11.60067, 7.23123], [12.05574, 7.87579], [12.06997, 8.42939], [12.59537, 8.70464], [12.70812, 9.32429], [13.03838, 9.53761], [13.05255, 9.99157], [13.28511, 10.13889], [13.36538, 10.62685], [13.84672, 11.22757], [13.98144, 11.17563], [14.46804, 11.47603], [14.39606, 12.23818], [14.00616, 12.47813], [13.98923, 12.86939]], [[9.65834, 30.82373], [9.19224, 31.12642], [9.02117, 31.78824], [8.84744, 32.43312], [8.15071, 32.82658], [8.09196, 33.14081], [7.89791, 33.36833], [7.56791, 33.47755], [7.30917, 34.19072], [7.5982, 34.36778], [7.67135, 34.54881], [8.09497, 34.73803], [8.27852, 35.29195], [8.15374, 35.78017], [8.24223, 36.42571], [8.07718, 36.48923], [8.47914, 36.76711], [8.49246, 36.84253]], [[9.56101, 0.1612], [10.24553, 0.20438], [10.93689, 0.28111], [11.62497, 0.37866], [12.31066, 0.49524], [12.99461, 0.6311], [13.67695, 0.78682], [14.35751, 0.9629], [15.25035, 1.2239], [15.35865, 1.25297], [15.4676, 1.2779], [15.57708, 1.2971], [15.68701, 1.30899], [15.79728, 1.31199], [15.90778, 1.30448], [16.01814, 1.28348], [16.12574, 1.24757], [16.22757, 1.1976], [16.32058, 1.13443], [16.40177, 1.05888], [16.46813, 0.97179], [16.51666, 0.87402], [16.54436, 0.76641], [16.57272, 0.56592], [16.58828, 0.50214], [16.61033, 0.44616], [16.64094, 0.40176], [16.68218, 0.37272], [16.73612, 0.36281], [16.85983, 0.58617], [16.9694, 0.81735], [17.06449, 1.05528], [17.14474, 1.29891], [17.20977, 1.5472], [17.25924, 1.79907], [17.29275, 2.05348], [17.32936, 2.56796], [17.37225, 2.80835], [17.44377, 3.02563], [17.54908, 3.21482], [17.69336, 3.37104], [17.88179, 3.48938], [18.11955, 3.56498], [18.38014, 3.58995]], [[9.65991, 0.92514], [10.10175, 0.91439], [10.99718, 0.89888], [11.19723, 1.42253], [11.24757, 2.10878], [11.06696, 2.13581], [10.53817, 2.22868], [10.36405, 2.25638], [10.18984, 2.27863], [10.01474, 2.293], [9.83783, 2.29701]], [[9.65834, 30.82373], [9.65829, 30.82369]], [[11.70245, 23.93022], [11.19843, 24.76618], [10.40828, 25.05712], [10.03697, 24.97831], [9.68582, 25.32692], [9.67567, 25.85562], [9.03147, 26.71133], [9.52624, 27.0595], [9.61732, 27.41116], [9.40812, 27.86494], [9.65752, 28.41006], [9.48206, 28.79164], [9.54402, 29.78578], [9.07716, 30.60662], [9.65834, 30.82373]], [[11.37456, 33.31797], [11.33185, 32.9029], [11.41683, 32.69812], [10.97143, 32.55939], [10.52531, 32.40228], [10.36868, 32.16302], [9.90507, 31.91106], [10.06156, 31.30476], [9.65834, 30.82373]], [[22.60949, -18.1309], [20.50657, -18.56634], [20.30316, -18.48395], [19.84329, -18.56874], [19.45671, -18.45117], [18.69837, -18.41154], [17.95149, -18.36541], [17.49269, -17.91762], [16.50447, -17.88467], [15.53878, -17.8378], [15.06571, -17.80865], [14.60005, -17.77513], [14.13603, -17.73581], [13.68316, -17.6899], [13.48387, -17.70084], [13.24092, -17.44265], [13.00385, -17.18156], [12.68148, -17.16455], [12.2662, -17.32229], [11.97279, -17.1842], [11.75356, -17.24234]], [[18.38014, 3.58995], [18.38426, 3.40248], [18.41041, 3.08264], [17.83743, 2.06898], [17.79154, 1.44693], [17.57962, 0.75677], [17.68599, 0.21908], [17.48393, -0.03235], [17.43002, -0.3172], [17.39165, -0.68562], [17.10902, -1.05252], [16.86298, -1.20172], [16.69972, -1.21676], [16.45358, -1.41475], [16.24026, -1.87952], [15.83461, -2.35611], [15.93114, -2.77288], [15.8826, -3.154], [15.94685, -3.43695], [15.61209, -4.07601], [15.31052, -4.18407], [15.16903, -4.3788], [14.99479, -4.4225], [14.4635, -5.01544], [14.21106, -4.97382], [14.17545, -4.66004], [14.26837, -4.53148], [14.18714, -4.36453], [13.79502, -4.56406], [13.57329, -4.50722], [13.53065, -4.76809], [13.26625, -4.90492], [12.94478, -4.66302], [12.68548, -4.40905], [12.32647, -4.63804], [11.95625, -4.99882]], [[11.70245, 23.93022], [13.13992, 23.58269], [13.92518, 22.94314], [15.04349, 23.4739], [15.72239, 23.79173], [17.61532, 22.85815], [18.5794, 22.41469], [19.54881, 21.95928], [19.76605, 21.84741]], [[11.70245, 23.93022], [11.70258, 23.93028]], [[12.19955, -5.77311], [12.44742, -5.70262], [12.40538, -5.09761], [12.94456, -4.66294]], [[12.90458, -5.9546], [13.21104, -5.88657], [13.83181, -5.88113], [14.23842, -5.96368], [15.02115, -5.96101], [15.96166, -5.99627], [16.26016, -6.0407], [16.38392, -6.39643], [16.42758, -6.78304], [16.59653, -7.10889], [16.60924, -7.36189], [17.18416, -8.31757], [17.63732, -8.30197], [18.19014, -8.16833], [18.83534, -8.27323], [18.86258, -7.84736], [19.0238, -7.76605], [19.05259, -7.25612], [19.78755, -7.27116], [19.82197, -7.18631], [20.09527, -7.19074], [19.98933, -7.53028], [21.23398, -7.54513], [21.27684, -7.76709], [21.16554, -8.24526], [21.31319, -8.77705], [21.15389, -9.76916], [21.36946, -10.21655], [21.4988, -10.28563], [21.63271, -10.76645], [21.62076, -11.16031], [21.46875, -11.26346], [21.55597, -11.64129], [21.84459, -11.4176], [22.37542, -11.51774], [22.71457, -11.36227], [23.16803, -11.40877], [23.30642, -11.25375]], [[13.47685, 13.98663], [13.59903, 14.11336], [13.72892, 14.23743], [13.86632, 14.35323], [14.01096, 14.45509], [14.1626, 14.53741], [14.32099, 14.59452], [14.48584, 14.62082], [14.6569, 14.61071], [14.76993, 14.58206], [14.87663, 14.53777], [14.97729, 14.48007], [15.07218, 14.41117], [15.16161, 14.33326], [15.24587, 14.24857], [15.32525, 14.15929], [15.40005, 14.06763], [15.73549, 13.58454], [16.02155, 13.06306], [16.26805, 12.51271], [16.48495, 11.94297], [16.68223, 11.36335], [17.05843, 10.21293], [17.25776, 9.66153], [17.73733, 8.44284], [18.23093, 7.23072], [18.4831, 6.62716], [18.73888, 6.02534], [19.21247, 4.93853]], [[16.412, -28.62543], [16.62997, -28.49173], [16.62018, -28.30631], [16.77055, -28.12127], [16.95869, -28.1996], [17.00926, -28.35818], [17.14199, -28.35478], [17.25417, -28.79965], [17.97095, -29.05161], [18.60054, -29.04135], [18.83287, -29.18488], [19.00106, -29.13405], [18.93948, -28.98802], [19.20509, -28.80086], [19.62781, -28.70075], [19.3571, -26.26388], [19.28668, -25.55991], [19.25487, -25.20612], [19.21882, -24.7629], [19.18696, -24.31746], [19.1592, -23.86968], [19.13536, -23.4226], [19.09715, -22.52125], [19.73568, -22.53029], [20.0949, -22.10619], [20.07376, -21.30899], [20.06073, -20.50507], [20.05601, -19.69963], [20.05973, -18.88746], [20.53775, -18.85193], [21.48785, -18.69871], [22.44887, -18.53789], [22.80109, -19.01659], [23.17161, -18.68824], [23.59666, -18.45819], [23.75679, -18.55398], [24.05827, -18.3264], [24.52132, -18.26102], [24.59436, -18.52681], [25.30262, -19.40616], [25.56506, -19.98028], [26.33291, -20.4162], [26.67784, -20.46844], [26.79645, -20.83008], [27.21434, -20.91164], [27.24941, -21.49274], [27.66227, -21.93909], [28.22335, -21.96439], [28.73197, -22.10638], [28.73906, -22.32171], [29.08622, -22.47202]], [[19.21247, 4.93853], [18.78489, 4.67063], [18.36818, 4.12824], [18.38014, 3.58995]], [[18.38014, 3.58995], [18.41181, 3.593]], [[19.21247, 4.93853], [19.26133, 4.82716]], [[27.49797, 5.07662], [27.12536, 5.22171], [26.85761, 5.0287], [25.3363, 5.33593], [25.2872, 5.01285], [24.6103, 4.87938], [24.44611, 5.06325], [23.27396, 4.54796], [22.75063, 4.74191], [22.22639, 4.00394], [21.53548, 4.19609], [21.26142, 4.1585], [20.7568, 4.3205], [20.38348, 4.31566], [20.17214, 4.63391], [19.38649, 5.04754], [19.21247, 4.93853]], [[19.52747, 21.83997], [19.76605, 21.84741]], [[19.76605, 21.84741], [20.59276, 21.42388], [21.63707, 20.91073], [22.68103, 20.40224], [23.72299, 19.88243], [24.16276, 19.71999]], [[19.76605, 21.84741], [22.13549, 21.92847], [26.86394, 22.10718], [28.08173, 22.09291], [29.29404, 22.07396], [30.49122, 22.04989], [32.26446, 22.00913], [33.55679, 21.9868], [33.93077, 21.71158], [34.35697, 21.76589], [34.52301, 22.1403], [35.0434, 22.2203], [35.26311, 22.7521], [35.54323, 22.67805], [35.88164, 22.99702]], [[19.25498, -25.20599], [19.6117, -25.45634], [19.97347, -25.91358], [20.25718, -26.56177], [20.03983, -26.89124], [20.16426, -27.27835], [20.35765, -27.20523], [21.17728, -27.27306], [21.24535, -27.09678], [21.53269, -27.05247], [21.60552, -26.90844], [22.15269, -26.44073], [22.18427, -26.19747], [22.34615, -25.82279], [22.83366, -25.75314], [23.47749, -26.06967], [24.34488, -26.26315], [24.58605, -26.15885], [24.80219, -26.18495], [25.14894, -26.04228], [25.39521, -25.44375], [25.41414, -25.18044], [25.99771, -25.02707], [26.44284, -24.63155], [26.55617, -24.0352], [27.08295, -23.73341], [27.20228, -23.58009], [27.36401, -23.57306], [27.81066, -23.04251], [28.03989, -22.90004], [28.34546, -22.88633], [28.62723, -22.72461], [28.71148, -22.55533], [29.08622, -22.47202]], [[33.11493, -14.11984], [31.1294, -14.81638], [29.8548, -15.20509], [30.07657, -15.86486], [29.48195, -15.87457], [28.94329, -15.99919], [28.45858, -16.28849], [28.42663, -16.65883], [28.31992, -16.84714], [28.01449, -16.97844], [27.70905, -17.05939], [27.51339, -17.31915], [27.13608, -17.48663], [26.97677, -17.79601], [26.69105, -18.0258], [26.42481, -18.37225], [26.0839, -18.48753], [25.56064, -18.32381], [25.27393, -18.45156], [25.04021, -18.29294], [24.52146, -18.26113], [24.28877, -18.06743], [23.63169, -17.96937], [22.60935, -18.1309]], [[23.30642, -11.25375], [23.36356, -11.7649], [23.31032, -11.86825], [23.22733, -12.55213], [23.3256, -12.75458], [23.14537, -13.20102], [23.25996, -13.4206], [22.03528, -13.43715], [21.22978, -13.44231], [21.1639, -15.36823], [21.12979, -16.51675], [21.27024, -17.05831], [21.63133, -17.36912], [22.36497, -17.98458], [22.60955, -18.13086]], [[24.16242, 19.79321], [24.16276, 19.71999]], [[24.16276, 19.71999], [24.21772, 19.69972]], [[24.16276, 19.71999], [24.16854, 17.49634], [24.16505, 15.90341], [23.28852, 15.85647], [23.04285, 15.6675], [23.1109, 15.36532], [22.82914, 15.02316], [22.79253, 14.78655], [22.47686, 14.6461], [22.6659, 14.22688], [22.15604, 13.86179], [22.37919, 13.42607], [22.00987, 13.14833], [21.88444, 12.84069], [22.07397, 12.6409], [22.26705, 12.79801], [22.51034, 12.70102], [22.65071, 11.62004], [23.01355, 11.44188], [22.93476, 10.96575], [23.3763, 10.48465], [23.76281, 9.90041], [23.71356, 9.33982], [23.48018, 9.02923], [23.60958, 8.71015], [24.30236, 8.70819], [24.22271, 8.351], [24.84231, 8.22905], [25.36422, 7.76574], [25.26841, 7.52556], [26.53437, 6.70435], [26.38434, 6.41199], [27.28899, 5.76858], [27.49797, 5.07662]], [[23.3064, -11.25359], [23.30642, -11.25375]], [[23.30642, -11.25375], [23.72553, -11.4869], [23.65148, -11.81188], [23.83834, -11.86037], [24.04523, -11.72023], [24.68194, -11.57245], [24.62727, -11.82832], [24.86475, -12.12925], [25.21094, -12.15462], [25.41883, -12.26808], [25.8373, -12.25677], [26.11744, -12.35085], [26.38078, -12.22419], [26.43437, -11.93463], [26.60938, -11.91299], [26.66203, -12.11392], [26.90907, -12.27576], [26.99686, -12.52554], [27.17407, -12.62172], [27.35149, -12.58188], [27.4577, -12.69612], [27.86746, -12.73185], [28.13625, -13.16005], [28.31546, -13.22048], [28.55033, -13.68262], [28.80128, -13.65566], [29.17718, -13.45595], [29.2852, -13.5017], [29.21442, -13.65597], [29.41253, -13.68142], [29.40462, -12.387], [29.0463, -12.48571], [29.06507, -12.68657], [28.56317, -12.63818], [28.22213, -12.28081], [27.82867, -11.83932], [28.19706, -10.93093], [28.08823, -10.47945], [28.17268, -9.986], [27.85199, -9.50591], [28.14944, -9.29326], [28.44554, -8.91136], [28.42582, -8.70919], [30.14915, -8.40759]], [[25.05058, 31.91837], [24.95465, 31.68616], [24.84707, 31.45202], [25.01756, 30.97476], [24.9018, 30.64369], [24.78075, 30.31049], [25.1151, 29.42536], [25.1375, 28.81024], [25.17818, 27.27677], [25.19414, 26.89293], [25.21039, 26.7397], [25.22568, 26.6646], [25.24779, 26.59188], [25.27823, 26.52258], [25.31853, 26.45773], [25.37023, 26.39836], [25.46784, 26.31237], [25.50228, 26.27499], [25.52595, 26.23762], [25.54014, 26.20258], [25.55676, 26.12909], [25.69667, 25.23549], [25.71262, 25.12197], [25.72087, 25.00789], [25.71982, 24.95129], [25.71407, 24.89535], [25.70274, 24.8403], [25.68489, 24.78644], [25.65882, 24.73238], [25.62618, 24.68162], [25.58786, 24.63395], [25.54472, 24.58916], [25.49764, 24.54703], [25.39515, 24.46985], [25.2579, 24.37935], [25.20725, 24.33821], [25.1664, 24.29072], [25.15119, 24.26386], [25.13607, 24.21912], [25.12983, 24.17254], [25.1296, 24.12502], [25.14564, 23.85824], [25.15586, 23.61676], [25.16927, 23.0962], [25.17869, 22.11141]], [[34.15576, 4.3297], [33.65387, 3.84307], [33.11727, 3.96054], [32.44805, 3.82156], [32.28377, 3.61692], [31.90973, 3.8819], [31.64736, 3.74414], [31.26373, 3.87292], [30.96011, 3.61519], [30.61809, 3.91338], [30.26696, 4.06036], [29.92868, 4.46054], [29.92018, 4.63017], [29.54823, 4.74254], [29.30685, 4.39885], [28.81699, 4.55913], [28.39107, 4.33032], [27.84076, 4.69282], [27.49797, 5.07662]], [[27.49797, 5.07662], [27.49807, 5.0763]], [[28.5633, -2.79416], [28.77075, -3.09543], [28.73931, -3.47559]], [[29.25153, -1.35175], [29.00415, -1.53117], [28.74611, -1.88123], [28.74845, -2.13662], [28.42518, -2.50801], [28.56349, -2.79419], [28.70589, -2.63493], [28.92339, -2.69494]], [[29.08622, -22.47202], [29.51382, -22.3862], [30.10976, -22.608], [30.90594, -22.50555], [31.17388, -22.62701], [31.43791, -23.27943], [31.46658, -23.6571], [31.66578, -23.89629], [31.94833, -24.57097], [31.97178, -25.43266], [31.99301, -25.74322], [31.94281, -25.99172]], [[29.08622, -22.47202], [29.08653, -22.47196]], [[31.17369, -22.62687], [31.94606, -21.80795], [32.37909, -21.48727], [32.25366, -21.22465], [32.40981, -21.0333], [32.38951, -20.73205], [32.53012, -20.65886], [32.9487, -20.10427], [32.8759, -19.77315], [32.78778, -19.77705], [32.69732, -19.56428], [32.72886, -19.1455], [32.62269, -19.11752], [32.5675, -18.9534], [32.83234, -18.84188], [32.77659, -18.62786], [32.9518, -18.4384], [32.84121, -18.10997], [32.92576, -17.74146], [32.87086, -17.61086], [32.92211, -17.42561], [32.74032, -17.05097], [32.84456, -16.83036], [32.57806, -16.80748], [32.54152, -16.72583], [32.04046, -16.56324], [31.71862, -16.59348], [31.5557, -16.4005], [31.1961, -16.34977], [30.87136, -16.19671], [30.08031, -16.23209], [30.07666, -15.86461]], [[30.96005, 3.61514], [30.83175, 3.17455], [30.90288, 2.9402], [30.73823, 2.49917], [30.95626, 2.45308], [31.3142, 2.24284], [30.99052, 1.90641], [30.33177, 1.23398], [29.8405, 0.88735], [29.75312, 0.48327], [29.52113, 0.15783], [29.33804, -0.84655], [29.25161, -1.3517], [29.47623, -1.27534], [29.65076, -1.43721], [30.16851, -1.01095], [30.49373, -0.93089], [31.54465, -0.8752]], [[30.59236, -8.63169], [31.15353, -8.72386], [31.41402, -9.01764], [32.79413, -9.45206]], [[32.88815, -26.79901], [32.47865, -26.79494], [32.06843, -26.79611]], [[32.79404, -9.45185], [32.79413, -9.45206]], [[32.79413, -9.45206], [33.8768, -9.754]], [[32.79413, -9.45206], [32.90572, -9.7013], [33.12579, -9.74347], [33.27282, -9.92382], [33.25453, -10.12688], [33.45495, -10.2882], [33.65378, -10.63567], [33.14361, -10.94284], [33.25048, -11.24235], [33.13732, -12.22438], [33.42322, -12.48214], [32.81127, -12.79043], [32.82831, -13.37683], [32.57798, -13.72109], [32.88288, -14.0446], [33.11493, -14.11984]], [[33.11493, -14.11984], [33.52458, -14.58972], [34.28692, -14.44789], [34.58451, -14.99082], [34.56621, -15.37522], [34.19813, -15.88623], [34.39225, -16.31381], [35.02142, -16.86402], [35.10967, -17.17812], [35.2989, -17.15828], [35.21136, -16.57694], [35.36713, -16.20796], [35.76476, -16.10045], [35.85363, -15.49703], [35.93067, -14.63977], [35.08398, -13.78589]], [[33.11529, -14.1197], [33.11493, -14.11984]], [[34.15576, 4.3297], [34.1557, 4.32984]], [[33.9254, 0.31278], [34.5186, 1.20083], [34.84658, 1.36175], [35.09303, 1.99141], [34.95931, 2.72999], [34.71502, 2.98348], [34.56377, 3.35349], [34.58712, 3.78959], [34.35255, 3.87497], [34.15576, 4.3297]], [[36.17468, 4.69406], [35.73435, 4.7013], [35.52987, 5.1087], [34.56439, 4.7148], [34.15576, 4.3297]], [[33.89102, -0.95018], [34.8696, -1.44966], [35.88963, -1.99545], [36.89026, -2.54608], [37.87378, -3.09927], [37.90725, -3.36312], [37.77944, -3.51766], [37.93977, -3.59246], [38.02589, -3.7418], [38.76238, -4.25007], [39.44342, -4.72962]], [[34.99179, 29.25195], [34.90407, 29.54935], [34.71816, 29.93797], [34.34143, 30.68591], [34.16806, 31.04512]], [[35.0098, -11.58241], [35.66774, -11.55857], [35.90107, -11.38129], [36.26459, -11.53841], [36.27888, -11.65625], [36.72829, -11.67648], [36.93911, -11.50152], [37.1426, -11.5129], [37.24245, -11.59504], [37.57716, -11.672], [37.92925, -11.47965], [37.98277, -11.25823], [38.24395, -11.16967], [38.58019, -11.3201], [38.97291, -11.08423], [39.32833, -11.07399], [39.78589, -10.82856], [40.15396, -10.56756], [40.37599, -10.47125]], [[36.98853, 14.55271], [36.85031, 13.93109], [36.54124, 12.98795], [36.14847, 12.89768], [35.48499, 11.97217], [35.39499, 11.08355], [35.20778, 10.91582], [35.01402, 11.10732], [34.70582, 10.80287], [34.76218, 10.45993], [34.47256, 9.76133], [34.47294, 8.7707], [34.0964, 8.55193], [33.94884, 8.65485], [33.52671, 8.60556], [33.48226, 8.3158], [33.28825, 8.09467], [33.40129, 7.94114], [33.97015, 7.85378], [34.32881, 7.54523], [34.40331, 7.30613], [35.00417, 6.75697], [35.51257, 5.51443], [36.04814, 5.42164], [35.98006, 4.91643], [36.17474, 4.69402]], [[43.32629, 12.78567], [43.06461, 12.67725], [42.98432, 12.48415], [42.85473, 12.42464], [42.56445, 12.49704], [42.28171, 12.08842], [42.0005, 11.69135], [41.98538, 10.99395], [42.25813, 10.97882], [42.59521, 11.01854], [42.88489, 11.11333], [42.95084, 11.01802], [43.11273, 11.02784], [42.8412, 10.6312], [43.12389, 10.15464], [43.38798, 9.92452], [43.4899, 9.6203], [43.72284, 9.38473], [43.85414, 9.3521], [44.20465, 9.01034], [44.95059, 8.75099], [47.1932, 7.95308], [47.67864, 7.92547], [47.78282, 7.55282], [47.00119, 6.77012], [46.2364, 5.9982], [45.10916, 4.819], [44.13192, 4.87882], [43.47008, 4.66917], [43.15553, 4.4218], [43.10483, 4.254], [42.31767, 4.13632], [42.13612, 3.95471], [41.38174, 3.93853], [40.98852, 4.24909], [40.11069, 3.86572], [39.79306, 3.43543], [38.89075, 3.65727], [38.35078, 3.65238], [37.03371, 4.54262], [36.3909, 4.57192], [36.17485, 4.69401]], [[36.98853, 14.55271], [36.98839, 14.55273]], [[42.56458, 12.49705], [42.30334, 12.82601], [42.17247, 12.87081], [41.97976, 13.20129], [41.41766, 13.53464], [41.00725, 14.09023], [40.2471, 14.48887], [39.89482, 14.52464], [39.53941, 14.55581], [39.41509, 14.73067], [38.86879, 14.54332], [38.30273, 15.03508], [37.97194, 14.29221], [37.7057, 14.663], [37.48209, 14.49187], [36.98853, 14.55271]], [[38.76361, 18.02095], [38.60178, 17.66222], [38.02355, 17.62797], [37.82725, 17.26416], [37.44453, 17.33525], [37.41188, 16.53116], [36.90209, 15.45422], [36.98853, 14.55271]], [[42.1362, 3.95468], [41.55997, 3.12919], [41.21489, 2.81835], [41.21945, 1.51214], [41.22805, 0.64417], [41.24496, -0.22809], [41.25953, -0.67236], [41.33703, -1.00316], [41.61387, -1.376], [41.87634, -1.74531]], [[49.16132, 11.04147], [49.20729, 10.84925], [49.26237, 10.6595], [49.32621, 10.47244], [49.39851, 10.28838], [49.47898, 10.10763], [49.56733, 9.93058], [49.66325, 9.75765], [49.76637, 9.58934], [48.78739, 8.60826], [48.30048, 8.10377], [47.8187, 7.59244], [47.8074, 7.71601]], [[29.31645, -29.2219], [29.48442, -29.4585], [29.19635, -29.79153], [29.19548, -30.05587], [28.8316, -30.24442], [28.29734, -30.44203], [28.17112, -30.84445], [27.85903, -30.79755], [27.42058, -30.47655], [26.94272, -29.90932], [27.3108, -29.70797], [27.65403, -29.17813], [28.6001, -28.77438], [29.31645, -29.2219]], [[31.26835, -25.83944], [31.94262, -25.99177], [32.06265, -26.1085], [32.06843, -26.79598], [31.98648, -26.91387], [31.97697, -27.26964], [31.38453, -27.30922], [31.05624, -27.15431], [30.757, -26.88433], [30.74587, -26.48601], [31.26835, -25.83944]]]}}]}