{"type": "FeatureCollection", "features": [{"type": "Feature", "properties": {"name": "로디지아", "name_en": "Rhodesia", "period": "1914년", "kind": "식민지", "level": "개별 지역", "colonizer": "영국령", "legend": "로디지아", "map_title": "아프리카의 저항 운동", "source": "미래엔 세계사 교과서 3권 173쪽", "volume": 3, "page": 173, "coast_snap": "Natural Earth 10m 해안선에 맞춤", "border_snap": "현대 국경(Natural Earth 10m)에 맞춘 구간 약 3788 km"}, "geometry": {"type": "Polygon", "coordinates": [[[21.25735, -17.00927], [21.13556, -16.53931], [21.13041, -16.49329], [21.16715, -15.26784], [21.22356, -13.6195], [21.22809, -13.5851], [21.23918, -13.55184], [21.25674, -13.52067], [21.2927, -13.4821], [21.33783, -13.45528], [21.38826, -13.44252], [21.98018, -13.44083], [21.98017, -13.43177], [22.40087, -13.43097], [23.2477, -13.41817], [23.25154, -13.00148], [23.24289, -12.5825], [23.23443, -12.55046], [23.2335, -12.50144], [23.30914, -11.88431], [23.31866, -11.8536], [23.3431, -11.80653], [23.37697, -11.76725], [23.40539, -11.7467], [23.43763, -11.73166], [23.47144, -11.72318], [23.50548, -11.72126], [23.54017, -11.72604], [23.95464, -11.66223], [23.98131, -11.72476], [24.31007, -11.40664], [24.35172, -11.40705], [24.37022, -11.41016], [24.39255, -11.42338], [24.42645, -11.45408], [24.4465, -11.46359], [24.46965, -11.46555], [24.49094, -11.46152], [24.53269, -11.44612], [24.56473, -11.44467], [24.64088, -11.84542], [24.86639, -12.12882], [25.1709, -12.15172], [25.20923, -12.15858], [25.24547, -12.17351], [25.42024, -12.26779], [25.83645, -12.25966], [26.11493, -12.34976], [26.14768, -12.33431], [26.22959, -11.93312], [26.26556, -11.93085], [26.28623, -11.94056], [26.29801, -11.94118], [26.33915, -11.91896], [26.37635, -11.91286], [26.41459, -11.91183], [26.43836, -11.91906], [26.48911, -11.96082], [26.52487, -11.97229], [26.6059, -11.97777], [26.64352, -11.98552], [26.6798, -12.0096], [26.69706, -12.01746], [26.71742, -12.01301], [26.73256, -11.99834], [26.74419, -11.98118], [26.75938, -11.96867], [26.83173, -11.97333], [26.85268, -11.96889], [26.94445, -12.37789], [26.9975, -12.52504], [27.16992, -12.61947], [27.27896, -12.6015], [27.33262, -12.60669], [27.36624, -12.6182], [27.39662, -12.63567], [27.46024, -12.69615], [27.79369, -12.72639], [27.83049, -12.73704], [27.87764, -12.76488], [27.91358, -12.80555], [28.13511, -13.15795], [28.26253, -13.20353], [28.30537, -13.23026], [28.32906, -13.25466], [28.34682, -13.28235], [28.55171, -13.6804], [28.67613, -13.66797], [28.99397, -13.39592], [28.95036, -13.35097], [28.93413, -13.30963], [28.90343, -13.1623], [28.89186, -13.14731], [28.88271, -13.14359], [28.86323, -13.14266], [28.85367, -13.13708], [28.84421, -13.10235], [28.82974, -13.09718], [28.82582, -13.09284], [28.82551, -13.06783], [28.83088, -13.05181], [28.80944, -13.03838], [28.8006, -13.00241], [28.79336, -12.99156], [28.77569, -12.97657], [28.70799, -12.88975], [28.66789, -12.84934], [28.62118, -12.83942], [28.60816, -12.8479], [28.59369, -12.87673], [28.58397, -12.88872], [28.56847, -12.89554], [28.55338, -12.89492], [28.54284, -12.88562], [28.53943, -12.83384], [28.52361, -12.81017], [28.5016, -12.78847], [28.48093, -12.76211], [28.474, -12.73648], [28.48398, -12.72222], [28.50015, -12.71095], [28.51162, -12.69442], [28.5123, -12.66837], [28.50201, -12.64956], [28.46827, -12.61463], [28.45592, -12.5921], [28.43643, -12.5428], [28.42274, -12.5213], [28.33975, -12.45051], [28.32249, -12.4411], [28.30368, -12.43542], [28.28383, -12.43407], [28.23753, -12.43707], [28.20498, -12.41082], [28.18575, -12.40245], [28.16074, -12.40875], [28.14596, -12.42312], [28.13128, -12.42921], [28.107, -12.4102], [28.09687, -12.38302], [28.08767, -12.37754], [28.01403, -12.37051], [27.98101, -12.37454], [27.95869, -12.36782], [27.94845, -12.32142], [27.93388, -12.30333], [27.87704, -12.26995], [27.85668, -12.2624], [27.83141, -12.25992], [27.85888, -11.84209], [27.8557, -11.7929], [27.86758, -11.74372], [27.94158, -11.56116], [28.35566, -11.51816], [28.35442, -11.46473], [28.35701, -11.44695], [28.40858, -11.37243], [28.43959, -11.34825], [28.43199, -11.31104], [28.43618, -11.28913], [28.45509, -11.2637], [28.47369, -11.22567], [28.47369, -11.18123], [28.48734, -11.15343], [28.47679, -11.07798], [28.49095, -11.05865], [28.50785, -11.02362], [28.50785, -10.98207], [28.53136, -10.95509], [28.54718, -10.91375], [28.54945, -10.85856], [28.55365, -10.83864], [28.15048, -10.7389], [28.09621, -10.51266], [28.09171, -10.47866], [28.09406, -10.44545], [28.17183, -9.98618], [27.93453, -9.62838], [27.91758, -9.57797], [27.91554, -9.54282], [27.92073, -9.50837], [27.94187, -9.45906], [27.96836, -9.42794], [28.35246, -9.27199], [28.3723, -9.23509], [28.41509, -9.20708], [28.5062, -9.1644], [28.59906, -9.09639], [28.76541, -8.93403], [28.8931, -8.76577], [28.93046, -8.67988], [28.93547, -8.59079], [28.89279, -8.50191], [28.88917, -8.4831], [28.91527, -8.47287], [30.2595, -8.26889], [30.3346, -8.67272], [30.41977, -8.71203], [30.44509, -8.71845], [30.46759, -8.71168], [30.52305, -8.67975], [30.86591, -8.44199], [30.89189, -8.47917], [30.95954, -8.55049], [30.99235, -8.57591], [31.03364, -8.6003], [31.07782, -8.61632], [31.11984, -8.61663], [31.18268, -8.58077], [31.20676, -8.58077], [31.21844, -8.58872], [31.23735, -8.61394], [31.24805, -8.6219], [31.26091, -8.62397], [31.34752, -8.59245], [31.35331, -8.58718], [31.3622, -8.59234], [31.36592, -8.59865], [31.37264, -8.62386], [31.38597, -8.63255], [31.42752, -8.63348], [31.44323, -8.64154], [31.46472, -8.66614], [31.48064, -8.67616], [31.51909, -8.68701], [31.53904, -8.70355], [31.54596, -8.72897], [31.54586, -8.76629], [31.55335, -8.80907], [31.57645, -8.83967], [31.67267, -8.91305], [31.68962, -8.91956], [31.70978, -8.91966], [31.73024, -8.91243], [31.76434, -8.89413], [31.7876, -8.89217], [31.93663, -8.93258], [31.91782, -8.9731], [31.91772, -9.0225], [31.93808, -9.06177], [31.98056, -9.0719], [32.03172, -9.04596], [32.05725, -9.04958], [32.09642, -9.06911], [32.13414, -9.06415], [32.15481, -9.07521], [32.19161, -9.11221], [32.21129, -9.12678], [32.23145, -9.13381], [32.25274, -9.1365], [32.38301, -9.13391], [32.42343, -9.14383], [32.4597, -9.16802], [32.47066, -9.18187], [32.49009, -9.22734], [32.50446, -9.24925], [32.51805, -9.25824], [32.55561, -9.26124], [32.6416, -9.27985], [32.71323, -9.28584], [32.72584, -9.29256], [32.73969, -9.30734], [32.74651, -9.32997], [32.75229, -9.33741], [32.75963, -9.34], [32.78433, -9.33969], [32.83074, -9.37018], [32.84164, -9.37426], [32.92303, -9.46629], [32.92779, -9.47983], [32.9375, -9.48779], [32.95027, -9.48087], [32.9619, -9.48035], [32.99197, -9.50185], [32.99238, -9.52913], [32.97471, -9.60127], [32.98691, -9.62845], [33.00014, -9.6328], [33.02225, -9.62029], [33.03574, -9.61698], [33.04675, -9.62205], [33.05832, -9.65429], [33.08044, -9.66225], [33.08922, -9.64396], [33.09832, -9.58846], [33.12147, -9.59952], [33.17542, -9.60231], [33.19542, -9.61626], [33.21428, -9.65471], [33.21578, -9.6699], [33.20457, -9.69812], [33.20725, -9.71289], [33.21671, -9.72705], [33.24177, -9.74235], [33.25273, -9.75403], [33.2672, -9.78121], [33.28777, -9.80384], [33.33696, -9.82369], [33.34347, -9.83144], [33.35918, -9.87092], [33.36559, -9.89883], [33.35846, -9.91991], [33.3288, -9.96549], [33.30999, -10.01272], [33.30472, -10.03794], [33.3041, -10.06378], [33.31753, -10.08207], [33.39918, -10.11793], [33.45458, -10.16806], [33.48052, -10.17705], [33.49912, -10.20124], [33.51897, -10.21498], [33.53328, -10.23121], [33.53561, -10.26273], [33.5293, -10.31865], [33.53292, -10.34262], [33.55917, -10.40433], [33.56765, -10.416], [33.6032, -10.44918], [33.62273, -10.49403], [33.63818, -10.5116], [33.66542, -10.51512], [33.66557, -10.54137], [33.67265, -10.55956], [33.6742, -10.57703], [33.65777, -10.60132], [33.6031, -10.64328], [33.57695, -10.65764], [33.52827, -10.71159], [33.51199, -10.7518], [33.50098, -10.76916], [33.48052, -10.78156], [33.46533, -10.78435], [33.44714, -10.80223], [33.43401, -10.80813], [33.38554, -10.80089], [33.31908, -10.81815], [33.30689, -10.82859], [33.28813, -10.8567], [33.2734, -10.86559], [33.25077, -10.86249], [33.24141, -10.86569], [33.23258, -10.88326], [33.2317, -10.89763], [33.2396, -10.90311], [33.26586, -10.90114], [33.28033, -10.91334], [33.28787, -10.94486], [33.29397, -11.00449], [33.30368, -11.03457], [33.3181, -11.06227], [33.3366, -11.08738], [33.35887, -11.1094], [33.39091, -11.16479], [33.38223, -11.19466], [33.36848, -11.22267], [33.29831, -11.32923], [33.29893, -11.3531], [33.27805, -11.36427], [33.2735, -11.36964], [33.27361, -11.40943], [33.26518, -11.42307], [33.23971, -11.4024], [33.2303, -11.41656], [33.23382, -11.51403], [33.21263, -11.56384], [33.21594, -11.57159], [33.23268, -11.57769], [33.26689, -11.57562], [33.28322, -11.57841], [33.29676, -11.59361], [33.30265, -11.60973], [33.31402, -11.7722], [33.31061, -11.80879], [33.29738, -11.84651], [33.29748, -11.86253], [33.31267, -11.8987], [33.30358, -11.93023], [33.29423, -11.98128], [33.2549, -12.07265], [33.25128, -12.10582], [33.25273, -12.13952], [33.26027, -12.15574], [33.29996, -12.19595], [33.31247, -12.22861], [33.33014, -12.29827], [33.34947, -12.32793], [33.38461, -12.34002], [33.4583, -12.31811], [33.49737, -12.33155], [33.51411, -12.33103], [33.52558, -12.33527], [33.52713, -12.35563], [33.51814, -12.37175], [33.48775, -12.38984], [33.48052, -12.40637], [33.46533, -12.40906], [33.46078, -12.4165], [33.45995, -12.4411], [33.45112, -12.45299], [33.42078, -12.46497], [33.37324, -12.51851], [33.3504, -12.53267], [33.32828, -12.53763], [33.30224, -12.52513], [33.28973, -12.5242], [33.25511, -12.53195], [33.24363, -12.54476], [33.227, -12.57908], [33.18731, -12.60233], [33.17325, -12.62], [33.16302, -12.62042], [33.1469, -12.59323], [33.13992, -12.58631], [33.13036, -12.58373], [33.107, -12.58869], [33.08127, -12.60481], [33.06463, -12.58497], [33.0577, -12.58342], [33.04954, -12.58683], [33.02484, -12.61267], [32.99414, -12.67251], [32.95807, -12.72522], [32.94464, -12.7524], [32.94112, -12.76986], [32.94701, -12.84325], [32.95352, -12.8541], [32.9805, -12.87074], [33.00504, -12.89296], [33.01357, -12.91725], [33.00892, -12.94505], [32.98153, -13.00613], [32.96593, -13.11682], [32.9713, -13.15093], [32.97905, -13.16788], [32.99507, -13.19087], [32.99817, -13.20245], [32.9928, -13.2164], [32.96272, -13.22498], [32.93786, -13.25588], [32.91962, -13.29485], [32.89213, -13.40481], [32.87425, -13.44316], [32.84583, -13.45804], [32.82743, -13.46083], [32.81906, -13.47168], [32.81751, -13.50558], [32.81307, -13.52822], [32.80004, -13.5371], [32.7632, -13.54248], [32.72284, -13.57338], [32.71023, -13.57535], [32.67726, -13.5678], [32.66765, -13.57555], [32.66331, -13.59633], [32.67509, -13.62806], [32.70672, -13.63508], [32.74341, -13.63539], [32.76987, -13.64687], [32.80779, -13.69916], [32.81338, -13.71115], [32.80485, -13.722], [32.76811, -13.73906], [32.75736, -13.75022], [32.76304, -13.77719], [32.79188, -13.7898], [32.82878, -13.79704], [32.85942, -13.8081], [32.87415, -13.8206], [32.92391, -13.88044], [32.93616, -13.92623], [32.88289, -14.12048], [32.22737, -14.33902], [32.14706, -14.35339], [32.10877, -14.36486], [32.03327, -14.39876], [31.65841, -14.51958], [31.49666, -14.60257], [31.41088, -14.63358], [31.07446, -14.71305], [31.05658, -14.7144], [30.81577, -14.76824], [30.48556, -14.88596], [30.31844, -14.96699], [30.21447, -14.98146], [30.22098, -15.01836], [30.22098, -15.06301], [30.22583, -15.10631], [30.23282, -15.12971], [29.83733, -15.61481], [29.81428, -15.61967], [29.77325, -15.63806], [29.73005, -15.64468], [29.67279, -15.66328], [29.64851, -15.66659], [29.58722, -15.65574], [29.56345, -15.66214], [29.52624, -15.69284], [29.50846, -15.70359], [29.40697, -15.71423], [29.18631, -15.81283], [29.15096, -15.8488], [29.14187, -15.85448], [29.12172, -15.85934], [29.08616, -15.88456], [29.07634, -15.89541], [29.05505, -15.93437], [29.04234, -15.94626], [29.01805, -15.9506], [28.97278, -15.95143], [28.95129, -15.95525], [28.93237, -15.96373], [28.89889, -15.99546], [28.87718, -16.02202], [28.86034, -16.04941], [28.85724, -16.06047], [28.8593, -16.06956], [28.87098, -16.08723], [28.8654, -16.12124], [28.85248, -16.16278], [28.84711, -16.20268], [28.86416, -16.2312], [28.84029, -16.28474], [28.83677, -16.30634], [28.84049, -16.3236], [28.85703, -16.36546], [28.85724, -16.3882], [28.82912, -16.4346], [28.82251, -16.47078], [28.80887, -16.48628], [28.76928, -16.51522], [28.76112, -16.53227], [28.73285, -16.55811], [28.69073, -16.56028], [28.6433, -16.56875], [28.28011, -16.70652], [28.21252, -16.74859], [28.11392, -16.82755], [27.86856, -16.92966], [27.81689, -16.95964], [27.7773, -17.00118], [27.64119, -17.19848], [27.62486, -17.23331], [27.6045, -17.31279], [27.57731, -17.36312], [27.52429, -17.41511], [27.42208, -17.50482], [27.15708, -17.7693], [27.14695, -17.78387], [27.1453, -17.79411], [27.14902, -17.84248], [27.11543, -17.88216], [27.04846, -17.94428], [27.02127, -17.95854], [27.00629, -17.96268], [26.95916, -17.96474], [26.91203, -17.99203], [26.88826, -17.98459], [26.794, -18.02624], [26.75359, -18.03295], [26.74057, -18.0405], [26.71194, -18.06582], [26.7, -18.06923], [26.68569, -18.06675], [26.62884, -18.04918], [26.61272, -18.04122], [26.37878, -18.38651], [26.16522, -18.46007], [25.76192, -18.63034], [25.73691, -18.60873], [25.69826, -18.59023], [25.66952, -18.56605], [25.62208, -18.50114], [25.60844, -18.48771], [25.57444, -18.46569], [25.5085, -18.39913], [25.49052, -18.36554], [25.48116, -18.32338], [25.4732, -18.30343], [25.44086, -18.2532], [25.40882, -18.17599], [25.38752, -18.13899], [25.35745, -18.11584], [25.32345, -18.09662], [25.29637, -18.06861], [24.9294, -18.28636], [24.57455, -18.05042], [24.50562, -18.06034], [24.47151, -18.02996], [24.46975, -18.01445], [24.45104, -17.99895], [24.43389, -17.96722], [24.42159, -17.95647], [24.36526, -17.95079], [24.35059, -17.95606], [24.33426, -17.97156], [24.30583, -18.01942], [24.29643, -18.02624], [24.25922, -18.0126], [24.23824, -18.00991], [24.21829, -18.01259], [24.18305, -18.02944], [24.1351, -18.08546], [24.10161, -18.10882], [24.05696, -18.11905], [24.02027, -18.1516], [23.99174, -18.16339], [23.97965, -18.17186], [23.97118, -18.18385], [23.96198, -18.17786], [23.95082, -18.17765], [23.91599, -18.20121], [23.91289, -18.23573], [23.85522, -18.28007], [23.83723, -18.30581], [23.82555, -18.31707], [23.80984, -18.32172], [23.71579, -18.41908], [23.70091, -18.42797], [23.68014, -18.43148], [23.65647, -18.45825], [23.64541, -18.466], [23.60986, -18.47768], [23.59218, -18.4782], [23.57916, -18.46786], [23.57131, -18.42601], [23.55549, -18.38311], [23.5466, -18.36947], [23.56076, -18.34849], [23.55146, -18.32751], [23.5188, -18.29371], [23.52728, -18.27769], [23.5217, -18.26819], [23.51126, -18.26033], [23.50154, -18.23749], [23.46413, -18.2255], [23.44428, -18.2007], [23.4294, -18.1885], [23.41886, -18.19842], [23.39581, -18.1914], [23.39581, -18.16339], [23.35954, -18.11915], [23.34806, -18.09445], [23.3338, -18.07399], [23.3338, -18.04329], [23.3306, -18.03998], [23.31592, -18.03709], [23.31272, -18.02996], [23.31148, -18.0098], [23.29277, -17.99895], [23.25494, -17.9974], [22.98137, -18.02004], [22.39882, -18.12816], [22.32789, -17.83967], [21.9012, -17.91817], [21.81003, -17.51694], [21.30898, -17.09192], [21.28638, -17.06809], [21.2696, -17.04144], [21.25735, -17.00927]]]}}]}