{"type": "FeatureCollection", "features": [{"type": "Feature", "properties": {"name": "프랑스령 콩고", "name_en": "French Congo", "period": "1914년", "kind": "식민지", "level": "개별 지역", "colonizer": "프랑스령", "legend": "프랑스령 콩고", "map_title": "아프리카의 저항 운동", "source": "미래엔 세계사 교과서 3권 173쪽", "volume": 3, "page": 173, "coast_snap": "Natural Earth 10m 해안선에 맞춤", "border_snap": "현대 국경(Natural Earth 10m)에 맞춘 구간 약 1928 km"}, "geometry": {"type": "MultiPolygon", "coordinates": [[[[8.71655, -0.57293], [8.70769, -0.59222], [8.7186, -0.60084], [8.75081, -0.60712], [8.74545, -0.62225], [8.75082, -0.63388], [8.77242, -0.63342], [8.78742, -0.65788], [8.806, -0.7483], [8.81568, -0.76002], [8.8374, -0.77159], [8.84441, -0.80023], [8.86069, -0.80511], [8.8519, -0.78802], [8.85287, -0.77125], [8.86607, -0.71951], [8.91456, -0.72324], [8.91456, -0.7164], [8.89474, -0.70394], [8.88783, -0.69348], [8.88796, -0.68158], [8.89528, -0.67507], [8.90496, -0.67589], [8.92904, -0.68728], [8.94636, -0.71821], [8.95704, -0.75351], [8.99317, -0.78721], [9.00465, -0.80511], [9.00514, -0.82529], [8.99822, -0.86045], [9.00465, -0.87461], [9.01149, -0.87461], [9.0184, -0.79492], [9.02378, -0.7763], [9.04762, -0.75018], [9.05299, -0.73366], [9.05201, -0.71063], [9.06497, -0.69913], [9.08717, -0.68963], [9.08933, -0.65983], [9.10084, -0.65488], [9.11451, -0.68157], [9.11248, -0.6583], [9.09255, -0.62566], [9.10085, -0.59971], [9.16, -0.54681], [9.178, -0.51084], [9.26743, -0.41237], [9.29217, -0.37371], [9.30649, -0.33229], [9.30568, -0.20306], [9.3357, -0.1373], [9.3405, -0.11712], [9.34669, -0.07269], [9.33303, -0.03789], [9.33414, -0.02559], [9.33737, -0.01326], [9.35532, 0.01618], [9.3467, 0.0406], [9.31023, 0.25129], [9.29885, 0.28352], [9.3091, 0.32452], [9.34539, 0.35577], [9.35621, 0.35862], [9.36589, 0.35154], [9.37451, 0.33201], [9.37866, 0.30756], [9.36704, 0.25007], [9.37386, 0.21919], [9.35841, 0.21166], [9.3602, 0.1811], [9.38038, 0.20539], [9.42451, 0.20808], [9.43458, 0.19213], [9.46078, 0.16648], [9.47005, 0.14704], [9.47348, 0.1092], [9.48805, 0.09833], [9.49496, 0.09846], [9.49806, 0.1092], [9.49365, 0.16978], [9.50425, 0.18796], [9.56641, 0.16746], [9.58025, 0.12177], [9.58676, 0.11229], [9.62843, 0.15378], [9.64356, 0.15301], [9.65235, 0.14687], [9.66261, 0.12653], [9.71241, 0.13482], [9.74887, 0.09785], [9.77955, 0.04946], [9.81218, 0.02351], [9.77556, 0.0904], [9.76126, 0.10918], [9.75857, 0.12555], [9.77809, 0.13446], [9.80388, 0.13324], [9.81959, 0.11909], [9.83188, 0.12678], [9.86118, 0.16127], [9.90895, 0.18797], [9.92506, 0.18768], [9.97047, 0.17365], [10.02565, 0.18797], [10.02565, 0.19546], [9.97544, 0.19433], [9.95604, 0.19996], [9.93629, 0.21597], [9.88266, 0.19042], [9.80543, 0.1857], [9.79225, 0.18111], [9.74725, 0.19645], [9.71144, 0.22321], [9.6797, 0.22216], [9.66896, 0.22725], [9.58644, 0.28364], [9.57212, 0.29833], [9.56642, 0.3183], [9.55958, 0.31831], [9.54819, 0.30257], [9.53566, 0.30467], [9.49806, 0.29097], [9.49009, 0.30244], [9.48414, 0.33808], [9.45933, 0.35994], [9.41139, 0.46992], [9.39869, 0.48872], [9.37086, 0.52009], [9.35222, 0.52924], [9.31903, 0.52864], [9.30568, 0.54426], [9.30886, 0.614], [9.31593, 0.62616], [9.37024, 0.63714], [9.45771, 0.61635], [9.4718, 0.61028], [9.46404, 0.59886], [9.4841, 0.605], [9.54482, 0.5689], [9.58369, 0.53512], [9.57325, 0.51008], [9.58277, 0.48163], [9.59083, 0.47289], [9.60792, 0.46918], [9.6037, 0.50536], [9.61267, 0.52637], [9.80238, 0.53843], [9.9263, 0.92754], [9.94408, 0.92485], [9.95999, 0.92837], [10.10773, 0.54622], [10.1576, 0.53166], [10.19018, 0.51678], [10.24979, 0.47793], [10.30122, 0.42735], [10.32278, 0.39862], [10.35671, 0.33583], [10.37779, 0.26712], [10.38377, 0.22679], [10.39323, 0.22079], [10.93578, 0.28099], [11.62617, 0.37886], [12.31162, 0.49543], [12.99325, 0.63083], [13.67803, 0.7871], [13.76308, 0.80911], [14.07597, 0.53945], [14.12547, 0.54617], [14.18159, 0.53986], [14.23182, 0.54255], [14.25094, 0.55185], [14.32877, 0.6212], [14.33538, 0.6426], [14.33838, 0.69391], [14.36732, 0.73551], [14.41341, 0.77504], [14.44762, 0.81623], [14.4376, 0.87514], [14.46623, 0.89964], [14.46809, 0.91323], [14.83987, 1.1027], [15.35571, 1.25218], [15.47169, 1.27861], [15.5827, 1.29771], [15.69392, 1.30917], [15.80538, 1.31143], [15.85168, 1.30827], [16.06985, 1.65455], [16.11996, 1.24785], [16.13618, 1.24244], [16.23707, 1.19108], [16.3203, 1.13397], [16.40114, 1.0586], [16.47549, 0.9569], [16.51563, 0.87394], [16.54577, 0.75557], [16.5737, 0.56191], [16.59022, 0.4975], [16.61097, 0.44576], [16.64088, 0.40243], [16.67706, 0.37637], [16.73551, 0.36647], [16.85838, 0.58357], [16.96813, 0.81468], [17.06521, 1.05754], [17.14557, 1.30212], [17.20915, 1.5449], [17.25962, 1.80201], [17.29298, 2.05681], [17.33103, 2.57733], [17.37628, 2.82056], [17.43827, 3.00894], [17.45233, 3.04102], [17.55036, 3.21434], [17.6204, 3.62732], [17.70913, 3.62642], [17.73321, 3.63221], [17.75595, 3.61451], [17.79316, 3.61751], [17.80835, 3.60859], [17.82116, 3.59399], [17.83057, 3.57567], [17.84215, 3.54015], [17.85641, 3.53731], [17.87532, 3.54273], [17.91925, 3.5656], [17.96948, 3.53751], [17.98188, 3.5388], [18.01309, 3.55397], [18.04709, 3.56314], [18.08203, 3.56345], [18.11644, 3.55201], [18.13401, 3.53482], [18.14673, 3.4949], [18.15985, 3.48031], [18.18156, 3.47739], [18.20254, 3.48733], [18.22, 3.50395], [18.23158, 3.52116], [18.24853, 3.5749], [18.25587, 3.57722], [18.27592, 3.57438], [18.3556, 3.58146], [18.37989, 3.57438], [18.39229, 3.59585], [18.42061, 3.59637], [18.42971, 3.60022], [18.45906, 3.63138], [18.47208, 3.63205], [18.49709, 3.61146], [18.51342, 3.59224], [18.55435, 3.52637], [18.57027, 3.48961], [18.63893, 3.27921], [18.63114, 3.17898], [18.61967, 3.14477], [18.61306, 3.12818], [18.59734, 3.11464], [18.54143, 3.08281], [18.52841, 3.06477], [18.49534, 2.96607], [18.4758, 2.93119], [18.47177, 2.90923], [18.44924, 2.873], [18.42516, 2.82215], [18.41834, 2.78174], [18.39322, 2.71369], [18.31374, 2.57597], [18.30351, 2.57256], [18.24615, 2.51892], [18.23303, 2.50259], [18.22517, 2.48646], [18.21411, 2.42766], [18.19913, 2.38911], [18.18796, 2.37092], [18.17401, 2.33614], [18.16378, 2.32105], [18.14673, 2.31593], [18.1427, 2.3057], [18.11117, 2.26529], [18.07242, 2.16002], [18.08079, 2.08416], [18.07603, 1.98848], [18.08172, 1.94241], [18.07831, 1.90929], [18.06818, 1.87622], [18.06611, 1.85898], [18.07366, 1.57233], [18.07138, 1.55146], [18.01226, 1.42196], [18.00203, 1.36578], [17.967, 1.25372], [17.96338, 1.19145], [17.95625, 1.17166], [17.9148, 1.102], [17.89248, 1.0774], [17.87325, 1.03963], [17.86664, 1.01663], [17.87822, 0.94718], [17.87791, 0.86791], [17.90767, 0.74047], [17.90757, 0.71308], [17.89258, 0.63588], [17.8932, 0.60766], [17.8993, 0.58327], [17.91842, 0.53521], [17.9331, 0.52705], [17.94364, 0.51082], [17.94994, 0.4915], [17.95201, 0.47434], [17.9455, 0.37729], [17.93992, 0.36127], [17.85403, 0.24107], [17.77538, 0.02641], [17.75709, -0.00946], [17.71637, -0.1958], [17.71368, -0.22092], [17.71626, -0.24624], [17.74076, -0.34618], [17.74954, -0.52343], [17.72804, -0.55309], [17.66417, -0.61273], [17.65446, -0.62751], [17.65094, -0.64632], [17.62304, -0.67329], [17.60216, -0.68869], [17.41147, -0.91834], [17.38543, -0.94242], [17.36497, -0.96723], [17.33045, -0.98655], [17.30802, -1.01498], [17.29768, -1.02107], [17.24539, -1.03585], [17.17542, -1.04825], [17.10865, -1.07564], [17.02256, -1.09704], [17.00592, -1.10675], [16.97956, -1.14024], [16.94049, -1.17476], [16.90918, -1.21114], [16.83322, -1.26902], [16.77927, -1.38239], [16.76273, -1.40586], [16.72552, -1.47996], [16.69255, -1.52295], [16.6695, -1.56936], [16.63622, -1.62083], [16.62382, -1.6538], [16.6231, -1.69917], [16.61721, -1.72873], [16.60418, -1.75405], [16.52254, -1.86175], [16.51396, -1.88738], [16.49029, -1.9036], [16.47003, -1.9127], [16.3826, -2.0022], [16.34022, -2.03414], [16.28441, -2.08757], [16.25609, -2.1068], [16.23129, -2.12902], [16.1946, -2.18204], [16.18736, -2.20457], [16.18995, -2.24188], [16.17486, -2.30306], [16.17827, -2.31846], [16.18747, -2.33231], [16.1917, -2.34688], [16.19232, -2.39515], [16.2256, -2.63524], [16.20452, -2.78272], [16.18085, -2.85414], [16.17703, -2.88246], [16.18829, -2.97641], [16.18447, -3.02612], [16.18984, -3.08234], [16.18571, -3.1364], [16.19925, -3.17185], [16.19946, -3.19479], [16.19336, -3.23841], [16.19863, -3.25949], [16.22209, -3.27913], [16.22746, -3.28988], [16.2256, -3.31323], [16.20772, -3.36191], [16.15842, -3.44728], [16.13786, -3.50072], [16.11553, -3.54423], [16.05331, -3.61998], [16.0127, -3.70225], [16.00525, -3.72478], [15.9911, -3.73894], [15.97425, -3.78649], [15.93032, -3.85863], [15.91213, -3.91743], [15.88299, -3.94534], [15.84423, -3.9656], [15.8, -3.97883], [15.71122, -3.99216], [15.56683, -4.03805], [15.54906, -4.04621], [15.53376, -4.05799], [15.52115, -4.0768], [15.49035, -4.1752], [15.45893, -4.21385], [15.42545, -4.23018], [15.38659, -4.24434], [15.20396, -4.33901], [15.18804, -4.37219], [15.09792, -4.49993], [15.07611, -4.52008], [15.02278, -4.54706], [15.00821, -4.57104], [14.931, -4.6469], [14.83117, -4.81505], [14.81546, -4.82797], [14.76843, -4.84823], [14.70218, -4.88957], [14.67273, -4.89991], [14.63449, -4.90363], [14.57506, -4.87365], [14.56214, -4.85588], [14.53248, -4.85619], [14.51987, -4.8413], [14.50147, -4.84068], [14.47005, -4.85216], [14.44948, -4.87396], [14.43729, -4.88017], [14.4007, -4.88626], [14.39646, -4.85588], [14.41259, -4.77816], [14.39967, -4.74932], [14.39905, -4.73754], [14.41093, -4.70106], [14.4069, -4.67604], [14.36577, -4.62726], [14.34996, -4.5669], [14.35078, -4.55905], [14.35895, -4.54458], [14.37476, -4.53021], [14.41259, -4.5145], [14.42458, -4.50231], [14.46654, -4.44805], [14.46974, -4.42934], [14.42861, -4.4004], [14.39274, -4.35276], [14.38572, -4.33291], [14.39347, -4.31317], [14.39533, -4.28971], [14.39285, -4.28175], [14.38706, -4.2771], [14.36856, -4.27845], [14.32546, -4.3018], [14.27999, -4.31276], [14.22221, -4.35978], [14.18469, -4.37746], [14.14635, -4.38986], [14.0584, -4.4005], [14.02109, -4.41539], [13.98987, -4.45797], [13.97179, -4.47161], [13.95494, -4.49187], [13.9445, -4.49807], [13.93458, -4.49848], [13.9044, -4.4898], [13.87629, -4.49166], [13.86709, -4.48929], [13.85614, -4.47967], [13.83288, -4.44123], [13.81045, -4.42665], [13.78999, -4.42459], [13.71496, -4.45301], [13.71103, -4.46448], [13.72178, -4.56101], [13.71816, -4.58034], [13.70261, -4.62075], [13.69909, -4.64266], [13.71248, -4.68566], [13.70586, -4.69434], [13.6901, -4.69113], [13.68193, -4.69537], [13.6778, -4.70633], [13.68059, -4.72472], [13.67532, -4.73175], [13.66654, -4.73268], [13.63398, -4.72565], [13.6131, -4.73919], [13.5914, -4.7794], [13.57073, -4.78591], [13.55863, -4.78043], [13.53889, -4.75997], [13.52618, -4.75428], [13.51471, -4.75594], [13.48226, -4.77485], [13.49238, -4.78353], [13.49642, -4.79211], [13.49352, -4.79965], [13.43079, -4.84337], [13.40319, -4.87686], [13.39265, -4.88533], [13.37136, -4.84172], [13.36412, -4.80689], [13.35875, -4.7948], [13.34934, -4.7856], [13.33456, -4.77754], [13.274, -4.75583], [13.25581, -4.74395], [13.20878, -4.70312], [13.18212, -4.68607], [13.05748, -4.66679], [13.02957, -4.67687], [12.9143, -4.70375], [12.94284, -4.51892], [12.92198, -4.50231], [12.90245, -4.48019], [12.88446, -4.43213], [12.86989, -4.41198], [12.85429, -4.40309], [12.8148, -4.41291], [12.80106, -4.41001], [12.76168, -4.3912], [12.73791, -4.40495], [12.71848, -4.45187], [12.70494, -4.468], [12.67052, -4.49135], [12.65657, -4.50737], [12.63487, -4.54768], [12.62381, -4.55926], [12.6081, -4.56504], [12.4972, -4.5853], [12.42909, -4.60752], [12.4141, -4.60886], [12.38703, -4.60545], [12.37762, -4.61941], [12.37886, -4.6623], [12.37411, -4.68318], [12.32756, -4.7715], [12.49798, -5.04228], [12.46651, -5.05313], [12.44439, -5.05509], [12.43891, -5.07328], [12.4447, -5.09354], [12.16542, -5.2904], [12.13236, -5.23253], [12.12461, -5.18483], [12.06957, -5.11952], [12.02313, -5.04599], [12.0233, -5.03525], [12.06782, -5.04627], [12.07435, -5.05211], [12.08089, -5.07551], [12.10053, -5.08002], [12.11682, -5.06963], [12.12726, -5.05337], [12.12857, -5.03972], [12.13772, -5.0345], [12.13705, -5.015], [12.13248, -5.0059], [12.11288, -5.00201], [12.10505, -5.01307], [12.10373, -5.04883], [12.09786, -5.05403], [12.09067, -5.05078], [12.07959, -5.02023], [12.07175, -5.01763], [12.06652, -5.02673], [12.05673, -5.0274], [12.04496, -5.0209], [12.00961, -5.01962], [11.9806, -4.98957], [11.95786, -4.95192], [11.92026, -4.90643], [11.89574, -4.88264], [11.88624, -4.85524], [11.82037, -4.78499], [11.82407, -4.77237], [11.82996, -4.77354], [11.84332, -4.78878], [11.84842, -4.78604], [11.85314, -4.77392], [11.85037, -4.75284], [11.82407, -4.71868], [11.78164, -4.6804], [11.77692, -4.66788], [11.7777, -4.65771], [11.80132, -4.65794], [11.82016, -4.63728], [11.82462, -4.61477], [11.80641, -4.57712], [11.69298, -4.46349], [11.4979, -4.29404], [11.45059, -4.26472], [11.40141, -4.22136], [11.36476, -4.16277], [11.36215, -4.11981], [11.35825, -4.11191], [11.27018, -4.04172], [11.06997, -3.90861], [11.0213, -3.85781], [11.00571, -3.79314], [10.98976, -3.75742], [10.98463, -3.71461], [10.96378, -3.69149], [10.80766, -3.56293], [10.64644, -3.45191], [10.63836, -3.40691], [10.64894, -3.35174], [10.63543, -3.31365], [10.56998, -3.26652], [10.55302, -3.25868], [10.54911, -3.23909], [10.45259, -3.13328], [10.34698, -3.04449], [9.90245, -2.70042], [9.72523, -2.48152], [9.70348, -2.44306], [9.75026, -2.48724], [9.77182, -2.49831], [9.79493, -2.50091], [9.8086, -2.49228], [9.84008, -2.45675], [9.83009, -2.49277], [9.83326, -2.50514], [9.84254, -2.50058], [9.84749, -2.49149], [9.85027, -2.52842], [9.85874, -2.53883], [9.87428, -2.5325], [9.91781, -2.54999], [9.93262, -2.57285], [9.93629, -2.5945], [9.94313, -2.5945], [9.94858, -2.58027], [9.96363, -2.58709], [9.96485, -2.58172], [9.97046, -2.58027], [9.97731, -2.62868], [9.98414, -2.62103], [10.00123, -2.61436], [10.01139, -2.61501], [10.00807, -2.62908], [10.01197, -2.63242], [10.02076, -2.62851], [10.03956, -2.61321], [10.053, -2.5871], [10.06718, -2.58188], [10.12127, -2.58025], [10.15659, -2.57293], [10.16228, -2.56032], [10.13552, -2.54615], [10.13746, -2.52744], [10.0936, -2.50823], [10.08033, -2.49147], [10.0735, -2.49147], [10.09399, -2.5603], [10.08007, -2.55823], [10.05487, -2.53508], [10.04363, -2.51629], [10.00831, -2.50514], [10.00465, -2.50775], [10.00521, -2.52507], [9.98414, -2.5603], [9.95738, -2.54615], [9.96127, -2.5359], [9.95534, -2.51523], [9.95738, -2.50515], [9.96657, -2.50043], [9.98813, -2.49993], [9.99155, -2.49147], [9.97975, -2.4817], [9.95411, -2.47324], [9.92652, -2.46852], [9.90895, -2.47038], [9.88478, -2.41644], [9.87452, -2.40936], [9.86964, -2.40936], [9.86743, -2.41952], [9.8475, -2.42944], [9.82203, -2.42425], [9.7754, -2.46403], [9.75196, -2.47039], [9.73325, -2.45582], [9.72674, -2.44451], [9.72397, -2.43255], [9.74708, -2.41334], [9.72397, -2.4021], [9.72397, -2.37908], [9.70932, -2.37347], [9.69842, -2.37754], [9.69662, -2.38445], [9.71265, -2.42296], [9.70346, -2.43572], [9.68768, -2.42888], [9.64584, -2.37884], [9.62843, -2.36736], [9.66878, -2.4226], [9.6465, -2.40764], [9.59714, -2.35239], [9.57912, -2.29803], [9.57325, -2.20721], [9.56577, -2.19256], [9.46656, -2.0949], [9.43979, -2.07976], [9.39521, -2.03232], [9.40203, -2.01849], [9.38025, -2.01245], [9.36802, -1.99521], [9.35418, -1.95713], [9.28191, -1.88144], [9.2713, -1.87642], [9.27362, -1.86696], [9.28093, -1.86046], [9.29274, -1.88258], [9.31105, -1.89674], [9.33375, -1.90398], [9.35417, -1.9018], [9.34669, -1.90936], [9.35971, -1.91473], [9.36687, -1.90936], [9.37453, -1.88829], [9.3807, -1.88829], [9.38819, -1.90936], [9.3755, -1.91863], [9.37794, -1.93182], [9.3899, -1.91969], [9.38819, -1.91562], [9.43946, -1.91564], [9.46729, -1.92247], [9.48128, -1.93915], [9.47876, -1.95956], [9.45655, -1.97763], [9.47495, -1.99603], [9.50806, -2.00157], [9.51189, -2.03232], [9.53223, -2.04584], [9.54322, -2.0709], [9.54907, -2.05823], [9.56642, -2.04957], [9.56373, -2.03167], [9.54851, -1.99774], [9.53908, -1.99813], [9.52817, -1.98545], [9.50368, -1.96851], [9.49815, -1.95732], [9.50978, -1.93956], [9.5193, -1.93304], [9.51775, -1.92645], [9.4852, -1.87037], [9.46664, -1.85133], [9.45655, -1.86092], [9.43605, -1.84726], [9.43238, -1.86614], [9.43603, -1.88826], [9.41734, -1.87297], [9.39194, -1.82635], [9.37452, -1.81927], [9.3672, -1.82586], [9.35718, -1.85409], [9.34767, -1.85719], [9.34213, -1.86533], [9.34049, -1.88827], [9.32553, -1.87615], [9.30569, -1.87396], [9.31723, -1.8541], [9.31495, -1.84287], [9.29217, -1.8261], [9.27019, -1.84041], [9.25539, -1.83521], [9.24693, -1.81552], [9.24432, -1.78582], [9.25034, -1.74822], [9.25034, -1.70696], [9.23684, -1.66228], [9.23683, -1.62127], [9.22006, -1.57977], [9.19728, -1.54827], [9.14176, -1.49085], [9.01677, -1.31607], [8.98835, -1.25188], [8.98359, -1.23092], [9.00709, -1.28737], [9.01938, -1.30478], [9.03875, -1.32643], [9.05421, -1.32488], [9.06983, -1.33172], [9.08229, -1.34352], [9.09254, -1.3751], [9.11597, -1.39951], [9.12135, -1.41904], [9.15919, -1.46803], [9.22682, -1.52207], [9.26466, -1.53535], [9.27418, -1.6596], [9.28028, -1.67506], [9.29217, -1.66969], [9.2951, -1.65944], [9.28598, -1.64577], [9.28876, -1.63837], [9.29754, -1.63455], [9.30515, -1.63863], [9.31251, -1.65545], [9.32749, -1.63837], [9.35093, -1.62478], [9.3777, -1.61648], [9.40201, -1.61445], [9.39503, -1.64691], [9.40065, -1.66139], [9.41554, -1.66969], [9.42262, -1.63592], [9.42213, -1.6194], [9.41555, -1.60761], [9.44679, -1.60329], [9.52955, -1.61443], [9.55958, -1.6076], [9.51833, -1.59172], [9.50246, -1.57984], [9.49058, -1.55982], [9.4813, -1.52255], [9.48017, -1.50075], [9.48439, -1.48414], [9.45655, -1.47047], [9.4323, -1.47308], [9.43457, -1.50457], [9.40202, -1.54647], [9.37907, -1.56291], [9.3519, -1.57096], [9.30002, -1.57739], [9.28676, -1.56627], [9.28541, -1.54998], [9.27833, -1.53533], [9.27833, -1.50799], [9.27418, -1.50303], [9.25034, -1.49773], [9.24856, -1.48203], [9.25661, -1.47146], [9.28875, -1.46364], [9.29713, -1.4577], [9.29884, -1.44411], [9.28534, -1.41579], [9.32618, -1.40838], [9.33416, -1.39861], [9.33864, -1.37966], [9.3545, -1.35052], [9.35125, -1.33327], [9.33302, -1.29852], [9.33937, -1.28777], [9.33546, -1.28338], [9.32618, -1.27801], [9.33301, -1.35019], [9.32292, -1.37086], [9.30226, -1.38111], [9.29323, -1.37802], [9.27833, -1.36061], [9.26205, -1.36614], [9.24398, -1.39494], [9.23365, -1.40162], [9.18572, -1.41056], [9.16913, -1.40837], [9.15798, -1.39519], [9.15481, -1.3742], [9.15919, -1.34637], [9.14649, -1.33229], [9.11988, -1.34855], [9.10711, -1.34636], [9.05738, -1.3117], [9.03004, -1.29909], [9.02125, -1.28249], [9.01882, -1.26214], [9.02573, -1.24391], [9.01833, -1.23089], [9.03777, -1.21673], [9.03305, -1.19345], [9.0158, -1.16985], [8.99724, -1.15521], [9.00978, -1.18532], [9.00049, -1.22136], [8.99415, -1.22039], [8.98357, -1.14837], [8.96665, -1.10442], [8.86748, -0.97702], [8.8934, -1.00156], [8.90773, -1.00856], [8.9227, -1.00368], [8.90847, -0.9975], [8.9227, -0.97259], [8.93572, -0.96347], [8.924, -0.95827], [8.8947, -0.97811], [8.87745, -0.97373], [8.85694, -0.91595], [8.83962, -0.92245], [8.82586, -0.87461], [8.76296, -0.75261], [8.74969, -0.69997], [8.71893, -0.66025], [8.69558, -0.5866], [8.70916, -0.56562], [8.71655, -0.57293]]], [[[8.9529, -0.67278], [8.94953, -0.65045], [8.96315, -0.62762], [8.9961, -0.60369], [9.00465, -0.59289], [9.01042, -0.61101], [8.99724, -0.62021], [8.99724, -0.62762], [9.03345, -0.63544], [9.04146, -0.66962], [9.03875, -0.74375], [9.0066, -0.76213], [8.99316, -0.76118], [8.97731, -0.75058], [8.96852, -0.7374], [8.9712, -0.6959], [8.9529, -0.67278]]]]}}]}