{"type": "FeatureCollection", "features": [{"type": "Feature", "properties": {"name": "이집트", "name_en": "Egypt", "period": "1914년", "kind": "식민지", "level": "개별 지역", "colonizer": "영국령", "legend": "이집트", "map_title": "아프리카의 저항 운동", "source": "미래엔 세계사 교과서 3권 173쪽", "volume": 3, "page": 173, "coast_snap": "Natural Earth 10m 해안선에 맞춤", "border_snap": "현대 국경(Natural Earth 10m)에 맞춘 구간 약 2472 km"}, "geometry": {"type": "MultiPolygon", "coordinates": [[[[34.00286, 26.73185], [34.00358, 26.70822], [33.9896, 26.72029], [33.95509, 26.79002], [33.97339, 26.79031], [34.00286, 26.73185]]], [[[24.6205, 31.95736], [24.67258, 32.03201], [24.71062, 32.02558], [24.73373, 32.03314], [24.79176, 32.00776], [24.82439, 32.00299], [24.86541, 31.98932], [24.98169, 31.96791], [25.01791, 31.94904], [25.03336, 31.91633], [25.02223, 31.85468], [25.02955, 31.8369], [25.06392, 31.80387], [25.11686, 31.73798], [25.13673, 31.69257], [25.15625, 31.66307], [25.14943, 31.64887], [25.16179, 31.58356], [25.17286, 31.55158], [25.19093, 31.53148], [25.21258, 31.52635], [25.26343, 31.52366], [25.30209, 31.50654], [25.3685, 31.51226], [25.40187, 31.50316], [25.42041, 31.51224], [25.47389, 31.52049], [25.63648, 31.5607], [25.82407, 31.61493], [25.86883, 31.62091], [25.96652, 31.61662], [26.36215, 31.52192], [26.65041, 31.48878], [26.68312, 31.47622], [26.75318, 31.47748], [26.82472, 31.44782], [26.86573, 31.43684], [26.91163, 31.43651], [26.94793, 31.44822], [26.9655, 31.44964], [26.99643, 31.4287], [27.02702, 31.42226], [27.05437, 31.40864], [27.11736, 31.39045], [27.18529, 31.38429], [27.20997, 31.37811], [27.22625, 31.36766], [27.24611, 31.38128], [27.32748, 31.37921], [27.34228, 31.36823], [27.3423, 31.35399], [27.3623, 31.33051], [27.36378, 31.3155], [27.39356, 31.25471], [27.4463, 31.22321], [27.58774, 31.1931], [27.60987, 31.20318], [27.66033, 31.18024], [27.71949, 31.18928], [27.83547, 31.23785], [27.85287, 31.24029], [27.86328, 31.23354], [27.86844, 31.21956], [27.86988, 31.19977], [27.8903, 31.15542], [27.89715, 31.11441], [27.92693, 31.09903], [27.97511, 31.09308], [28.15455, 31.09332], [28.20387, 31.0705], [28.23386, 31.0734], [28.31837, 31.0598], [28.33863, 31.06411], [28.38209, 31.08274], [28.40496, 31.08648], [28.42432, 31.08343], [28.44244, 31.07628], [28.47853, 31.05183], [28.5276, 31.05011], [28.73247, 30.98414], [28.78777, 30.95966], [28.81202, 30.95676], [28.81803, 30.95115], [28.82887, 30.91519], [28.8357, 30.91079], [28.85456, 30.90585], [29.02809, 30.82705], [29.18922, 30.83324], [29.21892, 30.83804], [29.50327, 30.95669], [29.55633, 30.99091], [29.60377, 31.01203], [29.61867, 31.02927], [29.63997, 31.04264], [29.67783, 31.01416], [29.68866, 31.01372], [29.69412, 31.02179], [29.68657, 31.07186], [29.76596, 31.12157], [29.78151, 31.14792], [29.80934, 31.14232], [29.83839, 31.15412], [29.88461, 31.18952], [29.87566, 31.20087], [29.86356, 31.19637], [29.87697, 31.21356], [29.88477, 31.21376], [29.89088, 31.20319], [29.8982, 31.20319], [29.95623, 31.25006], [29.98316, 31.26325], [30.0033, 31.28723], [30.02508, 31.29487], [30.04908, 31.31306], [30.04169, 31.31548], [30.04226, 31.3205], [30.06958, 31.33346], [30.06666, 31.30488], [30.0949, 31.28559], [30.136, 31.27485], [30.17262, 31.27143], [30.1447, 31.25161], [30.14405, 31.24657], [30.15209, 31.24413], [30.14015, 31.23725], [30.14373, 31.22948], [30.16521, 31.21678], [30.20678, 31.23792], [30.20167, 31.22651], [30.2072, 31.22089], [30.22047, 31.2202], [30.25457, 31.25161], [30.2614, 31.24413], [30.26881, 31.26529], [30.27506, 31.26529], [30.27662, 31.24641], [30.28875, 31.23794], [30.30299, 31.27143], [30.28761, 31.27822], [30.24091, 31.2653], [30.2409, 31.27143], [30.25457, 31.27143], [30.25457, 31.27827], [30.23846, 31.27399], [30.17946, 31.27144], [30.17945, 31.27823], [30.21656, 31.28644], [30.25172, 31.30341], [30.31284, 31.35057], [30.33448, 31.38101], [30.3484, 31.42133], [30.35239, 31.4632], [30.34394, 31.49798], [30.35076, 31.49799], [30.36459, 31.46011], [30.37843, 31.44668], [30.39861, 31.44334], [30.37062, 31.46162], [30.35572, 31.49112], [30.36216, 31.50872], [30.42563, 31.47362], [30.45639, 31.46271], [30.49252, 31.45921], [30.53582, 31.46385], [30.67652, 31.49616], [30.97389, 31.58672], [30.97388, 31.57991], [30.86638, 31.54829], [30.7361, 31.48872], [30.69337, 31.46386], [30.66603, 31.45702], [30.6281, 31.43432], [30.55787, 31.42219], [30.54265, 31.40241], [30.54265, 31.39497], [30.56324, 31.3902], [30.58323, 31.39497], [30.59864, 31.38736], [30.62672, 31.38866], [30.65382, 31.39582], [30.66603, 31.4055], [30.67507, 31.42156], [30.69507, 31.41689], [30.72755, 31.38813], [30.73439, 31.38813], [30.74074, 31.4055], [30.75621, 31.42299], [30.77467, 31.43683], [30.79851, 31.44647], [30.83741, 31.42914], [30.87371, 31.43451], [30.88574, 31.42914], [30.87843, 31.42699], [30.87892, 31.42227], [30.89243, 31.41909], [30.90943, 31.42381], [30.93971, 31.44334], [30.93329, 31.44514], [30.93971, 31.457], [30.97396, 31.44407], [30.98072, 31.43651], [30.99692, 31.45112], [31.00807, 31.47134], [31.00231, 31.47984], [31.02174, 31.49799], [31.0233, 31.51382], [31.02915, 31.51849], [31.07154, 31.51724], [31.09742, 31.50483], [31.10157, 31.4925], [31.11915, 31.49311], [31.12924, 31.50446], [31.11111, 31.51227], [31.13038, 31.51699], [31.11109, 31.53974], [31.07081, 31.56537], [31.0232, 31.58299], [30.97804, 31.5843], [31.01238, 31.5969], [31.09742, 31.60789], [31.12892, 31.60486], [31.22124, 31.57979], [31.37831, 31.51861], [31.41961, 31.49116], [31.52369, 31.44965], [31.55681, 31.44334], [31.59742, 31.44448], [31.7483, 31.48159], [31.83791, 31.52533], [31.87436, 31.53558], [31.91293, 31.53489], [31.94483, 31.52093], [31.9642, 31.48241], [31.99577, 31.44574], [32.00904, 31.41718], [32.02491, 31.40005], [32.05698, 31.37515], [32.10425, 31.36147], [32.12916, 31.33739], [32.19953, 31.29509], [32.16876, 31.30083], [32.07011, 31.35399], [32.08009, 31.35399], [32.09059, 31.34715], [32.08351, 31.35883], [32.05601, 31.36287], [32.04396, 31.37515], [32.0066, 31.39533], [31.99498, 31.39498], [31.98569, 31.42036], [31.9683, 31.4365], [31.9935, 31.43781], [31.91798, 31.52399], [31.8895, 31.53205], [31.87891, 31.51851], [31.86525, 31.52534], [31.86523, 31.51228], [31.85092, 31.5185], [31.84474, 31.49799], [31.86523, 31.49799], [31.85971, 31.48688], [31.875, 31.46332], [31.87208, 31.44961], [31.8789, 31.44961], [31.8789, 31.44335], [31.87208, 31.44334], [31.8789, 31.42915], [31.87208, 31.42914], [31.86207, 31.45059], [31.8379, 31.45702], [31.84164, 31.4645], [31.83041, 31.45881], [31.82423, 31.44334], [31.83375, 31.44379], [31.8379, 31.44961], [31.85841, 31.44334], [31.85841, 31.43651], [31.85092, 31.43651], [31.85483, 31.42316], [31.8789, 31.41608], [31.86166, 31.40763], [31.8379, 31.41608], [31.83855, 31.41083], [31.83041, 31.40864], [31.84472, 31.39497], [31.83074, 31.37979], [31.82789, 31.36835], [31.83692, 31.36188], [31.8584, 31.36147], [31.8584, 31.354], [31.82504, 31.36066], [31.81056, 31.354], [31.80388, 31.36005], [31.79721, 31.35952], [31.79021, 31.34345], [31.80273, 31.33129], [31.79021, 31.32665], [31.79589, 31.31099], [31.76905, 31.29877], [31.76694, 31.28465], [31.7732, 31.27587], [31.78419, 31.27338], [31.7964, 31.27827], [31.79023, 31.28509], [31.82078, 31.27815], [31.82861, 31.27411], [31.83416, 31.25161], [31.86101, 31.24237], [31.88575, 31.22362], [31.89355, 31.24013], [31.90624, 31.25159], [31.90064, 31.23607], [31.90625, 31.22362], [31.89259, 31.22362], [31.89259, 31.21678], [31.90624, 31.21678], [31.89845, 31.20991], [31.89943, 31.20319], [31.91293, 31.21064], [31.91977, 31.20319], [31.91977, 31.21063], [31.9266, 31.21063], [31.92164, 31.19648], [31.92644, 31.187], [31.93474, 31.18757], [31.94027, 31.20318], [31.95192, 31.20458], [31.98658, 31.23028], [32.00925, 31.22362], [31.99497, 31.22362], [31.99497, 31.21678], [32.00929, 31.21064], [32.0228, 31.22361], [32.03711, 31.21678], [32.02963, 31.18952], [32.04394, 31.19634], [32.04036, 31.18232], [32.02963, 31.17585], [32.03688, 31.1503], [32.01612, 31.13491], [32.01612, 31.12808], [32.03517, 31.12971], [32.04396, 31.14175], [32.05013, 31.14174], [32.05454, 31.12299], [32.07007, 31.1144], [32.07007, 31.10693], [32.05258, 31.10078], [32.04396, 31.08649], [32.05698, 31.07966], [32.06683, 31.08499], [32.08378, 31.0844], [32.09059, 31.07966], [32.09059, 31.07345], [32.08375, 31.07343], [32.08375, 31.06599], [32.10646, 31.05337], [32.1198, 31.05292], [32.13209, 31.0598], [32.13209, 31.06599], [32.11744, 31.06631], [32.10744, 31.07283], [32.098, 31.09332], [32.14633, 31.07966], [32.13837, 31.09332], [32.15943, 31.09333], [32.15943, 31.10078], [32.15286, 31.10659], [32.16627, 31.11439], [32.16684, 31.10834], [32.17994, 31.10692], [32.17604, 31.11781], [32.18386, 31.12493], [32.19483, 31.12579], [32.20574, 31.1092], [32.23414, 31.10488], [32.24822, 31.10692], [32.27223, 31.11888], [32.28346, 31.13654], [32.28053, 31.15498], [32.26249, 31.16961], [32.28981, 31.16962], [32.2951, 31.21337], [32.28981, 31.23045], [32.27297, 31.24885], [32.27053, 31.25755], [32.28297, 31.26529], [32.24676, 31.27924], [32.22633, 31.28205], [32.21413, 31.27828], [32.20705, 31.29506], [32.30023, 31.28148], [32.31381, 31.27269], [32.33138, 31.27142], [32.33383, 31.25471], [32.34425, 31.24189], [32.35914, 31.23347], [32.39009, 31.22635], [32.42018, 31.19636], [32.4812, 31.14886], [32.50953, 31.10692], [32.56568, 31.07054], [32.60157, 31.06098], [32.64552, 31.0598], [32.68751, 31.06444], [32.76197, 31.0812], [32.85076, 31.1188], [32.92042, 31.15541], [32.92726, 31.15541], [32.92726, 31.14794], [32.89536, 31.1374], [32.8396, 31.10123], [32.80714, 31.09333], [32.75245, 31.07137], [32.66651, 31.05231], [32.715, 31.05231], [32.71502, 31.04556], [32.70069, 31.03872], [32.73129, 31.03876], [32.74285, 31.04263], [32.74922, 31.05231], [32.75537, 31.0523], [32.7562, 31.04654], [32.76954, 31.04556], [32.83107, 31.07965], [32.88282, 31.09357], [32.89308, 31.10076], [32.91773, 31.09223], [32.9144, 31.08731], [32.90675, 31.08649], [32.90675, 31.07966], [32.91725, 31.08283], [32.94093, 31.09333], [32.94093, 31.10078], [32.91358, 31.10078], [32.9136, 31.10691], [32.92709, 31.11179], [32.94421, 31.10778], [32.95948, 31.09846], [32.96876, 31.08649], [32.97511, 31.06598], [32.96127, 31.06599], [32.99448, 31.05557], [33.00994, 31.0563], [33.02345, 31.06598], [33.02345, 31.07343], [33.00914, 31.07966], [33.00914, 31.0865], [33.05746, 31.10078], [33.05251, 31.1083], [33.0643, 31.13491], [33.05746, 31.13491], [33.03028, 31.11441], [33.02377, 31.10773], [33.03027, 31.10077], [32.99415, 31.09846], [32.95446, 31.10691], [32.98463, 31.10952], [33.03029, 31.16217], [33.07862, 31.17585], [33.09784, 31.19155], [33.10939, 31.19643], [33.12646, 31.19635], [33.12646, 31.18953], [33.09864, 31.18952], [33.09864, 31.18329], [33.1111, 31.17536], [33.15771, 31.11787], [33.15357, 31.11238], [33.12648, 31.10078], [33.12403, 31.10757], [33.11899, 31.10692], [33.11899, 31.10078], [33.13574, 31.09076], [33.14469, 31.07786], [33.1443, 31.06257], [33.13331, 31.04556], [33.18767, 31.06167], [33.22145, 31.0598], [33.22145, 31.06598], [33.20777, 31.07343], [33.20094, 31.07343], [33.20094, 31.06599], [33.19483, 31.06598], [33.19485, 31.07342], [33.2479, 31.09125], [33.26247, 31.10077], [33.26979, 31.10078], [33.26246, 31.09333], [33.26979, 31.08649], [33.28541, 31.09272], [33.29656, 31.07966], [33.30397, 31.07966], [33.30323, 31.0998], [33.31764, 31.10078], [33.30812, 31.10513], [33.27723, 31.10691], [33.38648, 31.11441], [33.37771, 31.13255], [33.40642, 31.13727], [33.40643, 31.15541], [33.42066, 31.14794], [33.44093, 31.15119], [33.46916, 31.13847], [33.49933, 31.07925], [33.52043, 30.99587], [33.52337, 30.92479], [33.53163, 30.91774], [33.72798, 30.91841], [33.80908, 30.92401], [34.30459, 31.06114], [34.32951, 30.99449], [34.48041, 30.65121], [34.50221, 30.57167], [34.50438, 30.53033], [34.51038, 30.51333], [34.53622, 30.48217], [34.53601, 30.46858], [34.5265, 30.43871], [34.52475, 30.42114], [34.52692, 30.40962], [34.53384, 30.40021], [34.58841, 30.35882], [34.59947, 30.34451], [34.73321, 30.01259], [34.74137, 29.94024], [34.76949, 29.87318], [35.05401, 29.91631], [35.05319, 29.86262], [35.04895, 29.84231], [35.00255, 29.7331], [34.9951, 29.70816], [34.98983, 29.65196], [35.26316, 29.30397], [35.33665, 29.29284], [35.25835, 28.8905], [35.24724, 28.80726], [35.20259, 28.7412], [35.17848, 28.65562], [35.17548, 28.64095], [35.18179, 28.58689], [35.1802, 28.53251], [35.17636, 28.49914], [35.1585, 28.43465], [35.14432, 28.40319], [35.10427, 28.33791], [34.99492, 28.20233], [34.93858, 28.12049], [34.9411, 28.09318], [34.92774, 28.07861], [34.92092, 28.07861], [34.92091, 28.08544], [34.90089, 28.08227], [34.8602, 28.08539], [34.84645, 28.07121], [34.83889, 28.07861], [34.83889, 28.08544], [34.84645, 28.08544], [34.84262, 28.09984], [34.86622, 28.11278], [34.84702, 28.11762], [34.82537, 28.11278], [34.82537, 28.1059], [34.83277, 28.1059], [34.83277, 28.09911], [34.8143, 28.08893], [34.80486, 28.07121], [34.79178, 28.0786], [34.80161, 28.0904], [34.8191, 28.09911], [34.8191, 28.11278], [34.79371, 28.11107], [34.78647, 28.10472], [34.78444, 28.09293], [34.77735, 28.09618], [34.77077, 28.09294], [34.77076, 28.1059], [34.76499, 28.1059], [34.76499, 28.09911], [34.75702, 28.09912], [34.74733, 28.11201], [34.73658, 28.10592], [34.7274, 28.11214], [34.70924, 28.14008], [34.69499, 28.12647], [34.68198, 28.13516], [34.67456, 28.11279], [34.64715, 28.09911], [34.64715, 28.09292], [34.66829, 28.07859], [34.66829, 28.0712], [34.65528, 28.06502], [34.64715, 28.07119], [34.64143, 28.0417], [34.63517, 28.03346], [34.61306, 28.03023], [34.62045, 28.03766], [34.61306, 28.04451], [34.60874, 28.05853], [34.60621, 28.09602], [34.59889, 28.10326], [34.57441, 28.09408], [34.57887, 28.1059], [34.57278, 28.11278], [34.58742, 28.13182], [34.62672, 28.16055], [34.62047, 28.16739], [34.62713, 28.17666], [34.64031, 28.18105], [34.64031, 28.17642], [34.63347, 28.17487], [34.6517, 28.16779], [34.65772, 28.17056], [34.6609, 28.18106], [34.65528, 28.18106], [34.65528, 28.18789], [34.64814, 28.19424], [34.6496, 28.20087], [34.66831, 28.20897], [34.6649, 28.22451], [34.67458, 28.27045], [34.68873, 28.26362], [34.68873, 28.27729], [34.68043, 28.27167], [34.67458, 28.27725], [34.69467, 28.29442], [34.71502, 28.32746], [34.73048, 28.36359], [34.74107, 28.41059], [34.76059, 28.43659], [34.775, 28.48317], [34.80378, 28.52713], [34.79343, 28.61943], [34.77848, 28.6645], [34.79696, 28.72599], [34.82537, 28.78437], [34.82537, 28.7906], [34.81912, 28.7906], [34.83611, 28.81647], [34.83855, 28.82856], [34.83277, 28.84562], [34.84409, 28.87641], [34.84197, 28.88963], [34.82538, 28.89424], [34.82538, 28.90037], [34.8401, 28.92243], [34.85629, 28.96381], [34.86378, 29.00625], [34.85256, 29.0314], [34.85256, 29.04507], [34.87355, 29.08527], [34.89351, 29.17451], [34.90935, 29.21015], [34.90937, 29.23065], [34.94207, 29.25047], [34.93266, 29.28901], [34.93638, 29.30385], [34.94809, 29.29829], [34.95069, 29.30573], [34.95558, 29.30512], [34.94533, 29.3369], [34.9494, 29.3517], [34.96241, 29.35977], [34.96905, 29.45102], [34.9761, 29.47703], [34.99781, 29.51797], [34.99684, 29.53388], [34.97608, 29.55215], [34.96241, 29.55216], [34.96022, 29.55952], [34.95558, 29.55899], [34.95121, 29.54545], [34.91977, 29.50739], [34.91081, 29.48995], [34.88673, 29.49006], [34.85971, 29.47215], [34.83814, 29.43294], [34.82537, 29.42862], [34.83326, 29.42617], [34.83276, 29.42114], [34.81764, 29.41218], [34.8152, 29.4064], [34.81908, 29.40071], [34.80519, 29.39643], [34.81225, 29.38764], [34.77759, 29.3461], [34.75701, 29.33307], [34.7451, 29.31598], [34.73658, 29.31126], [34.74528, 29.29133], [34.72902, 29.25047], [34.729, 29.19892], [34.72363, 29.18668], [34.695, 29.1645], [34.68999, 29.13417], [34.67457, 29.10651], [34.67457, 29.03441], [34.68652, 29.01243], [34.68577, 28.98888], [34.64674, 28.96743], [34.64031, 28.9488], [34.64599, 28.92235], [34.64713, 28.86287], [34.62045, 28.84585], [34.62631, 28.80263], [34.62045, 28.7906], [34.63346, 28.7707], [34.62281, 28.75983], [34.62451, 28.73599], [34.61524, 28.72419], [34.60767, 28.70149], [34.58424, 28.67235], [34.57031, 28.62617], [34.53012, 28.5727], [34.51631, 28.53878], [34.51059, 28.53799], [34.5236, 28.50731], [34.51156, 28.48779], [34.46901, 28.45539], [34.47526, 28.44795], [34.46168, 28.44204], [34.45427, 28.4289], [34.44116, 28.37348], [34.42742, 28.35611], [34.40691, 28.30801], [34.41066, 28.27814], [34.42057, 28.25617], [34.41293, 28.23314], [34.45532, 28.17487], [34.43872, 28.10985], [34.42675, 28.08154], [34.44401, 28.05354], [34.42742, 27.98306], [34.43488, 27.97558], [34.40073, 27.96874], [34.38998, 27.94527], [34.37696, 27.93818], [34.37085, 27.92366], [34.33131, 27.91413], [34.3387, 27.90669], [34.32096, 27.86128], [34.31128, 27.85205], [34.30446, 27.85205], [34.28639, 27.86441], [34.27947, 27.85834], [34.27271, 27.83617], [34.26352, 27.82477], [34.27172, 27.81245], [34.25929, 27.80184], [34.2393, 27.79409], [34.21412, 27.79149], [34.2212, 27.76984], [34.25732, 27.76951], [34.25732, 27.76334], [34.24985, 27.76333], [34.24985, 27.7565], [34.2635, 27.73604], [34.24985, 27.74283], [34.25123, 27.73725], [34.25733, 27.73603], [34.25732, 27.72859], [34.2501, 27.72858], [34.22755, 27.7582], [34.18979, 27.78677], [34.07846, 27.8007], [34.05467, 27.8144], [33.98756, 27.88666], [33.97381, 27.88924], [33.91676, 27.93574], [33.90398, 27.9418], [33.89088, 27.94253], [33.87941, 27.93465], [33.86557, 27.96133], [33.8589, 27.95516], [33.80422, 27.99605], [33.79371, 28.01313], [33.76337, 28.024], [33.76393, 28.04902], [33.71601, 28.07527], [33.7155, 28.09292], [33.68448, 28.12417], [33.67264, 28.14579], [33.67457, 28.16055], [33.66033, 28.17487], [33.65406, 28.17487], [33.65406, 28.1674], [33.64666, 28.1674], [33.63478, 28.18131], [33.61818, 28.2333], [33.6128, 28.24063], [33.60565, 28.23629], [33.56471, 28.2971], [33.43394, 28.36641], [33.40016, 28.41445], [33.369, 28.44233], [33.36915, 28.44794], [33.30519, 28.48974], [33.29478, 28.49942], [33.27882, 28.52753], [33.25621, 28.54414], [33.26246, 28.55158], [33.26246, 28.54414], [33.26979, 28.54413], [33.26295, 28.57705], [33.2461, 28.5795], [33.23764, 28.56611], [33.2562, 28.55158], [33.23944, 28.5566], [33.2287, 28.56941], [33.21901, 28.628], [33.19485, 28.67512], [33.22828, 28.76386], [33.21015, 28.78507], [33.20476, 28.80516], [33.18101, 28.81851], [33.17459, 28.83698], [33.16733, 28.90016], [33.17758, 28.91836], [33.16587, 28.97606], [33.17791, 28.98957], [33.17075, 29.00308], [33.15919, 29.01411], [33.1531, 29.01338], [33.14503, 29.03172], [33.13649, 29.03461], [33.12648, 29.03141], [33.11606, 29.04312], [33.07863, 29.06489], [33.06121, 29.10139], [33.04022, 29.11812], [33.02345, 29.14061], [33.00913, 29.14741], [33.00294, 29.16112], [32.95786, 29.20209], [32.91952, 29.21768], [32.8856, 29.24307], [32.86834, 29.29743], [32.84597, 29.30834], [32.83955, 29.31601], [32.81741, 29.35977], [32.82106, 29.39704], [32.81723, 29.41405], [32.7903, 29.42545], [32.74157, 29.45596], [32.7492, 29.45596], [32.74537, 29.46312], [32.72853, 29.46963], [32.73536, 29.47728], [32.73471, 29.48383], [32.72853, 29.48383], [32.72145, 29.46748], [32.72851, 29.45597], [32.71503, 29.45597], [32.7225, 29.49274], [32.72413, 29.53954], [32.71241, 29.58047], [32.68085, 29.59993], [32.68686, 29.61815], [32.68088, 29.66163], [32.69386, 29.70604], [32.69068, 29.73363], [32.65644, 29.77709], [32.64845, 29.79462], [32.6255, 29.81525], [32.60452, 29.82417], [32.60956, 29.83388], [32.6255, 29.84634], [32.62534, 29.87425], [32.61248, 29.89374], [32.57156, 29.9289], [32.58432, 29.93871], [32.57781, 29.9488], [32.58546, 29.95246], [32.56162, 29.97639], [32.57781, 29.98355], [32.57781, 30.01142], [32.57154, 30.01142], [32.55746, 29.97647], [32.57049, 29.95576], [32.57154, 29.94257], [32.56415, 29.94258], [32.56178, 29.95523], [32.55397, 29.9621], [32.54274, 29.96255], [32.53004, 29.95622], [32.51344, 29.96157], [32.49391, 29.95063], [32.4769, 29.9322], [32.46795, 29.91523], [32.46681, 29.89688], [32.47291, 29.88198], [32.48699, 29.87157], [32.50951, 29.86684], [32.49155, 29.85407], [32.39283, 29.73436], [32.36394, 29.68822], [32.35808, 29.67194], [32.35742, 29.63056], [32.35156, 29.61368], [32.33766, 29.59992], [32.33766, 29.59248], [32.35946, 29.57148], [32.3768, 29.53608], [32.38771, 29.52562], [32.45119, 29.48741], [32.49732, 29.44009], [32.52857, 29.42364], [32.55674, 29.39807], [32.58134, 29.36891], [32.59147, 29.34951], [32.60548, 29.29194], [32.61866, 29.26118], [32.63232, 29.24307], [32.62867, 29.21894], [32.65893, 29.11078], [32.65967, 29.0891], [32.63892, 29.06135], [32.62818, 29.05703], [32.62469, 29.04816], [32.63232, 29.03758], [32.6255, 28.97272], [32.67334, 28.92153], [32.68084, 28.88056], [32.70752, 28.85634], [32.7492, 28.80484], [32.78451, 28.79938], [32.80689, 28.77814], [32.82073, 28.74761], [32.86891, 28.57892], [32.92725, 28.55157], [32.96342, 28.51787], [32.97291, 28.49982], [33.00293, 28.48948], [33.01303, 28.46304], [33.04176, 28.41413], [33.05078, 28.40692], [33.04957, 28.40135], [33.04322, 28.40078], [33.08757, 28.36859], [33.10654, 28.3473], [33.10532, 28.32563], [33.11971, 28.30894], [33.12647, 28.2875], [33.20052, 28.21136], [33.21217, 28.18993], [33.24194, 28.17486], [33.24936, 28.14289], [33.28321, 28.13238], [33.31642, 28.09638], [33.33813, 28.08543], [33.33611, 28.05679], [33.3436, 28.0506], [33.36605, 28.05067], [33.37468, 28.03588], [33.44192, 28.0164], [33.51253, 27.95905], [33.53541, 27.91641], [33.55437, 27.89647], [33.57616, 27.85049], [33.59204, 27.79126], [33.57155, 27.79126], [33.56007, 27.81342], [33.48894, 27.84589], [33.48219, 27.84589], [33.47348, 27.82319], [33.48219, 27.80492], [33.51172, 27.77509], [33.52272, 27.7519], [33.55144, 27.76161], [33.55786, 27.75991], [33.55249, 27.73188], [33.53679, 27.70807], [33.55047, 27.69505], [33.57495, 27.68137], [33.59204, 27.65347], [33.59204, 27.64665], [33.55787, 27.68138], [33.55047, 27.68138], [33.55786, 27.65966], [33.55048, 27.65966], [33.5442, 27.67919], [33.52654, 27.67756], [33.50717, 27.66372], [33.49635, 27.64663], [33.51984, 27.63565], [33.56469, 27.57152], [33.55828, 27.55711], [33.55787, 27.53677], [33.61817, 27.50811], [33.63298, 27.49583], [33.64039, 27.45482], [33.67114, 27.42039], [33.68482, 27.3557], [33.69166, 27.34186], [33.72478, 27.31371], [33.82518, 27.25983], [33.83838, 27.24258], [33.83838, 27.19416], [33.82472, 27.18049], [33.83676, 27.12075], [33.84718, 27.107], [33.88314, 27.08079], [33.90137, 27.05874], [33.90868, 27.04215], [33.89373, 27.04393], [33.89389, 27.0279], [33.90089, 27.01423], [33.921, 26.98917], [33.95167, 26.93098], [33.99097, 26.90741], [33.996, 26.89678], [34.00358, 26.84917], [33.99623, 26.83806], [33.97967, 26.83712], [33.95965, 26.8498], [33.94825, 26.831], [33.94581, 26.79999], [33.9519, 26.74336], [33.93214, 26.6826], [33.94142, 26.65351], [33.95541, 26.64301], [34.0034, 26.62574], [34.014, 26.61163], [34.02394, 26.58072], [34.05639, 26.5423], [34.07054, 26.51509], [34.10483, 26.42666], [34.17749, 26.31484], [34.26197, 26.13947], [34.30102, 26.08779], [34.33871, 26.00178], [34.41728, 25.90341], [34.43474, 25.86188], [34.5018, 25.77163], [34.54673, 25.72475], [34.58145, 25.66262], [34.63346, 25.5694], [34.64715, 25.52204], [34.67139, 25.47972], [34.68189, 25.4287], [34.69996, 25.40103], [34.74333, 25.3513], [34.76499, 25.29609], [34.79492, 25.25438], [34.8069, 25.21161], [34.93913, 25.00336], [34.94304, 24.97126], [34.95372, 24.94414], [34.98975, 24.90501], [34.99391, 24.84931], [35.00221, 24.81562], [35.01026, 24.80443], [35.06362, 24.76389], [35.08072, 24.73541], [35.10955, 24.64379], [35.14601, 24.5859], [35.16026, 24.57461], [35.16064, 24.5585], [35.14445, 24.52767], [35.14456, 24.50021], [35.18571, 24.48565], [35.23545, 24.40013], [35.3704, 24.30625], [35.39171, 24.28294], [35.42865, 24.18595], [35.45593, 24.15874], [35.49383, 24.1089], [35.51051, 24.11123], [35.49379, 24.13896], [35.5039, 24.14053], [35.52419, 24.12128], [35.55205, 24.11049], [35.58836, 24.07583], [35.60272, 24.0481], [35.60526, 24.01882], [35.63563, 24.00186], [35.66685, 24.00724], [35.71728, 23.99341], [35.73856, 23.98331], [35.75374, 23.96865], [35.77482, 23.92391], [35.79252, 23.90229], [35.78578, 23.89306], [35.75036, 23.93242], [35.73601, 23.93321], [35.68452, 23.91093], [35.64575, 23.92556], [35.5988, 23.92937], [35.58019, 23.93627], [35.56178, 23.95718], [35.53527, 23.97179], [35.51393, 23.97712], [35.50492, 23.971], [35.49122, 23.94758], [35.48387, 23.91779], [35.49064, 23.87], [35.47477, 23.79791], [35.48322, 23.77249], [35.50171, 23.76869], [35.51014, 23.75638], [35.50611, 23.73456], [35.51021, 23.68392], [35.50368, 23.55589], [35.48943, 23.49702], [35.49334, 23.48237], [35.52432, 23.43872], [35.54742, 23.39428], [35.55143, 23.37751], [35.5503, 23.33023], [35.57468, 23.21256], [35.62096, 23.13949], [35.65463, 23.07375], [35.66782, 22.98261], [35.69531, 22.93213], [35.73707, 22.88398], [35.76368, 22.87043], [35.72342, 22.93186], [35.74293, 22.93129], [35.7557, 22.9223], [35.77105, 22.8906], [35.78492, 22.8332], [35.80127, 22.82257], [35.84755, 22.76299], [35.88596, 22.7357], [35.94019, 22.71661], [35.95582, 22.70449], [35.98439, 22.69379], [36.04034, 22.69012], [36.0938, 22.68033], [35.92493, 22.52268], [35.86643, 22.47772], [35.79908, 22.44398], [35.76328, 22.43195], [35.70019, 22.41953], [35.61194, 22.47647], [35.56109, 22.5196], [35.38037, 22.72053], [35.27483, 22.74902], [35.26555, 22.74798], [35.12455, 22.41387], [35.11844, 21.9956], [32.23362, 21.9954], [32.24658, 22.40226], [32.29918, 22.43997], [32.32464, 22.47959], [32.36503, 22.56711], [32.3949, 22.6087], [32.41165, 22.61563], [32.43733, 22.61082], [32.46943, 22.59574], [32.62156, 22.49378], [32.65513, 22.47441], [32.68629, 22.46701], [32.73122, 22.48969], [32.81794, 22.55238], [32.90421, 22.62285], [32.95245, 22.66865], [33.08132, 22.8899], [33.12548, 22.94205], [33.14203, 22.94052], [33.17298, 22.92652], [33.33498, 22.83477], [33.34926, 22.83325], [33.35936, 22.83993], [33.36183, 22.8538], [33.35246, 22.87033], [33.21703, 23.03648], [33.19442, 23.06813], [33.18603, 23.0878], [33.20535, 23.14178], [33.30065, 23.3077], [33.30872, 23.33253], [33.31315, 23.39872], [33.30791, 23.54329], [33.29241, 23.68482], [33.24451, 23.8604], [33.22603, 23.904], [33.20788, 23.91286], [33.16969, 23.89991], [33.1598, 23.8855], [33.17509, 23.71091], [33.17396, 23.63973], [33.16796, 23.61498], [33.1343, 23.5793], [32.99618, 23.4889], [32.98805, 23.47429], [32.999, 23.45711], [33.1315, 23.40174], [33.19704, 23.36598], [33.20976, 23.34972], [33.20647, 23.32636], [33.17102, 23.26712], [33.0534, 23.12302], [32.96058, 22.87244], [32.94739, 22.84747], [32.91013, 22.79761], [32.82305, 22.70061], [32.76469, 22.65263], [32.73987, 22.64099], [32.72701, 22.64299], [32.71221, 22.65402], [32.64761, 22.73423], [32.6189, 22.75802], [32.57109, 22.76754], [32.5034, 22.77292], [32.43584, 22.77193], [32.38846, 22.76134], [32.31893, 22.69654], [32.05941, 22.40844], [32.0475, 21.99541], [31.43548, 21.99535], [31.49056, 22.14821], [31.4918, 22.17322], [31.48292, 22.19544], [31.4609, 22.21549], [31.4425, 22.22417], [31.42328, 22.22696], [31.40406, 22.22376], [31.38535, 22.21446], [31.35951, 22.1881], [31.26164, 22.00176], [31.24841, 21.99437], [25.18562, 21.9953], [24.98125, 22.18761], [24.98126, 24.49228], [25.43895, 24.50282], [25.496, 24.54576], [25.58479, 24.63076], [25.6289, 24.68585], [25.66045, 24.73594], [25.68236, 24.78123], [25.70364, 24.84479], [25.71947, 24.94798], [25.71821, 25.06336], [25.70502, 25.1798], [25.55687, 26.12839], [25.54082, 26.20016], [25.52415, 26.24076], [25.49937, 26.27833], [25.4405, 26.33692], [24.98125, 26.34888], [24.98125, 29.18137], [24.97432, 29.23894], [24.95665, 29.29268], [24.87376, 29.46833], [24.86384, 29.5029], [24.86156, 29.54156], [24.87055, 29.61401], [24.87066, 29.63835], [24.85619, 29.67948], [24.80493, 29.7548], [24.79821, 29.79643], [24.81495, 29.84857], [24.81619, 29.86841], [24.81164, 29.89089], [24.72555, 30.07837], [24.69733, 30.12261], [24.68834, 30.14416], [24.68865, 30.18276], [24.70467, 30.2179], [24.74612, 30.28275], [24.76286, 30.31707], [24.79945, 30.36084], [24.82973, 30.38755], [24.88812, 30.46434], [24.90766, 30.49866], [24.92037, 30.55235], [24.95065, 30.62123], [24.96119, 30.67627], [24.9736, 30.71627], [24.98858, 30.75058], [24.99489, 30.7851], [24.98125, 30.82541], [24.93763, 30.90576], [24.92461, 30.95677], [24.88957, 31.01883], [24.88265, 31.03909], [24.85949, 31.14596], [24.85857, 31.22791], [24.84864, 31.31204], [24.84895, 31.34863], [24.86125, 31.38036], [24.53803, 31.67746], [24.54146, 31.74801], [24.54935, 31.78314], [24.6205, 31.95736]], [[31.68339, 29.54248], [31.7224, 29.56382], [31.75574, 29.59204], [31.78144, 29.62565], [31.79826, 29.66203], [31.80655, 29.70239], [31.8053, 29.74417], [31.79435, 29.78653], [31.77428, 29.82649], [31.74715, 29.86164], [31.71365, 29.89214], [31.6757, 29.91675], [31.63158, 29.93614], [31.585, 29.94801], [31.53606, 29.95195], [31.48806, 29.94735], [31.44429, 29.9347], [31.40638, 29.91531], [31.37349, 29.88906], [31.34698, 29.85638], [31.32891, 29.81954], [31.31955, 29.77876], [31.31982, 29.73493], [31.33001, 29.69123], [31.34865, 29.65144], [31.3762, 29.61387], [31.41004, 29.58209], [31.44958, 29.55616], [31.49269, 29.53735], [31.54132, 29.52552], [31.59127, 29.52257], [31.63901, 29.52839], [31.68339, 29.54248]]], [[[34.05127, 27.45482], [34.05127, 27.44865], [34.0311, 27.45149], [34.00709, 27.47606], [33.97633, 27.48724], [33.95631, 27.50438], [33.93377, 27.49471], [33.91742, 27.51335], [33.9136, 27.52371], [33.93332, 27.53637], [33.96412, 27.53411], [33.99391, 27.51431], [34.02848, 27.50201], [34.03842, 27.46662], [34.05127, 27.45482]]], [[[32.97706, 31.09125], [32.98308, 31.08991], [32.98922, 31.07365], [32.97511, 31.08649], [32.96974, 31.08657], [32.97706, 31.09125]]], [[[33.30111, 31.21588], [33.35255, 31.19489], [33.40601, 31.18446], [33.43295, 31.17206], [33.46131, 31.15052], [33.29868, 31.21279], [33.27004, 31.21675], [33.30111, 31.21588]]], [[[33.15309, 31.23176], [33.11899, 31.22363], [33.10255, 31.22675], [33.07643, 31.21874], [32.9559, 31.16315], [32.93476, 31.14796], [32.94647, 31.16327], [33.0669, 31.21743], [33.10475, 31.24029], [33.26245, 31.22361], [33.25611, 31.21932], [33.2435, 31.21932], [33.15309, 31.23176]]], [[[36.04209, 22.72087], [36.03835, 22.73717], [36.06624, 22.76689], [36.0617, 22.7554], [36.06665, 22.72815], [36.0616, 22.72999], [36.05568, 22.74327], [36.0433, 22.73188], [36.04704, 22.72611], [36.04209, 22.72087]]], [[[35.71834, 23.19863], [35.71923, 23.19183], [35.68809, 23.20963], [35.67384, 23.2248], [35.6635, 23.22606], [35.66082, 23.22099], [35.63648, 23.22789], [35.62517, 23.22634], [35.60882, 23.21145], [35.60076, 23.21621], [35.61929, 23.20207], [35.58969, 23.21105], [35.59042, 23.2163], [35.58221, 23.22663], [35.64031, 23.23224], [35.6482, 23.23667], [35.67685, 23.23037], [35.69615, 23.23674], [35.70409, 23.22098], [35.69907, 23.22386], [35.69793, 23.22045], [35.71834, 23.19863]]], [[[36.20638, 23.61456], [36.20463, 23.60172], [36.19028, 23.59294], [36.18532, 23.60192], [36.18411, 23.62404], [36.20638, 23.61456]]], [[[34.73215, 27.91895], [34.70469, 27.90838], [34.68105, 27.91518], [34.66198, 27.93007], [34.68202, 27.9587], [34.73187, 27.95713], [34.73215, 27.91895]]], [[[34.51189, 27.96747], [34.52882, 27.96589], [34.57487, 27.9721], [34.58522, 27.95506], [34.62044, 27.9278], [34.62044, 27.92037], [34.5475, 27.91965], [34.51809, 27.93042], [34.49636, 27.95515], [34.49781, 27.96874], [34.48953, 27.99604], [34.49322, 28.00095], [34.49635, 27.99604], [34.5049, 28.00991], [34.51734, 28.01654], [34.53483, 28.00824], [34.54418, 27.99605], [34.50685, 27.98623], [34.50318, 27.97557], [34.51189, 27.96747]]]]}}]}