{"type": "FeatureCollection", "features": [{"type": "Feature", "properties": {"name": "벨기에령 콩고", "name_en": "Belgian Congo", "period": "1914년", "kind": "식민지", "level": "개별 지역", "colonizer": "벨기에령", "legend": "벨기에령 콩고", "map_title": "아프리카의 저항 운동", "source": "미래엔 세계사 교과서 3권 173쪽", "volume": 3, "page": 173, "coast_snap": "Natural Earth 10m 해안선에 맞춤", "border_snap": "현대 국경(Natural Earth 10m)에 맞춘 구간 약 6828 km"}, "geometry": {"type": "MultiPolygon", "coordinates": [[[[13.10613, -6.29415], [13.01354, -6.34291], [12.93632, -6.37175], [12.84249, -6.39586], [12.8394, -6.40783], [12.88796, -6.48592], [12.79647, -6.52318], [12.72732, -6.53669], [12.68897, -6.53868], [12.63752, -6.565], [12.60409, -6.57695], [12.52766, -6.59114], [12.45829, -6.46595], [12.39558, -6.32445], [12.31934, -6.22039], [12.27946, -6.1477], [12.27507, -6.11477], [12.29015, -6.09679], [12.31266, -6.09054], [12.33363, -6.07846], [12.32701, -6.09381], [12.32478, -6.12235], [12.34687, -6.12011], [12.38221, -6.11018], [12.43296, -6.10898], [12.49693, -6.09459], [12.52777, -6.07484], [12.58064, -6.0627], [12.64552, -6.029], [12.66981, -6.02972], [12.74254, -6.04936], [12.81743, -6.03175], [12.86147, -6.01635], [12.88239, -6.001], [12.92757, -5.98122], [12.96607, -5.93185], [12.97267, -5.91322], [12.98589, -5.90115], [13.02987, -5.89338], [13.04637, -5.88569], [13.11183, -5.89023], [13.11659, -5.888], [13.11939, -6.28449], [13.10613, -6.29415]]], [[[12.93394, -5.87382], [12.99456, -5.86825], [12.96929, -5.88801], [12.88442, -5.90786], [12.87011, -5.91773], [12.83928, -5.92764], [12.80737, -5.95396], [12.78335, -5.96052], [12.76098, -5.95825], [12.74514, -5.9402], [12.82817, -5.87181], [12.85492, -5.86848], [12.93394, -5.87382]]], [[[12.18239, -5.54324], [12.2186, -5.53411], [12.22828, -5.5237], [12.23219, -5.51092], [12.22926, -5.46689], [12.19802, -5.3993], [12.21525, -5.39475], [12.52141, -5.40116], [12.53069, -5.16268], [12.52407, -5.12909], [12.51198, -5.12051], [12.45038, -5.09881], [12.44077, -5.08403], [12.43943, -5.06481], [12.44439, -5.05509], [12.4665, -5.05313], [12.55043, -5.02419], [12.58774, -5.00031], [12.60396, -4.96259], [12.60696, -4.94223], [12.61585, -4.93546], [12.6544, -4.93257], [12.6789, -4.9243], [12.68623, -4.91283], [12.6883, -4.89701], [12.69698, -4.87562], [12.71197, -4.86332], [12.75693, -4.83727], [12.76623, -4.82518], [12.76829, -4.80193], [12.77481, -4.7795], [12.78618, -4.75842], [12.80292, -4.73981], [12.8332, -4.72266], [13.02957, -4.67687], [13.05306, -4.66838], [13.18212, -4.68607], [13.20879, -4.70312], [13.25581, -4.74395], [13.274, -4.75583], [13.33457, -4.77754], [13.34935, -4.7856], [13.35875, -4.7948], [13.36412, -4.80689], [13.37136, -4.84172], [13.39265, -4.88533], [13.40319, -4.87686], [13.43079, -4.84337], [13.49352, -4.79965], [13.49642, -4.79211], [13.49239, -4.78353], [13.48226, -4.77485], [13.51471, -4.75594], [13.52618, -4.75428], [13.53889, -4.75997], [13.55863, -4.78043], [13.57073, -4.78591], [13.5914, -4.7794], [13.6131, -4.73919], [13.63398, -4.72565], [13.66654, -4.73268], [13.67532, -4.73175], [13.68059, -4.72472], [13.6778, -4.70633], [13.68193, -4.69537], [13.6901, -4.69113], [13.70586, -4.69434], [13.71247, -4.68566], [13.69909, -4.64266], [13.70261, -4.62075], [13.71816, -4.58034], [13.72178, -4.56101], [13.71103, -4.46448], [13.71496, -4.45301], [13.78999, -4.42459], [13.81045, -4.42665], [13.83288, -4.44123], [13.85614, -4.47967], [13.86709, -4.48929], [13.87629, -4.49166], [13.9044, -4.4898], [13.93458, -4.49848], [13.9445, -4.49807], [13.95494, -4.49187], [13.97179, -4.47161], [13.98987, -4.45797], [14.02109, -4.41539], [14.0584, -4.40051], [14.14635, -4.38986], [14.18469, -4.37746], [14.22221, -4.35978], [14.27999, -4.31276], [14.32546, -4.3018], [14.36856, -4.27845], [14.38706, -4.2771], [14.39285, -4.28175], [14.39533, -4.28971], [14.39347, -4.31317], [14.38572, -4.33291], [14.39274, -4.35276], [14.42861, -4.4004], [14.46974, -4.42934], [14.46654, -4.44805], [14.42458, -4.50231], [14.41259, -4.5145], [14.37476, -4.53021], [14.35895, -4.54458], [14.35078, -4.55905], [14.34996, -4.5669], [14.36577, -4.62726], [14.4069, -4.67604], [14.41093, -4.70106], [14.39905, -4.73754], [14.39967, -4.74932], [14.41259, -4.77816], [14.39646, -4.85588], [14.4007, -4.88626], [14.43729, -4.88017], [14.44948, -4.87396], [14.47005, -4.85216], [14.48194, -4.84585], [14.50147, -4.84068], [14.51987, -4.8413], [14.53248, -4.85619], [14.56214, -4.85588], [14.57506, -4.87365], [14.62332, -4.89949], [14.63449, -4.90363], [14.67273, -4.89991], [14.70218, -4.88957], [14.76843, -4.84823], [14.81546, -4.82797], [14.83117, -4.81505], [14.931, -4.6469], [15.00821, -4.57104], [15.02278, -4.54706], [15.07611, -4.52008], [15.09792, -4.49993], [15.18804, -4.37219], [15.20396, -4.33901], [15.38658, -4.24434], [15.42545, -4.23018], [15.45893, -4.21385], [15.49035, -4.1752], [15.52115, -4.0768], [15.53376, -4.05799], [15.54906, -4.04621], [15.56683, -4.03805], [15.71122, -3.99216], [15.8, -3.97883], [15.84423, -3.9656], [15.88299, -3.94534], [15.91213, -3.91743], [15.93032, -3.85863], [15.97425, -3.78649], [15.9911, -3.73894], [16.00525, -3.72478], [16.0127, -3.70225], [16.05331, -3.61999], [16.11553, -3.54423], [16.13786, -3.50072], [16.15842, -3.44728], [16.20772, -3.36191], [16.2256, -3.31323], [16.22746, -3.28988], [16.22209, -3.27913], [16.19863, -3.25949], [16.19336, -3.23841], [16.19946, -3.19479], [16.19925, -3.17185], [16.18571, -3.1364], [16.18984, -3.08234], [16.18447, -3.02612], [16.18829, -2.97641], [16.17703, -2.88246], [16.18085, -2.85414], [16.20452, -2.78272], [16.2256, -2.63524], [16.19232, -2.39515], [16.1917, -2.34688], [16.18747, -2.33231], [16.17827, -2.31846], [16.17486, -2.30306], [16.18995, -2.24188], [16.18736, -2.20457], [16.1946, -2.18204], [16.23129, -2.12902], [16.25609, -2.1068], [16.28441, -2.08757], [16.34022, -2.03414], [16.3826, -2.0022], [16.47003, -1.9127], [16.49029, -1.9036], [16.51396, -1.88738], [16.52254, -1.86175], [16.60418, -1.75405], [16.61721, -1.72873], [16.6231, -1.69917], [16.62382, -1.6538], [16.63622, -1.62083], [16.6695, -1.56936], [16.69255, -1.52295], [16.72552, -1.47996], [16.76273, -1.40586], [16.77926, -1.3824], [16.83322, -1.26902], [16.90918, -1.21114], [16.94049, -1.17476], [16.97956, -1.14024], [17.00592, -1.10675], [17.02256, -1.09704], [17.10865, -1.07564], [17.17542, -1.04825], [17.24539, -1.03585], [17.29768, -1.02107], [17.30802, -1.01498], [17.33045, -0.98655], [17.36497, -0.96723], [17.38543, -0.94242], [17.41147, -0.91834], [17.60216, -0.68869], [17.62304, -0.67329], [17.65094, -0.64632], [17.65446, -0.62751], [17.66417, -0.61273], [17.72804, -0.55309], [17.74954, -0.52343], [17.74076, -0.34618], [17.71626, -0.24624], [17.71368, -0.22092], [17.71637, -0.1958], [17.75709, -0.00946], [17.77538, 0.02641], [17.85403, 0.24107], [17.93992, 0.36127], [17.9455, 0.37729], [17.95201, 0.47434], [17.94994, 0.4915], [17.94364, 0.51082], [17.9331, 0.52705], [17.91842, 0.53521], [17.8993, 0.58327], [17.8932, 0.60766], [17.89258, 0.63588], [17.90757, 0.71308], [17.90767, 0.74047], [17.87791, 0.86791], [17.87822, 0.94718], [17.86664, 1.01663], [17.87326, 1.03963], [17.89248, 1.0774], [17.9148, 1.102], [17.95625, 1.17166], [17.96338, 1.19145], [17.967, 1.25372], [18.00203, 1.36578], [18.01226, 1.42196], [18.07138, 1.55146], [18.07366, 1.57233], [18.06611, 1.85898], [18.06818, 1.87622], [18.07831, 1.90929], [18.08172, 1.94242], [18.07603, 1.98848], [18.08079, 2.08416], [18.07242, 2.16002], [18.11117, 2.26529], [18.1427, 2.3057], [18.14673, 2.31593], [18.16378, 2.32105], [18.17401, 2.33614], [18.18796, 2.37092], [18.19913, 2.38911], [18.21411, 2.42766], [18.22517, 2.48646], [18.23303, 2.50259], [18.24615, 2.51892], [18.30351, 2.57256], [18.31374, 2.57597], [18.39322, 2.71369], [18.41834, 2.78174], [18.42516, 2.82215], [18.44924, 2.873], [18.47177, 2.90923], [18.4758, 2.93119], [18.49534, 2.96607], [18.52841, 3.06477], [18.54143, 3.08281], [18.59734, 3.11464], [18.61306, 3.12818], [18.63114, 3.17898], [18.63976, 3.28974], [18.57027, 3.48961], [18.55435, 3.52638], [18.51342, 3.59224], [18.49709, 3.61146], [18.47208, 3.63205], [18.45906, 3.63138], [18.6118, 3.87537], [18.61368, 3.90147], [18.63455, 3.93573], [18.6453, 3.98245], [18.64654, 4.04598], [18.63269, 4.13042], [18.61967, 4.16957], [18.58391, 4.23579], [18.57864, 4.25486], [18.57254, 4.26568], [18.54505, 4.28902], [18.53709, 4.30607], [18.54195, 4.32785], [18.55683, 4.35415], [18.57647, 4.37276], [18.5958, 4.37126], [18.61429, 4.35981], [18.63393, 4.35596], [18.65409, 4.35723], [18.72106, 4.37736], [18.7533, 4.40061], [18.77697, 4.43345], [18.82824, 4.55998], [18.85242, 4.59406], [18.88653, 4.6214], [18.89789, 4.65065], [18.92818, 4.66644], [18.96228, 4.72444], [18.99804, 4.75064], [19.01158, 4.76503], [19.01975, 4.8033], [19.04414, 4.82689], [19.05778, 4.86779], [19.06905, 4.89125], [19.08331, 4.90934], [19.11618, 4.94045], [19.13302, 4.94693], [19.17902, 4.94642], [19.19565, 4.95034], [19.237, 5.01078], [19.28382, 5.03228], [19.37311, 5.08755], [19.3942, 5.11698], [19.40898, 5.13039], [19.43151, 5.13597], [19.49652, 5.1338], [19.51708, 5.13597], [19.5486, 5.15137], [19.56876, 5.15519], [19.60555, 5.13829], [19.71955, 5.13597], [19.7488, 5.12442], [19.77918, 5.11816], [19.82466, 5.09698], [19.83861, 5.08755], [19.85019, 5.07375], [19.87551, 5.03106], [19.88037, 5.01553], [19.89091, 5.00212], [19.9154, 4.99311], [20.00398, 4.97448], [20.03106, 4.95799], [20.08635, 4.91626], [20.1526, 4.89069], [20.17172, 4.87836], [20.21719, 4.82245], [20.23662, 4.80635], [20.25482, 4.79712], [20.30174, 4.78165], [20.32251, 4.77906], [20.33894, 4.77191], [20.35403, 4.7554], [20.37367, 4.72444], [20.39548, 4.67711], [20.40375, 4.66985], [20.42059, 4.66235], [20.44023, 4.64411], [20.45646, 4.6215], [20.46307, 4.60093], [20.44705, 4.56967], [20.44209, 4.5505], [20.45232, 4.52892], [20.55981, 4.42836], [20.58027, 4.415], [20.60311, 4.40973], [20.68838, 4.42278], [20.76786, 4.42278], [20.79184, 4.42619], [20.83235, 4.45069], [20.87152, 4.45337], [20.96351, 4.43374], [21.05962, 4.3986], [21.07606, 4.39547], [21.08422, 4.38824], [21.10344, 4.35327], [21.11357, 4.34085], [21.15006, 4.32671], [21.15812, 4.3102], [21.19574, 4.30292], [21.21093, 4.29157], [21.22344, 4.29245], [21.23243, 4.29783], [21.25072, 4.32036], [21.26592, 4.33007], [21.28834, 4.33338], [21.29889, 4.33023], [21.31036, 4.31609], [21.35831, 4.28555], [21.37485, 4.27816], [21.39769, 4.27163], [21.46022, 4.27194], [21.47314, 4.2693], [21.49722, 4.25147], [21.52781, 4.24925], [21.53815, 4.24465], [21.63416, 4.29421], [21.73731, 4.29338], [21.7585, 4.2856], [21.771, 4.27349], [21.81989, 4.27194], [21.83808, 4.26326], [21.86774, 4.24155], [21.89161, 4.23718], [21.94991, 4.23346], [21.98959, 4.24424], [22.00148, 4.24465], [22.05781, 4.21954], [22.10845, 4.20985], [22.12788, 4.20308], [22.15165, 4.17946], [22.18472, 4.1646], [22.20725, 4.15032], [22.30327, 4.12872], [22.42264, 4.13479], [22.45737, 4.14908], [22.49271, 4.17404], [22.51049, 4.19127], [22.51824, 4.2068], [22.54046, 4.22726], [22.54615, 4.23718], [22.53933, 4.27816], [22.56858, 4.33155], [22.57653, 4.34085], [22.58801, 4.34418], [22.59989, 4.35255], [22.6093, 4.36335], [22.61374, 4.37436], [22.61126, 4.38185], [22.594, 4.40232], [22.58904, 4.42195], [22.58697, 4.44939], [22.59245, 4.47371], [22.61033, 4.48422], [22.67565, 4.48474], [22.6895, 4.49166], [22.69715, 4.51203], [22.69704, 4.53575], [22.71368, 4.55122], [22.73115, 4.58727], [22.72361, 4.62884], [22.73787, 4.63775], [22.7574, 4.6608], [22.77642, 4.7101], [22.78603, 4.72465], [22.80288, 4.73064], [22.83729, 4.71424], [22.85383, 4.71126], [22.8653, 4.73868], [22.89558, 4.7654], [22.8868, 4.77669], [22.88236, 4.78849], [22.88287, 4.80074], [22.88876, 4.81322], [22.89837, 4.82358], [22.92969, 4.82061], [22.96504, 4.83529], [22.97744, 4.83431], [22.98571, 4.82643], [23.01733, 4.75051], [23.05516, 4.7378], [23.07738, 4.72106], [23.0994, 4.71165], [23.12389, 4.71563], [23.16875, 4.73811], [23.18373, 4.72527], [23.20864, 4.69054], [23.25184, 4.66297], [23.26486, 4.63507], [23.29515, 4.6276], [23.31644, 4.60773], [23.35395, 4.60357], [23.38837, 4.58727], [23.39602, 4.59161], [23.41452, 4.59083], [23.42258, 4.59406], [23.42744, 4.60135], [23.43002, 4.62884], [23.43715, 4.64656], [23.44832, 4.65941], [23.46506, 4.66721], [23.48842, 4.66984], [23.50609, 4.67643], [23.56655, 4.72444], [23.58805, 4.73395], [23.63404, 4.74514], [23.67269, 4.7672], [23.69285, 4.7734], [23.73791, 4.77906], [23.76003, 4.78743], [23.79848, 4.81475], [23.81666, 4.82061], [23.85522, 4.81322], [23.88188, 4.82689], [23.92436, 4.81779], [23.94834, 4.81769], [23.94741, 4.83058], [23.94276, 4.84051], [23.94317, 4.85169], [23.95082, 4.86779], [23.95712, 4.87081], [23.96312, 4.8687], [23.978, 4.85415], [24.04694, 4.88893], [24.07246, 4.91027], [24.08962, 4.92022], [24.10843, 4.92306], [24.1199, 4.9189], [24.13923, 4.90544], [24.15277, 4.9026], [24.1629, 4.90779], [24.1909, 4.94417], [24.20961, 4.95618], [24.22977, 4.96117], [24.2462, 4.95407], [24.25302, 4.92988], [24.25922, 4.92988], [24.2677, 4.93572], [24.27297, 4.96401], [24.28465, 4.99243], [24.29664, 5.00326], [24.36847, 5.01243], [24.38614, 5.02236], [24.39864, 5.03602], [24.39689, 5.04819], [24.37198, 5.05339], [24.36123, 5.06295], [24.36785, 5.08455], [24.38252, 5.10786], [24.39637, 5.1223], [24.41146, 5.08186], [24.41694, 5.07326], [24.43068, 5.06742], [24.43668, 5.10059], [24.45962, 5.10744], [24.48722, 5.1008], [24.51368, 5.08724], [24.533, 5.07326], [24.55347, 5.0391], [24.60122, 5.0261], [24.6101, 5.01672], [24.61, 4.99672], [24.61548, 4.9851], [24.62747, 4.97691], [24.65692, 4.96727], [24.67077, 4.95722], [24.65744, 4.93978], [24.65424, 4.92942], [24.66436, 4.9244], [24.73061, 4.91751], [24.74984, 4.91874], [24.76637, 4.92988], [24.77826, 4.91854], [24.78942, 4.91986], [24.81102, 4.94045], [24.8195, 4.94448], [24.83686, 4.93771], [24.84833, 4.93673], [24.86818, 4.94438], [24.90435, 4.9668], [24.92709, 4.97148], [24.95809, 4.99135], [24.96936, 4.9914], [25.00646, 4.98094], [25.04057, 4.9621], [25.07612, 4.95184], [25.0848, 4.95422], [25.09049, 4.97448], [25.10093, 4.99455], [25.11426, 5.00184], [25.12945, 5.01863], [25.1402, 5.01796], [25.16366, 5.00564], [25.22754, 5.00957], [25.24852, 5.02414], [25.30763, 5.03228], [25.31683, 5.04225], [25.32097, 5.05225], [25.325, 5.08811], [25.34236, 5.11147], [25.34928, 5.14168], [25.34856, 5.14902], [25.34122, 5.1556], [25.31445, 5.16325], [25.30774, 5.18529], [25.31621, 5.20224], [25.32892, 5.21601], [25.33554, 5.22844], [25.33719, 5.25175], [25.34339, 5.27193], [25.3559, 5.28645], [25.37647, 5.29301], [25.36365, 5.31056], [25.37068, 5.31683], [25.38535, 5.32149], [25.39569, 5.33397], [25.41336, 5.32355], [25.43507, 5.32869], [25.47992, 5.35319], [25.48199, 5.35686], [25.49558, 5.34453], [25.50447, 5.34228], [25.54085, 5.35443], [25.53279, 5.37223], [25.54374, 5.37528], [25.56183, 5.37301], [25.58126, 5.37492], [25.58901, 5.36228], [25.59232, 5.34918], [25.60048, 5.34045], [25.62291, 5.34076], [25.60917, 5.32652], [25.60916, 5.3203], [25.62343, 5.30994], [25.63108, 5.31182], [25.6379, 5.31797], [25.65009, 5.3203], [25.6689, 5.30614], [25.69112, 5.29981], [25.70508, 5.2896], [25.74373, 5.25061], [25.75799, 5.24444], [25.77174, 5.24547], [25.78114, 5.25888], [25.76926, 5.26516], [25.77835, 5.26914], [25.79231, 5.26283], [25.79468, 5.23839], [25.81463, 5.24459], [25.81143, 5.23092], [25.8261, 5.1947], [25.83623, 5.20002], [25.84936, 5.21787], [25.8724, 5.2171], [25.88357, 5.20353], [25.89297, 5.18521], [25.91085, 5.1701], [25.91251, 5.19038], [25.92563, 5.20178], [25.9432, 5.2041], [25.9586, 5.19738], [25.95839, 5.21482], [25.96284, 5.22451], [25.97193, 5.22767], [25.98599, 5.22534], [25.99664, 5.21924], [26.0139, 5.19924], [26.02692, 5.18997], [26.03736, 5.19795], [26.06784, 5.20085], [26.07053, 5.21224], [26.07715, 5.21632], [26.09523, 5.21105], [26.08841, 5.24459], [26.09844, 5.23958], [26.11249, 5.23839], [26.11962, 5.24154], [26.12996, 5.25888], [26.14422, 5.2518], [26.15735, 5.23247], [26.17089, 5.23839], [26.18453, 5.22534], [26.19828, 5.23839], [26.20716, 5.20769], [26.21357, 5.19914], [26.22618, 5.20426], [26.22618, 5.18315], [26.24665, 5.18997], [26.25398, 5.17232], [26.27248, 5.15907], [26.29181, 5.15098], [26.31734, 5.14643], [26.35331, 5.14778], [26.36271, 5.13597], [26.39062, 5.14902], [26.40012, 5.13364], [26.44188, 5.10429], [26.46265, 5.05964], [26.50255, 5.04747], [26.52828, 5.04809], [26.55422, 5.05985], [26.56136, 5.06706], [26.56818, 5.05964], [26.57986, 5.07434], [26.59836, 5.08062], [26.61551, 5.07824], [26.62347, 5.06706], [26.62967, 5.06706], [26.63567, 5.07762], [26.64404, 5.07835], [26.65758, 5.07326], [26.69168, 5.09439], [26.73943, 5.09439], [26.7537, 5.09227], [26.76062, 5.08811], [26.80837, 5.0391], [26.81571, 5.04018], [26.83266, 5.05339], [26.83948, 5.05117], [26.8493, 5.0391], [26.86707, 5.03755], [26.88413, 5.05339], [26.90397, 5.09439], [26.93368, 5.12659], [26.96164, 5.15118], [26.99172, 5.17129], [27.02748, 5.18997], [27.07368, 5.20333], [27.11636, 5.2003], [27.15749, 5.18542], [27.23971, 5.14488], [27.30188, 5.13199], [27.32718, 5.11212], [27.36384, 5.12886], [27.46088, 5.09107], [27.4413, 5.07072], [27.44306, 5.05778], [27.43634, 5.01316], [27.49282, 4.97303], [27.50135, 4.96329], [27.5092, 4.93244], [27.51458, 4.92244], [27.53256, 4.90758], [27.55272, 4.90053], [27.64098, 4.89094], [27.65876, 4.87965], [27.67188, 4.85591], [27.67974, 4.81449], [27.68594, 4.7979], [27.69906, 4.78743], [27.73482, 4.7932], [27.74423, 4.78785], [27.7526, 4.77767], [27.76314, 4.7571], [27.76686, 4.73545], [27.7588, 4.67716], [27.76076, 4.636], [27.76521, 4.61207], [27.77244, 4.59582], [27.80924, 4.58799], [27.83766, 4.55998], [27.84913, 4.55321], [27.88551, 4.55667], [27.90794, 4.54869], [27.91404, 4.54931], [27.9161, 4.56215], [27.92923, 4.56998], [27.94453, 4.55729], [27.96251, 4.55745], [28.01403, 4.55003], [28.01708, 4.53905], [28.00892, 4.49908], [28.01124, 4.48014], [28.01904, 4.46275], [28.04974, 4.41914], [28.05976, 4.42007], [28.0763, 4.43769], [28.08555, 4.44332], [28.10173, 4.44213], [28.10834, 4.43399], [28.11237, 4.41464], [28.14022, 4.37932], [28.15872, 4.36079], [28.17759, 4.34723], [28.21696, 4.34204], [28.26104, 4.35038], [28.30316, 4.35224], [28.33685, 4.32749], [28.3491, 4.29235], [28.35742, 4.28287], [28.3815, 4.2753], [28.40414, 4.27783], [28.42543, 4.29082], [28.44393, 4.3085], [28.48243, 4.35899], [28.49684, 4.36901], [28.51927, 4.37441], [28.54821, 4.37082], [28.55731, 4.37353], [28.56428, 4.3826], [28.57054, 4.40511], [28.58242, 4.41263], [28.62366, 4.42237], [28.63864, 4.43208], [28.65373, 4.4527], [28.69518, 4.53259], [28.72453, 4.53399], [28.75543, 4.55399], [28.76918, 4.54977], [28.78365, 4.53037], [28.78995, 4.48859], [28.81527, 4.47828], [28.8562, 4.48247], [28.90364, 4.47859], [28.92555, 4.48081], [28.98622, 4.49593], [28.99407, 4.48745], [29.05319, 4.45079], [29.05598, 4.4365], [29.05888, 4.43769], [29.09856, 4.42053], [29.10983, 4.41237], [29.1735, 4.348], [29.19613, 4.33708], [29.2213, 4.34069], [29.22869, 4.35671], [29.23158, 4.37555], [29.24284, 4.38736], [29.26744, 4.38787], [29.28739, 4.38358], [29.30393, 4.38715], [29.33886, 4.44955], [29.39023, 4.49376], [29.40263, 4.51208], [29.4173, 4.55549], [29.42392, 4.56605], [29.44273, 4.58344], [29.44924, 4.65706], [29.45761, 4.66954], [29.4726, 4.6722], [29.4941, 4.66829], [29.51327, 4.65215], [29.53502, 4.6607], [29.57668, 4.64445], [29.61853, 4.64158], [29.66029, 4.62212], [29.7008, 4.5883], [29.71532, 4.57967], [29.72292, 4.5782], [29.74514, 4.58391], [29.79671, 4.55603], [29.7933, 4.54538], [29.7777, 4.52386], [29.787, 4.48968], [29.77677, 4.44934], [29.7762, 4.40562], [29.78783, 4.3688], [29.81485, 4.34676], [29.86069, 4.34728], [29.8827, 4.34402], [29.90849, 4.32919], [29.93035, 4.30865], [29.94012, 4.28834], [29.92322, 4.25775], [29.92415, 4.24558], [29.93216, 4.23615], [29.966, 4.23181], [29.98936, 4.21778], [30.00476, 4.19928], [30.02791, 4.15445], [30.0429, 4.13311], [30.05778, 4.12365], [30.0998, 4.1151], [30.12269, 4.10246], [30.13302, 4.0828], [30.14749, 4.03665], [30.17809, 3.9971], [30.18212, 3.96552], [30.18935, 3.95609], [30.20589, 3.95038], [30.27095, 3.94945], [30.33792, 3.92788], [30.41895, 3.87971], [30.45683, 3.86759], [30.48587, 3.86558], [30.51553, 3.87085], [30.52525, 3.86754], [30.53889, 3.84155], [30.56287, 3.69487], [30.56225, 3.67533], [30.55491, 3.63639], [30.54344, 3.61787], [30.54302, 3.61291], [30.55346, 3.60451], [30.57263, 3.60105], [30.59243, 3.60353], [30.60493, 3.60668], [30.65377, 3.63061], [30.69335, 3.63195], [30.71464, 3.64381], [30.73133, 3.6635], [30.74694, 3.67487], [30.76513, 3.66172], [30.85576, 3.7061], [30.90447, 3.65902], [30.92182, 3.62977], [30.93562, 3.58024], [30.93497, 3.56257], [30.89639, 3.51997], [30.90931, 3.49614], [30.9029, 3.45891], [30.91634, 3.41481], [30.91003, 3.39341], [30.86848, 3.34334], [30.84869, 3.30926], [30.84244, 3.28874], [30.82213, 3.2814], [30.8042, 3.246], [30.74787, 3.07671], [30.74384, 3.05547], [30.74508, 3.0363], [30.75707, 3.02147], [30.80363, 2.98907], [30.82094, 2.97315], [30.84399, 2.93279], [30.85484, 2.89321], [30.85339, 2.85337], [30.82869, 2.78608], [30.82187, 2.77616], [30.80161, 2.76908], [30.79769, 2.74836], [30.7643, 2.65839], [30.75893, 2.63379], [30.73526, 2.59307], [30.73702, 2.51954], [30.70766, 2.46228], [30.71056, 2.44512], [30.72493, 2.44078], [30.795, 2.44011], [30.80492, 2.43437], [30.80967, 2.39236], [30.8198, 2.37598], [30.85494, 2.3397], [30.87179, 2.33206], [30.90057, 2.34596], [30.91447, 2.37815], [30.93091, 2.40559], [30.96801, 2.40544], [30.98486, 2.39463], [31.04129, 2.33123], [31.04594, 2.31965], [31.04439, 2.31392], [31.0355, 2.30694], [31.04067, 2.2979], [31.05524, 2.29025], [31.1126, 2.28208], [31.12924, 2.28467], [31.17756, 2.30291], [31.17906, 2.25976], [31.18247, 2.23873], [31.19012, 2.22152], [31.21089, 2.20535], [31.26748, 2.17325], [31.28045, 2.15341], [31.27145, 2.103], [31.24283, 2.05117], [31.02584, 1.77824], [30.68172, 1.50035], [30.47827, 1.23863], [30.44556, 1.2128], [30.43161, 1.20701], [30.39926, 1.2006], [30.36495, 1.20205], [30.3482, 1.18902], [30.33606, 1.16887], [30.32381, 1.15585], [30.2957, 1.17264], [30.2865, 1.1743], [30.27798, 1.17161], [30.26935, 1.16727], [30.23886, 1.136], [30.23152, 1.09776], [30.22801, 1.08903], [30.21529, 1.07709], [30.22098, 1.0171], [30.21405, 0.99855], [30.19152, 0.97488], [30.18687, 0.95875], [30.16568, 0.92144], [30.15483, 0.90868], [30.14512, 0.90315], [30.03835, 0.87891], [29.99639, 0.85995], [29.9473, 0.8246], [29.92828, 0.78502], [29.92683, 0.77489], [29.93231, 0.72316], [29.9195, 0.6181], [29.938, 0.53728], [29.94048, 0.49832], [29.92291, 0.46018], [29.85108, 0.37719], [29.8396, 0.35848], [29.83263, 0.33698], [29.79713, 0.1648], [29.7872, 0.15849], [29.76126, 0.17213], [29.71181, 0.09958], [29.70308, 0.0725], [29.70163, 0.05524], [29.71346, 0.01163], [29.71434, -0.00749], [29.69403, -0.0631], [29.62938, -0.4424], [29.63187, -0.46121], [29.64974, -0.50431], [29.65305, -0.5656], [29.65088, -0.57955], [29.64282, -0.58503], [29.62287, -0.58844], [29.61884, -0.59939], [29.63057, -0.62203], [29.62928, -0.62978], [29.61554, -0.64415], [29.60303, -0.7229], [29.6022, -0.74378], [29.61336, -0.80383], [29.61078, -0.86398], [29.60799, -0.87845], [29.59672, -0.89188], [29.56717, -0.90191], [29.556, -0.91948], [29.55466, -0.92857], [29.56034, -0.97208], [29.54846, -1.00257], [29.5512, -1.02014], [29.56593, -1.05859], [29.57006, -1.07792], [29.56913, -1.0959], [29.55693, -1.15771], [29.55704, -1.18179], [29.3585, -1.50993], [29.34279, -1.51655], [29.33121, -1.53143], [29.30382, -1.58786], [29.2937, -1.60099], [29.24543, -1.64098], [29.23334, -1.65866], [29.21225, -1.69866], [29.14931, -1.79932], [29.1305, -1.84335], [29.12554, -1.87911], [29.12771, -1.9157], [29.15427, -2.07269], [29.15634, -2.10866], [29.15055, -2.15041], [29.13484, -2.19775], [29.10983, -2.23671], [29.07541, -2.26389], [29.03092, -2.27567], [29.00214, -2.27474], [28.99366, -2.27774], [28.98338, -2.28735], [28.97878, -2.30678], [28.95966, -2.33975], [28.94545, -2.35422], [28.92814, -2.36445], [28.88039, -2.37985], [28.86633, -2.39195], [28.85884, -2.4182], [28.86457, -2.45943], [28.87822, -2.48972], [28.86085, -2.50522], [28.85724, -2.51835], [28.86096, -2.53116], [28.88106, -2.54263], [28.89134, -2.55307], [28.89806, -2.57633], [28.89134, -2.6527], [28.89909, -2.66066], [28.98689, -2.79678], [28.9949, -2.81363], [29.03407, -2.82086], [29.04906, -2.82748], [29.0627, -2.8622], [29.08172, -2.89393], [29.08327, -2.91005], [29.08978, -2.92607], [28.76399, -3.17615], [28.74043, -3.4755], [28.72905, -3.5205], [28.7098, -3.64494], [28.67248, -3.957], [28.66001, -3.96302], [28.65282, -3.97493], [28.61583, -4.18697], [28.59684, -4.31534], [28.59155, -4.40653], [28.5952, -4.41893], [28.60443, -4.42948], [28.63559, -4.4494], [28.67076, -4.46162], [28.694, -4.45793], [28.7107, -4.43818], [28.72676, -4.40631], [28.78715, -4.25659], [28.79499, -4.24473], [28.80091, -4.24887], [28.8049, -4.28351], [28.7958, -4.38164], [28.76098, -4.55011], [28.732, -4.65722], [28.66362, -4.8121], [28.63766, -4.88255], [28.63248, -4.91149], [28.63363, -4.95309], [28.66157, -5.14422], [28.71147, -5.37402], [28.86344, -5.78221], [28.87136, -5.95079], [28.8675, -6.01676], [28.86233, -6.041], [28.83053, -6.08713], [28.72519, -6.20595], [28.71159, -6.22894], [28.70718, -6.24631], [28.71305, -6.27503], [28.73238, -6.3096], [28.75857, -6.3447], [28.89724, -6.50172], [28.92817, -6.56578], [29.04076, -6.83929], [29.09845, -6.92406], [29.22907, -7.09139], [29.34471, -7.22033], [29.73496, -7.54975], [29.81277, -7.62556], [29.94419, -7.89613], [30.01372, -8.30622], [28.91527, -8.47287], [28.88917, -8.4831], [28.89279, -8.50191], [28.93547, -8.59079], [28.93046, -8.67988], [28.8931, -8.76577], [28.76541, -8.93403], [28.59906, -9.09639], [28.5062, -9.1644], [28.41509, -9.20708], [28.3723, -9.23509], [28.35246, -9.27199], [27.97208, -9.42119], [27.85942, -9.50253], [27.85957, -9.51732], [28.13564, -9.93083], [28.15815, -9.98024], [28.1637, -10.01581], [28.16143, -10.05199], [28.08875, -10.47885], [28.15121, -10.74003], [28.55311, -10.84116], [28.54945, -10.85856], [28.54945, -10.9029], [28.53136, -10.95509], [28.50785, -10.98207], [28.50863, -11.01349], [28.50408, -11.03436], [28.47679, -11.07798], [28.48734, -11.15343], [28.47369, -11.18123], [28.47369, -11.22567], [28.45509, -11.2637], [28.43618, -11.28913], [28.43199, -11.31104], [28.43959, -11.34825], [28.40858, -11.37243], [28.35701, -11.44695], [28.35442, -11.46472], [28.35566, -11.51816], [27.94474, -11.55779], [27.83862, -11.82126], [27.46755, -12.00164], [27.47179, -12.04164], [27.52047, -12.17962], [27.53608, -12.20008], [27.5953, -12.24731], [27.63819, -12.29361], [27.6662, -12.30271], [27.71074, -12.30633], [27.75673, -12.30426], [27.78831, -12.29651], [27.80727, -12.28142], [27.81828, -12.26778], [27.83141, -12.25992], [27.85668, -12.2624], [27.87704, -12.26995], [27.93388, -12.30333], [27.94845, -12.32142], [27.95869, -12.36782], [27.98101, -12.37454], [28.01403, -12.37051], [28.08767, -12.37754], [28.09687, -12.38302], [28.107, -12.4102], [28.13128, -12.42921], [28.14596, -12.42312], [28.16074, -12.40875], [28.18575, -12.40245], [28.20498, -12.41082], [28.23753, -12.43707], [28.30368, -12.43542], [28.32249, -12.4411], [28.33975, -12.45051], [28.42274, -12.5213], [28.43643, -12.5428], [28.45592, -12.5921], [28.46827, -12.61463], [28.50201, -12.64956], [28.5123, -12.66837], [28.51162, -12.69442], [28.50015, -12.71095], [28.48398, -12.72222], [28.474, -12.73648], [28.48093, -12.76211], [28.5016, -12.78847], [28.52361, -12.81017], [28.53942, -12.83384], [28.54284, -12.88562], [28.55338, -12.89492], [28.56847, -12.89554], [28.58397, -12.88872], [28.59369, -12.87673], [28.60816, -12.8479], [28.62118, -12.83942], [28.66789, -12.84934], [28.70799, -12.88975], [28.77569, -12.97657], [28.79336, -12.99156], [28.8006, -13.00241], [28.80944, -13.03838], [28.83088, -13.05181], [28.82551, -13.06783], [28.82582, -13.09284], [28.82974, -13.09718], [28.84421, -13.10235], [28.85367, -13.13708], [28.86323, -13.14266], [28.88271, -13.14359], [28.89186, -13.14731], [28.90343, -13.1623], [28.93413, -13.30963], [28.95036, -13.35097], [28.99397, -13.39593], [28.67822, -13.66811], [28.66155, -13.66974], [28.60604, -13.66263], [28.57084, -13.64905], [28.52712, -13.61783], [28.50416, -13.5899], [28.31708, -13.22453], [28.18025, -13.174], [28.15018, -13.15697], [28.12437, -13.13483], [28.10382, -13.10854], [27.86784, -12.73442], [27.4961, -12.69653], [27.46444, -12.68488], [27.43538, -12.66757], [27.35103, -12.58507], [27.2289, -12.60864], [27.17677, -12.6088], [27.12667, -12.59514], [27.03989, -12.5479], [27.01217, -12.52447], [26.98246, -12.48166], [26.94206, -12.37075], [26.85067, -11.96932], [26.83173, -11.97333], [26.75938, -11.96867], [26.74419, -11.98118], [26.73256, -11.99834], [26.71742, -12.01301], [26.69706, -12.01746], [26.6798, -12.0096], [26.64352, -11.98552], [26.6059, -11.97777], [26.52487, -11.97229], [26.48911, -11.96082], [26.43836, -11.91906], [26.41459, -11.91183], [26.37635, -11.91286], [26.33915, -11.91896], [26.29801, -11.94118], [26.28623, -11.94056], [26.26556, -11.93085], [26.22959, -11.93312], [26.13508, -12.33342], [26.08014, -12.33446], [26.04399, -12.32627], [25.83668, -12.25713], [25.46918, -12.26676], [25.43041, -12.26383], [25.37597, -12.24475], [25.21011, -12.15505], [24.94301, -12.13505], [24.90641, -12.12858], [24.87258, -12.11511], [24.84299, -12.09554], [24.81741, -12.06951], [24.67614, -11.89049], [24.65161, -11.84743], [24.56473, -11.44468], [24.53269, -11.44612], [24.49094, -11.46152], [24.46965, -11.46555], [24.4465, -11.46359], [24.42645, -11.45408], [24.39255, -11.42338], [24.37022, -11.41016], [24.35172, -11.40706], [24.31007, -11.40664], [23.98131, -11.72476], [23.95464, -11.66223], [23.95464, -11.63691], [23.95991, -11.61717], [23.97501, -11.58328], [23.59423, -11.41491], [23.64158, -11.00449], [23.49482, -10.96429], [23.45596, -10.96098], [23.41545, -10.96326], [23.37328, -10.97514], [23.19675, -11.07188], [23.01434, -11.10247], [22.96958, -11.10247], [22.93114, -11.09679], [22.91119, -11.08831], [22.85311, -11.05307], [22.82923, -11.05214], [22.76422, -11.09048], [22.72774, -11.09679], [22.68898, -11.09297], [22.65095, -11.08232], [22.53757, -11.03715], [22.50098, -11.04243], [22.46936, -11.12242], [22.44032, -11.14692], [22.34027, -11.1802], [22.3257, -11.19032], [22.28177, -11.23673], [22.26306, -11.2482], [22.23764, -11.24954], [21.84964, -11.41866], [21.78966, -11.44063], [21.75679, -11.44503], [21.72309, -11.44288], [21.69013, -11.4339], [21.64704, -11.40927], [21.62293, -11.38585], [21.60358, -11.35746], [21.59037, -11.32609], [21.58236, -11.27582], [21.58913, -11.22348], [21.62083, -11.15545], [21.63225, -10.76607], [21.50061, -10.29215], [21.49292, -10.28247], [21.40218, -10.23292], [21.37536, -10.21009], [21.35406, -10.18246], [21.17847, -9.82029], [21.16253, -9.7673], [21.1632, -9.71154], [21.31264, -8.77912], [21.17821, -8.29095], [21.17194, -8.25456], [21.17635, -8.19891], [21.27612, -7.76867], [21.2628, -7.69796], [21.2584, -7.28431], [20.52054, -7.28638], [20.18391, -7.52831], [20.16764, -7.52554], [20.13696, -7.51153], [20.09847, -7.48024], [20.07787, -7.45257], [20.06471, -7.4213], [20.05834, -7.00195], [19.52184, -7.00195], [19.54261, -7.05228], [19.5362, -7.0684], [19.49703, -7.12173], [19.48721, -7.15388], [19.47853, -7.28353], [19.06214, -7.2567], [19.05492, -7.261], [19.05187, -7.26901], [19.04987, -7.30457], [19.35564, -7.57411], [19.35368, -7.60026], [19.38097, -7.67974], [19.38138, -7.70392], [19.37776, -7.73007], [19.33384, -7.86732], [19.33094, -7.89864], [19.33404, -7.92427], [19.35554, -8.00199], [18.77377, -8.00199], [18.75206, -7.96592], [18.74731, -7.93781], [18.73852, -7.93233], [18.51652, -7.93223], [18.50433, -7.9407], [18.50226, -7.96013], [18.50763, -7.99755], [18.42051, -7.99827], [18.40387, -8.00065], [18.38196, -8.01233], [18.36656, -8.01677], [18.35364, -8.01594], [18.31622, -8.00168], [18.19272, -7.99693], [18.1766, -7.9992], [18.13577, -8.01853], [18.12037, -8.02245], [18.10218, -8.03331], [18.09288, -8.05635], [18.09174, -8.08416], [18.09815, -8.10927], [18.00854, -8.11123], [17.98188, -8.10534], [17.93082, -8.06214], [17.90137, -8.04809], [17.86798, -8.04447], [17.85176, -8.04778], [17.78954, -8.08178], [17.77724, -8.08333], [17.74334, -8.07072], [17.71326, -8.06834], [17.62841, -8.09801], [17.6002, -8.09852], [17.54428, -8.08478], [17.53653, -8.07599], [17.18893, -8.28982], [17.16336, -8.26977], [17.14202, -8.2453], [16.90189, -7.84634], [17.21779, -7.586], [17.20291, -7.56429], [17.18627, -7.51634], [17.17283, -7.4938], [17.14854, -7.47262], [17.14617, -7.46311], [17.15154, -7.45122], [17.1749, -7.44161], [17.18027, -7.43541], [17.17655, -7.42818], [17.14617, -7.41805], [17.13222, -7.40957], [17.12622, -7.41143], [17.11816, -7.42549], [17.104, -7.41608], [17.09811, -7.40234], [17.0978, -7.3674], [17.09335, -7.35231], [17.0825, -7.34229], [17.05666, -7.32989], [17.02287, -7.30601], [16.9961, -7.29795], [16.99165, -7.28607], [16.98907, -7.25485], [16.97284, -7.23222], [16.95083, -7.2132], [16.94566, -7.20462], [16.94752, -7.15109], [16.92706, -7.08566], [16.92913, -7.06065], [16.96117, -7.06923], [16.9623, -7.04742], [16.97316, -7.01476], [16.95527, -6.98148], [16.94907, -6.97539], [16.92871, -6.96867], [16.92861, -6.95926], [16.9345, -6.94573], [16.92696, -6.88857], [16.91497, -6.86408], [16.89078, -6.84713], [16.85533, -6.84216], [16.84448, -6.83844], [16.8329, -6.8278], [16.82309, -6.78511], [16.7681, -6.70832], [16.76035, -6.69199], [16.75591, -6.67411], [16.75301, -6.63722], [16.74867, -6.61954], [16.734, -6.58606], [16.73079, -6.56983], [16.73451, -6.55236], [16.74681, -6.53159], [16.74733, -6.52198], [16.7217, -6.4918], [16.72128, -6.48053], [16.7278, -6.46596], [16.70609, -6.46503], [16.70609, -6.45521], [16.72097, -6.42834], [16.71891, -6.41532], [16.70702, -6.41542], [16.70041, -6.41129], [16.69296, -6.39837], [16.69358, -6.35982], [16.69741, -6.34979], [16.72097, -6.34235], [16.72232, -6.33243], [16.71539, -6.30483], [16.71477, -6.23156], [16.71725, -6.21512], [16.72438, -6.20241], [16.72676, -6.18918], [16.71787, -6.17409], [16.70041, -6.15435], [16.69586, -6.14092], [16.6601, -6.12397], [16.64305, -6.10071], [16.63095, -6.09172], [16.61111, -6.08976], [16.63219, -6.06526], [16.62837, -6.05534], [16.60429, -6.06185], [16.60119, -6.05059], [16.5953, -5.97855], [16.58072, -5.9554], [16.58062, -5.94899], [16.59406, -5.93318], [16.59736, -5.9247], [16.55292, -5.90238], [16.49732, -5.88284], [16.45949, -5.88522], [16.41247, -5.8968], [16.39614, -5.89411], [16.37433, -5.88284], [16.34126, -5.8598], [16.31573, -5.85463], [14.70373, -5.8814], [14.57661, -5.90465], [14.54571, -5.90165], [14.48214, -5.88553], [14.43667, -5.89339], [14.24185, -5.88956], [14.22221, -5.88698], [14.16309, -5.8661], [14.14015, -5.86352], [14.02119, -5.87251], [13.98233, -5.85328], [13.94357, -5.84161], [13.64152, -5.86579], [13.56256, -5.85742], [13.53476, -5.86703], [13.52267, -5.86755], [13.49321, -5.85845], [13.38045, -5.85639], [13.34252, -5.89059], [13.311, -5.87396], [13.26935, -5.86352], [13.18387, -5.85643], [13.17067, -5.84987], [13.12289, -5.86247], [13.06723, -5.86262], [13.03635, -5.8572], [12.98927, -5.83571], [12.92433, -5.81463], [12.85874, -5.81951], [12.82244, -5.82977], [12.76648, -5.86531], [12.71754, -5.93133], [12.7226, -5.97926], [12.67198, -6.00012], [12.60701, -5.99802], [12.55637, -6.02546], [12.44973, -6.05187], [12.43517, -6.05084], [12.43187, -6.03442], [12.43615, -6.02693], [12.4572, -6.01355], [12.45719, -5.98177], [12.44727, -5.97631], [12.4142, -5.97854], [12.39656, -6.00594], [12.37623, -5.95867], [12.35516, -5.94499], [12.24946, -5.82902], [12.16191, -5.68145], [12.14724, -5.61793], [12.17019, -5.55463], [12.18239, -5.54324]], [[28.45186, -2.48082], [28.42842, -2.5081], [28.45087, -2.55566], [28.85724, -2.51835], [28.45186, -2.48082]]]]}}]}