{"type": "FeatureCollection", "features": [{"type": "Feature", "properties": {"name": "동아프리카", "name_en": "German East Africa", "period": "1914년", "kind": "식민지", "level": "개별 지역", "colonizer": "독일령", "legend": "동아프리카", "map_title": "아프리카의 저항 운동", "source": "미래엔 세계사 교과서 3권 173쪽", "volume": 3, "page": 173, "coast_snap": "Natural Earth 10m 해안선에 맞춤", "border_snap": "현대 국경(Natural Earth 10m)에 맞춘 구간 약 3600 km"}, "geometry": {"type": "MultiPolygon", "coordinates": [[[[40.54002, -10.78981], [40.50224, -10.8099], [40.49373, -10.79566], [40.50563, -10.78541], [40.51271, -10.76964], [40.54002, -10.78981]]], [[[39.61243, -9.05899], [39.61843, -9.07676], [39.60762, -9.09452], [39.58962, -9.08267], [39.56198, -9.05066], [39.56079, -9.03409], [39.61243, -9.05899]]], [[[39.50141, -8.50956], [39.52523, -8.52841], [39.52758, -8.54258], [39.50853, -8.53905], [39.49424, -8.52607], [39.48951, -8.50721], [39.50141, -8.50956]]], [[[39.70272, -8.09119], [39.69686, -8.07491], [39.70281, -8.04901], [39.7147, -8.02781], [39.74205, -7.99483], [39.79673, -7.99246], [39.80135, -8.00676], [39.74931, -8.06533], [39.71943, -8.09256], [39.70272, -8.09119]]], [[[39.70404, -7.81931], [39.71535, -7.81163], [39.76596, -7.80633], [39.8143, -7.78851], [39.80877, -7.78045], [39.77346, -7.78166], [39.77346, -7.77549], [39.79607, -7.76702], [39.8449, -7.73773], [39.85183, -7.7121], [39.86764, -7.68703], [39.89526, -7.74623], [39.86502, -7.81879], [39.85157, -7.83709], [39.84171, -7.87766], [39.82325, -7.91398], [39.7837, -7.90586], [39.75465, -7.9153], [39.72632, -7.97339], [39.66651, -7.99341], [39.64992, -7.9939], [39.62974, -7.98576], [39.58719, -7.94549], [39.62192, -7.93922], [39.63169, -7.91498], [39.64991, -7.91188], [39.69304, -7.87029], [39.70753, -7.84743], [39.69827, -7.83619], [39.70404, -7.81931]]], [[[31.51131, -1.41593], [31.48987, -1.50009], [31.29952, -1.98787], [31.29321, -2.19536], [31.29925, -2.27868], [31.30826, -2.30941], [31.38917, -2.47596], [31.41555, -2.69457], [31.42527, -2.73938], [31.43565, -2.76522], [31.44961, -2.77764], [31.46552, -2.77703], [31.48766, -2.76575], [31.53371, -2.72245], [31.63412, -2.60027], [31.77461, -2.40911], [31.88921, -2.32358], [31.96073, -2.28324], [31.99254, -2.27074], [32.01725, -2.26658], [32.05479, -2.27176], [32.15919, -2.30475], [32.27447, -2.35473], [32.37064, -2.40651], [32.40256, -2.42866], [32.41724, -2.44522], [32.45825, -2.5331], [32.49211, -2.65058], [32.49275, -2.67959], [32.47228, -2.85267], [32.47257, -2.89585], [32.47926, -2.92431], [32.48884, -2.93646], [32.5003, -2.94209], [32.5198, -2.94197], [32.55936, -2.92685], [32.64819, -2.87206], [32.72835, -2.80766], [32.7543, -2.78061], [32.76075, -2.76777], [32.76041, -2.75649], [32.7518, -2.73828], [32.6284, -2.59295], [32.61002, -2.56538], [32.60167, -2.54215], [32.60732, -2.47995], [32.63052, -2.39628], [32.66588, -2.32028], [32.6842, -2.29766], [32.70479, -2.28681], [32.75089, -2.28866], [32.81151, -2.30415], [33.16204, -2.44346], [33.2111, -2.4519], [33.23234, -2.44243], [33.27798, -2.41102], [33.55167, -2.19557], [33.64505, -2.11323], [33.65111, -2.09928], [33.64966, -2.08273], [33.63105, -2.03767], [33.60169, -1.99539], [33.58698, -1.9814], [33.57143, -1.97421], [33.52226, -1.97001], [33.45837, -1.97204], [33.14125, -1.99849], [33.07796, -1.99766], [33.03051, -1.98909], [33.02866, -1.97791], [33.04749, -1.95961], [33.22039, -1.84119], [33.24936, -1.81937], [33.25999, -1.80598], [33.25967, -1.7899], [33.24627, -1.77446], [33.17702, -1.72547], [33.14373, -1.69515], [33.14018, -1.68173], [33.14855, -1.65979], [33.19013, -1.60213], [33.24509, -1.54463], [33.32102, -1.48131], [33.38887, -1.45031], [33.50296, -1.4103], [33.51906, -1.00258], [33.87015, -1.00257], [33.88093, -0.96363], [33.89173, -0.95036], [33.92331, -0.96651], [33.93912, -1.00257], [34.00002, -1.00257], [34.00199, -1.02872], [34.01542, -1.03751], [34.05253, -1.0404], [37.64487, -3.04596], [37.66016, -3.07056], [37.70006, -3.31437], [37.68186, -3.31571], [37.67194, -3.32429], [37.66843, -3.33824], [37.66988, -3.35613], [37.65096, -3.35757], [37.62719, -3.37028], [37.60487, -3.38796], [37.58523, -3.41297], [37.57789, -3.43581], [37.57944, -3.44635], [37.58668, -3.45369], [37.60311, -3.45576], [37.60817, -3.46361], [37.59618, -3.49968], [37.59908, -3.51343], [37.64693, -3.51064], [37.66833, -3.5125], [37.68941, -3.51808], [37.70832, -3.52717], [37.72228, -3.53999], [37.72982, -3.55539], [37.74718, -3.61699], [37.75721, -3.63745], [37.77096, -3.65543], [38.99276, -4.53502], [39.22422, -4.19475], [39.21707, -4.17029], [39.26631, -4.18233], [39.33087, -4.21094], [39.55972, -4.36979], [39.54005, -4.43041], [39.5311, -4.41741], [39.52247, -4.41815], [39.50603, -4.43808], [39.50233, -4.46139], [39.48487, -4.47894], [39.45069, -4.58193], [39.44436, -4.56341], [39.44744, -4.53427], [39.44386, -4.51995], [39.431, -4.52996], [39.40967, -4.57447], [39.39137, -4.57106], [39.39064, -4.59344], [39.40625, -4.61517], [39.39616, -4.62899], [39.36248, -4.63396], [39.3244, -4.6246], [39.30047, -4.59498], [39.29371, -4.61548], [39.26433, -4.60662], [39.24269, -4.62737], [39.22437, -4.65585], [39.1906, -4.6775], [39.19744, -4.68377], [39.21509, -4.68866], [39.22152, -4.71673], [39.21611, -4.74891], [39.19743, -4.76628], [39.17018, -4.77996], [39.21598, -4.79567], [39.2185, -4.818], [39.21354, -4.85638], [39.17525, -4.92627], [39.16229, -4.93864], [39.15651, -4.924], [39.16961, -4.8659], [39.16334, -4.84832], [39.14568, -4.89983], [39.13038, -4.91813], [39.10865, -4.9166], [39.12861, -4.95316], [39.13216, -5.01018], [39.12915, -5.02019], [39.12232, -5.0245], [39.10678, -5.01963], [39.09815, -5.02337], [39.08448, -5.04778], [39.08277, -5.06146], [39.09718, -5.06064], [39.12915, -5.04756], [39.12989, -5.06259], [39.14274, -5.09588], [39.09409, -5.14495], [39.07405, -5.18656], [39.04363, -5.23219], [39.04037, -5.23935], [39.04819, -5.24668], [39.07455, -5.21886], [39.08057, -5.23113], [39.02647, -5.37833], [39.01246, -5.39706], [38.98129, -5.41741], [38.97828, -5.43108], [38.9826, -5.43955], [38.9974, -5.4494], [38.99877, -5.46503], [38.98546, -5.5047], [38.95668, -5.56339], [38.92177, -5.61611], [38.88893, -5.63714], [38.90259, -5.64333], [38.89601, -5.66399], [38.89518, -5.71054], [38.83253, -5.81561], [38.82162, -5.86053], [38.82129, -5.92498], [38.80104, -5.95973], [38.79492, -5.98853], [38.77801, -6.03069], [38.77906, -6.05486], [38.79956, -6.08221], [38.81324, -6.13063], [38.85677, -6.16368], [38.86247, -6.20762], [38.86006, -6.23138], [38.85303, -6.25318], [38.84116, -6.26776], [38.84879, -6.29266], [38.85222, -6.34873], [38.86476, -6.37363], [38.89828, -6.39471], [38.91505, -6.4367], [38.92888, -6.44939], [38.95386, -6.45502], [38.96469, -6.47324], [39.00506, -6.47698], [39.02605, -6.48699], [39.03688, -6.48317], [39.0359, -6.47519], [38.99144, -6.45211], [39.04105, -6.47032], [39.09601, -6.52221], [39.12916, -6.56194], [39.15569, -6.58092], [39.18727, -6.6242], [39.21273, -6.64179], [39.22334, -6.66591], [39.23097, -6.70371], [39.24586, -6.73105], [39.26393, -6.7444], [39.28003, -6.72717], [39.28442, -6.75612], [39.28028, -6.8305], [39.30047, -6.84938], [39.29982, -6.83115], [39.29372, -6.81521], [39.31202, -6.81635], [39.35499, -6.83913], [39.40056, -6.84589], [39.42791, -6.85809], [39.46453, -6.85769], [39.49431, -6.9013], [39.5027, -6.93084], [39.55371, -7.00075], [39.55257, -7.01043], [39.54005, -7.02809], [39.54859, -7.09189], [39.54753, -7.11825], [39.53256, -7.11688], [39.52247, -7.12957], [39.50903, -7.16838], [39.49789, -7.17717], [39.48846, -7.17692], [39.48143, -7.16823], [39.47787, -7.15106], [39.43588, -7.18027], [39.42677, -7.19231], [39.41439, -7.24089], [39.3899, -7.26482], [39.36744, -7.27142], [39.37565, -7.29559], [39.36979, -7.30689], [39.32781, -7.30926], [39.35425, -7.3493], [39.35433, -7.37078], [39.33053, -7.42405], [39.30397, -7.4485], [39.29233, -7.48626], [39.27475, -7.59645], [39.28004, -7.63763], [39.29623, -7.68841], [39.28688, -7.71754], [39.302, -7.75412], [39.29713, -7.77166], [39.25262, -7.82334], [39.28321, -7.81658], [39.30502, -7.79176], [39.32782, -7.72635], [39.35522, -7.75254], [39.35668, -7.76688], [39.34083, -7.78167], [39.39551, -7.77989], [39.44027, -7.81854], [39.44348, -7.8324], [39.42091, -7.90203], [39.43164, -7.93695], [39.43702, -7.99391], [39.45752, -7.97969], [39.45434, -8.01043], [39.4419, -8.03867], [39.40968, -8.08953], [39.37658, -8.17917], [39.36193, -8.20661], [39.35499, -8.20355], [39.34083, -8.2068], [39.34782, -8.22161], [39.34831, -8.27506], [39.334, -8.26881], [39.32781, -8.29557], [39.31153, -8.27776], [39.29371, -8.26881], [39.30161, -8.28338], [39.30208, -8.29509], [39.29492, -8.3038], [39.28004, -8.30926], [39.29279, -8.33506], [39.30531, -8.38868], [39.30664, -8.41937], [39.29998, -8.47731], [39.30307, -8.50547], [39.33643, -8.53949], [39.35774, -8.58863], [39.36182, -8.61116], [39.36004, -8.69423], [39.35434, -8.71396], [39.38933, -8.72382], [39.40219, -8.74505], [39.43311, -8.74962], [39.43898, -8.75532], [39.44386, -8.789], [39.45265, -8.80535], [39.48853, -8.82693], [39.50856, -8.87591], [39.51954, -8.89202], [39.54769, -8.91319], [39.55371, -8.92229], [39.53972, -8.92619], [39.52069, -8.92302], [39.4851, -8.89223], [39.46461, -8.86745], [39.44939, -8.85866], [39.4131, -8.86736], [39.38868, -8.89886], [39.40382, -8.90455], [39.46418, -8.89887], [39.4476, -8.92555], [39.45533, -8.93133], [39.49186, -8.93842], [39.48487, -8.9944], [39.49853, -9.00873], [39.49858, -9.02898], [39.49236, -9.0429], [39.50602, -9.05625], [39.49334, -9.07952], [39.50268, -9.10662], [39.49855, -9.1242], [39.52996, -9.11305], [39.55714, -9.09386], [39.56918, -9.09304], [39.62653, -9.16009], [39.6438, -9.18906], [39.6486, -9.2199], [39.63209, -9.25848], [39.6499, -9.28249], [39.64308, -9.32342], [39.64624, -9.35662], [39.64289, -9.36837], [39.61597, -9.39714], [39.58155, -9.39918], [39.5691, -9.40496], [39.56398, -9.41424], [39.56739, -9.44752], [39.57655, -9.44309], [39.60841, -9.44012], [39.6159, -9.42491], [39.65072, -9.44477], [39.64991, -9.4743], [39.68077, -9.50553], [39.68913, -9.525], [39.70094, -9.57952], [39.71144, -9.59466], [39.72493, -9.6041], [39.71209, -9.62509], [39.74089, -9.66676], [39.73748, -9.68711], [39.74658, -9.70647], [39.71827, -9.72064], [39.69695, -9.74489], [39.70509, -9.74863], [39.75228, -9.74864], [39.7697, -9.79306], [39.7938, -9.81229], [39.80068, -9.82404], [39.80729, -9.85223], [39.80005, -9.87265], [39.78126, -9.88241], [39.75229, -9.879], [39.76075, -9.89251], [39.78923, -9.91424], [39.7902, -9.92302], [39.74513, -9.94452], [39.7142, -9.95208], [39.71372, -9.96356], [39.72632, -9.98887], [39.72438, -10.0075], [39.71705, -10.02158], [39.69077, -10.04339], [39.71648, -10.03875], [39.7632, -9.98285], [39.7837, -9.98505], [39.79705, -9.99245], [39.82691, -9.99034], [39.84816, -10.01141], [39.88941, -10.01492], [39.91431, -10.03387], [39.97495, -10.1334], [39.97682, -10.19101], [39.98512, -10.22096], [39.99537, -10.20908], [40.0005, -10.19264], [40.00066, -10.17523], [39.98658, -10.13974], [39.98877, -10.13131], [40.01947, -10.13286], [40.13265, -10.1697], [40.13408, -10.19331], [40.12428, -10.22161], [40.1355, -10.24765], [40.11842, -10.25693], [40.11541, -10.26312], [40.12062, -10.27117], [40.13591, -10.26874], [40.16041, -10.28045], [40.16755, -10.25648], [40.17384, -10.25515], [40.19631, -10.26759], [40.23211, -10.29664], [40.23894, -10.26873], [40.25278, -10.27557], [40.26686, -10.26873], [40.19803, -10.24212], [40.23211, -10.20047], [40.24536, -10.20469], [40.25945, -10.24212], [40.30103, -10.26874], [40.33872, -10.34881], [40.34881, -10.35809], [40.38982, -10.36492], [40.42213, -10.35565], [40.42677, -10.33587], [40.41481, -10.32041], [40.39723, -10.32389], [40.3926, -10.31211], [40.39602, -10.30349], [40.40512, -10.29844], [40.41773, -10.29666], [40.427, -10.30007], [40.44938, -10.34539], [40.44019, -10.36142], [40.4109, -10.39227], [40.43685, -10.39228], [40.42457, -10.43719], [40.4375, -10.4616], [40.43686, -10.47479], [40.45395, -10.46902], [40.4694, -10.4726], [40.47542, -10.48268], [40.46485, -10.49586], [40.48373, -10.5001], [40.51051, -10.47773], [40.52702, -10.48846], [40.53206, -10.50945], [40.49903, -10.55047], [40.5066, -10.56634], [40.56104, -10.58466], [40.56812, -10.59979], [40.57049, -10.63388], [40.57781, -10.64983], [40.59213, -10.65789], [40.63158, -10.66297], [40.64673, -10.67035], [40.65494, -10.68694], [40.64039, -10.69133], [40.60206, -10.68768], [40.56983, -10.69671], [40.48536, -10.76214], [40.49107, -10.79122], [40.35333, -10.5607], [40.28853, -10.58302], [40.2507, -10.61093], [40.19158, -10.6688], [40.16109, -10.70436], [40.13319, -10.71459], [40.00813, -10.81112], [39.88597, -10.86445], [39.78582, -10.93256], [39.7605, -10.9431], [39.59276, -10.97938], [39.51566, -10.98506], [39.4985, -10.99065], [39.48268, -10.99922], [39.28662, -11.15415], [39.26327, -11.16676], [39.23815, -11.1742], [39.21159, -11.17389], [39.19051, -11.16624], [39.14979, -11.14433], [39.12622, -11.13968], [39.09542, -11.15343], [39.0608, -11.16014], [38.93006, -11.16004], [38.89626, -11.16769], [38.85192, -11.20283], [38.83105, -11.208], [38.81782, -11.21626], [38.77802, -11.25368], [38.75973, -11.26319], [38.71508, -11.25647], [38.65421, -11.2758], [38.63819, -11.28923], [38.61566, -11.31724], [38.51716, -11.38308], [38.49226, -11.41346], [38.46239, -11.39631], [38.38311, -11.37667], [38.34766, -11.35879], [38.29247, -11.30163], [38.25661, -11.27714], [38.21041, -11.27001], [38.1669, -11.28375], [38.15501, -11.28055], [38.13538, -11.26639], [38.12566, -11.26319], [38.11543, -11.24954], [38.10933, -11.24965], [38.10117, -11.25647], [38.07078, -11.25585], [38.01363, -11.26546], [38.00422, -11.27528], [37.99533, -11.27755], [37.95461, -11.28003], [37.93808, -11.28396], [37.87524, -11.3191], [37.86842, -11.32778], [37.85043, -11.38762], [37.84103, -11.39982], [37.84248, -11.4178], [37.8185, -11.45987], [37.81323, -11.48229], [37.82511, -11.52023], [37.81695, -11.53356], [37.78367, -11.55888], [37.71091, -11.5904], [37.66636, -11.62554], [37.64776, -11.63598], [37.57293, -11.64415], [37.53676, -11.66296], [37.50379, -11.67267], [37.48477, -11.70885], [37.46968, -11.71949], [37.45066, -11.72259], [37.42782, -11.72259], [37.37832, -11.70884], [37.37015, -11.70481], [37.35238, -11.68631], [37.3408, -11.68094], [37.3314, -11.68156], [37.30607, -11.69458], [37.27021, -11.69841], [37.2266, -11.69375], [37.14164, -11.67474], [37.1065, -11.6581], [37.07157, -11.62916], [37.04438, -11.59567], [37.0324, -11.56487], [36.99839, -11.58461], [36.90589, -11.59278], [36.89111, -11.58999], [36.86631, -11.57418], [36.84657, -11.57273], [36.83706, -11.56797], [36.82011, -11.57356], [36.73805, -11.67474], [36.68968, -11.69458], [36.66725, -11.71339], [36.64058, -11.71629], [36.6257, -11.72135], [36.56297, -11.73127], [36.54571, -11.72941], [36.50871, -11.70978], [36.50271, -11.68631], [36.49486, -11.68094], [36.37807, -11.68094], [36.36122, -11.69241], [36.27875, -11.70885], [36.25291, -11.69665], [36.24092, -11.69458], [36.19968, -11.70151], [36.18821, -11.69365], [36.17922, -11.67556], [36.17622, -11.655], [36.18263, -11.64001], [36.16806, -11.57872], [36.14284, -11.56901], [36.12113, -11.55061], [36.07958, -11.53697], [36.02222, -11.50565], [35.98853, -11.51216], [35.96982, -11.50245], [35.96083, -11.48354], [35.97034, -11.46121], [35.95308, -11.44064], [35.93975, -11.43413], [35.90202, -11.43455], [35.8673, -11.4209], [35.82637, -11.41346], [35.81314, -11.42235], [35.78193, -11.46121], [35.76426, -11.47485], [35.71403, -11.48385], [35.69563, -11.49459], [35.70338, -11.5165], [35.69129, -11.52426], [35.68023, -11.53759], [35.66483, -11.57201], [35.65481, -11.57831], [35.59972, -11.59216], [35.57626, -11.60518], [35.5437, -11.59474], [35.53274, -11.59557], [35.53151, -11.61273], [35.52014, -11.60911], [35.50763, -11.58906], [35.49874, -11.58234], [35.49409, -11.58182], [35.47011, -11.59216], [35.44118, -11.59144], [35.43187, -11.58844], [35.4235, -11.57655], [34.99935, -11.57392], [34.96296, -11.54109], [34.96296, -11.5131], [34.95573, -11.48674], [34.94446, -11.46442], [34.92565, -11.44591], [34.91707, -11.41884], [34.89837, -11.40354], [34.88658, -11.37543], [34.86788, -11.35879], [34.84369, -11.34628], [34.80049, -11.33192], [34.78488, -11.33347], [34.77217, -11.34442], [34.76556, -11.34515], [34.73703, -11.29678], [34.7575, -11.28375], [34.7575, -11.27755], [34.74168, -11.26866], [34.72866, -11.25399], [34.71977, -11.23456], [34.71409, -11.20273], [34.69993, -11.1895], [34.68184, -11.18505], [34.66872, -11.16014], [34.62107, -11.11973], [34.61353, -11.10216], [34.61063, -11.07767], [34.59296, -11.01617], [34.59792, -10.99096], [34.62706, -10.95406], [34.64546, -10.91324], [34.64763, -10.85856], [34.66055, -10.79603], [34.65673, -10.76988], [34.67502, -10.75242], [34.67244, -10.7395], [34.65993, -10.72772], [34.64763, -10.70839], [34.66086, -10.6873], [34.66003, -10.6655], [34.65052, -10.64534], [34.62634, -10.61434], [34.62717, -10.59511], [34.62438, -10.58344], [34.6004, -10.57806], [34.58572, -10.55357], [34.58107, -10.53972], [34.58149, -10.51367], [34.59296, -10.48174], [34.58872, -10.46313], [34.5695, -10.4314], [34.56505, -10.4098], [34.58562, -10.29002], [34.57508, -10.25581], [34.56557, -10.20268], [34.53239, -10.12889], [34.52475, -10.09478], [34.53777, -10.05386], [34.52475, -10.00879], [34.4833, -9.94616], [34.38232, -9.81966], [34.33168, -9.76922], [34.32424, -9.73243], [34.31794, -9.7192], [34.28807, -9.70845], [34.19081, -9.60675], [34.16187, -9.59362], [34.13707, -9.57058], [34.10317, -9.52986], [34.08932, -9.52221], [34.07981, -9.51105], [34.04746, -9.48996], [34.01274, -9.47746], [33.96075, -9.5249], [33.94587, -9.55001], [33.96447, -9.59466], [33.95486, -9.6606], [33.95134, -9.67362], [33.94308, -9.68385], [33.9283, -9.69346], [33.9283, -9.70028], [33.91186, -9.71796], [33.90018, -9.70959], [33.88933, -9.68974], [33.86525, -9.66959], [33.83693, -9.65285], [33.81347, -9.64334], [33.78753, -9.62649], [33.762, -9.60096], [33.73461, -9.58412], [33.70252, -9.5929], [33.67606, -9.60768], [33.65064, -9.61099], [33.59338, -9.59683], [33.55948, -9.59331], [33.51163, -9.61698], [33.48052, -9.62442], [33.43897, -9.62153], [33.41964, -9.61564], [33.40425, -9.60489], [33.375, -9.54908], [33.34674, -9.52495], [33.28061, -9.58813], [32.84289, -9.46562], [32.85619, -9.37972], [32.83074, -9.37018], [32.78433, -9.33969], [32.75963, -9.34], [32.75229, -9.33741], [32.74651, -9.32997], [32.73969, -9.30734], [32.72584, -9.29256], [32.71323, -9.28584], [32.6416, -9.27985], [32.55561, -9.26124], [32.51805, -9.25825], [32.50446, -9.24925], [32.49009, -9.22734], [32.47066, -9.18187], [32.4597, -9.16802], [32.42343, -9.14383], [32.38302, -9.13391], [32.25274, -9.13649], [32.23145, -9.13381], [32.21129, -9.12678], [32.19161, -9.11221], [32.15481, -9.07521], [32.13414, -9.06415], [32.09642, -9.06911], [32.05725, -9.04958], [32.03172, -9.04596], [31.98056, -9.0719], [31.93808, -9.06177], [31.91772, -9.0225], [31.91782, -8.9731], [31.93663, -8.93258], [31.7876, -8.89217], [31.76434, -8.89413], [31.73024, -8.91243], [31.70978, -8.91966], [31.68962, -8.91956], [31.67267, -8.91305], [31.57645, -8.83967], [31.55335, -8.80907], [31.54586, -8.76629], [31.54596, -8.72897], [31.53904, -8.70355], [31.51909, -8.68701], [31.48064, -8.67616], [31.46472, -8.66614], [31.44323, -8.64154], [31.42752, -8.63348], [31.38597, -8.63255], [31.37264, -8.62386], [31.36592, -8.59865], [31.3622, -8.59234], [31.35331, -8.58717], [31.34752, -8.59245], [31.26091, -8.62397], [31.24805, -8.6219], [31.23735, -8.61394], [31.21844, -8.58872], [31.20676, -8.58077], [31.18268, -8.58077], [31.11984, -8.61663], [31.07782, -8.61632], [31.03364, -8.6003], [30.99235, -8.57591], [30.95954, -8.55048], [30.89189, -8.47917], [30.82828, -8.38812], [30.78708, -8.30657], [30.61927, -8.21428], [30.48336, -8.23491], [30.62687, -7.88381], [30.44164, -7.59633], [30.41471, -7.50197], [30.40494, -7.43603], [30.3696, -7.31025], [30.29446, -7.14943], [30.23467, -7.05714], [30.09085, -6.89002], [30.01272, -6.82522], [29.87309, -6.75421], [29.73863, -6.65241], [29.707, -6.61934], [29.68437, -6.58151], [29.63393, -6.44694], [29.56603, -6.35951], [29.53771, -6.31238], [29.52551, -6.2731], [29.50882, -6.15373], [29.4787, -6.0418], [29.47611, -6.00211], [29.49606, -5.93865], [29.57089, -5.83799], [29.60303, -5.78166], [29.61243, -5.70435], [29.59352, -5.62033], [29.49637, -5.39171], [29.45565, -5.22996], [29.37782, -5.08754], [29.34423, -5.006], [29.32377, -4.92016], [29.32103, -4.83634], [29.34082, -4.7517], [29.40134, -4.58685], [29.4109, -4.50231], [29.37276, -4.20817], [29.33948, -4.09324], [29.27773, -3.98895], [29.2398, -3.94803], [29.22455, -3.92653], [29.21504, -3.89986], [29.20657, -3.78194], [29.22326, -3.66701], [29.22517, -3.58857], [29.21311, -3.42283], [28.80465, -3.45376], [28.7729, -3.45944], [28.74239, -3.47231], [28.76474, -3.16946], [29.08978, -2.92607], [29.08327, -2.91005], [29.08172, -2.89393], [29.0627, -2.8622], [29.04906, -2.82748], [29.03407, -2.82086], [28.9949, -2.81363], [28.98689, -2.79678], [28.89909, -2.66066], [28.89134, -2.65271], [28.89806, -2.57633], [28.89134, -2.55307], [28.88106, -2.54263], [28.86096, -2.53116], [28.85724, -2.51835], [28.86085, -2.50522], [28.87822, -2.48972], [28.86457, -2.45944], [28.85884, -2.4182], [28.86633, -2.39195], [28.88039, -2.37985], [28.92814, -2.36445], [28.94545, -2.35422], [28.95966, -2.33975], [28.97878, -2.30678], [28.98338, -2.28735], [28.99366, -2.27774], [29.00214, -2.27474], [29.03092, -2.27567], [29.07541, -2.26389], [29.10983, -2.23671], [29.13484, -2.19775], [29.15055, -2.15041], [29.15634, -2.10866], [29.15427, -2.07269], [29.12771, -1.9157], [29.12554, -1.87911], [29.1305, -1.84335], [29.14931, -1.79932], [29.21225, -1.69866], [29.23334, -1.65866], [29.24543, -1.64098], [29.2937, -1.60099], [29.30382, -1.58786], [29.33121, -1.53143], [29.34279, -1.51655], [29.3585, -1.50993], [29.43741, -1.50621], [29.46433, -1.46694], [29.50184, -1.42885], [29.42783, -1.29909], [29.47606, -1.30334], [29.50672, -1.3139], [29.53442, -1.33049], [29.58225, -1.37434], [29.59401, -1.38926], [29.6391, -1.38901], [29.6577, -1.38395], [29.71052, -1.35253], [29.7348, -1.34819], [29.74669, -1.35087], [29.77491, -1.36627], [29.78317, -1.36141], [29.78917, -1.34167], [29.79821, -1.33093], [29.81614, -1.32255], [29.82514, -1.3239], [29.83609, -1.32948], [29.8642, -1.3703], [29.86865, -1.39128], [29.87102, -1.43242], [29.88074, -1.45361], [29.8979, -1.46963], [29.91743, -1.47521], [29.93846, -1.47293], [29.96042, -1.46477], [30.02833, -1.42715], [30.03866, -1.42498], [30.04776, -1.40317], [30.06078, -1.38973], [30.09551, -1.37113], [30.13633, -1.35521], [30.14718, -1.34509], [30.15845, -1.29114], [30.16558, -1.27749], [30.17343, -1.27284], [30.19674, -1.26871], [30.21219, -1.25951], [30.25669, -1.21724], [30.28051, -1.18241], [30.28754, -1.15543], [30.31741, -1.13703], [30.32903, -1.0805], [30.33745, -1.06624], [30.35275, -1.06076], [30.40319, -1.07037], [30.43202, -1.06055], [30.48101, -1.05911], [30.49342, -1.06024], [30.51166, -1.07337], [30.59274, -1.06345], [30.61454, -1.06583], [30.63863, -1.07337], [30.6871, -1.025], [30.70157, -1.01746], [30.7395, -1.00547], [30.77712, -0.98583], [30.81246, -0.99472], [30.82838, -1.00257], [31.51501, -1.00258], [31.51131, -1.41593]]], [[[39.2278, -5.89073], [39.28004, -5.84197], [39.28826, -5.81048], [39.29527, -5.73651], [39.31348, -5.71846], [39.34346, -5.78179], [39.28538, -5.90701], [39.27512, -5.93765], [39.29978, -6.00662], [39.31306, -6.09579], [39.36907, -6.14967], [39.45357, -6.26603], [39.55847, -6.43396], [39.54428, -6.45085], [39.50847, -6.46281], [39.47154, -6.45195], [39.44383, -6.42174], [39.43394, -6.40154], [39.41425, -6.31634], [39.41652, -6.30136], [39.39405, -6.3082], [39.39422, -6.31902], [39.40968, -6.3458], [39.40845, -6.36825], [39.40357, -6.3737], [39.37567, -6.36337], [39.38006, -6.34417], [39.37436, -6.32879], [39.34833, -6.30136], [39.31691, -6.25302], [39.30047, -6.23935], [39.28688, -6.24676], [39.28688, -6.25408], [39.29272, -6.25498], [39.2937, -6.26773], [39.28028, -6.25848], [39.27605, -6.2741], [39.27955, -6.29664], [39.29028, -6.3082], [39.28248, -6.31217], [39.26403, -6.30227], [39.20792, -6.23634], [39.19859, -6.22079], [39.17702, -6.15789], [39.2129, -6.11419], [39.20476, -6.05641], [39.18622, -5.99432], [39.19049, -5.91404], [39.19744, -5.89668], [39.21111, -5.91774], [39.2278, -5.89073]]], [[[39.23165, -5.82322], [39.23784, -5.83621], [39.23785, -5.85604], [39.21448, -5.8581], [39.2124, -5.84374], [39.21718, -5.79791], [39.21442, -5.77739], [39.22609, -5.76919], [39.23026, -5.80064], [39.23851, -5.81296], [39.23165, -5.82322]]], [[[39.68137, -4.98716], [39.69786, -4.98441], [39.68394, -5.02019], [39.6758, -5.00172], [39.68137, -4.98716]]], [[[39.72902, -4.91425], [39.7352, -4.91035], [39.74805, -4.92162], [39.71024, -4.97202], [39.68849, -4.95875], [39.67727, -4.94508], [39.6841, -4.89035], [39.69158, -4.90252], [39.70231, -4.9079], [39.71209, -4.93141], [39.72316, -4.92986], [39.72902, -4.91425]]]]}}]}