{"type": "FeatureCollection", "features": [{"type": "Feature", "properties": {"name": "모로코", "name_en": "Morocco", "period": "1914년", "kind": "식민지", "level": "개별 지역", "colonizer": "프랑스령", "legend": "모로코", "map_title": "아프리카의 저항 운동", "source": "미래엔 세계사 교과서 3권 173쪽", "volume": 3, "page": 173, "coast_snap": "Natural Earth 10m 해안선에 맞춤", "border_snap": "현대 국경(Natural Earth 10m)에 맞춘 구간 약 850 km"}, "geometry": {"type": "Polygon", "coordinates": [[[-13.3079, 27.3439], [-13.29426, 27.35175], [-13.24083, 27.4654], [-13.20759, 27.56745], [-13.20085, 27.60629], [-13.18098, 27.64484], [-13.17124, 27.685], [-13.09797, 27.73224], [-13.06143, 27.74291], [-13.04516, 27.75983], [-13.003, 27.82103], [-12.97955, 27.8937], [-12.96808, 27.91461], [-12.95238, 27.92861], [-12.93289, 27.93877], [-12.8387, 27.97044], [-12.65783, 27.99802], [-12.51354, 27.99543], [-12.33467, 28.04732], [-12.06143, 28.08902], [-12.02309, 28.11956], [-12.0056, 28.1232], [-11.48558, 28.32563], [-11.45279, 28.34846], [-11.42882, 28.37592], [-11.3893, 28.43488], [-11.34097, 28.47968], [-11.32591, 28.5152], [-11.26647, 28.55158], [-11.21964, 28.60248], [-11.21181, 28.61676], [-11.17032, 28.63972], [-11.14915, 28.66766], [-11.11498, 28.69184], [-11.09104, 28.7263], [-11.06309, 28.75238], [-10.7626, 28.8902], [-10.69444, 28.93043], [-10.61242, 28.96772], [-10.5738, 28.99042], [-10.45092, 29.09219], [-10.34804, 29.22919], [-10.30199, 29.27187], [-10.26403, 29.28413], [-10.25674, 29.29123], [-10.19022, 29.22788], [-10.14911, 29.17133], [-10.08923, 29.06879], [-10.07261, 29.03642], [-10.05103, 28.9698], [-10.13745, 28.85961], [-10.26449, 28.75134], [-10.26689, 28.74393], [-10.26191, 28.73759], [-10.15588, 28.71575], [-10.00302, 28.75263], [-9.85828, 28.83763], [-9.71335, 28.96742], [-9.57668, 29.13241], [-9.46574, 29.30234], [-9.46808, 29.31763], [-9.64928, 29.43798], [-9.65793, 29.43955], [-9.69051, 29.40555], [-9.71491, 29.35491], [-9.80308, 29.22414], [-9.88839, 29.22037], [-9.96806, 29.2312], [-10.04382, 29.2554], [-10.11288, 29.29213], [-10.20616, 29.3534], [-10.18757, 29.37897], [-10.17763, 29.40582], [-10.14175, 29.42862], [-10.128, 29.45618], [-10.08698, 29.50996], [-10.07249, 29.56497], [-10.05309, 29.59975], [-10.00528, 29.63841], [-9.99168, 29.66681], [-9.9501, 29.71582], [-9.82022, 29.83894], [-9.71793, 29.99657], [-9.65514, 30.1269], [-9.64525, 30.16401], [-9.62844, 30.29114], [-9.61001, 30.35781], [-9.60733, 30.37763], [-9.61164, 30.40436], [-9.65492, 30.44201], [-9.66612, 30.4591], [-9.69175, 30.50959], [-9.70006, 30.54271], [-9.73082, 30.55208], [-9.75817, 30.58682], [-9.82966, 30.62861], [-9.87401, 30.63399], [-9.88853, 30.64826], [-9.88669, 30.68667], [-9.82022, 30.7923], [-9.8129, 30.82714], [-9.82435, 30.85175], [-9.82022, 30.87108], [-9.82771, 31.06745], [-9.84751, 31.12128], [-9.83503, 31.14476], [-9.80895, 31.2862], [-9.80663, 31.34345], [-9.8109, 31.36685], [-9.84751, 31.40241], [-9.81623, 31.43684], [-9.79296, 31.47134], [-9.76963, 31.53148], [-9.73327, 31.56737], [-9.72764, 31.58514], [-9.71361, 31.59785], [-9.69051, 31.6328], [-9.63942, 31.63443], [-9.55746, 31.6253], [-9.47966, 31.60281], [-9.39355, 31.55794], [-9.38205, 31.55897], [-9.21973, 31.74449], [-9.10727, 31.89667], [-9.03699, 32.0263], [-9.00307, 32.10354], [-8.98402, 32.16112], [-8.98254, 32.21599], [-8.99404, 32.32638], [-8.99501, 32.3922], [-8.98895, 32.41702], [-8.96605, 32.45956], [-8.84666, 32.62914], [-8.84994, 32.63639], [-8.89511, 32.66484], [-8.95255, 32.71561], [-8.97707, 32.74485], [-9.00547, 32.79011], [-8.90168, 32.8548], [-8.86779, 32.8819], [-8.75486, 33.01047], [-8.62914, 33.12763], [-8.62149, 33.13935], [-8.62087, 33.17371], [-8.52916, 33.2687], [-8.52115, 33.27252], [-8.51276, 33.27055], [-8.49413, 33.25951], [-8.45165, 33.26423], [-8.41503, 33.28002], [-8.37877, 33.30467], [-8.32021, 33.36537], [-8.28442, 33.38992], [-8.24293, 33.40457], [-8.10656, 33.43085], [-7.96277, 33.48473], [-7.89143, 33.50336], [-7.8695, 33.52665], [-7.77798, 33.55329], [-7.701, 33.58275], [-7.66755, 33.61269], [-7.64786, 33.60834], [-7.63622, 33.61456], [-7.60619, 33.60834], [-7.57925, 33.62074], [-7.52912, 33.63264], [-7.49706, 33.64997], [-7.46328, 33.6865], [-7.43432, 33.69823], [-7.40635, 33.72699], [-7.38713, 33.73247], [-7.39395, 33.72504], [-7.37385, 33.71931], [-7.35261, 33.72468], [-7.26749, 33.77241], [-7.22905, 33.80105], [-7.15282, 33.82999], [-7.09948, 33.84028], [-7.06785, 33.86366], [-7.03181, 33.87425], [-6.92736, 33.94416], [-6.82209, 34.03962], [-6.73375, 34.16258], [-6.66779, 34.2805], [-6.55793, 34.41771], [-6.5309, 34.47402], [-6.50792, 34.50479], [-6.2921, 34.8808], [-6.20546, 35.12438], [-6.14414, 35.25207], [-6.05467, 35.22864], [-6.01563, 35.21239], [-5.94239, 35.17172], [-5.86552, 35.11418], [-5.81781, 35.06636], [-5.78386, 35.0212], [-5.87296, 34.77894], [-5.93265, 34.66562], [-5.93074, 34.65669], [-5.65928, 34.4755], [-5.14876, 34.21317], [-4.59683, 33.99722], [-4.04003, 33.83517], [-3.45547, 33.71471], [-2.86401, 33.63756], [-2.27302, 33.60086], [-2.23181, 33.60101], [-1.74679, 33.70239], [-1.74074, 33.6866], [-1.72539, 33.67771], [-1.69072, 33.66733], [-1.67325, 33.6565], [-1.6624, 33.64469], [-1.61734, 33.55444], [-1.61274, 33.52147], [-1.6254, 33.49424], [-1.64039, 33.47553], [-1.65915, 33.41977], [-1.68323, 33.36923], [-1.68338, 33.27084], [-1.67423, 33.23797], [-1.62359, 33.19661], [-1.60561, 33.16803], [-1.59207, 33.13661], [-1.5714, 33.11198], [-1.49952, 33.06021], [-1.49306, 33.03948], [-1.49337, 33.01615], [-1.50298, 32.97463], [-1.51636, 32.95949], [-1.55879, 32.93365], [-1.42334, 32.7424], [-1.39053, 32.71878], [-1.32702, 32.69891], [-1.0475, 32.51701], [-1.032, 32.4944], [-1.08998, 32.43944], [-1.12316, 32.41795], [-1.16026, 32.40495], [-1.20171, 32.39986], [-1.21798, 32.39262], [-1.23416, 32.37461], [-1.24413, 32.35692], [-1.25751, 32.32084], [-1.27664, 32.20085], [-1.28299, 32.19018], [-1.30568, 32.17372], [-1.30955, 32.16744], [-1.30516, 32.15116], [-1.28899, 32.15091], [-1.25183, 32.16352], [-1.23271, 32.16372], [-1.21183, 32.15835], [-1.19561, 32.14605], [-1.19059, 32.12522], [-1.21033, 32.08967], [-1.24956, 32.08166], [-2.51615, 32.1322], [-2.69557, 32.08967], [-2.88119, 32.07629], [-2.93873, 32.04864], [-2.82784, 31.79459], [-3.00256, 31.77362], [-3.21921, 31.71771], [-3.51156, 31.67275], [-3.54874, 31.66995], [-3.59138, 31.67827], [-3.65951, 31.64782], [-3.67348, 31.38923], [-3.74747, 31.38517], [-3.8025, 31.35065], [-3.81519, 31.33716], [-3.81922, 31.31887], [-3.81291, 31.24336], [-3.81498, 31.22052], [-3.83617, 31.18978], [-3.84284, 31.17019], [-4.32612, 31.14192], [-5.08919, 30.85609], [-5.75857, 30.26434], [-5.81365, 30.22946], [-5.86111, 30.21594], [-6.71843, 30.07558], [-6.72691, 30.06907], [-6.82637, 29.9157], [-6.69965, 29.51623], [-6.78351, 29.44634], [-6.95824, 29.50924], [-7.07006, 29.51623], [-7.14693, 29.50924], [-7.25875, 29.4673], [-7.53407, 29.8023], [-7.57488, 29.80069], [-7.61079, 29.38909], [-7.61945, 29.38942], [-7.65361, 29.37619], [-7.72999, 29.31116], [-7.778, 29.28932], [-7.83913, 29.23904], [-7.94501, 29.17623], [-8.03633, 29.09985], [-8.06966, 29.07934], [-8.18231, 29.03554], [-8.25047, 28.99477], [-8.31677, 28.93906], [-8.36845, 28.91653], [-8.38349, 28.90578], [-8.4178, 28.85235], [-8.43041, 28.84101], [-8.47584, 28.81876], [-8.52082, 28.78708], [-8.64885, 28.72595], [-8.66761, 28.71169], [-8.67877, 28.69282], [-9.13824, 28.74213], [-9.49994, 28.45925], [-9.88886, 28.22338], [-10.29685, 28.04797], [-10.73599, 27.91408], [-11.19487, 27.81517], [-11.65571, 27.74473], [-12.14121, 27.69155], [-12.29847, 27.67868], [-12.38795, 27.65275], [-12.47683, 27.6364], [-12.62714, 27.63686], [-12.6553, 27.63257], [-12.73794, 27.52539], [-12.77933, 27.48475], [-12.82418, 27.45086], [-12.85292, 27.36488], [-12.89135, 27.27778], [-12.95069, 27.26936], [-13.02761, 27.26562], [-13.10082, 27.27252], [-13.1806, 27.2889], [-13.22266, 27.3031], [-13.3079, 27.3439]], [[-3.65951, 31.64782], [-3.92731, 31.98432], [-4.01026, 31.97078], [-4.01575, 31.95893], [-4.01128, 31.94132], [-3.65951, 31.64782]]]}}]}