{"type": "FeatureCollection", "features": [{"type": "Feature", "properties": {"map_title": "제1차 세계 대전의 전개", "source": "미래엔 세계사 교과서 4권 181쪽", "volume": 4, "page": 181, "legend": "연합국", "name": "세르비아", "name_en": "Serbia", "period": "1914–1918", "kind": "국가", "alliance": "연합국", "coast_snap": "Natural Earth 10m 해안선에 맞춤", "border_snap": "현대 국경(Natural Earth 10m)에 맞춘 구간 약 1440 km", "group": "세르비아", "map_folder": "4권_p181_제1차 세계 대전의 전개"}, "geometry": {"type": "Polygon", "coordinates": [[[18.41308, 42.46207], [18.42173, 42.51088], [18.43535, 42.54475], [18.47604, 42.60908], [18.53273, 42.66591], [18.60297, 42.71318], [18.64273, 42.73291], [18.7292, 42.76324], [18.8227, 42.78056], [18.91841, 42.78395], [18.9607, 42.78084], [18.98858, 42.76955], [19.07087, 42.81041], [19.20796, 42.82758], [19.21182, 42.83484], [19.19855, 42.89071], [19.19911, 42.93832], [19.21304, 42.97415], [19.23817, 43.00176], [19.35566, 43.07396], [19.40279, 43.10827], [19.43855, 43.14217], [19.4549, 43.16817], [19.45654, 43.1905], [19.41639, 43.25904], [19.40207, 43.29381], [19.39468, 43.34021], [19.39818, 43.37148], [19.40971, 43.40071], [19.43997, 43.44723], [19.41073, 43.54075], [19.41931, 43.54926], [19.43182, 43.57114], [19.44391, 43.57186], [19.48174, 43.56083], [19.49176, 43.56861], [19.48174, 43.57812], [19.47688, 43.58868], [19.4775, 43.61698], [19.48174, 43.62891], [19.50737, 43.64718], [19.50571, 43.67364], [19.48173, 43.72922], [19.46168, 43.76214], [19.35947, 43.84221], [19.30593, 43.90474], [19.27544, 43.93326], [19.22935, 43.95768], [19.24072, 43.96574], [19.24289, 43.97282], [19.23813, 43.98538], [19.23934, 43.99478], [18.95366, 44.09772], [18.95324, 44.11546], [19.157, 44.29358], [19.17716, 44.28696], [19.22005, 44.28024], [19.2495, 44.27074], [19.26366, 44.27017], [19.29591, 44.2758], [19.30738, 44.2742], [19.32433, 44.26397], [19.54323, 44.42743], [19.63589, 44.43877], [19.67189, 44.4358], [19.70948, 44.42589], [19.71813, 44.39672], [19.73666, 44.36449], [19.76417, 44.33829], [19.7995, 44.31949], [19.83607, 44.30911], [19.87712, 44.30497], [19.91951, 44.30725], [19.96019, 44.31528], [20.02061, 44.33945], [20.06627, 44.37625], [20.14591, 44.47704], [20.17999, 44.51113], [20.22104, 44.5343], [20.27274, 44.54185], [20.29498, 44.53902], [20.3352, 44.52213], [20.37146, 44.49392], [20.46934, 44.38469], [20.52043, 44.33926], [20.55945, 44.3193], [20.62156, 44.30553], [20.68278, 44.30489], [20.74526, 44.31468], [20.8062, 44.33154], [20.98777, 44.39657], [21.10995, 44.42482], [21.2587, 44.43968], [21.54496, 44.44358], [21.86905, 44.41097], [21.9704, 44.3019], [22.03672, 44.27519], [22.04621, 44.28], [22.12664, 44.50266], [22.14824, 44.5009], [22.17211, 44.50535], [22.18514, 44.51511], [22.29903, 44.66167], [22.30492, 44.67738], [22.3197, 44.68534], [22.36115, 44.69205], [22.38068, 44.70053], [22.42605, 44.73365], [22.46894, 44.73019], [22.48372, 44.72399], [22.55328, 44.66916], [22.58749, 44.64937], [22.62118, 44.63743], [22.70014, 44.63061], [22.71472, 44.62306], [22.76515, 44.58281], [22.75926, 44.56467], [22.74169, 44.55186], [22.71937, 44.54436], [22.70014, 44.54183], [22.67854, 44.54555], [22.64216, 44.56312], [22.62118, 44.56922], [22.6003, 44.56979], [22.58046, 44.5655], [22.56558, 44.55542], [22.55669, 44.52147], [22.54842, 44.5117], [22.5355, 44.50752], [22.50036, 44.50638], [22.48414, 44.49977], [22.47721, 44.47698], [22.48, 44.45579], [22.50098, 44.44194], [22.50636, 44.42752], [22.50512, 44.40406], [22.52269, 44.37507], [22.54935, 44.34897], [22.6062, 44.17457], [22.60599, 44.16314], [22.6094, 44.15994], [22.5971, 44.11906], [22.60475, 44.07938], [22.59297, 44.06393], [22.55462, 44.06243], [22.53416, 44.05716], [22.52258, 44.0447], [22.51494, 44.03028], [22.50367, 44.0199], [22.43432, 44.01396], [22.41179, 44.00693], [22.39959, 43.99334], [22.39453, 43.93634], [22.37903, 43.9135], [22.37706, 43.88352], [22.36755, 43.85275], [22.35474, 43.8297], [22.34947, 43.80792], [22.36259, 43.78084], [22.38853, 43.75829], [22.38605, 43.7255], [22.40487, 43.68718], [22.42647, 43.66821], [22.45592, 43.65641], [22.46626, 43.64912], [22.47287, 43.63594], [22.4738, 43.613], [22.48197, 43.59946], [22.47711, 43.59129], [22.4831, 43.57928], [22.47866, 43.56918], [22.47845, 43.55923], [22.49065, 43.54088], [22.51886, 43.47425], [22.53261, 43.46484], [22.56579, 43.45334], [22.59627, 43.42916], [22.63782, 43.42637], [22.66469, 43.39673], [22.70293, 43.39404], [22.73301, 43.38151], [22.80453, 43.32898], [22.81714, 43.3155], [22.82696, 43.28139], [22.85734, 43.25695], [22.8838, 43.23059], [22.91553, 43.21225], [22.96473, 43.20442], [22.98137, 43.19899], [22.98457, 43.17463], [22.97403, 43.14119], [22.95563, 43.10827], [22.93527, 43.08556], [22.90168, 43.06975], [22.88421, 43.03665], [22.84225, 43.0075], [22.82903, 42.9935], [22.7881, 42.9849], [22.77642, 42.97973], [22.76319, 42.95864], [22.7388, 42.89738], [22.72701, 42.88689], [22.66624, 42.87193], [22.5909, 42.88689], [22.56361, 42.88428], [22.53757, 42.86834], [22.50605, 42.87012], [22.49706, 42.86441], [22.48145, 42.84674], [22.44548, 42.83018], [22.4274, 42.81362], [22.42584, 42.80984], [22.45313, 42.76359], [22.46657, 42.74853], [22.48145, 42.73982], [22.4829, 42.73378], [22.48145, 42.72768], [22.46812, 42.71832], [22.44207, 42.68168], [22.4492, 42.66797], [22.42533, 42.57286], [22.2958, 42.49091], [22.43435, 42.41086], [22.39751, 42.31261], [22.23063, 42.24934], [22.22406, 42.24081], [22.25047, 42.21389], [22.38894, 42.26939], [22.44362, 42.21443], [22.48145, 42.19332], [22.49468, 42.16456], [22.51018, 42.14479], [22.53106, 42.12911], [22.61777, 42.0827], [22.67586, 42.06061], [22.70572, 42.05593], [22.71844, 42.04446], [22.78086, 42.04317], [22.79109, 42.02581], [22.79895, 42.02123], [22.82127, 42.02537], [22.83822, 42.01948], [22.8437, 42.01446], [22.84659, 41.99364], [22.85476, 41.98263], [22.85889, 41.94788], [22.87708, 41.90204], [22.8808, 41.87269], [22.90137, 41.86042], [22.91832, 41.81435], [22.94592, 41.76934], [22.99119, 41.76099], [23.00886, 41.73993], [23.00958, 41.71637], [22.99863, 41.69312], [22.97661, 41.66655], [22.967, 41.64705], [22.94085, 41.63764], [22.933, 41.61234], [22.93372, 41.5846], [22.94871, 41.56098], [22.94302, 41.53855], [22.94623, 41.45323], [22.9546, 41.43241], [22.93734, 41.41076], [22.85044, 41.3396], [22.82603, 41.34099], [22.78097, 41.33489], [22.7513, 41.31521], [22.74087, 41.28358], [22.73673, 41.20441], [22.72722, 41.16581], [22.71575, 41.1456], [22.7049, 41.13966], [22.6741, 41.15661], [22.65612, 41.17806], [22.64454, 41.18023], [22.62935, 41.17707], [22.62449, 41.15263], [22.60733, 41.13599], [22.59018, 41.12514], [22.57126, 41.11951], [22.54925, 41.11852], [22.50067, 41.12214], [22.45148, 41.11367], [22.42181, 41.11465], [22.38016, 41.1317], [22.32342, 41.1285], [22.31505, 41.12442], [22.30875, 41.12498], [22.30265, 41.1455], [22.20581, 41.16142], [22.18317, 41.15992], [22.16033, 41.15191], [22.12437, 41.12721], [22.10338, 41.12152], [22.06277, 41.13718], [22.05553, 41.14989], [22.04819, 41.15186], [22.02907, 41.13858], [21.9651, 41.12436], [21.90908, 41.09749], [21.90123, 41.09078], [21.8972, 41.08127], [21.8943, 41.05383], [21.88066, 41.03843], [21.845, 41.01238], [21.83126, 40.99352], [21.79364, 40.97357], [21.78371, 40.96417], [21.77813, 40.93373], [21.76552, 40.92391], [21.737, 40.91916], [21.68512, 40.92799], [21.6569, 40.91823], [21.64884, 40.8958], [21.62372, 40.8944], [21.58156, 40.86629], [21.55365, 40.87043], [21.50952, 40.9005], [21.42942, 40.90898], [21.40493, 40.90862], [21.38126, 40.9005], [21.34488, 40.87306], [21.32927, 40.86629], [21.29537, 40.86087], [21.26096, 40.86082], [21.20907, 40.86908], [21.18303, 40.87017], [21.11213, 40.85394], [21.06999, 40.85266], [21.05123, 40.76822], [20.86674, 40.74179], [20.82583, 40.78463], [20.7661, 40.89373], [20.74088, 40.89797], [20.71722, 40.91321], [20.70275, 40.93631], [20.66409, 41.05915], [20.65386, 41.07527], [20.64301, 41.08158], [20.60528, 41.08349], [20.57697, 41.09351], [20.56994, 41.1071], [20.57056, 41.12483], [20.56549, 41.14741], [20.54968, 41.17061], [20.51268, 41.21015], [20.50007, 41.23552], [20.48312, 41.28947], [20.47775, 41.3196], [20.48167, 41.3412], [20.49604, 41.33779], [20.51041, 41.3444], [20.52343, 41.35681], [20.53996, 41.38714], [20.54017, 41.40068], [20.53407, 41.41298], [20.52219, 41.42569], [20.498, 41.43148], [20.49087, 41.43603], [20.48354, 41.46548], [20.47082, 41.48377], [20.45201, 41.49359], [20.44498, 41.50847], [20.44788, 41.53545], [20.44416, 41.54966], [20.50741, 41.56227], [20.52932, 41.57488], [20.53469, 41.58527], [20.53459, 41.59403], [20.5134, 41.6404], [20.50834, 41.66175], [20.50038, 41.7341], [20.51134, 41.75794], [20.54441, 41.78476], [20.55092, 41.79352], [20.54844, 41.81419], [20.54048, 41.83944], [20.54172, 41.86158], [20.56725, 41.91217], [20.58875, 41.92959], [20.59929, 41.94788], [20.59929, 41.96057], [20.58968, 41.99364], [20.55826, 42.05511], [20.55216, 42.07379], [20.54937, 42.12348], [20.53862, 42.15012], [20.50079, 42.21122], [20.45697, 42.2505], [20.33336, 42.31788], [20.24965, 42.31861], [20.23776, 42.31992], [20.2296, 42.32672], [20.22092, 42.3431], [20.21885, 42.37145], [20.1928, 42.39369], [20.19404, 42.4001], [20.20438, 42.41183], [20.20469, 42.4201], [20.19973, 42.4278], [20.18081, 42.4431], [20.17513, 42.45328], [19.98176, 42.51077], [19.95633, 42.50531], [19.90755, 42.5064], [19.87334, 42.48684], [19.83551, 42.47025], [19.8196, 42.46648], [19.80141, 42.46813], [19.78446, 42.47457], [19.75159, 42.4934], [19.73433, 42.52438], [19.7303, 42.54043], [19.73216, 42.55554], [19.74136, 42.5744], [19.74777, 42.5789], [19.74601, 42.5989], [19.73753, 42.6244], [19.72213, 42.64608], [19.69929, 42.65481], [19.67604, 42.64667], [19.64793, 42.62784], [19.62178, 42.605], [19.60504, 42.58484], [19.58809, 42.53286], [19.57568, 42.52234], [19.54933, 42.5086], [19.54375, 42.4934], [19.51781, 42.45803], [19.50148, 42.44413], [19.48173, 42.43449], [19.4684, 42.41811], [19.41724, 42.37411], [19.40267, 42.35202], [19.4004, 42.32589], [19.30459, 42.2151], [19.27493, 42.19128], [19.27203, 42.18068], [19.28206, 42.16456], [19.29777, 42.15167], [19.35502, 42.12004], [19.37249, 42.10425], [19.67406, 42.18176], [19.80356, 42.14233], [19.88676, 42.10369], [19.95687, 42.05399], [20.01248, 41.99445], [20.05102, 41.92747], [20.06922, 41.87811], [20.06861, 41.79643], [20.04647, 41.65226], [20.02695, 41.5841], [19.98989, 41.51936], [19.93721, 41.46159], [19.87076, 41.41254], [19.83314, 41.39188], [19.75141, 41.3594], [19.66183, 41.33913], [19.6158, 41.33404], [19.52346, 41.33396], [19.41425, 41.35208], [19.41424, 41.3828], [19.41082, 41.39167], [19.39602, 41.40205], [19.39326, 41.41348], [19.40642, 41.40038], [19.42872, 41.40131], [19.44516, 41.41519], [19.44094, 41.44086], [19.48927, 41.46613], [19.50864, 41.48688], [19.51661, 41.51341], [19.51417, 41.52998], [19.46822, 41.55412], [19.44096, 41.58538], [19.52809, 41.57656], [19.5652, 41.58511], [19.58482, 41.61957], [19.59165, 41.61957], [19.59604, 41.60273], [19.61297, 41.60529], [19.60011, 41.63911], [19.59166, 41.63264], [19.58709, 41.64069], [19.55765, 41.66055], [19.57814, 41.68765], [19.57131, 41.7704], [19.58953, 41.76569], [19.59897, 41.77871], [19.59978, 41.79975], [19.59165, 41.81879], [19.46578, 41.85537], [19.43295, 41.8686], [19.36509, 41.85237], [19.31023, 41.89452], [19.22023, 41.91886], [19.17027, 41.93798], [19.1623, 41.94795], [19.16033, 41.96898], [19.13797, 41.9853], [19.14357, 41.99307], [19.13917, 42.04243], [19.08254, 42.08121], [19.07474, 42.09565], [19.08383, 42.11009], [19.06399, 42.12019], [19.04868, 42.1402], [19.0106, 42.13956], [18.99985, 42.16108], [18.98163, 42.16707], [18.96803, 42.18871], [18.91335, 42.22224], [18.90171, 42.2375], [18.8947, 42.27049], [18.886, 42.28437], [18.87159, 42.29047], [18.85401, 42.29047], [18.83888, 42.28571], [18.83139, 42.27755], [18.81764, 42.29116], [18.77858, 42.27148], [18.76246, 42.29116], [18.71454, 42.32527], [18.71412, 42.33894], [18.69363, 42.35322], [18.69581, 42.37377], [18.67848, 42.38597], [18.65854, 42.38662], [18.65316, 42.36629], [18.63844, 42.37031], [18.61671, 42.36808], [18.5949, 42.38373], [18.57067, 42.39298], [18.57814, 42.40038], [18.553, 42.41365], [18.54519, 42.42357], [18.55015, 42.43512], [18.56284, 42.43854], [18.6565, 42.41551], [18.68555, 42.40399], [18.70045, 42.39297], [18.70818, 42.40852], [18.70655, 42.42105], [18.68385, 42.45881], [18.68735, 42.4829], [18.65384, 42.45177], [18.60859, 42.44539], [18.50245, 42.45563], [18.50245, 42.44819], [18.52124, 42.43797], [18.51295, 42.409], [18.52973, 42.4004], [18.51006, 42.40542], [18.47446, 42.44135], [18.41308, 42.46207]]]}}, {"type": "Feature", "properties": {"map_title": "참전국의 사상자 수", "source": "미래엔 세계사 교과서 4권 183쪽", "volume": 4, "page": 183, "legend": "연합국", "name": "세르비아", "name_en": "Serbia", "period": "1914–1918", "kind": "국가", "alliance": "연합국", "soldiers": 1000000, "casualties": 320000, "coast_snap": "Natural Earth 10m 해안선에 맞춤", "border_snap": "현대 국경(Natural Earth 10m)에 맞춘 구간 약 650 km", "group": "세르비아", "map_folder": "4권_p183_참전국의 사상자 수"}, "geometry": {"type": "Polygon", "coordinates": [[[23.02702, 45.70665], [23.0975, 45.67666], [23.23721, 45.85714], [23.45839, 45.92619], [23.71453, 45.81997], [23.63683, 45.76437], [23.57433, 45.78452], [23.44039, 45.68504], [23.46501, 45.64041], [23.38345, 45.58108], [23.61772, 45.44974], [23.57382, 45.31391], [23.34837, 45.22655], [23.27736, 45.04256], [23.38744, 44.8618], [23.41044, 44.72738], [23.67293, 44.61457], [23.92769, 44.4136], [23.6175, 44.11072], [23.41606, 44.12465], [23.3981, 44.11256], [23.36478, 43.88513], [23.32515, 43.88659], [23.29027, 43.88303], [23.3259, 43.64709], [23.28917, 43.56904], [23.09077, 43.49388], [23.25104, 43.29354], [23.59254, 43.14454], [23.66501, 42.95416], [23.74716, 42.8382], [23.65433, 42.70413], [23.61746, 42.37112], [23.49285, 42.36199], [23.61756, 42.37107], [23.42046, 42.35654], [23.35707, 42.14097], [23.24228, 42.16299], [23.13914, 42.11669], [22.8437, 42.01446], [22.82696, 42.02508], [22.79895, 42.02123], [22.79109, 42.02581], [22.78086, 42.04317], [22.72505, 42.04247], [22.71844, 42.04446], [22.70573, 42.05593], [22.67586, 42.06061], [22.61777, 42.0827], [22.53106, 42.12911], [22.5116, 42.14372], [22.2977, 41.97913], [22.26361, 41.93516], [22.01473, 41.84581], [21.8697, 41.90882], [21.35333, 41.85137], [21.34439, 41.86545], [21.28886, 42.08971], [21.2378, 42.09735], [21.2254, 42.10678], [21.19987, 42.14115], [21.16442, 42.16704], [21.12639, 42.18892], [21.11295, 42.1944], [21.09848, 42.19595], [21.08264, 42.18839], [20.91539, 42.39334], [20.99849, 42.48111], [20.93282, 42.62471], [21.02356, 42.6762], [21.02293, 42.72896], [21.25447, 42.89181], [21.23243, 42.9109], [21.22674, 42.94252], [21.2253, 42.97355], [21.20979, 42.99588], [21.19305, 42.99789], [21.16535, 42.9851], [21.14789, 42.99262], [21.13931, 43.00583], [21.12401, 43.05828], [21.10851, 43.08156], [21.09259, 43.09068], [21.02583, 43.09337], [21.00516, 43.09913], [20.83855, 43.17047], [20.83204, 43.17861], [20.83607, 43.17943], [20.84, 43.21209], [20.85147, 43.21982], [20.8647, 43.21734], [20.85949, 43.22498], [21.1256, 43.34022], [21.11416, 43.39232], [20.88558, 43.44047], [20.86031, 43.61296], [20.71132, 43.69755], [20.47109, 43.61072], [20.41827, 43.80071], [20.02607, 43.33537], [19.91759, 43.11682], [19.90714, 43.11326], [19.8722, 43.09037], [19.80513, 43.08996], [19.78177, 43.09647], [19.7612, 43.10874], [19.74281, 43.12652], [19.71356, 43.16561], [19.70549, 43.16618], [19.69733, 43.16021], [19.68462, 43.15672], [19.66302, 43.1585], [19.61868, 43.16824], [19.59811, 43.1762], [19.58085, 43.1878], [19.54995, 43.21752], [19.51243, 43.24064], [19.47305, 43.29328], [19.41404, 43.33839], [19.39125, 43.36342], [19.48173, 43.56083], [19.49176, 43.56861], [19.48173, 43.57812], [19.47688, 43.58868], [19.4775, 43.61698], [19.48174, 43.62891], [19.50737, 43.64718], [19.50571, 43.67364], [19.48174, 43.72922], [19.46169, 43.76214], [19.35947, 43.84221], [19.30593, 43.90474], [19.27544, 43.93326], [19.22935, 43.95768], [19.24072, 43.96574], [19.24289, 43.97282], [19.23803, 43.99251], [19.24351, 44.00202], [19.25208, 44.0075], [19.28733, 44.01302], [19.32588, 43.99659], [19.36464, 43.97329], [19.44711, 43.9798], [19.50406, 43.97566], [19.52855, 43.97721], [19.55222, 43.98341], [19.59336, 44.00558], [19.61041, 44.01928], [19.61888, 44.03571], [19.61144, 44.05452], [19.90606, 44.13175], [19.9498, 44.13561], [19.94814, 44.20897], [19.95763, 44.25713], [19.98064, 44.30028], [20.01791, 44.33372], [20.17984, 44.42593], [20.23896, 44.47186], [20.2611, 44.49651], [20.27124, 44.51746], [20.27206, 44.53651], [20.23672, 44.62951], [20.2324, 44.69679], [20.24088, 44.73107], [20.25724, 44.76251], [20.32586, 44.84875], [20.35999, 44.90829], [20.36513, 44.94127], [20.35974, 44.98095], [20.34499, 45.01222], [20.32211, 45.03682], [20.20793, 45.09939], [20.17314, 45.11107], [20.24758, 45.0767], [20.09519, 45.13689], [20.10361, 45.1344], [19.98976, 45.18885], [19.94402, 45.21862], [19.91122, 45.24743], [19.88869, 45.27656], [19.86384, 45.34121], [19.85104, 45.43981], [19.86546, 45.75252], [19.87871, 45.81584], [19.88769, 45.8327], [19.91467, 45.88327], [19.95617, 45.92266], [20.01842, 45.95022], [20.06287, 45.9551], [20.32973, 46.01225], [20.33863, 45.9928], [20.35393, 45.97668], [20.37098, 45.96779], [20.42907, 45.94671], [20.48167, 45.9127], [20.49986, 45.90666], [20.538, 45.90371], [20.55671, 45.89844], [20.57211, 45.88769], [20.60528, 45.84614], [20.6367, 45.82702], [20.6459, 45.78873], [20.65562, 45.77731], [20.67856, 45.75664], [20.68807, 45.7431], [20.70006, 45.7354], [20.71339, 45.73333], [20.72683, 45.73618], [20.73944, 45.74341], [20.74533, 45.75499], [20.75411, 45.76356], [20.76517, 45.76677], [20.77747, 45.76232], [20.78574, 45.75256], [21.09282, 45.8312], [21.13153, 45.8748], [21.16918, 45.90888], [21.21373, 45.93211], [21.23975, 45.93814], [21.29169, 45.9368], [21.33292, 45.91975], [21.36944, 45.89113], [21.46526, 45.78012], [21.5157, 45.73385], [21.55429, 45.71387], [21.61845, 45.69973], [21.68323, 45.69919], [21.76275, 45.71236], [22.00865, 45.79436], [22.08557, 45.81467], [22.17843, 45.82956], [22.33307, 45.84236], [22.57897, 45.84684], [22.48959, 45.80711], [22.54887, 45.8332], [22.56069, 45.83418], [22.54898, 45.83325], [22.57934, 45.84673], [22.92829, 45.81736], [23.02702, 45.70665]]]}}, {"type": "Feature", "properties": {"name": "세르비아", "name_en": "Serbia", "period": "냉전 시기(현재 국경으로 표시)", "kind": "국가", "legend": "냉전 당시 공산주의 진영 동유럽 국가들", "map_title": "소련의 해체와 동유럽의 변화", "source": "미래엔 세계사 교과서 4권 201쪽", "volume": 4, "page": 201, "geometry_source": "Natural Earth 10m 국가 경계", "group": "세르비아", "map_folder": "4권_p201_소련의 해체와 동유럽의 변화"}, "geometry": {"type": "Polygon", "coordinates": [[[20.30567, 46.05357], [20.31765, 46.03859], [20.33863, 45.9928], [20.35393, 45.97668], [20.42907, 45.94671], [20.48167, 45.9127], [20.49986, 45.90666], [20.538, 45.90371], [20.55671, 45.89844], [20.57211, 45.88769], [20.60528, 45.84614], [20.6367, 45.82702], [20.6459, 45.78873], [20.67856, 45.75664], [20.68807, 45.7431], [20.70006, 45.7354], [20.71339, 45.73333], [20.72683, 45.73618], [20.73944, 45.74341], [20.74533, 45.75499], [20.75411, 45.76356], [20.76517, 45.76677], [20.77747, 45.76232], [20.78574, 45.75256], [20.77912, 45.72367], [20.77995, 45.67168], [20.77726, 45.65752], [20.76217, 45.6306], [20.75442, 45.60559], [20.75804, 45.58926], [20.78739, 45.55365], [20.80021, 45.5305], [20.79762, 45.5165], [20.76073, 45.49335], [20.76713, 45.47934], [20.81602, 45.46286], [20.83039, 45.45252], [20.86305, 45.41873], [20.92764, 45.37749], [20.96619, 45.34157], [20.98149, 45.33279], [21.06396, 45.30628], [21.09156, 45.28809], [21.10334, 45.28607], [21.11306, 45.28933], [21.12918, 45.30189], [21.13941, 45.3037], [21.15564, 45.29517], [21.20607, 45.24592], [21.23925, 45.22939], [21.25713, 45.22411], [21.2993, 45.22318], [21.40555, 45.19967], [21.43376, 45.18882], [21.45939, 45.17404], [21.49329, 45.1451], [21.49784, 45.13187], [21.49412, 45.11931], [21.48151, 45.11156], [21.45857, 45.10733], [21.44244, 45.09291], [21.44379, 45.07291], [21.42952, 45.0573], [21.42188, 45.03141], [21.40927, 45.02397], [21.36338, 45.01653], [21.35139, 44.99824], [21.35346, 44.98981], [21.38395, 44.98666], [21.38705, 44.98154], [21.38518, 44.9695], [21.40844, 44.95834], [21.4565, 44.95235], [21.51634, 44.9339], [21.53102, 44.92465], [21.53908, 44.90847], [21.53629, 44.8893], [21.52213, 44.88078], [21.48151, 44.87261], [21.4534, 44.86956], [21.39531, 44.87163], [21.36855, 44.86486], [21.35552, 44.85659], [21.34643, 44.84564], [21.34281, 44.83194], [21.37857, 44.81665], [21.39593, 44.79024], [21.41216, 44.78481], [21.49722, 44.77804], [21.55841, 44.78166], [21.57804, 44.77768], [21.59561, 44.76595], [21.61969, 44.71391], [21.65628, 44.68766], [21.70517, 44.67707], [21.75684, 44.67727], [21.8017, 44.68389], [21.85544, 44.69846], [21.87198, 44.69598], [21.96241, 44.66229], [21.99435, 44.65857], [22.00427, 44.65154], [22.03217, 44.60332], [22.03982, 44.57687], [22.0452, 44.56922], [22.07631, 44.55072], [22.08695, 44.52178], [22.10431, 44.50964], [22.12664, 44.50266], [22.14824, 44.5009], [22.17211, 44.50535], [22.18514, 44.51511], [22.29903, 44.66167], [22.30492, 44.67738], [22.3197, 44.68534], [22.36115, 44.69205], [22.38068, 44.70053], [22.42605, 44.73365], [22.46894, 44.73019], [22.48372, 44.72399], [22.55328, 44.66916], [22.58749, 44.64937], [22.62118, 44.63743], [22.70014, 44.63061], [22.71472, 44.62306], [22.76515, 44.58281], [22.75926, 44.56467], [22.74169, 44.55186], [22.71937, 44.54436], [22.70014, 44.54183], [22.67854, 44.54555], [22.64216, 44.56312], [22.62118, 44.56922], [22.6003, 44.56979], [22.58046, 44.5655], [22.56558, 44.55542], [22.55669, 44.52147], [22.54842, 44.5117], [22.5355, 44.50752], [22.50036, 44.50638], [22.48414, 44.49977], [22.47979, 44.49041], [22.477, 44.46395], [22.48, 44.45579], [22.50098, 44.44194], [22.50543, 44.43501], [22.50512, 44.40406], [22.52269, 44.37507], [22.54935, 44.34897], [22.58284, 44.32841], [22.62118, 44.3159], [22.66252, 44.31166], [22.68154, 44.30531], [22.6895, 44.29172], [22.68536, 44.24366], [22.69164, 44.22843], [22.64878, 44.21399], [22.6062, 44.17457], [22.60599, 44.16315], [22.6094, 44.15994], [22.5971, 44.11906], [22.60475, 44.07938], [22.59297, 44.06393], [22.55462, 44.06243], [22.53416, 44.05716], [22.52258, 44.0447], [22.51494, 44.03028], [22.50367, 44.0199], [22.43432, 44.01396], [22.41179, 44.00693], [22.39959, 43.99334], [22.39453, 43.93634], [22.37903, 43.9135], [22.37706, 43.88352], [22.36755, 43.85275], [22.35474, 43.8297], [22.34947, 43.80792], [22.36259, 43.78084], [22.38854, 43.75829], [22.38605, 43.7255], [22.40487, 43.68718], [22.42647, 43.66821], [22.45592, 43.65641], [22.46626, 43.64912], [22.47287, 43.63594], [22.4738, 43.613], [22.48197, 43.59946], [22.47711, 43.59129], [22.4831, 43.57928], [22.47866, 43.56918], [22.47845, 43.55923], [22.49065, 43.54088], [22.51886, 43.47425], [22.53261, 43.46484], [22.56579, 43.45334], [22.59627, 43.42916], [22.63782, 43.42637], [22.66469, 43.39673], [22.70293, 43.39404], [22.73301, 43.38151], [22.80453, 43.32898], [22.81714, 43.3155], [22.82696, 43.28139], [22.85734, 43.25695], [22.8838, 43.23059], [22.91553, 43.21225], [22.96473, 43.20442], [22.98137, 43.19899], [22.98457, 43.17463], [22.97403, 43.14119], [22.95563, 43.10827], [22.93527, 43.08556], [22.90168, 43.06975], [22.88422, 43.03665], [22.84225, 43.00751], [22.82903, 42.9935], [22.7881, 42.9849], [22.77642, 42.97973], [22.76319, 42.95864], [22.7388, 42.89738], [22.72702, 42.88689], [22.66624, 42.87193], [22.5909, 42.88689], [22.56361, 42.88428], [22.53757, 42.86834], [22.50605, 42.87012], [22.49705, 42.86441], [22.48145, 42.84674], [22.44548, 42.83018], [22.4274, 42.81361], [22.42584, 42.80984], [22.45313, 42.76359], [22.46657, 42.74853], [22.48145, 42.73982], [22.4829, 42.73378], [22.48145, 42.72768], [22.46812, 42.71832], [22.44207, 42.68169], [22.4492, 42.66797], [22.42533, 42.57285], [22.48145, 42.53562], [22.51215, 42.51919], [22.52486, 42.50767], [22.53654, 42.47839], [22.53312, 42.45759], [22.51948, 42.42093], [22.50884, 42.40493], [22.46977, 42.3917], [22.45437, 42.37677], [22.43845, 42.34005], [22.42398, 42.32589], [22.4058, 42.32155], [22.36414, 42.32098], [22.34502, 42.31344], [22.32528, 42.31432], [22.30761, 42.31933], [22.27691, 42.34124], [22.2733, 42.36548], [22.26885, 42.37033], [22.25976, 42.3691], [22.2334, 42.34889], [22.09553, 42.30582], [22.06091, 42.30109], [22.02763, 42.30396], [21.92903, 42.33512], [21.91828, 42.33134], [21.88438, 42.30951], [21.83735, 42.30856], [21.8172, 42.30515], [21.70651, 42.25507], [21.69204, 42.24202], [21.67689, 42.23495], [21.62465, 42.24277], [21.57504, 42.24202], [21.56407, 42.24629], [21.55386, 42.27398], [21.51489, 42.31783], [21.51603, 42.34194], [21.53732, 42.35863], [21.59664, 42.37209], [21.61742, 42.38664], [21.62186, 42.40217], [21.6169, 42.43392], [21.61897, 42.44924], [21.62786, 42.46038], [21.66785, 42.49009], [21.71767, 42.55115], [21.7277, 42.57415], [21.71829, 42.59102], [21.72883, 42.59831], [21.73473, 42.62425], [21.76707, 42.63872], [21.77276, 42.6475], [21.76439, 42.66962], [21.73865, 42.68215], [21.70889, 42.68719], [21.68739, 42.68683], [21.64408, 42.67231], [21.62941, 42.6722], [21.61266, 42.68039], [21.58052, 42.71021], [21.56523, 42.72018], [21.54249, 42.72582], [21.44182, 42.7361], [21.40555, 42.7353], [21.37867, 42.74414], [21.38715, 42.75496], [21.4041, 42.80398], [21.40834, 42.82075], [21.40844, 42.847], [21.39893, 42.85457], [21.34674, 42.86085], [21.30633, 42.88245], [21.26054, 42.88656], [21.23243, 42.9109], [21.22675, 42.94252], [21.2253, 42.97355], [21.20979, 42.99588], [21.19305, 42.99789], [21.16535, 42.9851], [21.14789, 42.99262], [21.13931, 43.00583], [21.12401, 43.05828], [21.10851, 43.08156], [21.09259, 43.09068], [21.02583, 43.09337], [21.00516, 43.09913], [20.83855, 43.17047], [20.83204, 43.17861], [20.83607, 43.17943], [20.84, 43.21209], [20.85147, 43.21982], [20.8647, 43.21734], [20.84847, 43.23814], [20.81943, 43.25741], [20.79442, 43.26307], [20.76951, 43.26085], [20.74533, 43.25286], [20.66699, 43.20966], [20.64487, 43.20331], [20.61231, 43.20227], [20.60404, 43.19796], [20.59753, 43.18496], [20.60012, 43.17383], [20.62606, 43.12373], [20.63205, 43.11727], [20.66182, 43.11595], [20.66916, 43.1098], [20.66492, 43.08541], [20.64383, 43.05226], [20.61727, 43.02213], [20.5964, 43.00709], [20.56239, 43.0095], [20.5534, 43.0026], [20.53842, 42.98066], [20.53046, 42.97516], [20.4764, 42.96637], [20.45945, 42.95002], [20.45098, 42.92203], [20.46669, 42.9095], [20.48891, 42.89919], [20.49883, 42.87788], [20.4763, 42.85553], [20.42803, 42.84064], [20.34535, 42.82744], [20.35517, 42.86617], [20.35362, 42.89097], [20.33708, 42.90697], [20.27559, 42.92989], [20.22319, 42.95766], [20.19456, 42.96684], [20.14092, 42.97082], [20.11694, 42.97665], [20.01989, 43.04735], [19.95974, 43.07856], [19.94982, 43.08592], [19.92915, 43.11391], [19.91664, 43.11706], [19.90714, 43.11326], [19.8722, 43.09037], [19.80513, 43.08996], [19.78177, 43.09647], [19.7612, 43.10874], [19.74281, 43.12652], [19.71356, 43.16561], [19.70549, 43.16618], [19.69733, 43.16021], [19.68462, 43.15672], [19.66302, 43.1585], [19.61868, 43.16824], [19.59811, 43.1762], [19.58085, 43.1878], [19.54995, 43.21752], [19.51243, 43.24064], [19.47305, 43.29328], [19.41404, 43.33839], [19.37229, 43.38423], [19.35564, 43.39306], [19.21839, 43.4382], [19.19224, 43.45453], [19.17591, 43.48089], [19.17519, 43.50962], [19.19534, 43.5328], [19.21746, 43.5328], [19.22945, 43.54975], [19.23886, 43.57212], [19.25271, 43.58863], [19.26366, 43.59096], [19.30087, 43.5883], [19.3358, 43.60651], [19.34655, 43.60884], [19.3634, 43.60158], [19.38045, 43.58558], [19.41073, 43.54075], [19.41931, 43.54926], [19.43182, 43.57114], [19.44391, 43.57186], [19.48174, 43.56083], [19.48959, 43.56445], [19.49176, 43.56861], [19.48174, 43.57812], [19.47688, 43.58868], [19.4775, 43.61698], [19.48174, 43.62891], [19.50737, 43.64718], [19.50571, 43.67364], [19.48174, 43.72922], [19.46168, 43.76214], [19.35947, 43.84221], [19.30593, 43.90474], [19.27544, 43.93326], [19.22935, 43.95768], [19.24072, 43.96574], [19.24289, 43.97282], [19.23803, 43.99251], [19.24351, 44.00202], [19.25209, 44.0075], [19.28733, 44.01302], [19.32588, 43.99659], [19.36464, 43.97329], [19.44711, 43.9798], [19.50406, 43.97566], [19.52855, 43.97721], [19.55222, 43.98342], [19.59336, 44.00558], [19.61041, 44.01928], [19.61888, 44.03571], [19.61144, 44.05452], [19.59894, 44.06258], [19.58995, 44.06031], [19.58023, 44.05152], [19.5546, 44.07126], [19.52204, 44.08501], [19.49817, 44.11023], [19.47636, 44.12702], [19.47419, 44.1449], [19.46572, 44.15281], [19.45972, 44.15271], [19.44256, 44.1432], [19.38117, 44.1771], [19.36236, 44.19121], [19.35606, 44.20402], [19.35399, 44.22433], [19.34159, 44.24583], [19.32433, 44.26397], [19.30738, 44.2742], [19.29591, 44.2758], [19.26366, 44.27017], [19.2495, 44.27074], [19.22005, 44.28024], [19.17715, 44.28696], [19.157, 44.29358], [19.13891, 44.30934], [19.11669, 44.3437], [19.10894, 44.36365], [19.10719, 44.38272], [19.11576, 44.4036], [19.14139, 44.43083], [19.14336, 44.45822], [19.12734, 44.50256], [19.12992, 44.51832], [19.16527, 44.52669], [19.17964, 44.53826], [19.18728, 44.5533], [19.18832, 44.57604], [19.20868, 44.58839], [19.2557, 44.64565], [19.27007, 44.67562], [19.27761, 44.68487], [19.30841, 44.70513], [19.31802, 44.71546], [19.32836, 44.73396], [19.36371, 44.85463], [19.37663, 44.863], [19.3728, 44.88145], [19.35317, 44.89902], [19.34014, 44.89623], [19.33022, 44.89871], [19.31017, 44.91235], [19.28382, 44.90837], [19.23948, 44.91514], [19.20186, 44.90837], [19.18687, 44.92754], [19.17426, 44.92542], [19.08455, 44.87897], [19.01582, 44.86563], [18.99432, 44.89483], [18.99143, 44.91493], [19.01841, 44.92568], [19.03194, 44.92263], [19.0521, 44.90698], [19.06667, 44.90568], [19.07866, 44.91085], [19.10357, 44.93824], [19.12455, 44.94594], [19.13168, 44.95318], [19.12765, 44.96842], [19.11855, 44.97555], [19.09809, 44.97002], [19.08724, 44.9771], [19.08517, 44.98728], [19.0954, 45.02092], [19.08228, 45.08495], [19.07153, 45.10707], [19.04621, 45.12836], [19.04486, 45.13725], [19.06006, 45.14686], [19.11607, 45.14288], [19.13767, 45.14603], [19.14171, 45.16215], [19.12186, 45.19579], [19.14388, 45.19952], [19.15576, 45.19497], [19.18532, 45.16804], [19.20454, 45.16288], [19.22594, 45.16195], [19.26779, 45.16582], [19.27947, 45.17724], [19.28671, 45.17952], [19.30428, 45.16655], [19.39068, 45.16934], [19.40536, 45.17967], [19.40784, 45.20313], [19.3973, 45.22329], [19.37807, 45.22959], [19.28975, 45.23631], [19.25991, 45.24297], [19.15848, 45.27617], [19.10415, 45.29873], [19.09623, 45.32912], [19.08296, 45.33922], [19.05294, 45.3454], [19.03024, 45.34514], [19.00752, 45.35953], [18.97749, 45.37121], [18.97553, 45.39113], [18.99735, 45.39977], [19.02262, 45.40239], [19.03132, 45.4162], [19.01643, 45.43356], [19.00228, 45.44369], [18.99714, 45.45552], [18.99639, 45.47382], [19.00962, 45.49867], [19.07721, 45.49164], [19.10626, 45.51164], [19.09509, 45.52606], [19.05096, 45.53893], [19.04094, 45.54503], [19.02719, 45.5626], [19.01809, 45.5674], [18.98316, 45.55474], [18.96022, 45.53913], [18.94172, 45.53893], [18.932, 45.54554], [18.91205, 45.56823], [18.90358, 45.57308], [18.91237, 45.61923], [18.93541, 45.63339], [18.96849, 45.66874], [18.9627, 45.68305], [18.91733, 45.70656], [18.90895, 45.71943], [18.90017, 45.76491], [18.8487, 45.80956], [18.84498, 45.81571], [18.85242, 45.83007], [18.85531, 45.85736], [18.89975, 45.86139], [18.90699, 45.86795], [18.90399, 45.8757], [18.87288, 45.89524], [18.88983, 45.9079], [18.90699, 45.9157], [18.90131, 45.9312], [18.9627, 45.92795], [18.98182, 45.92185], [18.9875, 45.92381], [18.98874, 45.92702], [18.97768, 45.9435], [18.98182, 45.95079], [19.00559, 45.96257], [19.03091, 45.96004], [19.04858, 45.96345], [19.04972, 45.99311], [19.06543, 46.01203], [19.08848, 46.01885], [19.11101, 46.01295], [19.12579, 45.99311], [19.14801, 45.98407], [19.23565, 45.97771], [19.26345, 45.98143], [19.27482, 45.99161], [19.28692, 46.01616], [19.30697, 46.02665], [19.36216, 46.02965], [19.3789, 46.03368], [19.40474, 46.06024], [19.43688, 46.06799], [19.45373, 46.07755], [19.47295, 46.09869], [19.4993, 46.10861], [19.48752, 46.13424], [19.50199, 46.14561], [19.54995, 46.16416], [19.58974, 46.16597], [19.64782, 46.17388], [19.66932, 46.1731], [19.69009, 46.1684], [19.77298, 46.13155], [19.79045, 46.12907], [19.88895, 46.15739], [19.92915, 46.16354], [19.99312, 46.15941], [20.03498, 46.14297], [20.0634, 46.1453], [20.09844, 46.15496], [20.11477, 46.15222], [20.13803, 46.13646], [20.17048, 46.1455], [20.18846, 46.14039], [20.24283, 46.10809], [20.30567, 46.05357]]]}}, {"type": "Feature", "properties": {"name": "세르비아", "name_en": "Serbia", "period": "현재(코소보 제외, 보이보디나 포함)", "kind": "국가", "legend": "세르비아", "map_title": "구유고 연방의 분리", "source": "미래엔 세계사 교과서 4권 204쪽", "volume": 4, "page": 204, "geometry_source": "Natural Earth 10m 국가 경계", "group": "세르비아", "map_folder": "4권_p204_구유고 연방의 분리"}, "geometry": {"type": "Polygon", "coordinates": [[[20.30567, 46.05357], [20.31765, 46.03859], [20.33863, 45.9928], [20.35393, 45.97668], [20.42907, 45.94671], [20.48167, 45.9127], [20.49986, 45.90666], [20.538, 45.90371], [20.55671, 45.89844], [20.57211, 45.88769], [20.60528, 45.84614], [20.6367, 45.82702], [20.6459, 45.78873], [20.67856, 45.75664], [20.68807, 45.7431], [20.70006, 45.7354], [20.71339, 45.73333], [20.72683, 45.73618], [20.73944, 45.74341], [20.74533, 45.75499], [20.75411, 45.76356], [20.76517, 45.76677], [20.77747, 45.76232], [20.78574, 45.75256], [20.77912, 45.72367], [20.77995, 45.67168], [20.77726, 45.65752], [20.76217, 45.6306], [20.75442, 45.60559], [20.75804, 45.58926], [20.78739, 45.55365], [20.80021, 45.5305], [20.79762, 45.5165], [20.76073, 45.49335], [20.76713, 45.47934], [20.81602, 45.46286], [20.83039, 45.45252], [20.86305, 45.41873], [20.92764, 45.37749], [20.96619, 45.34157], [20.98149, 45.33279], [21.06396, 45.30628], [21.09156, 45.28809], [21.10334, 45.28607], [21.11306, 45.28933], [21.12918, 45.30189], [21.13941, 45.3037], [21.15564, 45.29517], [21.20607, 45.24592], [21.23925, 45.22939], [21.25713, 45.22411], [21.2993, 45.22318], [21.40555, 45.19967], [21.43376, 45.18882], [21.45939, 45.17404], [21.49329, 45.1451], [21.49784, 45.13187], [21.49412, 45.11931], [21.48151, 45.11156], [21.45857, 45.10733], [21.44244, 45.09291], [21.44379, 45.07291], [21.42952, 45.0573], [21.42188, 45.03141], [21.40927, 45.02397], [21.36338, 45.01653], [21.35139, 44.99824], [21.35346, 44.98981], [21.38395, 44.98666], [21.38705, 44.98154], [21.38518, 44.9695], [21.40844, 44.95834], [21.4565, 44.95235], [21.51634, 44.9339], [21.53102, 44.92465], [21.53908, 44.90847], [21.53629, 44.8893], [21.52213, 44.88078], [21.48151, 44.87261], [21.4534, 44.86956], [21.39531, 44.87163], [21.36855, 44.86486], [21.35552, 44.85659], [21.34643, 44.84564], [21.34281, 44.83194], [21.37857, 44.81665], [21.39593, 44.79024], [21.41216, 44.78481], [21.49722, 44.77804], [21.55841, 44.78166], [21.57804, 44.77768], [21.59561, 44.76595], [21.61969, 44.71391], [21.65628, 44.68766], [21.70517, 44.67707], [21.75684, 44.67727], [21.8017, 44.68389], [21.85544, 44.69846], [21.87198, 44.69598], [21.96241, 44.66229], [21.99435, 44.65857], [22.00427, 44.65154], [22.03217, 44.60332], [22.03982, 44.57687], [22.0452, 44.56922], [22.07631, 44.55072], [22.08695, 44.52178], [22.10431, 44.50964], [22.12664, 44.50266], [22.14824, 44.5009], [22.17211, 44.50535], [22.18514, 44.51511], [22.29903, 44.66167], [22.30492, 44.67738], [22.3197, 44.68534], [22.36115, 44.69205], [22.38068, 44.70053], [22.42605, 44.73365], [22.46894, 44.73019], [22.48372, 44.72399], [22.55328, 44.66916], [22.58749, 44.64937], [22.62118, 44.63743], [22.70014, 44.63061], [22.71472, 44.62306], [22.76515, 44.58281], [22.75926, 44.56467], [22.74169, 44.55186], [22.71937, 44.54436], [22.70014, 44.54183], [22.67854, 44.54555], [22.64216, 44.56312], [22.62118, 44.56922], [22.6003, 44.56979], [22.58046, 44.5655], [22.56558, 44.55542], [22.55669, 44.52147], [22.54842, 44.5117], [22.5355, 44.50752], [22.50036, 44.50638], [22.48414, 44.49977], [22.47979, 44.49041], [22.477, 44.46395], [22.48, 44.45579], [22.50098, 44.44194], [22.50543, 44.43501], [22.50512, 44.40406], [22.52269, 44.37507], [22.54935, 44.34897], [22.58284, 44.32841], [22.62118, 44.3159], [22.66252, 44.31166], [22.68154, 44.30531], [22.6895, 44.29172], [22.68536, 44.24366], [22.69164, 44.22843], [22.64878, 44.21399], [22.6062, 44.17457], [22.60599, 44.16315], [22.6094, 44.15994], [22.5971, 44.11906], [22.60475, 44.07938], [22.59297, 44.06393], [22.55462, 44.06243], [22.53416, 44.05716], [22.52258, 44.0447], [22.51494, 44.03028], [22.50367, 44.0199], [22.43432, 44.01396], [22.41179, 44.00693], [22.39959, 43.99334], [22.39453, 43.93634], [22.37903, 43.9135], [22.37706, 43.88352], [22.36755, 43.85275], [22.35474, 43.8297], [22.34947, 43.80792], [22.36259, 43.78084], [22.38854, 43.75829], [22.38605, 43.7255], [22.40487, 43.68718], [22.42647, 43.66821], [22.45592, 43.65641], [22.46626, 43.64912], [22.47287, 43.63594], [22.4738, 43.613], [22.48197, 43.59946], [22.47711, 43.59129], [22.4831, 43.57928], [22.47866, 43.56918], [22.47845, 43.55923], [22.49065, 43.54088], [22.51886, 43.47425], [22.53261, 43.46484], [22.56579, 43.45334], [22.59627, 43.42916], [22.63782, 43.42637], [22.66469, 43.39673], [22.70293, 43.39404], [22.73301, 43.38151], [22.80453, 43.32898], [22.81714, 43.3155], [22.82696, 43.28139], [22.85734, 43.25695], [22.8838, 43.23059], [22.91553, 43.21225], [22.96473, 43.20442], [22.98137, 43.19899], [22.98457, 43.17463], [22.97403, 43.14119], [22.95563, 43.10827], [22.93527, 43.08556], [22.90168, 43.06975], [22.88422, 43.03665], [22.84225, 43.00751], [22.82903, 42.9935], [22.7881, 42.9849], [22.77642, 42.97973], [22.76319, 42.95864], [22.7388, 42.89738], [22.72702, 42.88689], [22.66624, 42.87193], [22.5909, 42.88689], [22.56361, 42.88428], [22.53757, 42.86834], [22.50605, 42.87012], [22.49705, 42.86441], [22.48145, 42.84674], [22.44548, 42.83018], [22.4274, 42.81361], [22.42584, 42.80984], [22.45313, 42.76359], [22.46657, 42.74853], [22.48145, 42.73982], [22.4829, 42.73378], [22.48145, 42.72768], [22.46812, 42.71832], [22.44207, 42.68169], [22.4492, 42.66797], [22.42533, 42.57285], [22.48145, 42.53562], [22.51215, 42.51919], [22.52486, 42.50767], [22.53654, 42.47839], [22.53312, 42.45759], [22.51948, 42.42093], [22.50884, 42.40493], [22.46977, 42.3917], [22.45437, 42.37677], [22.43845, 42.34005], [22.42398, 42.32589], [22.4058, 42.32155], [22.36414, 42.32098], [22.34502, 42.31344], [22.32528, 42.31432], [22.30761, 42.31933], [22.27691, 42.34124], [22.2733, 42.36548], [22.26885, 42.37033], [22.25976, 42.3691], [22.2334, 42.34889], [22.09553, 42.30582], [22.06091, 42.30109], [22.02763, 42.30396], [21.92903, 42.33512], [21.91828, 42.33134], [21.88438, 42.30951], [21.83735, 42.30856], [21.8172, 42.30515], [21.70651, 42.25507], [21.69204, 42.24202], [21.67689, 42.23495], [21.62465, 42.24277], [21.57504, 42.24202], [21.56407, 42.24629], [21.55386, 42.27398], [21.51489, 42.31783], [21.51603, 42.34194], [21.53732, 42.35863], [21.59664, 42.37209], [21.61742, 42.38664], [21.62186, 42.40217], [21.6169, 42.43392], [21.61897, 42.44924], [21.62786, 42.46038], [21.66785, 42.49009], [21.71767, 42.55115], [21.7277, 42.57415], [21.71829, 42.59102], [21.72883, 42.59831], [21.73473, 42.62425], [21.76707, 42.63872], [21.77276, 42.6475], [21.76439, 42.66962], [21.73865, 42.68215], [21.70889, 42.68719], [21.68739, 42.68683], [21.64408, 42.67231], [21.62941, 42.6722], [21.61266, 42.68039], [21.58052, 42.71021], [21.56523, 42.72018], [21.54249, 42.72582], [21.44182, 42.7361], [21.40555, 42.7353], [21.37867, 42.74414], [21.38715, 42.75496], [21.4041, 42.80398], [21.40834, 42.82075], [21.40844, 42.847], [21.39893, 42.85457], [21.34674, 42.86085], [21.30633, 42.88245], [21.26054, 42.88656], [21.23243, 42.9109], [21.22675, 42.94252], [21.2253, 42.97355], [21.20979, 42.99588], [21.19305, 42.99789], [21.16535, 42.9851], [21.14789, 42.99262], [21.13931, 43.00583], [21.12401, 43.05828], [21.10851, 43.08156], [21.09259, 43.09068], [21.02583, 43.09337], [21.00516, 43.09913], [20.83855, 43.17047], [20.83204, 43.17861], [20.83607, 43.17943], [20.84, 43.21209], [20.85147, 43.21982], [20.8647, 43.21734], [20.84847, 43.23814], [20.81943, 43.25741], [20.79442, 43.26307], [20.76951, 43.26085], [20.74533, 43.25286], [20.66699, 43.20966], [20.64487, 43.20331], [20.61231, 43.20227], [20.60404, 43.19796], [20.59753, 43.18496], [20.60012, 43.17383], [20.62606, 43.12373], [20.63205, 43.11727], [20.66182, 43.11595], [20.66916, 43.1098], [20.66492, 43.08541], [20.64383, 43.05226], [20.61727, 43.02213], [20.5964, 43.00709], [20.56239, 43.0095], [20.5534, 43.0026], [20.53842, 42.98066], [20.53046, 42.97516], [20.4764, 42.96637], [20.45945, 42.95002], [20.45098, 42.92203], [20.46669, 42.9095], [20.48891, 42.89919], [20.49883, 42.87788], [20.4763, 42.85553], [20.42803, 42.84064], [20.34535, 42.82744], [20.35517, 42.86617], [20.35362, 42.89097], [20.33708, 42.90697], [20.27559, 42.92989], [20.22319, 42.95766], [20.19456, 42.96684], [20.14092, 42.97082], [20.11694, 42.97665], [20.01989, 43.04735], [19.95974, 43.07856], [19.94982, 43.08592], [19.92915, 43.11391], [19.91664, 43.11706], [19.90714, 43.11326], [19.8722, 43.09037], [19.80513, 43.08996], [19.78177, 43.09647], [19.7612, 43.10874], [19.74281, 43.12652], [19.71356, 43.16561], [19.70549, 43.16618], [19.69733, 43.16021], [19.68462, 43.15672], [19.66302, 43.1585], [19.61868, 43.16824], [19.59811, 43.1762], [19.58085, 43.1878], [19.54995, 43.21752], [19.51243, 43.24064], [19.47305, 43.29328], [19.41404, 43.33839], [19.37229, 43.38423], [19.35564, 43.39306], [19.21839, 43.4382], [19.19224, 43.45453], [19.17591, 43.48089], [19.17519, 43.50962], [19.19534, 43.5328], [19.21746, 43.5328], [19.22945, 43.54975], [19.23886, 43.57212], [19.25271, 43.58863], [19.26366, 43.59096], [19.30087, 43.5883], [19.3358, 43.60651], [19.34655, 43.60884], [19.3634, 43.60158], [19.38045, 43.58558], [19.41073, 43.54075], [19.41931, 43.54926], [19.43182, 43.57114], [19.44391, 43.57186], [19.48174, 43.56083], [19.48959, 43.56445], [19.49176, 43.56861], [19.48174, 43.57812], [19.47688, 43.58868], [19.4775, 43.61698], [19.48174, 43.62891], [19.50737, 43.64718], [19.50571, 43.67364], [19.48174, 43.72922], [19.46168, 43.76214], [19.35947, 43.84221], [19.30593, 43.90474], [19.27544, 43.93326], [19.22935, 43.95768], [19.24072, 43.96574], [19.24289, 43.97282], [19.23803, 43.99251], [19.24351, 44.00202], [19.25209, 44.0075], [19.28733, 44.01302], [19.32588, 43.99659], [19.36464, 43.97329], [19.44711, 43.9798], [19.50406, 43.97566], [19.52855, 43.97721], [19.55222, 43.98342], [19.59336, 44.00558], [19.61041, 44.01928], [19.61888, 44.03571], [19.61144, 44.05452], [19.59894, 44.06258], [19.58995, 44.06031], [19.58023, 44.05152], [19.5546, 44.07126], [19.52204, 44.08501], [19.49817, 44.11023], [19.47636, 44.12702], [19.47419, 44.1449], [19.46572, 44.15281], [19.45972, 44.15271], [19.44256, 44.1432], [19.38117, 44.1771], [19.36236, 44.19121], [19.35606, 44.20402], [19.35399, 44.22433], [19.34159, 44.24583], [19.32433, 44.26397], [19.30738, 44.2742], [19.29591, 44.2758], [19.26366, 44.27017], [19.2495, 44.27074], [19.22005, 44.28024], [19.17715, 44.28696], [19.157, 44.29358], [19.13891, 44.30934], [19.11669, 44.3437], [19.10894, 44.36365], [19.10719, 44.38272], [19.11576, 44.4036], [19.14139, 44.43083], [19.14336, 44.45822], [19.12734, 44.50256], [19.12992, 44.51832], [19.16527, 44.52669], [19.17964, 44.53826], [19.18728, 44.5533], [19.18832, 44.57604], [19.20868, 44.58839], [19.2557, 44.64565], [19.27007, 44.67562], [19.27761, 44.68487], [19.30841, 44.70513], [19.31802, 44.71546], [19.32836, 44.73396], [19.36371, 44.85463], [19.37663, 44.863], [19.3728, 44.88145], [19.35317, 44.89902], [19.34014, 44.89623], [19.33022, 44.89871], [19.31017, 44.91235], [19.28382, 44.90837], [19.23948, 44.91514], [19.20186, 44.90837], [19.18687, 44.92754], [19.17426, 44.92542], [19.08455, 44.87897], [19.01582, 44.86563], [18.99432, 44.89483], [18.99143, 44.91493], [19.01841, 44.92568], [19.03194, 44.92263], [19.0521, 44.90698], [19.06667, 44.90568], [19.07866, 44.91085], [19.10357, 44.93824], [19.12455, 44.94594], [19.13168, 44.95318], [19.12765, 44.96842], [19.11855, 44.97555], [19.09809, 44.97002], [19.08724, 44.9771], [19.08517, 44.98728], [19.0954, 45.02092], [19.08228, 45.08495], [19.07153, 45.10707], [19.04621, 45.12836], [19.04486, 45.13725], [19.06006, 45.14686], [19.11607, 45.14288], [19.13767, 45.14603], [19.14171, 45.16215], [19.12186, 45.19579], [19.14388, 45.19952], [19.15576, 45.19497], [19.18532, 45.16804], [19.20454, 45.16288], [19.22594, 45.16195], [19.26779, 45.16582], [19.27947, 45.17724], [19.28671, 45.17952], [19.30428, 45.16655], [19.39068, 45.16934], [19.40536, 45.17967], [19.40784, 45.20313], [19.3973, 45.22329], [19.37807, 45.22959], [19.28975, 45.23631], [19.25991, 45.24297], [19.15848, 45.27617], [19.10415, 45.29873], [19.09623, 45.32912], [19.08296, 45.33922], [19.05294, 45.3454], [19.03024, 45.34514], [19.00752, 45.35953], [18.97749, 45.37121], [18.97553, 45.39113], [18.99735, 45.39977], [19.02262, 45.40239], [19.03132, 45.4162], [19.01643, 45.43356], [19.00228, 45.44369], [18.99714, 45.45552], [18.99639, 45.47382], [19.00962, 45.49867], [19.07721, 45.49164], [19.10626, 45.51164], [19.09509, 45.52606], [19.05096, 45.53893], [19.04094, 45.54503], [19.02719, 45.5626], [19.01809, 45.5674], [18.98316, 45.55474], [18.96022, 45.53913], [18.94172, 45.53893], [18.932, 45.54554], [18.91205, 45.56823], [18.90358, 45.57308], [18.91237, 45.61923], [18.93541, 45.63339], [18.96849, 45.66874], [18.9627, 45.68305], [18.91733, 45.70656], [18.90895, 45.71943], [18.90017, 45.76491], [18.8487, 45.80956], [18.84498, 45.81571], [18.85242, 45.83007], [18.85531, 45.85736], [18.89975, 45.86139], [18.90699, 45.86795], [18.90399, 45.8757], [18.87288, 45.89524], [18.88983, 45.9079], [18.90699, 45.9157], [18.90131, 45.9312], [18.9627, 45.92795], [18.98182, 45.92185], [18.9875, 45.92381], [18.98874, 45.92702], [18.97768, 45.9435], [18.98182, 45.95079], [19.00559, 45.96257], [19.03091, 45.96004], [19.04858, 45.96345], [19.04972, 45.99311], [19.06543, 46.01203], [19.08848, 46.01885], [19.11101, 46.01295], [19.12579, 45.99311], [19.14801, 45.98407], [19.23565, 45.97771], [19.26345, 45.98143], [19.27482, 45.99161], [19.28692, 46.01616], [19.30697, 46.02665], [19.36216, 46.02965], [19.3789, 46.03368], [19.40474, 46.06024], [19.43688, 46.06799], [19.45373, 46.07755], [19.47295, 46.09869], [19.4993, 46.10861], [19.48752, 46.13424], [19.50199, 46.14561], [19.54995, 46.16416], [19.58974, 46.16597], [19.64782, 46.17388], [19.66932, 46.1731], [19.69009, 46.1684], [19.77298, 46.13155], [19.79045, 46.12907], [19.88895, 46.15739], [19.92915, 46.16354], [19.99312, 46.15941], [20.03498, 46.14297], [20.0634, 46.1453], [20.09844, 46.15496], [20.11477, 46.15222], [20.13803, 46.13646], [20.17048, 46.1455], [20.18846, 46.14039], [20.24283, 46.10809], [20.30567, 46.05357]]]}}]}