{"type": "FeatureCollection", "features": [{"type": "Feature", "properties": {"name": "불가리아", "name_en": "Bulgaria", "period": "냉전 시기(현재 국경으로 표시)", "kind": "국가", "legend": "냉전 당시 공산주의 진영 동유럽 국가들", "map_title": "소련의 해체와 동유럽의 변화", "source": "미래엔 세계사 교과서 4권 201쪽", "volume": 4, "page": 201, "geometry_source": "Natural Earth 10m 국가 경계"}, "geometry": {"type": "Polygon", "coordinates": [[[26.29491, 41.71032], [26.27393, 41.7149], [26.23445, 41.74583], [26.22618, 41.74968], [26.21182, 41.75048], [26.1899, 41.73469], [26.13513, 41.7334], [26.10836, 41.72789], [26.08149, 41.71151], [26.06051, 41.7073], [26.05369, 41.70151], [26.0481, 41.68908], [26.04749, 41.67462], [26.05503, 41.64875], [26.06692, 41.6355], [26.10671, 41.62428], [26.11528, 41.61663], [26.13027, 41.58268], [26.1312, 41.55266], [26.15249, 41.54703], [26.15807, 41.54232], [26.16314, 41.52915], [26.16293, 41.50646], [26.15931, 41.4938], [26.14763, 41.48476], [26.14588, 41.47804], [26.15621, 41.46042], [26.1743, 41.446], [26.1774, 41.43995], [26.17564, 41.43189], [26.16427, 41.42786], [26.159, 41.42181], [26.14784, 41.39691], [26.12086, 41.35779], [26.02185, 41.34166], [25.95963, 41.315], [25.92119, 41.31603], [25.89628, 41.30627], [25.88202, 41.30404], [25.86269, 41.31009], [25.83334, 41.33464], [25.81101, 41.34104], [25.76347, 41.31903], [25.71748, 41.31412], [25.69123, 41.29841], [25.67996, 41.29717], [25.63976, 41.31107], [25.55149, 41.31567], [25.53796, 41.31221], [25.52369, 41.29169], [25.51491, 41.28348], [25.50509, 41.28058], [25.4791, 41.28379], [25.45346, 41.28043], [25.28572, 41.2394], [25.26226, 41.2381], [25.23911, 41.2409], [25.21968, 41.24973], [25.1771, 41.29386], [25.15788, 41.30611], [25.11653, 41.32073], [25.10186, 41.33665], [25.08036, 41.33407], [24.91696, 41.38636], [24.88637, 41.40063], [24.87293, 41.40187], [24.84213, 41.39473], [24.80327, 41.39267], [24.80017, 41.37934], [24.80286, 41.36192], [24.79428, 41.3474], [24.77444, 41.34807], [24.75263, 41.36275], [24.71873, 41.39572], [24.69919, 41.40895], [24.6809, 41.41551], [24.63822, 41.41768], [24.64431, 41.42765], [24.59584, 41.42977], [24.58044, 41.44052], [24.58106, 41.46021], [24.56773, 41.46812], [24.54944, 41.48543], [24.54334, 41.52134], [24.53094, 41.54754], [24.51016, 41.56165], [24.45921, 41.54951], [24.43885, 41.5277], [24.42397, 41.52522], [24.38748, 41.52667], [24.34501, 41.5184], [24.31824, 41.52077], [24.29612, 41.51525], [24.28682, 41.51762], [24.2864, 41.54036], [24.26687, 41.54977], [24.25075, 41.56346], [24.23328, 41.5618], [24.19628, 41.54703], [24.1816, 41.53736], [24.17024, 41.51158], [24.16279, 41.51204], [24.14626, 41.52677], [24.11649, 41.53338], [24.0766, 41.53602], [24.04735, 41.52573], [24.052, 41.463], [24.0459, 41.45546], [24.03474, 41.45132], [24.02285, 41.45308], [24.00074, 41.46414], [23.99712, 41.45701], [23.98131, 41.45086], [23.96467, 41.43835], [23.94989, 41.43758], [23.90286, 41.46352], [23.8948, 41.46434], [23.86772, 41.44548], [23.8516, 41.43959], [23.83093, 41.43561], [23.79207, 41.43447], [23.77708, 41.42905], [23.75445, 41.40068], [23.73822, 41.39747], [23.70535, 41.40316], [23.67218, 41.40295], [23.65285, 41.39763], [23.62774, 41.37851], [23.61244, 41.37102], [23.57895, 41.372], [23.51301, 41.39773], [23.41452, 41.3999], [23.3955, 41.39525], [23.34724, 41.37122], [23.32605, 41.36931], [23.3062, 41.38838], [23.2877, 41.3982], [23.26993, 41.39727], [23.22425, 41.37903], [23.20978, 41.36859], [23.20482, 41.3427], [23.19955, 41.33298], [23.1797, 41.32135], [23.15717, 41.31634], [23.11521, 41.31267], [22.91698, 41.33577], [22.94085, 41.34983], [22.94447, 41.36843], [22.93734, 41.41076], [22.9546, 41.43241], [22.94623, 41.45323], [22.94302, 41.53855], [22.94871, 41.56098], [22.93372, 41.5846], [22.93207, 41.59795], [22.9361, 41.62617], [22.94085, 41.63764], [22.94581, 41.64108], [22.967, 41.64705], [22.97661, 41.66655], [22.99863, 41.69311], [23.00958, 41.71637], [23.00886, 41.73993], [22.99119, 41.76099], [22.94592, 41.76934], [22.91832, 41.81435], [22.90137, 41.86042], [22.8808, 41.87269], [22.87708, 41.90204], [22.85889, 41.94788], [22.85476, 41.98263], [22.8466, 41.99364], [22.8437, 42.01447], [22.83822, 42.01948], [22.82127, 42.02537], [22.79895, 42.02123], [22.79109, 42.02581], [22.78086, 42.04317], [22.71844, 42.04446], [22.70573, 42.05593], [22.67586, 42.06061], [22.61777, 42.0827], [22.53106, 42.12911], [22.51018, 42.14479], [22.49468, 42.16456], [22.48145, 42.19332], [22.44362, 42.21443], [22.34502, 42.31344], [22.36414, 42.32098], [22.4058, 42.32155], [22.42398, 42.32589], [22.43845, 42.34005], [22.45437, 42.37677], [22.46977, 42.3917], [22.50884, 42.40493], [22.51948, 42.42093], [22.53312, 42.45759], [22.53654, 42.47839], [22.52486, 42.50767], [22.51215, 42.51919], [22.48145, 42.53562], [22.42533, 42.57285], [22.4492, 42.66797], [22.44207, 42.68169], [22.46812, 42.71832], [22.48145, 42.72768], [22.4829, 42.73378], [22.48145, 42.73982], [22.46657, 42.74853], [22.45313, 42.76359], [22.42584, 42.80984], [22.4274, 42.81361], [22.44548, 42.83018], [22.48145, 42.84674], [22.49705, 42.86441], [22.50605, 42.87012], [22.53757, 42.86834], [22.56361, 42.88428], [22.5909, 42.88689], [22.66624, 42.87193], [22.72702, 42.88689], [22.7388, 42.89738], [22.76319, 42.95864], [22.77642, 42.97973], [22.7881, 42.9849], [22.82903, 42.9935], [22.84225, 43.00751], [22.88422, 43.03665], [22.90168, 43.06975], [22.93527, 43.08556], [22.95563, 43.10827], [22.97403, 43.14119], [22.98457, 43.17463], [22.98137, 43.19899], [22.96473, 43.20442], [22.91553, 43.21225], [22.89775, 43.22033], [22.82696, 43.28139], [22.81714, 43.3155], [22.80453, 43.32898], [22.73301, 43.38151], [22.70293, 43.39404], [22.66469, 43.39673], [22.63782, 43.42637], [22.59627, 43.42916], [22.56579, 43.45334], [22.53261, 43.46484], [22.51886, 43.47425], [22.49065, 43.54088], [22.47845, 43.55923], [22.47866, 43.56918], [22.4831, 43.57928], [22.47711, 43.59129], [22.48197, 43.59946], [22.4738, 43.613], [22.47287, 43.63594], [22.46626, 43.64912], [22.45592, 43.65641], [22.42647, 43.66821], [22.40487, 43.68718], [22.38605, 43.7255], [22.38854, 43.75829], [22.36259, 43.78084], [22.34947, 43.80792], [22.35474, 43.8297], [22.36755, 43.85275], [22.37706, 43.88352], [22.37903, 43.9135], [22.39453, 43.93634], [22.39959, 43.99334], [22.41179, 44.00693], [22.43432, 44.01396], [22.50367, 44.0199], [22.51494, 44.03028], [22.52258, 44.0447], [22.53416, 44.05716], [22.55462, 44.06243], [22.59297, 44.06393], [22.60475, 44.07938], [22.5971, 44.11906], [22.6094, 44.15994], [22.60599, 44.16315], [22.6062, 44.17457], [22.64878, 44.21399], [22.69164, 44.22843], [22.90644, 44.12289], [22.94261, 44.11147], [22.98809, 44.10703], [23.03098, 44.09307], [23.04007, 44.06233], [23.02302, 44.03163], [22.98809, 44.01768], [22.90582, 44.00398], [22.88587, 43.99453], [22.87471, 43.97205], [22.85052, 43.89699], [22.85104, 43.87435], [22.86344, 43.85541], [22.88876, 43.83952], [22.91956, 43.83423], [23.13185, 43.84795], [23.16192, 43.85732], [23.19696, 43.86275], [23.23448, 43.8773], [23.32515, 43.88659], [23.48469, 43.8806], [23.5927, 43.83743], [23.63611, 43.83216], [23.72075, 43.84583], [23.74287, 43.8427], [23.79992, 43.81846], [24.15938, 43.75294], [24.35823, 43.76002], [24.37549, 43.76387], [24.4312, 43.79418], [24.46634, 43.80242], [24.50014, 43.7995], [24.7056, 43.74377], [24.75263, 43.7388], [24.96367, 43.74961], [25.0816, 43.71894], [25.21131, 43.71188], [25.25234, 43.70465], [25.35962, 43.65429], [25.40313, 43.65005], [25.46742, 43.66775], [25.48876, 43.67054], [25.55656, 43.67036], [25.6165, 43.68775], [25.67138, 43.71736], [25.7396, 43.71894], [25.78114, 43.73201], [25.80626, 43.76366], [25.83933, 43.78844], [25.8693, 43.80089], [25.91643, 43.84438], [25.934, 43.87032], [26.05431, 43.93432], [26.06164, 43.94977], [26.07932, 43.96905], [26.11621, 43.99887], [26.15073, 44.01241], [26.23145, 44.0275], [26.31052, 44.05261], [26.61417, 44.08485], [26.64776, 44.09338], [26.67732, 44.09705], [26.70868, 44.10811], [26.7537, 44.10811], [26.78946, 44.11597], [26.88413, 44.15653], [27.00154, 44.16511], [27.02748, 44.17705], [27.10024, 44.14449], [27.20555, 44.12925], [27.22674, 44.12072], [27.25113, 44.12237], [27.26901, 44.1124], [27.26431, 44.08976], [27.28534, 44.07245], [27.34167, 44.05307], [27.35356, 44.04527], [27.37288, 44.02072], [27.38384, 44.01509], [27.57452, 44.01628], [27.63343, 44.02977], [27.65628, 44.02388], [27.67612, 43.99354], [27.7217, 43.94874], [27.78733, 43.96042], [27.85647, 43.98863], [27.91207, 43.99334], [27.93585, 43.9644], [27.98101, 43.84934], [28.01481, 43.83004], [28.22125, 43.76198], [28.43457, 43.73521], [28.57838, 43.74128], [28.57309, 43.60615], [28.57553, 43.59333], [28.60271, 43.55272], [28.60353, 43.53815], [28.59457, 43.51252], [28.57846, 43.48078], [28.56031, 43.45384], [28.48862, 43.40644], [28.47926, 43.3968], [28.47389, 43.38426], [28.47315, 43.36685], [28.45948, 43.38068], [28.41456, 43.39887], [28.39381, 43.41429], [28.36866, 43.42178], [28.32163, 43.42829], [28.29916, 43.42504], [28.26157, 43.41096], [28.24318, 43.40778], [28.17799, 43.40998], [28.15724, 43.40778], [28.11883, 43.39155], [28.09156, 43.36396], [28.0311, 43.24897], [28.01759, 43.23273], [28.00017, 43.22321], [27.93198, 43.20978], [27.91383, 43.20234], [27.90398, 43.20234], [27.90398, 43.1955], [27.93873, 43.1765], [27.94557, 43.16885], [27.94435, 43.15713], [27.92514, 43.11359], [27.91139, 43.06517], [27.88771, 43.04214], [27.88356, 43.03099], [27.88543, 43.00861], [27.9004, 42.96288], [27.90398, 42.94229], [27.89845, 42.87466], [27.90398, 42.85969], [27.88396, 42.84837], [27.88356, 42.83194], [27.89715, 42.784], [27.89715, 42.73623], [27.89226, 42.71052], [27.84108, 42.70832], [27.78736, 42.71516], [27.73268, 42.7145], [27.7256, 42.70848], [27.719, 42.69457], [27.71583, 42.68374], [27.71697, 42.67451], [27.72413, 42.66698], [27.73951, 42.66108], [27.71274, 42.65766], [27.6692, 42.6437], [27.64674, 42.64057], [27.62843, 42.62897], [27.63038, 42.60273], [27.65016, 42.55805], [27.63404, 42.56371], [27.54086, 42.5655], [27.51149, 42.55305], [27.49855, 42.53246], [27.48015, 42.4829], [27.46225, 42.48957], [27.45289, 42.48013], [27.45338, 42.46524], [27.46567, 42.45563], [27.46111, 42.44355], [27.46567, 42.42829], [27.4699, 42.43708], [27.46567, 42.44135], [27.47267, 42.46186], [27.50392, 42.43732], [27.51417, 42.43513], [27.52638, 42.44367], [27.53443, 42.45527], [27.54444, 42.46003], [27.56202, 42.44819], [27.57106, 42.45848], [27.5796, 42.45722], [27.59555, 42.44819], [27.6294, 42.45864], [27.64332, 42.45563], [27.64283, 42.45051], [27.63649, 42.44819], [27.64243, 42.43089], [27.65219, 42.41852], [27.66774, 42.41608], [27.69166, 42.42829], [27.69353, 42.41889], [27.69907, 42.41389], [27.719, 42.4147], [27.719, 42.40721], [27.69801, 42.40038], [27.70541, 42.39061], [27.719, 42.3867], [27.70948, 42.37678], [27.70834, 42.3631], [27.71437, 42.34919], [27.72584, 42.33893], [27.74041, 42.3343], [27.78045, 42.33893], [27.78045, 42.33271], [27.77459, 42.32722], [27.77443, 42.32172], [27.78785, 42.31098], [27.76295, 42.2956], [27.75115, 42.27705], [27.75587, 42.25849], [27.78045, 42.24335], [27.77369, 42.23591], [27.80974, 42.21841], [27.83139, 42.19501], [27.85621, 42.1813], [27.84938, 42.16706], [27.87908, 42.15424], [27.88673, 42.14737], [27.90398, 42.11982], [27.95777, 42.09431], [27.97267, 42.07538], [27.98658, 42.07209], [27.98243, 42.0611], [27.98731, 42.05174], [28.00701, 42.03791], [28.00758, 42.0329], [28.00017, 42.03046], [28.01157, 42.02139], [28.01905, 42.00845], [28.02036, 41.99457], [28.01384, 41.98265], [28.01677, 41.97256], [27.96592, 41.98214], [27.91703, 41.9779], [27.85223, 41.99545], [27.81192, 41.9947], [27.808, 41.99348], [27.80495, 41.98343], [27.80273, 41.96005], [27.81828, 41.95287], [27.81534, 41.9468], [27.78981, 41.94269], [27.72397, 41.9676], [27.68707, 41.9686], [27.6093, 41.95349], [27.60336, 41.93863], [27.59054, 41.94289], [27.5722, 41.92985], [27.55075, 41.92421], [27.56067, 41.91768], [27.54889, 41.91088], [27.56274, 41.90644], [27.54641, 41.90116], [27.53318, 41.90806], [27.50946, 41.93318], [27.49432, 41.94284], [27.42084, 41.97372], [27.39686, 41.98932], [27.37485, 42.0087], [27.33247, 42.05743], [27.30529, 42.07759], [27.27335, 42.09175], [27.23821, 42.09792], [27.21641, 42.09562], [27.2038, 42.08813], [27.18158, 42.06588], [27.17816, 42.05836], [27.17382, 42.05707], [27.14959, 42.06183], [27.11605, 42.06183], [27.0837, 42.07841], [27.06551, 42.0827], [27.04654, 42.08294], [27.02262, 42.07389], [27.0004, 42.04281], [26.96717, 42.02849], [26.9389, 41.99622], [26.91146, 41.99679], [26.90108, 41.99348], [26.89033, 41.98542], [26.86077, 41.9879], [26.81943, 41.96566], [26.80842, 41.96788], [26.78057, 41.98343], [26.76858, 41.98077], [26.73674, 41.95896], [26.71757, 41.95731], [26.62357, 41.96904], [26.60569, 41.96741], [26.58947, 41.95876], [26.54709, 41.9269], [26.54296, 41.92036], [26.54472, 41.91643], [26.55981, 41.90734], [26.55898, 41.90173], [26.55474, 41.89295], [26.54782, 41.85628], [26.53955, 41.83799], [26.52611, 41.82424], [26.47836, 41.81329], [26.37553, 41.81662], [26.33419, 41.78954], [26.32003, 41.76546], [26.3163, 41.74376], [26.32323, 41.72368], [26.33336, 41.71304], [26.29491, 41.71032]]]}}]}