{"type": "FeatureCollection", "features": [{"type": "Feature", "properties": {"name": "아제르바이잔", "name_en": "Azerbaijan", "period": "1991년", "kind": "국가", "legend": "독립 국가 연합(CIS, 1991년 기준)", "map_title": "소련의 해체와 동유럽의 변화", "source": "미래엔 세계사 교과서 4권 201쪽", "volume": 4, "page": 201, "geometry_source": "Natural Earth 10m 국가 경계"}, "geometry": {"type": "MultiPolygon", "coordinates": [[[[50.60011, 40.3037], [50.58758, 40.3006], [50.57276, 40.31005], [50.563, 40.32486], [50.56528, 40.33784], [50.5783, 40.33002], [50.59669, 40.33747], [50.60694, 40.33784], [50.62127, 40.32608], [50.62574, 40.31037], [50.61891, 40.29999], [50.60011, 40.3037]]], [[[50.38844, 40.40168], [50.35369, 40.39989], [50.35865, 40.42422], [50.32602, 40.45808], [50.32643, 40.48188], [50.33863, 40.47687], [50.35369, 40.48066], [50.36053, 40.47443], [50.3628, 40.45356], [50.38502, 40.43399], [50.39527, 40.4204], [50.39625, 40.40852], [50.38844, 40.40168]]], [[[45.0024, 41.29045], [45.24962, 41.4445], [45.28171, 41.45292], [45.31442, 41.45163], [45.38124, 41.42559], [45.39679, 41.42326], [45.41695, 41.4246], [45.45002, 41.4322], [45.4648, 41.43019], [45.51183, 41.39458], [45.65559, 41.35236], [45.7207, 41.34239], [45.74406, 41.33536], [45.7453, 41.32916], [45.70809, 41.31712], [45.68587, 41.29624], [45.70975, 41.26772], [45.75109, 41.241], [45.82075, 41.2088], [45.96916, 41.16829], [46.01743, 41.16379], [46.04161, 41.16545], [46.06135, 41.17092], [46.11313, 41.19604], [46.13541, 41.19991], [46.21059, 41.20017], [46.22858, 41.19542], [46.27343, 41.1563], [46.33234, 41.11589], [46.35312, 41.10654], [46.41265, 41.09186], [46.42903, 41.08096], [46.45699, 41.05243], [46.47492, 41.04411], [46.49678, 41.04483], [46.50556, 41.05527], [46.51114, 41.07098], [46.52241, 41.087], [46.54355, 41.09703], [46.58215, 41.09165], [46.60179, 41.09403], [46.62111, 41.1146], [46.63475, 41.18105], [46.64447, 41.20798], [46.66948, 41.22989], [46.67465, 41.26167], [46.68343, 41.26947], [46.6948, 41.26978], [46.6885, 41.28435], [46.63103, 41.34554], [46.62287, 41.34962], [46.60737, 41.34502], [46.59155, 41.37293], [46.54246, 41.39499], [46.4451, 41.42595], [46.39828, 41.45871], [46.36624, 41.46657], [46.31395, 41.49375], [46.29674, 41.51039], [46.28785, 41.53214], [46.27839, 41.57839], [46.2539, 41.61591], [46.24005, 41.6155], [46.22848, 41.59873], [46.21969, 41.5933], [46.19277, 41.61017], [46.18, 41.65516], [46.17954, 41.70588], [46.18899, 41.74014], [46.20832, 41.75551], [46.23013, 41.75732], [46.27695, 41.74931], [46.29777, 41.75081], [46.31374, 41.75665], [46.32831, 41.76642], [46.37131, 41.80569], [46.39275, 41.83169], [46.43089, 41.89044], [46.45234, 41.88618], [46.47931, 41.88701], [46.52551, 41.8823], [46.54355, 41.87429], [46.54913, 41.85538], [46.54432, 41.81476], [46.54985, 41.79776], [46.56758, 41.78668], [46.58659, 41.78678], [46.63651, 41.81652], [46.69749, 41.82822], [46.73242, 41.8514], [46.74079, 41.85124], [46.75402, 41.80089], [46.7594, 41.7873], [46.76911, 41.77572], [46.83479, 41.73024], [46.8519, 41.72234], [46.89055, 41.71709], [46.90223, 41.71275], [46.91598, 41.68095], [46.92952, 41.66723], [46.97923, 41.6355], [47.00393, 41.60542], [47.01261, 41.5755], [47.02703, 41.55695], [47.06915, 41.56129], [47.10749, 41.56992], [47.12558, 41.5663], [47.14139, 41.5524], [47.15932, 41.50351], [47.18707, 41.48563], [47.20051, 41.45685], [47.23146, 41.42755], [47.23906, 41.41572], [47.24278, 41.39127], [47.24092, 41.33893], [47.25084, 41.31603], [47.26841, 41.3028], [47.34448, 41.26823], [47.37559, 41.25945], [47.47915, 41.25195], [47.50095, 41.24632], [47.52917, 41.21655], [47.54731, 41.20565], [47.56777, 41.2055], [47.60317, 41.22327], [47.6225, 41.22906], [47.64255, 41.22725], [47.72456, 41.19573], [47.74373, 41.19268], [47.82874, 41.19842], [47.87111, 41.20818], [47.89463, 41.21929], [47.89886, 41.22906], [47.88925, 41.26244], [47.89215, 41.28327], [47.92946, 41.31355], [47.94269, 41.3474], [47.95323, 41.35577], [47.97917, 41.35241], [48.00165, 41.36208], [48.03457, 41.43365], [48.05353, 41.46129], [48.08655, 41.47664], [48.20184, 41.49349], [48.23135, 41.50548], [48.2837, 41.53953], [48.37015, 41.58015], [48.39305, 41.59888], [48.41325, 41.62761], [48.45542, 41.71441], [48.53066, 41.78737], [48.57895, 41.84528], [48.62013, 41.82441], [48.65545, 41.8006], [48.74366, 41.70893], [48.77784, 41.68301], [48.79184, 41.66743], [48.79762, 41.64313], [48.8659, 41.58539], [48.90406, 41.52338], [48.92433, 41.51781], [48.94117, 41.50462], [48.96217, 41.47614], [48.99448, 41.44042], [49.0276, 41.43122], [49.04249, 41.41437], [49.1089, 41.30976], [49.13592, 41.27497], [49.14194, 41.25316], [49.15431, 41.16645], [49.16065, 41.1481], [49.17164, 41.14037], [49.17848, 41.12885], [49.19549, 41.05728], [49.24318, 40.99722], [49.36313, 40.89423], [49.38201, 40.86664], [49.40317, 40.85273], [49.44874, 40.83129], [49.47104, 40.83576], [49.50782, 40.80622], [49.52784, 40.7978], [49.53883, 40.78807], [49.53435, 40.76618], [49.51694, 40.72891], [49.50953, 40.69904], [49.51075, 40.68793], [49.53891, 40.654], [49.57618, 40.62995], [49.58961, 40.62519], [49.63307, 40.6232], [49.6526, 40.61921], [49.66847, 40.61221], [49.70411, 40.58808], [49.72381, 40.58076], [49.77394, 40.57563], [49.81674, 40.56538], [49.84034, 40.56379], [49.85865, 40.56664], [49.91424, 40.5843], [49.93816, 40.58747], [50.05201, 40.5843], [50.06039, 40.57795], [50.07252, 40.55695], [50.10939, 40.52709], [50.12965, 40.51846], [50.22006, 40.50365], [50.23756, 40.49616], [50.27589, 40.43659], [50.31739, 40.42121], [50.33595, 40.40595], [50.3506, 40.38589], [50.36053, 40.36518], [50.37078, 40.28262], [50.386, 40.25568], [50.39112, 40.23501], [50.38787, 40.22114], [50.34791, 40.2744], [50.32309, 40.29658], [50.27369, 40.32734], [50.22999, 40.34276], [50.18531, 40.34748], [50.1277, 40.35895], [50.0936, 40.35151], [50.05519, 40.35151], [50.03761, 40.34577], [50.00375, 40.3242], [49.98374, 40.3242], [49.95582, 40.35151], [49.91961, 40.35814], [49.8934, 40.36904], [49.87355, 40.36058], [49.84034, 40.33784], [49.84718, 40.31415], [49.81902, 40.29206], [49.77833, 40.27582], [49.71193, 40.26435], [49.65366, 40.23843], [49.57716, 40.21674], [49.55926, 40.20669], [49.49252, 40.154], [49.49041, 40.13239], [49.49659, 40.09455], [49.44264, 40.07844], [49.43263, 40.06297], [49.43507, 40.04279], [49.44874, 40.02253], [49.47193, 40.0065], [49.47975, 39.99897], [49.4839, 39.98867], [49.47828, 39.98233], [49.43539, 39.95767], [49.42368, 39.93549], [49.42823, 39.90644], [49.44313, 39.87336], [49.43849, 39.86176], [49.41651, 39.84374], [49.41456, 39.83417], [49.42237, 39.81733], [49.4214, 39.81025], [49.40089, 39.79662], [49.39479, 39.78246], [49.39519, 39.77619], [49.40089, 39.76927], [49.39633, 39.75617], [49.40203, 39.7425], [49.42482, 39.71809], [49.42359, 39.70954], [49.38396, 39.69013], [49.33725, 39.64643], [49.31804, 39.62141], [49.31902, 39.60419], [49.29713, 39.56558], [49.28492, 39.5222], [49.28582, 39.49518], [49.29575, 39.47671], [49.38885, 39.41079], [49.40089, 39.39936], [49.40895, 39.38642], [49.40357, 39.37848], [49.39731, 39.34516], [49.39869, 39.33515], [49.40707, 39.32368], [49.38559, 39.33495], [49.37306, 39.35098], [49.36687, 39.35098], [49.37908, 39.31981], [49.39137, 39.30549], [49.40707, 39.29694], [49.40707, 39.2895], [49.38453, 39.29369], [49.35768, 39.32014], [49.30641, 39.3465], [49.27312, 39.33658], [49.24732, 39.3107], [49.23707, 39.27896], [49.2378, 39.1695], [49.22967, 39.13866], [49.21079, 39.09077], [49.2033, 39.03413], [49.19386, 39.01634], [49.11883, 38.97533], [49.07928, 38.96332], [49.05152, 38.98102], [49.05584, 39.00751], [49.0652, 39.01512], [49.11012, 39.02196], [49.1255, 39.02814], [49.13868, 39.04344], [49.14682, 39.06342], [49.14772, 39.08344], [49.1364, 39.10228], [49.11638, 39.1103], [49.06861, 39.1114], [49.05893, 39.1728], [49.04119, 39.18439], [49.02223, 39.18822], [48.9795, 39.18708], [48.96762, 39.18382], [48.94955, 39.15127], [48.94695, 39.12751], [48.93482, 39.12442], [48.93295, 39.0777], [48.93637, 39.05313], [48.95265, 39.03164], [48.94858, 39.00723], [48.92172, 38.93545], [48.89869, 38.89305], [48.86793, 38.86384], [48.8318, 38.87116], [48.83473, 38.81928], [48.8392, 38.80353], [48.86313, 38.75666], [48.87428, 38.43407], [48.80971, 38.44463], [48.77772, 38.44481], [48.75535, 38.43523], [48.73561, 38.41957], [48.68321, 38.39802], [48.65913, 38.39265], [48.60786, 38.39598], [48.57593, 38.42037], [48.54864, 38.45626], [48.47909, 38.52476], [48.46265, 38.54494], [48.43371, 38.56997], [48.42674, 38.59646], [48.41527, 38.61811], [48.39175, 38.61811], [48.34106, 38.59958], [48.31031, 38.60015], [48.29223, 38.61356], [48.27652, 38.63178], [48.22804, 38.66219], [48.22618, 38.67909], [48.23032, 38.69862], [48.22298, 38.72146], [48.21037, 38.72976], [48.07797, 38.78094], [48.01297, 38.82156], [47.99312, 38.85008], [47.99074, 38.89122], [48.00005, 38.90259], [48.05245, 38.92791], [48.05854, 38.94837], [48.24318, 38.97387], [48.28437, 38.9938], [48.29367, 39.0046], [48.30628, 39.03147], [48.3068, 39.0454], [48.2713, 39.10831], [48.25626, 39.11978], [48.1991, 39.13823], [48.14216, 39.1812], [48.11776, 39.20805], [48.10433, 39.23484], [48.10619, 39.26918], [48.12459, 39.2976], [48.15353, 39.31905], [48.18722, 39.33259], [48.24985, 39.34235], [48.30246, 39.3699], [48.33894, 39.37894], [48.31672, 39.41517], [48.28861, 39.44503], [48.22008, 39.49403], [48.05203, 39.65009], [47.99074, 39.69427], [47.97142, 39.70455], [47.95726, 39.70734], [47.93524, 39.68652], [47.92294, 39.68414], [47.84688, 39.68528], [47.82311, 39.68032], [47.80378, 39.66993], [47.74528, 39.62378], [47.60699, 39.56358], [47.55408, 39.52198], [47.54116, 39.51516], [47.51873, 39.5132], [47.44876, 39.4947], [47.4069, 39.47682], [47.37425, 39.45558], [47.32453, 39.40597], [47.29136, 39.37961], [47.2497, 39.36127], [47.15007, 39.33114], [47.10222, 39.3084], [47.09251, 39.29982], [47.08909, 39.28985], [47.05292, 39.24494], [47.03607, 39.20701], [47.02047, 39.18996], [46.95375, 39.16066], [46.94161, 39.1589], [46.89872, 39.17174], [46.88301, 39.17141], [46.86616, 39.16536], [46.83738, 39.14325], [46.80601, 39.1024], [46.77376, 39.08537], [46.76162, 39.07059], [46.74483, 39.04025], [46.72839, 39.02795], [46.67041, 39.00491], [46.65217, 38.99294], [46.63884, 38.97948], [46.61067, 38.93401], [46.58535, 38.9077], [46.55373, 38.88982], [46.53207, 38.883], [46.51404, 38.88218], [46.47931, 38.93938], [46.47507, 38.95106], [46.4758, 38.97561], [46.49461, 39.02553], [46.4975, 39.05353], [46.49192, 39.0819], [46.47931, 39.11477], [46.45513, 39.12994], [46.42185, 39.14464], [46.39627, 39.16443], [46.39529, 39.19518], [46.41833, 39.21192], [46.45337, 39.20841], [46.51414, 39.18443], [46.52644, 39.18583], [46.57279, 39.21151], [46.59383, 39.21213], [46.60261, 39.21549], [46.59114, 39.23107], [46.54184, 39.25905], [46.51766, 39.27884], [46.50794, 39.29357], [46.49528, 39.32401], [46.47931, 39.33424], [46.40738, 39.35915], [46.37462, 39.37884], [46.36087, 39.41026], [46.374, 39.43599], [46.40572, 39.45119], [46.47931, 39.46188], [46.49141, 39.46643], [46.49823, 39.47377], [46.49859, 39.48312], [46.49171, 39.49366], [46.49202, 39.5102], [46.51828, 39.52544], [46.52727, 39.53816], [46.52427, 39.55464], [46.51202, 39.56756], [46.49544, 39.57593], [46.47931, 39.57867], [46.41616, 39.57402], [46.39642, 39.57666], [46.38144, 39.58503], [46.35787, 39.60968], [46.34371, 39.61862], [46.3095, 39.62053], [46.24119, 39.5935], [46.20646, 39.58792], [46.18424, 39.59324], [46.16956, 39.6041], [46.1461, 39.63846], [46.13168, 39.65215], [46.11448, 39.65965], [46.07655, 39.66812], [46.04513, 39.68755], [46.00658, 39.74791], [45.97924, 39.76848], [45.91614, 39.78315], [45.86188, 39.80455], [45.81682, 39.83917], [45.76442, 39.92206], [45.74277, 39.94051], [45.71543, 39.9509], [45.61115, 39.95916], [45.57942, 39.97017], [45.57627, 39.99389], [45.63957, 40.02541], [45.8039, 40.00448], [45.87377, 40.00975], [45.8872, 40.01844], [45.89402, 40.02908], [45.90953, 40.08267], [45.9317, 40.09755], [45.95077, 40.11719], [45.96296, 40.14169], [45.9811, 40.20597], [45.97924, 40.22359], [45.93919, 40.26028], [45.92462, 40.26617], [45.88173, 40.26044], [45.86168, 40.26127], [45.81837, 40.2978], [45.58541, 40.39872], [45.52619, 40.44105], [45.48542, 40.50528], [45.45545, 40.52363], [45.44465, 40.56636], [45.42723, 40.58295], [45.3878, 40.60951], [45.37354, 40.63271], [45.37364, 40.6753], [45.39881, 40.70894], [45.43793, 40.73338], [45.55586, 40.77658], [45.58221, 40.79937], [45.60097, 40.84056], [45.59916, 40.86268], [45.5818, 40.86965], [45.55823, 40.87094], [45.53787, 40.8759], [45.47927, 40.92991], [45.45281, 40.94639], [45.42873, 40.9512], [45.41643, 40.96133], [45.42522, 40.99368], [45.41912, 41.01734], [45.39152, 41.01507], [45.33535, 40.99383], [45.31256, 40.99662], [45.26874, 41.01026], [45.22161, 41.01445], [45.18968, 41.03755], [45.16921, 41.04716], [45.13655, 41.0729], [45.12002, 41.07961], [45.11712, 41.06142], [45.11102, 41.04954], [45.0917, 41.05103], [45.07004, 41.06209], [45.05718, 41.07879], [45.06782, 41.11093], [45.16673, 41.10778], [45.20104, 41.12674], [45.19975, 41.14266], [45.18678, 41.15687], [45.13443, 41.18787], [45.11733, 41.19206], [45.05201, 41.19211], [45.03485, 41.19769], [45.02932, 41.2101], [45.0394, 41.23118], [45.0024, 41.29045]], [[45.54717, 40.62155], [45.56071, 40.64765], [45.53467, 40.65892], [45.50557, 40.66021], [45.49178, 40.65711], [45.47927, 40.65023], [45.47131, 40.62987], [45.47328, 40.61943], [45.47927, 40.60982], [45.51369, 40.60197], [45.54717, 40.62155]]], [[[46.12605, 38.86267], [46.06797, 38.87411], [46.00182, 38.89747], [45.79109, 38.93209], [45.71688, 38.95478], [45.62779, 38.9555], [45.57084, 38.96638], [45.53084, 38.96928], [45.51028, 38.97866], [45.48258, 38.98439], [45.4386, 39.00424], [45.42708, 39.01488], [45.42527, 39.02563], [45.43452, 39.05279], [45.42971, 39.05948], [45.39638, 39.07333], [45.37933, 39.11115], [45.35194, 39.12831], [45.34527, 39.13844], [45.3539, 39.15319], [45.34822, 39.16392], [45.31112, 39.17629], [45.3139, 39.19425], [45.31112, 39.20053], [45.30171, 39.20138], [45.28311, 39.19306], [45.17893, 39.21983], [45.15273, 39.21352], [45.14627, 39.22867], [45.13583, 39.27848], [45.12038, 39.29889], [45.09604, 39.34111], [45.08798, 39.35073], [45.06865, 39.36421], [45.0517, 39.38685], [45.01563, 39.40597], [45.00638, 39.41796], [44.98251, 39.42018], [44.95703, 39.43449], [44.95331, 39.44163], [44.96163, 39.45377], [44.9407, 39.46808], [44.9284, 39.48824], [44.89843, 39.58436], [44.88644, 39.60596], [44.86535, 39.61758], [44.87228, 39.62508], [44.82784, 39.6288], [44.80965, 39.63696], [44.79575, 39.65236], [44.78433, 39.69024], [44.77456, 39.7028], [44.80293, 39.71241], [44.84933, 39.71892], [44.89305, 39.7184], [44.92716, 39.72471], [44.95909, 39.73851], [44.99599, 39.76047], [45.03351, 39.77039], [45.06751, 39.75721], [45.14126, 39.6844], [45.15154, 39.66771], [45.15588, 39.64921], [45.15422, 39.62585], [45.14441, 39.58983], [45.14833, 39.57526], [45.16792, 39.56555], [45.20477, 39.57231], [45.23319, 39.59273], [45.25995, 39.5997], [45.29106, 39.56585], [45.31298, 39.53381], [45.32755, 39.52927], [45.37488, 39.52586], [45.39235, 39.51878], [45.42408, 39.49371], [45.43483, 39.48886], [45.45746, 39.48927], [45.47927, 39.49718], [45.55968, 39.53681], [45.58645, 39.54539], [45.71466, 39.56947], [45.73786, 39.56978], [45.76545, 39.56157], [45.78809, 39.54896], [45.79708, 39.53635], [45.79403, 39.49387], [45.80307, 39.44819], [45.79863, 39.43243], [45.76499, 39.38948], [45.75863, 39.36948], [45.767, 39.35439], [45.82375, 39.34308], [45.8872, 39.29967], [45.95883, 39.27244], [45.9858, 39.24944], [45.98808, 39.24189], [45.98601, 39.23469], [45.95511, 39.20324], [45.94901, 39.17779], [45.9581, 39.15151], [46.00523, 39.09544], [46.02549, 39.06377], [46.07758, 38.95049], [46.13587, 38.8637], [46.12605, 38.86267]]], [[[45.18678, 40.97083], [45.17717, 40.99383], [45.18378, 40.99791], [45.19185, 40.99781], [45.22047, 40.97905], [45.20993, 40.96799], [45.18678, 40.97083]]], [[[45.01888, 41.07491], [45.02999, 41.04628], [45.01573, 41.02323], [44.97946, 41.03264], [44.96695, 41.04483], [44.9607, 41.05992], [44.96395, 41.07377], [44.97946, 41.08204], [45.01888, 41.07491]]]]}}]}