{"type": "FeatureCollection", "features": [{"type": "Feature", "properties": {"map_title": "무굴 제국의 발전", "source": "미래엔 세계사 교과서 3권 128쪽", "volume": 3, "page": 128, "name": "바부르의 공격로", "category": "정복·원정로", "period": "1504–1526", "legend": "바부르의 공격로"}, "geometry": {"type": "LineString", "coordinates": [[72.38063, 40.85289], [72.2795, 40.65755], [72.18583, 40.45838], [72.09735, 40.2568], [71.98239, 40.08143], [71.76342, 39.7263], [71.57156, 39.4889], [71.38673, 39.24899], [71.18237, 39.02902], [70.98472, 38.80679], [70.77723, 38.59504], [70.37505, 38.16879], [70.18021, 37.9546], [69.99413, 37.73302], [69.81426, 37.51011], [69.65202, 37.27146], [69.4957, 37.03201], [69.36483, 36.79576], [69.25587, 36.57455], [69.16783, 36.36191], [69.10022, 36.15132], [69.05287, 35.93629], [69.02601, 35.71044], [69.02016, 35.46759], [69.03723, 35.20029]]}}, {"type": "Feature", "properties": {"map_title": "무굴 제국의 발전", "source": "미래엔 세계사 교과서 3권 128쪽", "volume": 3, "page": 128, "name": "바부르의 공격로", "category": "정복·원정로", "period": "1504–1526", "legend": "바부르의 공격로"}, "geometry": {"type": "LineString", "coordinates": [[69.12364, 34.65733], [69.20326, 34.55426], [69.27504, 34.4411], [69.34198, 34.32106], [69.47302, 34.07344], [69.54267, 33.95253], [69.61863, 33.83795], [69.70343, 33.73301], [69.94261, 33.48432], [70.23938, 33.20629], [70.58672, 32.91289], [70.97693, 32.61629], [71.40055, 32.32774], [71.84547, 32.05928], [72.29585, 31.82596], [72.7312, 31.64751], [72.73246, 31.65059]]}}, {"type": "Feature", "properties": {"map_title": "무굴 제국의 발전", "source": "미래엔 세계사 교과서 3권 128쪽", "volume": 3, "page": 128, "name": "바부르의 공격로", "category": "정복·원정로", "period": "1504–1526", "legend": "바부르의 공격로"}, "geometry": {"type": "LineString", "coordinates": [[71.57081, 30.31737], [71.35261, 29.78825], [71.34206, 29.15657], [71.50759, 28.50619], [71.82158, 27.9093], [72.2553, 27.42688], [72.77553, 27.10107], [73.16552, 27.00665], [73.35523, 26.95628], [73.56956, 26.97861], [73.99645, 27.01106], [74.3725, 27.14128], [74.72996, 27.33702], [75.07015, 27.58081], [75.23047, 27.71928], [75.39258, 27.85382], [75.54434, 27.99747], [75.6988, 28.13617], [75.84436, 28.27509], [76.13871, 28.53277], [76.29038, 28.65066], [76.43468, 28.75512], [76.58595, 28.85479]]}}, {"type": "Feature", "properties": {"map_title": "무굴 제국의 발전", "source": "미래엔 세계사 교과서 3권 128쪽", "volume": 3, "page": 128, "name": "바부르의 공격로", "category": "정복·원정로", "period": "1504–1526", "legend": "바부르의 공격로"}, "geometry": {"type": "LineString", "coordinates": [[74.00142, 31.43502], [73.5887, 31.27172], [73.06096, 31.05342], [72.50849, 30.81757], [72.02845, 30.60432], [72.01957, 30.61323]]}}]}