{"type": "FeatureCollection", "features": [{"type": "Feature", "properties": {"map_title": "무굴 제국의 발전", "source": "미래엔 세계사 교과서 3권 128쪽", "volume": 3, "page": 128, "name": "무굴 제국", "name_en": "Mughal Empire", "period": "17세기 말(아우랑제브)", "kind": "국가", "legend": "무굴 제국의 최대 영역", "coast_snap": "Natural Earth 10m 해안선에 맞춤", "border_snap": "현대 국경(Natural Earth 10m)에 맞춘 구간 약 526 km"}, "geometry": {"type": "MultiPolygon", "coordinates": [[[[79.71419, 11.316], [79.75196, 11.34052], [79.7593, 11.35834], [79.77638, 11.36298], [79.80972, 11.35311], [79.77226, 11.3345], [79.71419, 11.316]]], [[[80.93727, 15.81891], [80.98316, 15.78075], [80.98853, 15.77074], [80.98487, 15.76179], [80.97168, 15.75048], [80.94256, 15.74109], [80.91799, 15.75512], [80.8685, 15.81197], [80.87916, 15.84007], [80.88836, 15.84673], [80.93727, 15.81891]]], [[[88.86248, 21.5236], [88.83872, 21.53194], [88.83083, 21.57738], [88.84132, 21.614], [88.90202, 21.58026], [88.9113, 21.56688], [88.9139, 21.54841], [88.90796, 21.53072], [88.87973, 21.52997], [88.86248, 21.5236]]], [[[88.05178, 21.6416], [88.04315, 21.65762], [88.04403, 21.68112], [88.08996, 21.8085], [88.11931, 21.85952], [88.14674, 21.86985], [88.16699, 21.76545], [88.16341, 21.70548], [88.13258, 21.68496], [88.1444, 21.65758], [88.14599, 21.64375], [88.13941, 21.63032], [88.12981, 21.62596], [88.09156, 21.63654], [88.06349, 21.63668], [88.05178, 21.6416]]], [[[89.0447, 21.90778], [89.04566, 21.91706], [89.05738, 21.91766], [89.06764, 21.90436], [89.08131, 21.82294], [89.09587, 21.79176], [89.139, 21.76683], [89.14469, 21.73933], [89.13249, 21.72164], [89.10231, 21.73677], [89.05154, 21.7932], [89.06422, 21.82209], [89.06381, 21.84146], [89.0447, 21.90778]]], [[[88.5988, 21.87011], [88.63625, 21.92137], [88.65016, 21.92744], [88.66325, 21.92128], [88.67057, 21.90741], [88.64918, 21.84235], [88.64632, 21.78793], [88.59182, 21.8044], [88.58432, 21.83576], [88.5988, 21.87011]]], [[[88.10499, 21.86115], [88.0809, 21.84936], [88.07244, 21.85661], [88.07387, 21.89192], [88.08486, 21.9218], [88.10573, 21.94757], [88.1189, 21.945], [88.13257, 21.92048], [88.125, 21.88866], [88.10499, 21.86115]]], [[[89.53713, 21.75381], [89.53891, 21.77147], [89.52736, 21.81281], [89.53026, 21.83553], [89.56446, 21.88418], [89.56764, 21.9007], [89.5635, 21.97313], [89.5713, 22.03124], [89.57667, 22.0517], [89.60199, 22.09695], [89.62647, 21.99698], [89.62892, 21.9282], [89.62438, 21.88694], [89.61685, 21.8534], [89.59224, 21.79025], [89.55364, 21.73044], [89.53713, 21.75381]]], [[[70.76665, 20.61044], [70.68589, 20.60393], [70.6194, 20.61391], [70.58897, 20.62391], [70.56329, 20.6371], [70.54491, 20.6533], [70.54283, 20.66203], [70.55354, 20.68773], [70.57941, 20.72027], [70.6136, 20.74946], [70.63324, 20.76021], [70.65231, 20.76473], [70.64908, 20.76601], [70.65812, 20.83122], [70.68169, 20.89787], [70.7183, 20.9586], [70.76703, 21.01188], [70.82585, 21.05528], [70.85878, 21.07294], [70.8995, 21.08829], [71.0363, 21.12016], [71.10206, 21.15106], [71.10591, 21.16193], [71.0981, 21.16764], [70.99016, 21.17913], [70.95802, 21.18862], [70.92304, 21.20523], [70.8868, 21.22739], [70.72838, 21.34763], [70.51607, 21.47836], [70.43951, 21.53726], [70.41023, 21.56728], [70.40026, 21.59896], [70.39667, 21.70819], [70.38699, 21.74129], [70.35786, 21.76808], [70.26426, 21.81779], [70.24845, 21.83283], [70.23897, 21.85101], [70.2355, 21.9124], [70.24916, 22.01871], [70.24154, 22.05888], [70.23171, 22.07342], [70.21344, 22.08537], [70.16482, 22.08338], [70.11714, 22.09625], [70.07292, 22.12138], [70.03849, 22.15446], [70.02688, 22.17497], [70.02424, 22.1998], [70.03608, 22.26391], [70.03689, 22.29308], [70.02992, 22.31776], [70.0133, 22.33788], [69.99065, 22.34413], [69.96683, 22.33207], [69.91039, 22.24817], [69.8892, 22.2287], [69.88374, 22.14987], [69.87592, 22.11524], [69.85602, 22.06301], [69.83666, 22.0598], [69.75211, 22.01615], [69.75267, 22.00693], [69.79002, 21.96662], [69.78542, 21.96152], [69.72868, 21.91455], [69.66322, 21.87876], [69.59156, 21.85552], [69.51643, 21.84572], [69.47847, 21.84599], [69.40399, 21.85676], [69.39497, 21.85936], [69.39088, 21.8767], [69.37721, 21.86449], [69.33273, 21.88094], [69.29229, 21.90221], [69.24391, 21.94595], [69.20253, 21.97608], [69.14735, 22.04739], [68.95593, 22.34202], [68.97431, 22.40455], [68.99277, 22.43138], [69.07358, 22.48187], [69.08138, 22.48053], [69.0852, 22.47288], [69.08227, 22.45955], [69.07447, 22.44946], [69.056, 22.44184], [69.04819, 22.43159], [69.07179, 22.39948], [69.09742, 22.39887], [69.12273, 22.41106], [69.14698, 22.40485], [69.17856, 22.42763], [69.18824, 22.42641], [69.20215, 22.41486], [69.20573, 22.39867], [69.18214, 22.36644], [69.1853, 22.34968], [69.16969, 22.32795], [69.17384, 22.3083], [69.19044, 22.2923], [69.21208, 22.28139], [69.21209, 22.27391], [69.28647, 22.28461], [69.3357, 22.30614], [69.34645, 22.32489], [69.35988, 22.32916], [69.4354, 22.33039], [69.47967, 22.34223], [69.5027, 22.37225], [69.51987, 22.37763], [69.52565, 22.39208], [69.51373, 22.43135], [69.51597, 22.44814], [69.53077, 22.44611], [69.54785, 22.45208], [69.56167, 22.39182], [69.5547, 22.37763], [69.61606, 22.3559], [69.61989, 22.37104], [69.62973, 22.38376], [69.64039, 22.37596], [69.66945, 22.40924], [69.69939, 22.40428], [69.73341, 22.48003], [69.79493, 22.41861], [69.80698, 22.42097], [69.82229, 22.45209], [69.83327, 22.46381], [69.86378, 22.46577], [69.88478, 22.47358], [69.97299, 22.54144], [69.99627, 22.54145], [70.02085, 22.55511], [70.05882, 22.55839], [70.14471, 22.5478], [70.17848, 22.56196], [70.2073, 22.61497], [70.23487, 22.64887], [70.2674, 22.70615], [70.3191, 22.77827], [70.32325, 22.78767], [70.32253, 22.82266], [70.34295, 22.84317], [70.37527, 22.90265], [70.40463, 22.9195], [70.43687, 22.95489], [70.45338, 22.96661], [70.48634, 22.96369], [70.50473, 22.97956], [70.52719, 23.02359], [70.52849, 23.04706], [70.5149, 23.08955], [70.48422, 23.12214], [70.46713, 23.12971], [70.45112, 23.10583], [70.41066, 23.086], [70.39877, 23.06904], [70.40105, 23.0454], [70.41097, 23.02318], [70.40187, 22.99925], [70.40161, 22.95385], [70.39242, 22.94087], [70.36354, 22.93871], [70.34669, 22.93131], [70.32569, 22.94501], [70.30348, 22.93815], [70.29176, 22.95303], [70.2693, 22.95857], [70.24968, 22.98745], [70.23308, 23.00015], [70.23193, 22.97492], [70.22201, 22.95918], [70.20411, 22.95223], [70.17848, 22.95303], [70.1631, 22.94897], [70.14747, 22.96605], [70.12906, 22.96934], [70.12501, 22.97598], [70.13063, 22.99396], [70.10955, 22.95917], [70.13232, 22.94106], [70.13541, 22.93001], [70.06178, 22.9182], [69.99691, 22.8938], [69.94068, 22.88614], [69.88429, 22.86784], [69.83318, 22.85847], [69.78012, 22.82746], [69.7601, 22.80834], [69.72884, 22.75484], [69.71583, 22.74691], [69.65382, 22.76048], [69.58571, 22.76119], [69.55698, 22.77851], [69.4998, 22.78175], [69.47218, 22.79466], [69.42466, 22.80428], [69.40594, 22.81367], [69.37257, 22.819], [69.33814, 22.83308], [69.23878, 22.84196], [69.20192, 22.85225], [69.13543, 22.88848], [69.03989, 22.95051], [68.86623, 23.01997], [68.65407, 23.15779], [68.64967, 23.18085], [68.62258, 23.19156], [68.59989, 23.22525], [68.59574, 23.24034], [68.60939, 23.22671], [68.62013, 23.24543], [68.62306, 23.26765], [68.60531, 23.2596], [68.57781, 23.25528], [68.55226, 23.25972], [68.54104, 23.27823], [68.56105, 23.3161], [68.60694, 23.32559], [68.59205, 23.34007], [68.57106, 23.34639], [68.56105, 23.36392], [68.54102, 23.35701], [68.52057, 23.36937], [68.51511, 23.37725], [68.51516, 23.39931], [68.52955, 23.41193], [68.54103, 23.41169], [68.53639, 23.42133], [68.53012, 23.42569], [68.52215, 23.42475], [68.51321, 23.41853], [68.50148, 23.42328], [68.49048, 23.40934], [68.47535, 23.40486], [68.46259, 23.40913], [68.45884, 23.41983], [68.4655, 23.44579], [68.44044, 23.43428], [68.43093, 23.4366], [68.42369, 23.44579], [68.44744, 23.48745], [68.46562, 23.50529], [68.48585, 23.51411], [68.48129, 23.52513], [68.46803, 23.51984], [68.45867, 23.52147], [68.43735, 23.54881], [68.44744, 23.51634], [68.44695, 23.503], [68.43116, 23.49361], [68.41164, 23.49471], [68.40611, 23.50874], [68.41082, 23.54881], [68.40497, 23.5976], [68.40888, 23.62132], [68.4275, 23.6314], [68.47153, 23.61864], [68.49147, 23.61884], [68.49269, 23.6376], [68.48618, 23.64142], [68.46877, 23.64082], [68.46552, 23.65526], [68.46942, 23.65924], [68.50473, 23.67421], [68.53354, 23.67919], [68.58365, 23.7354], [68.60174, 23.74867], [68.63787, 23.76154], [68.65457, 23.79905], [68.67075, 23.81573], [68.7256, 23.81892], [68.74513, 23.83307], [68.76881, 23.84113], [68.82162, 23.8784], [68.80567, 23.88443], [68.78004, 23.8741], [68.76694, 23.8784], [68.74024, 23.85347], [68.71778, 23.84102], [68.63347, 23.83308], [68.62306, 23.82441], [68.59868, 23.78177], [68.5547, 23.76854], [68.51001, 23.7441], [68.47283, 23.73749], [68.42774, 23.7143], [68.34197, 23.62397], [68.35156, 23.61782], [68.34888, 23.60342], [68.32732, 23.58691], [68.31764, 23.58614], [68.29412, 23.5904], [68.23081, 23.58809], [68.18161, 23.59404], [68.1574, 23.60082], [68.14342, 23.6127], [68.15009, 23.63141], [68.17433, 23.63141], [68.18426, 23.65192], [68.19809, 23.65908], [68.20932, 23.66273], [68.22006, 23.65924], [68.23268, 23.64501], [68.24514, 23.65913], [68.27589, 23.66584], [68.28045, 23.68598], [68.25896, 23.67471], [68.24101, 23.67402], [68.20876, 23.69624], [68.1975, 23.71479], [68.19776, 23.77481], [68.16815, 23.74748], [68.16376, 23.75772], [68.16603, 23.77318], [68.17563, 23.79824], [68.18312, 23.84345], [68.15748, 23.9051], [68.15748, 23.86416], [68.17058, 23.83991], [68.14332, 23.76114], [68.14422, 23.74315], [68.15747, 23.69624], [68.1491, 23.69454], [68.10222, 23.73383], [68.09888, 23.70931], [68.08172, 23.7087], [68.06277, 23.72314], [68.05397, 23.74392], [68.07439, 23.76484], [68.07326, 23.78343], [68.08173, 23.80564], [68.10222, 23.80952], [68.10222, 23.81574], [68.07269, 23.84169], [68.05943, 23.86189], [68.0539, 23.88467], [68.06373, 23.92316], [68.0477, 23.92122], [68.01352, 23.93928], [68.04152, 23.85224], [68.05387, 23.82941], [68.02455, 23.7748], [68.01352, 23.76855], [67.99415, 23.81118], [67.97193, 23.80208], [67.95086, 23.80891], [67.94167, 23.81587], [67.93425, 23.83299], [67.90993, 23.83626], [67.90464, 23.84626], [67.90594, 23.85928], [67.89991, 23.86758], [67.89194, 23.86957], [67.86891, 23.85051], [67.86329, 23.90282], [67.85523, 23.91193], [67.83903, 23.82339], [67.83171, 23.80953], [67.7735, 23.82103], [67.7186, 23.84369], [67.74106, 23.82307], [67.74365, 23.80879], [67.73226, 23.79524], [67.71567, 23.79171], [67.63161, 23.80346], [67.63072, 23.82477], [67.64291, 23.85049], [67.65105, 23.90705], [67.65659, 23.91938], [67.6504, 23.93305], [67.63803, 23.91592], [67.63738, 23.87425], [67.62924, 23.85668], [67.61451, 23.85009], [67.59963, 23.85424], [67.58952, 23.86634], [67.58839, 23.88467], [67.57455, 23.87178], [67.54664, 23.89826], [67.53256, 23.89916], [67.53012, 23.89126], [67.54661, 23.87101], [67.49106, 23.88313], [67.47855, 23.8915], [67.50262, 23.89289], [67.51254, 23.89826], [67.54054, 23.93928], [67.50904, 23.92326], [67.49888, 23.92561], [67.49696, 23.93586], [67.50636, 23.97403], [67.4512, 23.9877], [67.46811, 24.02196], [67.4782, 24.03242], [67.4922, 24.02802], [67.51987, 24.04507], [67.5298, 24.05492], [67.53305, 24.07026], [67.50978, 24.05207], [67.48911, 24.0541], [67.44068, 24.07026], [67.38356, 24.0668], [67.35402, 24.07088], [67.34133, 24.08638], [67.33709, 24.11896], [67.29565, 24.19903], [67.29233, 24.26187], [67.27916, 24.28124], [67.29282, 24.30296], [67.28599, 24.32957], [67.30592, 24.34284], [67.33644, 24.34642], [67.36248, 24.34394], [67.32537, 24.35761], [67.28297, 24.35762], [67.27167, 24.36909], [67.27362, 24.39509], [67.28663, 24.43952], [67.25881, 24.41911], [67.25685, 24.44497], [67.24684, 24.46796], [67.21096, 24.50845], [67.2308, 24.52509], [67.22674, 24.53237], [67.20412, 24.53511], [67.19471, 24.54711], [67.18362, 24.5903], [67.21811, 24.58242], [67.25262, 24.59032], [67.209, 24.61376], [67.19044, 24.61766], [67.15992, 24.61226], [67.15212, 24.61572], [67.1496, 24.63508], [67.15693, 24.66266], [67.1754, 24.68851], [67.20011, 24.71074], [67.25294, 24.74038], [67.25554, 24.74799], [67.23268, 24.77074], [67.17628, 24.75776], [67.16734, 24.76017], [67.15602, 24.79157], [67.13966, 24.80329], [67.09995, 24.79708], [67.08123, 24.80329], [67.07374, 24.7958], [67.08251, 24.77417], [67.06374, 24.7817], [67.02296, 24.81004], [66.98732, 24.82222], [66.9651, 24.84357], [66.95769, 24.84357], [66.95786, 24.82543], [66.96508, 24.81006], [66.94118, 24.81258], [66.88209, 24.85102], [66.85377, 24.85224], [66.8025, 24.83956], [66.77963, 24.85102], [66.71632, 24.84154], [66.6797, 24.83056], [66.65416, 24.83919], [66.65691, 24.85888], [66.67702, 24.87953], [66.70444, 24.89203], [66.70444, 24.89887], [66.68134, 24.91056], [66.68134, 24.94888], [66.69703, 25.02546], [66.69961, 25.08548], [66.71345, 25.12057], [66.73227, 25.14326], [66.73797, 25.15949], [66.73715, 25.1811], [66.72146, 25.2126], [66.71754, 25.23119], [66.71022, 25.23924], [66.67408, 25.26903], [66.64805, 25.2834], [66.59522, 25.33023], [66.56073, 25.34968], [66.54788, 25.36563], [66.55373, 25.38543], [66.57928, 25.37938], [66.59116, 25.3996], [66.58709, 25.42622], [66.56423, 25.43945], [66.55056, 25.4571], [66.53102, 25.51813], [66.51271, 25.50838], [66.50587, 25.52204], [66.49285, 25.51806], [66.47788, 25.5493], [66.44411, 25.58251], [66.43702, 25.59772], [66.41212, 25.59057], [66.38771, 25.59245], [66.37258, 25.60391], [66.3755, 25.62568], [66.35869, 25.61451], [66.33855, 25.60811], [66.30323, 25.60458], [66.25815, 25.61201], [66.23975, 25.59993], [66.20395, 25.59321], [66.18344, 25.58161], [66.16717, 25.56607], [66.13737, 25.51383], [66.10963, 25.49543], [66.09441, 25.47484], [66.1211, 25.47517], [66.21306, 25.49136], [66.24156, 25.51845], [66.2588, 25.52485], [66.25816, 25.54311], [66.30912, 25.55399], [66.33643, 25.55336], [66.34831, 25.5462], [66.35271, 25.53555], [66.38851, 25.52203], [66.42319, 25.48102], [66.43727, 25.49127], [66.45623, 25.49603], [66.47584, 25.4933], [66.49218, 25.48102], [66.45753, 25.45376], [66.49789, 25.43048], [66.51155, 25.41421], [66.49838, 25.39852], [66.48367, 25.40067], [66.43702, 25.43325], [66.35955, 25.46524], [66.31186, 25.47492], [66.27866, 25.46736], [66.2518, 25.47289], [66.15919, 25.44694], [66.06902, 25.44623], [66.00434, 25.42959], [65.92471, 25.41864], [65.85841, 25.41755], [65.76539, 25.37801], [65.72438, 25.37116], [65.67164, 25.34741], [65.65211, 25.34448], [65.46778, 25.38544], [65.40073, 25.36669], [65.38235, 25.37117], [65.39536, 25.39228], [65.33619, 25.38532], [65.29233, 25.36499], [65.25978, 25.38044], [65.23302, 25.37095], [65.27924, 25.52742], [65.3034, 25.58434], [65.37512, 25.69265], [65.42863, 25.74973], [65.5372, 25.73954], [65.62899, 25.72077], [65.74802, 25.76301], [65.84412, 25.77815], [65.90384, 25.83778], [65.92357, 25.82929], [65.93402, 25.83584], [65.93444, 25.87928], [65.91146, 25.97825], [65.88978, 26.02775], [65.8612, 26.07586], [65.68485, 26.29613], [65.62879, 26.39325], [65.56722, 26.54759], [65.50422, 26.75294], [65.44638, 26.91974], [65.38849, 27.05017], [65.32616, 27.15648], [65.25821, 27.2439], [65.17923, 27.32331], [64.87413, 27.57005], [64.58743, 27.78581], [64.53099, 27.84062], [64.4773, 27.90651], [64.42311, 27.99099], [64.36617, 28.10119], [64.25416, 28.34492], [64.18476, 28.53319], [64.16492, 28.61903], [64.16204, 28.68825], [64.18015, 28.73649], [64.19339, 28.74861], [64.22189, 28.75897], [64.2552, 28.75618], [64.39131, 28.70231], [64.43679, 28.69426], [64.47938, 28.70781], [64.51337, 28.75555], [64.52642, 28.81173], [64.52656, 28.89444], [64.51621, 28.98551], [64.44343, 29.37478], [64.43593, 29.4551], [64.43933, 29.51872], [64.45188, 29.58005], [64.50908, 29.74363], [64.52586, 29.80374], [64.53432, 29.86018], [64.5336, 29.92325], [64.51623, 30.01485], [64.48535, 30.09297], [64.44941, 30.15399], [64.31562, 30.32399], [64.2696, 30.39101], [64.22731, 30.47124], [64.15094, 30.65768], [64.08263, 30.85036], [63.89985, 31.42985], [63.8309, 31.62846], [63.75329, 31.82288], [63.66496, 32.01], [63.5004, 32.29924], [63.46491, 32.3723], [63.43498, 32.45004], [63.41516, 32.52768], [63.40629, 32.61055], [63.41463, 32.71531], [63.46588, 32.99703], [63.47464, 33.28721], [63.48956, 33.47818], [63.51598, 33.65834], [63.55664, 33.85232], [63.57259, 33.98252], [63.56658, 34.12631], [63.50796, 34.53675], [63.50483, 34.66975], [63.52595, 34.79194], [63.57991, 34.90197], [63.62802, 34.95688], [63.66051, 34.98174], [63.70935, 35.00595], [63.73999, 35.01486], [63.79862, 35.02168], [63.8507, 35.01917], [63.95738, 34.99739], [64.17175, 34.92611], [64.29835, 34.89123], [64.39574, 34.87805], [64.46368, 34.88123], [64.57255, 34.89396], [64.64894, 34.89081], [64.68697, 34.88273], [64.72187, 34.86937], [64.83002, 34.79506], [64.85899, 34.77996], [64.89716, 34.76923], [64.93536, 34.76791], [65.0061, 34.78529], [65.06106, 34.81719], [65.10928, 34.86005], [65.19606, 34.9505], [65.24393, 34.9885], [65.2983, 35.01468], [65.37655, 35.02761], [65.44519, 35.02554], [65.51791, 35.01747], [65.6602, 34.98987], [65.9378, 34.92548], [66.01879, 34.90446], [66.0897, 34.87415], [66.15257, 34.83629], [66.21094, 34.7925], [66.39416, 34.64475], [66.46737, 34.5983], [66.54927, 34.56554], [66.62798, 34.55876], [66.70038, 34.57149], [66.7847, 34.60135], [66.93204, 34.66467], [67.01224, 34.68704], [67.09444, 34.69238], [67.24969, 34.66339], [67.42687, 34.59171], [67.77939, 34.3938], [67.94626, 34.31028], [68.03431, 34.2755], [68.10793, 34.25366], [68.20167, 34.23582], [68.27852, 34.22982], [68.43212, 34.24081], [68.52077, 34.26955], [68.60301, 34.31478], [68.67531, 34.36755], [68.88722, 34.54296], [68.96545, 34.59292], [69.05201, 34.63129], [69.09431, 34.64427], [69.15401, 34.65737], [69.22569, 34.66459], [69.27335, 34.66429], [69.33315, 34.65759], [69.38952, 34.6451], [69.44954, 34.62571], [69.56717, 34.57274], [69.69645, 34.50036], [69.8356, 34.43724], [69.95037, 34.40635], [70.09239, 34.38871], [70.24438, 34.38725], [70.65009, 34.40927], [70.6916, 34.40883], [70.96123, 34.48761], [70.97084, 34.46888], [70.99151, 34.44307], [71.01983, 34.41444], [71.05094, 34.38979], [71.12205, 34.35682], [71.39446, 34.4207], [71.65169, 34.43129], [71.9019, 34.4347], [72.07748, 34.42975], [72.37523, 34.40802], [72.66408, 34.39544], [73.45059, 34.38327], [73.48962, 34.37927], [73.77486, 34.37095], [73.78271, 34.34682], [73.80421, 34.32749], [73.82912, 34.31535], [73.8533, 34.30742], [73.87904, 34.30429], [73.90746, 34.3068], [73.93774, 34.30421], [73.95438, 34.28719], [73.9767, 34.23755], [73.99055, 34.21851], [73.9983, 34.1968], [73.99541, 34.17644], [73.9767, 34.16156], [73.91686, 34.13526], [73.8933, 34.11474], [73.88441, 34.0842], [73.89371, 34.0543], [73.91624, 34.02795], [73.9458, 34.00979], [73.9767, 34.00459], [74.04502, 34.01942], [74.06528, 34.01834], [74.1184, 34.00252], [74.15426, 34.0041], [74.19209, 34.01185], [74.22837, 34.01289], [74.25968, 33.99439], [74.27229, 33.96214], [74.549, 33.95219], [74.66585, 33.87857], [74.79134, 33.78964], [74.88837, 33.70441], [74.96942, 33.61507], [75.03262, 33.52921], [75.21265, 33.24682], [75.29866, 33.13179], [75.41206, 33.00566], [75.56564, 32.8611], [75.7327, 32.72196], [75.92429, 32.5767], [76.11767, 32.44127], [76.31644, 32.31165], [76.51315, 32.19255], [77.05714, 31.89633], [77.22274, 31.79915], [77.37685, 31.69841], [77.52343, 31.58763], [77.65514, 31.46916], [77.77599, 31.3373], [77.88407, 31.1925], [77.95956, 31.07053], [78.14869, 30.72349], [78.21843, 30.61539], [78.29762, 30.51707], [78.39613, 30.42539], [78.50199, 30.35316], [78.55646, 30.32407], [78.74227, 30.24688], [78.83427, 30.19415], [78.88739, 30.15308], [78.94325, 30.10136], [79.07275, 29.95942], [79.11186, 29.92443], [79.16094, 29.89188], [79.228, 29.86286], [79.2984, 29.8439], [79.33988, 29.83831], [79.4168, 29.83627], [79.57717, 29.85232], [79.66106, 29.85396], [79.7324, 29.84373], [79.81404, 29.8162], [79.93006, 29.7544], [80.21086, 29.56492], [80.61016, 29.34834], [80.74066, 29.26916], [80.86046, 29.1824], [80.96735, 29.08333], [81.05631, 28.96908], [81.12316, 28.83575], [81.15238, 28.73586], [81.18044, 28.61287], [81.13577, 28.37405], [81.14634, 28.37225], [81.1697, 28.36132], [81.19037, 28.33812], [81.21073, 28.27864], [81.22432, 28.25078], [81.28236, 28.19159], [81.29595, 28.16745], [81.28075, 28.16198], [81.27678, 28.15379], [81.28308, 28.14609], [81.29941, 28.14252], [81.2962, 28.12831], [81.30706, 28.12381], [81.3237, 28.12624], [81.33812, 28.13273], [81.35791, 28.16598], [81.3732, 28.16784], [81.39604, 28.16063], [81.41733, 28.14702], [81.43527, 28.12978], [81.44824, 28.11141], [81.45821, 28.07728], [81.47346, 28.0664], [81.56192, 28.02599], [81.58218, 28.01328], [81.5951, 27.99488], [81.61505, 27.98124], [81.68895, 27.9632], [81.71039, 27.94752], [81.75013, 27.90967], [81.85565, 27.85094], [81.8832, 27.84905], [81.90609, 27.86311], [81.9464, 27.90535], [81.9759, 27.91695], [82.02722, 27.91241], [82.05161, 27.90517], [82.09037, 27.87233], [82.15104, 27.84827], [82.27041, 27.76048], [82.34792, 27.72601], [82.40193, 27.67717], [82.27048, 27.48297], [82.74468, 27.04678], [83.09383, 26.74699], [83.46878, 26.44473], [83.65205, 26.28046], [84.00096, 25.9522], [84.17365, 25.79761], [84.35494, 25.65161], [84.54147, 25.52456], [84.73879, 25.41854], [85.04255, 25.28111], [85.34123, 25.15295], [85.78073, 24.98217], [86.01116, 24.90634], [86.08114, 24.88652], [86.22122, 24.85562], [86.36528, 24.83108], [86.78245, 24.77457], [86.91794, 24.75196], [87.06886, 24.71894], [87.19107, 24.67642], [87.28653, 24.62734], [87.37517, 24.56823], [87.44856, 24.50937], [87.53732, 24.42719], [87.88688, 24.06409], [88.01546, 23.94359], [88.29063, 23.69596], [88.5401, 23.64995], [88.54155, 23.63877], [88.56636, 23.62874], [88.5617, 23.60202], [88.57142, 23.59233], [88.58155, 23.58833], [88.60925, 23.58879], [88.62423, 23.57386], [88.64764, 23.53508], [88.66449, 23.51831], [88.70464, 23.49518], [88.71942, 23.4681], [88.73193, 23.47262], [88.74371, 23.48932], [88.75684, 23.4988], [88.77017, 23.48883], [88.76789, 23.46728], [88.71927, 23.34829], [88.69503, 23.31261], [88.68594, 23.29331], [88.68661, 23.2716], [88.69658, 23.25235], [88.71002, 23.24122], [88.7757, 23.22163], [88.78619, 23.22153], [88.80954, 23.23605], [88.82267, 23.23796], [88.91807, 23.20858], [88.95424, 23.20742], [88.95998, 23.20269], [88.95982, 23.19445], [88.9547, 23.18381], [88.9191, 23.15386], [88.86479, 23.10027], [88.8513, 23.07513], [88.84872, 23.02384], [88.83941, 22.99537], [88.83879, 22.97581], [88.84277, 22.96457], [88.87218, 22.92677], [88.89347, 22.87964], [88.90515, 22.86644], [88.9331, 22.85812], [88.94452, 22.84801], [88.9468, 22.83452], [88.94514, 22.81509], [88.93688, 22.78233], [88.91496, 22.7544], [88.90814, 22.74078], [88.91057, 22.72259], [88.92251, 22.69371], [88.93, 22.65862], [88.94235, 22.63748], [88.95202, 22.6119], [88.95641, 22.58498], [88.95031, 22.56198], [88.92799, 22.54813], [88.95904, 22.53682], [88.97098, 22.52793], [88.97997, 22.49093], [88.99088, 22.46741], [89.21578, 22.5608], [89.24118, 22.58074], [89.31052, 22.5601], [89.3772, 22.52597], [89.43536, 22.48049], [89.48251, 22.42578], [89.51761, 22.36287], [89.56255, 22.22442], [89.54916, 22.20527], [89.5503, 22.19212], [89.57624, 22.14576], [89.57935, 22.11346], [89.56674, 22.0821], [89.55144, 21.99404], [89.53289, 21.9847], [89.52476, 22.00015], [89.52345, 22.04462], [89.53647, 22.07583], [89.53712, 22.08902], [89.49205, 22.18838], [89.49301, 22.2735], [89.48316, 22.29507], [89.47576, 22.29507], [89.46746, 22.22899], [89.47576, 22.10261], [89.48316, 22.10261], [89.48406, 22.11668], [89.49415, 22.13685], [89.51832, 22.081], [89.50913, 22.0412], [89.49187, 22.03457], [89.49041, 22.02399], [89.52181, 21.96231], [89.51253, 21.90913], [89.47576, 21.87669], [89.46461, 21.8592], [89.46948, 21.80439], [89.46582, 21.78132], [89.44286, 21.74681], [89.40642, 21.71736], [89.3952, 21.71639], [89.36965, 21.74332], [89.36282, 21.78358], [89.36588, 21.8287], [89.38429, 21.87783], [89.38697, 21.90119], [89.38266, 21.92133], [89.36402, 21.95506], [89.35963, 21.97232], [89.35222, 21.97232], [89.34596, 21.95702], [89.35962, 21.91767], [89.35606, 21.89275], [89.32887, 21.86465], [89.30127, 21.8094], [89.29623, 21.80908], [89.2907, 21.82209], [89.28395, 21.82209], [89.28443, 21.79682], [89.29468, 21.7578], [89.29069, 21.73335], [89.27369, 21.6988], [89.27662, 21.68757], [89.29752, 21.67812], [89.26894, 21.65414], [89.24871, 21.64591], [89.22926, 21.64396], [89.21047, 21.65413], [89.20448, 21.67289], [89.20827, 21.69061], [89.2186, 21.69855], [89.22071, 21.70942], [89.18972, 21.79125], [89.18767, 21.81151], [89.18336, 21.81562], [89.17408, 21.81005], [89.15455, 21.78686], [89.11941, 21.80098], [89.1046, 21.81608], [89.07781, 21.91425], [89.09108, 21.97679], [89.09148, 22.00023], [89.08424, 22.02119], [89.06202, 22.04951], [89.05738, 22.06509], [89.06349, 22.11103], [89.06031, 22.1306], [89.04371, 22.1374], [89.0486, 22.12295], [89.03688, 22.0856], [89.05738, 22.03124], [89.06559, 21.96711], [89.06087, 21.93847], [89.03689, 21.92512], [89.02312, 21.9311], [89.01303, 21.92943], [89.00807, 21.92056], [89.00952, 21.90462], [88.96046, 21.93431], [88.94468, 21.9388], [88.93785, 21.94872], [88.92872, 21.98656], [88.91391, 21.98656], [88.90504, 21.96943], [88.91082, 21.94648], [88.92408, 21.92634], [88.96799, 21.90489], [88.99569, 21.88431], [89.01587, 21.85334], [89.03093, 21.77045], [89.04371, 21.73334], [89.06787, 21.70913], [89.0852, 21.67471], [89.08822, 21.63374], [89.08268, 21.61734], [89.06422, 21.60921], [89.05324, 21.60982], [89.03883, 21.61945], [89.03395, 21.63325], [89.01978, 21.60612], [89.00026, 21.60343], [88.93385, 21.64395], [88.89182, 21.65338], [88.88161, 21.67203], [88.87208, 21.74901], [88.86606, 21.76683], [88.85865, 21.76683], [88.83823, 21.70197], [88.85986, 21.65257], [88.85864, 21.63655], [88.84425, 21.62222], [88.82399, 21.61727], [88.80584, 21.62288], [88.79788, 21.6402], [88.81837, 21.65762], [88.81088, 21.69172], [88.80047, 21.66185], [88.78403, 21.65595], [88.77711, 21.64354], [88.78175, 21.61424], [88.79663, 21.58442], [88.79053, 21.56827], [88.76246, 21.55586], [88.72788, 21.55989], [88.70754, 21.57832], [88.72218, 21.6092], [88.68801, 21.67813], [88.68492, 21.69721], [88.70362, 21.81061], [88.69452, 21.83983], [88.71469, 21.89785], [88.71698, 21.95197], [88.72219, 21.96613], [88.75831, 21.99946], [88.76303, 22.01728], [88.75465, 22.03758], [88.71705, 22.05805], [88.70851, 22.07221], [88.71485, 22.08698], [88.73015, 22.10358], [88.76303, 22.13056], [88.74391, 22.12934], [88.72657, 22.12116], [88.71217, 22.10904], [88.69484, 22.08153], [88.69288, 22.06586], [88.69947, 22.05321], [88.71852, 22.04804], [88.73072, 22.03718], [88.7233, 22.01309], [88.68994, 21.946], [88.67872, 21.93669], [88.667, 21.94501], [88.64259, 21.9409], [88.63088, 21.94547], [88.626, 21.95551], [88.62746, 21.9704], [88.65349, 22.01801], [88.6395, 22.10954], [88.65699, 22.15107], [88.674, 22.16206], [88.68312, 22.18496], [88.67994, 22.20441], [88.66017, 22.20502], [88.65592, 22.18305], [88.63494, 22.14496], [88.63087, 22.1258], [88.61915, 22.10952], [88.62597, 22.04804], [88.62036, 22.02998], [88.60255, 22.00642], [88.59864, 21.9903], [88.59839, 21.92935], [88.56707, 21.85082], [88.56463, 21.76683], [88.60418, 21.77874], [88.62401, 21.77802], [88.63281, 21.75007], [88.62337, 21.71028], [88.61278, 21.69767], [88.59181, 21.70539], [88.59958, 21.63707], [88.59506, 21.61214], [88.57814, 21.62344], [88.57813, 21.57168], [88.57227, 21.55794], [88.55893, 21.55558], [88.54498, 21.5619], [88.53647, 21.5751], [88.52963, 21.55337], [88.54394, 21.53409], [88.51295, 21.52465], [88.49392, 21.53482], [88.48798, 21.55654], [88.49563, 21.58185], [88.51401, 21.60082], [88.51882, 21.63914], [88.52963, 21.65762], [88.50954, 21.71231], [88.5049, 21.74152], [88.51272, 21.76341], [88.53289, 21.79532], [88.53102, 21.82412], [88.49563, 21.8767], [88.51466, 21.9162], [88.51498, 21.9372], [88.49562, 21.95181], [88.49985, 21.93366], [88.48121, 21.9099], [88.47446, 21.89033], [88.47706, 21.87181], [88.49208, 21.83692], [88.49354, 21.80539], [88.47446, 21.80097], [88.45338, 21.74177], [88.45476, 21.70539], [88.47217, 21.66327], [88.46826, 21.64395], [88.45643, 21.62422], [88.40968, 21.59928], [88.39309, 21.60026], [88.38356, 21.63142], [88.38283, 21.67108], [88.39259, 21.69855], [88.35565, 21.68499], [88.3462, 21.68862], [88.33123, 21.71906], [88.32472, 21.70136], [88.3274, 21.69111], [88.34571, 21.6706], [88.34876, 21.65011], [88.33545, 21.6158], [88.32179, 21.60567], [88.30975, 21.61018], [88.30445, 21.63345], [88.30201, 21.74518], [88.29819, 21.76411], [88.28981, 21.78022], [88.27312, 21.79792], [88.26157, 21.79865], [88.26417, 21.7753], [88.29542, 21.67658], [88.29705, 21.65388], [88.28338, 21.6092], [88.30062, 21.58934], [88.30582, 21.57168], [88.27898, 21.55517], [88.25441, 21.55468], [88.24929, 21.5583], [88.23748, 21.60171], [88.22438, 21.61302], [88.20827, 21.60299], [88.1819, 21.66523], [88.18093, 21.68496], [88.20346, 21.72435], [88.21046, 21.74726], [88.20144, 21.77432], [88.20973, 21.78856], [88.20379, 21.80541], [88.15408, 21.88809], [88.15943, 21.90616], [88.14675, 21.95922], [88.15636, 21.99103], [88.22242, 22.07795], [88.21275, 22.10005], [88.19801, 22.16779], [88.16529, 22.185], [88.08132, 22.21736], [88.07732, 22.24042], [88.04347, 22.22477], [88.02703, 22.22786], [88.00905, 22.24043], [87.97268, 22.28319], [87.95069, 22.35619], [87.94044, 22.41303], [87.92799, 22.42422], [87.90659, 22.42475], [87.90659, 22.41861], [87.92292, 22.39758], [87.9358, 22.35517], [87.94752, 22.27766], [87.96534, 22.24482], [87.99195, 22.21589], [88.00847, 22.2049], [88.09547, 22.19123], [88.13258, 22.17914], [88.16105, 22.15635], [88.1735, 22.11689], [88.1643, 22.0898], [88.14063, 22.06013], [88.11094, 22.03473], [88.08472, 22.02071], [88.0486, 22.02074], [88.04314, 22.01728], [88.05078, 21.98501], [88.0324, 21.95718], [87.98352, 21.85402], [87.97046, 21.8365], [87.89918, 21.79483], [87.89273, 21.77415], [87.86719, 21.75081], [87.83426, 21.72948], [87.75571, 21.69172], [87.70358, 21.65545], [87.68385, 21.65015], [87.62135, 21.65062], [87.55352, 21.63321], [87.46876, 21.6114], [87.34157, 21.56236], [87.29347, 21.55367], [87.25611, 21.562], [87.23545, 21.55456], [87.20094, 21.55199], [87.11305, 21.50796], [87.06373, 21.475], [86.91765, 21.32738], [86.86695, 21.25605], [86.83725, 21.17471], [86.844, 21.08222], [86.95204, 20.84936], [86.96566, 20.80598], [86.95386, 20.7806], [86.93629, 20.7875], [86.91652, 20.78807], [86.87875, 20.78059], [86.88933, 20.76447], [86.91066, 20.75642], [86.97999, 20.75555], [86.99473, 20.73919], [87.00107, 20.72267], [86.97521, 20.71077], [86.96119, 20.71284], [86.94825, 20.70905], [86.94106, 20.69791], [86.93107, 20.69442], [86.85609, 20.67965], [86.68777, 20.67347], [86.613, 20.68472], [86.54283, 20.70908], [86.4805, 20.74474], [86.49513, 20.76177], [86.4952, 20.79984], [86.50196, 20.84936], [86.49778, 20.85774], [86.48878, 20.85863], [86.36869, 20.78489], [86.25946, 20.72444], [86.14152, 20.67252], [86.0092, 20.5902], [85.88664, 20.4876], [85.76375, 20.36686], [85.68811, 20.2819], [85.67075, 20.25322], [85.66377, 20.23497], [85.66559, 20.22816], [85.75839, 20.18823], [85.77017, 20.1935], [85.78945, 20.25744], [85.81318, 20.30941], [85.88646, 20.26983], [85.94191, 20.22284], [85.96615, 20.19524], [86.00472, 20.13515], [86.01924, 20.10255], [86.03785, 20.03372], [86.04181, 19.9637], [86.03831, 19.92855], [86.03107, 19.89348], [86.01107, 19.83836], [85.88912, 19.80305], [85.84636, 19.79584], [85.78883, 19.7657], [85.73439, 19.76362], [85.71485, 19.75423], [85.68458, 19.74775], [85.62429, 19.71859], [85.63795, 19.73163], [85.61427, 19.72793], [85.54916, 19.69062], [85.48073, 19.66642], [85.45704, 19.66335], [85.44989, 19.6667], [85.44679, 19.69062], [85.43044, 19.69173], [85.42702, 19.70408], [85.43686, 19.70466], [85.45086, 19.71629], [85.52198, 19.73907], [85.52555, 19.73401], [85.51499, 19.71113], [85.57651, 19.74584], [85.56326, 19.75691], [85.57032, 19.77318], [85.56716, 19.79187], [85.57032, 19.87564], [85.47682, 19.90103], [85.46355, 19.9029], [85.44012, 19.89623], [85.41627, 19.87979], [85.37432, 19.83763], [85.31959, 19.79366], [85.27809, 19.78559], [85.24684, 19.76264], [85.22096, 19.73603], [85.20338, 19.70726], [85.20654, 19.68379], [85.18995, 19.67097], [85.17513, 19.63691], [85.15016, 19.61347], [85.14015, 19.59658], [85.13933, 19.57978], [85.15137, 19.56777], [85.15137, 19.5603], [85.1229, 19.54902], [85.10288, 19.52961], [85.10874, 19.50678], [85.11549, 19.50747], [85.12403, 19.51934], [85.12874, 19.5095], [85.12867, 19.48798], [85.12403, 19.47834], [85.13575, 19.48159], [85.15138, 19.49884], [85.18556, 19.50568], [85.20289, 19.51716], [85.19631, 19.53848], [85.19924, 19.55409], [85.21453, 19.54727], [85.23325, 19.5541], [85.19305, 19.57393], [85.19305, 19.58079], [85.2129, 19.58112], [85.2326, 19.60154], [85.24757, 19.60871], [85.24757, 19.61494], [85.23732, 19.62056], [85.23326, 19.63255], [85.24758, 19.65647], [85.30909, 19.64224], [85.3506, 19.67763], [85.38307, 19.67609], [85.39145, 19.6906], [85.40316, 19.67129], [85.40527, 19.64595], [85.38461, 19.63597], [85.37794, 19.61494], [85.35231, 19.59943], [85.33678, 19.5961], [85.32643, 19.6188], [85.31837, 19.61953], [85.31105, 19.6105], [85.30908, 19.59505], [85.28842, 19.60126], [85.3025, 19.58666], [85.30584, 19.58015], [85.30291, 19.57392], [85.33058, 19.5764], [85.57644, 19.69059], [85.46349, 19.6311], [85.33668, 19.57518], [85.28541, 19.53629], [85.24057, 19.51805], [85.18043, 19.475], [85.0695, 19.37214], [84.99586, 19.32331], [84.87208, 19.21988], [84.79102, 19.1206], [84.77516, 19.1153], [84.73878, 19.14765], [84.72096, 19.11424], [84.71998, 19.10163], [84.74049, 19.07368], [84.761, 19.10162], [84.78003, 19.09707], [84.75115, 19.0539], [84.74091, 19.02796], [84.66522, 18.9303], [84.63087, 18.91572], [84.54786, 18.79609], [84.54183, 18.77579], [84.44825, 18.68065], [84.43262, 18.6457], [84.42385, 18.63664], [84.37045, 18.6013], [84.34945, 18.56982], [84.33286, 18.5537], [84.30633, 18.54369], [84.28175, 18.52558], [84.24692, 18.52558], [84.23764, 18.51093], [84.24936, 18.50165], [84.27101, 18.50019], [84.34987, 18.55287], [84.28793, 18.50576], [84.24008, 18.46076], [84.23047, 18.44624], [84.18832, 18.41804], [84.17448, 18.39985], [84.14389, 18.37482], [84.13281, 18.34342], [84.12403, 18.33381], [84.11294, 18.29814], [84.07715, 18.27144], [83.77516, 18.13959], [83.61394, 18.04515], [83.58229, 18.01911], [83.55664, 17.97346], [83.52612, 17.94254], [83.48658, 17.9169], [83.47291, 17.9025], [83.46558, 17.90251], [83.45192, 17.92292], [83.44898, 17.90689], [83.45296, 17.86848], [83.43116, 17.85423], [83.41773, 17.80622], [83.40251, 17.78472], [83.34145, 17.71758], [83.2986, 17.69013], [83.28468, 17.69636], [83.27638, 17.71308], [83.26824, 17.71747], [83.24692, 17.71625], [83.24203, 17.70653], [83.24928, 17.69538], [83.29249, 17.67748], [83.29859, 17.67279], [83.29907, 17.6643], [83.24692, 17.63423], [83.2129, 17.63491], [83.23388, 17.60773], [83.23893, 17.59297], [83.20924, 17.58369], [83.17139, 17.55981], [83.08823, 17.53071], [83.05323, 17.5065], [83.01987, 17.49091], [82.97584, 17.45369], [82.94549, 17.4431], [82.89682, 17.40934], [82.88869, 17.41015], [82.88331, 17.42207], [82.83765, 17.39278], [82.7964, 17.38304], [82.75814, 17.35921], [82.71852, 17.34862], [82.47486, 17.20596], [82.45191, 17.18244], [82.42286, 17.13997], [82.38771, 17.12694], [82.37037, 17.11009], [82.34204, 17.0732], [82.29933, 17.03034], [82.29167, 16.99844], [82.2527, 16.92919], [82.25074, 16.90786], [82.25514, 16.88532], [82.26791, 16.8675], [82.29834, 16.85846], [82.31422, 16.84662], [82.33465, 16.85406], [82.35206, 16.8454], [82.36248, 16.85908], [82.35743, 16.92487], [82.34891, 16.95643], [82.36116, 16.93602], [82.36651, 16.90882], [82.36556, 16.81159], [82.35206, 16.7613], [82.34595, 16.70612], [82.3382, 16.67859], [82.31422, 16.62816], [82.31283, 16.60815], [82.30395, 16.60644], [82.29933, 16.61009], [82.29379, 16.62564], [82.28688, 16.62816], [82.28094, 16.62084], [82.28549, 16.60651], [82.30736, 16.57978], [82.25904, 16.5655], [82.20346, 16.51269], [82.1229, 16.47736], [82.06881, 16.44438], [82.03736, 16.44766], [81.99268, 16.40844], [81.95623, 16.40717], [81.94808, 16.39156], [81.94076, 16.38838], [81.89991, 16.38581], [81.86166, 16.37539], [81.78321, 16.33857], [81.76275, 16.32253], [81.7116, 16.31221], [81.69606, 16.31494], [81.65626, 16.33735], [81.63641, 16.33272], [81.62094, 16.3395], [81.58477, 16.34216], [81.56814, 16.34639], [81.5739, 16.35834], [81.56918, 16.36758], [81.55698, 16.37303], [81.54021, 16.37368], [81.54907, 16.35237], [81.53598, 16.35005], [81.49586, 16.36066], [81.47535, 16.35863], [81.41669, 16.34017], [81.42823, 16.36567], [81.41139, 16.38251], [81.39894, 16.38264], [81.37574, 16.36751], [81.35963, 16.37434], [81.31739, 16.3675], [81.25961, 16.33271], [81.24855, 16.32014], [81.2596, 16.28864], [81.25423, 16.27152], [81.23032, 16.2436], [81.21851, 16.19945], [81.19028, 16.13886], [81.18002, 16.08674], [81.16196, 16.05707], [81.15602, 16.03852], [81.15543, 15.9855], [81.14974, 15.96964], [81.1351, 15.9665], [81.08822, 15.92122], [81.02687, 15.88085], [80.99887, 15.84675], [80.99838, 15.8347], [81.0192, 15.79238], [81.01904, 15.78417], [81.01254, 15.77783], [80.99586, 15.78433], [80.94947, 15.82787], [80.92164, 15.83861], [80.91001, 15.85269], [80.90268, 15.89082], [80.90895, 15.98347], [80.8965, 16.03107], [80.89226, 16.02094], [80.8965, 16.01056], [80.889, 16.00374], [80.87534, 16.0174], [80.89129, 15.97826], [80.89576, 15.93602], [80.89015, 15.89525], [80.85572, 15.8227], [80.83013, 15.74737], [80.82007, 15.72688], [80.80715, 15.7164], [80.80836, 15.80394], [80.80274, 15.84243], [80.77613, 15.88426], [80.7601, 15.89297], [80.69044, 15.90071], [80.67018, 15.9077], [80.6631, 15.9007], [80.66283, 15.88936], [80.61842, 15.88768], [80.57114, 15.86873], [80.56072, 15.88084], [80.55388, 15.88084], [80.52615, 15.8571], [80.49187, 15.83927], [80.46909, 15.83466], [80.43628, 15.80831], [80.39332, 15.79702], [80.35963, 15.77582], [80.27963, 15.70067], [80.26319, 15.67455], [80.21949, 15.56745], [80.21745, 15.54817], [80.20134, 15.5183], [80.1976, 15.50308], [80.21118, 15.49665], [80.18374, 15.45216], [80.1268, 15.38813], [80.09059, 15.30488], [80.0824, 15.20441], [80.05299, 15.0926], [80.05454, 15.01415], [80.06153, 14.97468], [80.07341, 14.94204], [80.07301, 14.92056], [80.10509, 14.76417], [80.10816, 14.71434], [80.11695, 14.69815], [80.15983, 14.66266], [80.16635, 14.62816], [80.17846, 14.60578], [80.17594, 14.59297], [80.16968, 14.58585], [80.14186, 14.57123], [80.14918, 14.56501], [80.19019, 14.57122], [80.19694, 14.56501], [80.1902, 14.54759], [80.17596, 14.46874], [80.17871, 14.38965], [80.17497, 14.34455], [80.15943, 14.32477], [80.12818, 14.25655], [80.08717, 14.25031], [80.07007, 14.2292], [80.05502, 14.22158], [80.04664, 14.20661], [80.05063, 14.19611], [80.0735, 14.20185], [80.10663, 14.23403], [80.1211, 14.24201], [80.13558, 14.22919], [80.12338, 14.19351], [80.12582, 14.1485], [80.14967, 14.02774], [80.16391, 13.98798], [80.23715, 13.83966], [80.24927, 13.80028], [80.24544, 13.7556], [80.22739, 13.72053], [80.22096, 13.69697], [80.23804, 13.66022], [80.25904, 13.59174], [80.30957, 13.47931], [80.31372, 13.4409], [80.30681, 13.44111], [80.24545, 13.59174], [80.19728, 13.64363], [80.1836, 13.67919], [80.14186, 13.72895], [80.14176, 13.64912], [80.13558, 13.6191], [80.1212, 13.62747], [80.11785, 13.67451], [80.094, 13.69477], [80.09131, 13.65913], [80.07553, 13.64838], [80.05299, 13.61909], [80.05649, 13.59516], [80.10132, 13.53709], [80.1194, 13.50068], [80.17596, 13.48932], [80.22, 13.48771], [80.24342, 13.47215], [80.26587, 13.46824], [80.26238, 13.45124], [80.2932, 13.42908], [80.3069, 13.41303], [80.31375, 13.42724], [80.32699, 13.43035], [80.34394, 13.37568], [80.34782, 13.34907], [80.33415, 13.24292], [80.31984, 13.24917], [80.31373, 13.21503], [80.33415, 13.22116], [80.33279, 13.19836], [80.3069, 13.14606], [80.31372, 13.10578], [80.28582, 13.06757], [80.26905, 12.95726], [80.26321, 12.83559], [80.25171, 12.76252], [80.23365, 12.71101], [80.22868, 12.675], [80.19646, 12.61372], [80.17958, 12.53234], [80.15601, 12.47452], [80.12127, 12.41682], [80.11702, 12.40095], [80.09584, 12.3621], [80.08716, 12.35103], [80.05982, 12.33422], [80.02572, 12.27652], [80.00531, 12.25622], [79.95216, 12.22993], [79.94386, 12.21784], [79.95314, 12.21357], [80.00512, 12.24176], [79.94771, 12.1538], [79.9275, 12.12987], [79.89697, 12.06876], [79.86183, 12.02204], [79.86181, 11.97798], [79.85035, 11.95913], [79.84497, 11.93326], [79.82032, 11.87865], [79.80322, 11.79609], [79.79273, 11.78807], [79.7859, 11.76919], [79.75196, 11.57697], [79.75734, 11.53608], [79.78076, 11.46507], [79.78598, 11.42617], [79.79298, 11.42617], [79.79737, 11.43488], [79.79916, 11.44221], [79.79299, 11.45351], [79.80933, 11.45135], [79.81665, 11.44306], [79.82194, 11.39106], [79.81934, 11.38151], [79.7588, 11.37836], [79.74041, 11.36644], [79.68331, 11.31021], [79.63333, 11.30598], [79.56271, 11.31228], [79.52754, 11.3207], [79.46171, 11.34705], [79.40673, 11.38225], [79.39895, 11.38292], [79.31313, 11.26603], [79.2381, 11.17321], [79.16458, 11.10916], [79.10884, 11.07736], [79.04238, 11.04969], [78.98566, 11.04301], [78.95986, 11.05286], [78.94732, 11.06535], [78.92908, 11.11222], [78.90996, 11.22331], [78.88555, 11.27573], [78.86912, 11.29268], [78.82661, 11.31743], [78.77121, 11.32286], [78.71013, 11.30828], [78.67183, 11.29082], [78.61056, 11.25389], [78.42278, 11.12368], [78.35065, 11.08928], [78.27077, 11.07294], [78.2263, 11.07548], [78.1796, 11.0844], [78.08653, 11.11403], [77.95859, 11.17196], [77.18722, 11.62492], [77.00208, 11.72395], [76.81143, 11.81595], [76.60475, 11.90446], [76.15129, 12.07824], [75.93383, 12.1723], [75.43027, 12.42193], [75.4198, 12.41918], [75.3881, 12.36729], [75.36525, 12.33933], [75.31284, 12.29159], [75.28318, 12.2716], [75.21867, 12.24069], [75.14934, 12.22278], [75.13433, 12.22116], [75.13966, 12.2486], [75.12672, 12.24584], [75.10549, 12.22128], [75.10475, 12.24608], [75.09864, 12.26903], [75.08286, 12.30589], [75.01852, 12.41455], [75.00994, 12.44379], [74.99204, 12.46174], [74.98536, 12.49136], [74.95515, 12.5375], [74.87965, 12.72549], [74.85573, 12.75943], [74.85231, 12.79731], [74.82766, 12.82466], [74.82498, 12.83818], [74.85914, 12.82461], [74.88112, 12.84804], [74.91749, 12.85814], [74.93287, 12.86644], [74.94093, 12.87861], [74.89479, 12.87116], [74.8506, 12.85717], [74.81756, 12.86177], [74.77029, 13.05244], [74.78338, 13.08466], [74.76922, 13.09956], [74.76301, 13.11861], [74.75978, 13.15522], [74.74875, 13.17102], [74.73341, 13.26276], [74.7151, 13.33104], [74.68948, 13.38158], [74.69459, 13.39313], [74.68752, 13.41035], [74.68093, 13.46821], [74.6937, 13.41527], [74.70826, 13.41303], [74.70192, 13.42036], [74.70143, 13.46137], [74.6771, 13.52676], [74.67351, 13.61909], [74.66669, 13.63274], [74.67709, 13.63032], [74.68093, 13.64695], [74.69679, 13.64045], [74.70997, 13.64057], [74.73561, 13.6538], [74.72055, 13.65229], [74.71293, 13.65618], [74.68833, 13.68595], [74.68898, 13.69086], [74.70143, 13.69477], [74.68776, 13.71182], [74.67604, 13.70108], [74.66049, 13.66009], [74.64691, 13.69233], [74.62315, 13.77384], [74.61459, 13.83552], [74.584, 13.90388], [74.50489, 14.01003], [74.49546, 14.0304], [74.49537, 14.07152], [74.47487, 14.1057], [74.47316, 14.16169], [74.46746, 14.18138], [74.43874, 14.22013], [74.42906, 14.24043], [74.43337, 14.26337], [74.44703, 14.25397], [74.47104, 14.24868], [74.50896, 14.25031], [74.50001, 14.25796], [74.42795, 14.28374], [74.41538, 14.3011], [74.41261, 14.34479], [74.39699, 14.37275], [74.39422, 14.41079], [74.38161, 14.43123], [74.37428, 14.46727], [74.35386, 14.50508], [74.3519, 14.53022], [74.36702, 14.51235], [74.38884, 14.46271], [74.40724, 14.46198], [74.39764, 14.4754], [74.40114, 14.47971], [74.42774, 14.47626], [74.38543, 14.52412], [74.37242, 14.53021], [74.37924, 14.54458], [74.36834, 14.54971], [74.35873, 14.54459], [74.35548, 14.55707], [74.35874, 14.57123], [74.34295, 14.56367], [74.33905, 14.52401], [74.32488, 14.51725], [74.30983, 14.51945], [74.30056, 14.52741], [74.30356, 14.53766], [74.29592, 14.56501], [74.29519, 14.5873], [74.30738, 14.60187], [74.33904, 14.60594], [74.33904, 14.61278], [74.3239, 14.6186], [74.28712, 14.60596], [74.27574, 14.61037], [74.26809, 14.61994], [74.26687, 14.63129], [74.27621, 14.64008], [74.26923, 14.65893], [74.26319, 14.70161], [74.25294, 14.71894], [74.23406, 14.73408], [74.22047, 14.7381], [74.20875, 14.73184], [74.19435, 14.71582], [74.17384, 14.74994], [74.15334, 14.74995], [74.14584, 14.76362], [74.11134, 14.78035], [74.09646, 14.79337], [74.09133, 14.81141], [74.10914, 14.80264], [74.11402, 14.80842], [74.11869, 14.83187], [74.14047, 14.83877], [74.15154, 14.8351], [74.15952, 14.82567], [74.17897, 14.85626], [74.20777, 14.86659], [74.23308, 14.86457], [74.2352, 14.87653], [74.2112, 14.88736], [74.20802, 14.90082], [74.19751, 14.89087], [74.16619, 14.87653], [74.14088, 14.85269], [74.12501, 14.84585], [74.11183, 14.84619], [74.10305, 14.85693], [74.09116, 14.8876], [74.03599, 14.9213], [74.0303, 14.93521], [74.03598, 14.97964], [74.03126, 14.99531], [73.99579, 15.0107], [73.97299, 15.05687], [73.96437, 15.06464], [73.91311, 15.07893], [73.92898, 15.12058], [73.93703, 15.13043], [73.95826, 15.14313], [73.96217, 15.15204], [73.95411, 15.16828], [73.94728, 15.16085], [73.89129, 15.34321], [73.88258, 15.35529], [73.82741, 15.36519], [73.8104, 15.3776], [73.78291, 15.40789], [73.83937, 15.40404], [73.86012, 15.40785], [73.88494, 15.39802], [73.89959, 15.40789], [73.93336, 15.39541], [73.94532, 15.38569], [73.95411, 15.36628], [73.96778, 15.37376], [73.93702, 15.41132], [73.92758, 15.41739], [73.88592, 15.43521], [73.85858, 15.43522], [73.84156, 15.44888], [73.80616, 15.45222], [73.79641, 15.44889], [73.79519, 15.46076], [73.80048, 15.475], [73.81756, 15.49665], [73.87224, 15.51093], [73.85955, 15.52117], [73.86598, 15.53758], [73.78639, 15.49219], [73.7665, 15.49721], [73.75124, 15.51313], [73.75611, 15.53758], [73.7368, 15.57198], [73.73708, 15.59853], [73.76043, 15.63203], [73.83814, 15.65428], [73.83814, 15.66112], [73.78387, 15.65913], [73.72828, 15.61959], [73.71828, 15.62715], [73.69803, 15.66261], [73.6859, 15.70429], [73.68679, 15.71313], [73.70086, 15.72321], [73.65623, 15.73024], [73.64626, 15.73689], [73.64625, 15.79214], [73.63884, 15.81721], [73.60467, 15.88084], [73.58758, 15.9029], [73.51023, 15.96747], [73.49099, 15.99348], [73.48733, 16.01423], [73.51596, 16.0174], [73.51596, 16.02485], [73.4839, 16.02823], [73.47251, 16.03637], [73.46485, 16.05166], [73.4503, 16.05911], [73.44704, 16.06891], [73.4607, 16.08633], [73.46339, 16.15957], [73.48797, 16.18936], [73.46502, 16.18228], [73.45281, 16.16657], [73.44703, 16.11364], [73.44024, 16.16171], [73.4402, 16.20234], [73.43523, 16.21784], [73.41993, 16.21664], [73.41346, 16.22419], [73.37868, 16.33271], [73.37867, 16.35692], [73.35826, 16.36751], [73.36444, 16.3893], [73.38494, 16.4016], [73.35207, 16.41812], [73.34133, 16.43208], [73.334, 16.46817], [73.31918, 16.50975], [73.30585, 16.52266], [73.30305, 16.53281], [73.30731, 16.56316], [73.344, 16.52359], [73.37867, 16.5183], [73.36231, 16.52546], [73.35085, 16.53814], [73.37127, 16.55927], [73.35402, 16.55964], [73.33623, 16.56578], [73.32278, 16.57617], [73.31464, 16.59943], [73.35825, 16.62067], [73.35841, 16.60395], [73.36305, 16.59683], [73.36866, 16.59903], [73.37127, 16.61018], [73.36647, 16.62808], [73.35426, 16.63467], [73.33888, 16.63166], [73.32351, 16.62068], [73.31213, 16.64494], [73.31244, 16.65814], [73.3235, 16.6791], [73.32162, 16.69245], [73.30031, 16.71321], [73.28957, 16.74022], [73.30445, 16.79352], [73.30372, 16.81314], [73.29689, 16.80566], [73.28664, 16.82087], [73.27468, 16.84883], [73.26939, 16.87563], [73.27955, 16.88764], [73.26939, 16.92919], [73.27053, 16.94501], [73.2894, 16.98383], [73.26239, 16.99698], [73.2547, 17.00657], [73.26271, 17.01854], [73.25124, 17.03218], [73.25149, 17.04242], [73.25896, 17.04408], [73.26938, 17.03164], [73.27735, 17.05467], [73.27573, 17.0786], [73.25515, 17.121], [73.26197, 17.13496], [73.26059, 17.15054], [73.23619, 17.19921], [73.23601, 17.22061], [73.21804, 17.25324], [73.21485, 17.26874], [73.18704, 17.30596], [73.23121, 17.27928], [73.24903, 17.28486], [73.23472, 17.30232], [73.19597, 17.36937], [73.17059, 17.38972], [73.16531, 17.41303], [73.1854, 17.44188], [73.17336, 17.45743], [73.18067, 17.47769], [73.16554, 17.5034], [73.1317, 17.53938], [73.126, 17.55655], [73.12795, 17.56468], [73.16342, 17.56948], [73.20069, 17.58649], [73.13918, 17.60078], [73.12819, 17.61156], [73.12143, 17.62623], [73.1203, 17.64203], [73.12615, 17.65542], [73.10549, 17.68891], [73.12322, 17.72333], [73.1233, 17.73578], [73.10989, 17.75829], [73.10133, 17.79633], [73.07945, 17.82462], [73.0652, 17.87836], [73.01858, 17.95173], [73.01711, 17.97211], [73.03541, 17.99185], [73.0187, 17.99264], [73.00865, 18.00024], [73.00523, 18.01236], [73.00896, 18.02609], [73.04225, 18.04898], [73.04347, 18.06696], [73.02272, 18.05769], [73.00881, 18.03902], [72.98733, 18.06656], [72.98098, 18.08055], [72.98813, 18.09602], [72.9761, 18.11864], [72.9673, 18.19599], [72.95485, 18.21751], [72.92695, 18.22395], [72.93995, 18.25129], [72.93329, 18.26659], [72.93996, 18.28602], [72.95313, 18.28131], [72.97267, 18.2447], [73.01246, 18.24314], [73.05095, 18.22747], [73.06349, 18.21035], [73.04762, 18.20116], [73.04762, 18.18879], [73.05746, 18.18561], [73.07154, 18.20409], [73.07398, 18.22419], [73.06529, 18.25755], [73.07154, 18.27302], [73.05698, 18.28095], [73.01246, 18.27921], [72.99489, 18.2836], [72.97739, 18.29508], [72.96804, 18.31061], [72.97478, 18.32758], [72.95876, 18.32812], [72.9336, 18.35493], [72.91733, 18.3564], [72.91253, 18.36136], [72.91017, 18.39924], [72.89712, 18.41754], [72.88967, 18.44131], [72.89572, 18.50277], [72.90724, 18.52358], [72.92466, 18.53562], [72.94678, 18.53241], [72.96111, 18.51773], [72.99024, 18.46996], [73.0088, 18.45051], [73.01498, 18.46996], [72.98878, 18.48994], [72.97788, 18.52411], [72.9603, 18.55467], [72.95021, 18.56037], [72.92115, 18.55489], [72.91018, 18.55899], [72.88217, 18.63548], [72.86452, 18.64892], [72.85537, 18.68094], [72.8524, 18.76992], [72.86558, 18.79938], [72.87916, 18.80735], [72.90203, 18.79951], [72.91261, 18.79999], [72.92693, 18.82663], [72.97477, 18.77948], [72.96632, 18.76142], [72.96957, 18.74698], [72.98064, 18.73676], [72.99513, 18.73102], [72.98806, 18.75385], [72.99171, 18.77936], [73.00246, 18.80145], [73.01629, 18.81362], [72.98797, 18.82495], [72.9813, 18.83272], [72.97479, 18.84833], [72.9817, 18.87149], [72.97218, 18.87425], [72.94614, 18.85831], [72.91628, 18.87052], [72.89683, 18.89448], [72.91261, 18.92347], [72.92807, 18.91136], [72.93458, 18.9208], [72.93679, 18.94741], [72.94923, 18.95148], [72.97722, 18.94843], [72.98829, 18.96442], [72.95364, 18.96442], [72.95364, 18.97125], [73.04664, 18.99518], [73.05681, 19.01533], [73.03981, 19.01752], [72.9883, 18.99861], [72.98358, 19.01044], [72.9878, 19.03693], [72.98098, 19.04637], [72.99187, 19.06721], [72.97381, 19.07857], [72.96731, 19.09101], [72.97478, 19.16307], [72.9673, 19.16307], [72.95003, 19.12792], [72.93556, 19.11506], [72.93392, 19.08031], [72.92693, 19.06684], [72.94336, 19.05512], [72.93425, 19.03409], [72.89146, 18.99179], [72.88526, 19.02586], [72.86931, 19.01142], [72.83627, 18.95913], [72.82757, 18.91817], [72.82129, 18.90331], [72.81251, 18.89746], [72.80276, 18.90982], [72.80738, 18.94282], [72.80274, 18.95759], [72.79591, 18.95759], [72.77541, 18.93653], [72.77037, 18.94819], [72.80242, 18.99966], [72.80276, 19.04017], [72.81707, 19.0327], [72.82423, 19.05353], [72.8213, 19.06318], [72.80959, 19.06685], [72.82309, 19.10847], [72.80959, 19.14633], [72.82309, 19.16926], [72.81804, 19.17536], [72.81121, 19.17552], [72.79216, 19.15047], [72.78493, 19.15039], [72.7816, 19.15965], [72.8025, 19.21162], [72.83009, 19.25243], [72.81512, 19.25365], [72.7894, 19.21735], [72.77541, 19.20468], [72.77224, 19.2648], [72.77565, 19.29902], [72.78542, 19.3139], [72.83937, 19.31907], [72.86704, 19.3168], [72.88551, 19.29605], [72.90056, 19.29076], [72.93035, 19.28657], [72.95973, 19.29483], [72.97267, 19.29369], [72.98829, 19.27912], [73.01051, 19.22431], [73.02662, 19.20551], [73.04965, 19.21772], [73.03004, 19.22773], [73.02914, 19.25934], [72.9878, 19.30069], [72.97096, 19.30703], [72.91676, 19.30337], [72.89894, 19.30703], [72.85532, 19.3395], [72.83692, 19.34805], [72.81853, 19.33027], [72.80212, 19.33193], [72.78762, 19.34521], [72.76357, 19.38], [72.7482, 19.44456], [72.74685, 19.46796], [72.75442, 19.48175], [72.87916, 19.53237], [72.8567, 19.54133], [72.81593, 19.52852], [72.79591, 19.52681], [72.78127, 19.53657], [72.77068, 19.56615], [72.74195, 19.5808], [72.73455, 19.5808], [72.74072, 19.56074], [72.73455, 19.54662], [72.75476, 19.52721], [72.75561, 19.51936], [72.74919, 19.51261], [72.74155, 19.51603], [72.72252, 19.53629], [72.7108, 19.58759], [72.71803, 19.60668], [72.70965, 19.64997], [72.68671, 19.72478], [72.69995, 19.71417], [72.70777, 19.69745], [72.72641, 19.7058], [72.71405, 19.74583], [72.7173, 19.75152], [72.73129, 19.75458], [72.73276, 19.77973], [72.72828, 19.79365], [72.69011, 19.74898], [72.67792, 19.74658], [72.67986, 19.80048], [72.65009, 19.84199], [72.64919, 19.85199], [72.66424, 19.88158], [72.66522, 19.95294], [72.68434, 19.96402], [72.70338, 19.99763], [72.70777, 20.01276], [72.71026, 20.08275], [72.72828, 20.12946], [72.73765, 20.18427], [72.75229, 20.20376], [72.75563, 20.21515], [72.7444, 20.2194], [72.74197, 20.22505], [72.74823, 20.28034], [72.77752, 20.33006], [72.7816, 20.35227], [72.79819, 20.35932], [72.81707, 20.37592], [72.82945, 20.43793], [72.87916, 20.51244], [72.88649, 20.53156], [72.89145, 20.57514], [72.88528, 20.61921], [72.88845, 20.62848], [72.9026, 20.64191], [72.90943, 20.69868], [72.90797, 20.71833], [72.89895, 20.73216], [72.94028, 20.75943], [72.94679, 20.75947], [72.945, 20.77001], [72.91945, 20.78743], [72.92498, 20.81061], [72.91944, 20.82152], [72.90024, 20.79915], [72.88576, 20.80712], [72.88015, 20.8299], [72.88844, 20.85195], [72.9004, 20.86811], [72.89381, 20.87006], [72.8812, 20.86567], [72.83695, 20.83587], [72.84588, 20.85179], [72.85427, 20.88715], [72.86492, 20.89728], [72.8367, 20.92992], [72.85646, 20.94797], [72.88648, 20.9621], [72.88844, 20.98261], [72.8327, 20.97237], [72.81609, 20.99901], [72.78742, 21.00701], [72.77199, 21.02388], [72.76687, 21.03855], [72.78395, 21.04042], [72.82309, 21.03384], [72.84498, 21.03832], [72.84986, 21.048], [72.80958, 21.13003], [72.75563, 21.10958], [72.74195, 21.12324], [72.73561, 21.11074], [72.73454, 21.09248], [72.70038, 21.07479], [72.70583, 21.10635], [72.72869, 21.1481], [72.71404, 21.16413], [72.70655, 21.15771], [72.6867, 21.15815], [72.67644, 21.15363], [72.6727, 21.14574], [72.67123, 21.09981], [72.6587, 21.0976], [72.63787, 21.08541], [72.62966, 21.08797], [72.61501, 21.10587], [72.6155, 21.11981], [72.63039, 21.13596], [72.71177, 21.19402], [72.72104, 21.1988], [72.73455, 21.19892], [72.72364, 21.20913], [72.68768, 21.22046], [72.67319, 21.23908], [72.64699, 21.25361], [72.64576, 21.27338], [72.61827, 21.25308], [72.60214, 21.27744], [72.59791, 21.30756], [72.58678, 21.34121], [72.59054, 21.34855], [72.63852, 21.35716], [72.64576, 21.36278], [72.63868, 21.37124], [72.59409, 21.36278], [72.57912, 21.36694], [72.56765, 21.37642], [72.56464, 21.3858], [72.6351, 21.40746], [72.72828, 21.46581], [72.74708, 21.45287], [72.75262, 21.46357], [72.74855, 21.47964], [72.73829, 21.48286], [72.66505, 21.45722], [72.61247, 21.42187], [72.58369, 21.41744], [72.61965, 21.48736], [72.65105, 21.50703], [72.69033, 21.5408], [72.70395, 21.5484], [72.72682, 21.55317], [72.7732, 21.58051], [72.78907, 21.59553], [72.8104, 21.63507], [72.8229, 21.64382], [72.87159, 21.63654], [72.88966, 21.64053], [72.93556, 21.65835], [72.96534, 21.67878], [73.02247, 21.69855], [73.08497, 21.72968], [73.11695, 21.73725], [73.13201, 21.7578], [73.12615, 21.76683], [73.11883, 21.76472], [73.084, 21.74641], [73.04664, 21.73334], [73.02247, 21.71601], [72.99147, 21.70844], [72.95021, 21.68915], [72.92716, 21.685], [72.85816, 21.69497], [72.81918, 21.67505], [72.79811, 21.67354], [72.73325, 21.68749], [72.67644, 21.67814], [72.61606, 21.68545], [72.55008, 21.66678], [72.53469, 21.67293], [72.52851, 21.69514], [72.55633, 21.77432], [72.56691, 21.84934], [72.58546, 21.85887], [72.61859, 21.92525], [72.63405, 21.93748], [72.65189, 21.94102], [72.69012, 21.93879], [72.70232, 21.94758], [72.71404, 21.98298], [72.73455, 21.98656], [72.73455, 21.99404], [72.70777, 21.99404], [72.70094, 21.98892], [72.69354, 21.97233], [72.62306, 21.96662], [72.6027, 21.9436], [72.58205, 21.92835], [72.54274, 21.91085], [72.53324, 21.92053], [72.50173, 21.97602], [72.52223, 22.05427], [72.51955, 22.08844], [72.53004, 22.10749], [72.536, 22.14078], [72.54229, 22.15689], [72.57562, 22.19464], [72.59051, 22.20502], [72.61389, 22.21168], [72.63445, 22.21039], [72.6819, 22.18159], [72.70802, 22.1857], [72.72925, 22.17743], [72.74822, 22.16405], [72.79022, 22.21723], [72.81227, 22.23411], [72.84742, 22.24041], [72.89723, 22.21304], [72.91603, 22.22309], [72.92213, 22.23652], [72.9227, 22.25458], [72.91749, 22.27143], [72.90577, 22.2814], [72.89947, 22.26909], [72.88608, 22.26241], [72.86974, 22.2624], [72.83863, 22.27656], [72.81821, 22.27342], [72.7566, 22.24373], [72.72658, 22.24894], [72.65943, 22.27391], [72.62501, 22.2714], [72.60662, 22.28384], [72.57374, 22.28824], [72.55307, 22.28246], [72.50171, 22.24043], [72.46616, 22.23258], [72.45705, 22.23673], [72.45486, 22.2453], [72.46697, 22.25585], [72.46388, 22.26398], [72.44874, 22.26683], [72.41375, 22.24633], [72.39186, 22.25349], [72.38108, 22.28975], [72.38039, 22.3124], [72.40496, 22.33295], [72.40805, 22.35346], [72.39723, 22.36677], [72.37135, 22.3559], [72.36101, 22.34345], [72.3405, 22.30321], [72.32829, 22.26074], [72.30909, 22.25724], [72.27516, 22.26033], [72.2632, 22.27637], [72.26466, 22.29523], [72.24041, 22.30191], [72.20851, 22.30044], [72.20094, 22.29145], [72.20631, 22.27391], [72.16179, 22.28095], [72.14877, 22.2779], [72.16603, 22.26032], [72.19068, 22.25129], [72.20924, 22.25943], [72.24041, 22.28824], [72.2461, 22.27558], [72.23414, 22.24356], [72.23911, 22.23892], [72.26832, 22.22675], [72.30648, 22.22955], [72.31722, 22.18488], [72.30762, 22.07901], [72.29566, 22.05118], [72.29176, 22.05341], [72.27515, 22.02754], [72.25765, 22.01216], [72.23732, 22.00703], [72.22096, 22.01097], [72.21648, 22.0078], [72.21436, 21.99405], [72.20631, 21.99405], [72.19988, 22.00698], [72.18636, 21.98656], [72.1731, 21.97566], [72.16343, 21.97322], [72.1517, 21.99388], [72.13429, 22.00458], [72.11378, 22.01057], [72.09702, 22.00702], [72.12809, 21.98354], [72.12484, 21.97233], [72.11492, 21.9694], [72.07651, 21.97972], [72.10449, 21.95922], [72.10205, 21.94506], [72.0962, 21.94303], [72.07325, 21.9545], [72.05519, 21.95352], [72.03842, 21.94758], [72.02866, 21.93879], [72.1045, 21.91767], [72.15647, 21.92584], [72.14536, 21.91767], [72.14536, 21.91083], [72.15918, 21.9046], [72.15235, 21.89785], [72.16976, 21.89044], [72.16, 21.86591], [72.16943, 21.84138], [72.16188, 21.83919], [72.13088, 21.84627], [72.09848, 21.88052], [72.07765, 21.89444], [72.05795, 21.89875], [72.04933, 21.88044], [72.08643, 21.86562], [72.10449, 21.83577], [72.08676, 21.83028], [72.0631, 21.83433], [72.00416, 21.85773], [71.99733, 21.85493], [71.99464, 21.8395], [71.9961, 21.79951], [72.00148, 21.78791], [72.02181, 21.80095], [72.02182, 21.77432], [72.0739, 21.78871], [72.1032, 21.77521], [72.11744, 21.7766], [72.16624, 21.79381], [72.17106, 21.79095], [72.17701, 21.76667], [72.1958, 21.75779], [72.20239, 21.74811], [72.21437, 21.71284], [72.22381, 21.70059], [72.24041, 21.69172], [72.27173, 21.69089], [72.27833, 21.67194], [72.29565, 21.65387], [72.29883, 21.62629], [72.29565, 21.61604], [72.27516, 21.59553], [72.24219, 21.48078], [72.22004, 21.44496], [72.16684, 21.39208], [72.15144, 21.35998], [72.1045, 21.31501], [72.11149, 21.29609], [72.10775, 21.28999], [72.09702, 21.28766], [72.10254, 21.2744], [72.09083, 21.25292], [72.10449, 21.22215], [72.10458, 21.20491], [72.09083, 21.19148], [72.06666, 21.18134], [72.05502, 21.16837], [71.99073, 21.13639], [71.92628, 21.13003], [71.80616, 21.06208], [71.76294, 21.03231], [71.74366, 21.02759], [71.71762, 21.03205], [71.68335, 21.01147], [71.63998, 20.99681], [71.5835, 20.95825], [71.54959, 20.95125], [71.56935, 20.97919], [71.55112, 20.97358], [71.49342, 20.92914], [71.48439, 20.91714], [71.48071, 20.90038], [71.46224, 20.88533], [71.37842, 20.85954], [71.31861, 20.84931], [71.14063, 20.7657], [71.11695, 20.76691], [71.11011, 20.75948], [71.09547, 20.76374], [71.06234, 20.73897], [71.02418, 20.74453], [71.00766, 20.7416], [71.00082, 20.72216], [70.98243, 20.71016], [70.92397, 20.70756], [70.88678, 20.68478], [70.81266, 20.6304], [70.76665, 20.61044]], [[71.60602, 21.41212], [71.59077, 21.3852], [71.59983, 21.37589], [71.62782, 21.38274], [71.74477, 21.44788], [71.76855, 21.4914], [71.76774, 21.49977], [71.72627, 21.5347], [71.71544, 21.53486], [71.60602, 21.41212]], [[70.86086, 20.70476], [70.87152, 20.70367], [70.88683, 20.70591], [70.86086, 20.70476]]], [[[67.45395, 24.01341], [67.42693, 24.00753], [67.40944, 24.01351], [67.3933, 24.02822], [67.3755, 24.06273], [67.39039, 24.04926], [67.41326, 24.04877], [67.45802, 24.06273], [67.48527, 24.04849], [67.46518, 24.0406], [67.45395, 24.01341]]]]}}]}