{"type": "FeatureCollection", "features": [{"type": "Feature", "properties": {"name": "2004년 가입국", "name_en": "EU accession 2004", "period": "2004년", "kind": "기타", "legend": "2004 라트비아 등 10개국 가입", "members": "에스토니아, 라트비아, 리투아니아, 폴란드, 체코, 슬로바키아, 헝가리, 슬로베니아, 몰타, 키프로스", "map_title": "유럽 연합 회원국(2023년 기준)", "source": "미래엔 세계사 교과서 4권 206쪽", "volume": 4, "page": 206, "geometry_source": "Natural Earth 10m 국가 경계", "group": "2004년 가입국", "map_folder": "4권_p206_유럽 연합 회원국(2023년 기준)"}, "geometry": {"type": "MultiPolygon", "coordinates": [[[[33.98007, 35.0574], [34.00199, 35.04722], [34.01191, 35.04882], [34.02196, 35.05701], [34.0359, 35.04719], [34.05104, 35.03303], [34.06218, 35.00568], [34.07342, 34.9881], [34.08709, 34.97191], [34.09913, 34.96516], [34.05942, 34.96662], [34.03452, 34.97248], [34.02345, 34.98257], [34.01157, 34.98762], [33.95729, 34.98192], [33.91017, 34.97016], [33.89184, 34.95814], [33.86442, 34.96298], [33.84582, 34.95973], [33.83807, 34.96371], [33.85047, 34.97301], [33.85905, 34.97466], [33.85905, 34.99182], [33.84034, 34.99337], [33.82939, 35.00117], [33.83021, 35.02303], [33.82236, 35.03006], [33.799, 35.03853], [33.80438, 35.04954], [33.81378, 35.05579], [33.82711, 35.06127], [33.84117, 35.05109], [33.85512, 35.05342], [33.86763, 35.0605], [33.88013, 35.07305], [33.89812, 35.06127], [33.93078, 35.05109], [33.94494, 35.05109], [33.96209, 35.0574], [33.98007, 35.0574]]], [[[33.76934, 34.98396], [33.75921, 34.98867], [33.77399, 34.98867], [33.77792, 34.98469], [33.79115, 34.98241], [33.79435, 34.97776], [33.78093, 34.97635], [33.78019, 34.97931], [33.77089, 34.98009], [33.76934, 34.98396]]], [[[33.74131, 35.01373], [33.75206, 35.0144], [33.75206, 35.00432], [33.74279, 35.00123], [33.73876, 35.00526], [33.74131, 35.01373]]], [[[33.63982, 34.91568], [33.63478, 34.89765], [33.63502, 34.86075], [33.63258, 34.85248], [33.61695, 34.84528], [33.60564, 34.82176], [33.5442, 34.81501], [33.51319, 34.78547], [33.46762, 34.77432], [33.43865, 34.76276], [33.41521, 34.75845], [33.40016, 34.77338], [33.39918, 34.74531], [33.37086, 34.73086], [33.29656, 34.71817], [33.2601, 34.70051], [33.24562, 34.69823], [33.17359, 34.70515], [33.08644, 34.69481], [33.02589, 34.65131], [33.01564, 34.63443], [32.96954, 34.63205], [32.96252, 34.62502], [32.95559, 34.62889], [32.95404, 34.64295], [32.96561, 34.65158], [32.97027, 34.6461], [32.9898, 34.6461], [32.98753, 34.67339], [32.95471, 34.67732], [32.93606, 34.65773], [32.91725, 34.66714], [32.91367, 34.66028], [32.8845, 34.66661], [32.86561, 34.67874], [32.86043, 34.68762], [32.85969, 34.70058], [32.83229, 34.70095], [32.81934, 34.68762], [32.80601, 34.68577], [32.7986, 34.67096], [32.76677, 34.67614], [32.7601, 34.66911], [32.76067, 34.65322], [32.70737, 34.64541], [32.66578, 34.65217], [32.62623, 34.66649], [32.55665, 34.69937], [32.49334, 34.70726], [32.47584, 34.7132], [32.41334, 34.75348], [32.40235, 34.79645], [32.37916, 34.84907], [32.33766, 34.87641], [32.32342, 34.89842], [32.32276, 34.91136], [32.33139, 34.92422], [32.31218, 34.95026], [32.31031, 34.98257], [32.30592, 35.00141], [32.27613, 35.04776], [32.27174, 35.07282], [32.27516, 35.09105], [32.28663, 35.09715], [32.30689, 35.0856], [32.33668, 35.05874], [32.35336, 35.04792], [32.37232, 35.04149], [32.41383, 35.04304], [32.44996, 35.05882], [32.47967, 35.08295], [32.50196, 35.1092], [32.5276, 35.15705], [32.54347, 35.16649], [32.54819, 35.17597], [32.55397, 35.17805], [32.57472, 35.1706], [32.58481, 35.17251], [32.59262, 35.16111], [32.6075, 35.15408], [32.62223, 35.15181], [32.63396, 35.15408], [32.64646, 35.16111], [32.65981, 35.18708], [32.69155, 35.18371], [32.69803, 35.15724], [32.71271, 35.13377], [32.7956, 35.10261], [32.8065, 35.09481], [32.81028, 35.07073], [32.81586, 35.06277], [32.82599, 35.05895], [32.86102, 35.0651], [32.87348, 35.07228], [32.88293, 35.08778], [32.89079, 35.09166], [32.92195, 35.07228], [32.93523, 35.07228], [32.94841, 35.07915], [32.98515, 35.10881], [33.02639, 35.12762], [33.03734, 35.1361], [33.04675, 35.13775], [33.09822, 35.13067], [33.12307, 35.13067], [33.14349, 35.14008], [33.14969, 35.14866], [33.17387, 35.16266], [33.18948, 35.16266], [33.21614, 35.15408], [33.22854, 35.15336], [33.23867, 35.14943], [33.26214, 35.12607], [33.27857, 35.11822], [33.3012, 35.11357], [33.30906, 35.11589], [33.31526, 35.12912], [33.34802, 35.15491], [33.41592, 35.16034], [33.4214, 35.15724], [33.4245, 35.1299], [33.45726, 35.10106], [33.45882, 35.09481], [33.45882, 35.04169], [33.44631, 35.00117], [33.44941, 34.98794], [33.45882, 34.97776], [33.4862, 34.98164], [33.49313, 34.9973], [33.497, 35.02608], [33.51959, 35.04411], [33.52744, 35.03704], [33.52744, 35.01285], [33.53364, 34.99957], [33.54604, 34.99497], [33.56413, 35.00117], [33.57188, 35.0144], [33.58056, 35.01993], [33.59152, 35.01838], [33.60299, 35.01208], [33.61953, 35.01683], [33.66159, 35.00035], [33.685, 34.9973], [33.70293, 34.98794], [33.70151, 34.97289], [33.68035, 34.9663], [33.65406, 34.94473], [33.63982, 34.91568]]], [[[13.58912, 45.50161], [13.59596, 45.51191], [13.59596, 45.51813], [13.57862, 45.52338], [13.56861, 45.53925], [13.58961, 45.53579], [13.75294, 45.55288], [13.75294, 45.55907], [13.74236, 45.56977], [13.71176, 45.59321], [13.76105, 45.59624], [13.80053, 45.58125], [13.84776, 45.58466], [13.88704, 45.61877], [13.89469, 45.63184], [13.89314, 45.63468], [13.86916, 45.64114], [13.85841, 45.64936], [13.77872, 45.74341], [13.70948, 45.76532], [13.66033, 45.79204], [13.60917, 45.7986], [13.58127, 45.80925], [13.56597, 45.83033], [13.56928, 45.86454], [13.60824, 45.92655], [13.62282, 45.96639], [13.60587, 45.98541], [13.57166, 45.97983], [13.53941, 45.96903], [13.50944, 45.96743], [13.46179, 46.00639], [13.49001, 46.02556], [13.4928, 46.03249], [13.49032, 46.03895], [13.48226, 46.04484], [13.5051, 46.06603], [13.61641, 46.12504], [13.64504, 46.16173], [13.63739, 46.18039], [13.61393, 46.18354], [13.58447, 46.18132], [13.55905, 46.18411], [13.52897, 46.20483], [13.51016, 46.21398], [13.48226, 46.2179], [13.4683, 46.22343], [13.42283, 46.2286], [13.4374, 46.21093], [13.41012, 46.20798], [13.40164, 46.21666], [13.39813, 46.23051], [13.38469, 46.24333], [13.37859, 46.26839], [13.36526, 46.2903], [13.39131, 46.30157], [13.42324, 46.34485], [13.43409, 46.35386], [13.45973, 46.35903], [13.53001, 46.38833], [13.5544, 46.40595], [13.57569, 46.42668], [13.60018, 46.44264], [13.65878, 46.44512], [13.67749, 46.45208], [13.68845, 46.46776], [13.68989, 46.49334], [13.69919, 46.50484], [13.70095, 46.51975], [13.78214, 46.50778], [13.86068, 46.51525], [13.89086, 46.51179], [13.98233, 46.48192], [14.05003, 46.4844], [14.08103, 46.47595], [14.13725, 46.44244], [14.14987, 46.44006], [14.36215, 46.43588], [14.39584, 46.44099], [14.40649, 46.43934], [14.42003, 46.42435], [14.45093, 46.41448], [14.46767, 46.41267], [14.50219, 46.41836], [14.51584, 46.40536], [14.5271, 46.38823], [14.54033, 46.37864], [14.5577, 46.38394], [14.57537, 46.41973], [14.59015, 46.43443], [14.6317, 46.44058], [14.66208, 46.4597], [14.67996, 46.45887], [14.68709, 46.47122], [14.70973, 46.49251], [14.72637, 46.49771], [14.73526, 46.49334], [14.76089, 46.49628], [14.78858, 46.50665], [14.80719, 46.53602], [14.82228, 46.56755], [14.83365, 46.58439], [14.85039, 46.60114], [14.863, 46.60483], [14.89773, 46.60555], [14.93359, 46.62114], [14.94796, 46.61927], [14.96718, 46.60026], [15.00439, 46.63684], [15.06195, 46.64956], [15.20489, 46.63896], [15.38814, 46.64558], [15.41759, 46.63795], [15.46265, 46.61465], [15.49263, 46.61829], [15.51123, 46.62837], [15.53066, 46.66385], [15.54595, 46.67188], [15.56735, 46.67576], [15.60373, 46.67302], [15.62698, 46.68087], [15.63298, 46.68963], [15.63598, 46.71756], [15.6521, 46.71082], [15.72868, 46.70299], [15.75514, 46.70402], [15.82294, 46.72283], [15.85074, 46.72449], [15.87855, 46.72071], [15.94634, 46.69715], [15.98696, 46.69219], [15.99792, 46.68692], [16.01672, 46.67069], [16.01456, 46.69371], [16.00329, 46.70919], [15.982, 46.71854], [15.97053, 46.74301], [15.97125, 46.77808], [15.97818, 46.80913], [15.97735, 46.81621], [15.97198, 46.82063], [15.98169, 46.82769], [16.03202, 46.83756], [16.11005, 46.86792], [16.17072, 46.91853], [16.22395, 46.94106], [16.23067, 46.94835], [16.23294, 46.96607], [16.26105, 46.97809], [16.26539, 46.99326], [16.2749, 47.00431], [16.28854, 47.00558], [16.32586, 47.00044], [16.36658, 47.00382], [16.38776, 47.00204], [16.41557, 46.98943], [16.42476, 46.9931], [16.48636, 46.99855], [16.48192, 47.00938], [16.46755, 47.01842], [16.42466, 47.02408], [16.43717, 47.03178], [16.49318, 47.04915], [16.49722, 47.05462], [16.4937, 47.05982], [16.46176, 47.0685], [16.45432, 47.0817], [16.46083, 47.0963], [16.48192, 47.10524], [16.50476, 47.12583], [16.50951, 47.13754], [16.49732, 47.14968], [16.48089, 47.15077], [16.44709, 47.13971], [16.43365, 47.14575], [16.44213, 47.16834], [16.44182, 47.17712], [16.4351, 47.18358], [16.41877, 47.18366], [16.41278, 47.18717], [16.40926, 47.20368], [16.42466, 47.22559], [16.42135, 47.24314], [16.45246, 47.25458], [16.46662, 47.26342], [16.47324, 47.27681], [16.46921, 47.29324], [16.43882, 47.33657], [16.42435, 47.3452], [16.42497, 47.35112], [16.43644, 47.35851], [16.43396, 47.39685], [16.44409, 47.40951], [16.4566, 47.41184], [16.46993, 47.40553], [16.48192, 47.3923], [16.58941, 47.42563], [16.64088, 47.45292], [16.63685, 47.4932], [16.64821, 47.50155], [16.67736, 47.50987], [16.688, 47.52263], [16.68914, 47.53803], [16.68139, 47.55056], [16.66754, 47.5601], [16.65059, 47.56656], [16.65617, 47.58593], [16.6477, 47.60614], [16.63023, 47.622], [16.60842, 47.62877], [16.57545, 47.62495], [16.50962, 47.64314], [16.48192, 47.63895], [16.40781, 47.66133], [16.43913, 47.69047], [16.45453, 47.68177], [16.47303, 47.69177], [16.51292, 47.706], [16.5214, 47.71153], [16.52688, 47.72014], [16.52512, 47.73331], [16.53111, 47.74298], [16.5678, 47.75419], [16.60977, 47.75063], [16.68987, 47.72957], [16.70247, 47.7236], [16.71922, 47.69373], [16.73038, 47.6859], [16.74113, 47.68146], [16.79745, 47.67546], [16.80624, 47.67688], [16.8173, 47.68425], [16.83694, 47.70536], [16.85017, 47.71293], [16.86474, 47.68673], [16.90267, 47.68203], [16.98194, 47.69544], [17.0548, 47.70202], [17.07537, 47.70848], [17.05553, 47.72091], [17.05057, 47.73099], [17.04871, 47.76365], [17.04199, 47.78391], [17.04064, 47.80111], [17.05563, 47.81235], [17.04912, 47.81868], [17.03951, 47.83736], [17.00437, 47.85238], [17.00406, 47.86328], [17.05119, 47.87289], [17.06762, 47.88163], [17.07754, 47.89173], [17.08746, 47.92263], [17.07516, 47.92777], [17.07413, 47.93211], [17.08808, 47.9409], [17.09573, 47.95573], [17.09614, 47.96193], [17.0856, 47.97015], [17.14834, 48.00544], [17.12498, 48.01953], [17.06969, 48.03567], [17.07506, 48.05208], [17.05914, 48.06043], [17.07, 48.08916], [17.08023, 48.09761], [17.06721, 48.10694], [17.04746, 48.13099], [17.00716, 48.1428], [16.98194, 48.1613], [16.97481, 48.17688], [16.97471, 48.19856], [16.96995, 48.21664], [16.95434, 48.25256], [16.95434, 48.27313], [16.91662, 48.2908], [16.90546, 48.31199], [16.89843, 48.31617], [16.90649, 48.33147], [16.90195, 48.3394], [16.87549, 48.35503], [16.84758, 48.35958], [16.84448, 48.3656], [16.86494, 48.45808], [16.90122, 48.4966], [16.91393, 48.51934], [16.9469, 48.53973], [16.95434, 48.5574], [16.94504, 48.60417], [16.91052, 48.63078], [16.89667, 48.69698], [16.87301, 48.71899], [16.85657, 48.71982], [16.7989, 48.70922], [16.72903, 48.7331], [16.67508, 48.73393], [16.66196, 48.74002], [16.64315, 48.77826], [16.54579, 48.7963], [16.51954, 48.8056], [16.49225, 48.79971], [16.45308, 48.80219], [16.43572, 48.79454], [16.38497, 48.73708], [16.37402, 48.73031], [16.35831, 48.72726], [16.3395, 48.73558], [16.31759, 48.73284], [16.17775, 48.74654], [16.08535, 48.74287], [16.03233, 48.75806], [15.93177, 48.80643], [15.93032, 48.81831], [15.92505, 48.8226], [15.9081, 48.81971], [15.90707, 48.83025], [15.89963, 48.83475], [15.87575, 48.83309], [15.88599, 48.84203], [15.87761, 48.84167], [15.85922, 48.84916], [15.83328, 48.85201], [15.82831, 48.85712], [15.82428, 48.86942], [15.8185, 48.87232], [15.77922, 48.87087], [15.72682, 48.85495], [15.68135, 48.85847], [15.60373, 48.88735], [15.52125, 48.90849], [15.47185, 48.9367], [15.45035, 48.94482], [15.40591, 48.95469], [15.35785, 48.97081], [15.33553, 48.975], [15.28871, 48.97536], [15.27455, 48.98673], [15.2669, 48.98667], [15.26287, 48.98259], [15.25708, 48.96389], [15.23807, 48.95076], [15.16179, 48.93722], [15.14195, 48.93748], [15.14856, 48.95174], [15.14898, 48.96533], [15.1374, 48.99303], [15.05958, 48.99722], [15.00397, 49.00977], [14.97886, 49.00626], [14.97824, 48.99283], [14.96459, 48.97174], [14.96821, 48.88503], [14.93814, 48.80281], [14.95106, 48.78033], [14.93958, 48.76281], [14.91933, 48.76157], [14.86765, 48.77558], [14.81546, 48.78033], [14.80037, 48.77651], [14.79045, 48.75485], [14.78042, 48.74312], [14.77536, 48.724], [14.72275, 48.69341], [14.70384, 48.6731], [14.70022, 48.6461], [14.70073, 48.61554], [14.69567, 48.58954], [14.67562, 48.57623], [14.65919, 48.57696], [14.63469, 48.60233], [14.60513, 48.60032], [14.60193, 48.60453], [14.60059, 48.61758], [14.59418, 48.62132], [14.57878, 48.6205], [14.53382, 48.60871], [14.48214, 48.62447], [14.45817, 48.64318], [14.44359, 48.63652], [14.42117, 48.59706], [14.40535, 48.58629], [14.35337, 48.57143], [14.32536, 48.55864], [14.31575, 48.55792], [14.21653, 48.58117], [14.07483, 48.59171], [14.04083, 48.60117], [14.0152, 48.62039], [14.0062, 48.63951], [14.01375, 48.6438], [14.02047, 48.65315], [14.03287, 48.65491], [14.03473, 48.66116], [14.03215, 48.66726], [14.01416, 48.67507], [13.99112, 48.70018], [13.98233, 48.70649], [13.91505, 48.73098], [13.87495, 48.75243], [13.85593, 48.7593], [13.81573, 48.76643], [13.79619, 48.77981], [13.74793, 48.84338], [13.72467, 48.8673], [13.71062, 48.87247], [13.67336, 48.87635], [13.65444, 48.88224], [13.63739, 48.89345], [13.62178, 48.90906], [13.61114, 48.92725], [13.60866, 48.94616], [13.59047, 48.94482], [13.53889, 48.96704], [13.51595, 48.97024], [13.5021, 48.96606], [13.48226, 48.93763], [13.42727, 48.95996], [13.39854, 48.97768], [13.38418, 48.99303], [13.38355, 49.02109], [13.37239, 49.03851], [13.32991, 49.06693], [13.29953, 49.09365], [13.28733, 49.10057], [13.26728, 49.10563], [13.20682, 49.1075], [13.1785, 49.11835], [13.14946, 49.15483], [13.05582, 49.23818], [13.04321, 49.24289], [13.01128, 49.26779], [12.99981, 49.29492], [12.98244, 49.29963], [12.93986, 49.32676], [12.88467, 49.33957], [12.87092, 49.33673], [12.87537, 49.32386], [12.85666, 49.32221], [12.79775, 49.32784], [12.77791, 49.33255], [12.76209, 49.34324], [12.72933, 49.39115], [12.70918, 49.40474], [12.66308, 49.4189], [12.64355, 49.42949], [12.63218, 49.44396], [12.62722, 49.46019], [12.62298, 49.50985], [12.61554, 49.51378], [12.59373, 49.51501], [12.58288, 49.5224], [12.56231, 49.55083], [12.55363, 49.58473], [12.5466, 49.59558], [12.53606, 49.60312], [12.51219, 49.61165], [12.50196, 49.61971], [12.50743, 49.63], [12.49689, 49.63387], [12.50536, 49.64612], [12.50464, 49.6594], [12.49637, 49.66999], [12.44924, 49.68503], [12.41958, 49.70022], [12.39891, 49.7195], [12.38362, 49.74286], [12.3954, 49.75789], [12.43674, 49.76926], [12.45266, 49.7797], [12.45638, 49.81712], [12.46247, 49.83122], [12.48252, 49.82724], [12.48986, 49.84269], [12.51291, 49.87024], [12.52097, 49.88553], [12.52407, 49.90496], [12.51787, 49.9122], [12.46268, 49.93127], [12.46382, 49.94212], [12.47074, 49.95561], [12.46816, 49.97023], [12.45131, 49.98057], [12.41452, 49.98305], [12.39922, 49.99276], [12.24688, 50.04496], [12.2414, 50.07064], [12.23251, 50.08051], [12.18787, 50.10283], [12.17918, 50.11798], [12.17856, 50.13296], [12.18559, 50.1557], [12.1827, 50.17074], [12.17505, 50.18262], [12.13929, 50.21104], [12.08989, 50.23084], [12.07955, 50.24272], [12.09206, 50.25482], [12.10911, 50.26381], [12.11097, 50.27662], [12.10725, 50.29089], [12.09919, 50.29977], [12.07614, 50.31517], [12.14931, 50.31171], [12.16854, 50.30298], [12.17443, 50.29373], [12.17412, 50.27657], [12.17805, 50.26877], [12.18921, 50.26246], [12.20378, 50.25957], [12.23964, 50.25657], [12.24244, 50.24835], [12.22983, 50.23905], [12.22993, 50.23482], [12.25432, 50.2174], [12.27323, 50.17234], [12.28336, 50.16221], [12.30042, 50.16081], [12.31437, 50.16733], [12.31437, 50.17621], [12.30558, 50.19931], [12.30869, 50.21709], [12.31406, 50.2265], [12.3338, 50.24272], [12.33649, 50.25859], [12.36718, 50.27905], [12.39819, 50.31517], [12.45017, 50.33936], [12.46682, 50.34189], [12.46898, 50.34556], [12.46682, 50.35491], [12.47508, 50.36943], [12.51022, 50.38876], [12.55053, 50.39636], [12.62536, 50.39992], [12.69181, 50.39465], [12.73791, 50.43155], [12.75424, 50.43532], [12.78814, 50.43434], [12.81739, 50.44302], [12.91836, 50.4054], [12.95257, 50.40416], [12.9966, 50.43367], [13.00311, 50.45191], [13.00962, 50.49268], [13.02626, 50.49764], [13.06037, 50.49061], [13.1074, 50.49899], [13.16011, 50.49702], [13.1847, 50.50875], [13.19907, 50.52534], [13.23235, 50.58203], [13.25178, 50.58089], [13.28465, 50.56896], [13.30563, 50.57578], [13.32185, 50.60239], [13.35937, 50.61934], [13.36877, 50.62833], [13.38097, 50.62549], [13.40702, 50.60131], [13.42934, 50.59433], [13.44794, 50.59727], [13.49817, 50.62916], [13.4991, 50.6352], [13.49332, 50.64321], [13.50995, 50.65122], [13.52329, 50.66218], [13.52721, 50.67567], [13.51564, 50.69102], [13.55657, 50.70672], [13.60194, 50.71215], [13.69175, 50.71184], [13.74906, 50.72321], [13.77066, 50.7246], [13.81655, 50.72135], [13.83454, 50.72368], [13.86347, 50.73515], [13.87536, 50.73654], [13.88218, 50.74274], [13.87908, 50.76352], [13.88332, 50.77323], [13.89252, 50.78042], [13.92332, 50.77995], [13.95959, 50.80207], [13.97913, 50.80476], [14.03494, 50.80259], [14.19079, 50.8479], [14.23213, 50.87938], [14.2681, 50.88413], [14.34655, 50.8802], [14.3759, 50.89596], [14.38189, 50.92087], [14.35523, 50.93064], [14.31833, 50.93751], [14.2928, 50.95348], [14.29373, 50.96397], [14.30376, 50.96971], [14.28381, 50.97482], [14.25001, 50.97761], [14.23833, 50.98247], [14.2495, 50.99265], [14.26355, 51.02143], [14.28753, 51.03683], [14.31936, 51.04001], [14.35657, 51.03234], [14.3759, 51.01699], [14.39781, 51.01311], [14.42582, 51.02094], [14.46209, 51.01965], [14.47346, 51.02337], [14.48214, 51.0372], [14.49351, 51.01671], [14.50292, 51.00852], [14.51532, 51.00304], [14.54229, 50.99875], [14.55459, 50.99265], [14.57433, 50.97549], [14.57743, 50.96573], [14.57558, 50.95069], [14.55584, 50.92428], [14.55036, 50.91209], [14.56183, 50.90635], [14.61712, 50.92087], [14.62922, 50.92072], [14.63459, 50.9094], [14.61185, 50.87095], [14.60834, 50.85307], [14.61319, 50.84558], [14.64792, 50.83938], [14.70042, 50.81597], [14.73753, 50.8107], [14.77536, 50.81297], [14.79458, 50.83163], [14.81039, 50.85845], [14.8105, 50.87705], [14.82465, 50.89183], [14.86021, 50.91684], [14.95529, 51.06404], [14.96025, 51.10458], [14.98, 51.1228], [14.9832, 51.16091], [14.99136, 51.18897], [15.0049, 51.21561], [15.02206, 51.23677], [15.01431, 51.24266], [15.01948, 51.27168], [15.0049, 51.29129], [14.98227, 51.30801], [14.96377, 51.32839], [14.96098, 51.33529], [14.94692, 51.42291], [14.9554, 51.43541], [14.94506, 51.44919], [14.91095, 51.46898], [14.8414, 51.48443], [14.79747, 51.5021], [14.73216, 51.51582], [14.71004, 51.53024], [14.70456, 51.54799], [14.71272, 51.56742], [14.73216, 51.58662], [14.74394, 51.60664], [14.74228, 51.63297], [14.73246, 51.65835], [14.71955, 51.67563], [14.67097, 51.70077], [14.64844, 51.71721], [14.6381, 51.74263], [14.63418, 51.76901], [14.62033, 51.78054], [14.60224, 51.78831], [14.58581, 51.80389], [14.58281, 51.82508], [14.59594, 51.84242], [14.6533, 51.87862], [14.67169, 51.89389], [14.68709, 51.9119], [14.69557, 51.93146], [14.69908, 51.99251], [14.72606, 52.02644], [14.73536, 52.05403], [14.7614, 52.07667], [14.69639, 52.10669], [14.68637, 52.12103], [14.69247, 52.14697], [14.70322, 52.16516], [14.70704, 52.17945], [14.69257, 52.19338], [14.69257, 52.19958], [14.7121, 52.21544], [14.71241, 52.23591], [14.69691, 52.25348], [14.64048, 52.26505], [14.60658, 52.27575], [14.58415, 52.29123], [14.59015, 52.30942], [14.56917, 52.33851], [14.5454, 52.38215], [14.53982, 52.42187], [14.59159, 52.4498], [14.61578, 52.47328], [14.63232, 52.49674], [14.62767, 52.50742], [14.60906, 52.5178], [14.61681, 52.54103], [14.64482, 52.57692], [14.61371, 52.59253], [14.54994, 52.63619], [14.4901, 52.65064], [14.46137, 52.67456], [14.43192, 52.68609], [14.39771, 52.72712], [14.3822, 52.73815], [14.27595, 52.78572], [14.24867, 52.79458], [14.21601, 52.81799], [14.19596, 52.82337], [14.15276, 52.82833], [14.1354, 52.8366], [14.12392, 52.85065], [14.15048, 52.86463], [14.16082, 52.87675], [14.16495, 52.89566], [14.14449, 52.95992], [14.19286, 52.98165], [14.25373, 53.00088], [14.31264, 53.02922], [14.34334, 53.04862], [14.35678, 53.06668], [14.38954, 53.13167], [14.37786, 53.17655], [14.38065, 53.18986], [14.38778, 53.20208], [14.41559, 53.22099], [14.44163, 53.25184], [14.40329, 53.27879], [14.39801, 53.31522], [14.37032, 53.3923], [14.35988, 53.44408], [14.3389, 53.46521], [14.32846, 53.48609], [14.30417, 53.50852], [14.29694, 53.52914], [14.29704, 53.59776], [14.27606, 53.63662], [14.26097, 53.65621], [14.2651, 53.67176], [14.2639, 53.69998], [14.29168, 53.70527], [14.30486, 53.71255], [14.30616, 53.72069], [14.28858, 53.72797], [14.30161, 53.73485], [14.28858, 53.74164], [14.2942, 53.74909], [14.33041, 53.7342], [14.34205, 53.71491], [14.38356, 53.70063], [14.41456, 53.68236], [14.45867, 53.67788], [14.51238, 53.66645], [14.53102, 53.65778], [14.59059, 53.59837], [14.59588, 53.6013], [14.59702, 53.61734], [14.60157, 53.62665], [14.62379, 53.63923], [14.62379, 53.65282], [14.57594, 53.65965], [14.54493, 53.70405], [14.55144, 53.72614], [14.57594, 53.76952], [14.58741, 53.76349], [14.60825, 53.76903], [14.62379, 53.76952], [14.61671, 53.79474], [14.63063, 53.85151], [14.62379, 53.85151], [14.62135, 53.83955], [14.61354, 53.83161], [14.58961, 53.81733], [14.59588, 53.81049], [14.58709, 53.81265], [14.5691, 53.82416], [14.58961, 53.83784], [14.57586, 53.8548], [14.55209, 53.86278], [14.44117, 53.86962], [14.42555, 53.87983], [14.43816, 53.89932], [14.4319, 53.90615], [14.42205, 53.89614], [14.41424, 53.89472], [14.39381, 53.89932], [14.3851, 53.89728], [14.36305, 53.87938], [14.39291, 53.87596], [14.40919, 53.87157], [14.41765, 53.86514], [14.4157, 53.85301], [14.40528, 53.84418], [14.39259, 53.84072], [14.38356, 53.84467], [14.35621, 53.83446], [14.3283, 53.831], [14.3283, 53.82416], [14.34205, 53.82099], [14.34132, 53.81891], [14.31886, 53.81818], [14.27467, 53.8308], [14.22657, 53.87197], [14.20082, 53.87816], [14.19276, 53.89377], [14.17529, 53.90648], [14.19307, 53.91149], [14.21005, 53.93846], [14.26808, 53.92182], [14.36703, 53.91698], [14.40675, 53.92182], [14.44557, 53.93403], [14.51735, 53.96524], [14.78191, 54.03461], [15.0101, 54.06981], [15.28834, 54.13886], [15.66578, 54.19843], [15.85971, 54.24999], [16.02084, 54.26179], [16.13152, 54.28352], [16.11891, 54.27603], [16.06935, 54.26301], [16.09108, 54.25397], [16.17921, 54.26301], [16.17921, 54.26919], [16.17237, 54.26919], [16.17237, 54.2766], [16.22006, 54.2766], [16.21957, 54.28148], [16.21323, 54.28352], [16.21518, 54.29963], [16.19215, 54.30028], [16.13771, 54.29027], [16.21355, 54.31611], [16.2754, 54.35859], [16.26287, 54.34369], [16.23178, 54.32258], [16.27491, 54.33047], [16.28883, 54.34024], [16.3239, 54.34992], [16.33676, 54.35859], [16.32488, 54.37311], [16.30502, 54.37348], [16.28159, 54.35859], [16.32399, 54.40131], [16.43979, 54.48827], [16.43442, 54.47236], [16.44451, 54.46988], [16.46062, 54.47346], [16.4734, 54.48212], [16.47975, 54.49555], [16.47389, 54.49966], [16.44606, 54.48827], [16.46656, 54.51215], [16.50131, 54.53242], [16.56959, 54.5572], [16.77849, 54.57514], [16.85963, 54.59394], [16.90219, 54.59813], [16.93995, 54.60602], [17.03582, 54.66706], [17.33741, 54.74901], [17.71567, 54.79043], [17.88543, 54.82412], [18.15235, 54.83832], [18.3169, 54.83832], [18.33953, 54.83348], [18.37582, 54.81513], [18.41017, 54.8083], [18.75172, 54.69009], [18.81397, 54.64321], [18.83432, 54.61668], [18.8353, 54.6031], [18.81764, 54.59813], [18.80226, 54.61603], [18.78403, 54.62352], [18.77182, 54.64228], [18.75538, 54.65449], [18.70777, 54.70124], [18.65455, 54.71015], [18.64503, 54.71955], [18.61671, 54.72525], [18.55698, 54.74901], [18.49822, 54.76537], [18.48878, 54.77318], [18.45631, 54.78766], [18.44777, 54.78998], [18.43556, 54.78681], [18.42921, 54.78168], [18.4131, 54.74653], [18.4131, 54.73192], [18.44777, 54.71825], [18.47446, 54.68757], [18.47039, 54.66673], [18.48194, 54.65961], [18.47592, 54.64008], [18.48731, 54.63178], [18.50636, 54.6341], [18.52296, 54.64655], [18.5171, 54.62995], [18.52516, 54.61668], [18.53761, 54.60545], [18.57065, 54.55036], [18.56674, 54.52741], [18.56756, 54.48786], [18.57407, 54.45038], [18.58806, 54.43366], [18.60377, 54.43061], [18.63429, 54.41694], [18.68002, 54.40998], [18.69435, 54.40453], [18.7173, 54.38202], [18.88592, 54.35016], [18.92319, 54.34854], [18.95436, 54.35859], [18.97462, 54.34976], [19.00213, 54.34492], [19.37721, 54.37763], [19.45997, 54.40103], [19.49928, 54.4064], [19.53102, 54.41494], [19.59254, 54.45238], [19.60955, 54.45673], [19.63077, 54.44665], [19.68028, 54.43668], [22.69839, 54.34294], [22.76722, 54.35627], [22.70697, 54.41875], [22.6804, 54.45322], [22.67462, 54.49228], [22.68175, 54.5699], [22.70366, 54.61755], [22.7081, 54.63563], [22.70087, 54.67956], [22.72702, 54.70534], [22.72278, 54.71857], [22.72484, 54.72338], [22.76484, 54.73712], [22.78665, 54.75599], [22.83285, 54.77867], [22.84577, 54.79614], [22.84835, 54.81381], [22.84432, 54.83226], [22.82934, 54.87272], [22.82127, 54.88549], [22.80887, 54.89376], [22.74924, 54.90988], [22.74097, 54.91763], [22.75213, 54.93112], [22.7388, 54.93412], [22.71554, 54.95138], [22.64991, 54.95287], [22.63348, 54.95794], [22.6217, 54.97003], [22.60837, 54.99241], [22.59162, 55.03762], [22.58067, 55.05762], [22.56547, 55.0678], [22.54108, 55.07576], [22.43628, 55.05778], [22.25128, 55.07085], [22.14266, 55.05463], [22.11847, 55.03778], [22.09987, 55.02992], [22.07682, 55.02858], [22.04995, 55.03354], [22.02773, 55.04439], [22.01863, 55.06093], [22.01543, 55.08842], [22.00344, 55.09349], [21.9775, 55.09199], [21.94277, 55.07829], [21.90856, 55.08987], [21.87322, 55.09493], [21.81989, 55.11932], [21.75064, 55.12795], [21.73338, 55.13633], [21.71622, 55.14945], [21.64584, 55.18103], [21.60512, 55.1925], [21.50394, 55.19441], [21.46766, 55.21115], [21.40555, 55.27239], [21.37485, 55.28996], [21.34984, 55.28779], [21.26759, 55.24868], [21.26441, 55.284], [21.27084, 55.28803], [21.28533, 55.28706], [21.29119, 55.29707], [21.28924, 55.30524], [21.27418, 55.32734], [21.25945, 55.33625], [21.25636, 55.34675], [21.25709, 55.36937], [21.24659, 55.37018], [21.18881, 55.33861], [21.18328, 55.34837], [21.22429, 55.39932], [21.2483, 55.41787], [21.24838, 55.44233], [21.22291, 55.52021], [21.19939, 55.53766], [21.19508, 55.54719], [21.19809, 55.57477], [21.19508, 55.58511], [21.15756, 55.64175], [21.15016, 55.65933], [21.14723, 55.67817], [21.1408, 55.68814], [21.09938, 55.72907], [21.07439, 55.74494], [21.06984, 55.76972], [21.06056, 55.78925], [21.04469, 55.87373], [21.04469, 55.91771], [21.04689, 55.92866], [21.05616, 55.94253], [21.05836, 55.95185], [21.05836, 56.03754], [21.05258, 56.07754], [21.04274, 56.11457], [21.02882, 56.14741], [20.98406, 56.21043], [20.9734, 56.232], [20.96909, 56.25348], [20.98268, 56.29076], [20.98146, 56.31049], [20.97096, 56.34984], [20.9686, 56.36982], [20.97055, 56.38898], [20.97902, 56.40436], [20.99252, 56.41791], [21.00318, 56.4348], [21.00554, 56.46552], [21.01059, 56.47574], [21.00327, 56.49258], [21.0005, 56.51065], [21.00636, 56.51996], [21.02426, 56.51048], [21.03053, 56.50015], [21.03582, 56.47394], [21.04469, 56.4621], [21.03053, 56.44843], [21.04469, 56.44221], [21.04469, 56.42113], [21.03053, 56.40811], [21.0534, 56.38996], [21.06178, 56.38703], [21.07716, 56.39521], [21.07976, 56.40306], [21.06861, 56.42406], [21.06666, 56.44184], [21.07211, 56.46955], [21.05836, 56.50365], [21.04811, 56.51561], [21.03053, 56.52416], [21.0031, 56.53001], [20.9922, 56.5489], [21.00034, 56.55768], [21.01051, 56.5987], [21.04615, 56.65619], [21.05836, 56.68867], [21.0652, 56.77432], [21.05421, 56.81196], [21.05275, 56.82892], [21.0652, 56.84634], [21.14723, 56.87641], [21.15675, 56.88556], [21.22291, 56.9077], [21.24098, 56.91828], [21.2776, 56.94912], [21.36012, 56.98969], [21.3825, 57.00894], [21.40162, 57.0375], [21.41359, 57.07319], [21.41481, 57.11384], [21.40105, 57.15131], [21.40317, 57.16206], [21.41481, 57.18488], [21.41261, 57.25007], [21.41481, 57.2709], [21.4214, 57.28872], [21.4336, 57.30646], [21.44947, 57.32001], [21.48024, 57.33364], [21.51775, 57.3876], [21.58912, 57.43879], [21.69923, 57.55533], [21.72967, 57.5738], [21.77166, 57.58613], [21.9559, 57.59296], [21.99928, 57.60033], [22.48373, 57.7425], [22.54908, 57.75064], [22.58579, 57.75971], [22.61036, 57.75462], [22.60027, 57.74384], [22.59083, 57.70612], [22.58717, 57.66498], [22.59099, 57.64476], [22.60076, 57.63011], [22.6561, 57.58576], [22.87892, 57.48127], [22.95037, 57.43281], [23.03142, 57.39448], [23.08334, 57.37824], [23.13022, 57.3708], [23.13803, 57.34317], [23.16456, 57.31367], [23.17457, 57.29735], [23.18238, 57.27766], [23.1902, 57.2425], [23.19874, 57.22419], [23.21355, 57.21625], [23.22242, 57.20702], [23.2505, 57.11445], [23.26092, 57.09894], [23.29265, 57.08893], [23.3401, 57.05858], [23.42286, 57.04023], [23.50856, 57.03124], [23.52084, 57.02558], [23.56967, 56.98627], [23.58513, 56.97907], [23.63201, 56.97093], [23.69516, 56.96727], [23.86606, 56.99018], [23.95289, 57.01325], [23.99122, 57.03124], [24.03565, 57.069], [24.07456, 57.07494], [24.21079, 57.12373], [24.21925, 57.13801], [24.23862, 57.14956], [24.27858, 57.16104], [24.27882, 57.17178], [24.28875, 57.1789], [24.31267, 57.1883], [24.37916, 57.23021], [24.40065, 57.25812], [24.40886, 57.29816], [24.40553, 57.34447], [24.3816, 57.46943], [24.37989, 57.50654], [24.37517, 57.52855], [24.36451, 57.5384], [24.35857, 57.55036], [24.36297, 57.57661], [24.37477, 57.61347], [24.36305, 57.67227], [24.35768, 57.68549], [24.31373, 57.72504], [24.29957, 57.74384], [24.29957, 57.76191], [24.28598, 57.83259], [24.28883, 57.84528], [24.29615, 57.85737], [24.32439, 57.88679], [24.33383, 57.92133], [24.38111, 57.98383], [24.39829, 58.02326], [24.44654, 58.05451], [24.46412, 58.07217], [24.46412, 58.12055], [24.47291, 58.15473], [24.45509, 58.18525], [24.45484, 58.19644], [24.46754, 58.21784], [24.46762, 58.23981], [24.47096, 58.25092], [24.49147, 58.26569], [24.54851, 58.28929], [24.56039, 58.31232], [24.55104, 58.33373], [24.52882, 58.35065], [24.44418, 58.38614], [24.40317, 58.39533], [24.36183, 58.39728], [24.327, 58.38813], [24.31593, 58.37995], [24.29575, 58.35497], [24.28688, 58.31855], [24.24334, 58.28022], [24.22885, 58.27412], [24.21079, 58.27139], [24.15602, 58.27684], [24.13893, 58.26797], [24.12086, 58.24518], [24.11166, 58.24103], [24.09409, 58.2447], [24.08351, 58.25088], [24.05323, 58.27827], [24.00709, 58.30052], [23.98024, 58.31843], [23.91383, 58.33332], [23.87371, 58.33519], [23.85467, 58.33967], [23.83351, 58.35395], [23.82447, 58.35456], [23.80568, 58.3465], [23.77711, 58.35497], [23.75563, 58.34003], [23.74855, 58.33906], [23.74098, 58.34309], [23.72926, 58.36286], [23.71892, 58.39956], [23.68336, 58.42219], [23.67742, 58.43525], [23.68336, 58.47004], [23.68434, 58.49966], [23.67897, 58.52416], [23.66383, 58.5362], [23.63494, 58.52839], [23.62241, 58.52912], [23.58432, 58.54487], [23.5735, 58.55195], [23.56121, 58.58316], [23.54615, 58.5799], [23.51637, 58.55463], [23.50147, 58.56249], [23.49806, 58.57221], [23.51824, 58.60375], [23.49318, 58.67341], [23.49773, 58.6966], [23.50652, 58.70539], [23.51482, 58.70669], [23.5359, 58.70279], [23.54322, 58.7049], [23.54664, 58.70962], [23.54623, 58.7143], [23.53004, 58.72285], [23.52735, 58.73615], [23.53305, 58.74746], [23.54615, 58.74775], [23.58448, 58.73794], [23.62176, 58.7414], [23.65895, 58.74893], [23.69703, 58.75117], [23.75522, 58.73359], [23.8025, 58.7307], [23.80665, 58.74095], [23.80486, 58.74799], [23.78338, 58.75585], [23.77955, 58.76642], [23.78549, 58.77798], [23.79949, 58.78535], [23.81617, 58.78461], [23.85515, 58.77326], [23.87436, 58.77167], [23.84742, 58.78824], [23.81568, 58.79995], [23.78419, 58.80097], [23.75766, 58.78535], [23.73951, 58.798], [23.71909, 58.79906], [23.67652, 58.79218], [23.60336, 58.79483], [23.58033, 58.79218], [23.56031, 58.78583], [23.54274, 58.77538], [23.50489, 58.77912], [23.48552, 58.77733], [23.42945, 58.76484], [23.46656, 58.80073], [23.48569, 58.80964], [23.51881, 58.81265], [23.52613, 58.81977], [23.46363, 58.86416], [23.45509, 58.883], [23.42237, 58.90868], [23.42205, 58.9287], [23.4437, 58.94404], [23.5101, 58.9416], [23.53191, 58.95669], [23.54916, 58.95083], [23.5669, 58.95014], [23.58448, 58.95356], [23.61671, 58.96768], [23.62485, 58.9726], [23.6277, 58.97915], [23.6281, 58.9914], [23.62159, 59.01533], [23.60548, 59.03266], [23.58351, 59.04474], [23.55983, 59.0528], [23.57228, 59.03974], [23.6019, 59.02448], [23.61443, 59.0113], [23.58033, 59.00507], [23.55983, 58.9914], [23.55299, 58.97089], [23.54331, 58.96988], [23.52565, 58.98395], [23.46127, 58.99238], [23.43483, 59.00381], [23.40838, 59.02558], [23.43629, 59.02558], [23.42921, 59.04361], [23.43491, 59.0561], [23.49073, 59.08828], [23.50123, 59.08543], [23.51824, 59.07331], [23.51938, 59.12499], [23.48618, 59.17414], [23.47088, 59.21214], [23.52565, 59.23041], [23.56967, 59.22419], [23.57846, 59.2263], [23.59278, 59.23566], [23.61549, 59.24177], [23.64186, 59.25739], [23.66228, 59.25829], [23.71551, 59.23168], [23.73048, 59.23041], [23.7422, 59.23941], [23.74293, 59.25015], [23.73601, 59.25959], [23.72364, 59.26508], [23.73487, 59.27774], [23.75685, 59.28364], [23.84539, 59.28465], [23.88884, 59.27875], [23.93556, 59.28059], [23.98764, 59.29092], [24.03859, 59.29328], [24.08058, 59.27131], [24.10011, 59.2945], [24.09205, 59.31257], [24.02817, 59.35765], [24.01938, 59.36726], [24.02223, 59.37812], [24.03484, 59.38866], [24.04819, 59.39509], [24.063, 59.39737], [24.08058, 59.39545], [24.10865, 59.38483], [24.16489, 59.35407], [24.19386, 59.34772], [24.22193, 59.35517], [24.21339, 59.37226], [24.18727, 59.39069], [24.1631, 59.40229], [24.18287, 59.40876], [24.27125, 59.4121], [24.30616, 59.41909], [24.31772, 59.43098], [24.33383, 59.47061], [24.39967, 59.47883], [24.42254, 59.47744], [24.44215, 59.46988], [24.47828, 59.44839], [24.4983, 59.44383], [24.51677, 59.44823], [24.54819, 59.46296], [24.56715, 59.46003], [24.62485, 59.43891], [24.64259, 59.43643], [24.66049, 59.44062], [24.65659, 59.4499], [24.64039, 59.45905], [24.62184, 59.46312], [24.62184, 59.47061], [24.64812, 59.46922], [24.65854, 59.47207], [24.66627, 59.49209], [24.67498, 59.49604], [24.69752, 59.49103], [24.71559, 59.4759], [24.72828, 59.45856], [24.7444, 59.44721], [24.77263, 59.4501], [24.79005, 59.45893], [24.81577, 59.48933], [24.80681, 59.50471], [24.78354, 59.51984], [24.77898, 59.54548], [24.77263, 59.55996], [24.80348, 59.5705], [24.84164, 59.55443], [24.90919, 59.51154], [24.93442, 59.50804], [25.01222, 59.51838], [25.03582, 59.5152], [25.07716, 59.50104], [25.09783, 59.49787], [25.11647, 59.50312], [25.10792, 59.529], [25.12208, 59.5395], [25.14552, 59.53913], [25.1941, 59.52265], [25.40943, 59.49103], [25.40235, 59.51431], [25.41578, 59.52709], [25.44011, 59.53213], [25.53321, 59.53205], [25.54371, 59.53514], [25.54331, 59.54222], [25.53614, 59.5493], [25.52573, 59.55248], [25.49708, 59.57087], [25.48194, 59.61115], [25.47853, 59.65152], [25.48487, 59.66983], [25.50245, 59.66226], [25.53533, 59.62897], [25.57504, 59.61689], [25.62233, 59.58047], [25.64454, 59.57185], [25.67677, 59.56607], [25.7059, 59.56928], [25.71852, 59.58759], [25.71079, 59.60456], [25.69557, 59.61591], [25.68483, 59.62865], [25.69068, 59.64936], [25.67066, 59.6555], [25.69467, 59.67088], [25.72535, 59.66584], [25.78053, 59.63569], [25.77312, 59.62824], [25.78541, 59.61547], [25.79371, 59.59121], [25.80738, 59.58047], [25.82618, 59.57526], [25.84449, 59.57734], [25.86134, 59.58613], [25.87623, 59.6009], [25.86883, 59.60773], [25.88307, 59.63133], [25.90447, 59.62401], [25.94451, 59.59467], [25.96502, 59.59732], [25.96705, 59.60383], [25.96274, 59.61254], [25.96437, 59.62141], [25.9769, 59.63125], [25.98854, 59.63435], [26.03639, 59.62324], [26.07447, 59.60431], [26.07838, 59.60029], [26.08172, 59.58731], [26.09099, 59.58564], [26.28004, 59.58731], [26.29933, 59.58422], [26.3401, 59.5705], [26.4017, 59.56306], [26.45769, 59.54588], [26.49781, 59.53998], [26.51987, 59.5395], [26.53647, 59.54267], [26.58473, 59.55996], [26.62631, 59.55805], [26.66505, 59.55195], [26.70232, 59.54141], [26.73902, 59.52582], [26.82691, 59.47695], [26.87574, 59.46772], [26.93767, 59.4501], [27.11622, 59.44204], [27.40903, 59.45189], [27.56316, 59.43207], [27.71705, 59.42715], [27.8733, 59.40762], [27.91472, 59.41454], [27.95346, 59.42817], [27.98316, 59.44697], [28.01905, 59.48176], [28.03858, 59.46299], [28.08343, 59.45089], [28.10483, 59.43921], [28.1378, 59.40035], [28.18648, 59.37493], [28.18182, 59.35607], [28.15754, 59.36403], [28.11356, 59.34542], [28.03238, 59.34196], [28.00065, 59.33374], [28.0732, 59.31896], [28.09687, 59.31943], [28.07661, 59.30527], [27.95972, 59.30646], [27.90391, 59.29039], [27.88231, 59.27566], [27.89078, 59.25804], [27.87352, 59.23649], [27.84241, 59.1612], [27.78433, 59.07717], [27.76717, 59.05593], [27.72439, 59.01443], [27.71333, 58.9919], [27.69441, 58.97594], [27.47779, 58.87543], [27.41061, 58.75486], [27.55489, 58.39525], [27.49412, 58.31954], [27.48285, 58.26864], [27.49535, 58.22146], [27.57969, 58.12586], [27.63044, 58.08829], [27.63659, 58.0592], [27.63013, 58.033], [27.63157, 58.00416], [27.65064, 58.00008], [27.66909, 57.99197], [27.67519, 57.96781], [27.65938, 57.93246], [27.66496, 57.9184], [27.67312, 57.91282], [27.77441, 57.8907], [27.79084, 57.88086], [27.79932, 57.86107], [27.78681, 57.84758], [27.76345, 57.83867], [27.70072, 57.82484], [27.53763, 57.81156], [27.5246, 57.8073], [27.55385, 57.79477], [27.52615, 57.78728], [27.51241, 57.78131], [27.50243, 57.77255], [27.49783, 57.75567], [27.50889, 57.72746], [27.50776, 57.71477], [27.49039, 57.70462], [27.40771, 57.68899], [27.39143, 57.6802], [27.3797, 57.66645], [27.37702, 57.65671], [27.38699, 57.62765], [27.38208, 57.60269], [27.36255, 57.59455], [27.3366, 57.59173], [27.32803, 57.58315], [27.32854, 57.57057], [27.33557, 57.5539], [27.35293, 57.5276], [27.52817, 57.52848], [27.52279, 57.49202], [27.52564, 57.46838], [27.51484, 57.44789], [27.51132, 57.4304], [27.53628, 57.41569], [27.64082, 57.389], [27.70795, 57.34813], [27.80913, 57.31394], [27.82774, 57.30495], [27.8403, 57.29064], [27.84613, 57.26731], [27.84117, 57.21121], [27.83394, 57.18049], [27.82433, 57.15907], [27.79405, 57.14339], [27.70097, 57.11879], [27.68222, 57.1037], [27.69607, 57.08546], [27.74547, 57.06799], [27.75074, 57.04236], [27.72335, 56.9988], [27.71514, 56.9574], [27.64873, 56.87927], [27.62837, 56.84415], [27.66118, 56.83927], [27.74407, 56.8648], [27.7864, 56.87126], [27.83084, 56.86428], [27.91352, 56.82015], [27.91889, 56.80589], [27.87611, 56.75943], [27.86546, 56.74269], [27.88262, 56.72548], [27.98101, 56.68701], [27.99134, 56.66998], [27.99217, 56.62499], [27.99744, 56.60383], [28.01098, 56.58756], [28.02866, 56.57675], [28.10865, 56.55518], [28.12612, 56.54776], [28.13221, 56.53598], [28.12524, 56.52714], [28.09925, 56.5134], [28.09325, 56.50159], [28.09645, 56.49195], [28.10452, 56.48307], [28.16426, 56.43795], [28.16787, 56.42712], [28.16426, 56.39281], [28.16715, 56.36987], [28.17443, 56.34964], [28.21479, 56.28137], [28.21728, 56.27073], [28.21531, 56.256], [28.19314, 56.23104], [28.16911, 56.16174], [28.14891, 56.14241], [28.11098, 56.15681], [28.06824, 56.14758], [28.0238, 56.12965], [27.98101, 56.11802], [27.93967, 56.11306], [27.91145, 56.10025], [27.88065, 56.06387], [27.81255, 56.03451], [27.78123, 56.01637], [27.77699, 55.9924], [27.74443, 55.95974], [27.64501, 55.92284], [27.61716, 55.87855], [27.61013, 55.83096], [27.59271, 55.79424], [27.5646, 55.79223], [27.43882, 55.79874], [27.40585, 55.80435], [27.37459, 55.81484], [27.34963, 55.83122], [27.28245, 55.79187], [27.26302, 55.78722], [27.23553, 55.79585], [27.1732, 55.82574], [27.15145, 55.83246], [27.11078, 55.83628], [26.98107, 55.82688], [26.95782, 55.81858], [26.90015, 55.77871], [26.84278, 55.71934], [26.82284, 55.70611], [26.74305, 55.68286], [26.72011, 55.68187], [26.66688, 55.69397], [26.64011, 55.69557], [26.61561, 55.68797], [26.59453, 55.66699], [26.60383, 55.64327], [26.60766, 55.61645], [26.60518, 55.5901], [26.59557, 55.56803], [26.53211, 55.51625], [26.52766, 55.49217], [26.54647, 55.47124], [26.54327, 55.45961], [26.50782, 55.43915], [26.49924, 55.42809], [26.48601, 55.39083], [26.45521, 55.3561], [26.4455, 55.3375], [26.45004, 55.32706], [26.46575, 55.32086], [26.52539, 55.3081], [26.54234, 55.30758], [26.6027, 55.31688], [26.76863, 55.30024], [26.79157, 55.29017], [26.80072, 55.27332], [26.78966, 55.2572], [26.76558, 55.24671], [26.70109, 55.23684], [26.68569, 55.23162], [26.65696, 55.21534], [26.64114, 55.20283], [26.63391, 55.19219], [26.6275, 55.16444], [26.61634, 55.1354], [26.60094, 55.12082], [26.57893, 55.11855], [26.4734, 55.14568], [26.45914, 55.14475], [26.43857, 55.13002], [26.42875, 55.12821], [26.30948, 55.14464], [26.26442, 55.1401], [26.233, 55.11162], [26.23032, 55.10025], [26.23125, 55.07545], [26.22463, 55.05488], [26.18784, 55.00874], [26.13864, 54.96895], [26.10257, 54.95701], [25.98113, 54.94269], [25.90786, 54.94807], [25.87023, 54.93882], [25.85845, 54.93298], [25.84667, 54.90621], [25.7827, 54.86968], [25.77226, 54.85086], [25.78228, 54.82198], [25.7829, 54.81371], [25.77846, 54.80529], [25.75675, 54.80038], [25.73495, 54.78906], [25.7243, 54.78012], [25.7212, 54.76674], [25.72461, 54.71568], [25.71913, 54.69475], [25.70952, 54.67563], [25.70838, 54.66302], [25.7151, 54.64323], [25.73991, 54.60773], [25.74559, 54.5884], [25.74042, 54.56851], [25.72647, 54.55295], [25.70735, 54.54153], [25.64616, 54.52039], [25.63087, 54.50835], [25.61991, 54.4881], [25.61258, 54.4218], [25.5947, 54.40009], [25.54881, 54.36774], [25.53, 54.34614], [25.52865, 54.32097], [25.5423, 54.30806], [25.564, 54.30315], [25.60741, 54.30485], [25.68234, 54.32563], [25.69598, 54.32097], [25.71924, 54.28155], [25.73929, 54.28258], [25.75779, 54.26899], [25.77226, 54.24894], [25.78662, 54.24232], [25.78921, 54.23622], [25.77195, 54.21788], [25.77102, 54.17215], [25.76306, 54.15644], [25.74001, 54.14626], [25.69061, 54.14822], [25.67976, 54.14533], [25.66394, 54.13236], [25.6535, 54.12874], [25.63159, 54.12832], [25.54302, 54.13696], [25.51604, 54.14476], [25.49331, 54.15752], [25.48576, 54.1754], [25.4932, 54.18243], [25.52173, 54.18822], [25.52896, 54.19566], [25.52338, 54.20424], [25.4993, 54.21183], [25.50168, 54.22176], [25.52214, 54.22863], [25.5455, 54.22749], [25.55398, 54.23127], [25.47868, 54.29333], [25.45935, 54.29891], [25.43414, 54.29183], [25.39404, 54.25715], [25.36975, 54.2479], [25.28758, 54.24522], [25.22412, 54.25855], [25.20624, 54.25679], [25.19353, 54.24367], [25.17307, 54.19659], [25.15653, 54.17571], [25.1156, 54.14879], [25.07199, 54.1322], [25.02713, 54.12786], [24.94827, 54.1459], [24.90228, 54.14977], [24.85598, 54.14672], [24.82156, 54.13453], [24.81753, 54.12822], [24.81815, 54.11013], [24.79945, 54.10321], [24.79056, 54.0966], [24.78425, 54.09623], [24.7825, 54.09287], [24.78715, 54.07763], [24.81247, 54.03892], [24.82136, 54.01991], [24.81939, 53.99257], [24.80637, 53.97531], [24.7887, 53.96968], [24.7056, 53.9642], [24.69082, 53.97283], [24.6779, 53.99231], [24.66684, 53.99386], [24.64297, 53.98301], [24.5791, 53.97562], [24.52866, 53.95836], [24.41404, 53.89769], [24.37787, 53.88684], [24.25705, 53.89402], [24.24641, 53.90364], [24.22915, 53.93237], [24.20114, 53.95247], [24.16962, 53.95893], [24.13675, 53.95542], [24.07494, 53.93573], [24.04538, 53.93087], [23.98131, 53.9304], [23.96487, 53.93273], [23.91981, 53.94777], [23.90472, 53.94606], [23.82834, 53.92007], [23.81212, 53.92084], [23.78721, 53.92792], [23.75445, 53.91676], [23.69192, 53.91149], [23.64262, 53.89899], [23.62712, 53.89821], [23.60996, 53.90183], [23.52014, 53.93397], [23.48562, 53.93929], [23.48687, 53.90999], [23.52066, 53.83734], [23.52986, 53.78416], [23.5404, 53.76359], [23.56479, 53.7424], [23.56707, 53.68101], [23.59094, 53.61125], [23.6758, 53.45571], [23.72292, 53.3971], [23.74297, 53.36548], [23.78297, 53.27094], [23.80064, 53.24246], [23.81863, 53.22797], [23.84808, 53.18381], [23.88312, 53.16399], [23.89366, 53.15195], [23.89139, 53.12771], [23.86069, 53.08748], [23.85935, 53.06798], [23.86793, 53.05103], [23.89821, 53.02754], [23.90968, 53.01273], [23.91134, 53.00506], [23.90906, 52.98666], [23.91795, 52.9508], [23.9011, 52.92326], [23.90203, 52.91253], [23.91206, 52.89385], [23.9225, 52.7426], [23.90875, 52.69986], [23.86896, 52.67004], [23.73615, 52.6149], [23.56903, 52.58589], [23.48046, 52.55442], [23.3923, 52.50964], [23.27055, 52.39512], [23.23045, 52.36507], [23.21205, 52.3475], [23.16565, 52.28939], [23.18352, 52.28131], [23.19448, 52.27146], [23.19768, 52.25831], [23.18973, 52.24053], [23.21226, 52.23167], [23.28419, 52.21973], [23.29959, 52.22343], [23.31272, 52.21529], [23.37483, 52.20095], [23.39581, 52.19958], [23.39581, 52.19338], [23.38847, 52.18415], [23.39137, 52.1825], [23.40573, 52.18591], [23.43674, 52.17568], [23.45049, 52.18591], [23.47095, 52.17162], [23.48769, 52.18162], [23.49152, 52.1741], [23.48873, 52.16214], [23.48469, 52.15863], [23.5125, 52.12444], [23.53193, 52.12064], [23.57937, 52.12155], [23.59818, 52.11452], [23.61585, 52.0923], [23.63745, 52.08447], [23.64251, 52.0614], [23.65078, 52.04894], [23.66494, 52.01117], [23.67641, 51.99409], [23.66071, 51.98688], [23.64758, 51.97409], [23.62867, 51.94634], [23.62215, 51.92794], [23.62143, 51.89557], [23.61492, 51.88425], [23.6206, 51.88322], [23.62185, 51.87743], [23.60986, 51.87327], [23.60572, 51.85159], [23.59456, 51.8433], [23.62867, 51.80976], [23.6175, 51.7865], [23.59828, 51.77467], [23.5773, 51.76669], [23.56035, 51.75454], [23.55229, 51.73664], [23.5466, 51.71359], [23.55921, 51.69517], [23.54609, 51.68964], [23.56035, 51.67196], [23.54753, 51.66207], [23.53244, 51.65897], [23.53244, 51.6515], [23.54381, 51.6438], [23.54516, 51.63411], [23.53989, 51.60711], [23.5434, 51.59274], [23.55208, 51.57882], [23.57399, 51.5553], [23.56035, 51.5553], [23.57275, 51.53967], [23.60231, 51.53078], [23.61482, 51.49722], [23.66277, 51.48019], [23.64717, 51.46019], [23.64872, 51.45397], [23.68944, 51.41642], [23.6976, 51.40443], [23.68603, 51.40105], [23.6789, 51.39407], [23.67766, 51.38379], [23.68386, 51.37028], [23.66556, 51.36581], [23.64779, 51.354], [23.63404, 51.3393], [23.62867, 51.32596], [23.63518, 51.3047], [23.65089, 51.29961], [23.67021, 51.29938], [23.68727, 51.2924], [23.74266, 51.21625], [23.76519, 51.19902], [23.81604, 51.17879], [23.86359, 51.14827], [23.87475, 51.13613], [23.85821, 51.13073], [23.85449, 51.12153], [23.86927, 51.10174], [23.89552, 51.07611], [23.90421, 51.06272], [23.91599, 51.02087], [23.91175, 51.00681], [23.944, 50.9942], [23.95505, 50.98356], [23.96436, 50.95322], [23.97934, 50.93751], [24.04694, 50.89803], [24.13024, 50.86894], [24.14316, 50.85643], [24.13086, 50.83907], [24.10047, 50.83499], [24.0673, 50.83483], [24.04694, 50.8291], [24.02048, 50.83855], [23.99288, 50.83623], [23.96994, 50.82517], [23.95764, 50.80801], [23.9595, 50.78889], [23.97428, 50.77618], [23.99795, 50.7692], [24.02585, 50.76703], [24.02585, 50.76083], [24.01283, 50.74331], [24.02688, 50.72802], [24.05417, 50.71716], [24.08104, 50.71298], [24.07494, 50.69019], [24.0828, 50.66916], [24.10843, 50.62988], [24.08528, 50.60441], [24.09541, 50.55686], [24.10254, 50.54363], [24.10771, 50.54084], [24.07505, 50.51428], [24.01066, 50.49278], [24.00776, 50.4485], [23.98131, 50.40478], [23.9287, 50.39083], [23.74752, 50.38938], [23.713, 50.3824], [23.69574, 50.37677], [23.6822, 50.36825], [23.67125, 50.35357], [23.65802, 50.32561], [23.64417, 50.31269], [23.56531, 50.25781], [23.43643, 50.19347], [23.20792, 50.03395], [23.17784, 50.00398], [23.14125, 49.98548], [23.10146, 49.95711], [22.99305, 49.85443], [22.95119, 49.82662], [22.9331, 49.79107], [22.92442, 49.78544], [22.89796, 49.77743], [22.88825, 49.76973], [22.82665, 49.69738], [22.8098, 49.68632], [22.77735, 49.68048], [22.76619, 49.67423], [22.74169, 49.63366], [22.66583, 49.56736], [22.64092, 49.52876], [22.66686, 49.47838], [22.67307, 49.43585], [22.67958, 49.41895], [22.71978, 49.38298], [22.73776, 49.27539], [22.73394, 49.26087], [22.71709, 49.23043], [22.70293, 49.19503], [22.68175, 49.16124], [22.68784, 49.15592], [22.70573, 49.16884], [22.72143, 49.1616], [22.71637, 49.16057], [22.74882, 49.14558], [22.77807, 49.12031], [22.84132, 49.09489], [22.85342, 49.08476], [22.85352, 49.07628], [22.84442, 49.0567], [22.84318, 49.04311], [22.86696, 49.00998], [22.85528, 48.99401], [22.83502, 48.99975], [22.8129, 49.01288], [22.78396, 49.02135], [22.75533, 49.04471], [22.74448, 49.04554], [22.72195, 49.04104], [22.64289, 49.04316], [22.61829, 49.05422], [22.58077, 49.08145], [22.56072, 49.08553], [22.53964, 49.0722], [22.52475, 49.03287], [22.5201, 49.00983], [22.52052, 48.99293], [22.50501, 48.98425], [22.46657, 48.98053], [22.449, 48.97143], [22.41489, 48.91169], [22.41179, 48.88777], [22.3689, 48.85645], [22.36228, 48.84425], [22.36156, 48.83645], [22.36569, 48.79439], [22.35649, 48.77614], [22.33076, 48.75641], [22.32766, 48.74302], [22.3289, 48.72158], [22.32249, 48.70034], [22.3103, 48.68168], [22.29428, 48.66763], [22.24322, 48.65119], [22.21904, 48.62094], [22.15372, 48.58587], [22.13873, 48.56959], [22.13666, 48.54934], [22.14834, 48.50882], [22.14483, 48.49311], [22.13377, 48.47684], [22.13284, 48.4048], [22.1593, 48.40232], [22.16922, 48.40953], [22.20198, 48.41816], [22.23609, 48.41529], [22.27185, 48.40346], [22.25697, 48.37322], [22.25676, 48.35728], [22.29128, 48.35757], [22.29872, 48.34914], [22.29738, 48.314], [22.30813, 48.29369], [22.35712, 48.2431], [22.37086, 48.23739], [22.39453, 48.24476], [22.43422, 48.23675], [22.44972, 48.23768], [22.46905, 48.24414], [22.48145, 48.24259], [22.55576, 48.17716], [22.56889, 48.15652], [22.58304, 48.12482], [22.60547, 48.09704], [22.62118, 48.10177], [22.69322, 48.10177], [22.74572, 48.11629], [22.76205, 48.10926], [22.76557, 48.10453], [22.80143, 48.09097], [22.83099, 48.07244], [22.85476, 48.0473], [22.86158, 48.02839], [22.85135, 48.0088], [22.84949, 47.99314], [22.83244, 47.97893], [22.84081, 47.96679], [22.8776, 47.94674], [22.86117, 47.93382], [22.83605, 47.90245], [22.81972, 47.89232], [22.77962, 47.8823], [22.7636, 47.87475], [22.75285, 47.86124], [22.75327, 47.85269], [22.76029, 47.83892], [22.75182, 47.82768], [22.70386, 47.81719], [22.69167, 47.8107], [22.66697, 47.78879], [22.63772, 47.77155], [22.60123, 47.76094], [22.56299, 47.75722], [22.52848, 47.76104], [22.45437, 47.78739], [22.42367, 47.78256], [22.40734, 47.74308], [22.39587, 47.73569], [22.36828, 47.73117], [22.30937, 47.73505], [22.27309, 47.72375], [22.23981, 47.69347], [22.20787, 47.67373], [22.19764, 47.63932], [22.17284, 47.61539], [22.16736, 47.59379], [22.16209, 47.58624], [22.14855, 47.57935], [22.09956, 47.57095], [22.03745, 47.53932], [22.00789, 47.51741], [21.98887, 47.49294], [21.99145, 47.46181], [22.00024, 47.42718], [22.00158, 47.39383], [21.98153, 47.3661], [21.93699, 47.35716], [21.919, 47.34967], [21.90081, 47.33574], [21.86216, 47.29742], [21.84459, 47.24993], [21.82774, 47.22601], [21.82361, 47.21492], [21.82598, 47.18505], [21.81989, 47.17273], [21.77989, 47.14074], [21.77049, 47.11402], [21.76377, 47.10521], [21.74351, 47.0916], [21.69421, 47.06917], [21.63282, 47.02269], [21.63664, 47.01408], [21.66176, 47.00607], [21.67137, 46.99336], [21.66755, 46.99238], [21.64853, 46.94298], [21.64005, 46.93569], [21.58993, 46.90887], [21.58714, 46.8944], [21.59179, 46.86071], [21.58342, 46.84794], [21.57308, 46.84177], [21.5366, 46.83502], [21.51572, 46.82159], [21.5029, 46.80531], [21.47366, 46.75487], [21.47045, 46.74301], [21.4782, 46.73593], [21.50518, 46.72325], [21.50177, 46.70351], [21.48358, 46.68485], [21.46353, 46.67705], [21.43624, 46.67374], [21.42549, 46.66201], [21.41681, 46.64522], [21.39604, 46.62635], [21.37444, 46.61845], [21.33764, 46.62041], [21.31625, 46.61664], [21.30095, 46.60393], [21.29527, 46.58504], [21.29134, 46.54672], [21.27894, 46.5284], [21.24762, 46.49747], [21.24514, 46.47688], [21.27439, 46.43836], [21.2807, 46.41639], [21.25754, 46.40417], [21.21517, 46.4029], [21.19564, 46.3981], [21.17879, 46.38446], [21.16866, 46.36275], [21.16453, 46.31826], [21.15595, 46.29893], [21.14448, 46.28374], [21.13487, 46.27852], [21.09921, 46.27635], [21.05146, 46.23609], [21.03347, 46.23134], [20.99916, 46.2516], [20.96175, 46.24834], [20.90656, 46.26219], [20.87514, 46.25439], [20.83969, 46.27108], [20.81964, 46.2717], [20.79866, 46.26762], [20.7785, 46.26007], [20.73933, 46.23749], [20.73499, 46.23191], [20.73551, 46.2225], [20.74481, 46.20028], [20.74471, 46.19227], [20.73665, 46.18669], [20.71784, 46.19], [20.71029, 46.18809], [20.70533, 46.18064], [20.70419, 46.16633], [20.69882, 46.15646], [20.68352, 46.14468], [20.66399, 46.13775], [20.60756, 46.12949], [20.58802, 46.13284], [20.54896, 46.15615], [20.50937, 46.16767], [20.46855, 46.17413], [20.44416, 46.1469], [20.28324, 46.1438], [20.24283, 46.10809], [20.18846, 46.14039], [20.17048, 46.1455], [20.13803, 46.13646], [20.11477, 46.15222], [20.09844, 46.15496], [20.0634, 46.1453], [20.03498, 46.14297], [19.99312, 46.15941], [19.92915, 46.16354], [19.88895, 46.15739], [19.79045, 46.12907], [19.77298, 46.13155], [19.69009, 46.1684], [19.66932, 46.1731], [19.64782, 46.17388], [19.58974, 46.16597], [19.54995, 46.16416], [19.50199, 46.14561], [19.48752, 46.13424], [19.4993, 46.10861], [19.47295, 46.09869], [19.45373, 46.07755], [19.43688, 46.06799], [19.40474, 46.06024], [19.3789, 46.03368], [19.36216, 46.02965], [19.30697, 46.02665], [19.28692, 46.01616], [19.27482, 45.99161], [19.26345, 45.98143], [19.23565, 45.97771], [19.14801, 45.98407], [19.12579, 45.99311], [19.11101, 46.01295], [19.08848, 46.01885], [19.06543, 46.01203], [19.04972, 45.99311], [19.04858, 45.96345], [19.03091, 45.96004], [19.00559, 45.96257], [18.98182, 45.95079], [18.97768, 45.9435], [18.98874, 45.92702], [18.98182, 45.92185], [18.9627, 45.92795], [18.88653, 45.93043], [18.8766, 45.92242], [18.84539, 45.91394], [18.82834, 45.90573], [18.8178, 45.90547], [18.80488, 45.91363], [18.79485, 45.90304], [18.78596, 45.88692], [18.77552, 45.88283], [18.76333, 45.88397], [18.72385, 45.89844], [18.67434, 45.91038], [18.65564, 45.90759], [18.633, 45.89193], [18.6236, 45.86867], [18.60737, 45.85668], [18.58546, 45.82692], [18.57347, 45.81669], [18.53027, 45.79085], [18.50422, 45.78403], [18.4818, 45.79142], [18.46547, 45.78372], [18.43074, 45.75364], [18.41172, 45.7432], [18.39756, 45.74134], [18.38382, 45.7432], [18.36718, 45.75819], [18.35116, 45.7584], [18.31767, 45.74729], [18.30052, 45.75183], [18.28326, 45.76491], [18.26052, 45.76512], [18.22982, 45.78124], [18.21122, 45.78537], [18.12895, 45.78537], [18.1029, 45.77462], [18.08048, 45.77173], [17.97537, 45.79214], [17.88979, 45.79214], [17.88049, 45.78852], [17.87005, 45.77349], [17.85806, 45.77173], [17.85796, 45.77586], [17.83822, 45.79964], [17.80918, 45.81441], [17.68732, 45.84061], [17.66469, 45.84165], [17.65652, 45.84542], [17.64578, 45.89182], [17.63844, 45.90133], [17.5911, 45.93621], [17.55431, 45.94779], [17.51193, 45.95394], [17.42667, 45.95673], [17.4062, 45.94366], [17.39969, 45.95994], [17.38915, 45.96309], [17.36528, 45.95673], [17.34533, 45.9557], [17.34212, 45.95864], [17.34368, 45.96753], [17.33789, 45.98464], [17.32714, 45.97203], [17.29014, 45.98464], [17.29014, 45.99146], [17.3168, 45.99766], [17.30781, 46.00639], [17.27587, 46.01203], [17.24859, 46.08024], [17.20859, 46.11657], [17.19733, 46.12116], [17.1162, 46.12313], [17.10121, 46.12819], [17.05294, 46.15346], [17.04126, 46.1622], [17.0363, 46.173], [17.02803, 46.18049], [16.97481, 46.21057], [16.9407, 46.25149], [16.88923, 46.29216], [16.87177, 46.3272], [16.87507, 46.34286], [16.86546, 46.35914], [16.83766, 46.38187], [16.83239, 46.38193], [16.82753, 46.37402], [16.80789, 46.38735], [16.76934, 46.39611], [16.7619, 46.38187], [16.75508, 46.38187], [16.74289, 46.39962], [16.7124, 46.41267], [16.65927, 46.46419], [16.63767, 46.47448], [16.59426, 46.48298], [16.58806, 46.47957], [16.58372, 46.47065], [16.57762, 46.47065], [16.56429, 46.47993], [16.4813, 46.51902], [16.44037, 46.51902], [16.40626, 46.53949], [16.36947, 46.54057], [16.35789, 46.54698], [16.35169, 46.53949], [16.34415, 46.54698], [16.32999, 46.53545], [16.26395, 46.51592], [16.23491, 46.49334], [16.23366, 46.47874], [16.24938, 46.43753], [16.24824, 46.41334], [16.25092, 46.405], [16.27873, 46.38735], [16.28028, 46.37621], [16.27563, 46.37317], [16.25278, 46.37342], [16.21713, 46.36735], [16.19181, 46.36978], [16.14385, 46.39471], [16.13155, 46.39306], [16.10602, 46.37373], [16.09435, 46.37226], [16.05796, 46.37753], [16.05962, 46.33232], [16.05238, 46.3186], [16.01921, 46.29883], [15.99843, 46.29154], [15.94872, 46.2842], [15.88371, 46.2594], [15.81829, 46.25552], [15.78914, 46.24307], [15.76889, 46.21935], [15.74977, 46.21077], [15.6613, 46.21532], [15.6398, 46.20767], [15.62285, 46.1917], [15.60435, 46.167], [15.58998, 46.13868], [15.58988, 46.11352], [15.60383, 46.09099], [15.63153, 46.07057], [15.68393, 46.05114], [15.69799, 46.03621], [15.69365, 46.02577], [15.68197, 46.01352], [15.67422, 45.99316], [15.67556, 45.92516], [15.65944, 45.88883], [15.67546, 45.85596], [15.67608, 45.8417], [15.66605, 45.83167], [15.62605, 45.8202], [15.5873, 45.81922], [15.52353, 45.82682], [15.48539, 45.81018], [15.45128, 45.81514], [15.44033, 45.81147], [15.43557, 45.80212], [15.44105, 45.78217], [15.42906, 45.77529], [15.3038, 45.74615], [15.26349, 45.73039], [15.25502, 45.72346], [15.24892, 45.71184], [15.25088, 45.70765], [15.26783, 45.69845], [15.28303, 45.68011], [15.30494, 45.67215], [15.31496, 45.68088], [15.33077, 45.68455], [15.35196, 45.66807], [15.37377, 45.64021], [15.3531, 45.64032], [15.29739, 45.62569], [15.28788, 45.61034], [15.26856, 45.60166], [15.26959, 45.59345], [15.28261, 45.57061], [15.29667, 45.52296], [15.31103, 45.50591], [15.36137, 45.48203], [15.32519, 45.45283], [15.28158, 45.45097], [15.18422, 45.4256], [15.13926, 45.43004], [15.05617, 45.47991], [15.00738, 45.48084], [14.9863, 45.49087], [14.96263, 45.49314], [14.92263, 45.51495], [14.90444, 45.51443], [14.90083, 45.49314], [14.8816, 45.46978], [14.83882, 45.45898], [14.79716, 45.46518], [14.78125, 45.49335], [14.68833, 45.52203], [14.66849, 45.53397], [14.67169, 45.55681], [14.66983, 45.56456], [14.60307, 45.60357], [14.59387, 45.61618], [14.59191, 45.66336], [14.58095, 45.66781], [14.5639, 45.66269], [14.55615, 45.6567], [14.54364, 45.63644], [14.49858, 45.59618], [14.49227, 45.58342], [14.48214, 45.54244], [14.46892, 45.52559], [14.41124, 45.49319], [14.3728, 45.47785], [14.32681, 45.4749], [14.2804, 45.4811], [14.2187, 45.49717], [14.14552, 45.47624], [14.11969, 45.47288], [14.09292, 45.47392], [14.06667, 45.48027], [14.01396, 45.50797], [13.97189, 45.51423], [13.96497, 45.51097], [13.96145, 45.50389], [13.96145, 45.49314], [13.98264, 45.47531], [13.96982, 45.46296], [13.923, 45.44896], [13.889, 45.42364], [13.81986, 45.43263], [13.80653, 45.44214], [13.75929, 45.46317], [13.64292, 45.45943], [13.62411, 45.46274], [13.58953, 45.48884], [13.59164, 45.49311], [13.58912, 45.50161]]], [[[24.48731, 59.57852], [24.5005, 59.59626], [24.51588, 59.59809], [24.53093, 59.58397], [24.55006, 59.55777], [24.54282, 59.5478], [24.51629, 59.54426], [24.48911, 59.55964], [24.48731, 59.57852]]], [[[24.00245, 58.10855], [23.97071, 58.0996], [23.94337, 58.11319], [23.938, 58.13727], [23.95533, 58.1518], [23.98422, 58.15713], [24.01336, 58.15351], [24.02215, 58.12987], [24.00245, 58.10855]]], [[[23.36215, 58.53246], [23.31373, 58.54466], [23.27858, 58.54637], [23.23487, 58.53465], [23.22381, 58.53547], [23.13461, 58.5799], [23.08326, 58.59052], [23.05934, 58.60346], [23.06284, 58.62458], [23.07545, 58.62983], [23.10613, 58.62421], [23.12094, 58.62832], [23.13461, 58.66181], [23.15463, 58.67593], [23.17579, 58.6811], [23.19777, 58.68061], [23.28834, 58.66649], [23.33025, 58.65306], [23.34376, 58.64472], [23.34913, 58.63508], [23.34596, 58.61567], [23.3475, 58.60716], [23.39715, 58.56367], [23.40024, 58.55541], [23.37989, 58.54755], [23.36215, 58.53246]]], [[[23.37428, 58.97553], [23.3401, 58.98395], [23.29908, 58.97089], [23.27858, 58.97069], [23.2444, 58.98135], [23.2234, 58.98395], [23.21754, 58.98188], [23.21079, 58.97297], [23.16326, 58.96894], [23.14829, 58.97403], [23.11411, 59.0218], [23.11891, 59.03352], [23.13136, 59.04072], [23.1482, 59.04442], [23.20802, 59.04409], [23.27801, 59.03238], [23.32203, 59.03901], [23.34425, 59.03929], [23.36402, 59.02896], [23.38966, 59.00751], [23.39373, 58.99624], [23.38478, 58.98054], [23.37428, 58.97553]]], [[[23.32496, 58.44229], [23.2614, 58.46589], [23.23764, 58.45637], [23.26173, 58.45161], [23.27133, 58.44599], [23.27801, 58.43651], [23.23487, 58.43989], [23.19606, 58.45637], [23.1819, 58.47468], [23.1565, 58.47752], [23.14894, 58.47004], [23.13803, 58.44611], [23.13038, 58.43952], [23.10865, 58.42902], [23.09254, 58.43154], [23.08424, 58.42963], [23.08058, 58.41852], [23.08676, 58.39496], [23.06381, 58.38544], [23.04249, 58.37149], [23.02198, 58.36323], [22.97755, 58.38166], [22.95484, 58.38105], [22.94752, 58.37263], [22.96949, 58.36017], [22.90268, 58.31184], [22.85402, 58.29873], [22.81121, 58.27342], [22.78859, 58.27139], [22.74293, 58.27383], [22.7212, 58.27033], [22.71013, 58.25776], [22.75668, 58.24226], [22.72315, 58.22541], [22.6692, 58.2215], [22.65496, 58.2447], [22.62135, 58.25275], [22.58619, 58.24779], [22.56495, 58.23517], [22.54908, 58.24779], [22.535, 58.25406], [22.52613, 58.24738], [22.51759, 58.23041], [22.50416, 58.22354], [22.49724, 58.22305], [22.49098, 58.2447], [22.47682, 58.2451], [22.44304, 58.23408], [22.42164, 58.22163], [22.39845, 58.22773], [22.38795, 58.22675], [22.32342, 58.20661], [22.29509, 58.19286], [22.27475, 58.17927], [22.27174, 58.17426], [22.26987, 58.13703], [22.26539, 58.11506], [22.25685, 58.09325], [22.22926, 58.05219], [22.19988, 58.02603], [22.19842, 58.01634], [22.20297, 57.99396], [22.18995, 57.98383], [22.04835, 57.91511], [22.01686, 57.9145], [21.99008, 57.93561], [21.9944, 57.94725], [21.99073, 57.95824], [21.98081, 57.9665], [21.96412, 57.97138], [21.96339, 57.98404], [21.99757, 57.98404], [22.00457, 57.99095], [22.02133, 58.02123], [22.05893, 58.05231], [22.0857, 58.08259], [22.0962, 58.08641], [22.13551, 58.07673], [22.14772, 58.07958], [22.15317, 58.08625], [22.15903, 58.10712], [22.16505, 58.11689], [22.20297, 58.14789], [22.18035, 58.16083], [22.14186, 58.1695], [22.07228, 58.17585], [22.05299, 58.18659], [22.01686, 58.23387], [21.99383, 58.2447], [21.92888, 58.2451], [21.8965, 58.25072], [21.86785, 58.26459], [21.85133, 58.28189], [21.84376, 58.29361], [21.84327, 58.30215], [21.85564, 58.30687], [21.90821, 58.29873], [21.87957, 58.32953], [21.8733, 58.34162], [21.89454, 58.3465], [21.91236, 58.33975], [21.9284, 58.32681], [21.94459, 58.31875], [21.96339, 58.32661], [21.95493, 58.34406], [21.96803, 58.35456], [21.99049, 58.35786], [22.01124, 58.35395], [21.99008, 58.38695], [21.94597, 58.43228], [21.92449, 58.44697], [21.90113, 58.46841], [21.85939, 58.49189], [21.83237, 58.51097], [21.88502, 58.4982], [21.90138, 58.49799], [21.91627, 58.50117], [21.91896, 58.50995], [21.92848, 58.51838], [21.96664, 58.51756], [21.99562, 58.51252], [22.02076, 58.49925], [22.06422, 58.45669], [22.06984, 58.44648], [22.07358, 58.42691], [22.08937, 58.42219], [22.09848, 58.42609], [22.09864, 58.43476], [22.09311, 58.44953], [22.09881, 58.47577], [22.10369, 58.48721], [22.11362, 58.49799], [22.15895, 58.51362], [22.17189, 58.52155], [22.18775, 58.54287], [22.19459, 58.54584], [22.2129, 58.54637], [22.22218, 58.53303], [22.22486, 58.51642], [22.22885, 58.51056], [22.24334, 58.50483], [22.2732, 58.50202], [22.28289, 58.52204], [22.28395, 58.54955], [22.28834, 58.56932], [22.32195, 58.58478], [22.46306, 58.59292], [22.5503, 58.62958], [22.58318, 58.63451], [22.59409, 58.62914], [22.61264, 58.6057], [22.64812, 58.58674], [22.68214, 58.60033], [22.73634, 58.58808], [22.75799, 58.59292], [22.7907, 58.61481], [22.81137, 58.62295], [22.84636, 58.61343], [22.89967, 58.62027], [22.98976, 58.60175], [23.03647, 58.58417], [23.09108, 58.57095], [23.11134, 58.55573], [23.12582, 58.5351], [23.14829, 58.52155], [23.18865, 58.5104], [23.25514, 58.50007], [23.28859, 58.48819], [23.31837, 58.47248], [23.33326, 58.45637], [23.32496, 58.44229]]], [[[23.21778, 57.80093], [23.22429, 57.82372], [23.23959, 57.82258], [23.26051, 57.81354], [23.27068, 57.80781], [23.27508, 57.79873], [23.27019, 57.78563], [23.25025, 57.78437], [23.2295, 57.79169], [23.21778, 57.80093]]], [[[22.09425, 58.95604], [22.16822, 58.95038], [22.46306, 58.97089], [22.44353, 58.97773], [22.44207, 58.98469], [22.4546, 58.98721], [22.47674, 58.98054], [22.48845, 58.98115], [22.48756, 59.01642], [22.50424, 59.02558], [22.54444, 59.0301], [22.55926, 59.0384], [22.57293, 59.0528], [22.5783, 59.07844], [22.58717, 59.08698], [22.59767, 59.0895], [22.66668, 59.08491], [22.69654, 59.07917], [22.71412, 59.06957], [22.69158, 59.04116], [22.70134, 59.02497], [22.72047, 59.01162], [22.73666, 59.00507], [22.83717, 59.00861], [22.93409, 58.98404], [22.94956, 58.97089], [22.95265, 58.9606], [22.9476, 58.94514], [22.94956, 58.93618], [22.95851, 58.9267], [22.9795, 58.91763], [23.01515, 58.89179], [23.02174, 58.86408], [23.03907, 58.86103], [23.04054, 58.84077], [23.03354, 58.83031], [23.01905, 58.82909], [22.97779, 58.84418], [22.9568, 58.8474], [22.94956, 58.84394], [22.94223, 58.83422], [22.92921, 58.83999], [22.87957, 58.83271], [22.8672, 58.82005], [22.88307, 58.81729], [22.88697, 58.81184], [22.88673, 58.79047], [22.84539, 58.77652], [22.81666, 58.77595], [22.79005, 58.78099], [22.77833, 58.79218], [22.78932, 58.80264], [22.82691, 58.81916], [22.81935, 58.82966], [22.80226, 58.83039], [22.7776, 58.82437], [22.73666, 58.80646], [22.71518, 58.78205], [22.681, 58.72407], [22.65496, 58.70279], [22.61118, 58.6905], [22.55568, 58.687], [22.50172, 58.69477], [22.46306, 58.71646], [22.48097, 58.7248], [22.49724, 58.73754], [22.46518, 58.76659], [22.44947, 58.78681], [22.44264, 58.80305], [22.43979, 58.84138], [22.42994, 58.85244], [22.38209, 58.88227], [22.35475, 58.89208], [22.32496, 58.89663], [22.29176, 58.89521], [22.2269, 58.88646], [22.195, 58.88801], [22.06251, 58.92585], [22.04469, 58.93618], [22.05551, 58.9527], [22.09425, 58.95604]]], [[[21.09311, 55.58169], [21.09938, 55.5987], [21.09392, 55.60346], [21.09938, 55.61298], [21.09067, 55.63312], [21.09352, 55.69554], [21.08522, 55.72285], [21.11744, 55.69977], [21.13152, 55.65559], [21.13356, 55.56831], [21.11988, 55.52705], [21.11988, 55.48945], [21.09262, 55.45661], [21.08717, 55.44107], [21.10621, 55.42744], [21.10621, 55.42121], [21.0735, 55.39179], [21.05763, 55.36945], [21.05095, 55.34886], [21.03785, 55.3286], [20.98894, 55.29133], [20.98943, 55.27312], [20.92457, 55.28266], [20.99952, 55.357], [21.04152, 55.41608], [21.08237, 55.49763], [21.09311, 55.58169]]], [[[14.53248, 35.82197], [14.52752, 35.81354], [14.52752, 35.80121], [14.50709, 35.80866], [14.47267, 35.81143], [14.42449, 35.82368], [14.38152, 35.84296], [14.36305, 35.86668], [14.34571, 35.87592], [14.34262, 35.88068], [14.34262, 35.91169], [14.33823, 35.94697], [14.33253, 35.96284], [14.32203, 35.97313], [14.3475, 35.98871], [14.37729, 35.99364], [14.37729, 35.98623], [14.36232, 35.98241], [14.34938, 35.97313], [14.42848, 35.96572], [14.44508, 35.96035], [14.47869, 35.93696], [14.50782, 35.92853], [14.51287, 35.9208], [14.51393, 35.90082], [14.54803, 35.89004], [14.56316, 35.87002], [14.56715, 35.84561], [14.56178, 35.82982], [14.54803, 35.83601], [14.53248, 35.82197]]], [[[14.30445, 36.0266], [14.26002, 36.01349], [14.22088, 36.01919], [14.18491, 36.03461], [14.188, 36.0454], [14.1836, 36.06477], [14.2566, 36.07559], [14.28256, 36.06786], [14.31479, 36.05109], [14.33424, 36.03437], [14.32203, 36.02717], [14.30445, 36.0266]]]]}}]}