{"type": "FeatureCollection", "features": [{"type": "Feature", "properties": {"name": "은허", "name_en": "Yinxu (Anyang)", "category": "수도", "year": "", "note": "상 후기 도읍", "coord_source": "실제 위치", "map_lon": 114.31503, "map_lat": 36.12501, "legend": "은허", "map_title": "상과 주의 세력 범위", "source": "미래엔 세계사 교과서 1권 19쪽", "volume": 1, "page": 19}, "geometry": {"type": "Point", "coordinates": [114.315, 36.125]}}, {"type": "Feature", "properties": {"name": "호경", "name_en": "Haojing", "category": "수도", "year": "", "note": "서주 도읍", "coord_source": "실제 위치", "map_lon": 108.77, "map_lat": 34.23, "legend": "호경", "map_title": "상과 주의 세력 범위", "source": "미래엔 세계사 교과서 1권 19쪽", "volume": 1, "page": 19}, "geometry": {"type": "Point", "coordinates": [108.77, 34.23]}}, {"type": "Feature", "properties": {"name": "낙읍(뤄양)", "name_en": "Luoyi (Luoyang)", "category": "수도", "year": "", "note": "동주 도읍(기원전 770년~)", "coord_source": "실제 위치", "map_lon": 112.44998, "map_lat": 34.61999, "legend": "낙읍(뤄양)", "map_title": "상과 주의 세력 범위", "source": "미래엔 세계사 교과서 1권 19쪽", "volume": 1, "page": 19}, "geometry": {"type": "Point", "coordinates": [112.45, 34.62]}}]}