{"type": "FeatureCollection", "features": [{"type": "Feature", "properties": {"name": "우방기샤리", "name_en": "Ubangi-Shari (French Equatorial Africa)", "period": "1913년경", "kind": "식민지", "legend": "(프랑스령)", "map_title": "제국주의 열강의 아프리카 분할(1913년경)", "source": "미래엔 세계사 교과서 3권 156쪽", "volume": 3, "page": 156, "note": "프랑스령 · 지도에 이름 표기 없음 — 색과 위치로 이름을 붙임", "coast_snap": "Natural Earth 10m 해안선에 맞춤", "border_snap": "현대 국경(Natural Earth 10m)에 맞춘 구간 약 3956 km", "group": "우방기샤리", "map_folder": "3권_p156_제국주의 열강의 아프리카 분할(1913년경)"}, "geometry": {"type": "MultiPolygon", "coordinates": [[[[15.90686, 2.30446], [15.89065, 2.27263], [15.88634, 2.3081], [16.11295, 2.41045], [16.11739, 2.3988], [15.90686, 2.30446]]], [[[16.00608, 2.98395], [15.982, 2.97672], [15.97776, 2.98096], [15.97156, 2.99119], [15.95823, 3.04152], [15.95006, 3.061], [15.93343, 3.08178], [15.914, 3.09795], [15.89777, 3.10353], [15.85477, 3.09898], [15.83421, 3.10855], [15.81354, 3.09899], [15.79318, 3.10327], [15.78563, 3.10798], [15.1713, 3.75897], [15.0849, 3.88584], [15.02599, 4.02609], [15.04314, 4.02614], [15.09172, 4.01585], [15.11125, 4.01994], [15.15042, 4.03851], [15.19208, 4.05223], [15.1898, 4.06311], [15.17771, 4.07146], [15.14846, 4.07394], [15.14257, 4.08045], [15.13285, 4.10854], [15.11776, 4.11432], [15.10257, 4.11241], [15.0912, 4.12179], [15.08448, 4.14861], [15.08293, 4.20551], [15.07281, 4.26594], [15.06381, 4.29343], [15.04852, 4.32165], [15.01389, 4.36426], [15.00056, 4.4032], [14.99395, 4.4133], [14.98206, 4.42048], [14.93834, 4.43593], [14.7797, 4.54505], [14.74373, 4.57998], [14.71727, 4.62202], [14.70425, 4.66935], [14.69733, 4.74522], [14.69071, 4.76214], [14.70146, 4.81438], [14.68699, 4.90888], [14.67211, 4.94081], [14.67448, 4.96758], [14.6595, 4.99704], [14.66746, 5.05277], [14.66301, 5.09145], [14.66322, 5.14183], [14.65888, 5.16454], [14.65154, 5.18751], [14.64048, 5.20824], [14.62446, 5.22405], [14.60358, 5.23425], [14.56048, 5.2486], [14.53971, 5.2618], [14.5239, 5.27968], [14.51987, 5.29058], [14.52803, 5.29301], [14.53961, 5.30358], [14.54839, 5.3205], [14.55594, 5.35133], [14.57082, 5.37094], [14.5793, 5.3876], [14.57961, 5.39538], [14.59284, 5.40003], [14.59728, 5.41148], [14.59625, 5.44011], [14.59955, 5.45665], [14.61743, 5.4953], [14.61723, 5.53788], [14.59656, 5.57723], [14.59149, 5.59095], [14.59015, 5.60829], [14.59284, 5.62387], [14.61061, 5.66914], [14.62436, 5.7236], [14.63107, 5.73805], [14.62405, 5.75831], [14.61743, 5.86497], [14.60296, 5.88339], [14.598, 5.90349], [14.58477, 5.92341], [14.57247, 5.92419], [14.5454, 5.90757], [14.53062, 5.90592], [14.48214, 5.90964], [14.46571, 5.92067], [14.4469, 5.97002], [14.3977, 6.01917], [14.38727, 6.03904], [14.3977, 6.05395], [14.40246, 6.05488], [14.4129, 6.04702], [14.41817, 6.04713], [14.42251, 6.05136], [14.43357, 6.07387], [14.43057, 6.08808], [14.46705, 6.1226], [14.48214, 6.12707], [14.51098, 6.15534], [14.53496, 6.19009], [14.5764, 6.18978], [14.71903, 6.25786], [14.73484, 6.27044], [14.77225, 6.31832], [14.78238, 6.33677], [14.78466, 6.3478], [14.78001, 6.38222], [14.78218, 6.39362], [14.80729, 6.4278], [14.93245, 6.71029], [14.9461, 6.72574], [14.96232, 6.7367], [15.02237, 6.76654], [15.03456, 6.77677], [15.05906, 6.83628], [15.08025, 6.87808], [15.11322, 6.96469], [15.13616, 7.04531], [15.14701, 7.06184], [15.17905, 7.07838], [15.18753, 7.08861], [15.19021, 7.09879], [15.1866, 7.16633], [15.2051, 7.20023], [15.22391, 7.24752], [15.26132, 7.27925], [15.33822, 7.32219], [15.38535, 7.35836], [15.40322, 7.38637], [15.43278, 7.38973], [15.43495, 7.40291], [15.41552, 7.42084], [15.41945, 7.43655], [15.46886, 7.50313], [15.51557, 7.5122], [15.55195, 7.50988], [15.62481, 7.51975], [15.66853, 7.51629], [15.72, 7.46864], [15.75834, 7.45557], [15.7939, 7.458], [15.92526, 7.48818], [15.94314, 7.49531], [15.9757, 7.5152], [16.02634, 7.57489], [16.04298, 7.58393], [16.0652, 7.59122], [16.12876, 7.59949], [16.16266, 7.61111], [16.20721, 7.61354], [16.26188, 7.65189], [16.28276, 7.6601], [16.37081, 7.6725], [16.38301, 7.68067], [16.38714, 7.69467], [16.38704, 7.76263], [16.39221, 7.78361], [16.4074, 7.79606], [16.41815, 7.79586], [16.43737, 7.78836], [16.45091, 7.79208], [16.47572, 7.8358], [16.49174, 7.84924], [16.5092, 7.85828], [16.54869, 7.87001], [16.55024, 7.8435], [16.54486, 7.81301], [16.54931, 7.79472], [16.56016, 7.77973], [16.57638, 7.7678], [16.60522, 7.7572], [16.61307, 7.74821], [16.61814, 7.73431], [16.60987, 7.7016], [16.61421, 7.67958], [16.62455, 7.66868], [16.6632, 7.65742], [16.68687, 7.64579], [16.70981, 7.62775], [16.74671, 7.58657], [16.76862, 7.55024], [16.78236, 7.54114], [16.80552, 7.54368], [16.83673, 7.5675], [16.85389, 7.5675], [16.85585, 7.5754], [16.8481, 7.58471], [16.84717, 7.59158], [16.85482, 7.61148], [16.86546, 7.62444], [16.88065, 7.63287], [16.91962, 7.64408], [16.96272, 7.6507], [16.98194, 7.64873], [16.98897, 7.66077], [16.99755, 7.66672], [17.0083, 7.66765], [17.03899, 7.66248], [17.0456, 7.6847], [17.05935, 7.69653], [17.07909, 7.68992], [17.09552, 7.67824], [17.10193, 7.67772], [17.13552, 7.70511], [17.17056, 7.74754], [17.18865, 7.76413], [17.20456, 7.76382], [17.21107, 7.76831], [17.21448, 7.78681], [17.22068, 7.79818], [17.25086, 7.82283], [17.38574, 7.87048], [17.406, 7.88303], [17.41912, 7.89823], [17.46636, 7.88412], [17.47834, 7.89182], [17.48723, 7.91445], [17.50367, 7.92624], [17.58077, 7.9406], [17.59999, 7.95037], [17.62066, 7.97874], [17.63988, 7.98504], [17.67978, 7.9852], [17.81724, 7.9621], [17.85879, 7.96044], [17.89785, 7.96747], [17.97723, 7.99719], [18.07045, 8.0192], [18.50825, 8.03067], [18.58928, 8.04788], [18.61791, 8.09013], [18.61864, 8.13865], [18.63858, 8.17764], [18.67259, 8.20751], [18.71506, 8.22867], [18.77377, 8.24862], [18.79124, 8.25738], [18.81304, 8.27642], [18.8549, 8.3398], [18.88746, 8.37096], [18.90131, 8.38864], [18.92053, 8.43212], [19.02047, 8.54558], [19.0613, 8.62562], [19.08166, 8.63723], [19.09148, 8.65286], [19.12414, 8.67508], [19.10388, 8.69805], [19.05778, 8.7297], [19.04869, 8.74567], [18.92911, 8.79654], [18.91733, 8.80515], [18.90968, 8.83533], [18.90296, 8.84481], [18.88653, 8.83584], [18.86978, 8.84941], [18.86968, 8.86411], [18.89273, 8.89793], [18.90141, 8.89398], [18.91061, 8.89424], [18.91774, 8.89881], [18.92291, 8.91822], [18.9719, 8.93822], [18.98482, 8.95643], [19.02192, 8.98522], [19.06068, 9.00418], [19.10057, 9.01526], [19.12672, 9.00718], [19.14212, 9.00868], [19.16878, 9.00222], [19.17457, 9.00377], [19.17964, 9.01526], [19.19204, 9.02017], [19.23286, 9.02229], [19.26325, 9.02826], [19.28578, 9.01281], [19.29549, 9.0095], [19.3048, 9.02085], [19.33332, 9.00656], [19.36939, 9.00038], [19.42096, 9.01744], [19.43016, 9.01286], [19.50664, 9.014], [19.52132, 9.00883], [19.53083, 9.014], [19.55377, 9.01333], [19.58312, 9.02534], [19.61361, 9.03167], [19.64007, 9.014], [19.6564, 9.02126], [19.70002, 9.02059], [19.73815, 9.03937], [19.78466, 9.04875], [19.80554, 9.05113], [19.88946, 9.04637], [19.90217, 9.0518], [19.91447, 9.06927], [19.92874, 9.06258], [19.94341, 9.06588], [19.96904, 9.08288], [19.99302, 9.08459], [19.99953, 9.1043], [20.00687, 9.11022], [20.01442, 9.10635], [20.01793, 9.09105], [20.02434, 9.08976], [20.03033, 9.09386], [20.02837, 9.10456], [20.03116, 9.11022], [20.06051, 9.13435], [20.06868, 9.13813], [20.09937, 9.13071], [20.10103, 9.14807], [20.1096, 9.15117], [20.13761, 9.12182], [20.15456, 9.11642], [20.16955, 9.12089], [20.19797, 9.1405], [20.21265, 9.14497], [20.22298, 9.14195], [20.25699, 9.11642], [20.27683, 9.12074], [20.35941, 9.11642], [20.37832, 9.12007], [20.41243, 9.14205], [20.42307, 9.14324], [20.43517, 9.13813], [20.45542, 9.15931], [20.48178, 9.20466], [20.5072, 9.21326], [20.51299, 9.22388], [20.49614, 9.27088], [20.51423, 9.2815], [20.52643, 9.28362], [20.53366, 9.28964], [20.54183, 9.32163], [20.55092, 9.32026], [20.57232, 9.30822], [20.59288, 9.30822], [20.61665, 9.30202], [20.66792, 9.30202], [20.65489, 9.34297], [20.69582, 9.36346], [20.74088, 9.37713], [20.7505, 9.38455], [20.75794, 9.37713], [20.76662, 9.38656], [20.77654, 9.4078], [20.79235, 9.414], [20.80196, 9.42555], [20.82026, 9.41622], [20.82615, 9.41808], [20.83266, 9.43726], [20.83431, 9.46247], [20.84145, 9.48441], [20.86377, 9.49379], [20.87421, 9.5025], [20.91266, 9.54433], [20.92506, 9.5696], [20.95596, 9.58942], [20.96226, 9.60693], [20.96764, 9.6106], [20.98314, 9.60368], [20.9818, 9.61678], [20.9758, 9.62417], [20.9758, 9.63096], [20.98996, 9.63562], [20.99606, 9.6483], [21.00009, 9.69739], [21.01425, 9.72447], [21.01994, 9.74793], [21.04267, 9.76708], [21.05291, 9.76589], [21.06583, 9.7545], [21.09311, 9.77434], [21.1052, 9.77403], [21.10675, 9.79545], [21.13197, 9.84943], [21.18726, 9.88513], [21.19543, 9.8873], [21.19843, 9.90299], [21.20566, 9.91684], [21.25692, 9.97575], [21.27129, 9.98725], [21.28514, 9.97859], [21.3395, 9.95991], [21.37433, 9.97311], [21.40689, 10.00557], [21.43335, 10.04606], [21.48544, 10.16432], [21.51324, 10.20051], [21.54497, 10.22], [21.57928, 10.21227], [21.65628, 10.23367], [21.66889, 10.2492], [21.68894, 10.28891], [21.71881, 10.29663], [21.72305, 10.30599], [21.71684, 10.33981], [21.72046, 10.36082], [21.75105, 10.41182], [21.74361, 10.41898], [21.74423, 10.43911], [21.72046, 10.46802], [21.71684, 10.47732], [21.70548, 10.53202], [21.7033, 10.55241], [21.70548, 10.57181], [21.72263, 10.63672], [21.73648, 10.64617], [21.76842, 10.65199], [21.7742, 10.65517], [21.78485, 10.66932], [21.82258, 10.67876], [21.83291, 10.67994], [21.86361, 10.66793], [21.86836, 10.67622], [21.89503, 10.69919], [21.92562, 10.72012], [21.94308, 10.72826], [22.00386, 10.74327], [22.0146, 10.75456], [22.00489, 10.77552], [22.01833, 10.80988], [22.02949, 10.82875], [22.04861, 10.83699], [22.13243, 10.82854], [22.14824, 10.83076], [22.17635, 10.81621], [22.18979, 10.8373], [22.20064, 10.86867], [22.25304, 10.9153], [22.2765, 10.90853], [22.30596, 10.93256], [22.31877, 10.93936], [22.36115, 10.95365], [22.40704, 10.96305], [22.41923, 10.97073], [22.44714, 10.99827], [22.46047, 11.00083], [22.50284, 10.99217], [22.51194, 11.00083], [22.53468, 10.98052], [22.55576, 10.97897], [22.60082, 10.98781], [22.77187, 11.40318], [22.78179, 11.39889], [22.87698, 11.40884], [22.90044, 11.40825], [22.91481, 11.3961], [22.92835, 11.32515], [22.95367, 11.25094], [22.95646, 11.2088], [22.95202, 11.19105], [22.92897, 11.13793], [22.92235, 11.08708], [22.90024, 11.0599], [22.88652, 11.01063], [22.92153, 10.80788], [23.00555, 10.68682], [23.10942, 10.6145], [23.29122, 10.43973], [23.62402, 9.90777], [23.64479, 9.86307], [23.67404, 9.69034], [23.66908, 9.65202], [23.65554, 9.62246], [23.61854, 9.56608], [23.60614, 9.53717], [23.60676, 9.52624], [23.61854, 9.48831], [23.61719, 9.45718], [23.61998, 9.44772], [23.62753, 9.43508], [23.64086, 9.43312], [23.64634, 9.42503], [23.64686, 9.41839], [23.62185, 9.34062], [23.6205, 9.32287], [23.63073, 9.29217], [23.63218, 9.27757], [23.5495, 9.18525], [23.53792, 9.17815], [23.5218, 9.17536], [23.48945, 9.1767], [23.47426, 9.17068], [23.45772, 9.14616], [23.43571, 9.01893], [23.43829, 8.99454], [23.45142, 8.97418], [23.47808, 8.95891], [23.50547, 8.96108], [23.54257, 8.99728], [23.56014, 8.99645], [23.56748, 8.97483], [23.56593, 8.94002], [23.55363, 8.88315], [23.53668, 8.85561], [23.49544, 8.80944], [23.48232, 8.78339], [23.4818, 8.75936], [23.49007, 8.7326], [23.50526, 8.71074], [23.52573, 8.70149], [23.54051, 8.70479], [23.57802, 8.73048], [23.59642, 8.73414], [23.61337, 8.73223], [23.65709, 8.71001], [23.68913, 8.71068], [23.72127, 8.702], [23.76892, 8.72125], [23.80344, 8.72213], [23.86669, 8.70779], [23.92229, 8.71345], [23.96208, 8.69702], [23.98131, 8.69417], [24.00962, 8.69888], [24.11232, 8.72639], [24.09348, 8.64878], [24.21127, 8.62707], [24.2184, 8.61304], [24.24558, 8.5918], [24.25054, 8.57963], [24.55472, 8.56671], [24.62566, 8.55404], [24.61486, 8.21715], [24.67088, 8.20684], [24.71056, 8.20431], [24.74229, 8.18684], [24.80017, 8.18028], [24.83211, 8.16573], [24.91799, 8.08703], [24.92781, 8.07096], [24.93008, 8.03545], [24.95055, 8.0144], [24.95262, 7.99657], [24.96481, 7.98262], [24.98124, 7.97233], [25.0293, 7.91885], [25.05917, 7.89611], [25.08956, 7.8849], [25.13441, 7.89254], [25.17317, 7.88856], [25.19157, 7.87239], [25.21689, 7.86407], [25.2297, 7.85162], [25.23942, 7.83596], [25.24965, 7.80433], [25.26453, 7.77772], [25.26991, 7.76077], [25.26681, 7.7031], [25.27942, 7.65948], [25.27497, 7.64196], [25.25255, 7.62243], [25.1865, 7.60011], [25.16521, 7.5799], [25.16459, 7.56734], [25.16904, 7.55117], [25.19043, 7.5012], [25.24996, 7.46998], [25.2696, 7.45422], [25.2851, 7.43159], [25.31621, 7.41722], [25.32417, 7.40291], [25.33595, 7.3596], [25.3468, 7.34503], [25.36003, 7.33557], [25.41615, 7.30777], [25.45512, 7.27821], [25.48116, 7.26617], [25.50034, 7.27279], [25.51677, 7.26994], [25.53165, 7.26069], [25.57661, 7.21982], [25.59242, 7.21124], [25.65402, 7.19538], [25.67273, 7.18783], [25.69701, 7.16861], [25.72451, 7.1667], [25.73443, 7.16241], [25.75024, 7.14654], [25.78621, 7.14267], [25.79158, 7.1344], [25.79169, 7.12112], [25.80078, 7.10494], [25.81577, 7.09977], [25.86073, 7.09554], [25.87747, 7.08773], [25.88874, 7.05187], [25.92026, 7.03414], [25.96046, 7.02448], [25.96625, 7.01745], [25.96945, 7.00355], [26.02609, 6.99668], [26.03229, 6.9741], [26.03581, 6.92227], [26.04542, 6.89968], [26.05059, 6.89669], [26.06919, 6.89906], [26.07363, 6.89514], [26.07157, 6.87746], [26.07735, 6.85333], [26.08097, 6.84235], [26.0912, 6.83033], [26.11373, 6.81646], [26.14763, 6.8047], [26.17874, 6.76592], [26.21946, 6.73752], [26.23621, 6.72003], [26.27062, 6.70249], [26.32974, 6.68058], [26.37801, 6.65329], [26.37987, 6.61978], [26.3561, 6.5795], [26.32437, 6.5372], [26.30504, 6.49692], [26.27703, 6.47736], [26.27021, 6.46565], [26.28912, 6.45943], [26.29067, 6.44467], [26.28282, 6.40785], [26.28964, 6.38721], [26.3007, 6.37783], [26.33522, 6.3606], [26.35175, 6.34437], [26.37584, 6.31259], [26.39465, 6.30055], [26.4362, 6.29171], [26.45201, 6.28029], [26.45562, 6.23047], [26.46493, 6.2244], [26.4795, 6.22507], [26.49583, 6.22115], [26.50896, 6.20546], [26.50947, 6.18639], [26.50007, 6.16797], [26.4456, 6.13022], [26.42927, 6.11309], [26.42131, 6.09366], [26.42483, 6.07245], [26.44064, 6.077], [26.48105, 6.10495], [26.49883, 6.09984], [26.52797, 6.04317], [26.54358, 6.03085], [26.60218, 6.01062], [26.63432, 6.00648], [26.70502, 6.00979], [26.77633, 5.98188], [26.79436, 5.97049], [26.80506, 5.95718], [26.81085, 5.91238], [26.81891, 5.89463], [26.84216, 5.88427], [26.86532, 5.88597], [26.88206, 5.89194], [26.89426, 5.88967], [26.90376, 5.86698], [26.91648, 5.84964], [26.93746, 5.84851], [26.98107, 5.8592], [26.99182, 5.84771], [27.0035, 5.81928], [27.022, 5.8051], [27.02954, 5.78988], [27.03606, 5.78513], [27.04536, 5.78492], [27.07274, 5.79122], [27.11481, 5.77528], [27.1238, 5.76875], [27.13093, 5.75213], [27.13145, 5.74146], [27.13631, 5.73402], [27.17041, 5.72035], [27.18235, 5.70746], [27.19077, 5.69182], [27.19641, 5.66146], [27.21837, 5.64531], [27.21067, 5.60162], [27.21734, 5.5854], [27.22261, 5.58436], [27.24751, 5.5926], [27.25713, 5.58607], [27.25993, 5.58001], [27.63784, 5.73789], [28.7838, 4.9645], [28.75543, 4.55399], [28.72453, 4.53399], [28.69518, 4.53259], [28.65373, 4.4527], [28.63864, 4.43208], [28.62366, 4.42237], [28.58242, 4.41263], [28.57054, 4.40511], [28.56428, 4.3826], [28.55731, 4.37353], [28.54821, 4.37082], [28.51927, 4.37441], [28.49684, 4.36901], [28.48243, 4.35899], [28.44393, 4.3085], [28.42543, 4.29082], [28.40414, 4.27783], [28.3815, 4.2753], [28.3545, 3.86809], [28.20206, 3.78188], [27.7529, 3.6113], [27.28666, 3.50274], [26.80858, 3.44757], [26.32397, 3.43706], [25.83814, 3.46236], [25.3564, 3.51451], [24.884, 3.58448], [24.34351, 3.67493], [23.80381, 3.77151], [23.26619, 3.87614], [22.85255, 3.96487], [22.54046, 4.22726], [22.52217, 4.21135], [22.51049, 4.19127], [22.49271, 4.17404], [22.45737, 4.14908], [22.42264, 4.13479], [22.30327, 4.12872], [22.20725, 4.15032], [22.18472, 4.1646], [22.15165, 4.17946], [22.12788, 4.20308], [22.10845, 4.20985], [22.05781, 4.21954], [22.00148, 4.24465], [21.98959, 4.24424], [21.9499, 4.23346], [21.89161, 4.23718], [21.86774, 4.24155], [21.83808, 4.26326], [21.81989, 4.27194], [21.771, 4.27349], [21.7585, 4.28561], [21.73731, 4.29338], [21.63416, 4.29421], [21.53815, 4.24465], [21.52781, 4.24925], [21.49722, 4.25147], [21.47314, 4.2693], [21.46022, 4.27194], [21.39769, 4.27163], [21.37485, 4.27816], [21.35831, 4.28555], [21.31036, 4.31609], [21.29889, 4.33023], [21.28834, 4.33338], [21.26592, 4.33007], [21.25072, 4.32036], [21.23243, 4.29783], [21.22344, 4.29245], [21.21093, 4.29157], [21.19574, 4.30292], [21.15812, 4.3102], [21.15006, 4.32671], [21.11357, 4.34085], [21.10344, 4.35328], [21.08422, 4.38824], [21.07606, 4.39547], [21.05962, 4.3986], [20.9635, 4.43374], [20.87152, 4.45337], [20.83235, 4.45069], [20.79184, 4.42619], [20.76786, 4.42278], [20.68838, 4.42278], [20.60311, 4.40973], [20.58027, 4.415], [20.55981, 4.42836], [20.45232, 4.52892], [20.44209, 4.5505], [20.44705, 4.56967], [20.46307, 4.60094], [20.45646, 4.6215], [20.44023, 4.64411], [20.42059, 4.66235], [20.40375, 4.66985], [20.39548, 4.67711], [20.37367, 4.72444], [20.35403, 4.7554], [20.33894, 4.77191], [20.32251, 4.77906], [20.30174, 4.78165], [20.25482, 4.79712], [20.23662, 4.80635], [20.21719, 4.82245], [20.17172, 4.87836], [20.1526, 4.89069], [20.08635, 4.91626], [20.03106, 4.95799], [20.00398, 4.97448], [19.9154, 4.99311], [19.89091, 5.00213], [19.88037, 5.01554], [19.87551, 5.03106], [19.85019, 5.07375], [19.83861, 5.08755], [19.82466, 5.09698], [19.77918, 5.11816], [19.7488, 5.12442], [19.71955, 5.13597], [19.60555, 5.13829], [19.56876, 5.15519], [19.5486, 5.15137], [19.51708, 5.13597], [19.49652, 5.1338], [19.43151, 5.13597], [19.40898, 5.13039], [19.3942, 5.11698], [19.37311, 5.08755], [19.28382, 5.03228], [19.237, 5.01078], [19.19566, 4.95035], [19.17902, 4.94642], [19.13302, 4.94693], [19.11618, 4.94045], [19.08331, 4.90934], [19.06905, 4.89125], [19.05778, 4.86779], [19.04414, 4.82689], [19.01975, 4.8033], [19.01158, 4.76503], [18.99804, 4.75064], [18.96228, 4.72444], [18.92818, 4.66644], [18.89789, 4.65065], [18.88653, 4.6214], [18.85242, 4.59406], [18.82824, 4.55998], [18.77697, 4.43345], [18.7533, 4.40061], [18.72106, 4.37736], [18.67434, 4.36131], [18.63393, 4.35596], [18.61429, 4.35981], [18.59579, 4.37126], [18.57647, 4.37276], [18.55683, 4.35415], [18.54195, 4.32785], [18.53709, 4.30607], [18.54505, 4.28902], [18.57254, 4.26568], [18.57864, 4.25486], [18.58391, 4.23579], [18.61967, 4.16957], [18.63269, 4.13042], [18.64654, 4.04598], [18.6453, 3.98244], [18.64158, 3.95826], [18.63455, 3.93573], [18.61368, 3.90147], [18.61171, 3.87909], [18.45906, 3.63138], [18.42971, 3.60022], [18.42061, 3.59637], [18.39229, 3.59585], [18.37989, 3.57438], [18.3556, 3.58146], [18.27592, 3.57438], [18.25587, 3.57723], [18.24853, 3.5749], [18.23158, 3.52116], [18.22, 3.50395], [18.20254, 3.48733], [18.18156, 3.47739], [18.15985, 3.48031], [18.14673, 3.4949], [18.13401, 3.53482], [18.11644, 3.55201], [18.08203, 3.56345], [18.04709, 3.56314], [18.01309, 3.55397], [17.98188, 3.5388], [17.96948, 3.53751], [17.91925, 3.5656], [17.87532, 3.54273], [17.85641, 3.53731], [17.84215, 3.54015], [17.83057, 3.57567], [17.82116, 3.59399], [17.80835, 3.60859], [17.79316, 3.61751], [17.75595, 3.61451], [17.73321, 3.63221], [17.70913, 3.62642], [17.62728, 3.62632], [17.58676, 3.63223], [17.55048, 3.64815], [17.50894, 3.68177], [17.49498, 3.68321], [17.49013, 3.68714], [17.4862, 3.70029], [17.48186, 3.70476], [17.45891, 3.70828], [17.37571, 3.66345], [17.35577, 3.63843], [17.33437, 3.61851], [17.2981, 3.6159], [17.25944, 3.6259], [17.24497, 3.62061], [17.21397, 3.58929], [17.19722, 3.58172], [17.14276, 3.58084], [17.10214, 3.56661], [17.08839, 3.56444], [17.06142, 3.56614], [17.03579, 3.55614], [17.00923, 3.53813], [16.98969, 3.53948], [16.96861, 3.53348], [16.94225, 3.55309], [16.90473, 3.55064], [16.86784, 3.56154], [16.85316, 3.56009], [16.85265, 3.53281], [16.83301, 3.52286], [16.81192, 3.52167], [16.72955, 3.54221], [16.68635, 3.54221], [16.63943, 3.5286], [16.5985, 3.50167], [16.5677, 3.46439], [16.55168, 3.41977], [16.54279, 3.33615], [16.51778, 3.27324], [16.51716, 3.24869], [16.51148, 3.22725], [16.47706, 3.17939], [16.46549, 3.1565], [16.46476, 3.1318], [16.05538, 2.93977], [16.02624, 2.97899], [16.00608, 2.98395]]], [[[24.23887, 8.76025], [24.183, 8.71792], [24.14708, 8.73569], [24.23887, 8.76025]]]]}}]}