{"type": "FeatureCollection", "features": [{"type": "Feature", "properties": {"name": "울루스 경계", "category": "경계선", "period": "13~14세기", "legend": "울루스 경계", "map_title": "몽골 제국의 영역", "source": "미래엔 세계사 교과서 2권 80쪽", "volume": 2, "page": 80}, "geometry": {"type": "LineString", "coordinates": [[38.99808, 44.19464], [39.42318, 44.10331], [40.24065, 43.89569], [40.63558, 43.80876], [41.12212, 43.64064], [41.60032, 43.51095], [41.93863, 43.37005], [42.27838, 43.24771], [42.62392, 43.13983], [42.97852, 43.04177], [43.34381, 42.94967], [43.71995, 42.86091], [44.10605, 42.77388], [44.90111, 42.60197], [45.87233, 42.4992], [46.8286, 42.4029], [48.09302, 42.39614]]}}, {"type": "Feature", "properties": {"name": "울루스 경계", "category": "경계선", "period": "13~14세기", "legend": "울루스 경계", "map_title": "몽골 제국의 영역", "source": "미래엔 세계사 교과서 2권 80쪽", "volume": 2, "page": 80}, "geometry": {"type": "LineString", "coordinates": [[52.64304, 45.19369], [53.10325, 45.12997], [53.5548, 45.07783], [53.99941, 45.03589], [54.40314, 44.88791], [55.20724, 44.60745], [56.02549, 44.61297], [58.06834, 44.63744], [58.60258, 44.5194]]}}, {"type": "Feature", "properties": {"name": "울루스 경계", "category": "경계선", "period": "13~14세기", "legend": "울루스 경계", "map_title": "몽골 제국의 영역", "source": "미래엔 세계사 교과서 2권 80쪽", "volume": 2, "page": 80}, "geometry": {"type": "LineString", "coordinates": [[71.40847, 44.30955], [70.66239, 44.11358], [69.36909, 44.37881], [68.27678, 44.04908], [67.45209, 43.9676], [66.17772, 44.01167], [64.92377, 44.13887], [63.6676, 44.25566], [63.20047, 44.16988], [61.94147, 43.5874], [61.25127, 43.37728], [60.25412, 43.25447], [59.56571, 43.34036]]}}, {"type": "Feature", "properties": {"name": "울루스 경계", "category": "경계선", "period": "13~14세기", "legend": "울루스 경계", "map_title": "몽골 제국의 영역", "source": "미래엔 세계사 교과서 2권 80쪽", "volume": 2, "page": 80}, "geometry": {"type": "LineString", "coordinates": [[67.35744, 29.63623], [67.29578, 30.44964], [67.39962, 32.48734], [67.16586, 33.20188], [66.81149, 34.2641], [66.68935, 35.57842], [66.60322, 36.5537], [65.71624, 37.14546], [64.82152, 37.72845], [64.42363, 38.21019], [64.06958, 39.21438], [63.52458, 39.67196], [62.70494, 40.34943], [61.88373, 41.01597], [61.06189, 41.67083], [60.5997, 42.13544], [60.13778, 42.59376], [59.56571, 43.34036]]}}, {"type": "Feature", "properties": {"name": "울루스 경계", "category": "경계선", "period": "13~14세기", "legend": "울루스 경계", "map_title": "몽골 제국의 영역", "source": "미래엔 세계사 교과서 2권 80쪽", "volume": 2, "page": 80}, "geometry": {"type": "LineString", "coordinates": [[91.67254, 48.58745], [91.20193, 48.16638], [90.5109, 47.74457], [89.32639, 47.34882], [88.83504, 47.35348], [88.09209, 47.59053], [87.21, 47.36032], [85.16352, 47.58678], [84.41763, 47.32462], [83.88277, 46.85506], [83.35133, 46.38209], [82.52863, 46.05004], [80.22498, 45.7382], [78.70848, 45.16235], [78.06574, 45.13989], [76.68067, 45.35664], [75.69609, 45.29291], [74.26015, 44.91652], [72.83577, 44.53492], [71.40847, 44.30955]]}}, {"type": "Feature", "properties": {"name": "울루스 경계", "category": "경계선", "period": "13~14세기", "legend": "울루스 경계", "map_title": "몽골 제국의 영역", "source": "미래엔 세계사 교과서 2권 80쪽", "volume": 2, "page": 80}, "geometry": {"type": "LineString", "coordinates": [[89.90872, 56.41693], [90.49095, 56.12221], [91.18721, 55.59116], [91.75715, 54.72742], [91.77205, 54.0446], [91.26871, 52.60037], [91.44418, 52.13144], [91.77207, 51.88901], [91.19668, 50.86745], [91.10767, 50.38343], [91.48287, 49.52328], [91.72874, 48.94348], [91.67966, 47.36102], [91.82276, 46.90053], [92.70627, 46.30078], [93.29353, 45.89793], [93.96909, 45.58362], [94.75731, 45.39124], [96.72608, 45.20002], [97.37109, 44.98842], [97.80066, 44.61342], [97.82119, 44.14829], [97.49425, 43.78979], [96.61508, 43.17454], [95.47251, 42.60562], [94.71707, 42.22297], [93.59417, 41.64433], [92.85289, 41.25566], [91.82105, 40.62451], [91.14078, 40.20095], [90.28763, 39.33685], [89.44879, 38.46528], [88.55739, 37.81809], [87.52645, 37.32612], [85.9957, 36.76783], [84.4944, 36.20714], [83.69569, 35.80911], [82.90609, 35.40976], [81.9988, 34.77547], [81.402, 34.35086], [80.8113, 33.92482], [80.21909, 33.34298], [79.6346, 32.75873], [79.93272, 33.27629]]}}]}