{"type": "FeatureCollection", "features": [{"type": "Feature", "properties": {"map_title": "아시아·태평양 전쟁의 전개", "source": "미래엔 세계사 교과서 4권 191쪽", "volume": 4, "page": 191, "legend": "일본의 방어선 1944년 3월", "name": "일본의 방어선(1944년 3월)", "name_en": "Japanese defensive perimeter (1944년 3월)", "period": "1944년 3월", "kind": "세력권", "note": "방어선 안쪽 범위(바다 포함)"}, "geometry": {"type": "Polygon", "coordinates": [[[162.80994, -2.46063], [163.40981, -2.51655], [164.01775, -2.55649], [164.63463, -2.57934], [165.26064, -2.58437], [165.89534, -2.57126], [166.53777, -2.5401], [167.96033, -2.43296], [168.34929, -2.39941], [169.13, -2.3247], [170.30119, -2.23175], [173.02465, -1.99349], [174.94203, -1.80774], [176.82618, -1.58728], [178.67333, -1.311], [179.76193, -1.09412], [180.48325, -0.95451], [181.55003, -0.67285], [182.25796, -0.49092], [182.90458, -0.23404], [183.41109, 0.1025], [183.77941, 0.512], [184.01134, 0.98733], [184.10852, 1.52077], [184.07259, 2.10402], [183.90516, 2.72812], [183.60791, 3.38349], [183.36385, 3.79058], [183.08831, 4.17661], [182.78638, 4.54392], [182.4632, 4.89493], [182.12391, 5.23215], [181.77364, 5.55816], [181.41761, 5.87558], [180.31314, 6.84357], [179.5767, 7.49966], [178.61321, 8.37471], [177.67121, 9.25099], [176.9788, 9.90954], [176.52381, 10.34941], [176.074, 10.79003], [175.40868, 11.45254], [174.87898, 12.01077], [174.37424, 12.61142], [173.92174, 13.24987], [173.54809, 13.92082], [173.27941, 14.6182], [173.14172, 15.33531], [173.16135, 16.06475], [173.36528, 16.79852], [173.67652, 17.37246], [174.08361, 17.87627], [174.56448, 18.32617], [175.09721, 18.73813], [175.65992, 19.12779], [176.23083, 19.51038], [176.78817, 19.90078], [177.31029, 20.31352], [177.67835, 20.74567], [177.86442, 20.95814], [178.24079, 21.37558], [178.43115, 21.58045], [178.64425, 22.11038], [178.75337, 22.37121], [178.97676, 22.8845], [178.99934, 23.42174], [179.04273, 24.2154], [178.88104, 24.89144], [178.72525, 25.56407], [178.42393, 26.23607], [178.12852, 26.90835], [177.74255, 27.55778], [177.36235, 28.20945], [176.94451, 28.81322], [176.53029, 29.42126], [175.73134, 30.49005], [175.10315, 31.31144], [174.15715, 32.56411], [173.52361, 33.41289], [172.87743, 34.26823], [172.39421, 34.9169], [171.89825, 35.56588], [171.23966, 36.43936], [170.73064, 37.09287], [170.05581, 37.97053], [169.35845, 38.84239], [168.83952, 39.49934], [168.12153, 40.36393], [167.58847, 41.0136], [167.03283, 41.651], [166.48302, 42.28783], [165.76376, 43.12739], [165.23379, 43.75253], [164.72724, 44.38549], [164.23015, 45.01417], [163.74686, 45.6412], [162.35394, 47.46817], [161.45087, 48.60449], [160.55061, 49.6352], [160.08364, 50.09079], [159.63992, 50.51662], [159.16194, 50.87508], [158.86136, 51.08995], [158.71782, 51.18895], [158.49523, 51.30916], [158.26766, 51.4054], [158.03424, 51.46884], [157.79337, 51.48633], [157.53946, 51.42145], [157.2695, 51.25245], [156.99382, 51.06103], [156.68936, 50.90473], [156.37666, 50.85167], [156.0588, 50.82001], [155.75617, 50.75998], [155.46681, 50.54605], [155.23326, 50.24901], [155.06719, 49.9911], [154.92931, 49.7246], [154.77276, 49.4548], [154.52998, 49.16095], [154.18571, 48.82339], [153.84493, 48.496], [153.51528, 48.18263], [153.19669, 47.88741], [152.89885, 47.63232], [152.58773, 47.37515], [152.29039, 47.15143], [152.02111, 46.99173], [151.68642, 46.82013], [151.21314, 46.5966], [150.68932, 46.33973], [150.24587, 46.09357], [149.93256, 45.90241], [149.64229, 45.71815], [149.2993, 45.54079], [149.01015, 45.43032], [148.71311, 45.33063], [148.56737, 45.28686], [148.42583, 45.24827], [148.29006, 45.21569], [148.16176, 45.18985], [147.94784, 45.15912], [147.78771, 45.15078], [147.65302, 45.17018], [147.5139, 45.22391], [147.34772, 45.3157], [147.14943, 45.44082], [146.23248, 46.05133], [145.74992, 46.3554], [145.25086, 46.62759], [144.74399, 46.84085], [144.23552, 46.97346], [143.73565, 47.01597], [143.3014, 46.99944], [142.99965, 46.94002], [142.88103, 46.85729], [142.76243, 46.73244], [142.64089, 46.57132], [142.51865, 46.38058], [142.12313, 45.71125], [141.96843, 45.46646], [141.72392, 45.09565], [141.45291, 44.61866], [141.16791, 44.0954], [140.88226, 43.62381], [140.65618, 43.2729], [140.52665, 43.097], [140.36956, 42.95035], [140.16166, 42.74981], [139.95084, 42.53207], [139.5972, 42.19028], [139.51044, 42.14039], [139.48036, 42.1122], [139.4067, 42.06502], [139.14877, 42.00773], [138.77885, 41.9511], [138.37329, 41.88233], [137.54323, 41.7174], [137.14288, 41.61946], [136.7661, 41.50498], [136.39636, 41.38813], [136.04987, 41.25526], [135.39116, 40.96081], [135.27934, 40.9161], [135.16643, 40.87553], [135.05224, 40.84032], [134.93662, 40.81165], [134.81945, 40.79071], [134.50005, 40.78445], [134.19084, 40.77227], [133.75063, 40.91395], [133.46226, 41.18422], [133.29318, 41.54338], [133.21094, 41.94783], [133.18099, 42.34834], [133.16223, 42.68498], [133.13212, 43.02067], [133.11928, 43.423], [133.13141, 43.9006], [133.19184, 44.41431], [133.31654, 44.93519], [133.50153, 45.43655], [133.90414, 46.2952], [133.99898, 46.64072], [134.00141, 46.7326], [133.99733, 46.77693], [133.98871, 46.8194], [133.97483, 46.85948], [133.95499, 46.89656], [133.92853, 46.9301], [133.89484, 46.95946], [133.86191, 46.9798], [133.82546, 46.997], [133.74521, 47.02464], [133.57643, 47.07193], [133.48701, 47.10738], [133.40603, 47.15229], [133.33358, 47.20613], [133.2699, 47.26834], [133.21535, 47.33826], [133.1703, 47.41521], [133.13528, 47.49849], [133.11085, 47.58735], [133.09453, 47.69961], [133.07808, 47.87179], [133.06996, 47.92853], [133.05851, 47.98426], [133.04254, 48.03861], [132.92681, 48.22812], [132.73722, 48.38646], [132.49369, 48.51855], [132.21559, 48.6291], [131.92122, 48.72285], [131.35175, 48.87893], [131.10896, 48.95066], [130.93576, 49.02334], [130.80885, 49.10952], [130.72093, 49.2079], [130.66498, 49.31726], [130.63401, 49.4364], [130.62106, 49.56421], [130.61912, 49.69958], [130.62169, 49.97178], [130.6178, 50.11172], [130.60525, 50.26223], [130.59439, 50.34175], [130.50712, 50.79715], [130.45585, 51.03453], [130.39431, 51.27937], [130.32033, 51.52198], [130.2319, 51.7527], [130.12714, 51.96185], [130.00425, 52.13974], [129.86155, 52.27677], [129.67905, 52.3789], [129.45237, 52.45582], [129.19453, 52.51223], [128.9184, 52.55282], [128.63667, 52.58229], [128.10636, 52.6264], [127.73373, 52.66796], [127.58744, 52.68064], [127.44395, 52.68836], [127.30364, 52.69119], [127.14305, 52.68661], [126.97293, 52.67174], [126.79745, 52.64625], [126.62078, 52.60975], [126.44706, 52.56183], [126.28041, 52.50214], [126.12496, 52.43024], [125.98478, 52.34574], [125.80528, 52.18679], [125.70762, 52.02759], [125.66676, 51.86857], [125.65775, 51.71025], [125.65576, 51.55321], [125.63599, 51.39809], [125.57374, 51.24554], [125.44436, 51.09636], [125.10976, 50.81847], [124.91647, 50.63351], [124.76656, 50.43985], [124.6436, 50.24287], [124.53116, 50.04804], [124.41284, 49.86088], [124.27222, 49.68698], [124.09284, 49.53194], [123.85819, 49.40141], [123.39227, 49.21628], [123.14937, 49.10829], [122.92643, 48.98001], [122.74345, 48.82389], [122.62048, 48.63236], [122.57763, 48.3978], [122.63509, 48.11252], [122.72442, 47.95234], [122.85498, 47.8239], [123.01634, 47.71909], [123.19804, 47.62982], [123.58084, 47.46546], [123.76118, 47.37417], [123.92039, 47.26602], [124.08667, 47.11769], [124.23971, 46.95686], [124.37871, 46.78487], [124.50285, 46.60302], [124.61127, 46.41264], [124.70312, 46.21505], [124.77751, 46.01159], [124.83352, 45.8036], [124.88349, 45.47837], [124.89067, 45.15213], [124.85647, 44.82866], [124.78228, 44.51165], [124.66959, 44.20472], [124.52002, 43.91149], [124.33536, 43.6355], [124.11763, 43.38029], [123.97778, 43.24307], [123.82956, 43.11327], [123.67392, 42.99038], [123.51179, 42.87387], [123.34411, 42.76323], [123.1718, 42.65795], [122.99578, 42.55752], [122.81696, 42.46142], [122.39904, 42.25498], [121.97017, 42.06715], [121.53166, 41.89817], [121.08475, 41.74832], [120.63067, 41.6179], [120.17058, 41.50726], [119.7056, 41.41677], [119.23686, 41.34686], [118.99094, 41.31817], [118.25144, 41.24152], [118.00601, 41.21104], [117.76194, 41.17407], [117.5197, 41.12814], [117.2798, 41.0708], [116.52716, 40.75849], [115.99573, 40.30793], [115.65106, 39.74708], [115.45903, 39.10392], [115.38585, 38.40654], [115.3979, 37.68312], [115.46168, 36.96202], [115.5972, 35.80903], [115.62014, 35.57653], [115.63833, 35.34318], [115.64587, 35.04904], [115.62626, 34.81777], [115.58118, 34.63976], [115.51226, 34.50531], [115.42119, 34.40462], [115.30963, 34.32782], [115.17923, 34.26498], [114.80167, 34.11259], [114.67906, 34.05378], [114.5527, 33.98261], [114.4236, 33.89579], [114.29276, 33.79003], [114.16115, 33.66199], [114.02972, 33.50831], [113.91976, 33.35522], [113.82412, 33.19422], [113.74288, 33.02541], [113.67605, 32.8489], [113.6237, 32.6648], [113.58584, 32.4732], [113.56254, 32.2742], [113.55383, 32.06792], [113.55816, 31.94795], [113.57983, 31.77263], [113.63416, 31.47457], [113.65259, 31.34869], [113.66224, 31.22314], [113.65908, 31.09632], [113.63401, 30.85272], [113.60069, 30.59984], [113.55629, 30.33935], [113.49799, 30.07296], [113.42296, 29.8024], [113.32842, 29.52947], [113.21158, 29.25608], [113.06972, 28.98415], [112.96153, 28.8031], [112.84602, 28.62172], [112.38508, 27.93635], [112.2773, 27.7705], [112.17341, 27.60276], [112.07499, 27.43296], [111.98362, 27.26084], [111.90089, 27.08619], [111.82835, 26.90875], [111.79707, 26.81168], [111.73762, 26.59637], [111.70832, 26.50124], [111.67741, 26.41606], [111.64381, 26.34268], [111.60642, 26.28296], [111.56414, 26.23873], [111.51587, 26.21183], [111.46053, 26.2041], [111.42043, 26.20957], [111.37669, 26.22277], [111.34574, 26.23585], [111.02809, 26.39024], [110.89771, 26.43864], [110.82952, 26.45672], [110.75888, 26.46951], [110.68551, 26.47611], [110.60767, 26.47551], [110.45685, 26.45564], [110.33572, 26.42568], [110.21863, 26.38561], [110.1066, 26.33769], [110.0007, 26.28416], [109.90195, 26.22728], [109.81141, 26.16927], [109.73009, 26.11238], [109.6233, 26.02369], [109.53339, 25.92593], [109.45801, 25.82054], [109.39475, 25.70894], [109.34128, 25.59257], [109.29525, 25.47289], [109.15106, 25.02807], [109.09544, 24.87993], [109.02066, 24.71839], [108.96126, 24.60846], [108.89679, 24.50122], [108.82742, 24.3955], [108.75332, 24.29012], [108.59162, 24.07576], [108.42228, 23.86276], [108.34133, 23.76849], [108.25992, 23.68309], [108.1765, 23.60806], [108.08947, 23.54486], [107.99728, 23.49497], [107.89835, 23.4599], [107.79112, 23.44112], [107.72703, 23.43898], [107.63386, 23.44569], [107.46319, 23.47108], [107.38372, 23.47926], [107.31613, 23.48036], [107.22054, 23.47028], [107.12835, 23.44623], [106.93608, 23.36448], [106.76455, 23.2601], [106.61133, 23.13638], [106.47399, 22.9966], [106.35014, 22.84407], [106.23738, 22.68208], [106.13329, 22.5139], [105.84703, 22.00536], [105.64115, 21.65468], [105.41567, 21.30782], [105.16816, 20.98192], [104.89599, 20.69428], [104.59632, 20.46235], [104.26611, 20.30364], [103.90223, 20.23562], [103.87521, 20.2344], [103.83205, 20.23586], [103.78041, 20.2429], [103.73327, 20.25493], [103.6898, 20.27139], [103.64916, 20.29172], [103.57309, 20.34168], [103.40404, 20.47323], [103.33251, 20.52059], [103.25151, 20.56276], [103.15487, 20.59841], [103.05746, 20.62168], [102.98395, 20.62914], [102.90792, 20.62727], [102.72267, 20.60639], [102.66708, 20.60541], [102.60008, 20.609], [102.1069, 20.77056], [101.62875, 21.10444], [101.17985, 21.57033], [100.77469, 22.12851], [100.42783, 22.74015], [100.15371, 23.36719], [99.96662, 23.97223], [99.88068, 24.51835], [99.87696, 24.59525], [99.87865, 24.82106], [99.91139, 25.29521], [99.91906, 25.47603], [99.91475, 25.65449], [99.89253, 25.83068], [99.84647, 26.00473], [99.77061, 26.17671], [99.65905, 26.34671], [99.50584, 26.5148], [99.40824, 26.60079], [99.30776, 26.67685], [99.20478, 26.74283], [99.0997, 26.79857], [98.99288, 26.8439], [98.88472, 26.87866], [98.77558, 26.9027], [98.66586, 26.91587], [98.53566, 26.91689], [98.40822, 26.90186], [98.28428, 26.87112], [98.16455, 26.82504], [98.04976, 26.76393], [97.94062, 26.68814], [97.83785, 26.59801], [97.74217, 26.49387], [97.58245, 26.26995], [97.46415, 26.04016], [97.38127, 25.80559], [97.32787, 25.5673], [97.29802, 25.32637], [97.28582, 25.08392], [97.28538, 24.84109], [97.2978, 24.27637], [97.29717, 24.11417], [97.2915, 23.95206], [97.27912, 23.79053], [97.25828, 23.63006], [97.22732, 23.47119], [97.18451, 23.31441], [97.11622, 23.13028], [97.03058, 22.94457], [96.93028, 22.75779], [96.81801, 22.57044], [96.69644, 22.383], [96.56824, 22.19595], [96.1872, 21.66429], [95.96079, 21.34022], [95.85316, 21.17723], [95.75151, 21.01392], [95.65752, 20.85054], [95.57289, 20.68731], [95.49929, 20.5245], [95.08202, 19.44593], [94.73683, 18.39067], [94.4618, 17.35327], [94.35793, 16.84093], [94.25527, 16.32832], [94.11574, 15.31043], [94.0419, 14.29415], [94.03256, 13.27391], [94.08666, 12.2438], [94.60494, 8.76571], [95.00471, 7.29167], [95.51975, 5.34967], [95.6238, 4.98358], [95.792, 4.62181], [95.93548, 4.18714], [95.96723, 3.62842], [95.96443, 3.16148], [95.96821, 2.91749], [95.99253, 2.80692], [96.05327, 2.73144], [96.18342, 2.60261], [96.40588, 2.36005], [96.66978, 2.06304], [96.92503, 1.76802], [97.20688, 1.41323], [97.28666, 1.28847], [97.38565, 1.12643], [97.61383, 0.73533], [97.89352, 0.22893], [98.2267, -0.33293], [98.36275, -0.60802], [98.46186, -0.86863], [98.54487, -1.10876], [98.63104, -1.3158], [98.72518, -1.4834], [98.83501, -1.6049], [98.96502, -1.70628], [99.1249, -1.83908], [99.32613, -2.04857], [99.55438, -2.30237], [99.80351, -2.58729], [100.07172, -2.8997], [100.35781, -3.24222], [100.98119, -4.00825], [101.88241, -5.05833], [102.08869, -5.30806], [102.23376, -5.5216], [102.24682, -5.53576], [102.24637, -5.49034], [102.26104, -5.46144], [102.30414, -5.45079], [102.41332, -5.47106], [102.6698, -5.55463], [103.0175, -5.69299], [103.40943, -5.86731], [103.81749, -6.07042], [104.21769, -6.29892], [104.58375, -6.55173], [104.88297, -6.82976], [105.09692, -7.1325], [105.24396, -7.45463], [105.34568, -7.79059], [105.41584, -8.13613], [105.49012, -8.45157], [105.54859, -8.76822], [105.64464, -9.39245], [105.69508, -9.69286], [105.75719, -9.97909], [105.84269, -10.24283], [105.9609, -10.47757], [106.10386, -10.69004], [106.26425, -10.88637], [106.43837, -11.06988], [106.63316, -11.21173], [106.83695, -11.34435], [107.04877, -11.46886], [107.26786, -11.58615], [107.49363, -11.69698], [107.72658, -11.78915], [107.96503, -11.87604], [108.20868, -11.95813], [108.45726, -12.03584], [108.71057, -12.10958], [108.96849, -12.16667], [109.23053, -12.22039], [109.49657, -12.27102], [110.04015, -12.36414], [110.59691, -12.42136], [111.45691, -12.4929], [112.04327, -12.50604], [112.94458, -12.51737], [114.49114, -12.45319], [116.0867, -12.31232], [116.89791, -12.20692], [117.72207, -12.10407], [118.81198, -11.91755], [119.92054, -11.73949], [121.03037, -11.50508], [122.15274, -11.28233], [123.26695, -11.0029], [124.3829, -10.73566], [126.54194, -10.08124], [126.88245, -9.94625], [127.2163, -9.80945], [127.54185, -9.67004], [127.8571, -9.52705], [128.15966, -9.3793], [128.44674, -9.22548], [128.70623, -9.03343], [128.94453, -8.83242], [129.16168, -8.62484], [129.36153, -8.41794], [129.55285, -8.22744], [129.75029, -8.087], [129.97231, -8.04907], [130.21666, -8.08452], [130.46992, -8.13788], [130.71943, -8.17944], [130.94177, -8.17774], [131.09791, -8.09064], [131.23224, -7.93977], [131.39156, -7.77788], [131.61773, -7.63913], [131.95935, -7.55388], [132.42471, -7.45937], [133.00468, -7.32621], [133.37236, -7.22507], [133.73722, -7.11215], [134.07895, -6.99109], [134.37547, -6.86771], [134.59276, -6.75545], [134.69777, -6.67061], [134.74325, -6.59624], [134.75962, -6.52631], [134.7991, -6.42151], [134.98543, -6.31026], [135.56098, -6.19375], [136.29968, -6.05197], [137.75588, -5.81148], [138.16729, -5.84135], [138.31206, -5.9811], [138.37482, -6.10944], [138.49854, -6.20223], [138.76977, -6.24062], [139.0948, -6.25078], [139.42663, -6.21337], [139.76679, -6.15876], [140.09214, -6.05353], [140.42018, -5.9367], [140.73905, -5.74549], [141.06033, -5.54593], [141.38216, -5.34036], [142.19132, -4.58953], [142.90626, -3.76807], [143.35752, -3.20238], [144.05449, -2.34987], [144.28917, -2.05671], [144.54268, -1.77935], [145.04492, -1.21306], [145.32685, -0.9644], [145.87858, -0.46548], [146.81747, 0.09963], [147.45795, 0.33381], [147.77923, 0.40578], [148.09941, 0.47202], [148.42296, 0.49975], [148.74791, 0.5218], [149.07716, 0.50997], [149.41014, 0.49313], [150.09114, 0.39815], [150.79095, 0.25064], [151.50251, 0.06569], [152.21491, -0.14], [152.81278, -0.3219], [153.11298, -0.40844], [154.01981, -0.66368], [154.32597, -0.74447], [154.94467, -0.90346], [155.57186, -1.05851], [156.52473, -1.28478], [157.48453, -1.50192], [158.12384, -1.64198], [159.07755, -1.84242], [160.02294, -2.02919], [160.64949, -2.14493], [161.27505, -2.25113], [161.90196, -2.34658], [162.21669, -2.39025], [162.80994, -2.46063]]]}}]}