{"type": "FeatureCollection", "features": [{"type": "Feature", "properties": {"map_title": "아시아·태평양 전쟁의 전개", "source": "미래엔 세계사 교과서 4권 191쪽", "volume": 4, "page": 191, "legend": "일본의 방어선 1944년 10월", "name": "일본의 방어선(1944년 10월)", "name_en": "Japanese defensive perimeter (1944년 10월)", "period": "1944년 10월", "kind": "세력권", "note": "방어선 안쪽 범위(바다 포함)", "border_snap": "현대 국경(Natural Earth 10m)에 맞춘 구간 약 808 km"}, "geometry": {"type": "Polygon", "coordinates": [[[149.44096, 45.4221], [149.57153, 45.50489], [150.00107, 45.812], [150.50242, 46.15688], [151.30414, 46.60406], [152.08645, 47.06861], [152.67858, 47.49272], [153.28049, 47.91355], [153.69683, 48.22521], [154.12589, 48.60888], [154.44531, 48.9293], [154.73938, 49.26908], [154.95997, 49.59976], [155.13906, 49.91933], [155.35143, 50.23064], [155.65549, 50.46084], [155.98849, 50.56964], [156.27707, 50.6294], [156.57627, 50.77265], [156.69162, 50.72597], [156.76273, 50.58155], [156.78732, 50.36106], [156.76925, 50.08567], [156.71311, 49.77378], [156.6241, 49.44277], [156.44412, 48.97123], [156.3008, 48.58216], [156.15721, 48.17991], [155.99496, 47.71174], [155.74714, 47.18305], [155.50399, 46.64236], [155.28261, 46.1253], [155.15452, 45.81371], [154.86967, 45.25522], [154.61188, 44.72486], [154.46372, 44.40857], [154.20883, 43.84058], [154.00875, 43.46005], [153.75274, 42.95746], [153.491, 42.42247], [153.22517, 41.85586], [153.00001, 41.43019], [152.75102, 40.94718], [152.50359, 40.45346], [152.23237, 39.89633], [151.80619, 39.0874], [151.54252, 38.57293], [151.24562, 37.98102], [150.8617, 37.25127], [150.2292, 36.02789], [149.88313, 35.33822], [149.62445, 34.83319], [149.3619, 34.31085], [148.52454, 32.60561], [148.0506, 31.6808], [147.684, 30.95058], [147.32928, 30.29557], [146.83544, 29.36685], [146.48987, 28.78018], [145.96755, 27.88053], [145.50867, 27.19303], [145.06703, 26.51846], [144.57724, 25.8982], [144.11618, 25.30445], [143.67155, 24.84516], [143.08728, 24.24983], [142.49897, 23.78788], [141.92995, 23.33468], [141.51899, 23.07978], [141.06999, 22.84486], [140.09295, 22.38223], [139.58541, 22.13119], [139.08059, 21.8533], [138.59084, 21.5393], [138.1288, 21.18037], [137.67717, 20.75106], [137.2598, 20.28349], [136.86758, 19.783], [136.49119, 19.25464], [135.99066, 18.50613], [135.3635, 17.5494], [134.90945, 16.89017], [134.45957, 16.22926], [134.13651, 15.73633], [133.97091, 15.48206], [133.48781, 14.71689], [132.91191, 13.782], [132.27738, 12.737], [131.77983, 11.92616], [131.26957, 11.11079], [131.00905, 10.7039], [130.76253, 10.34294], [130.51324, 9.98501], [130.26124, 9.63084], [129.83308, 9.05591], [129.61601, 8.77441], [129.39675, 8.49756], [129.18043, 8.20841], [128.96152, 7.92514], [128.73961, 7.64848], [128.51407, 7.37925], [128.32061, 7.10532], [128.12334, 6.83928], [127.92121, 6.58215], [127.71284, 6.33514], [127.57107, 6.08419], [127.42401, 5.84238], [127.26986, 5.61115], [127.10627, 5.39232], [127.03894, 5.08382], [126.96307, 4.79221], [126.87534, 4.52475], [127.05404, 4.20584], [127.24566, 3.87582], [127.44544, 3.50004], [127.97343, 2.96142], [128.36382, 2.60624], [128.56386, 2.46956], [128.63094, 2.41506], [128.72964, 2.41453], [128.69828, 2.48383], [129.13716, 2.70943], [129.76445, 2.9386], [129.9031, 2.95837], [130.42317, 3.0317], [130.98058, 2.7486], [131.26513, 1.7639], [131.46238, 0.63418], [131.80255, -0.30715], [132.23614, -0.74163], [132.71122, -0.95034], [133.21517, -1.04808], [133.75454, -1.11953], [134.29547, -1.24658], [134.58546, -1.50425], [134.74511, -2.04536], [134.81798, -2.40283], [134.88224, -2.79246], [134.93398, -3.18902], [134.96564, -3.54028], [134.98036, -3.85665], [134.98325, -4.17827], [134.96336, -4.48734], [134.91707, -4.77625], [134.89187, -4.88268], [134.86262, -4.98604], [134.79355, -5.1842], [134.71462, -5.37314], [134.63275, -5.55593], [134.52049, -5.7914], [134.32306, -6.18589], [134.20199, -6.38117], [134.0075, -6.5459], [133.73571, -6.68422], [133.40934, -6.81484], [133.0466, -6.94181], [132.66866, -7.06401], [131.99663, -7.26978], [131.5323, -7.39594], [131.35069, -7.45653], [131.20292, -7.52856], [130.96913, -7.66836], [130.86138, -7.71725], [130.7481, -7.74568], [130.42651, -7.7218], [130.05242, -7.63247], [129.68335, -7.59567], [129.35209, -7.7459], [128.68946, -8.33748], [128.30194, -8.63436], [127.86975, -8.90671], [127.56543, -9.06597], [127.24905, -9.22027], [126.92264, -9.37054], [126.58266, -9.50466], [125.88441, -9.76753], [125.52366, -9.88478], [124.79346, -10.11902], [123.6731, -10.43692], [122.53792, -10.72715], [121.39781, -10.99228], [120.25988, -11.23297], [119.12955, -11.44865], [118.57684, -11.54552], [118.02764, -11.63601], [117.66367, -11.6926], [116.85072, -11.79936], [116.05088, -11.90861], [114.47837, -12.05753], [112.95525, -12.1304], [112.2143, -12.12626], [111.49146, -12.11553], [110.92463, -12.0737], [110.37089, -12.02498], [110.09909, -11.99754], [109.83042, -11.95455], [109.30455, -11.86085], [109.04756, -11.80963], [108.7947, -11.7551], [108.54667, -11.68392], [108.3034, -11.60883], [108.06512, -11.52944], [107.83209, -11.44532], [107.60463, -11.356], [107.38472, -11.24792], [107.17167, -11.1334], [106.96609, -11.01167], [106.76881, -10.88181], [106.58089, -10.74266], [106.41613, -10.56141], [106.26603, -10.36687], [106.13414, -10.15588], [106.02482, -9.92463], [105.93986, -9.67124], [105.87479, -9.39856], [105.82205, -9.11174], [105.72579, -8.51359], [105.67001, -8.20942], [105.60092, -7.90602], [105.53442, -7.57374], [105.43856, -7.25144], [105.30118, -6.94321], [105.09933, -6.65489], [104.78574, -6.39612], [104.40741, -6.16356], [104.00143, -5.95607], [103.59145, -5.77577], [103.19977, -5.62726], [102.8518, -5.51845], [102.57705, -5.45945], [102.41668, -5.44642], [102.35666, -5.44825], [102.33612, -5.46297], [102.32339, -5.4773], [102.29959, -5.47233], [102.24493, -5.42562], [102.13697, -5.30269], [101.94136, -5.05261], [101.66249, -4.717], [100.6412, -3.54004], [100.33679, -3.17466], [100.07727, -2.84512], [99.83418, -2.54527], [99.60504, -2.27556], [99.39327, -2.04154], [99.20493, -1.8542], [99.04481, -1.71893], [98.90932, -1.61274], [98.79302, -1.49012], [98.69397, -1.29848], [98.60039, -1.06992], [98.5062, -0.81116], [98.39283, -0.53696], [98.25231, -0.25352], [98.08906, 0.03261], [97.91774, 0.31367], [97.76135, 0.58101], [97.47795, 1.24415], [97.39453, 1.4199], [97.30905, 1.57859], [97.03959, 1.97689], [96.83805, 2.24474], [96.45584, 2.7388], [96.3383, 2.91093], [96.2744, 3.05964], [96.24641, 3.24621], [96.22462, 3.94002], [96.17746, 4.40111], [96.06935, 4.81885], [95.92761, 5.17892], [95.8208, 5.53052], [95.72364, 5.86503], [95.52878, 6.59505], [95.32511, 7.34052], [95.12162, 8.06827], [94.8994, 8.84436], [94.78447, 9.66343], [94.65949, 10.51587], [94.52371, 11.40154], [94.38747, 12.25228], [94.3346, 13.25922], [94.34409, 14.25761], [94.39224, 14.92157], [94.41695, 15.25311], [94.55437, 16.25106], [94.75766, 17.25675], [95.02826, 18.27546], [95.36787, 19.31245], [95.77838, 20.3731], [95.8463, 20.52317], [95.92533, 20.67507], [96.0138, 20.82839], [96.11005, 20.98268], [96.3191, 21.29245], [96.81231, 21.98271], [96.94705, 22.17953], [97.07632, 22.37937], [97.19698, 22.58149], [97.30584, 22.78519], [97.39973, 22.98969], [97.47543, 23.19424], [97.52422, 23.37211], [97.55961, 23.55117], [97.57051, 23.63265], [97.62467, 23.84671], [97.61971, 23.86599], [97.60989, 23.88314], [97.57268, 23.90756], [97.53299, 23.92371], [97.51646, 23.94283], [97.70766, 24.1253], [97.72006, 24.14744], [97.72306, 24.17126], [97.71872, 24.18155], [97.70456, 24.19925], [97.70156, 24.21093], [97.70466, 24.22173], [97.72409, 24.24152], [97.71841, 24.27767], [97.64451, 24.30239], [97.6382, 24.3281], [97.65361, 24.33872], [97.67428, 24.34084], [97.68957, 24.34647], [97.68833, 24.36771], [97.68099, 24.37776], [97.6626, 24.39006], [97.6473, 24.43233], [97.63986, 24.43929], [97.62436, 24.44228], [97.60069, 24.44192], [97.51956, 24.43078], [97.51325, 24.43859], [97.51387, 24.46169], [97.53857, 24.59726], [97.53279, 24.72332], [97.53609, 24.74503], [97.604, 24.78645], [97.66394, 24.82978], [97.68595, 24.83352], [97.72657, 24.82629], [97.74848, 24.82647], [97.76523, 24.83466], [97.77298, 24.85469], [97.76099, 24.87029], [97.72409, 24.89722], [97.70828, 24.92729], [97.70332, 24.96042], [97.70518, 25.02883], [97.6996, 25.06501], [97.70363, 25.07392], [97.72161, 25.07927], [97.73753, 25.09051], [97.75406, 25.11356], [97.77701, 25.15862], [97.80099, 25.23763], [97.80679, 25.24378], [97.62005, 25.39774], [97.62967, 25.4799], [97.67456, 25.68792], [97.74418, 25.88991], [97.84349, 26.08545], [97.97742, 26.27413], [98.04804, 26.35123], [98.12354, 26.41794], [98.20339, 26.47401], [98.28707, 26.51921], [98.37407, 26.5533], [98.46385, 26.57603], [98.5559, 26.58717], [98.64969, 26.58647], [98.73314, 26.57618], [98.81652, 26.55722], [98.89953, 26.52973], [98.96545, 26.50104], [99.06336, 26.44972], [99.14358, 26.39746], [99.22229, 26.3372], [99.29922, 26.26908], [99.40974, 26.1504], [99.49175, 26.03182], [99.54882, 25.9102], [99.58459, 25.78242], [99.60265, 25.64535], [99.60663, 25.49585], [99.60018, 25.33078], [99.57594, 24.99242], [99.56528, 24.75293], [99.56632, 24.58799], [99.57039, 24.50387], [99.66484, 23.90492], [99.86929, 23.2472], [100.16918, 22.56922], [100.54981, 21.90995], [100.99624, 21.30914], [101.4934, 20.80749], [102.02631, 20.44678], [102.5803, 20.26962], [102.66629, 20.26445], [102.73658, 20.26473], [102.96895, 20.28786], [103.02556, 20.2833], [103.08449, 20.26846], [103.1444, 20.24608], [103.19543, 20.21917], [103.24366, 20.18675], [103.41385, 20.05401], [103.46775, 20.01675], [103.52607, 19.98188], [103.58959, 19.95076], [103.65908, 19.92478], [103.73534, 19.90531], [103.81915, 19.89375], [103.85993, 19.89158], [103.93034, 19.89283], [104.35039, 19.9695], [104.49843, 20.03909], [104.65705, 20.2127], [104.69085, 20.19655], [104.73359, 20.20476], [104.7788, 20.21902], [104.81916, 20.22099], [104.90118, 20.17884], [105.02505, 20.37133], [105.06952, 20.40493], [105.37546, 20.72193], [105.64982, 21.07743], [105.89538, 21.45088], [106.11464, 21.82199], [106.33599, 22.21524], [106.5418, 22.3451], [106.53652, 22.36055], [106.53451, 22.39755], [106.52691, 22.43827], [106.53032, 22.44928], [106.54588, 22.47253], [106.56877, 22.57459], [106.57714, 22.59531], [106.588, 22.60777], [106.60763, 22.60999], [106.63006, 22.58012], [106.64634, 22.5688], [106.66789, 22.56911], [106.68019, 22.57945], [106.6977, 22.63087], [106.73553, 22.69541], [106.73956, 22.72678], [106.74664, 22.74435], [106.75848, 22.75422], [106.7915, 22.77212], [106.79873, 22.78437], [106.78984, 22.79719], [106.94566, 22.9796], [107.06879, 23.05607], [107.22263, 23.12208], [107.27132, 23.13483], [107.32149, 23.1398], [107.3741, 23.13784], [107.60115, 23.10566], [107.71767, 23.09798], [107.81145, 23.10132], [107.97631, 23.13072], [108.12523, 23.18442], [108.25951, 23.25768], [108.38045, 23.3458], [108.48933, 23.44402], [108.58745, 23.54761], [108.67606, 23.65185], [108.93974, 23.98772], [109.10473, 24.21651], [109.18011, 24.33181], [109.2506, 24.44962], [109.31611, 24.57134], [109.37653, 24.69841], [109.42217, 24.80721], [109.48127, 24.97223], [109.60112, 25.34475], [109.63798, 25.44364], [109.67873, 25.53642], [109.72511, 25.62243], [109.77885, 25.70103], [109.84172, 25.77158], [109.91544, 25.83344], [110.05703, 25.92854], [110.13726, 25.97534], [110.22246, 26.01922], [110.31164, 26.05832], [110.40378, 26.09081], [110.49791, 26.11483], [110.60229, 26.12942], [110.65499, 26.13038], [110.70366, 26.12548], [110.75229, 26.11563], [110.80098, 26.10148], [110.89898, 26.06284], [111.22159, 25.90497], [111.31095, 25.87419], [111.39962, 25.85795], [111.42883, 25.85582], [111.58428, 25.8709], [111.71306, 25.92581], [111.8182, 26.01224], [111.90275, 26.12188], [111.96976, 26.24633], [112.02233, 26.37721], [112.06355, 26.50614], [112.12264, 26.72031], [112.14894, 26.80234], [112.2163, 26.96657], [112.29391, 27.12933], [112.3802, 27.29072], [112.47357, 27.45078], [112.57244, 27.60956], [112.67522, 27.7671], [113.13759, 28.45494], [113.25569, 28.6412], [113.3664, 28.82752], [113.52022, 29.12206], [113.64672, 29.41693], [113.74892, 29.71018], [113.82981, 29.99992], [113.89245, 30.28437], [113.93992, 30.56179], [113.9753, 30.83053], [114.00165, 31.08897], [114.0061, 31.17019], [114.00607, 31.24903], [113.99517, 31.40058], [113.97412, 31.54558], [113.92013, 31.83784], [113.90055, 31.98944], [113.89652, 32.08852], [113.90362, 32.26573], [113.92304, 32.43642], [113.95916, 32.61618], [113.99874, 32.75775], [114.0549, 32.90822], [114.12323, 33.05174], [114.20369, 33.18825], [114.29622, 33.31763], [114.40388, 33.44425], [114.51104, 33.54948], [114.61764, 33.63637], [114.72367, 33.70796], [114.82908, 33.76728], [114.93383, 33.8173], [115.33319, 33.98194], [115.50674, 34.07381], [115.65851, 34.18637], [115.78525, 34.32892], [115.88368, 34.51064], [115.95054, 34.74067], [115.98263, 35.02804], [115.97672, 35.38168], [115.95804, 35.61842], [115.93464, 35.8543], [115.85957, 36.49198], [115.77391, 37.27097], [115.72712, 37.99526], [115.73878, 38.65757], [115.82858, 39.2504], [116.0163, 39.76609], [116.3218, 40.19684], [116.76508, 40.5348], [117.36623, 40.77203], [117.52426, 40.81122], [117.68388, 40.84483], [117.8452, 40.87368], [118.00834, 40.89859], [118.34056, 40.93987], [118.97946, 41.00605], [119.27657, 41.04055], [119.76007, 41.11321], [120.2412, 41.20743], [120.71835, 41.32263], [121.18987, 41.45824], [121.6541, 41.61375], [122.10935, 41.78874], [122.55386, 41.98275], [122.98576, 42.19544], [123.20544, 42.31386], [123.41046, 42.43236], [123.60155, 42.55151], [123.77946, 42.67186], [123.94491, 42.79398], [124.09865, 42.91842], [124.2414, 43.04573], [124.37391, 43.17645], [124.6216, 43.46626], [124.82838, 43.77643], [124.99301, 44.10333], [125.1146, 44.4433], [125.19246, 44.79263], [125.22611, 45.14758], [125.21513, 45.50432], [125.15906, 45.8589], [125.09588, 46.0925], [125.01265, 46.3206], [124.91019, 46.54188], [124.85449, 46.64025], [124.78929, 46.75498], [124.6507, 46.95862], [124.49516, 47.15146], [124.3078, 47.34617], [124.13604, 47.49959], [124.06443, 47.55441], [123.98982, 47.60433], [123.91275, 47.65001], [123.7533, 47.73126], [123.39773, 47.88469], [123.20978, 47.97232], [123.13326, 48.01537], [123.06868, 48.05949], [123.01627, 48.10593], [122.97626, 48.15588], [122.94886, 48.21054], [122.91415, 48.34175], [122.91384, 48.45601], [122.94961, 48.55731], [123.02312, 48.64965], [123.13603, 48.73702], [123.29001, 48.82345], [123.48673, 48.91295], [123.96538, 49.1041], [124.17232, 49.20572], [124.32275, 49.30454], [124.45131, 49.41191], [124.56129, 49.52573], [124.65603, 49.64397], [124.73879, 49.7645], [124.81289, 49.88528], [124.97213, 50.15973], [125.06975, 50.30901], [125.12411, 50.3808], [125.18373, 50.45038], [125.24975, 50.51756], [125.32333, 50.58213], [125.6653, 50.86685], [125.77202, 50.97286], [125.85234, 51.08088], [125.91004, 51.18917], [125.94885, 51.29596], [125.97253, 51.39954], [125.98483, 51.49814], [125.98953, 51.59007], [125.99391, 51.80904], [126.00106, 51.86445], [126.01471, 51.91425], [126.03706, 51.9604], [126.07027, 52.00482], [126.08569, 52.01971], [126.31671, 52.19976], [126.30932, 52.21387], [126.31222, 52.22795], [126.39206, 52.26436], [126.43929, 52.27529], [126.78703, 52.32528], [126.8624, 52.34026], [127.01149, 52.3613], [127.1547, 52.37359], [127.28772, 52.37733], [127.48367, 52.37151], [127.6837, 52.35548], [128.04104, 52.31505], [128.66391, 52.26147], [128.85747, 52.24019], [129.04735, 52.21365], [129.22685, 52.18046], [129.38914, 52.13927], [129.52739, 52.08867], [129.63473, 52.02732], [129.74694, 51.91263], [129.84662, 51.75304], [129.93419, 51.56012], [130.01013, 51.34549], [130.07506, 51.12076], [130.12971, 50.89758], [130.17491, 50.68756], [130.24254, 50.34427], [130.26574, 50.1975], [130.27276, 50.12804], [130.28008, 49.99638], [130.28072, 49.60977], [130.2889, 49.45889], [130.31346, 49.30465], [130.36253, 49.15179], [130.37162, 49.13549], [130.3868, 48.89629], [130.43972, 48.8965], [130.46535, 48.89133], [130.48664, 48.86368], [130.51165, 48.85552], [130.5409, 48.85345], [130.56488, 48.85588], [130.62493, 48.87433], [130.65066, 48.8764], [130.67433, 48.87082], [130.6765, 48.85743], [130.66668, 48.84146], [130.62782, 48.79604], [130.53325, 48.63579], [130.52974, 48.61626], [130.5408, 48.59835], [130.5624, 48.58815], [130.60767, 48.57673], [130.62017, 48.5605], [130.62079, 48.54931], [130.61345, 48.51947], [130.62637, 48.48226], [130.63929, 48.47725], [130.71588, 48.49906], [130.7443, 48.49732], [131.00764, 48.63859], [131.15588, 48.59369], [131.77318, 48.42303], [131.98053, 48.35807], [132.17928, 48.28552], [132.36015, 48.20407], [132.47526, 48.1353], [132.67462, 47.95061], [132.66315, 47.93868], [132.66036, 47.93134], [132.66087, 47.92302], [132.67142, 47.9025], [132.67235, 47.89444], [132.668, 47.88132], [132.65881, 47.86982], [132.60744, 47.82762], [132.57643, 47.79424], [132.57364, 47.78223], [132.58077, 47.76484], [132.58036, 47.74799], [132.54719, 47.71678], [132.75342, 47.53267], [132.76142, 47.48207], [132.79956, 47.33818], [132.84484, 47.2294], [132.90215, 47.12915], [132.97078, 47.03839], [133.05016, 46.95804], [133.13983, 46.889], [133.2395, 46.83204], [133.34909, 46.78787], [133.55196, 46.72995], [133.59215, 46.71018], [133.61448, 46.68337], [133.61956, 46.66969], [133.90245, 46.57364], [133.89635, 46.53819], [133.89191, 46.52897], [133.84933, 46.48029], [133.84581, 46.47065], [133.84778, 46.45699], [133.85439, 46.44466], [133.88188, 46.43711], [133.90028, 46.42657], [133.92147, 46.41014], [133.93387, 46.39076], [133.92602, 46.3713], [133.88085, 46.35366], [133.86338, 46.33929], [133.87444, 46.31978], [133.88519, 46.32658], [133.89635, 46.3272], [133.907, 46.32247], [133.91599, 46.31299], [133.89377, 46.30188], [133.89408, 46.29134], [133.90194, 46.27805], [133.90245, 46.25899], [133.89005, 46.25082], [133.85532, 46.23656], [133.8609, 46.22359], [133.8301, 46.19687], [133.82122, 46.20013], [133.81295, 46.21418], [133.80623, 46.21739], [133.79352, 46.21429], [133.77512, 46.18669], [133.74101, 46.15904], [133.72003, 46.15021], [133.69874, 46.14902], [133.68737, 46.14184], [133.69637, 46.11502], [133.71931, 46.07931], [133.72003, 46.06375], [133.69482, 46.02277], [133.65813, 45.93451], [133.64986, 45.92784], [133.62774, 45.93777], [133.61761, 45.93627], [133.61007, 45.92981], [133.60304, 45.89865], [133.5865, 45.88841], [133.58588, 45.87632], [133.57007, 45.87643], [133.55229, 45.88841], [133.53162, 45.88816], [133.51436, 45.87927], [133.50268, 45.86201], [133.49834, 45.8372], [133.47726, 45.8201], [133.47726, 45.80584], [133.48377, 45.79659], [133.50341, 45.78765], [133.51136, 45.77855], [133.48491, 45.76847], [133.47085, 45.72889], [133.44305, 45.70967], [133.45163, 45.69918], [133.47664, 45.69359], [133.4878, 45.68667], [133.49152, 45.67339], [133.48284, 45.6629], [133.45669, 45.64879], [133.47726, 45.62771], [133.42765, 45.61525], [133.41514, 45.60042], [133.42517, 45.58042], [133.41349, 45.57334], [133.37483, 45.57308], [133.33029, 45.54926], [133.29887, 45.54208], [133.27169, 45.52844], [133.24089, 45.52327], [133.20213, 45.51128], [133.18921, 45.50415], [133.17981, 45.49381], [133.14022, 45.43542], [133.1332, 45.41961], [133.1272, 45.38509], [133.10188, 45.28721], [133.10674, 45.26463], [133.09754, 45.24354], [133.12069, 45.18344], [133.1272, 45.15538], [133.12152, 45.13125], [133.09878, 45.10779], [133.07336, 45.09063], [133.04969, 45.08175], [133.02385, 45.05834], [132.99264, 45.04847], [132.96618, 45.02888], [132.95336, 45.02438], [133.05378, 44.81017], [133.01662, 44.67026], [132.94738, 44.30181], [132.90501, 43.94506], [132.888, 43.70169], [132.87903, 43.47182], [132.87598, 43.26059], [132.87753, 43.07477], [132.89929, 42.66322], [132.89621, 42.41205], [132.89851, 42.13011], [132.91842, 41.83248], [132.96706, 41.53212], [133.0553, 41.24153], [133.19399, 40.9729], [133.26789, 40.87224], [133.36053, 40.77065], [133.47429, 40.67259], [133.61174, 40.58261], [133.77563, 40.50538], [133.96895, 40.44558], [134.19493, 40.40778], [134.45713, 40.39625], [134.61187, 40.40199], [134.83138, 40.42253], [135.03561, 40.45534], [135.17935, 40.48953], [135.31948, 40.53087], [135.4559, 40.5777], [135.71737, 40.68126], [136.34117, 40.95132], [136.73814, 41.09956], [137.5649, 41.35927], [137.98753, 41.47245], [138.41315, 41.5732], [138.79881, 41.67599], [139.14286, 41.77243], [139.39659, 41.86873], [139.50981, 41.97502], [139.54416, 42.06488], [139.66788, 42.08353], [139.8376, 42.13807], [140.03515, 42.26149], [140.24846, 42.42664], [140.44679, 42.61336], [140.62718, 42.7943], [140.78949, 42.97932], [140.95727, 43.23515], [141.17832, 43.59588], [141.43852, 44.03035], [141.69634, 44.49177], [141.95025, 44.91715], [142.26473, 45.39927], [142.59572, 45.89637], [142.7203, 46.07742], [142.84285, 46.24362], [142.96563, 46.39206], [143.0904, 46.51987], [143.21872, 46.62445], [143.35124, 46.70276], [143.43266, 46.73565], [143.50682, 46.75477], [143.58173, 46.76593], [143.66113, 46.772], [143.83752, 46.77247], [143.93409, 46.76662], [144.03525, 46.75589], [144.30442, 46.70975], [144.59063, 46.63752], [144.67422, 46.60973], [144.88288, 46.54008], [145.17213, 46.42081], [145.45042, 46.28478], [145.71061, 46.13794], [145.9464, 45.98665], [146.15269, 45.83734], [146.35906, 45.67594], [146.77458, 45.33862], [147.43094, 44.79379], [147.49898, 44.7604], [147.58152, 44.75182], [147.67827, 44.76324], [147.78898, 44.78971], [147.91282, 44.82632], [148.49359, 45.0113], [148.6624, 45.06911], [148.83074, 45.13116], [148.99537, 45.19749], [149.15322, 45.26815], [149.30199, 45.34307], [149.44096, 45.4221]]]}}]}