{"type": "FeatureCollection", "features": [{"type": "Feature", "properties": {"name": "국경선(점선)", "category": "경계선", "period": "", "legend": "(지도 회색 점선)", "map_title": "라틴 아메리카의 독립", "source": "미래엔 세계사 교과서 3권 148쪽", "volume": 3, "page": 148}, "geometry": {"type": "MultiLineString", "coordinates": [[[-140.09232, 69.44457], [-140.14752, 66.97535], [-140.19087, 64.55055], [-140.21538, 62.57745], [-140.22687, 60.57634], [-139.27553, 60.45823], [-139.03329, 60.59437], [-138.47247, 60.59797], [-138.56637, 60.32909], [-138.41232, 60.24504], [-137.15863, 59.48127], [-137.03923, 59.17502], [-136.65786, 59.32673], [-136.15108, 59.4445], [-136.08657, 59.66827], [-135.90309, 59.76078], [-135.97901, 59.84197], [-135.20747, 60.00477], [-134.7493, 59.75624], [-134.78308, 59.61], [-134.67559, 59.49828], [-134.27786, 59.3607], [-134.06365, 59.04958], [-133.66196, 58.93129], [-133.37971, 58.6692], [-133.09714, 58.40586], [-132.23655, 57.45323], [-132.26812, 57.3054], [-132.0384, 57.23751], [-132.05526, 57.09076], [-131.88489, 57.02308], [-131.80912, 56.84502], [-131.54479, 56.80743], [-131.16752, 56.63979], [-130.84005, 56.58571], [-130.46457, 56.35057], [-130.19504, 56.33141], [-130.13354, 56.15269], [-130.24915, 55.89077], [-130.13055, 55.54607], [-130.28722, 55.36542]], [[-122.9032, 49.08823], [-122.79407, 49.20617], [-122.20858, 49.21206], [-121.63069, 49.20578], [-121.20993, 49.19751], [-120.37317, 49.17582], [-116.40228, 49.04881], [-114.42749, 48.99503], [-112.31587, 48.95147], [-111.02767, 48.93199], [-109.98194, 48.91986], [-108.51717, 48.90787], [-107.23319, 48.90159], [-104.20642, 48.89934], [-100.72689, 48.91194], [-95.33368, 48.94539], [-95.26799, 49.3143], [-94.80816, 49.26687], [-94.79482, 48.79927], [-93.81278, 48.48507], [-93.28793, 48.60392], [-92.70938, 48.49107], [-92.41646, 48.2255], [-92.11511, 48.31114], [-91.53684, 48.01247], [-90.99194, 48.2145], [-90.69071, 48.06517], [-90.14108, 48.04791], [-89.62553, 47.9476]], [[-76.2902, 44.39341], [-75.75352, 44.81014], [-75.337, 44.96337], [-74.24281, 44.9664], [-73.21603, 44.96244], [-72.27566, 44.94841], [-71.80066, 44.93604], [-71.64657, 45.20461], [-71.02213, 45.26814], [-70.43824, 45.79521], [-70.48517, 46.10436], [-70.19619, 46.35086], [-70.20176, 46.65985], [-69.74705, 46.99921], [-69.287, 47.32678], [-69.12362, 47.30935], [-69.07146, 47.1427], [-68.96001, 47.05837], [-68.28426, 47.23327], [-67.7912, 46.9367], [-67.6096, 45.3942], [-67.26455, 45.22292], [-67.23064, 44.85034], [-66.87699, 44.67464]], [[-117.2875, 32.77344], [-116.1703, 32.67874], [-115.66021, 32.66424], [-115.22638, 32.67259], [-114.81381, 32.30874], [-114.09616, 32.05211], [-112.54254, 31.55588], [-111.83098, 31.33349], [-111.21918, 31.13507], [-109.80577, 31.09028], [-108.33456, 31.05358], [-108.39103, 31.47369], [-106.66082, 31.43568], [-106.46163, 31.34969], [-106.2817, 31.13526], [-105.9186, 30.94422], [-105.51026, 30.60646], [-105.09513, 30.36153], [-104.82448, 30.13773], [-104.6294, 29.81728], [-104.59272, 29.57084], [-104.32994, 29.19495], [-103.85047, 28.90491], [-103.40758, 28.71151], [-103.253, 28.56811], [-103.00593, 28.53291], [-102.75107, 28.73764], [-102.73892, 28.88972], [-102.57423, 29.27058], [-102.27389, 29.29102], [-102.20989, 29.41148], [-101.48669, 29.24649], [-101.29746, 29.24133], [-101.02723, 28.95577], [-100.89167, 28.84552], [-100.53368, 28.53322], [-100.41478, 28.17874], [-100.19325, 27.89062], [-100.17473, 27.75105], [-99.6049, 27.04127], [-99.34507, 26.89483], [-99.30116, 26.59563], [-99.27948, 26.36931], [-99.08638, 26.1731], [-98.90638, 25.77825], [-98.71713, 25.73839], [-98.32693, 25.64668], [-98.06565, 25.53751], [-97.8297, 25.52677], [-97.5878, 25.54547], [-97.1529, 25.39034], [-97.12893, 25.47284], [-96.91018, 25.46841]], [[-92.0772, 14.39086], [-92.02062, 14.9449], [-92.16565, 15.14285], [-91.60021, 15.88264], [-91.11939, 15.92646], [-90.63012, 15.97916], [-90.13478, 16.03892], [-90.08301, 16.40035], [-90.28767, 16.43648], [-90.43336, 16.70576], [-90.77085, 16.95899], [-91.08797, 17.20734], [-90.61711, 17.2712], [-90.5636, 17.94513], [-90.11269, 18.01739], [-89.64738, 18.08068], [-89.15217, 18.1361], [-88.65043, 18.18134], [-88.55131, 18.40381], [-88.33106, 18.30493], [-88.04529, 18.93256], [-87.88414, 18.90116]], [[-88.65012, 18.18118], [-88.64226, 17.60506], [-88.64002, 17.0306], [-88.6452, 16.47769], [-88.65461, 15.94014], [-88.34958, 15.92309]], [[-87.70584, 15.88128], [-87.76702, 15.6573], [-88.63268, 15.03167], [-88.66688, 14.60777], [-88.85755, 14.40804]], [[-87.23846, 13.37485], [-87.31158, 13.55486], [-87.23996, 13.83562], [-87.56287, 14.01944], [-87.92657, 13.92862], [-88.0093, 14.03789], [-88.26933, 14.14893], [-88.49223, 14.29583], [-88.85783, 14.40772]], [[-88.85783, 14.40772], [-88.85788, 14.40773]], [[-87.10077, 12.79962], [-86.821, 12.84153], [-86.71139, 13.10307], [-86.48565, 13.16997], [-86.46229, 13.66855], [-86.25986, 13.69832], [-86.06839, 13.67374], [-85.90404, 13.88286], [-85.72347, 14.01867], [-85.49419, 13.7507], [-85.44038, 13.90462], [-85.19138, 14.03805], [-84.97886, 14.28943], [-84.84067, 14.34197], [-84.77583, 14.57216], [-84.4233, 14.89557], [-84.28762, 14.71191], [-84.07966, 14.63296], [-83.83638, 14.71133], [-83.53261, 14.67256], [-83.15101, 14.83642], [-82.85804, 14.76493]], [[-85.39021, 10.78916], [-85.39207, 10.93036], [-84.65937, 10.69818], [-84.48874, 10.86541], [-84.2028, 10.80993], [-84.10717, 10.84166], [-83.85969, 10.6941], [-83.54509, 10.68056], [-83.37032, 10.74945], [-83.25746, 10.83561]], [[-81.89148, 8.16259], [-81.95154, 8.54856], [-81.85401, 8.6763], [-81.91808, 8.99703], [-81.76685, 9.15144], [-81.95527, 9.34813], [-82.01267, 9.66949], [-81.95357, 9.72286], [-81.97918, 9.81505], [-81.75176, 9.70121], [-81.78138, 9.82612]], [[-76.92647, 8.18257], [-77.034, 7.95022], [-76.87979, 7.51621], [-77.07705, 7.34647], [-77.04777, 7.22469], [-77.28981, 6.99471], [-77.40284, 7.14042], [-77.5678, 6.67498]], [[-59.76429, 8.38874], [-59.56238, 8.15761], [-59.77081, 7.96885], [-60.34232, 7.81285], [-60.54514, 7.59968], [-60.41144, 7.41465], [-60.46814, 7.31647], [-60.3843, 7.23367], [-60.29557, 7.27248], [-60.09324, 7.20419], [-60.2055, 7.06764], [-60.5549, 6.89613], [-60.69274, 6.93743], [-60.97694, 6.88979], [-61.04481, 6.80682], [-60.99985, 6.44322], [-61.09094, 6.39095], [-61.28156, 6.20867], [-60.59638, 5.51049]], [[-60.59638, 5.51049], [-60.45945, 5.30163], [-60.4952, 5.16894], [-60.70192, 5.07764], [-60.8599, 4.88897], [-61.19278, 4.87971], [-61.36241, 4.83236], [-61.4702, 4.68399], [-61.67797, 4.69726], [-62.06585, 4.59352], [-62.34196, 4.67223], [-62.48159, 4.63364], [-62.52166, 4.5414], [-62.71086, 4.55097], [-62.72981, 4.32882], [-62.69876, 4.2033], [-62.85963, 4.131], [-62.9632, 4.16688], [-63.25635, 4.4639], [-63.41099, 4.53393], [-63.47873, 4.42437], [-63.59998, 4.50939], [-63.87984, 4.5366], [-64.05543, 4.46187], [-64.13704, 4.67095], [-64.30659, 4.72429], [-64.60209, 4.71544], [-64.81793, 4.87779], [-64.82142, 4.76679], [-64.55591, 4.43007], [-64.23401, 4.1987], [-64.29067, 4.03858], [-64.26395, 3.73348], [-64.06973, 3.37516], [-64.10991, 3.11968], [-63.38952, 3.02914], [-63.43528, 2.78852], [-63.70086, 2.70013], [-63.82795, 2.62182], [-64.12753, 2.5835], [-64.15439, 2.28909], [-64.46487, 2.05694], [-64.47714, 2.17016], [-64.85717, 1.94787], [-64.9817, 1.95045], [-65.28537, 1.82512], [-65.36368, 1.63251], [-65.52442, 1.61733], [-65.65922, 1.40504], [-65.79963, 1.37402], [-65.72052, 1.57014], [-65.76664, 1.70447], [-66.05254, 1.65826], [-66.16189, 1.56389], [-66.34068, 1.46467], [-66.60164, 1.4675], [-67.11593, 1.94852]], [[-67.11593, 1.94852], [-67.21074, 2.42339], [-67.35023, 2.68115], [-67.41994, 2.95996], [-67.36167, 3.07146], [-67.73812, 3.34766], [-67.78171, 3.50525], [-68.05354, 3.49079], [-67.90807, 3.66992], [-67.40522, 4.08238], [-67.60689, 4.35322], [-67.725, 4.38456], [-67.83861, 4.71586], [-67.94241, 5.12362], [-67.859, 5.60246], [-67.88854, 5.83263], [-67.62052, 6.06031], [-67.66112, 6.21277], [-67.39035, 6.45112], [-67.46212, 6.58587], [-67.42172, 6.65896], [-67.76264, 6.74905], [-67.97135, 6.6483], [-68.30962, 6.63274], [-68.63174, 6.60873], [-69.03208, 6.67397], [-69.21329, 6.55525], [-69.44532, 6.61789], [-69.75015, 7.01698], [-70.04511, 7.38605], [-70.21982, 7.36076], [-70.52323, 7.48583], [-70.76205, 7.50052], [-70.95651, 7.40908], [-71.51474, 7.44632], [-71.83965, 7.39274], [-72.05317, 7.46349], [-72.13292, 7.73749], [-72.36769, 7.75795], [-72.41391, 7.84807], [-72.32981, 8.34239], [-72.24712, 8.3644], [-72.29405, 8.6513], [-72.54396, 8.86114], [-72.60945, 9.28301], [-72.77542, 9.27438], [-72.8466, 9.39968], [-73.21986, 9.30614], [-72.75998, 9.87832], [-72.71652, 10.06878], [-72.55594, 10.41226], [-72.12896, 10.85321], [-71.91059, 10.89718], [-71.7304, 11.12751], [-71.51399, 11.31901], [-70.96559, 11.48889]], [[-53.84433, 3.12326], [-53.8963, 3.44354], [-53.72448, 3.66018], [-53.74452, 3.81091], [-54.14739, 4.16906], [-54.13218, 4.29843], [-54.20916, 4.3885], [-54.30642, 4.77257], [-54.33802, 5.03009], [-54.10754, 5.33951], [-53.97007, 5.63667]], [[-54.13428, 2.65044], [-54.1133, 2.53571], [-53.73696, 2.42402], [-53.3909, 2.66842], [-53.10366, 2.55718], [-52.96713, 2.6565], [-52.81247, 2.52227], [-52.57524, 2.52183], [-52.27348, 2.82825], [-52.1403, 3.45365], [-51.98391, 3.75485], [-51.84383, 4.098], [-51.74627, 4.22511], [-51.7251, 4.38831]], [[-67.11587, 1.94855], [-67.11593, 1.94852]], [[-67.11593, 1.94852], [-67.34863, 1.8848], [-67.3205, 2.35874], [-67.56791, 2.8292], [-67.7592, 2.79723], [-68.03179, 2.52365], [-68.2585, 2.4741], [-68.33171, 2.63617], [-68.46361, 2.71563], [-68.56198, 2.55637], [-68.4341, 2.42705], [-69.60539, 2.45483], [-69.75799, 2.46869], [-70.1477, 2.41842], [-70.20891, 1.79805], [-69.58809, 1.73699], [-69.49718, 1.35944], [-69.84592, 1.4741], [-70.01785, 1.40716], [-70.43155, 1.30688], [-70.48451, 0.58201], [-70.39342, 0.45021], [-70.1, 0.2709], [-70.04294, 0.13904], [-70.05677, -0.04746], [-69.86227, -0.41266], [-69.96603, -0.69656], [-70.71277, -3.48684]], [[-70.71277, -3.48684], [-70.79076, -3.62161], [-70.86764, -3.50155], [-71.01106, -3.55241], [-71.08481, -3.3992], [-71.56336, -3.43026], [-71.73164, -3.61559], [-72.43261, -3.74362], [-72.61436, -3.72618], [-73.17402, -4.03896], [-73.37231, -4.21895], [-73.74771, -4.36416], [-73.8721, -4.83529], [-74.12405, -5.28175], [-74.10706, -5.70004], [-74.4143, -5.87733], [-74.7295, -6.11431], [-74.79133, -6.34291], [-74.71884, -6.51338], [-74.9513, -6.58453], [-75.02667, -6.75006], [-74.76315, -7.00984], [-74.81663, -7.12384], [-74.69491, -7.26089], [-74.59171, -7.59754], [-74.42971, -7.68968], [-74.36911, -7.89301], [-74.24277, -7.98085], [-74.03424, -8.32845], [-74.2873, -8.6497], [-73.7443, -8.70973], [-73.41539, -8.81626], [-73.36981, -9.01879], [-73.27274, -9.14255], [-73.27491, -9.2946], [-72.42023, -9.34774], [-71.96931, -9.05954], [-71.66792, -8.77436], [-71.58295, -8.82844], [-71.62645, -9.1342], [-71.73066, -9.2016], [-71.75066, -10.3852], [-71.61251, -10.33953], [-71.40792, -10.48189], [-70.98942, -10.31729], [-70.62203, -10.38099]], [[-70.62203, -10.38099], [-70.22421, -11.02806], [-69.68644, -11.98862], [-69.73816, -12.17789], [-69.94835, -12.34602], [-69.99293, -13.00112], [-70.11434, -13.17355], [-69.82851, -13.74417], [-69.98604, -13.79545], [-70.02936, -14.03315], [-70.22274, -14.13278], [-70.3802, -14.50657], [-70.09876, -14.80264], [-70.26536, -14.98681], [-70.36092, -15.18857], [-70.11271, -15.71978], [-69.99328, -15.69014], [-69.71774, -15.82053], [-69.84349, -16.25697], [-70.0493, -16.33118], [-70.2335, -16.63282], [-70.47753, -16.84235], [-70.30762, -16.96775], [-70.29135, -17.14074]], [[-70.29135, -17.14074], [-70.02393, -17.60608], [-69.79736, -17.73951], [-69.87211, -17.85797], [-69.68926, -18.25544], [-69.51357, -18.8654], [-68.94975, -19.45748], [-69.14951, -19.82349], [-68.98063, -19.98934], [-69.00701, -20.21747], [-69.19752, -20.28057], [-69.06748, -20.58879], [-69.12375, -20.70958], [-68.79231, -21.00498], [-68.87858, -21.14444], [-68.84882, -21.33921], [-68.7292, -21.39825], [-68.47927, -21.88036], [-68.43645, -22.29188], [-68.31486, -22.76018], [-68.17958, -22.94881], [-68.09914, -23.92503], [-67.80071, -24.03773], [-67.39731, -23.9943]], [[-67.39731, -23.9943], [-67.22527, -24.25903], [-67.39201, -24.89542], [-67.56833, -25.52754], [-68.03841, -25.70143], [-68.5098, -25.86992], [-68.70653, -26.00148], [-68.87458, -26.28689], [-68.68665, -26.73867], [-68.86575, -26.85323], [-68.96553, -27.17964], [-68.84213, -27.6005], [-68.77028, -28.14361], [-68.94836, -28.27949], [-68.97162, -28.5371], [-68.67816, -29.13948], [-68.73299, -29.28179], [-68.93774, -29.27672], [-69.00568, -29.37044], [-69.12508, -29.25395], [-69.27619, -29.34603], [-69.32816, -29.57731], [-69.43156, -29.68672], [-69.60667, -30.25277], [-69.73433, -30.28495], [-69.82134, -30.54624], [-69.93624, -30.51592], [-70.06737, -30.74474], [-70.25053, -31.57162], [-70.48693, -31.76381], [-70.47146, -32.26475], [-70.42527, -32.44679], [-70.52426, -32.73986], [-70.39609, -32.88682], [-70.55974, -33.13494], [-70.74558, -33.07846], [-70.95301, -33.52951], [-71.01583, -33.71745], [-70.96773, -33.84411], [-71.11919, -33.96119], [-71.20451, -33.8937], [-71.37284, -34.3636], [-71.30355, -34.7951], [-71.11742, -34.87617], [-71.13962, -35.03367], [-71.25484, -35.0397], [-71.11426, -35.5869], [-71.13834, -35.91118], [-71.02842, -36.10282], [-71.15702, -36.33193], [-71.04787, -36.53633], [-70.95759, -36.48929], [-70.86871, -36.5922], [-70.85343, -36.74932], [-70.97614, -36.915], [-71.04171, -37.20455], [-71.01551, -37.6096], [-71.21574, -37.57636], [-71.26508, -37.75264], [-71.51376, -37.94073], [-71.5036, -38.06191], [-71.60676, -38.34365], [-71.78694, -38.37046], [-71.68296, -38.52701], [-71.5435, -39.01298], [-71.5735, -39.31282], [-71.72353, -39.28417], [-71.83338, -39.38526], [-71.81961, -39.48926], [-71.96067, -39.44566], [-72.06196, -39.47915], [-72.12441, -39.65192], [-72.11591, -39.92788], [-72.0354, -40.10437], [-72.08247, -40.31282], [-72.0074, -40.50876], [-72.06475, -40.7157], [-71.97036, -41.17098], [-71.88824, -41.62135], [-71.78628, -41.80803], [-71.86207, -41.92718], [-72.01628, -41.92474], [-72.30445, -41.99925], [-72.34116, -42.4446], [-72.47887, -42.71693], [-72.62714, -42.62802], [-72.65589, -42.90685], [-72.61991, -43.03262], [-72.68777, -43.16423], [-72.82304, -43.1793], [-72.81174, -43.3533], [-72.75758, -43.46205], [-72.86473, -43.54493], [-73.0684, -43.80371], [-73.0213, -44.07006], [-73.1853, -44.45569], [-73.1733, -44.66493], [-73.24955, -44.73243], [-73.19044, -45.21208], [-73.39194, -45.25099], [-73.45007, -45.1728], [-73.58213, -45.28956], [-73.55924, -45.49139], [-73.64945, -45.55368], [-73.70211, -45.79779], [-73.76427, -45.91146], [-73.72386, -46.04619], [-73.46031, -46.17184], [-73.46902, -46.2753], [-73.67869, -46.32736], [-73.6349, -46.45276], [-73.5174, -46.54671], [-73.62395, -46.64388], [-73.54118, -46.81352], [-73.76892, -46.92504], [-73.77604, -47.07186], [-73.8456, -47.15103], [-73.19847, -47.30497], [-73.14772, -47.39949], [-73.26889, -47.45905], [-73.36744, -47.57984], [-73.56641, -47.48231], [-74.09051, -47.36719], [-74.11307, -47.46689], [-73.70133, -47.6411], [-73.5862, -47.82003], [-73.47863, -47.94454], [-73.65632, -48.01513], [-73.6889, -48.10192], [-73.88026, -48.07801], [-74.00434, -48.19606], [-73.84563, -48.42961], [-74.1094, -48.51016], [-73.99985, -48.62854], [-73.92547, -49.01874], [-74.15667, -49.08278], [-74.1745, -49.27244], [-74.07011, -49.39319], [-74.10516, -49.43923], [-74.19274, -49.38949], [-74.31042, -49.51982], [-74.41163, -49.5184], [-74.50611, -49.87031], [-74.32203, -50.0145], [-74.2571, -50.21845], [-74.43711, -50.27222], [-74.33322, -50.50344], [-74.4573, -50.57734], [-74.58003, -50.57105], [-74.63825, -50.65695], [-74.59008, -50.73807], [-74.75987, -50.70643], [-74.76582, -50.85354], [-74.67626, -51.02896], [-74.70695, -51.10337], [-74.64702, -51.19056], [-74.66158, -51.28311], [-74.51651, -51.39783], [-74.35087, -51.77633], [-74.10276, -51.75864], [-73.99319, -51.81939], [-73.9208, -51.8074], [-73.78113, -51.86343], [-73.69911, -52.09399], [-73.76413, -52.16143], [-73.67004, -52.24809], [-73.67608, -52.47188], [-73.29987, -52.74805], [-73.28217, -52.82557], [-72.88465, -52.92499], [-72.46064, -53.01584], [-72.01342, -53.10076], [-71.54734, -53.18465], [-71.0068, -53.39035], [-70.72581, -53.45418], [-70.33395, -53.62987], [-69.94556, -53.77502]], [[-78.13271, 2.07163], [-78.01864, 1.90448], [-77.9076, 1.85775], [-77.81294, 1.73535], [-77.46273, 1.49925], [-77.34019, 1.52859], [-77.18325, 1.35549], [-77.1297, 1.1106], [-76.95762, 1.09074], [-76.84709, 0.9963], [-76.37479, 0.9422], [-76.33005, 1.11033], [-76.07004, 1.07673], [-75.87025, 0.81287], [-75.72749, 0.81125], [-75.42815, 0.64634], [-75.35132, 0.71132], [-75.11832, 0.53382], [-74.99718, 0.54764], [-74.99547, 0.43724], [-74.8534, 0.34019], [-74.695, 0.16176], [-74.62114, -0.19392], [-74.41566, -0.26075], [-74.22138, -0.45802], [-74.15918, -0.44353], [-74.04166, -0.52753], [-73.95809, -0.79023], [-74.00436, -0.90348], [-73.85856, -1.01824], [-73.74301, -0.97376], [-73.65089, -1.33486], [-73.74303, -1.43314], [-73.66228, -1.56682], [-73.53355, -1.55502], [-73.52409, -1.63727], [-73.32028, -1.65674], [-73.24646, -1.57097], [-72.99969, -1.69081], [-72.56525, -1.57543], [-72.36658, -1.36395], [-72.02558, -1.59502], [-71.77147, -1.54737], [-71.51162, -1.4449], [-71.28263, -1.68155], [-70.98245, -1.73404], [-70.68109, -1.95051], [-71.44746, -3.02711], [-71.23464, -3.16313], [-71.00989, -3.12751], [-70.71277, -3.48684]], [[-70.71277, -3.48684], [-70.7127, -3.48694]], [[-70.62229, -10.38098], [-70.62203, -10.38099]], [[-70.62203, -10.38099], [-70.1108, -10.39204], [-69.7744, -10.45109], [-69.7758, -10.59036], [-69.27444, -10.44339], [-69.03459, -10.13648], [-68.63852, -10.12589], [-68.18211, -9.77345], [-67.99926, -9.76146], [-67.61103, -9.44075], [-66.93179, -9.24728], [-66.45749, -9.22324], [-66.31466, -9.31383], [-66.08725, -9.14448], [-65.9815, -9.33773], [-65.98797, -9.74031], [-66.15843, -10.01059], [-66.12418, -10.27707], [-66.01582, -10.42073], [-66.10699, -10.79979], [-65.9428, -11.12443], [-65.9079, -11.31746], [-65.71674, -11.39356], [-65.66468, -11.5871], [-65.10978, -11.88011], [-64.99699, -12.11692], [-64.46033, -12.24613], [-64.24129, -12.1669], [-63.84749, -12.38116], [-63.53819, -12.39605], [-63.23464, -12.77474], [-63.08713, -12.76349], [-62.7693, -12.9637], [-62.4597, -12.99609], [-62.41723, -13.14477], [-62.15601, -13.41673], [-61.90013, -13.43008], [-61.71466, -13.47539], [-61.58612, -13.40955], [-61.46137, -13.45237], [-61.29859, -13.42381], [-60.66705, -13.78503], [-60.57201, -13.998], [-60.63829, -14.25781], [-60.48822, -14.62219], [-60.5899, -14.9592], [-60.51092, -15.26937], [-60.70766, -15.27611], [-60.33515, -15.67796], [-60.22126, -16.63515], [-59.29822, -16.71808], [-58.38359, -16.79027], [-58.27557, -16.7387], [-58.26941, -17.01045], [-58.40874, -17.18225], [-58.38611, -17.51556], [-58.30423, -17.89633], [-57.85442, -18.10923], [-57.62283, -18.31215], [-57.47105, -18.77292], [-57.30554, -19.03676], [-57.45656, -19.37568], [-57.58479, -19.86439], [-57.54071, -20.0673], [-57.64189, -20.18718], [-57.92349, -20.90335], [-57.65486, -21.21509], [-57.94792, -21.44178], [-57.97505, -21.02822], [-58.99255, -20.40975], [-59.46629, -20.37336], [-59.9416, -20.33254], [-60.59378, -20.48531], [-61.19729, -20.56903], [-61.80141, -20.64619], [-61.97758, -21.18071], [-62.31652, -21.72365], [-62.29578, -22.36506], [-62.64809, -23.87519]], [[-62.64809, -23.87519], [-62.88233, -23.56893], [-63.46005, -23.50581], [-64.036, -23.43665], [-64.35608, -24.16585], [-64.45953, -24.50642], [-64.58751, -24.17698], [-64.68323, -23.70111], [-65.14444, -23.39776], [-65.95977, -23.27946], [-66.17414, -23.02795], [-66.45211, -22.81509], [-66.5429, -23.21723], [-66.9486, -23.30204], [-66.98024, -23.58184], [-67.22897, -23.65489], [-67.39731, -23.9943]], [[-67.39731, -23.9943], [-67.39732, -23.99432]], [[-57.94769, -21.44197], [-57.94349, -21.60813], [-57.76191, -21.77741], [-57.77262, -22.10972], [-57.58722, -22.44729], [-57.5803, -22.76211], [-57.67925, -23.12392], [-57.65826, -23.35357], [-57.71646, -23.91356], [-57.35356, -23.92052], [-57.20843, -24.0022], [-56.52226, -24.04932], [-56.29984, -24.03496], [-56.13177, -23.79424], [-55.86211, -24.02132], [-55.53844, -24.01934], [-55.29519, -24.511], [-55.31087, -24.84913], [-55.19065, -25.14388], [-55.17326, -25.57754], [-55.07428, -26.0654], [-54.85636, -26.07657], [-54.6285, -26.00146], [-54.31537, -25.74843], [-53.94038, -25.97478], [-54.00521, -26.08616], [-53.94426, -26.36063], [-54.01069, -26.55428], [-54.03177, -26.74298], [-54.13652, -27.16328], [-54.12379, -27.34395], [-54.32642, -27.7478], [-54.30255, -27.92194], [-54.19088, -27.96306], [-53.85079, -27.75444], [-53.64422, -27.8079], [-53.58791, -28.22698], [-53.44891, -28.50335], [-53.52901, -28.7539], [-53.55181, -29.27121], [-53.68436, -29.58647], [-53.77385, -29.61119], [-54.19228, -30.06365], [-54.61895, -30.29361], [-54.93255, -30.73946], [-55.09204, -30.82064], [-55.28081, -31.10025], [-55.58394, -31.33123], [-55.533, -31.5086], [-55.74129, -31.54247], [-55.80077, -31.67333], [-56.15402, -32.12437], [-56.29259, -32.42593], [-56.49965, -32.59143], [-56.62358, -32.86604], [-57.03191, -33.41949], [-57.2592, -33.55233], [-57.33467, -33.77651], [-57.63308, -34.07429]], [[-57.63308, -34.07429], [-57.79855, -34.37396], [-57.96067, -34.49003], [-57.98007, -34.64344], [-57.95609, -34.92241], [-58.06542, -35.00317], [-58.01373, -35.11371], [-58.18764, -35.51393], [-58.34266, -35.64706], [-58.24017, -35.72052], [-58.34574, -35.95618], [-58.49861, -36.08699], [-58.55717, -36.40576], [-58.4981, -36.51411], [-58.63151, -36.7053], [-58.69469, -37.26473], [-58.79958, -37.37768]], [[-57.63309, -34.07429], [-57.63308, -34.07429]], [[-57.63308, -34.07429], [-57.53921, -34.15913], [-57.23913, -34.07446], [-57.17301, -33.93032], [-57.00957, -33.79262], [-56.82831, -33.77581], [-56.66208, -33.82818], [-56.67111, -33.89863], [-56.34545, -34.01914], [-56.13126, -34.20306], [-56.17983, -34.47523], [-56.00248, -34.38493], [-55.78605, -34.09341], [-55.60574, -34.11832], [-55.50291, -34.29593], [-55.36439, -34.29402], [-55.29481, -34.22621], [-55.20103, -34.26429], [-54.96252, -34.19591], [-54.87633, -34.23656], [-54.88742, -34.30101], [-54.67454, -34.30578], [-54.59515, -34.25011], [-54.41106, -34.23313], [-54.41794, -34.34755], [-54.30272, -34.32609], [-54.1557, -34.2789], [-54.56169, -34.569], [-54.65294, -34.65155], [-54.78922, -34.83528], [-54.71764, -34.83095]], [[-62.64811, -23.87516], [-62.64809, -23.87519]], [[-62.64809, -23.87519], [-62.25112, -24.31467], [-61.9547, -24.9786], [-61.02454, -25.84015], [-60.91691, -26.09105], [-60.41753, -26.31133], [-60.06298, -26.45604], [-59.85192, -26.43751], [-59.2673, -26.85539], [-58.87837, -27.22822], [-58.44156, -27.44996], [-58.2316, -27.50602], [-58.07594, -27.652], [-57.93986, -27.59869], [-57.71554, -27.77706], [-57.57684, -27.76608], [-57.3524, -28.03023], [-57.25206, -28.1719], [-57.30996, -28.38803], [-57.49835, -28.54034], [-57.59559, -28.93334], [-57.86036, -29.24356], [-57.97407, -29.53273], [-57.96235, -29.78974], [-58.12791, -30.12905], [-58.2712, -30.22591], [-58.45775, -30.54657], [-58.41139, -30.69252], [-57.78637, -30.60468], [-57.30782, -30.65239], [-56.83485, -30.6877], [-56.66487, -30.59621], [-56.53595, -30.67406], [-56.31728, -30.61454], [-56.15521, -30.68197], [-55.94611, -30.35591], [-55.64694, -30.29204], [-55.55571, -30.39053], [-55.36998, -30.25194], [-55.34341, -30.04581], [-55.16916, -29.74921], [-54.90878, -29.68976], [-54.83395, -29.51489], [-54.55097, -29.23267], [-54.38386, -28.68283], [-54.3889, -28.46423], [-54.31914, -28.3493], [-54.35684, -28.03497], [-54.30271, -27.9222]], [[-70.08516, -53.95544], [-70.05899, -54.16746], [-70.02374, -54.37579], [-69.97062, -54.58779], [-69.91731, -54.766], [-69.75342, -55.26342], [-69.74177, -55.28165], [-69.7224, -55.29658], [-69.71087, -55.31498], [-69.53642, -55.35165], [-69.35448, -55.39691], [-69.16736, -55.44985], [-68.97765, -55.50824], [-68.78795, -55.57045], [-68.41962, -55.70116], [-67.96932, -55.87644], [-67.84789, -55.91913], [-67.73355, -55.952], [-67.62143, -55.97488], [-67.50743, -55.98657], [-67.38784, -55.98498], [-67.25805, -55.96788]], [[-88.8577, 14.40777], [-88.85783, 14.40772]], [[-88.85783, 14.40772], [-89.11059, 14.31329], [-89.08609, 14.18546], [-89.59696, 13.86598], [-89.66558, 13.61711]], [[-71.66831, 19.73476], [-71.67847, 19.50016], [-71.74064, 19.2904], [-71.64142, 19.16536], [-71.68083, 19.06864], [-71.84013, 18.92444], [-71.74321, 18.71808], [-71.74633, 18.60132], [-72.00286, 18.48547], [-71.93475, 18.30109], [-71.73595, 18.16169], [-71.8039, 17.90945]], [[-70.29135, -17.14074], [-70.43872, -17.25494], [-70.6405, -17.29617], [-70.5229, -17.59924], [-70.60311, -17.82942], [-70.83374, -17.9233], [-71.05125, -18.08799]], [[-82.96855, 42.36574], [-82.58588, 42.55116], [-82.41047, 42.98997]], [[-80.01013, -2.03497], [-79.98307, -2.4431], [-80.12356, -2.5185], [-80.25225, -2.4777], [-80.26526, -2.61865], [-80.19902, -2.73221], [-80.29238, -2.91318], [-80.2529, -3.01845], [-80.00479, -2.84652], [-79.79235, -3.12454], [-79.68475, -3.11363], [-79.58988, -3.24819], [-79.54287, -3.60668], [-79.34051, -3.80915], [-79.18571, -3.66263], [-79.13882, -3.49437], [-78.9408, -3.40908], [-78.8776, -3.29772], [-78.89615, -3.17315], [-78.71419, -2.7783], [-78.57633, -2.65113], [-78.46291, -2.33713], [-78.37738, -2.31881], [-78.05317, -2.02643], [-77.44895, -1.81824], [-76.92368, -1.68535], [-76.43273, -1.30721], [-75.86079, -0.7507], [-75.63325, -0.19402], [-75.45631, -0.18046], [-75.50008, 0.07627], [-75.43158, 0.15611], [-75.53646, 0.28476], [-75.6046, 0.45882], [-75.74629, 0.62042], [-75.52052, 0.58382], [-75.42851, 0.64586]], [[-60.5967, 5.51053], [-60.59638, 5.51049]], [[-60.59638, 5.51049], [-60.30604, 5.47188], [-60.01009, 5.50627], [-59.82582, 5.33959], [-59.87739, 5.01416], [-60.00796, 4.84288], [-59.53059, 4.68615], [-59.56282, 4.50984], [-59.35161, 4.28241], [-59.67518, 3.95088], [-59.64108, 3.8259], [-59.83195, 3.34022], [-59.7943, 3.0576], [-59.66574, 2.78448], [-59.55764, 2.73063], [-59.57836, 2.37134], [-59.47059, 2.22319], [-59.31217, 2.19909], [-59.0279, 1.87041], [-58.76141, 1.79574], [-58.58574, 1.64464], [-58.44126, 1.73732], [-58.22845, 1.72932], [-58.22968, 1.88518], [-58.04025, 2.02413], [-57.75742, 1.94831], [-57.68733, 2.03792], [-57.42541, 2.12612], [-57.21581, 2.10474], [-57.01372, 2.34667], [-56.76937, 2.37099], [-56.61277, 2.27271], [-56.12785, 2.29146], [-56.19919, 2.38976], [-56.35642, 2.39352], [-56.91017, 3.19923], [-57.06899, 3.62661], [-57.37746, 3.62541], [-57.41624, 3.7757], [-57.59234, 3.93286], [-57.81038, 4.21372], [-57.87135, 4.37917], [-57.75455, 4.49468], [-57.63521, 4.80031], [-57.76384, 4.96918], [-57.50561, 5.10335], [-57.10808, 5.10081], [-57.17498, 5.36619], [-57.04614, 5.62359], [-56.99275, 5.8259]], [[-56.12764, 2.29178], [-55.53302, 2.1876], [-55.54219, 2.39137], [-55.77474, 2.57067], [-55.62074, 2.84493], [-55.35531, 2.70279], [-55.03331, 2.73085], [-54.63859, 2.88441], [-54.49393, 2.74269], [-54.32599, 2.75713], [-54.31821, 2.6507]]]}}]}