{"type": "FeatureCollection", "features": [{"type": "Feature", "properties": {"name": "볼리비아", "name_en": "Bolivia", "period": "1825년 독립", "kind": "국가", "legend": "볼리비아(1825)", "map_title": "라틴 아메리카의 독립", "source": "미래엔 세계사 교과서 3권 148쪽", "volume": 3, "page": 148, "coast_snap": "Natural Earth 10m 해안선에 맞춤", "border_snap": "현대 국경(Natural Earth 10m)에 맞춘 구간 약 3162 km"}, "geometry": {"type": "Polygon", "coordinates": [[[-69.68622, -11.98813], [-70.01278, -11.40602], [-70.19873, -11.04118], [-70.23948, -11.05514], [-70.2894, -11.06475], [-70.34102, -11.06723], [-70.39131, -11.05906], [-70.43727, -11.03674], [-70.46249, -11.0139], [-70.50719, -10.96129], [-70.53411, -10.93814], [-70.55556, -10.94279], [-70.64134, -11.0108], [-70.63975, -10.38712], [-70.11112, -10.39217], [-69.77394, -10.45124], [-69.77534, -10.58979], [-69.27475, -10.44281], [-69.03413, -10.13663], [-68.63884, -10.12604], [-68.18166, -9.77361], [-67.99958, -9.76159], [-67.61136, -9.44089], [-66.93131, -9.24673], [-66.45704, -9.2234], [-66.31497, -9.31397], [-66.08758, -9.14462], [-65.98105, -9.33788], [-65.94695, -9.77139], [-65.96566, -9.77677], [-66.01038, -9.80405], [-66.02948, -9.80829], [-66.087, -9.78452], [-66.10198, -9.78741], [-66.11818, -9.80602], [-66.12358, -9.80508], [-66.13547, -9.79516], [-66.19066, -9.80085], [-66.20797, -9.80808], [-66.23898, -9.82813], [-66.25732, -9.83485], [-66.13072, -10.22335], [-66.12371, -10.27651], [-66.01537, -10.42088], [-66.10731, -10.79992], [-65.94312, -11.12457], [-65.90823, -11.31687], [-65.79673, -11.3617], [-65.38727, -11.27755], [-65.37448, -11.29585], [-65.32645, -11.32778], [-65.33006, -11.34049], [-65.35373, -11.37243], [-65.35477, -11.38235], [-65.31955, -11.4764], [-65.29247, -11.50472], [-65.25756, -11.49532], [-65.23304, -11.50834], [-65.22266, -11.51744], [-65.21599, -11.53015], [-65.21599, -11.53997], [-65.22361, -11.55795], [-65.21924, -11.58451], [-65.19545, -11.59216], [-65.17398, -11.60653], [-65.16744, -11.61552], [-65.19093, -11.62317], [-65.19335, -11.63236], [-65.18927, -11.65706], [-65.20232, -11.69148], [-65.20185, -11.72796], [-65.1962, -11.74181], [-65.18245, -11.7567], [-65.16447, -11.76982], [-65.1515, -11.77313], [-65.14354, -11.76383], [-65.13801, -11.71525], [-65.13398, -11.70264], [-65.12786, -11.69458], [-65.11341, -11.69055], [-65.11047, -11.69996], [-65.11357, -11.72259], [-65.0992, -11.73623], [-65.06556, -11.75308], [-65.05631, -11.78564], [-65.03845, -11.81871], [-65.03845, -11.8585], [-65.03367, -11.87979], [-65.02809, -11.88889], [-65.00458, -11.89839], [-64.99812, -11.90894], [-64.99649, -11.92123], [-65.01463, -11.95028], [-65.01634, -11.96847], [-65.00944, -11.98428], [-64.99745, -11.99627], [-64.98344, -12.00392], [-64.96761, -12.00795], [-64.92515, -12.00991], [-64.86208, -12.02479], [-64.83984, -12.01673], [-64.7925, -12.03255], [-64.78519, -12.04743], [-64.78049, -12.06769], [-64.76857, -12.0865], [-64.73679, -12.11978], [-64.74418, -12.13363], [-64.73953, -12.14458], [-64.7284, -12.14985], [-64.71628, -12.14654], [-64.71028, -12.11192], [-64.70638, -12.10613], [-64.68992, -12.10438], [-64.68158, -12.1266], [-64.68158, -12.13487], [-64.68858, -12.14716], [-64.68899, -12.15388], [-64.66486, -12.18096], [-64.64057, -12.19512], [-64.59342, -12.216], [-64.54843, -12.2191], [-64.5321, -12.23222], [-64.51148, -12.24266], [-64.50885, -12.23605], [-64.48939, -12.23946], [-64.47304, -12.2532], [-64.46815, -12.27264], [-64.47443, -12.31646], [-64.49244, -12.35656], [-64.48978, -12.37361], [-64.45252, -12.39035], [-64.42487, -12.43138], [-64.39573, -12.45733], [-64.37676, -12.4659], [-64.3532, -12.46921], [-64.31266, -12.46187], [-64.2977, -12.4657], [-64.28754, -12.49712], [-64.27824, -12.49929], [-64.26385, -12.49526], [-64.24571, -12.47944], [-64.23656, -12.47541], [-64.21522, -12.47376], [-64.19755, -12.47872], [-64.18311, -12.48792], [-64.15525, -12.51696], [-64.14479, -12.52037], [-64.11983, -12.48968], [-64.10446, -12.50714], [-64.04446, -12.50911], [-64.02283, -12.53784], [-64.00418, -12.53546], [-63.97245, -12.52389], [-63.95932, -12.52802], [-63.93906, -12.54414], [-63.92124, -12.54435], [-63.90914, -12.53432], [-63.8632, -12.47479], [-63.86289, -12.46921], [-63.84558, -12.46694], [-63.81499, -12.45722], [-63.8014, -12.45495], [-63.65774, -12.47541], [-63.60043, -12.50611], [-63.55873, -12.53991], [-63.54219, -12.54797], [-63.49615, -12.55334], [-63.48576, -12.55747], [-63.4762, -12.56481], [-63.46876, -12.57577], [-63.4625, -12.60512], [-63.43816, -12.61918], [-63.43145, -12.63695], [-63.39331, -12.66455], [-63.35946, -12.67468], [-63.33042, -12.697], [-63.31791, -12.70196], [-63.24732, -12.70134], [-63.23596, -12.69855], [-63.22267, -12.68253], [-63.20185, -12.66786], [-63.18071, -12.66786], [-63.16707, -12.64739], [-63.13668, -12.63375], [-63.07503, -12.65266], [-63.06475, -12.6662], [-63.05783, -12.70196], [-63.04346, -12.71912], [-63.05111, -12.7308], [-63.05111, -12.74217], [-63.01473, -12.77772], [-63.01002, -12.78795], [-63.00708, -12.80997], [-62.99917, -12.82909], [-62.98801, -12.84387], [-62.9753, -12.85286], [-62.95514, -12.85751], [-62.92889, -12.84604], [-62.92047, -12.86226], [-62.86507, -12.93554], [-62.86011, -12.94029], [-62.83143, -12.94495], [-62.82668, -12.95001], [-62.82017, -12.97492], [-62.8074, -12.98887], [-62.78983, -13.00065], [-62.77045, -13.01047], [-62.76864, -12.99063], [-62.7579, -12.98515], [-62.72203, -12.98257], [-62.69898, -12.96665], [-62.68663, -12.965], [-62.66746, -12.97636], [-62.65134, -12.99249], [-62.64752, -13.00158], [-62.64519, -13.02535], [-62.64168, -13.03001], [-62.5546, -13.0668], [-62.49269, -13.06504], [-62.47212, -13.06845], [-62.45848, -13.07796], [-62.43094, -13.10979], [-62.42748, -13.12457], [-62.42412, -13.12654], [-62.4067, -13.12654], [-62.38185, -13.13987], [-62.33503, -13.14514], [-62.32159, -13.14369], [-62.31053, -13.13398], [-62.29033, -13.14204], [-62.27364, -13.13842], [-62.25917, -13.13077], [-62.21152, -13.12033], [-62.20093, -13.12271], [-62.17395, -13.1408], [-62.17245, -13.11786], [-62.16238, -13.12075], [-62.13985, -13.147], [-62.12915, -13.15093], [-62.11468, -13.1502], [-62.11246, -13.2318], [-62.10941, -13.24896], [-62.09923, -13.2626], [-62.07773, -13.2779], [-62.0336, -13.32554], [-62.0197, -13.33257], [-62.00326, -13.36048], [-61.95836, -13.38549], [-61.90983, -13.43189], [-61.87232, -13.45608], [-61.84798, -13.5308], [-61.83635, -13.54062], [-61.81397, -13.54424], [-61.75434, -13.53028], [-61.73512, -13.53804], [-61.71574, -13.52656], [-61.6929, -13.51799], [-61.66809, -13.51251], [-61.59711, -13.5061], [-61.58807, -13.50765], [-61.56086, -13.53266], [-61.55081, -13.53804], [-61.50342, -13.54816], [-61.45875, -13.54372], [-61.41547, -13.52811], [-61.34772, -13.4937], [-61.28122, -13.50724], [-61.24856, -13.52439], [-61.23789, -13.52439], [-61.21504, -13.51747], [-61.1491, -13.51985], [-61.13931, -13.51406], [-61.13358, -13.49401], [-61.11872, -13.4845], [-61.07601, -13.4783], [-61.06012, -13.46714], [-61.04722, -13.46455], [-61.04126, -13.47458], [-61.04126, -13.51519], [-61.02201, -13.53525], [-60.97787, -13.543], [-60.9293, -13.5462], [-60.89674, -13.55292], [-60.87067, -13.57545], [-60.80197, -13.60418], [-60.6527, -13.7188], [-60.61808, -13.73689], [-60.58862, -13.74454], [-60.57514, -13.76562], [-60.49062, -13.78774], [-60.47264, -13.79786], [-60.46527, -13.81657], [-60.46313, -13.84344], [-60.44881, -13.89677], [-60.43855, -13.91837], [-60.40863, -13.94452], [-60.40672, -13.95041], [-60.41161, -13.96054], [-60.38969, -13.97491], [-60.38719, -13.98328], [-60.40941, -14.05532], [-60.41943, -14.07692], [-60.43724, -14.09201], [-60.4614, -14.09862], [-60.46827, -14.10369], [-60.47351, -14.11722], [-60.47894, -14.1627], [-60.47568, -14.17603], [-60.4624, -14.19846], [-60.46434, -14.27835], [-60.45432, -14.29665], [-60.39993, -14.34078], [-60.39135, -14.35711], [-60.3767, -14.41995], [-60.34381, -14.49095], [-60.33843, -14.5326], [-60.3692, -14.54283], [-60.35272, -14.57539], [-60.30404, -14.60815], [-60.29172, -14.63006], [-60.2698, -15.08337], [-60.27497, -15.09515], [-60.58224, -15.09887], [-60.52948, -15.14373], [-60.26045, -15.45606], [-60.2464, -15.47828], [-60.23797, -15.50267], [-60.19376, -16.00145], [-60.17981, -16.22201], [-60.16069, -16.26479], [-60.12984, -16.27306], [-59.46744, -16.29616], [-59.46459, -16.70363], [-58.90663, -16.74969], [-58.47726, -16.71975], [-58.45625, -16.80244], [-58.45294, -16.8413], [-58.46405, -16.8661], [-58.46627, -16.88729], [-58.45635, -16.937], [-58.43248, -16.98537], [-58.42679, -17.05524], [-58.41098, -17.08821], [-58.40627, -17.11012], [-58.40483, -17.19962], [-58.39914, -17.23745], [-58.38116, -17.26721], [-58.3437, -17.28695], [-58.30215, -17.29378], [-58.26453, -17.32003], [-58.23156, -17.32974], [-58.22024, -17.34431], [-58.20406, -17.37739], [-58.18841, -17.38855], [-58.15223, -17.3964], [-58.13937, -17.40457], [-58.10113, -17.44126], [-58.32637, -17.79267], [-58.30378, -17.89652], [-58.13759, -17.97548], [-57.73009, -17.84609], [-57.63692, -18.00112], [-57.5855, -18.12277], [-57.55108, -18.18364], [-57.51119, -18.20555], [-57.47455, -18.20804], [-57.46566, -18.21775], [-57.4668, -18.23956], [-57.53573, -18.24049], [-57.55387, -18.24452], [-57.56674, -18.25609], [-57.78233, -18.91042], [-57.74223, -18.91362], [-57.73179, -18.922], [-57.71583, -19.04457], [-57.45612, -19.37585], [-57.5385, -19.69002], [-57.85974, -19.98012], [-57.89561, -20.02415], [-57.99214, -20.4509], [-58.0079, -20.47983], [-58.00894, -20.52572], [-58.00475, -20.5498], [-57.99333, -20.57378], [-57.99095, -20.6206], [-57.97312, -20.65119], [-57.97359, -20.66194], [-57.98108, -20.68116], [-57.98062, -20.69274], [-58.40562, -20.7682], [-58.99287, -20.4099], [-59.9419, -20.33271], [-60.59409, -20.48548], [-61.80175, -20.64549], [-61.84019, -20.76261], [-62.2747, -20.78445], [-62.27188, -21.00094], [-62.2757, -21.06657], [-62.59017, -22.05892], [-62.47058, -22.38184], [-62.46194, -22.38876], [-62.45497, -22.40385], [-62.43807, -22.41966], [-62.36826, -22.46442], [-62.34872, -22.47134], [-62.30573, -22.47672], [-62.28723, -22.48395], [-62.28139, -22.51206], [-62.26335, -22.51444], [-62.24118, -22.53842], [-62.23322, -22.5563], [-62.23886, -22.57304], [-62.25296, -22.59113], [-62.25281, -22.60363], [-62.23974, -22.61376], [-62.21493, -22.6243], [-62.19297, -22.62823], [-62.18765, -22.63857], [-62.19462, -22.66058], [-62.19504, -22.6736], [-62.17592, -22.68487], [-62.18827, -22.70833], [-62.18418, -22.7137], [-62.1708, -22.71732], [-62.15349, -22.74781], [-62.12615, -22.77571], [-62.11587, -22.7998], [-62.45884, -23.06748], [-62.64773, -23.8749], [-62.88187, -23.56916], [-64.03556, -23.43689], [-64.35638, -24.166], [-64.45984, -24.50653], [-64.58782, -24.17713], [-64.68353, -23.70124], [-65.14474, -23.3979], [-65.96007, -23.2796], [-66.17442, -23.02809], [-66.45241, -22.81524], [-66.54246, -23.21746], [-66.61633, -23.23277], [-67.04887, -23.12051], [-67.33979, -24.0006], [-67.36237, -24.03037], [-67.41229, -24.05559], [-67.51027, -24.09041], [-67.92379, -24.25969], [-68.10336, -23.87206], [-68.16385, -23.14428], [-67.87634, -22.83359], [-67.88709, -22.81871], [-67.89148, -22.79287], [-67.89133, -22.71567], [-68.33268, -22.6911], [-68.43623, -22.29215], [-68.44368, -22.22058], [-68.09204, -21.96842], [-68.09623, -21.95396], [-68.1076, -21.78962], [-68.12837, -21.71232], [-68.19059, -21.60638], [-68.19844, -21.57186], [-68.63794, -21.57526], [-68.72969, -21.39842], [-68.84858, -21.33948], [-68.87029, -21.19721], [-68.55511, -20.91392], [-68.57196, -20.87237], [-68.5723, -20.81806], [-69.01315, -20.80839], [-69.1235, -20.70987], [-69.10943, -20.67967], [-68.75071, -20.45182], [-68.76541, -20.42123], [-68.76903, -20.39054], [-69.19113, -20.29697], [-69.198, -20.28074], [-68.78947, -20.12585], [-68.79259, -20.10663], [-69.13629, -19.83653], [-69.14927, -19.82377], [-69.13186, -19.79195], [-68.70544, -19.73383], [-68.70322, -19.71554], [-68.6903, -19.69539], [-68.63097, -19.64195], [-68.51021, -19.47163], [-68.49636, -19.4584], [-68.4561, -19.44124], [-68.44763, -19.43463], [-68.45502, -19.4154], [-68.4932, -19.37696], [-68.60007, -19.30337], [-68.63573, -19.29055], [-68.66332, -19.2736], [-68.69846, -19.21562], [-68.72125, -19.19175], [-68.81541, -19.1133], [-68.84737, -19.09201], [-68.89478, -19.07651], [-68.9085, -19.06793], [-68.91969, -19.05377], [-68.94315, -19.00116], [-68.9617, -18.96944], [-68.97398, -18.95621], [-68.98961, -18.94649], [-69.42655, -18.95707], [-69.51416, -18.86474], [-69.62158, -18.4925], [-69.94493, -18.22169], [-69.9228, -18.19647], [-69.86534, -18.14458], [-69.84358, -18.11317], [-69.7831, -17.9816], [-69.77989, -17.96258], [-69.78237, -17.94387], [-69.81278, -17.88827], [-69.81816, -17.87142], [-69.8201, -17.8461], [-69.82904, -17.80383], [-69.84609, -17.7691], [-69.85756, -17.73417], [-69.84984, -17.69159], [-69.83626, -17.67773], [-70.1491, -17.389], [-70.29128, -17.14068], [-70.30744, -16.96728], [-70.4773, -16.84256], [-70.23408, -16.63231], [-70.04986, -16.33066], [-69.84326, -16.2572], [-69.71751, -15.82076], [-69.99304, -15.69035], [-70.11247, -15.71999], [-70.36068, -15.18878], [-70.26517, -14.98633], [-70.09853, -14.80284], [-70.38076, -14.50605], [-70.2225, -14.13298], [-70.02991, -14.03262], [-69.98581, -13.79567], [-69.82827, -13.74439], [-70.1141, -13.17377], [-69.9927, -13.00134], [-69.94889, -12.3455], [-69.73792, -12.17811], [-69.68622, -11.98813]]]}}]}