{"type": "FeatureCollection", "features": [{"type": "Feature", "properties": {"name": "도미니카", "name_en": "Dominican Republic", "period": "1844년 독립", "kind": "국가", "legend": "도미니카(1844)", "map_title": "라틴 아메리카의 독립", "source": "미래엔 세계사 교과서 3권 148쪽", "volume": 3, "page": 148, "coast_snap": "Natural Earth 10m 해안선에 맞춤", "border_snap": "현대 국경(Natural Earth 10m)에 맞춘 구간 약 270 km"}, "geometry": {"type": "MultiPolygon", "coordinates": [[[[-71.46713, 17.58027], [-71.48253, 17.57563], [-71.5074, 17.55126], [-71.52448, 17.54557], [-71.54116, 17.55464], [-71.54136, 17.57616], [-71.52106, 17.62127], [-71.49284, 17.60384], [-71.46713, 17.58027]]], [[[-68.57019, 18.11571], [-68.57186, 18.10787], [-68.6361, 18.12836], [-68.70189, 18.1147], [-68.73704, 18.12361], [-68.76206, 18.14518], [-68.77818, 18.17203], [-68.78692, 18.19667], [-68.77208, 18.20086], [-68.75455, 18.19766], [-68.72104, 18.17883], [-68.66405, 18.16934], [-68.61238, 18.17079], [-68.59879, 18.1662], [-68.57739, 18.13346], [-68.57019, 18.11571]]], [[[-71.72033, 19.69746], [-71.74184, 19.75581], [-71.74079, 19.77318], [-71.76764, 19.77449], [-71.77106, 19.78514], [-71.74429, 19.81734], [-71.71691, 19.82364], [-71.69981, 19.84149], [-71.67028, 19.852], [-71.6588, 19.86196], [-71.66672, 19.88548], [-71.66144, 19.89361], [-71.64835, 19.89668], [-71.62125, 19.88931], [-71.60711, 19.90292], [-71.50488, 19.91033], [-71.47851, 19.90688], [-71.45243, 19.89796], [-71.35725, 19.85126], [-71.32921, 19.84589], [-71.3026, 19.85569], [-71.26806, 19.83552], [-71.22374, 19.83405], [-71.21207, 19.8371], [-71.20351, 19.86538], [-71.19177, 19.86968], [-71.18335, 19.86041], [-71.17223, 19.83405], [-71.15852, 19.84349], [-71.15172, 19.8557], [-71.16201, 19.85945], [-71.16538, 19.86878], [-71.14973, 19.86302], [-71.10705, 19.8688], [-71.09679, 19.87621], [-71.07807, 19.90925], [-71.01842, 19.93548], [-71.00089, 19.93768], [-70.96936, 19.92519], [-70.96105, 19.91267], [-70.96618, 19.89672], [-70.94689, 19.88931], [-70.93944, 19.88931], [-70.94688, 19.91033], [-70.89851, 19.9029], [-70.84325, 19.91034], [-70.83097, 19.90253], [-70.78698, 19.85285], [-70.78333, 19.84331], [-70.78865, 19.83405], [-70.75097, 19.8338], [-70.73634, 19.82692], [-70.69848, 19.79682], [-70.62369, 19.76655], [-70.57909, 19.7602], [-70.51871, 19.75975], [-70.4967, 19.77708], [-70.47273, 19.78684], [-70.43371, 19.7752], [-70.33617, 19.67764], [-70.30134, 19.65766], [-70.28083, 19.6518], [-70.23522, 19.64719], [-70.19856, 19.63467], [-70.11644, 19.62238], [-70.09752, 19.6332], [-70.06102, 19.6701], [-70.0421, 19.67844], [-69.94726, 19.67864], [-69.93204, 19.67014], [-69.89795, 19.63597], [-69.88721, 19.61274], [-69.88777, 19.58735], [-69.90416, 19.53238], [-69.88415, 19.52439], [-69.87655, 19.50666], [-69.87682, 19.46101], [-69.86799, 19.42528], [-69.80138, 19.33088], [-69.76769, 19.29975], [-69.73347, 19.28657], [-69.71321, 19.28974], [-69.67415, 19.3039], [-69.58943, 19.31281], [-69.53941, 19.33941], [-69.52798, 19.34177], [-69.48331, 19.32758], [-69.45877, 19.33335], [-69.43758, 19.333], [-69.42862, 19.31924], [-69.41071, 19.32757], [-69.3527, 19.30511], [-69.3356, 19.2934], [-69.32428, 19.31508], [-69.30589, 19.33111], [-69.26048, 19.35487], [-69.23128, 19.36334], [-69.22437, 19.35179], [-69.24682, 19.29963], [-69.22688, 19.29267], [-69.20434, 19.29279], [-69.1643, 19.30702], [-69.15837, 19.2851], [-69.18932, 19.25227], [-69.20272, 19.21695], [-69.21423, 19.20079], [-69.23181, 19.18868], [-69.25365, 19.18355], [-69.33214, 19.19721], [-69.41812, 19.19099], [-69.47545, 19.21402], [-69.60294, 19.22899], [-69.6173, 19.22525], [-69.62279, 19.21186], [-69.63353, 19.12368], [-69.63044, 19.10847], [-69.60847, 19.09345], [-69.55329, 19.10146], [-69.53425, 19.09479], [-69.51049, 19.10203], [-69.46345, 19.0847], [-69.43863, 19.08735], [-69.45275, 19.09691], [-69.47337, 19.10163], [-69.47337, 19.10846], [-69.41972, 19.1111], [-69.40445, 19.10846], [-69.38672, 19.09609], [-69.37295, 19.06538], [-69.35607, 19.05321], [-69.30427, 19.04478], [-69.17325, 19.01114], [-69.15746, 19.01219], [-69.13866, 19.02228], [-69.15734, 19.03692], [-69.15745, 19.04636], [-69.13952, 19.0512], [-69.1239, 19.03778], [-69.10285, 19.00536], [-69.0612, 18.98818], [-69.05443, 18.97748], [-69.00658, 19.00536], [-69.01421, 19.01341], [-68.99299, 19.01846], [-68.97511, 19.03313], [-68.91829, 19.02718], [-68.88313, 19.01218], [-68.87629, 18.9986], [-68.81823, 18.98493], [-68.79589, 18.98411], [-68.76781, 18.96947], [-68.73995, 18.9645], [-68.62376, 18.86209], [-68.5808, 18.81257], [-68.5205, 18.76887], [-68.45857, 18.73102], [-68.4134, 18.6896], [-68.3562, 18.65656], [-68.32862, 18.61652], [-68.33406, 18.5773], [-68.42793, 18.4414], [-68.44127, 18.42902], [-68.44428, 18.37504], [-68.45569, 18.35787], [-68.47216, 18.34985], [-68.51659, 18.34749], [-68.58894, 18.38227], [-68.60546, 18.37173], [-68.59753, 18.33662], [-68.62609, 18.28335], [-68.64163, 18.22494], [-68.64709, 18.21484], [-68.65865, 18.21091], [-68.74299, 18.20454], [-68.76024, 18.21035], [-68.76252, 18.24698], [-68.78686, 18.2954], [-68.82014, 18.34248], [-68.8496, 18.37482], [-68.88097, 18.39549], [-68.92252, 18.4123], [-68.96434, 18.41796], [-69.01257, 18.39913], [-69.0857, 18.39595], [-69.18507, 18.42163], [-69.21422, 18.44514], [-69.23632, 18.45051], [-69.29503, 18.43904], [-69.31509, 18.45051], [-69.33601, 18.43208], [-69.46593, 18.42255], [-69.50475, 18.40894], [-69.52525, 18.40845], [-69.60212, 18.45572], [-69.61681, 18.45734], [-69.62316, 18.44798], [-69.62361, 18.41634], [-69.6466, 18.41357], [-69.66514, 18.41951], [-69.68196, 18.44676], [-69.69738, 18.45637], [-69.85147, 18.47248], [-69.88366, 18.47102], [-70.01659, 18.41136], [-70.03893, 18.39248], [-70.05578, 18.36726], [-70.06771, 18.3291], [-70.09069, 18.31753], [-70.10002, 18.29923], [-70.17178, 18.23144], [-70.20214, 18.23355], [-70.23314, 18.22396], [-70.2508, 18.23432], [-70.2696, 18.23811], [-70.39757, 18.23762], [-70.41906, 18.23115], [-70.4602, 18.20894], [-70.48355, 18.2041], [-70.55284, 18.20426], [-70.56891, 18.21036], [-70.57029, 18.21894], [-70.54906, 18.23762], [-70.55191, 18.24844], [-70.59243, 18.27986], [-70.59678, 18.28913], [-70.59434, 18.29905], [-70.5764, 18.31395], [-70.57177, 18.33405], [-70.57388, 18.37368], [-70.60143, 18.41185], [-70.61465, 18.42084], [-70.65754, 18.43378], [-70.68248, 18.43561], [-70.70385, 18.43012], [-70.71288, 18.41266], [-70.712, 18.38337], [-70.74987, 18.35042], [-70.77233, 18.34789], [-70.80232, 18.35493], [-70.82397, 18.34269], [-70.85045, 18.33959], [-70.86311, 18.32697], [-70.87329, 18.30631], [-70.89167, 18.29971], [-70.91829, 18.26961], [-70.93249, 18.26155], [-70.95621, 18.25874], [-70.9658, 18.26216], [-70.9838, 18.28913], [-71.00487, 18.30101], [-71.06835, 18.31037], [-71.08397, 18.30439], [-71.10334, 18.25495], [-71.10143, 18.24213], [-71.08284, 18.21771], [-71.06128, 18.154], [-71.06112, 18.14208], [-71.08056, 18.11392], [-71.09731, 18.07351], [-71.1918, 17.9418], [-71.20426, 17.91113], [-71.24592, 17.88508], [-71.25471, 17.87531], [-71.26782, 17.8466], [-71.28209, 17.85399], [-71.28893, 17.84101], [-71.28211, 17.84101], [-71.28629, 17.83238], [-71.30932, 17.81639], [-71.31591, 17.79629], [-71.33186, 17.77241], [-71.36556, 17.67842], [-71.41723, 17.60482], [-71.42742, 17.60945], [-71.44611, 17.62935], [-71.51488, 17.73778], [-71.53161, 17.75507], [-71.56526, 17.76752], [-71.64513, 17.75728], [-71.67929, 17.76529], [-71.63777, 17.80402], [-71.63093, 17.8168], [-71.63659, 17.85346], [-71.66494, 17.90347], [-71.6588, 17.95332], [-71.66625, 17.97077], [-71.72033, 18.01911], [-71.77597, 18.03916], [-71.79258, 18.04988], [-71.86246, 18.13654], [-71.89297, 18.16279], [-71.92809, 18.18378], [-72.00674, 18.20946], [-72.07177, 18.23754], [-72.11071, 18.23762], [-72.19054, 18.22485], [-72.30676, 18.22563], [-72.32413, 18.3151], [-72.00095, 18.58246], [-72.00984, 18.59881], [-71.99263, 18.61114], [-71.95547, 18.61861], [-71.88028, 18.6054], [-71.84158, 18.61799], [-71.82856, 18.63129], [-71.80799, 18.66465], [-71.79435, 18.67917], [-71.74407, 18.71144], [-71.73208, 18.73007], [-71.72035, 18.76544], [-71.71885, 18.78423], [-71.72691, 18.82353], [-71.72794, 18.86407], [-71.73347, 18.88257], [-71.77295, 18.92171], [-71.78711, 18.95003], [-71.79626, 18.95706], [-71.81967, 18.95781], [-71.86246, 18.94709], [-71.8654, 18.96442], [-71.84814, 18.97548], [-71.79683, 18.98861], [-71.7837, 18.99631], [-71.74035, 19.04189], [-71.71042, 19.08165], [-71.66138, 19.11759], [-71.64877, 19.13529], [-71.64366, 19.15248], [-71.63911, 19.21211], [-71.71652, 19.24777], [-71.75373, 19.28379], [-71.77156, 19.30756], [-71.77652, 19.3275], [-71.73347, 19.35546], [-71.72081, 19.38595], [-71.70386, 19.41463], [-71.70319, 19.45928], [-71.71513, 19.53746], [-71.74308, 19.60007], [-71.74768, 19.62278], [-71.74505, 19.6649], [-71.75742, 19.71007], [-71.72033, 19.69746]]], [[[-72.05199, 19.69792], [-72.05132, 19.71432], [-72.0219, 19.69919], [-72.05199, 19.69792]]], [[[-71.83674, 19.71734], [-71.75811, 19.71008], [-71.84392, 19.70658], [-71.84439, 19.71111], [-71.83674, 19.71734]]], [[[-71.98786, 19.71857], [-71.96864, 19.73233], [-71.9405, 19.73211], [-71.86474, 19.71506], [-71.85758, 19.71002], [-71.85955, 19.70594], [-72.01385, 19.69953], [-71.99933, 19.71555], [-71.98786, 19.71857]]]]}}]}