{"type": "FeatureCollection", "features": [{"type": "Feature", "properties": {"name": "에콰도르", "name_en": "Ecuador", "period": "1822년 독립", "kind": "국가", "legend": "에콰도르(1822)", "map_title": "라틴 아메리카의 독립", "source": "미래엔 세계사 교과서 3권 148쪽", "volume": 3, "page": 148, "coast_snap": "Natural Earth 10m 해안선에 맞춤", "border_snap": "현대 국경(Natural Earth 10m)에 맞춘 구간 약 222 km"}, "geometry": {"type": "MultiPolygon", "coordinates": [[[[-80.32055, -3.35556], [-80.31482, -3.37442], [-80.34106, -3.36865], [-80.32763, -3.36053], [-80.30689, -3.32077], [-80.32055, -3.35556]]], [[[-80.13557, -2.69695], [-80.05969, -2.66278], [-80.01452, -2.66425], [-79.94579, -2.70664], [-79.90283, -2.71747], [-79.90722, -2.73235], [-79.91662, -2.74491], [-79.92765, -2.75415], [-79.97794, -2.77581], [-79.98112, -2.7846], [-79.99519, -2.79803], [-80.01269, -2.83416], [-80.0231, -2.84303], [-80.03371, -2.86123], [-80.06494, -2.92424], [-80.08115, -2.93085], [-80.09437, -2.94586], [-80.09377, -2.96926], [-80.109, -2.98358], [-80.13104, -3.02091], [-80.16682, -3.01735], [-80.20373, -3.0341], [-80.25133, -3.02612], [-80.26593, -3.01848], [-80.27184, -2.9964], [-80.25873, -2.82759], [-80.22496, -2.76531], [-80.21067, -2.72487], [-80.19661, -2.71476], [-80.13557, -2.69695]]], [[[-79.77258, -2.54199], [-79.79381, -2.57383], [-79.8287, -2.59205], [-79.83325, -2.63601], [-79.85751, -2.65117], [-79.87723, -2.64967], [-79.88176, -2.62714], [-79.84705, -2.53474], [-79.81964, -2.48593], [-79.80901, -2.51168], [-79.78473, -2.52078], [-79.77258, -2.54199]]], [[[-79.63184, -1.50317], [-79.64614, -1.52435], [-79.69809, -1.57475], [-79.79507, -1.64581], [-79.74227, -1.64406], [-79.67441, -1.65512], [-79.60869, -1.67946], [-79.59971, -1.67728], [-79.51825, -1.5121], [-79.47456, -1.4067], [-79.47158, -1.3647], [-79.48122, -1.30903], [-79.50053, -1.25916], [-79.52569, -1.2264], [-79.53817, -1.22701], [-79.56215, -1.27428], [-79.59076, -1.35083], [-79.60965, -1.38346], [-79.6464, -1.38779], [-79.69981, -1.37586], [-79.70819, -1.36674], [-79.70813, -1.35059], [-79.65692, -1.20018], [-79.66001, -1.19211], [-79.66926, -1.19064], [-79.7308, -1.22374], [-79.76452, -1.2469], [-79.83142, -1.3021], [-79.90504, -1.37309], [-79.9121, -1.43649], [-79.93325, -1.42996], [-79.99841, -1.39504], [-80.0709, -1.34423], [-80.20673, -1.16072], [-80.28614, -1.14061], [-80.35181, -1.20115], [-80.39832, -1.23764], [-80.38393, -1.35019], [-80.44971, -1.35934], [-80.48498, -1.35911], [-80.55461, -1.34823], [-80.62078, -1.3239], [-80.68096, -1.28705], [-80.7145, -1.25841], [-80.7612, -1.20581], [-80.79427, -1.15702], [-80.82445, -1.09015], [-80.84064, -1.01807], [-80.84224, -0.97325], [-80.82718, -0.95068], [-80.81636, -0.94635], [-80.7882, -0.95062], [-80.76117, -0.93656], [-80.74602, -0.93977], [-80.72226, -0.93114], [-80.72437, -0.93988], [-80.706, -0.94852], [-80.69088, -0.94959], [-80.66384, -0.92631], [-80.65305, -0.92308], [-80.64332, -0.9371], [-80.61632, -0.94141], [-80.59149, -0.93169], [-80.56988, -0.91224], [-80.54721, -0.88849], [-80.51591, -0.74209], [-80.49765, -0.69267], [-80.46246, -0.61794], [-80.44896, -0.60607], [-80.422, -0.59961], [-80.41984, -0.62551], [-80.40582, -0.64603], [-80.3788, -0.65788], [-80.29901, -0.66223], [-80.299, -0.65036], [-80.35718, -0.63628], [-80.3777, -0.63627], [-80.39173, -0.62548], [-80.41556, -0.57375], [-80.42958, -0.56834], [-80.43712, -0.55753], [-80.43822, -0.53383], [-80.44897, -0.50567], [-80.45206, -0.47674], [-80.46624, -0.44517], [-80.48459, -0.42358], [-80.49645, -0.38138], [-80.48564, -0.36723], [-80.46516, -0.36525], [-80.43273, -0.33919], [-80.39135, -0.27435], [-80.37123, -0.22284], [-80.34966, -0.21526], [-80.32369, -0.17319], [-80.30535, -0.18937], [-80.28372, -0.17857], [-80.23185, -0.1397], [-80.17234, -0.07488], [-80.1079, 0.00707], [-80.09877, 0.03921], [-80.06646, 0.05221], [-80.04272, 0.12346], [-80.03698, 0.17597], [-80.04667, 0.25823], [-79.9628, 0.25359], [-79.89445, 0.23472], [-79.83185, 0.20318], [-79.80296, 0.18283], [-79.74483, 0.12838], [-79.73677, 0.13044], [-79.70563, 0.17149], [-79.69649, 0.17623], [-79.607, 0.16517], [-79.59942, 0.16861], [-79.59767, 0.176], [-79.61213, 0.2237], [-79.65959, 0.34873], [-79.66237, 0.37688], [-79.65638, 0.40034], [-79.63934, 0.42397], [-79.61106, 0.45098], [-79.42258, 0.58982], [-79.32218, 0.67947], [-79.32434, 0.68681], [-79.36702, 0.72414], [-79.39064, 0.7511], [-79.42874, 0.81021], [-79.44357, 0.84291], [-79.463, 0.91061], [-79.46776, 0.94623], [-79.46683, 1.01668], [-79.45691, 1.0721], [-79.43505, 1.07802], [-79.36465, 1.07246], [-79.33298, 1.08352], [-79.29605, 1.08503], [-79.27221, 1.09295], [-79.24816, 1.08027], [-79.16576, 1.0998], [-79.14733, 1.10956], [-79.07199, 1.20935], [-79.05724, 1.2175], [-79.03259, 1.20904], [-79.01292, 1.19257], [-79.00042, 1.1721], [-78.99169, 1.1197], [-78.97256, 1.12983], [-78.96215, 1.14468], [-78.95457, 1.20734], [-78.92894, 1.24315], [-78.91979, 1.23066], [-78.90168, 1.23631], [-78.89265, 1.24478], [-78.88801, 1.27045], [-78.87167, 1.28897], [-78.85505, 1.29165], [-78.81286, 1.27729], [-78.82014, 1.29173], [-78.87478, 1.30515], [-78.88195, 1.31928], [-78.86989, 1.34389], [-78.83235, 1.38133], [-78.82657, 1.3946], [-78.82867, 1.43431], [-78.81286, 1.4418], [-78.81957, 1.4597], [-78.85447, 1.49018], [-78.85334, 1.54336], [-78.86071, 1.5585], [-78.8671, 1.56029], [-78.8996, 1.54534], [-78.91812, 1.56431], [-78.93107, 1.56617], [-78.99798, 1.60794], [-79.0215, 1.63831], [-79.01667, 1.65475], [-79.00876, 1.66475], [-78.97348, 1.67553], [-78.95584, 1.69218], [-78.92644, 1.74117], [-78.86686, 1.80468], [-78.84605, 1.82158], [-78.79939, 1.83201], [-78.77684, 1.82844], [-78.75945, 1.83053], [-78.69726, 1.81208], [-78.61264, 1.8013], [-78.59097, 1.78348], [-78.57123, 1.78221], [-78.56672, 1.81976], [-78.55333, 1.83441], [-78.5463, 1.85988], [-78.55405, 1.87621], [-78.5454, 1.91474], [-78.54835, 1.92061], [-78.55848, 1.90417], [-78.5715, 1.89682], [-78.59136, 1.89685], [-78.59762, 1.90989], [-78.59819, 1.92857], [-78.58633, 2.00039], [-78.58959, 2.0091], [-78.60802, 2.02798], [-78.61799, 2.03144], [-78.62902, 2.02534], [-78.64748, 1.98065], [-78.65824, 1.97501], [-78.66546, 1.98276], [-78.67068, 2.03099], [-78.68586, 2.08063], [-78.62671, 2.08991], [-78.5944, 2.10905], [-78.52919, 2.13589], [-78.46003, 2.14941], [-78.39001, 2.14913], [-78.35471, 2.14372], [-78.28778, 2.123], [-78.23342, 2.09402], [-78.2089, 2.04169], [-78.19608, 1.99966], [-78.18949, 1.99423], [-78.18136, 1.99677], [-78.15327, 2.03189], [-78.13248, 2.0717], [-78.01882, 1.90544], [-77.90738, 1.85783], [-77.81204, 1.73464], [-77.46412, 1.50067], [-77.33996, 1.52867], [-77.18359, 1.35559], [-77.13084, 1.11695], [-77.1256, 1.1106], [-76.95744, 1.09019], [-76.84559, 0.99624], [-76.3819, 0.94312], [-76.37312, 0.94983], [-76.33038, 1.11042], [-76.07046, 1.07618], [-75.87131, 0.81458], [-75.72784, 0.81135], [-75.42853, 0.64645], [-75.52059, 0.58375], [-75.72152, 0.61691], [-75.73165, 0.61032], [-75.72973, 0.60202], [-75.63879, 0.49782], [-75.64667, 0.08542], [-75.62677, 0.07891], [-75.59825, 0.05039], [-75.57014, 0.03798], [-75.52311, -0.00398], [-75.46071, -0.04121], [-75.49436, -0.14014], [-75.52575, -0.12325], [-75.53926, -0.12004], [-75.57117, -0.1217], [-75.623, -0.10661], [-75.6376, -0.11147], [-75.64321, -0.12883], [-75.6384, -0.15095], [-75.62864, -0.17048], [-75.61957, -0.18092], [-75.57897, -0.18267], [-75.56683, -0.19001], [-75.5459, -0.20975], [-75.51216, -0.22309], [-75.49619, -0.23311], [-75.48477, -0.24768], [-75.45273, -0.36065], [-75.43423, -0.40302], [-75.80081, -0.60436], [-75.86087, -0.75077], [-76.4326, -1.30711], [-76.92375, -1.68542], [-77.44877, -1.81849], [-78.05164, -2.02565], [-78.37734, -2.3182], [-78.46214, -2.33815], [-78.5764, -2.65119], [-78.7146, -2.77921], [-78.89509, -3.17075], [-78.87768, -3.29779], [-78.94077, -3.40898], [-79.13785, -3.49478], [-79.18579, -3.66272], [-79.34059, -3.80921], [-79.54238, -3.60688], [-79.58436, -3.29042], [-79.58922, -3.28355], [-79.60079, -3.28666], [-79.64259, -3.37984], [-79.6813, -3.43419], [-79.72376, -3.47983], [-79.74983, -3.48379], [-79.8297, -3.48434], [-80.22479, -3.59259], [-80.24355, -3.58464], [-80.24998, -3.57771], [-80.24213, -3.54299], [-80.24029, -3.51405], [-80.24267, -3.50516], [-80.24908, -3.49793], [-80.27163, -3.48552], [-80.27388, -3.46464], [-80.26566, -3.42641], [-80.27975, -3.41555], [-80.2921, -3.41228], [-80.29779, -3.37611], [-80.31262, -3.37476], [-80.30232, -3.3668], [-80.2967, -3.33538], [-80.28645, -3.32075], [-80.2591, -3.34808], [-80.17339, -3.32761], [-80.14517, -3.33123], [-80.13557, -3.32757], [-80.10827, -3.29681], [-80.07056, -3.21839], [-80.05988, -3.20405], [-80.03752, -3.20828], [-80.03288, -3.23211], [-80.03995, -3.27988], [-80.0292, -3.27353], [-80.00893, -3.24188], [-79.96801, -3.21461], [-79.9532, -3.19744], [-79.93798, -3.15398], [-79.93324, -3.1152], [-79.87487, -3.00547], [-79.88483, -2.98805], [-79.88124, -2.96561], [-79.83465, -2.80705], [-79.80138, -2.74098], [-79.79767, -2.71771], [-79.77642, -2.65945], [-79.73498, -2.61159], [-79.72643, -2.59384], [-79.72509, -2.56976], [-79.73152, -2.52508], [-79.74502, -2.49017], [-79.74828, -2.48463], [-79.78128, -2.48498], [-79.78953, -2.48104], [-79.80161, -2.46257], [-79.82091, -2.40895], [-79.83945, -2.37704], [-79.84044, -2.30462], [-79.84756, -2.24528], [-79.83983, -2.20957], [-79.86188, -2.17961], [-79.86863, -2.1609], [-79.86802, -2.14886], [-79.85411, -2.12029], [-79.86187, -2.10801], [-79.84642, -2.09174], [-79.81835, -2.07985], [-79.81346, -2.05641], [-79.8059, -2.04518], [-79.77286, -2.02662], [-79.76561, -2.00498], [-79.83137, -2.04355], [-79.8346, -2.07001], [-79.87434, -2.07537], [-79.8817, -2.08375], [-79.89196, -2.1159], [-79.90046, -2.15594], [-79.90184, -2.18483], [-79.89574, -2.2138], [-79.86531, -2.26678], [-79.86303, -2.29713], [-79.87855, -2.49168], [-79.88928, -2.53268], [-79.92336, -2.57376], [-79.93322, -2.58025], [-79.984, -2.60515], [-79.9984, -2.60816], [-80.00844, -2.6032], [-80.01431, -2.58978], [-80.05085, -2.587], [-80.06358, -2.57724], [-80.06891, -2.56081], [-80.05552, -2.54519], [-80.02571, -2.52508], [-80.01211, -2.48903], [-80.0018, -2.48017], [-79.97484, -2.47723], [-79.95494, -2.49765], [-79.94376, -2.49831], [-79.93419, -2.49261], [-79.92968, -2.48414], [-79.93635, -2.46299], [-79.94083, -2.48398], [-79.95434, -2.47959], [-79.97794, -2.45672], [-79.99987, -2.45924], [-80.03433, -2.47388], [-80.03994, -2.45989], [-80.03574, -2.43793], [-80.01696, -2.3952], [-80.00893, -2.35883], [-79.97794, -2.34743], [-79.95002, -2.30722], [-79.98295, -2.327], [-80.01269, -2.32643], [-80.024, -2.33416], [-80.03287, -2.34637], [-80.07605, -2.45769], [-80.14411, -2.55309], [-80.17513, -2.58667], [-80.20759, -2.60076], [-80.22244, -2.62306], [-80.2318, -2.62867], [-80.24136, -2.6285], [-80.25536, -2.61159], [-80.27001, -2.60508], [-80.27961, -2.61256], [-80.28311, -2.62908], [-80.27961, -2.64918], [-80.24853, -2.67987], [-80.24504, -2.68817], [-80.24544, -2.72112], [-80.25549, -2.73023], [-80.27843, -2.72713], [-80.32054, -2.71061], [-80.39631, -2.64918], [-80.42979, -2.64234], [-80.46788, -2.61793], [-80.57409, -2.49285], [-80.6116, -2.45782], [-80.60527, -2.40879], [-80.58499, -2.34065], [-80.56964, -2.30782], [-80.53041, -2.24864], [-80.50618, -2.22176], [-80.45143, -2.17673], [-80.3878, -2.14287], [-80.38961, -2.17132], [-80.36846, -2.19106], [-80.357, -2.18927], [-80.31419, -2.12072], [-80.28798, -2.08872], [-80.24589, -2.04946], [-80.21012, -1.93671], [-80.1739, -1.87314], [-80.1436, -1.8358], [-80.09262, -1.78806], [-80.00174, -1.72381], [-79.96894, -1.70517], [-79.99257, -1.70521], [-80.02482, -1.67478], [-80.07323, -1.60367], [-80.0714, -1.567], [-80.06669, -1.56365], [-80.05706, -1.57165], [-79.96938, -1.66781], [-79.94765, -1.62035], [-79.90445, -1.48115], [-79.89178, -1.46104], [-79.84123, -1.44292], [-79.73159, -1.41815], [-79.65337, -1.46939], [-79.63219, -1.49331], [-79.63184, -1.50317]]], [[[-78.89444, 1.31265], [-78.89928, 1.27143], [-78.91251, 1.24527], [-78.93639, 1.25682], [-78.9569, 1.23633], [-78.99209, 1.2683], [-78.99542, 1.28681], [-78.98078, 1.30833], [-78.90169, 1.37415], [-78.89542, 1.34618], [-78.89444, 1.31265]]]]}}]}