{"type": "FeatureCollection", "features": [{"type": "Feature", "properties": {"name": "프랑스령 가이아나", "name_en": "French Guiana", "period": "19세기", "kind": "식민지", "legend": "프랑스령 가이아나", "map_title": "라틴 아메리카의 독립", "source": "미래엔 세계사 교과서 3권 148쪽", "volume": 3, "page": 148, "coast_snap": "Natural Earth 10m 해안선에 맞춤", "border_snap": "현대 국경(Natural Earth 10m)에 맞춘 구간 약 856 km"}, "geometry": {"type": "MultiPolygon", "coordinates": [[[[-54.13752, 5.36005], [-54.10668, 5.38117], [-54.08043, 5.40795], [-54.06111, 5.43651], [-54.00719, 5.55817], [-53.99192, 5.66134], [-53.94434, 5.74463], [-53.85888, 5.73376], [-53.80829, 5.71484], [-53.81142, 5.7206], [-53.83241, 5.73169], [-53.81034, 5.73105], [-53.6956, 5.66346], [-53.58242, 5.61769], [-53.49521, 5.57211], [-53.44825, 5.56095], [-53.40781, 5.56182], [-53.30271, 5.53548], [-53.27745, 5.53819], [-53.26392, 5.52989], [-53.23009, 5.49531], [-53.20792, 5.50235], [-53.20778, 5.51404], [-53.2252, 5.51707], [-53.26478, 5.54583], [-53.2895, 5.5489], [-53.2914, 5.55471], [-53.28135, 5.56176], [-53.27148, 5.56035], [-53.22119, 5.53634], [-53.17763, 5.52442], [-53.13025, 5.50476], [-53.08251, 5.47215], [-53.00585, 5.45075], [-53.00136, 5.45863], [-52.99458, 5.45761], [-52.89652, 5.40566], [-52.8291, 5.34188], [-52.78318, 5.31687], [-52.75295, 5.26735], [-52.68109, 5.21023], [-52.54092, 5.07901], [-52.52612, 5.07074], [-52.52672, 5.05362], [-52.505, 5.0536], [-52.47973, 5.03961], [-52.40234, 4.97381], [-52.38005, 4.93683], [-52.38899, 4.8959], [-52.37072, 4.90721], [-52.34512, 4.94285], [-52.32392, 4.95051], [-52.29996, 4.94505], [-52.27913, 4.93121], [-52.26428, 4.9125], [-52.25863, 4.89248], [-52.27652, 4.85932], [-52.31314, 4.81078], [-52.34301, 4.76118], [-52.34048, 4.7246], [-52.33434, 4.7246], [-52.33165, 4.73835], [-52.31383, 4.76187], [-52.30016, 4.81338], [-52.2858, 4.82958], [-52.24275, 4.85619], [-52.23192, 4.87542], [-52.21349, 4.86668], [-52.19287, 4.84967], [-52.17615, 4.82916], [-52.1595, 4.7956], [-52.09411, 4.75812], [-52.05998, 4.73026], [-52.02453, 4.69354], [-51.99634, 4.65228], [-51.98494, 4.61162], [-51.9796, 4.57144], [-51.95605, 4.49404], [-51.95076, 4.45401], [-51.96183, 4.4084], [-51.9884, 4.38569], [-52.01993, 4.36701], [-52.0463, 4.33356], [-51.98558, 4.35261], [-51.9514, 4.37067], [-51.93651, 4.39191], [-51.92276, 4.44709], [-51.93125, 4.5904], [-51.92539, 4.6262], [-51.90916, 4.6557], [-51.89616, 4.66475], [-51.88121, 4.66778], [-51.86482, 4.66477], [-51.8481, 4.65552], [-51.79322, 4.60133], [-51.80077, 4.58967], [-51.77348, 4.55179], [-51.76514, 4.52904], [-51.75805, 4.47777], [-51.74755, 4.45718], [-51.73104, 4.45709], [-51.73759, 4.44055], [-51.7447, 4.43659], [-51.73843, 4.41303], [-51.73095, 4.39936], [-51.69763, 4.39304], [-51.69006, 4.38507], [-51.69409, 4.37105], [-51.71227, 4.35375], [-51.71679, 4.33356], [-51.71467, 4.31615], [-51.70848, 4.30036], [-51.66918, 4.24184], [-51.65674, 4.21727], [-51.65075, 4.1902], [-51.65251, 4.12206], [-51.67224, 4.06078], [-51.68322, 4.03937], [-51.75795, 4.00252], [-51.78319, 3.98095], [-51.79753, 3.94997], [-51.80624, 3.91751], [-51.81862, 3.89108], [-51.83541, 3.86754], [-51.89972, 3.79667], [-51.93093, 3.7814], [-51.93866, 3.77357], [-51.94008, 3.73396], [-51.94871, 3.7251], [-51.96331, 3.72546], [-51.97284, 3.72169], [-51.98842, 3.70455], [-51.99538, 3.68533], [-52.0031, 3.64231], [-52.01276, 3.61911], [-52.05449, 3.55671], [-52.07418, 3.51663], [-52.09359, 3.50687], [-52.09276, 3.48139], [-52.22792, 3.26011], [-52.23807, 3.24973], [-52.2512, 3.24306], [-52.26701, 3.24492], [-52.27947, 3.24249], [-52.2991, 3.22533], [-52.31936, 3.17764], [-52.35533, 3.15159], [-52.36184, 3.13196], [-52.36111, 3.10932], [-52.35155, 3.06596], [-52.4222, 2.92747], [-52.40928, 2.89734], [-52.44163, 2.88132], [-52.45527, 2.86505], [-52.5333, 2.68986], [-52.54296, 2.65152], [-52.57159, 2.6386], [-52.57578, 2.63374], [-52.5519, 2.58656], [-52.55345, 2.57338], [-52.56906, 2.55039], [-52.5904, 2.50471], [-52.61919, 2.46347], [-52.65608, 2.43091], [-52.67722, 2.3904], [-52.6906, 2.37298], [-52.70771, 2.35893], [-52.81969, 2.29154], [-52.86274, 2.27423], [-52.88015, 2.26038], [-52.90671, 2.20498], [-52.92315, 2.19367], [-52.93906, 2.19573], [-52.95968, 2.17522], [-52.98092, 2.17325], [-53.01911, 2.18199], [-53.06123, 2.18628], [-53.09223, 2.21191], [-53.11337, 2.21935], [-53.13228, 2.2193], [-53.2685, 2.19573], [-53.27972, 2.20498], [-53.27222, 2.21997], [-53.25434, 2.23418], [-53.23465, 2.24126], [-53.23419, 2.25098], [-53.29744, 2.30368], [-53.32255, 2.33857], [-53.33093, 2.3457], [-53.3441, 2.34963], [-53.34881, 2.34766], [-53.37852, 2.30756], [-53.39041, 2.29903], [-53.42544, 2.28601], [-53.46213, 2.25899], [-53.47324, 2.25413], [-53.51154, 2.25227], [-53.53179, 2.24705], [-53.54735, 2.25175], [-53.57903, 2.27041], [-53.646, 2.27847], [-53.71318, 2.30735], [-53.74217, 2.30854], [-53.74873, 2.31268], [-53.74816, 2.31934], [-53.73803, 2.33883], [-53.73736, 2.34906], [-53.74827, 2.36466], [-53.7648, 2.36869], [-53.78346, 2.36409], [-53.80098, 2.35381], [-53.8309, 2.31014], [-53.86681, 2.30493], [-53.87937, 2.29061], [-53.88846, 2.27382], [-53.90123, 2.26451], [-53.9329, 2.26963], [-54.30347, 2.64113], [-54.28534, 2.67798], [-54.21253, 2.77642], [-54.18891, 2.83828], [-54.18219, 2.84655], [-54.1702, 2.85306], [-54.18963, 2.87063], [-54.19134, 2.87735], [-54.18705, 2.89931], [-54.1702, 2.9254], [-54.16297, 2.956], [-54.16343, 2.96974], [-54.16876, 2.9714], [-54.17976, 2.98375], [-54.18514, 2.9978], [-54.17361, 3.00452], [-54.16917, 3.01072], [-54.17702, 3.04891], [-54.19067, 3.05914], [-54.1885, 3.06462], [-54.17702, 3.07278], [-54.1747, 3.09392], [-54.17708, 3.11655], [-54.18798, 3.13097], [-54.21118, 3.12741], [-54.19046, 3.1781], [-54.17656, 3.20058], [-54.14002, 3.24502], [-54.11429, 3.28538], [-54.08023, 3.30972], [-54.06949, 3.32708], [-54.05569, 3.37768], [-54.01936, 3.41537], [-54.00303, 3.4554], [-54.00628, 3.53103], [-53.98882, 3.61099], [-53.99481, 3.6236], [-54.00882, 3.63792], [-54.01786, 3.64146], [-54.05011, 3.63453], [-54.05068, 3.64055], [-54.07403, 3.67611], [-54.09444, 3.74706], [-54.1255, 3.78874], [-54.1361, 3.79574], [-54.1702, 3.80582], [-54.18736, 3.81468], [-54.19749, 3.8269], [-54.21454, 3.85821], [-54.218, 3.85765], [-54.22224, 3.8662], [-54.24105, 3.87635], [-54.2658, 3.92253], [-54.29314, 3.94981], [-54.30389, 3.98446], [-54.31019, 3.9942], [-54.34435, 4.02495], [-54.35386, 4.04172], [-54.35515, 4.06652], [-54.33469, 4.13171], [-54.33856, 4.15233], [-54.3489, 4.16052], [-54.38249, 4.16957], [-54.39489, 4.17791], [-54.40657, 4.19153], [-54.41055, 4.20858], [-54.39319, 4.24439], [-54.39412, 4.26982], [-54.40295, 4.31294], [-54.43344, 4.37638], [-54.45081, 4.48422], [-54.44796, 4.50954], [-54.42817, 4.54616], [-54.42347, 4.56339], [-54.42347, 4.60435], [-54.43773, 4.64874], [-54.43546, 4.7094], [-54.44734, 4.72785], [-54.4754, 4.74173], [-54.47866, 4.75519], [-54.47866, 4.87867], [-54.48672, 4.90296], [-54.48212, 4.9128], [-54.45081, 4.93673], [-54.44884, 4.95148], [-54.45758, 4.99135], [-54.44864, 5.02429], [-54.43024, 5.05339], [-54.37562, 5.11488], [-54.36544, 5.13876], [-54.34358, 5.15638], [-54.332, 5.1962], [-54.31133, 5.22581], [-54.26916, 5.26908], [-54.19046, 5.32575], [-54.17097, 5.34837], [-54.13752, 5.36005]]], [[[-51.63174, 4.06782], [-51.59581, 4.15786], [-51.5969, 4.2155], [-51.58534, 4.23381], [-51.57161, 4.23541], [-51.55969, 4.22369], [-51.55217, 4.20718], [-51.53921, 4.14924], [-51.51187, 4.08031], [-51.4662, 3.99793], [-51.47565, 3.98602], [-51.68321, 4.03937], [-51.6516, 4.04768], [-51.63174, 4.06782]]], [[[-51.38945, 4.35905], [-51.36824, 4.33572], [-51.39637, 4.1401], [-51.42132, 4.06965], [-51.45352, 4.01561], [-51.49825, 4.10569], [-51.54669, 4.25503], [-51.56101, 4.35737], [-51.54774, 4.42155], [-51.5165, 4.44111], [-51.49092, 4.42787], [-51.38945, 4.35905]]], [[[-54.31959, 5.738], [-54.28134, 5.8196], [-54.22976, 5.88719], [-54.0974, 5.84734], [-54.06203, 5.84056], [-54.03674, 5.84234], [-54.03094, 5.83418], [-54.02047, 5.83024], [-54.0148, 5.82034], [-54.01631, 5.8097], [-53.98637, 5.74567], [-54.03115, 5.66931], [-54.05033, 5.55227], [-54.06112, 5.51289], [-54.07374, 5.48964], [-54.11848, 5.44278], [-54.12854, 5.4143], [-54.17097, 5.34838], [-54.31959, 5.738]]]]}}]}