{"type": "FeatureCollection", "features": [{"type": "Feature", "properties": {"name": "포르투갈령", "name_en": "Portuguese possessions (East Timor)", "period": "19세기 후반~20세기 초", "kind": "식민지", "legend": "포르투갈령", "map_title": "동남아시아의 식민지화", "source": "미래엔 세계사 교과서 3권 171쪽", "volume": 3, "page": 171, "coast_snap": "Natural Earth 10m 해안선에 맞춤", "border_snap": "현대 국경(Natural Earth 10m)에 맞춘 구간 약 68 km"}, "geometry": {"type": "MultiPolygon", "coordinates": [[[[125.05247, -9.49147], [125.00196, -9.53631], [124.99918, -9.5437], [124.9914, -9.52951], [125.05247, -9.49147]]], [[[124.86988, -8.9944], [124.95379, -8.94264], [124.97478, -8.92213], [125.0232, -8.84905], [125.02777, -8.83351], [125.03688, -8.82481], [125.08172, -8.80836], [125.09645, -8.79583], [125.10647, -8.68874], [125.12795, -8.64561], [125.14451, -8.63137], [125.21013, -8.61777], [125.22945, -8.60747], [125.27394, -8.61094], [125.31479, -8.59043], [125.38123, -8.57144], [125.46697, -8.57366], [125.48748, -8.56927], [125.54174, -8.54499], [125.56593, -8.5421], [125.59181, -8.54957], [125.60353, -8.54892], [125.63087, -8.52159], [125.64926, -8.52956], [125.67888, -8.53037], [125.73317, -8.52158], [125.8506, -8.48383], [125.89798, -8.48118], [126.00221, -8.49945], [126.04225, -8.51881], [126.0691, -8.52158], [126.13366, -8.50398], [126.24025, -8.49481], [126.30503, -8.45356], [126.33692, -8.44443], [126.37013, -8.42597], [126.40113, -8.42376], [126.41163, -8.41913], [126.4297, -8.43222], [126.45094, -8.44069], [126.51197, -8.45209], [126.54884, -8.48675], [126.5901, -8.47291], [126.66684, -8.43695], [126.69313, -8.42986], [126.72023, -8.41287], [126.75554, -8.41912], [126.79933, -8.41009], [126.84213, -8.39105], [126.94439, -8.31876], [126.96705, -8.30903], [126.98389, -8.31293], [126.99928, -8.32415], [127.06959, -8.3576], [127.08888, -8.36273], [127.13795, -8.36273], [127.18654, -8.33235], [127.20606, -8.33263], [127.22039, -8.3576], [127.24155, -8.37021], [127.28687, -8.38243], [127.30599, -8.3952], [127.31323, -8.41521], [127.30322, -8.4323], [127.23015, -8.48659], [127.18411, -8.5325], [127.09262, -8.60312], [127.02116, -8.6757], [126.93922, -8.69215], [126.87484, -8.73845], [126.8462, -8.75253], [126.69418, -8.76344], [126.66066, -8.77418], [126.62424, -8.79892], [126.58326, -8.80584], [126.54412, -8.85027], [126.50781, -8.91187], [126.47242, -8.9428], [126.43002, -8.95471], [126.16586, -8.98838], [126.12192, -9.00652], [125.94711, -9.12574], [125.92848, -9.1316], [125.86964, -9.12265], [125.84986, -9.1242], [125.8169, -9.1482], [125.74269, -9.15732], [125.67856, -9.19304], [125.60939, -9.18621], [125.59303, -9.18963], [125.55209, -9.21721], [125.37875, -9.28102], [125.34278, -9.30291], [125.29126, -9.34546], [125.26368, -9.35735], [125.23292, -9.39918], [125.2111, -9.4196], [125.13054, -9.43377], [125.06146, -9.48483], [125.0463, -9.40986], [125.02377, -9.37472], [125.02341, -9.34558], [124.97282, -9.30465], [124.966, -9.29339], [124.95411, -9.2415], [124.95793, -9.21194], [124.97447, -9.19189], [125.00723, -9.18611], [125.03452, -9.18817], [125.05968, -9.2105], [125.07395, -9.21132], [125.09146, -9.19675], [125.10697, -9.18848], [125.14252, -9.1891], [125.15063, -9.18538], [125.15389, -9.17577], [125.145, -9.14518], [125.162, -9.08234], [125.16236, -9.06063], [125.15399, -9.04079], [125.13942, -9.02477], [125.10252, -9.00131], [125.08681, -8.98622], [125.07648, -8.99077], [125.06532, -9.02322], [125.05183, -9.035], [125.00444, -9.05557], [124.96589, -9.07727], [124.94786, -9.07852], [124.93303, -9.07448], [124.92129, -9.06549], [124.91297, -9.05278], [124.90791, -9.03748], [124.71057, -9.07668], [124.70277, -9.06447], [124.75807, -9.04795], [124.78883, -9.01898], [124.86988, -8.9944]]], [[[125.13797, -8.29501], [125.13428, -8.33904], [125.1233, -8.3523], [125.02094, -8.37129], [124.9166, -8.38032], [124.98004, -8.34211], [125.0187, -8.32588], [125.07282, -8.30801], [125.13797, -8.29501]]], [[[125.60353, -8.26881], [125.59668, -8.29925], [125.58301, -8.31438], [125.57358, -8.3173], [125.56276, -8.30918], [125.5176, -8.29216], [125.50702, -8.28016], [125.50369, -8.27077], [125.51418, -8.24774], [125.53606, -8.22869], [125.59101, -8.22322], [125.62858, -8.20768], [125.60353, -8.26881]]], [[[127.18588, -8.01874], [127.20191, -8.0198], [127.21631, -8.02696], [127.2265, -8.03947], [127.23419, -8.07017], [127.23462, -8.08652], [127.22494, -8.10857], [127.20194, -8.1112], [127.15212, -8.09693], [127.15756, -8.07936], [127.15562, -8.04844], [127.1591, -8.03478], [127.17075, -8.02387], [127.18588, -8.01874]]]]}}]}