{"type": "FeatureCollection", "features": [{"type": "Feature", "properties": {"name": "프랑스령", "name_en": "French possessions (French Indochina)", "period": "19세기 후반~20세기 초", "kind": "식민지", "legend": "프랑스령", "map_title": "동남아시아의 식민지화", "source": "미래엔 세계사 교과서 3권 171쪽", "volume": 3, "page": 171, "coast_snap": "Natural Earth 10m 해안선에 맞춤", "border_snap": "현대 국경(Natural Earth 10m)에 맞춘 구간 약 2860 km"}, "geometry": {"type": "MultiPolygon", "coordinates": [[[[104.82294, 8.42536], [104.84336, 8.44919], [104.84777, 8.44936], [104.84831, 8.43773], [104.84213, 8.43236], [104.84334, 8.42301], [104.83156, 8.41683], [104.82294, 8.42536]]], [[[106.20705, 9.56291], [106.19662, 9.57168], [106.12599, 9.67243], [106.11769, 9.71092], [106.08718, 9.75461], [106.09344, 9.76088], [106.15545, 9.67894], [106.2234, 9.60847], [106.27931, 9.59569], [106.29199, 9.58641], [106.29069, 9.56143], [106.28443, 9.54369], [106.27003, 9.5345], [106.24416, 9.53499], [106.2492, 9.56013], [106.23414, 9.58137], [106.19703, 9.61005], [106.18963, 9.60383], [106.22656, 9.56518], [106.20705, 9.56291]]], [[[104.65463, 9.79585], [104.64137, 9.79085], [104.60982, 9.79873], [104.64015, 9.822], [104.66154, 9.80959], [104.65463, 9.79585]]], [[[106.46852, 9.89029], [106.42239, 9.93281], [106.42238, 9.93902], [106.44288, 9.93281], [106.48601, 9.90266], [106.53102, 9.85798], [106.54411, 9.83804], [106.53565, 9.82918], [106.52119, 9.83761], [106.49684, 9.87523], [106.46852, 9.89029]]], [[[104.04664, 10.15107], [104.03346, 10.09602], [104.05127, 10.06932], [104.04396, 10.04816], [104.05127, 10.00798], [104.0106, 10.03047], [103.9972, 10.07483], [103.98365, 10.15876], [103.95704, 10.23379], [103.93718, 10.26606], [103.90846, 10.28905], [103.8703, 10.3081], [103.85744, 10.32087], [103.84605, 10.37128], [103.85133, 10.3742], [103.93377, 10.36636], [103.9551, 10.39496], [103.96811, 10.40233], [103.97617, 10.43281], [103.99318, 10.45009], [104.00473, 10.45099], [104.08203, 10.37099], [104.08546, 10.35373], [104.08545, 10.24812], [104.04664, 10.15107]]], [[[106.75866, 10.24419], [106.75226, 10.23598], [106.72413, 10.22652], [106.70932, 10.2436], [106.68995, 10.25178], [106.55959, 10.27539], [106.51175, 10.29589], [106.52711, 10.2971], [106.56088, 10.28286], [106.5879, 10.27692], [106.70281, 10.27558], [106.74684, 10.26317], [106.75554, 10.25755], [106.75866, 10.24419]]], [[[103.74343, 10.48086], [103.76393, 10.49453], [103.75734, 10.5065], [103.76043, 10.51381], [103.78443, 10.51503], [103.79859, 10.50543], [103.80591, 10.48432], [103.80485, 10.46321], [103.79468, 10.45357], [103.76385, 10.45654], [103.75197, 10.46459], [103.74343, 10.48086]]], [[[106.78419, 10.66291], [106.80812, 10.63361], [106.8353, 10.62604], [106.84783, 10.61384], [106.85377, 10.59838], [106.85377, 10.58393], [106.84205, 10.57075], [106.8401, 10.55939], [106.85353, 10.53901], [106.86769, 10.52896], [106.87182, 10.51521], [106.86442, 10.503], [106.8401, 10.50137], [106.8401, 10.49453], [106.85597, 10.4938], [106.86396, 10.48694], [106.87428, 10.4604], [106.83229, 10.4724], [106.81959, 10.46662], [106.82667, 10.46381], [106.83326, 10.46662], [106.84864, 10.45254], [106.85963, 10.43179], [106.85889, 10.41308], [106.83989, 10.40526], [106.81642, 10.41471], [106.79168, 10.43717], [106.77069, 10.46431], [106.75882, 10.48774], [106.75474, 10.51537], [106.7588, 10.54296], [106.75196, 10.56656], [106.77858, 10.57648], [106.7859, 10.60139], [106.77882, 10.62446], [106.75196, 10.66584], [106.78419, 10.66291]]], [[[106.92205, 10.58023], [106.9297, 10.54906], [106.92205, 10.54297], [106.91676, 10.54629], [106.90211, 10.57648], [106.89527, 10.57648], [106.90894, 10.53238], [106.90309, 10.52188], [106.88969, 10.5256], [106.86744, 10.54296], [106.85377, 10.56281], [106.85597, 10.57176], [106.86524, 10.57978], [106.87127, 10.60765], [106.86793, 10.61713], [106.85377, 10.62491], [106.85377, 10.63105], [106.88795, 10.63447], [106.88966, 10.62727], [106.92945, 10.59756], [106.93019, 10.59007], [106.92205, 10.58023]]], [[[103.28908, 10.61273], [103.3027, 10.61813], [103.31929, 10.61742], [103.32148, 10.61055], [103.31186, 10.59663], [103.31251, 10.57909], [103.32472, 10.57388], [103.33416, 10.58392], [103.33887, 10.57978], [103.33887, 10.57242], [103.32349, 10.54517], [103.31264, 10.55183], [103.28518, 10.59907], [103.28908, 10.61273]]], [[[103.22886, 10.72111], [103.20192, 10.74763], [103.19851, 10.76235], [103.20821, 10.77552], [103.22831, 10.78258], [103.24512, 10.77797], [103.25859, 10.76696], [103.27735, 10.74095], [103.29492, 10.73842], [103.30144, 10.7272], [103.31755, 10.72109], [103.3182, 10.70678], [103.29322, 10.6966], [103.2837, 10.68765], [103.27735, 10.67269], [103.26874, 10.67964], [103.26075, 10.70917], [103.22886, 10.72111]]], [[[102.98927, 11.33739], [102.98146, 11.40449], [102.98927, 11.42615], [102.99545, 11.41254], [103.00669, 11.42205], [103.01637, 11.42308], [103.02418, 11.41718], [103.03662, 11.39199], [103.03712, 11.3579], [103.04866, 11.33088], [103.0433, 11.32372], [103.04858, 11.31012], [103.0478, 11.29122], [103.03711, 11.26167], [103.02344, 11.25521], [103.00758, 11.25508], [102.99807, 11.2602], [103.00294, 11.26911], [102.99197, 11.28002], [102.98855, 11.30093], [102.98927, 11.33739]]], [[[103.0507, 11.46795], [103.05079, 11.46057], [103.03026, 11.42618], [103.02036, 11.42695], [103.02345, 11.46035], [103.00132, 11.49527], [102.99587, 11.51374], [103.00913, 11.52924], [103.03038, 11.51535], [103.03028, 11.5019], [103.0507, 11.46795]]], [[[102.58473, 11.56884], [102.58137, 11.66606], [102.56765, 11.70824], [102.5896, 11.71002], [102.60596, 11.68451], [102.60815, 11.64834], [102.59156, 11.6186], [102.59156, 11.61176], [102.60571, 11.61175], [102.59457, 11.58885], [102.59831, 11.56339], [102.59157, 11.56339], [102.58473, 11.56884]]], [[[102.55026, 11.75295], [102.55519, 11.75982], [102.56393, 11.75522], [102.5708, 11.73281], [102.56623, 11.71259], [102.55026, 11.75295]]], [[[102.58594, 12.06025], [102.58236, 12.04927], [102.55374, 12.05695], [102.55015, 12.06119], [102.55047, 12.09097], [102.53224, 12.11359], [102.50846, 12.1304], [102.51133, 12.1466], [102.56166, 12.15548], [102.57162, 12.09097], [102.58594, 12.06025]]], [[[102.76513, 12.41635], [102.76208, 12.43609], [102.75061, 12.44901], [102.71841, 12.46591], [102.70482, 12.48033], [102.69676, 12.51309], [102.66482, 12.53422], [102.58855, 12.60983], [102.55863, 12.63122], [102.50178, 12.64977], [102.48638, 12.66119], [102.47925, 12.67711], [102.47796, 12.71964], [102.48272, 12.73522], [102.49527, 12.7461], [102.50664, 12.78752], [102.50432, 12.79974], [102.48974, 12.82309], [102.48334, 12.84379], [102.47409, 12.90526], [102.46484, 12.92753], [102.46628, 12.93792], [102.47889, 12.95363], [102.46721, 12.96947], [102.46882, 12.9734], [102.48664, 12.98479], [102.49016, 12.99608], [102.47316, 13.00613], [102.46318, 13.01928], [102.44727, 13.05081], [102.40189, 13.103], [102.38205, 13.13662], [102.3282, 13.27516], [102.32707, 13.34544], [102.33363, 13.40626], [102.33012, 13.49636], [102.32552, 13.51344], [102.31477, 13.53034], [102.31342, 13.54101], [102.33223, 13.5646], [102.3713, 13.56891], [102.45223, 13.56217], [102.5132, 13.56716], [102.53253, 13.57382], [102.57956, 13.60049], [102.59775, 13.60545], [102.5625, 13.62803], [102.54106, 13.6486], [102.54235, 13.66971], [102.57439, 13.69389], [102.67495, 13.7419], [102.69862, 13.7618], [102.70265, 13.7712], [102.70648, 13.80195], [102.72911, 13.83215], [102.75438, 13.90411], [102.77283, 13.93608], [102.79742, 13.96], [102.85499, 14.004], [102.86977, 14.02062], [102.87623, 14.07131], [102.91127, 14.13211], [102.91401, 14.16934], [102.91861, 14.18549], [102.93406, 14.20097], [102.9878, 14.219], [103.00485, 14.22877], [103.085, 14.29582], [103.11803, 14.31324], [103.13823, 14.31975], [103.19859, 14.32851], [103.27368, 14.35106], [103.36287, 14.35347], [103.38023, 14.36106], [103.40809, 14.3808], [103.4225, 14.38483], [103.43925, 14.37287], [103.44968, 14.37158], [103.49485, 14.39995], [103.5334, 14.41907], [103.55025, 14.42186], [103.56813, 14.41594], [103.58162, 14.40742], [103.59614, 14.40434], [103.61681, 14.41455], [103.6229, 14.42248], [103.62745, 14.4378], [103.63706, 14.44328], [103.65717, 14.44116], [103.67148, 14.42956], [103.67386, 14.41933], [103.67169, 14.39561], [103.67489, 14.38649], [103.71654, 14.38153], [103.77525, 14.36698], [103.79421, 14.36483], [103.82403, 14.36804], [103.83845, 14.36339], [103.87033, 14.34326], [103.88516, 14.34042], [103.90278, 14.34243], [103.91054, 14.35626], [103.91984, 14.36458], [103.97399, 14.36729], [104.00138, 14.34507], [104.03595, 14.35259], [104.07373, 14.37075], [104.11021, 14.38044], [104.12835, 14.36636], [104.14091, 14.366], [104.14845, 14.36961], [104.17326, 14.39602], [104.17703, 14.40421], [104.18566, 14.40398], [104.18256, 14.40036], [104.18349, 14.39142], [104.18918, 14.3823], [104.20127, 14.37799], [104.21915, 14.38287], [104.24747, 14.40109], [104.27124, 14.39907], [104.32539, 14.37762], [104.43918, 14.36142], [104.45262, 14.35693], [104.46198, 14.35711], [104.48197, 14.37122], [104.49262, 14.37401], [104.54285, 14.36039], [104.5628, 14.36848], [104.59463, 14.41], [104.61044, 14.41897], [104.62656, 14.41928], [104.65137, 14.40891], [104.66837, 14.40964], [104.68465, 14.43057], [104.69286, 14.43398], [104.70103, 14.43008], [104.7062, 14.41225], [104.71286, 14.40685], [104.72795, 14.40995], [104.75793, 14.43305], [104.77167, 14.43987], [104.78826, 14.43821], [104.83141, 14.41176], [104.86655, 14.41377], [104.89818, 14.39628], [104.97383, 14.38065], [104.97874, 14.3685], [104.9743, 14.30964], [104.97595, 14.30112], [105.00773, 14.24383], [105.02535, 14.22438], [105.04731, 14.21407], [105.10142, 14.23053], [105.13222, 14.28071], [105.15501, 14.33047], [105.18431, 14.34574], [105.19374, 14.3756], [105.3194, 14.28091], [105.23866, 14.20941], [105.25691, 14.18244], [105.27531, 14.16482], [105.30394, 14.15239], [105.33779, 14.10999], [105.36409, 14.10405], [105.39246, 14.10374], [105.42218, 14.10787], [105.45008, 14.11715], [105.47385, 14.13252], [105.49049, 14.13692], [105.50527, 14.14506], [105.53318, 14.16433], [105.62098, 14.35502], [105.71349, 14.40866], [105.96943, 14.35486], [105.97398, 14.36584], [105.54305, 14.8801], [105.55064, 14.9023], [105.53416, 14.93402], [105.54392, 14.95309], [105.58356, 14.97759], [105.59307, 14.99079], [105.56614, 14.99593], [105.55354, 15.00534], [105.52429, 15.04596], [105.52088, 15.06614], [105.49829, 15.06614], [105.47385, 15.09063], [105.45194, 15.09477], [105.44362, 15.11135], [105.4477, 15.1553], [105.45442, 15.17553], [105.4631, 15.18944], [105.50393, 15.23106], [105.53157, 15.25289], [105.56398, 15.27253], [105.5648, 15.29946], [105.56149, 15.3209], [105.55803, 15.32514], [105.51938, 15.32106], [105.49902, 15.32467], [105.48331, 15.33452], [105.47747, 15.35281], [105.48625, 15.3749], [105.5062, 15.38759], [105.55281, 15.40203], [105.58837, 15.42379], [105.60428, 15.43921], [105.61038, 15.45717], [105.61203, 15.49947], [105.61627, 15.52128], [105.64087, 15.58331], [105.651, 15.6346], [105.64092, 15.68199], [105.61291, 15.72147], [105.56852, 15.74938], [105.52542, 15.76348], [105.50341, 15.76617], [105.46238, 15.76281], [105.44796, 15.76488], [105.43566, 15.77165], [105.423, 15.7839], [105.41205, 15.79976], [105.37256, 15.88213], [105.36063, 15.91939], [105.36249, 15.95479], [105.38652, 15.98078], [105.41814, 15.99473], [105.42393, 16.00212], [105.42207, 16.00988], [105.40492, 16.01882], [105.28854, 16.04739], [105.23722, 16.0508], [105.0793, 16.10543], [105.05811, 16.12119], [105.04246, 16.14145], [105.03259, 16.16527], [105.02886, 16.19147], [105.02974, 16.23601], [105.02639, 16.25766], [105.01548, 16.27673], [104.97931, 16.29864], [104.94406, 16.33084], [104.90805, 16.35337], [104.89704, 16.37275], [104.87947, 16.42184], [104.85549, 16.45409], [104.83885, 16.46773], [104.78273, 16.49708], [104.76516, 16.51134], [104.75452, 16.52892], [104.7495, 16.54933], [104.74842, 16.57191], [104.75302, 16.6148], [104.77901, 16.70487], [104.75679, 16.79846], [104.75844, 16.82192], [104.76707, 16.85613], [104.7664, 16.86817], [104.74966, 16.9108], [104.74036, 17.00258], [104.74532, 17.0248], [104.80991, 17.17167], [104.81834, 17.24024], [104.81642, 17.30008], [104.81999, 17.34892], [104.81642, 17.37279], [104.78893, 17.42896], [104.75679, 17.44994], [104.71452, 17.51526], [104.70263, 17.5273], [104.65509, 17.55609], [104.63638, 17.56244], [104.4812, 17.64042], [104.452, 17.66595], [104.42229, 17.6998], [104.4089, 17.7337], [104.3903, 17.75716], [104.36777, 17.80057], [104.35263, 17.81933], [104.27826, 17.86465], [104.26431, 17.88465], [104.25511, 17.91498], [104.21088, 18.00862], [104.19812, 18.02557], [104.13569, 18.07967], [104.12236, 18.09528], [104.11094, 18.11455], [104.06841, 18.2154], [104.01864, 18.29912], [104.00004, 18.31844], [103.97544, 18.33067], [103.95126, 18.33299], [103.92929, 18.32759], [103.91002, 18.31532], [103.88594, 18.287], [103.87395, 18.28323], [103.85777, 18.28648], [103.83209, 18.32067], [103.8014, 18.33826], [103.76718, 18.34668], [103.7091, 18.34971], [103.69556, 18.35322], [103.63861, 18.37795], [103.60714, 18.4004], [103.5488, 18.41541], [103.49774, 18.42373], [103.46994, 18.42198], [103.39677, 18.44141], [103.30685, 18.42567], [103.28256, 18.41557], [103.26076, 18.4002], [103.24406, 18.38007], [103.23399, 18.35578], [103.23368, 18.34927], [103.24019, 18.33599], [103.29042, 18.30514], [103.29652, 18.2969], [103.29538, 18.28777], [103.28634, 18.28033], [103.27352, 18.27607], [103.1852, 18.25775], [103.1682, 18.24977], [103.1573, 18.23703], [103.15089, 18.2215], [103.13859, 18.16672], [103.12666, 18.15186], [103.11007, 18.14181], [103.08909, 18.13479], [103.09276, 18.14119], [103.07994, 18.13479], [103.07131, 18.12556], [103.06635, 18.11226], [103.0648, 18.09404], [103.07307, 18.03552], [103.06821, 18.02577], [103.05829, 18.01926], [103.03793, 17.99069], [103.02046, 17.98423], [103.00382, 17.98857], [102.97292, 18.00774], [102.95494, 18.01213], [102.9386, 18.00893], [102.85272, 17.97203], [102.83804, 17.96376], [102.83189, 17.95312], [102.77407, 17.92273], [102.73738, 17.89043], [102.72218, 17.8818], [102.68673, 17.87353], [102.67299, 17.86537], [102.66761, 17.85007], [102.67335, 17.83178], [102.68291, 17.81736], [102.68291, 17.81008], [102.66079, 17.81287], [102.60943, 17.837], [102.59527, 17.84082], [102.61232, 17.91529], [102.59961, 17.95518], [102.56752, 17.97084], [102.48204, 17.97115], [102.44551, 17.97777], [102.41223, 17.9942], [102.38515, 18.01606], [102.36639, 18.0388], [102.33652, 18.03704], [102.30671, 18.05146], [102.25658, 18.09404], [102.23312, 18.12417], [102.19157, 18.15207], [102.18211, 18.16923], [102.17193, 18.20029], [102.15354, 18.2101], [102.0785, 18.2138], [101.9043, 18.03712], [101.88379, 18.03084], [101.84518, 18.05213], [101.80606, 18.06239], [101.79666, 18.07358], [101.79041, 18.07357], [101.7107, 18.48634], [101.61686, 18.60318], [101.78498, 18.80664], [101.87828, 19.17004], [101.81264, 19.50565], [101.83738, 19.68714], [101.82958, 19.69537], [101.64748, 19.72683], [101.24905, 19.56444], [101.23824, 19.57819], [101.20796, 19.58955], [101.19732, 19.58687], [101.17685, 19.57475], [101.15267, 19.56837], [101.12466, 19.56511], [101.09582, 19.56728], [101.06823, 19.57713], [101.0243, 19.60286], [101.00255, 19.61061], [101.0958, 20.00817], [101.16788, 20.17394], [101.16778, 20.18102], [100.95031, 20.46926], [100.93778, 20.46739], [100.89235, 20.41529], [100.5465, 20.16792], [100.56903, 20.8178], [100.5989, 20.83346], [100.65213, 20.87661], [101.25974, 21.17948], [101.2753, 21.17411], [101.29271, 21.17607], [101.3139, 21.18475], [101.36227, 21.21581], [101.38149, 21.22248], [101.49513, 21.24284], [101.5391, 21.23886], [101.58396, 21.22439], [101.5882, 21.21333], [101.58665, 21.20424], [101.57724, 21.18517], [101.58179, 21.17566], [101.59652, 21.17339], [101.63595, 21.18946], [101.65512, 21.1892], [101.67016, 21.17706], [101.68829, 21.14584], [101.70426, 21.13509], [101.73749, 21.13757], [101.75599, 21.14326], [101.76674, 21.15065], [101.7702, 21.17044], [101.76007, 21.19597], [101.77356, 21.20739], [101.79604, 21.20294], [101.80524, 21.2045], [101.81929, 21.21597], [101.82374, 21.23447], [102.25929, 21.2021], [102.38714, 21.13697], [102.8013, 21.25483], [102.81277, 21.2739], [102.82916, 21.28589], [102.863, 21.29379], [102.8752, 21.30532], [102.87882, 21.32216], [102.87964, 21.3679], [102.88383, 21.38836], [102.9168, 21.43864], [102.91804, 21.45011], [102.90419, 21.4527], [102.84967, 21.42541], [102.89499, 21.49528], [102.91659, 21.51357], [102.97493, 21.57817], [102.97411, 21.58669], [102.96413, 21.6086], [102.96083, 21.63284], [102.96176, 21.70152], [102.95602, 21.72395], [102.9478, 21.73712], [102.94264, 21.73898], [102.8645, 21.70565], [102.84719, 21.70446], [102.83515, 21.71645], [102.83189, 21.73578], [102.83494, 21.77562], [102.82647, 21.8213], [102.80673, 21.83608], [102.78916, 21.82032], [102.78668, 21.73991], [102.77469, 21.70788], [102.75216, 21.6809], [102.72115, 21.66168], [102.65066, 21.6578], [102.63682, 21.68364], [102.63191, 21.70627], [102.62979, 21.72911], [102.63459, 21.78777], [102.62514, 21.82864], [102.59103, 21.90135], [102.56023, 21.92543], [102.51589, 21.93918], [102.47806, 21.95758], [102.46639, 21.99535], [102.48287, 22.0214], [102.42215, 22.06222], [102.40541, 22.09829], [102.396, 22.11134], [102.8937, 22.48736], [102.90259, 22.47723], [102.91959, 22.46922], [102.95654, 22.45972], [102.98909, 22.4376], [103.00894, 22.43031], [103.02904, 22.43016], [103.04506, 22.44054], [103.04909, 22.45682], [103.04418, 22.48648], [103.05829, 22.49548], [103.09126, 22.50509], [103.142, 22.5378], [103.14572, 22.54555], [103.14469, 22.55578], [103.1326, 22.56979], [103.13002, 22.57795], [103.14174, 22.60704], [103.16846, 22.62648], [103.22841, 22.65583], [103.24489, 22.6687], [103.25249, 22.67856], [103.26995, 22.72326], [103.30964, 22.78794], [103.32158, 22.79039], [103.35708, 22.77603], [103.36876, 22.76714], [103.38752, 22.74518], [103.40173, 22.73784], [103.40431, 22.6888], [103.44752, 22.61826], [103.47315, 22.59164], [103.48544, 22.5841], [103.50364, 22.58141], [103.51428, 22.58736], [103.55092, 22.64079], [103.54456, 22.69102], [103.54715, 22.70068], [103.56833, 22.72497], [103.59004, 22.76802], [103.64693, 22.79905], [103.65851, 22.79321], [103.72641, 22.71629], [103.79421, 22.65944], [103.83633, 22.60276], [103.84418, 22.59929], [103.86682, 22.57542], [103.89462, 22.56922], [103.91705, 22.53325], [103.94072, 22.52467], [103.95952, 22.5071], [103.97399, 22.51527], [103.98536, 22.52715], [103.98557, 22.57025], [104.00748, 22.63025], [104.01394, 22.69102], [104.02381, 22.71918], [104.05404, 22.75375], [104.07332, 22.78267], [104.08686, 22.79156], [104.1282, 22.79683], [104.21326, 22.82502], [104.24116, 22.8244], [104.2331, 22.80481], [104.22876, 22.78344], [104.22969, 22.76194], [104.23682, 22.74208], [104.24948, 22.72833], [104.34017, 22.68637], [104.35547, 22.68864], [104.449, 22.74518], [104.46864, 22.76486], [104.53334, 22.8144], [104.55355, 22.83605], [104.56238, 22.83439], [104.56124, 22.8244], [104.56466, 22.81995], [104.57923, 22.80887], [104.58843, 22.80685], [104.60982, 22.823], [104.62904, 22.82078], [104.66274, 22.81093], [104.6832, 22.81218], [104.75943, 22.39903], [104.7971, 22.36068], [104.80584, 22.35787], [104.87009, 22.44237], [104.70077, 22.81825], [104.72821, 22.8391], [104.7742, 22.89623], [104.82361, 22.92413], [105.11446, 22.61265], [105.24784, 22.54718], [105.47469, 22.64729], [105.49337, 22.64768], [105.83569, 22.91723], [105.85388, 22.90465], [105.86225, 22.90775], [105.87011, 22.9231], [105.876, 22.92827], [105.88664, 22.92976], [105.9132, 22.92439], [105.96121, 22.9324], [105.97398, 22.93989], [105.99, 22.97062], [105.99924, 22.97537], [106.07759, 22.98103], [106.1321, 22.97501], [106.17004, 22.96601], [106.20238, 22.947], [106.223, 22.91237], [106.22709, 22.87556], [106.23401, 22.86385], [106.2554, 22.85465], [106.27659, 22.85103], [106.31566, 22.8538], [106.45798, 22.88897], [106.47374, 22.8971], [106.47798, 22.91961], [106.48779, 22.92542], [106.56696, 22.90377], [106.58169, 22.89527], [106.59916, 22.86499], [106.61037, 22.85287], [106.63275, 22.84961], [106.63988, 22.85339], [106.64794, 22.86698], [106.65683, 22.86998], [106.66747, 22.86752], [106.68515, 22.84822], [106.71491, 22.8261], [106.73036, 22.79763], [106.78984, 22.79719], [106.79873, 22.78437], [107.23412, 22.71545], [107.27232, 22.67795], [107.54405, 22.72373], [107.76297, 22.60232], [107.57565, 22.48457], [107.39634, 22.36217], [107.39589, 22.35358], [107.44866, 22.2511], [107.43374, 22.1024], [107.27266, 21.71831], [107.3032, 21.6887], [107.32966, 21.61605], [107.34816, 21.59936], [107.38288, 21.61889], [107.40996, 21.6454], [107.42603, 21.65206], [107.44593, 21.64695], [107.45704, 21.6315], [107.46102, 21.59636], [107.50132, 21.58153], [107.50985, 21.58178], [107.51827, 21.58737], [107.52654, 21.60328], [107.53305, 21.60866], [107.55098, 21.61083], [107.6132, 21.60561], [107.67186, 21.61765], [107.69025, 21.62473], [107.72942, 21.65196], [107.74482, 21.65754], [107.7779, 21.65599], [107.81164, 21.64783], [107.83236, 21.63935], [108.07224, 21.98538], [108.08039, 21.99258], [108.09974, 22.05556], [108.14157, 22.13153], [108.1995, 22.13083], [108.29345, 22.12157], [108.57993, 22.07584], [108.65545, 22.04826], [108.69088, 22.02881], [108.90345, 21.86514], [108.95136, 21.81016], [108.98643, 21.74827], [108.99917, 21.71458], [109.00819, 21.6803], [109.01501, 21.61617], [108.97003, 21.60635], [108.928, 21.61507], [108.92063, 21.62225], [108.89747, 21.67129], [108.86948, 21.6713], [108.85523, 21.68519], [108.85525, 21.69428], [108.86948, 21.70539], [108.86144, 21.73335], [108.8655, 21.73973], [108.886, 21.75043], [108.9166, 21.75381], [108.92408, 21.76683], [108.89747, 21.76], [108.90309, 21.77432], [108.88632, 21.76716], [108.87574, 21.75381], [108.86948, 21.75381], [108.86143, 21.76], [108.86142, 21.7668], [108.87574, 21.80097], [108.86948, 21.80097], [108.85524, 21.78117], [108.84988, 21.79169], [108.8507, 21.80055], [108.86142, 21.81525], [108.84083, 21.8116], [108.80136, 21.81835], [108.77955, 21.81525], [108.82104, 21.80098], [108.81422, 21.78116], [108.83261, 21.78383], [108.84253, 21.76805], [108.84351, 21.74522], [108.83458, 21.72567], [108.82211, 21.71504], [108.81666, 21.71638], [108.8121, 21.75243], [108.80592, 21.75845], [108.79306, 21.75381], [108.80055, 21.74482], [108.7999, 21.73334], [108.78688, 21.74018], [108.79306, 21.73334], [108.77955, 21.72582], [108.7999, 21.72582], [108.7999, 21.71906], [108.79306, 21.71906], [108.79306, 21.71284], [108.83431, 21.68573], [108.83862, 21.66804], [108.82106, 21.64395], [108.8614, 21.64394], [108.84994, 21.62597], [108.834, 21.62801], [108.79648, 21.64395], [108.78736, 21.64142], [108.77271, 21.62345], [108.73854, 21.61603], [108.74534, 21.60301], [108.7335, 21.61274], [108.72755, 21.64476], [108.7112, 21.65014], [108.7112, 21.65761], [108.73316, 21.66242], [108.74033, 21.66014], [108.74537, 21.65013], [108.75156, 21.65013], [108.75156, 21.69172], [108.74244, 21.68415], [108.73854, 21.67129], [108.7317, 21.67129], [108.71267, 21.68843], [108.71543, 21.70913], [108.7247, 21.72972], [108.72486, 21.74641], [108.71787, 21.74315], [108.71119, 21.74641], [108.69409, 21.71215], [108.6832, 21.7054], [108.67457, 21.7154], [108.65432, 21.72355], [108.6492, 21.73334], [108.6832, 21.74018], [108.6832, 21.7464], [108.66538, 21.75186], [108.64633, 21.75138], [108.64918, 21.76683], [108.67311, 21.798], [108.67701, 21.81525], [108.66969, 21.81525], [108.65602, 21.79484], [108.64918, 21.82209], [108.64234, 21.82209], [108.64218, 21.79686], [108.63551, 21.77433], [108.62867, 21.77432], [108.62184, 21.78791], [108.615, 21.78791], [108.62916, 21.75609], [108.62845, 21.74636], [108.5945, 21.74019], [108.59376, 21.75483], [108.60751, 21.78791], [108.58058, 21.78132], [108.56944, 21.79438], [108.57139, 21.81281], [108.6006, 21.83063], [108.62209, 21.87107], [108.63551, 21.88418], [108.63551, 21.89033], [108.59449, 21.91767], [108.58765, 21.89787], [108.56715, 21.90461], [108.58082, 21.89785], [108.57032, 21.89339], [108.56032, 21.8955], [108.55373, 21.90376], [108.55299, 21.91767], [108.57382, 21.93545], [108.57333, 21.95181], [108.56715, 21.95181], [108.56715, 21.93879], [108.55982, 21.93879], [108.55299, 21.95181], [108.55055, 21.93545], [108.53769, 21.9145], [108.52563, 21.90462], [108.50514, 21.91083], [108.50514, 21.90461], [108.51879, 21.89033], [108.48487, 21.8771], [108.47836, 21.8664], [108.49143, 21.85629], [108.46314, 21.86298], [108.4607, 21.88711], [108.47779, 21.94501], [108.4607, 21.92695], [108.45729, 21.88833], [108.44874, 21.86579], [108.45566, 21.84878], [108.48462, 21.82209], [108.47096, 21.82209], [108.47779, 21.80781], [108.48829, 21.81476], [108.49707, 21.80902], [108.50513, 21.78791], [108.4913, 21.75772], [108.49145, 21.74018], [108.47592, 21.74433], [108.46347, 21.74018], [108.48683, 21.73188], [108.50513, 21.71906], [108.50514, 21.71284], [108.49147, 21.71284], [108.49765, 21.70539], [108.47779, 21.70539], [108.47779, 21.69855], [108.50514, 21.69172], [108.50082, 21.68032], [108.50514, 21.67129], [108.5201, 21.71261], [108.53304, 21.71904], [108.53052, 21.7102], [108.51881, 21.69855], [108.51881, 21.67129], [108.53306, 21.68495], [108.53858, 21.68403], [108.53932, 21.67813], [108.55299, 21.69854], [108.55982, 21.69854], [108.56543, 21.67854], [108.54518, 21.66608], [108.53932, 21.65013], [108.55297, 21.65762], [108.54688, 21.64306], [108.53598, 21.63801], [108.51197, 21.64395], [108.51197, 21.63654], [108.53304, 21.63032], [108.52686, 21.61425], [108.51197, 21.6092], [108.51879, 21.59553], [108.48121, 21.58187], [108.48178, 21.59951], [108.48911, 21.60761], [108.50514, 21.60297], [108.50514, 21.6092], [108.49147, 21.62344], [108.47853, 21.60615], [108.46347, 21.59553], [108.4712, 21.5812], [108.45802, 21.5751], [108.45802, 21.56826], [108.47094, 21.56826], [108.47095, 21.56201], [108.42001, 21.55688], [108.40233, 21.55976], [108.38967, 21.57532], [108.39065, 21.59536], [108.40675, 21.60024], [108.4209, 21.59421], [108.41635, 21.58185], [108.4319, 21.58324], [108.43873, 21.59418], [108.4437, 21.62344], [108.42758, 21.6167], [108.41636, 21.62344], [108.41636, 21.63031], [108.42734, 21.63914], [108.4437, 21.64395], [108.44144, 21.6521], [108.44809, 21.65811], [108.47096, 21.66445], [108.47096, 21.67129], [108.40969, 21.66446], [108.4236, 21.67939], [108.42701, 21.68773], [108.42384, 21.69855], [108.40968, 21.67813], [108.40333, 21.68496], [108.39797, 21.67285], [108.386, 21.67293], [108.33767, 21.69746], [108.33595, 21.70685], [108.34132, 21.72582], [108.32154, 21.70966], [108.31137, 21.68171], [108.31276, 21.65184], [108.32763, 21.63033], [108.30649, 21.63032], [108.31396, 21.61604], [108.30079, 21.60724], [108.29347, 21.5893], [108.31396, 21.58929], [108.31396, 21.58186], [108.28956, 21.56403], [108.28359, 21.54459], [108.25864, 21.53408], [108.2264, 21.50802], [108.21104, 21.50065], [108.21031, 21.51361], [108.24496, 21.56436], [108.25196, 21.58186], [108.24936, 21.6031], [108.22682, 21.62557], [108.23829, 21.64395], [108.2103, 21.63032], [108.2103, 21.64395], [108.19728, 21.63654], [108.20883, 21.62393], [108.20411, 21.60297], [108.21028, 21.60297], [108.17636, 21.57576], [108.15797, 21.57153], [108.13526, 21.58186], [108.12843, 21.5751], [108.13232, 21.56538], [108.12827, 21.56274], [108.11476, 21.5751], [108.1058, 21.55908], [108.06625, 21.562], [108.07698, 21.54548], [108.07105, 21.53658], [108.0569, 21.53605], [108.03199, 21.55191], [108.0171, 21.55524], [108.00229, 21.55427], [107.99122, 21.54841], [108.02735, 21.52334], [108.03951, 21.52046], [108.01865, 21.51895], [108.01124, 21.50654], [108.01368, 21.49242], [108.02223, 21.48566], [108.06105, 21.49615], [108.08057, 21.4931], [108.08057, 21.48567], [108.04322, 21.48163], [108.01661, 21.47036], [107.97071, 21.43164], [107.96389, 21.43164], [107.96536, 21.44736], [107.99122, 21.48013], [107.99122, 21.48566], [107.96998, 21.47578], [107.9297, 21.44263], [107.91604, 21.4584], [107.91628, 21.46824], [107.9297, 21.48286], [107.91871, 21.51752], [107.89674, 21.53156], [107.88193, 21.53408], [107.88265, 21.52253], [107.87485, 21.51362], [107.86841, 21.51364], [107.8628, 21.53022], [107.85597, 21.52094], [107.8479, 21.49312], [107.83595, 21.48836], [107.82887, 21.49494], [107.82667, 21.52668], [107.813, 21.52045], [107.82056, 21.49312], [107.81301, 21.49312], [107.8069, 21.50678], [107.80006, 21.49935], [107.79624, 21.51948], [107.78346, 21.52432], [107.75221, 21.51362], [107.75221, 21.50678], [107.78013, 21.50315], [107.78858, 21.49445], [107.79256, 21.48014], [107.7789, 21.48566], [107.78637, 21.45841], [107.77564, 21.45856], [107.76181, 21.45075], [107.75856, 21.44473], [107.76521, 21.43854], [107.74854, 21.41121], [107.72145, 21.41087], [107.71151, 21.39892], [107.69833, 21.39839], [107.68418, 21.40327], [107.67652, 21.4112], [107.66904, 21.4112], [107.66285, 21.40375], [107.66943, 21.38544], [107.66342, 21.37809], [107.65024, 21.37686], [107.63502, 21.38325], [107.64233, 21.36279], [107.6321, 21.35515], [107.64232, 21.34228], [107.62135, 21.33552], [107.62874, 21.3287], [107.60817, 21.33552], [107.59929, 21.29899], [107.59079, 21.29401], [107.57346, 21.29483], [107.5623, 21.29803], [107.55423, 21.30436], [107.53517, 21.34536], [107.52231, 21.34854], [107.52882, 21.32323], [107.52516, 21.30756], [107.53743, 21.30195], [107.52662, 21.29877], [107.47238, 21.30365], [107.46169, 21.30928], [107.4568, 21.31834], [107.41529, 21.32868], [107.40903, 21.31501], [107.44312, 21.29389], [107.44311, 21.28766], [107.42359, 21.27962], [107.39161, 21.28042], [107.36744, 21.27338], [107.37329, 21.25898], [107.36061, 21.23924], [107.35888, 21.20307], [107.35434, 21.19147], [107.3707, 21.18163], [107.38843, 21.18462], [107.37556, 21.11638], [107.36061, 21.10212], [107.36744, 21.08788], [107.35434, 21.08222], [107.36435, 21.04035], [107.37427, 21.03383], [107.37427, 21.02758], [107.35751, 21.01512], [107.33383, 21.00585], [107.29233, 21.00462], [107.27955, 20.99971], [107.26645, 21.0043], [107.23489, 20.99978], [107.21119, 20.99226], [107.23111, 20.98603], [107.23112, 20.9792], [107.21485, 20.97525], [107.19337, 20.9527], [107.19702, 20.93766], [107.1609, 20.93245], [107.14918, 20.93765], [107.14918, 20.93083], [107.1338, 20.94481], [107.08497, 20.95141], [107.06609, 20.95873], [107.06609, 20.96491], [107.09522, 21.00047], [107.14918, 21.03384], [107.14918, 21.04059], [107.11118, 21.03311], [107.10133, 21.02757], [107.09246, 21.00825], [107.08377, 21.00585], [107.07977, 21.00912], [107.08717, 21.02757], [107.08033, 21.03384], [107.07228, 21.01708], [107.06324, 21.00936], [107.05763, 21.01386], [107.05982, 21.03384], [107.05299, 21.03384], [107.0525, 21.01366], [107.04615, 20.99972], [107.04461, 21.02509], [107.03793, 21.03217], [107.02564, 21.03384], [107.02564, 21.02757], [107.03932, 21.01337], [107.02564, 21.01337], [107.03931, 20.99971], [107.01564, 21.00434], [106.99781, 21.02017], [106.99545, 21.00642], [107.02082, 20.98642], [107.02564, 20.97236], [107.01678, 20.95767], [107.00098, 20.95108], [106.94695, 20.95429], [106.91898, 20.96591], [106.88461, 20.99323], [106.87338, 20.99714], [106.86744, 20.98603], [106.86354, 20.9916], [106.85377, 20.99226], [106.88282, 20.96052], [106.92205, 20.93765], [106.93238, 20.91519], [106.94311, 20.9103], [106.94311, 20.90352], [106.90171, 20.90787], [106.8816, 20.93765], [106.87428, 20.93765], [106.87843, 20.92121], [106.88795, 20.91031], [106.86793, 20.88273], [106.85988, 20.8894], [106.85222, 20.90998], [106.83327, 20.92397], [106.83668, 20.92914], [106.83326, 20.93765], [106.806, 20.93207], [106.78326, 20.94255], [106.77247, 20.95742], [106.78883, 20.9649], [106.8169, 20.96947], [106.82065, 20.97602], [106.81959, 20.98603], [106.80243, 20.99519], [106.79869, 21.00194], [106.81218, 21.01337], [106.79811, 21.02481], [106.77858, 21.02757], [106.78518, 21.01339], [106.76238, 21.01533], [106.7308, 21.02985], [106.7103, 21.02017], [106.7103, 21.01337], [106.71777, 21.01337], [106.71777, 21.00586], [106.6587, 21.02485], [106.6421, 21.02017], [106.68295, 21.00585], [106.68294, 20.99972], [106.65577, 21.00584], [106.67628, 20.95873], [106.6867, 20.9527], [106.71192, 20.95157], [106.75514, 20.93854], [106.75668, 20.9079], [106.74448, 20.883], [106.73829, 20.883], [106.71778, 20.90351], [106.69996, 20.88276], [106.70753, 20.87075], [106.74448, 20.84886], [106.75294, 20.82575], [106.74919, 20.80435], [106.73657, 20.795], [106.71778, 20.80785], [106.72462, 20.79002], [106.75563, 20.75121], [106.77247, 20.73896], [106.7787, 20.74622], [106.78882, 20.73053], [106.8059, 20.67758], [106.78504, 20.69242], [106.7671, 20.71345], [106.74146, 20.698], [106.71697, 20.69132], [106.66261, 20.69798], [106.66261, 20.69115], [106.70288, 20.67157], [106.70312, 20.65966], [106.66998, 20.63661], [106.63754, 20.62809], [106.62094, 20.62979], [106.61232, 20.63548], [106.59816, 20.6551], [106.58676, 20.66327], [106.59938, 20.63841], [106.61427, 20.6223], [106.62719, 20.61662], [106.62488, 20.59485], [106.60475, 20.58442], [106.58252, 20.56518], [106.51857, 20.54096], [106.53614, 20.53164], [106.55063, 20.53242], [106.57991, 20.54718], [106.57991, 20.54096], [106.56772, 20.52489], [106.58447, 20.49604], [106.57992, 20.47827], [106.53696, 20.46206], [106.51857, 20.43732], [106.5617, 20.45506], [106.58423, 20.45782], [106.59424, 20.44818], [106.59058, 20.40473], [106.58415, 20.38183], [106.57309, 20.36848], [106.56642, 20.38272], [106.56568, 20.37645], [106.55958, 20.37592], [106.57764, 20.35895], [106.59258, 20.27541], [106.58164, 20.26419], [106.53696, 20.30915], [106.52166, 20.31346], [106.49806, 20.30825], [106.50489, 20.29743], [106.51295, 20.29442], [106.52052, 20.29841], [106.52475, 20.30825], [106.54851, 20.29145], [106.57231, 20.24668], [106.5696, 20.232], [106.55427, 20.22466], [106.54103, 20.22607], [106.50491, 20.21703], [106.39503, 20.20458], [106.39503, 20.21198], [106.40187, 20.21198], [106.40187, 20.21821], [106.38071, 20.21198], [106.38071, 20.20458], [106.38794, 20.1975], [106.3602, 20.18407], [106.34033, 20.14998], [106.3055, 20.1086], [106.2837, 20.09463], [106.25928, 20.06127], [106.23618, 20.048], [106.21192, 20.0212], [106.19704, 20.01278], [106.2107, 20.04011], [106.2033, 20.04751], [106.17603, 19.99234], [106.16089, 19.98408], [106.12403, 19.975], [106.10711, 19.96501], [106.10141, 19.97997], [106.11451, 20.03327], [106.10711, 20.03327], [106.0835, 19.96501], [106.05294, 19.97717], [106.03191, 19.99917], [106.02516, 19.99917], [106.00849, 19.97365], [105.95558, 19.92548], [105.94947, 19.90082], [105.95679, 19.87564], [105.9358, 19.84829], [105.92888, 19.79367], [105.91529, 19.80732], [105.90874, 19.79672], [105.86744, 19.77318], [105.87371, 19.76569], [105.92887, 19.78001], [105.92334, 19.76679], [105.90545, 19.7438], [105.90161, 19.72822], [105.89527, 19.72135], [105.86695, 19.7211], [105.85596, 19.69164], [105.82594, 19.64224], [105.82389, 19.59895], [105.81902, 19.58762], [105.81756, 19.61001], [105.80388, 19.61302], [105.79086, 19.60346], [105.79176, 19.58759], [105.80543, 19.60871], [105.81471, 19.57441], [105.81901, 19.57392], [105.81934, 19.53669], [105.80812, 19.46076], [105.81274, 19.42318], [105.7986, 19.43057], [105.78491, 19.40327], [105.77125, 19.40949], [105.77125, 19.40327], [105.78256, 19.39436], [105.79176, 19.35489], [105.81006, 19.32148], [105.81274, 19.30704], [105.79176, 19.32071], [105.7986, 19.29963], [105.81079, 19.29963], [105.80876, 19.28018], [105.79753, 19.26733], [105.78102, 19.26488], [105.7723, 19.236], [105.74578, 19.23725], [105.74342, 19.23192], [105.73121, 19.17023], [105.72983, 19.13386], [105.73706, 19.10847], [105.702, 19.09048], [105.69556, 19.08114], [105.6683, 19.08954], [105.64381, 19.06537], [105.62485, 19.02847], [105.61329, 18.98554], [105.63478, 18.90982], [105.66993, 18.87495], [105.69451, 18.86078], [105.71663, 18.85455], [105.71663, 18.84834], [105.70289, 18.83413], [105.69288, 18.84955], [105.67506, 18.85456], [105.68873, 18.82665], [105.72006, 18.82355], [105.75206, 18.78607], [105.75757, 18.77204], [105.74269, 18.73078], [105.75611, 18.71597], [105.75766, 18.69697], [105.75074, 18.66279], [105.77003, 18.67158], [105.76443, 18.75896], [105.78345, 18.74725], [105.79086, 18.68968], [105.82594, 18.5939], [105.87924, 18.51093], [105.91529, 18.47309], [105.94946, 18.47101], [105.95883, 18.43256], [105.97731, 18.40209], [106.00782, 18.37871], [106.04575, 18.33226], [106.09797, 18.29017], [106.11011, 18.27553], [106.11215, 18.26288], [106.09344, 18.25873], [106.10328, 18.25153], [106.16578, 18.26556], [106.18116, 18.2597], [106.23365, 18.22085], [106.27083, 18.20408], [106.29884, 18.16934], [106.34603, 18.13271], [106.354, 18.11469], [106.33692, 18.12067], [106.32407, 18.11807], [106.30633, 18.10049], [106.31935, 18.09422], [106.34033, 18.10049], [106.33448, 18.08861], [106.34669, 18.05947], [106.34986, 18.08364], [106.3602, 18.10049], [106.37078, 18.10561], [106.38412, 18.09984], [106.39503, 18.10049], [106.42238, 18.12835], [106.43481, 18.12351], [106.42237, 18.09422], [106.42774, 18.0729], [106.43898, 18.05199], [106.52474, 17.94961], [106.52474, 17.94343], [106.48439, 17.91547], [106.45527, 17.88196], [106.43605, 17.88198], [106.43605, 17.8745], [106.44703, 17.87214], [106.45101, 17.86571], [106.44288, 17.84658], [106.46063, 17.79963], [106.47006, 17.7482], [106.49805, 17.71064], [106.48951, 17.70258], [106.47853, 17.70352], [106.44874, 17.71601], [106.43556, 17.73945], [106.41066, 17.74702], [106.37452, 17.76529], [106.30665, 17.77192], [106.292, 17.77827], [106.28517, 17.77212], [106.32276, 17.75349], [106.42921, 17.73115], [106.42921, 17.7237], [106.4026, 17.73151], [106.38307, 17.71918], [106.37965, 17.6988], [106.4087, 17.68277], [106.39503, 17.70319], [106.41749, 17.71296], [106.44996, 17.70864], [106.48227, 17.69644], [106.5044, 17.68276], [106.53907, 17.62751], [106.56604, 17.59787], [106.61463, 17.51891], [106.63461, 17.4704], [106.6582, 17.45376], [106.76393, 17.33552], [107.11182, 17.08828], [107.1272, 17.05976], [107.12127, 17.01854], [107.13271, 17.00965], [107.18653, 16.93439], [107.20068, 16.92625], [107.20386, 16.91926], [107.18653, 16.90656], [107.18336, 16.89814], [107.14178, 16.87458], [107.14178, 16.86774], [107.16725, 16.86762], [107.1902, 16.87458], [107.18946, 16.89232], [107.21648, 16.90793], [107.23455, 16.88764], [107.24947, 16.87987], [107.37867, 16.77338], [107.49259, 16.69272], [107.48417, 16.64777], [107.47364, 16.65314], [107.44337, 16.64802], [107.47882, 16.62872], [107.45436, 16.56972], [107.43451, 16.53992], [107.10827, 16.26748], [107.11685, 16.25462], [107.1275, 16.20098], [107.14202, 16.177], [107.16966, 16.1569], [107.21282, 16.14666], [107.23881, 16.12982], [107.27591, 16.08403], [107.29896, 16.06419], [107.32686, 16.05608], [107.35591, 16.05928], [107.41151, 16.07308], [107.43104, 16.0737], [107.43564, 16.06884], [107.43213, 16.0383], [107.44355, 16.01892], [107.44474, 16.00998], [107.87222, 15.91192], [107.92346, 15.88781], [107.98045, 15.85232], [108.0077, 15.82603], [108.01393, 15.81297], [108.01782, 15.72751], [108.02198, 15.71322], [108.03147, 15.70136], [108.05177, 15.69764], [108.10198, 15.72061], [108.11361, 15.72132], [108.12408, 15.71578], [108.13947, 15.68709], [108.15292, 15.60947], [108.16494, 15.57713], [108.18961, 15.54846], [108.28509, 15.46018], [108.39702, 15.30288], [108.44449, 15.24344], [108.48393, 15.20743], [108.49455, 15.20775], [108.55505, 15.27001], [108.6154, 15.30985], [108.68262, 15.33748], [108.75458, 15.35188], [108.77356, 15.3529], [108.7798, 15.33959], [108.77296, 15.32534], [108.7798, 15.32534], [108.78711, 15.34584], [108.8213, 15.34585], [108.82131, 15.35259], [108.87723, 15.34414], [108.88281, 15.33616], [108.88103, 15.29914], [108.88657, 15.2862], [108.92433, 15.25641], [108.95166, 15.25023], [108.93295, 15.22721], [108.91977, 15.22211], [108.90333, 15.22289], [108.90333, 15.21548], [108.91961, 15.21524], [108.92431, 15.20183], [108.91, 15.2093], [108.89772, 15.154], [108.8816, 15.16063], [108.86818, 15.15965], [108.86248, 15.15249], [108.8698, 15.14037], [108.88412, 15.14395], [108.89226, 15.14134], [108.89747, 15.13321], [108.89772, 15.11986], [108.90333, 15.11986], [108.91, 15.14661], [108.9192, 15.05781], [108.94264, 14.97956], [109.00561, 14.83878], [108.98552, 14.83662], [108.99024, 14.83063], [109.01245, 14.82196], [109.03696, 14.78364], [109.08081, 14.72947], [109.08604, 14.7155], [109.09505, 14.66744], [109.08668, 14.67133], [109.07643, 14.68561], [109.0818, 14.60639], [109.08821, 14.58926], [109.0861, 14.58528], [109.07667, 14.58568], [109.06105, 14.56371], [109.06707, 14.55073], [109.07447, 14.5786], [109.10816, 14.48871], [109.12573, 14.46539], [109.13021, 14.4516], [109.12916, 14.39741], [109.13648, 14.36685], [109.14967, 14.33845], [109.19059, 14.29124], [109.20117, 14.23603], [109.19093, 14.22053], [109.20525, 14.1861], [109.239, 14.13301], [109.22022, 14.13524], [109.19752, 14.16779], [109.17449, 14.17206], [109.17262, 14.15656], [109.18409, 14.1363], [109.21507, 14.11959], [109.22542, 14.10398], [109.25268, 14.03262], [109.26637, 13.92072], [109.27516, 13.90672], [109.3016, 13.8858], [109.30737, 13.87637], [109.30047, 13.7978], [109.30396, 13.75927], [109.29574, 13.75561], [109.26979, 13.75561], [109.26743, 13.7663], [109.2732, 13.82453], [109.25148, 13.89094], [109.23902, 13.87979], [109.23218, 13.83198], [109.22071, 13.80614], [109.23218, 13.81085], [109.23951, 13.78767], [109.2461, 13.77961], [109.25896, 13.77733], [109.22625, 13.7436], [109.22478, 13.72211], [109.23897, 13.69158], [109.24138, 13.64403], [109.24757, 13.62271], [109.25717, 13.60562], [109.28248, 13.58515], [109.30046, 13.5781], [109.30381, 13.56901], [109.30347, 13.56221], [109.29831, 13.55864], [109.28679, 13.5576], [109.29419, 13.53037], [109.26344, 13.57705], [109.25294, 13.60163], [109.22608, 13.6319], [109.21852, 13.64696], [109.21119, 13.64696], [109.21013, 13.6308], [109.23219, 13.61225], [109.24529, 13.57123], [109.26743, 13.55467], [109.26246, 13.54393], [109.25896, 13.54462], [109.28679, 13.50922], [109.2942, 13.50922], [109.3142, 13.52288], [109.30226, 13.50153], [109.30372, 13.47989], [109.31218, 13.47162], [109.32325, 13.46979], [109.33464, 13.47572], [109.33968, 13.46548], [109.33131, 13.45209], [109.33464, 13.44091], [109.32505, 13.42247], [109.30739, 13.40682], [109.29916, 13.41747], [109.27752, 13.42163], [109.27322, 13.43106], [109.27809, 13.43793], [109.29819, 13.44843], [109.30047, 13.46137], [109.26254, 13.48932], [109.24513, 13.48518], [109.23219, 13.46137], [109.23755, 13.45319], [109.23463, 13.43708], [109.24528, 13.42723], [109.23756, 13.42007], [109.23219, 13.39313], [109.24935, 13.3847], [109.26637, 13.3618], [109.28004, 13.35277], [109.29103, 13.3631], [109.29932, 13.36468], [109.30737, 13.35277], [109.30567, 13.3339], [109.28679, 13.33104], [109.29427, 13.31464], [109.2942, 13.29757], [109.2732, 13.31061], [109.26856, 13.30183], [109.25896, 13.29755], [109.27263, 13.26325], [109.2942, 13.2355], [109.2928, 13.26702], [109.29624, 13.27887], [109.30738, 13.28388], [109.30372, 13.30317], [109.30811, 13.30363], [109.31811, 13.28888], [109.32104, 13.25902], [109.30738, 13.22866], [109.31421, 13.19794], [109.30421, 13.15062], [109.30738, 13.13304], [109.3313, 13.09376], [109.32838, 13.08466], [109.34945, 13.06826], [109.37013, 13.03181], [109.45826, 12.92405], [109.46501, 12.91331], [109.46726, 12.89791], [109.45817, 12.85188], [109.43093, 12.84513], [109.4284, 12.85212], [109.45004, 12.87324], [109.43824, 12.87861], [109.41725, 12.86494], [109.40349, 12.83821], [109.3777, 12.83242], [109.36883, 12.82461], [109.37549, 12.81635], [109.37623, 12.77619], [109.42075, 12.69131], [109.43621, 12.67422], [109.45134, 12.67376], [109.47241, 12.6564], [109.46997, 12.64864], [109.45135, 12.63898], [109.45133, 12.57075], [109.44013, 12.56476], [109.42995, 12.57588], [109.41725, 12.60546], [109.40512, 12.61799], [109.40351, 12.62881], [109.42408, 12.64643], [109.42408, 12.65265], [109.40349, 12.68744], [109.396, 12.67309], [109.37623, 12.67377], [109.38151, 12.6564], [109.37622, 12.63899], [109.36354, 12.65624], [109.34207, 12.66011], [109.36257, 12.69049], [109.38559, 12.70246], [109.3899, 12.71162], [109.3864, 12.72752], [109.36257, 12.76252], [109.36256, 12.79291], [109.3589, 12.79731], [109.34783, 12.79483], [109.33838, 12.7731], [109.30397, 12.75088], [109.25553, 12.69926], [109.23357, 12.68708], [109.20493, 12.64643], [109.20801, 12.59805], [109.20045, 12.59125], [109.20493, 12.55024], [109.2116, 12.54804], [109.21119, 12.5434], [109.21852, 12.5434], [109.22788, 12.57452], [109.23902, 12.57758], [109.23902, 12.58373], [109.2322, 12.58373], [109.2322, 12.59124], [109.24902, 12.58551], [109.24707, 12.57197], [109.23219, 12.54035], [109.23715, 12.52228], [109.24936, 12.50951], [109.29834, 12.47796], [109.30355, 12.46963], [109.29347, 12.44904], [109.29428, 12.43903], [109.29851, 12.43081], [109.33667, 12.41013], [109.34594, 12.39631], [109.33465, 12.38573], [109.34204, 12.37889], [109.33465, 12.37215], [109.32252, 12.38605], [109.30908, 12.36006], [109.29716, 12.35109], [109.28226, 12.3561], [109.25896, 12.39256], [109.2155, 12.44017], [109.18507, 12.45893], [109.1565, 12.45466], [109.17016, 12.43355], [109.14967, 12.44038], [109.15463, 12.42691], [109.17693, 12.3994], [109.19642, 12.40259], [109.20654, 12.38715], [109.21412, 12.33291], [109.22926, 12.31371], [109.24202, 12.3054], [109.24219, 12.29658], [109.23634, 12.2911], [109.21852, 12.29637], [109.20492, 12.26289], [109.17693, 12.27652], [109.18246, 12.26781], [109.21118, 12.2486], [109.20484, 12.23339], [109.22476, 12.20085], [109.1985, 12.20795], [109.18824, 12.20576], [109.18434, 12.194], [109.1906, 12.20083], [109.20436, 12.19379], [109.20964, 12.18602], [109.2142, 12.1586], [109.22681, 12.13789], [109.21119, 12.11823], [109.20997, 12.10969], [109.21388, 12.0681], [109.22055, 12.05061], [109.2492, 11.99738], [109.28678, 11.96743], [109.28345, 11.94014], [109.26637, 11.92646], [109.26588, 11.9099], [109.27084, 11.89501], [109.28077, 11.88394], [109.29419, 11.87864], [109.29419, 11.87125], [109.27784, 11.86483], [109.26165, 11.8657], [109.24758, 11.87296], [109.23902, 11.88544], [109.22479, 11.87866], [109.21657, 11.90884], [109.22267, 11.98164], [109.21119, 12.01582], [109.21852, 12.01582], [109.19581, 12.0749], [109.18621, 12.11774], [109.17677, 12.12946], [109.16334, 12.11201], [109.18214, 12.08104], [109.17693, 12.05305], [109.18238, 12.04287], [109.20582, 12.02163], [109.21119, 12.0056], [109.20818, 11.97663], [109.19873, 11.94815], [109.18181, 11.9217], [109.1565, 11.89912], [109.13722, 11.89606], [109.12582, 11.86359], [109.1316, 11.83002], [109.16334, 11.82404], [109.19777, 11.86928], [109.20491, 11.8681], [109.19288, 11.82754], [109.20492, 11.81037], [109.20362, 11.78457], [109.24292, 11.73566], [109.23219, 11.7142], [109.22478, 11.72162], [109.21778, 11.7141], [109.20899, 11.69368], [109.19125, 11.67194], [109.18432, 11.6385], [109.16041, 11.61644], [109.15397, 11.59681], [109.13599, 11.57023], [109.12917, 11.57023], [109.1172, 11.58027], [109.06707, 11.58382], [109.05567, 11.59665], [109.04347, 11.6385], [109.02027, 11.6328], [109.02174, 11.62031], [109.04038, 11.60151], [109.03403, 11.55956], [109.04036, 11.54288], [109.01246, 11.54287], [109.02785, 11.51724], [109.02829, 11.47395], [109.0193, 11.40632], [109.02246, 11.36762], [109.01807, 11.35591], [108.98048, 11.32357], [108.95167, 11.31014], [108.93336, 11.31119], [108.87387, 11.33389], [108.83806, 11.33076], [108.8213, 11.32372], [108.78785, 11.30069], [108.76612, 11.27595], [108.75782, 11.2578], [108.74554, 11.20692], [108.73804, 11.18969], [108.72934, 11.18155], [108.70053, 11.17916], [108.65626, 11.19282], [108.61524, 11.17916], [108.5774, 11.17915], [108.55941, 11.16243], [108.53126, 11.15327], [108.50034, 11.12084], [108.49171, 11.10468], [108.48193, 11.06404], [108.47249, 11.05334], [108.43914, 11.0467], [108.40357, 11.02897], [108.36883, 11.02277], [108.34497, 10.95381], [108.32521, 10.95157], [108.31544, 10.94432], [108.30005, 10.91284], [108.29372, 10.91284], [108.28533, 10.94334], [108.25864, 10.95181], [108.13502, 10.92768], [108.10646, 10.91816], [108.08911, 10.89204], [108.06568, 10.86799], [108.04298, 10.81391], [108.0354, 10.77278], [107.9983, 10.69938], [107.91944, 10.7211], [107.88234, 10.71699], [107.8239, 10.69237], [107.7685, 10.65031], [107.73129, 10.63789], [107.66627, 10.60375], [107.62135, 10.5926], [107.58058, 10.57026], [107.5442, 10.5362], [107.53052, 10.51293], [107.51116, 10.50155], [107.42985, 10.46854], [107.38461, 10.46284], [107.34498, 10.45044], [107.33416, 10.45356], [107.29664, 10.41572], [107.27175, 10.37849], [107.25441, 10.3789], [107.21632, 10.40156], [107.19021, 10.40519], [107.195, 10.41405], [107.21168, 10.41938], [107.21754, 10.42561], [107.21697, 10.43447], [107.20541, 10.45067], [107.17596, 10.47744], [107.14178, 10.48086], [107.14176, 10.46663], [107.13574, 10.46662], [107.12273, 10.48021], [107.10279, 10.48994], [107.0818, 10.4916], [107.06609, 10.48087], [107.05983, 10.48087], [107.06324, 10.49506], [107.05982, 10.5082], [107.05047, 10.48847], [107.03192, 10.47408], [107.02564, 10.50137], [107.011, 10.49413], [106.99781, 10.48087], [106.99147, 10.48087], [106.9944, 10.49665], [107.02564, 10.51504], [107.03272, 10.52595], [107.03191, 10.60749], [107.0114, 10.63789], [107.02564, 10.63105], [107.02369, 10.65632], [107.01319, 10.67267], [106.98414, 10.69937], [106.97975, 10.68476], [107.0114, 10.65526], [107.00262, 10.63044], [107.00245, 10.61709], [107.02508, 10.60391], [107.02272, 10.58759], [107.0114, 10.56281], [107.02687, 10.54418], [107.02564, 10.53547], [107.01904, 10.53389], [106.99781, 10.54914], [107.00514, 10.55598], [106.99147, 10.57026], [106.99822, 10.59724], [106.99781, 10.6249], [106.99147, 10.6249], [106.98487, 10.59683], [106.98414, 10.56688], [106.99195, 10.54011], [107.01139, 10.52187], [106.9944, 10.51288], [106.97217, 10.47428], [106.96363, 10.46663], [106.95721, 10.47168], [106.96363, 10.50137], [106.95932, 10.51187], [106.94313, 10.52928], [106.93776, 10.54873], [106.94313, 10.60065], [106.8816, 10.65217], [106.84864, 10.63556], [106.82862, 10.63028], [106.80128, 10.66694], [106.77247, 10.68635], [106.74147, 10.66926], [106.73683, 10.65815], [106.7588, 10.6413], [106.77247, 10.60375], [106.76905, 10.59227], [106.75196, 10.57648], [106.7334, 10.52246], [106.6886, 10.50366], [106.67237, 10.50422], [106.66261, 10.52188], [106.65577, 10.52188], [106.65919, 10.50707], [106.6687, 10.49454], [106.6465, 10.48664], [106.63803, 10.47899], [106.63038, 10.45869], [106.59425, 10.43928], [106.59213, 10.4687], [106.57993, 10.48774], [106.58188, 10.45279], [106.58676, 10.43871], [106.59742, 10.43305], [106.61541, 10.43659], [106.63006, 10.44579], [106.64894, 10.47407], [106.65575, 10.47407], [106.66293, 10.44392], [106.67018, 10.43256], [106.68979, 10.43305], [106.71364, 10.46808], [106.72413, 10.47405], [106.74105, 10.46799], [106.78809, 10.39313], [106.79541, 10.30683], [106.79077, 10.28486], [106.77556, 10.27539], [106.70411, 10.28905], [106.59832, 10.28852], [106.52524, 10.30256], [106.48731, 10.30278], [106.43767, 10.32185], [106.42237, 10.31696], [106.48032, 10.28083], [106.72064, 10.19977], [106.76515, 10.16767], [106.79314, 10.16249], [106.79906, 10.14786], [106.79126, 10.11018], [106.73706, 10.05415], [106.72087, 10.04492], [106.70413, 10.0489], [106.70924, 10.05663], [106.70834, 10.07526], [106.70411, 10.08364], [106.69663, 10.08365], [106.69205, 10.06642], [106.67677, 10.04922], [106.66871, 10.03242], [106.68408, 10.01203], [106.66424, 10.00609], [106.64893, 9.97436], [106.60743, 9.97485], [106.59108, 9.98079], [106.54786, 10.01537], [106.49806, 10.03584], [106.46893, 10.059], [106.44321, 10.08979], [106.35987, 10.22069], [106.33123, 10.2495], [106.292, 10.2617], [106.3379, 10.22809], [106.34938, 10.21483], [106.35816, 10.17658], [106.3685, 10.15591], [106.46168, 10.03571], [106.48439, 10.01533], [106.56153, 9.97914], [106.61427, 9.93903], [106.67058, 9.90941], [106.68637, 9.90545], [106.69629, 9.89655], [106.6932, 9.87641], [106.68256, 9.85532], [106.66871, 9.84286], [106.67644, 9.86677], [106.66871, 9.88373], [106.66261, 9.88373], [106.65789, 9.84862], [106.63786, 9.82601], [106.61134, 9.81705], [106.58661, 9.82307], [106.56333, 9.84179], [106.5044, 9.90546], [106.39503, 9.97436], [106.14487, 10.22858], [106.12135, 10.24067], [106.11329, 10.23428], [106.13502, 10.22016], [106.15789, 10.19538], [106.16601, 10.18109], [106.17286, 10.14753], [106.19337, 10.12027], [106.28345, 10.05045], [106.31251, 10.00796], [106.36931, 9.95693], [106.38893, 9.93281], [106.47587, 9.86168], [106.50112, 9.83382], [106.51856, 9.80182], [106.52752, 9.76219], [106.53785, 9.75117], [106.563, 9.74721], [106.57495, 9.73907], [106.58055, 9.69939], [106.57552, 9.64863], [106.56325, 9.61458], [106.54371, 9.58503], [106.49745, 9.55012], [106.48488, 9.54712], [106.46437, 9.55476], [106.43946, 9.54118], [106.39821, 9.54207], [106.33717, 9.5847], [106.25034, 9.63118], [106.06494, 9.80405], [105.97047, 9.92084], [105.93287, 9.95539], [105.90406, 9.97647], [105.86948, 9.98535], [105.83806, 10.00503], [105.81902, 10.00796], [105.83839, 9.97944], [106.0735, 9.74795], [106.09295, 9.69294], [106.19702, 9.54116], [106.20776, 9.51146], [106.21069, 9.47004], [106.20581, 9.45735], [106.1692, 9.4182], [106.19458, 9.39899], [106.19702, 9.38471], [106.19336, 9.36934], [106.18393, 9.36222], [106.01824, 9.31525], [105.76001, 9.21095], [105.53875, 9.12934], [105.47022, 9.06196], [105.44361, 9.04149], [105.43295, 9.02831], [105.42618, 9.00816], [105.40821, 9.00056], [105.4081, 8.97983], [105.3341, 8.83993], [105.31493, 8.81202], [105.29318, 8.78786], [105.25881, 8.76048], [105.21675, 8.75451], [105.18403, 8.74088], [105.15441, 8.70586], [105.12635, 8.66015], [105.10127, 8.63422], [104.85621, 8.56559], [104.83278, 8.56917], [104.81479, 8.58112], [104.75199, 8.59085], [104.72292, 8.6027], [104.72024, 8.61375], [104.7593, 8.61562], [104.83513, 8.66047], [104.83904, 8.67097], [104.83416, 8.68098], [104.81953, 8.69086], [104.83278, 8.69887], [104.91163, 8.68521], [104.94239, 8.69644], [104.95639, 8.70742], [104.96314, 8.71939], [104.90748, 8.69961], [104.87615, 8.69921], [104.85319, 8.71277], [104.84841, 8.72358], [104.8528, 8.72918], [104.91212, 8.73534], [104.92897, 8.7473], [104.91913, 8.77046], [104.9163, 8.79024], [104.92156, 8.80931], [104.85792, 8.78145], [104.81666, 8.77132], [104.79168, 8.78407], [104.77461, 8.81787], [104.81172, 8.93705], [104.80708, 9.04542], [104.81104, 9.13244], [104.8191, 9.19294], [104.83562, 9.55612], [104.85657, 9.73804], [104.8928, 9.85108], [104.93943, 9.84957], [104.96998, 9.85366], [104.97691, 9.87124], [104.99334, 9.88812], [105.05507, 9.93351], [105.07667, 9.94341], [105.08667, 9.93593], [105.11329, 9.85708], [105.10711, 9.9086], [105.10711, 9.9527], [105.10043, 9.97411], [105.08766, 9.99673], [105.04265, 10.05508], [105.00327, 10.09211], [104.98365, 10.10346], [104.96388, 10.10586], [104.92433, 10.09627], [104.90106, 10.09733], [104.8691, 10.116], [104.80486, 10.2071], [104.77198, 10.22663], [104.73854, 10.23139], [104.70737, 10.22232], [104.68133, 10.19969], [104.67562, 10.17488], [104.65838, 10.16804], [104.65088, 10.14449], [104.61305, 10.14449], [104.60769, 10.15351], [104.61354, 10.16738], [104.61305, 10.17918], [104.59261, 10.21006], [104.58888, 10.26089], [104.57936, 10.27485], [104.55152, 10.29588], [104.54541, 10.28222], [104.53737, 10.28222], [104.5359, 10.30956], [104.50377, 10.35737], [104.49911, 10.37039], [104.51743, 10.37849], [104.52508, 10.38984], [104.53053, 10.40908], [104.52491, 10.41942], [104.51743, 10.41942], [104.49918, 10.392], [104.48585, 10.3833], [104.46957, 10.37849], [104.45363, 10.37984], [104.45582, 10.40717], [104.44923, 10.42561], [104.43238, 10.44628], [104.42205, 10.4523], [104.40757, 10.44613], [104.36313, 10.48774], [104.33253, 10.48774], [104.30616, 10.4786], [104.29771, 10.48087], [104.28981, 10.49751], [104.28631, 10.54047], [104.24985, 10.57026], [104.23032, 10.56315], [104.22267, 10.57026], [104.20704, 10.55], [104.18116, 10.54956], [104.13014, 10.56281], [104.08878, 10.55465], [103.94579, 10.58805], [103.91799, 10.61124], [103.8943, 10.65839], [103.87338, 10.66006], [103.87468, 10.66877], [103.86638, 10.69937], [103.8589, 10.67959], [103.86637, 10.62116], [103.8628, 10.60383], [103.85415, 10.58634], [103.82056, 10.54402], [103.80763, 10.53788], [103.76689, 10.53551], [103.75414, 10.53777], [103.7361, 10.55598], [103.70192, 10.56281], [103.70192, 10.55598], [103.72316, 10.54466], [103.74194, 10.52629], [103.74708, 10.50898], [103.72608, 10.50138], [103.69321, 10.5034], [103.65556, 10.49518], [103.63738, 10.49454], [103.62388, 10.50093], [103.61721, 10.51504], [103.61622, 10.53547], [103.60629, 10.55598], [103.58579, 10.54915], [103.57008, 10.55509], [103.56155, 10.56233], [103.55356, 10.58552], [103.54379, 10.59618], [103.52369, 10.61123], [103.5071, 10.60425], [103.50203, 10.61736], [103.50686, 10.63544], [103.52809, 10.65217], [103.55105, 10.70306], [103.5674, 10.7265], [103.60597, 10.73752], [103.68873, 10.74095], [103.68873, 10.74775], [103.67563, 10.75178], [103.67222, 10.75788], [103.67808, 10.80121], [103.68952, 10.81599], [103.71339, 10.83055], [103.72242, 10.84455], [103.72242, 10.89484], [103.67857, 10.98021], [103.65953, 11.02977], [103.67457, 11.06367], [103.64584, 11.08226], [103.61622, 11.08545], [103.60384, 11.0908], [103.59524, 11.0983], [103.58351, 11.1341], [103.56186, 11.15225], [103.53297, 11.16275], [103.5027, 11.16608], [103.51001, 11.15925], [103.49642, 11.13883], [103.48903, 11.13883], [103.48121, 11.14838], [103.46852, 11.1518], [103.47445, 11.1337], [103.44801, 11.0904], [103.46826, 11.0993], [103.47021, 11.08906], [103.43084, 11.0065], [103.42806, 10.98428], [103.41456, 10.94636], [103.42122, 10.90913], [103.41569, 10.89412], [103.4021, 10.88436], [103.386, 10.88094], [103.3729, 10.88495], [103.35231, 10.87191], [103.34409, 10.89545], [103.27735, 10.93268], [103.23634, 10.90815], [103.219, 10.89248], [103.22265, 10.87813], [103.19679, 10.87653], [103.18116, 10.86446], [103.16179, 10.87401], [103.12674, 10.8813], [103.14015, 10.89859], [103.09556, 10.93399], [103.10038, 10.95136], [103.1128, 10.97089], [103.09849, 11.08047], [103.11598, 11.11384], [103.11769, 11.14911], [103.0985, 11.1866], [103.08863, 11.21768], [103.05767, 11.221], [103.05959, 11.23183], [103.07928, 11.24518], [103.07131, 11.25552], [103.07141, 11.26184], [103.10546, 11.29888], [103.13404, 11.31613], [103.14698, 11.30268], [103.15317, 11.30268], [103.14015, 11.3579], [103.1128, 11.34367], [103.10028, 11.35603], [103.0923, 11.39887], [103.06448, 11.44724], [103.07569, 11.44431], [103.07879, 11.43301], [103.08497, 11.43301], [103.10158, 11.45257], [103.12988, 11.46035], [103.14332, 11.45482], [103.15919, 11.4311], [103.17433, 11.42617], [103.14275, 11.48505], [103.13331, 11.49445], [103.14015, 11.50873], [103.13331, 11.50873], [103.12648, 11.49445], [103.13063, 11.48652], [103.12866, 11.47749], [103.12208, 11.47016], [103.1128, 11.46776], [103.10288, 11.47265], [103.09108, 11.49055], [103.06447, 11.50361], [103.05731, 11.52522], [103.05763, 11.57022], [103.05079, 11.56339], [103.05763, 11.59125], [103.0433, 11.59431], [103.03712, 11.60493], [103.03745, 11.57026], [103.03028, 11.54288], [103.01271, 11.54637], [102.99855, 11.54316], [102.97511, 11.52926], [102.95461, 11.55711], [102.97512, 11.57021], [102.99545, 11.54971], [103.00294, 11.54971], [102.98244, 11.58381], [102.98244, 11.62482], [102.99383, 11.63572], [103.02442, 11.62348], [103.0433, 11.62482], [103.0433, 11.63227], [103.03102, 11.63117], [103.01352, 11.63939], [103.00913, 11.65274], [103.01678, 11.65274], [103.01678, 11.65957], [102.99546, 11.65275], [102.98927, 11.67325], [102.98243, 11.67325], [102.98243, 11.65275], [102.97511, 11.65957], [102.97511, 11.6385], [102.96876, 11.6385], [102.97584, 11.68732], [102.98634, 11.70287], [103.02166, 11.72053], [103.05258, 11.70551], [103.06666, 11.7082], [103.07879, 11.71646], [103.08497, 11.72785], [103.07879, 11.72785], [103.06984, 11.71516], [103.056, 11.71613], [103.03028, 11.73469], [103.02345, 11.73469], [102.98244, 11.71418], [102.96974, 11.73286], [102.95606, 11.76691], [102.93263, 11.77912], [102.89926, 11.83027], [102.89308, 11.83027], [102.90789, 11.79755], [102.9568, 11.74681], [102.96876, 11.71418], [102.95484, 11.66787], [102.9546, 11.65274], [102.96502, 11.60993], [102.9637, 11.59236], [102.95461, 11.57023], [102.94093, 11.61518], [102.9136, 11.64591], [102.90603, 11.66621], [102.90675, 11.74144], [102.89332, 11.76968], [102.82545, 11.85814], [102.78347, 11.89229], [102.77704, 11.90254], [102.77703, 11.96743], [102.76694, 12.01179], [102.74968, 12.04027], [102.63186, 12.15205], [102.63015, 12.16135], [102.65358, 12.15917], [102.6453, 12.17023], [102.69221, 12.17848], [102.71505, 12.34219], [102.72007, 12.36121], [102.73066, 12.38007], [102.7565, 12.40224], [102.76513, 12.41635]], [[106.59648, 10.98271], [106.6026, 10.99859], [106.59238, 11.00566], [106.56673, 10.9919], [106.57022, 10.98029], [106.59044, 10.97815], [106.59648, 10.98271]], [[105.69421, 21.1593], [105.66567, 21.12441], [105.64295, 21.08457], [105.62837, 21.04251], [105.6224, 20.99861], [105.62561, 20.95573], [105.63751, 20.91695], [105.65718, 20.88304], [105.68366, 20.8548], [105.71511, 20.83357], [105.75342, 20.81849], [105.79385, 20.81212], [105.8396, 20.81439], [105.88537, 20.8259], [105.92662, 20.8447], [105.96566, 20.87131], [105.99907, 20.90283], [106.02768, 20.93963], [106.05001, 20.98014], [106.06513, 21.02319], [106.07208, 21.06766], [106.07011, 21.11029], [106.05942, 21.14833], [106.04009, 21.18201], [106.01508, 21.20815], [105.98404, 21.22814], [105.94666, 21.24184], [105.90366, 21.24788], [105.85802, 21.24521], [105.8119, 21.234], [105.76788, 21.21493], [105.72841, 21.18963], [105.69421, 21.1593]]], [[[105.93506, 19.36055], [105.92905, 19.35909], [105.92052, 19.37605], [105.93555, 19.38185], [105.94149, 19.37169], [105.93506, 19.36055]]], [[[106.78651, 20.80744], [106.7658, 20.82498], [106.76148, 20.8417], [106.76612, 20.84606], [106.78753, 20.82396], [106.8032, 20.81738], [106.81242, 20.8185], [106.81494, 20.81428], [106.80705, 20.80798], [106.78651, 20.80744]]], [[[106.83595, 20.90241], [106.84642, 20.86496], [106.88159, 20.82151], [106.88647, 20.79613], [106.87354, 20.78955], [106.84751, 20.79732], [106.82252, 20.8535], [106.81959, 20.87678], [106.81267, 20.85932], [106.81958, 20.84204], [106.77068, 20.85859], [106.76564, 20.87678], [106.78542, 20.93081], [106.82456, 20.91519], [106.83595, 20.90241]]], [[[106.76596, 20.84776], [106.75384, 20.85086], [106.74903, 20.86233], [106.72771, 20.86904], [106.72552, 20.87478], [106.73292, 20.88178], [106.75327, 20.87128], [106.76596, 20.84776]]], [[[106.76008, 20.94701], [106.70232, 20.95494], [106.69329, 20.96068], [106.68564, 20.97419], [106.68687, 20.98187], [106.69276, 20.98514], [106.70989, 20.97285], [106.72698, 20.96866], [106.73308, 20.9724], [106.72829, 20.98721], [106.73905, 20.99613], [106.74447, 20.99513], [106.76278, 20.97907], [106.76383, 20.97268], [106.7575, 20.97297], [106.76376, 20.96894], [106.76466, 20.9527], [106.76008, 20.94701]]], [[[107.18776, 10.42064], [107.17311, 10.41112], [107.16585, 10.39111], [107.13551, 10.37848], [107.08717, 10.32321], [107.07375, 10.37263], [107.07937, 10.39101], [107.11988, 10.40131], [107.14967, 10.41657], [107.15602, 10.42251], [107.16414, 10.45712], [107.17205, 10.46459], [107.20265, 10.43806], [107.21119, 10.4256], [107.1902, 10.43305], [107.18776, 10.42064]]], [[[106.88795, 10.46662], [106.87941, 10.49004], [106.88836, 10.50486], [106.9275, 10.52117], [106.94809, 10.50702], [106.94337, 10.47663], [106.92205, 10.42561], [106.92945, 10.42561], [106.93629, 10.43927], [106.96871, 10.41658], [106.97729, 10.40518], [106.92848, 10.3935], [106.90854, 10.38471], [106.89527, 10.37101], [106.88796, 10.37101], [106.88795, 10.38923], [106.87428, 10.42561], [106.87697, 10.44383], [106.89234, 10.46528], [106.89527, 10.48086], [106.88795, 10.48086], [106.88795, 10.46662]]], [[[107.47112, 20.73768], [107.47436, 20.73468], [107.46631, 20.72041], [107.45268, 20.71449], [107.47112, 20.73768]]], [[[107.14681, 20.74059], [107.13722, 20.73828], [107.12991, 20.74832], [107.14403, 20.76564], [107.14746, 20.76292], [107.14681, 20.74059]]], [[[107.47586, 20.76211], [107.49478, 20.77673], [107.49113, 20.76273], [107.48186, 20.75561], [107.47586, 20.76211]]], [[[107.129, 20.80507], [107.13893, 20.78568], [107.129, 20.76854], [107.11983, 20.78348], [107.11655, 20.80429], [107.1255, 20.80101], [107.129, 20.80507]]], [[[107.40552, 20.80325], [107.41081, 20.806], [107.4209, 20.78364], [107.4139, 20.76831], [107.40391, 20.77794], [107.40196, 20.78889], [107.40552, 20.80325]]], [[[107.07097, 20.8203], [107.08716, 20.82152], [107.10765, 20.80046], [107.08033, 20.80785], [107.08033, 20.80044], [107.09398, 20.78743], [107.08221, 20.78937], [107.07504, 20.79605], [107.06609, 20.81411], [107.06284, 20.79828], [107.0735, 20.78742], [107.07349, 20.78059], [107.05047, 20.77595], [107.03191, 20.78742], [107.03688, 20.76626], [107.06738, 20.74973], [107.07348, 20.73217], [107.06609, 20.73217], [107.06609, 20.73896], [107.05982, 20.73896], [107.04616, 20.70429], [107.04615, 20.72598], [107.03191, 20.71851], [107.03191, 20.72598], [107.02565, 20.7185], [107.01825, 20.72598], [107.01824, 20.73216], [107.03932, 20.73216], [107.03191, 20.7464], [107.02564, 20.7464], [107.02564, 20.73896], [107.01824, 20.73896], [107.00514, 20.75324], [106.99781, 20.75324], [107.00494, 20.73229], [106.98513, 20.74528], [106.94996, 20.78742], [106.92108, 20.8046], [106.90994, 20.81855], [106.91285, 20.8369], [106.93889, 20.84711], [106.94379, 20.85172], [106.9481, 20.87026], [106.9573, 20.87672], [106.94996, 20.86933], [106.96363, 20.85611], [106.99447, 20.85174], [107.00514, 20.84203], [107.0114, 20.84203], [107.01247, 20.85878], [107.02294, 20.86217], [107.04614, 20.84886], [107.04298, 20.83137], [107.07097, 20.8203]]], [[[107.36891, 20.8072], [107.36085, 20.8059], [107.35028, 20.81095], [107.34215, 20.82844], [107.34109, 20.84259], [107.35711, 20.82933], [107.38119, 20.81891], [107.38355, 20.79931], [107.38022, 20.79757], [107.36891, 20.8072]]], [[[107.10189, 20.8565], [107.10222, 20.84532], [107.11263, 20.82702], [107.10671, 20.82747], [107.09767, 20.83804], [107.09018, 20.83572], [107.0858, 20.84247], [107.10189, 20.8565]]], [[[107.28672, 20.85532], [107.28989, 20.84776], [107.29939, 20.84406], [107.27337, 20.83166], [107.27988, 20.84158], [107.27118, 20.83942], [107.2757, 20.84172], [107.27199, 20.84185], [107.28517, 20.84654], [107.28257, 20.85045], [107.28672, 20.85532]]], [[[106.89316, 20.86339], [106.89179, 20.87309], [106.90039, 20.86432], [106.90275, 20.84748], [106.89706, 20.84776], [106.89796, 20.84065], [106.88152, 20.84715], [106.88137, 20.85293], [106.88803, 20.85314], [106.8891, 20.86513], [106.89316, 20.86339]]], [[[107.35812, 20.86282], [107.34352, 20.87735], [107.33546, 20.87694], [107.33383, 20.88825], [107.3392, 20.89035], [107.38217, 20.88788], [107.39233, 20.88468], [107.39518, 20.87857], [107.38786, 20.86498], [107.36748, 20.85843], [107.35812, 20.86282]]], [[[107.19531, 20.88393], [107.21004, 20.87571], [107.21004, 20.86515], [107.18883, 20.87971], [107.19531, 20.88393]]], [[[107.30863, 20.88412], [107.29373, 20.90501], [107.29575, 20.90671], [107.3143, 20.88951], [107.32438, 20.87033], [107.30863, 20.88412]]], [[[107.31479, 20.89252], [107.30974, 20.90522], [107.31527, 20.91135], [107.32634, 20.88084], [107.31479, 20.89252]]], [[[106.99106, 20.91699], [106.97724, 20.93138], [106.99723, 20.93692], [106.99106, 20.91699]]], [[[107.45426, 20.96002], [107.44475, 20.94131], [107.42042, 20.91743], [107.38185, 20.9031], [107.35328, 20.90143], [107.35078, 20.90472], [107.41391, 20.92239], [107.42596, 20.94594], [107.44809, 20.96412], [107.45426, 20.96002]]], [[[106.95507, 20.93925], [106.94866, 20.93193], [106.93222, 20.93903], [106.93686, 20.95205], [106.95507, 20.93925]]], [[[107.31805, 20.9344], [107.31611, 20.93992], [107.33944, 20.94346], [107.34791, 20.93431], [107.35149, 20.94001], [107.36451, 20.94306], [107.37632, 20.95562], [107.38079, 20.9527], [107.3903, 20.95937], [107.38688, 20.94754], [107.36678, 20.92932], [107.35474, 20.9248], [107.32659, 20.92911], [107.31805, 20.9344]]], [[[107.03853, 20.94764], [107.01938, 20.95421], [107.03126, 20.97435], [107.05119, 20.97658], [107.06218, 20.95812], [107.03853, 20.94764]]], [[[107.39503, 20.90351], [107.43703, 20.92332], [107.46064, 20.93815], [107.49171, 20.96491], [107.48904, 20.97606], [107.4924, 20.99125], [107.50474, 21.02015], [107.51979, 21.01337], [107.53272, 21.04058], [107.53272, 21.02017], [107.55205, 21.03812], [107.55835, 21.03473], [107.52882, 20.95091], [107.51172, 20.92399], [107.48163, 20.91258], [107.39503, 20.89728], [107.39503, 20.90351]]], [[[109.2732, 12.22126], [109.27321, 12.23553], [109.32838, 12.22125], [109.34213, 12.2132], [109.34888, 12.20083], [109.32838, 12.18717], [109.31658, 12.1975], [109.30047, 12.194], [109.30737, 12.18717], [109.28761, 12.18896], [109.25479, 12.21094], [109.2453, 12.22126], [109.2453, 12.22808], [109.2732, 12.22126]]], [[[109.38377, 12.56319], [109.34743, 12.58821], [109.33546, 12.60326], [109.31204, 12.61433], [109.32033, 12.62799], [109.3464, 12.63102], [109.38314, 12.62372], [109.40503, 12.57079], [109.40023, 12.55794], [109.38377, 12.56319]]], [[[109.36297, 13.60644], [109.35174, 13.611], [109.34345, 13.63226], [109.35906, 13.61895], [109.36297, 13.60644]]], [[[107.54957, 20.95612], [107.55323, 20.97234], [107.55936, 20.95849], [107.54517, 20.91914], [107.49781, 20.85318], [107.48462, 20.82173], [107.47722, 20.81453], [107.46389, 20.81412], [107.48024, 20.84951], [107.48194, 20.86538], [107.47072, 20.87678], [107.47072, 20.88299], [107.50563, 20.8874], [107.51612, 20.89566], [107.54957, 20.95612]]], [[[107.79281, 20.98604], [107.77296, 20.99225], [107.77799, 20.9726], [107.77075, 20.95723], [107.73831, 20.93767], [107.75717, 20.97102], [107.7588, 20.98261], [107.73765, 21.00324], [107.74513, 21.02016], [107.75786, 21.01664], [107.7928, 20.99225], [107.79281, 20.98604]]], [[[107.8256, 21.02478], [107.84214, 21.03558], [107.85628, 21.03326], [107.85278, 21.01993], [107.8274, 20.98909], [107.81773, 20.98828], [107.81659, 21.00584], [107.8256, 21.02478]]], [[[107.62806, 21.12006], [107.63208, 21.11884], [107.63184, 21.11197], [107.59596, 21.03913], [107.57959, 20.98315], [107.55944, 20.98603], [107.57008, 20.98994], [107.5669, 21.01675], [107.57008, 21.02668], [107.58416, 21.0397], [107.59425, 21.08906], [107.62806, 21.12006]]], [[[107.5359, 21.05691], [107.53473, 21.0521], [107.50725, 21.0391], [107.49694, 21.03905], [107.5302, 21.0707], [107.535, 21.06611], [107.53777, 21.06855], [107.53022, 21.081], [107.55316, 21.11375], [107.56731, 21.11192], [107.58178, 21.11758], [107.58114, 21.10232], [107.57268, 21.08414], [107.56243, 21.0795], [107.5616, 21.07307], [107.5359, 21.05691]]], [[[107.58168, 21.12927], [107.56593, 21.11685], [107.55919, 21.1229], [107.56707, 21.13494], [107.58349, 21.13746], [107.58168, 21.12927]]], [[[107.52662, 21.20799], [107.53273, 21.19892], [107.6062, 21.21743], [107.59048, 21.1932], [107.55738, 21.17178], [107.54712, 21.15674], [107.52418, 21.15998], [107.47071, 21.0959], [107.42286, 21.07477], [107.38868, 21.04753], [107.3729, 21.05956], [107.40268, 21.12757], [107.41832, 21.19667], [107.42508, 21.19674], [107.43531, 21.18928], [107.44103, 21.20311], [107.45021, 21.20515], [107.4458, 21.21228], [107.44652, 21.25287], [107.45533, 21.2757], [107.47136, 21.27447], [107.50473, 21.23924], [107.52319, 21.23085], [107.52662, 21.20799]]], [[[107.67409, 21.20599], [107.67945, 21.2109], [107.66389, 21.14542], [107.6583, 21.13945], [107.67409, 21.20599]]], [[[107.98096, 21.24221], [107.97966, 21.22945], [107.96185, 21.22888], [107.95364, 21.23363], [107.95461, 21.23956], [107.96885, 21.24431], [107.98096, 21.24221]]], [[[107.63802, 21.2586], [107.63851, 21.24918], [107.61524, 21.23299], [107.59948, 21.23778], [107.63802, 21.2586]]], [[[107.55535, 21.25735], [107.54209, 21.25904], [107.54412, 21.26561], [107.55746, 21.2722], [107.57276, 21.27317], [107.58789, 21.2615], [107.56105, 21.2522], [107.55535, 21.25735]]], [[[107.52525, 21.27473], [107.53313, 21.28539], [107.55705, 21.28155], [107.55388, 21.27554], [107.53244, 21.264], [107.52525, 21.27473]]], [[[107.67645, 21.28749], [107.70052, 21.29673], [107.69987, 21.29178], [107.66025, 21.26685], [107.67645, 21.28749]]], [[[107.79102, 21.29612], [107.79695, 21.29304], [107.77263, 21.28942], [107.75985, 21.28133], [107.7541, 21.28372], [107.75938, 21.29083], [107.79102, 21.29612]]], [[[107.80006, 21.36236], [107.81351, 21.36048], [107.8182, 21.35407], [107.81706, 21.34855], [107.71148, 21.30759], [107.72602, 21.32357], [107.80006, 21.36236]]], [[[107.82693, 21.3764], [107.86893, 21.39011], [107.99829, 21.40374], [107.9981, 21.39741], [107.94441, 21.36819], [107.93621, 21.37641], [107.92994, 21.37641], [107.84117, 21.34855], [107.84816, 21.37027], [107.85499, 21.35594], [107.87281, 21.37421], [107.85222, 21.37531], [107.82693, 21.37028], [107.82693, 21.3764]]], [[[108.17278, 21.54616], [108.1818, 21.54148], [108.1827, 21.53498], [108.17701, 21.53007], [108.12657, 21.52041], [108.16001, 21.54417], [108.17278, 21.54616]]], [[[108.57089, 21.77753], [108.57738, 21.77117], [108.57634, 21.75911], [108.56554, 21.77383], [108.57089, 21.77753]]]]}}]}