{"type": "FeatureCollection", "features": [{"type": "Feature", "properties": {"name": "아메리카 → 유럽", "category": "교역로", "period": "16~19세기", "legend": "설탕, 커피, 담배, 은", "goods": "설탕, 커피, 담배, 은", "from": "아메리카", "to": "유럽", "map_title": "대서양 삼각 무역의 전개", "source": "미래엔 세계사 교과서 2권 104쪽", "volume": 2, "page": 104}, "geometry": {"type": "LineString", "coordinates": [[-73.55229, 26.52473], [-72.97889, 26.90633], [-72.38175, 27.29628], [-71.13721, 28.0947], [-69.19929, 29.32142], [-67.22792, 30.55717], [-65.90839, 31.26534], [-63.93536, 32.31218], [-62.62678, 32.99989], [-60.02604, 34.35933], [-55.16514, 36.55719], [-53.77262, 37.18019], [-52.37589, 37.79699], [-50.90335, 38.34423], [-50.16474, 38.61473], [-48.68262, 39.14926], [-47.19389, 39.67538], [-46.44715, 39.93548], [-44.94937, 40.45025], [-44.19861, 40.70513], [-43.42467, 40.92168], [-40.32288, 41.77862], [-35.67067, 43.0454], [-33.32912, 43.55054], [-30.9985, 44.05935], [-28.68225, 44.57371], [-27.14804, 44.92066], [-24.88251, 45.30952], [-23.38723, 45.57695], [-22.64492, 45.71345], [-21.17265, 45.99269], [-20.44347, 46.13573], [-19.00131, 46.4296], [-18.23842, 46.53889], [-17.48358, 46.65251], [-16.73759, 46.77087], [-16.00128, 46.89446], [-15.27544, 47.02384], [-14.56082, 47.15964], [-13.85796, 47.30255], [-13.16709, 47.45324], [-12.48798, 47.61221], [-11.81963, 47.77944], [-11.17009, 47.72263]]}}, {"type": "Feature", "properties": {"name": "유럽 → 아프리카", "category": "교역로", "period": "16~19세기", "legend": "직물, 술, 무기", "goods": "직물, 술, 무기", "from": "유럽", "to": "아프리카", "map_title": "대서양 삼각 무역의 전개", "source": "미래엔 세계사 교과서 2권 104쪽", "volume": 2, "page": 104}, "geometry": {"type": "LineString", "coordinates": [[-8.45435, 39.40023], [-9.19966, 39.17873], [-9.94183, 38.94478], [-10.67878, 38.69873], [-11.38889, 38.39141], [-12.09334, 38.07777], [-12.79511, 37.7602], [-14.80624, 36.64313], [-16.7173, 35.37124], [-18.51078, 33.94617], [-20.16023, 32.36093], [-21.14905, 31.19272], [-21.64102, 30.60642], [-22.5035, 29.31992], [-22.93089, 28.67321], [-23.24251, 27.92167], [-23.55011, 27.16663], [-23.85341, 26.40792], [-23.9659, 25.58248], [-24.07333, 24.75269], [-24.17565, 23.91847], [-24.11757, 23.04023], [-23.98915, 21.26949], [-23.70211, 19.90617], [-23.42229, 18.53458], [-23.22009, 17.85305], [-23.02471, 17.17063], [-22.83653, 16.48772], [-22.65509, 15.8046], [-22.43201, 15.14611], [-22.21351, 14.4873], [-21.78702, 13.16771], [-21.15205, 11.51786], [-20.82216, 10.68945], [-20.47363, 9.94345], [-20.10668, 9.19656], [-19.72029, 8.44998], [-19.10063, 7.56719], [-18.4584, 6.68946], [-17.65827, 5.95502], [-16.8505, 5.22773], [-14.99596, 4.04271], [-13.98543, 3.56987], [-12.992, 3.0944], [-12.29101, 2.84614], [-11.5978, 2.5952], [-10.91079, 2.34186], [-8.78511, 1.76681], [-8.06972, 1.63702], [-7.35539, 1.51525], [-6.63954, 1.40419], [-5.92509, 1.35483], [-4.4758, 1.26594], [-3.55049, 1.25872]]}}, {"type": "Feature", "properties": {"name": "아프리카 → 아메리카", "category": "교역로", "period": "16~19세기", "legend": "노예(300년간 약 1,500만 명)", "goods": "노예(300년간 약 1,500만 명)", "from": "아프리카", "to": "아메리카", "map_title": "대서양 삼각 무역의 전개", "source": "미래엔 세계사 교과서 2권 104쪽", "volume": 2, "page": 104}, "geometry": {"type": "LineString", "coordinates": [[-3.96401, -8.04621], [-4.78732, -7.96849], [-5.61141, -7.89588], [-6.4362, -7.82824], [-7.26171, -7.76542], [-8.08798, -7.70723], [-9.61437, -7.46148], [-10.37851, -7.34431], [-11.90895, -7.12077], [-12.8041, -6.90304], [-13.70006, -6.69013], [-14.5968, -6.48182], [-15.49419, -6.27793], [-17.19992, -5.72225], [-18.90478, -5.18147], [-20.55255, -4.50488], [-22.19329, -3.84021], [-25.40779, -2.26708], [-28.60525, -0.47499], [-30.5685, 0.73176], [-31.87692, 1.54129], [-34.2587, 3.18632], [-36.56551, 4.99271], [-38.80126, 6.92392], [-39.8828, 7.93352], [-40.96071, 8.94533], [-42.01069, 9.98271], [-43.05429, 11.02239], [-44.08177, 12.07306], [-47.13897, 15.2281], [-49.20336, 17.28705], [-51.30223, 19.12796], [-53.30696, 20.49957], [-55.26527, 21.455], [-57.22436, 22.04632], [-59.23221, 22.32298], [-61.33825, 22.333], [-63.59431, 22.1303], [-64.41362, 22.01324], [-65.23549, 21.90608], [-66.06147, 21.81727], [-66.50467, 22.26899]]}}]}