{"type": "FeatureCollection", "features": [{"type": "Feature", "properties": {"name": "노예 무역 지역", "name_en": "Slave-trade region", "category": "기타", "year": null, "coord_source": "지도 판독", "map_lon": 5.92276, "map_lat": 3.49596, "legend": "노예 무역 지역", "map_title": "대서양 삼각 무역의 전개", "source": "미래엔 세계사 교과서 2권 104쪽", "volume": 2, "page": 104}, "geometry": {"type": "Point", "coordinates": [5.92276, 3.49596]}}, {"type": "Feature", "properties": {"name": "유럽", "name_en": "Europe", "category": "기타", "year": null, "coord_source": "실제 위치(대륙 대표점)", "map_lon": 9.92402, "map_lat": 56.02327, "legend": "유럽", "map_title": "대서양 삼각 무역의 전개", "source": "미래엔 세계사 교과서 2권 104쪽", "volume": 2, "page": 104}, "geometry": {"type": "Point", "coordinates": [9.50578, 49.98531]}}, {"type": "Feature", "properties": {"name": "아프리카", "name_en": "Africa", "category": "기타", "year": null, "coord_source": "실제 위치(대륙 대표점)", "map_lon": 8.78092, "map_lat": 16.57429, "legend": "아프리카", "map_title": "대서양 삼각 무역의 전개", "source": "미래엔 세계사 교과서 2권 104쪽", "volume": 2, "page": 104}, "geometry": {"type": "Point", "coordinates": [4.89493, 7.72114]}}, {"type": "Feature", "properties": {"name": "아메리카", "name_en": "Americas", "category": "기타", "year": null, "coord_source": "실제 위치(대륙 대표점)", "map_lon": -85.71031, "map_lat": 30.56278, "legend": "아메리카", "map_title": "대서양 삼각 무역의 전개", "source": "미래엔 세계사 교과서 2권 104쪽", "volume": 2, "page": 104}, "geometry": {"type": "Point", "coordinates": [-80.19315, 22.817]}}]}