{"type": "FeatureCollection", "features": [{"type": "Feature", "properties": {"name": "리비아", "name_en": "Libya", "period": "1913년경", "kind": "식민지", "legend": "리비아", "map_title": "제국주의 열강의 아프리카 분할(1913년경)", "source": "미래엔 세계사 교과서 3권 156쪽", "volume": 3, "page": 156, "note": "이탈리아령", "coast_snap": "Natural Earth 10m 해안선에 맞춤", "border_snap": "현대 국경(Natural Earth 10m)에 맞춘 구간 약 3612 km", "group": "리비아", "map_folder": "3권_p156_제국주의 열강의 아프리카 분할(1913년경)"}, "geometry": {"type": "MultiPolygon", "coordinates": [[[[8.73984, 26.74191], [9.25796, 27.10949], [9.27907, 27.19525], [9.72135, 27.29188], [9.72187, 27.30846], [9.74305, 27.36412], [9.75628, 27.42303], [9.31483, 27.53344], [9.11433, 27.93169], [9.36572, 28.49419], [9.16685, 28.88072], [9.18439, 29.53659], [9.58728, 29.74062], [9.54968, 29.80232], [9.42173, 29.96871], [9.31, 30.08437], [9.28654, 30.11713], [8.89008, 30.34492], [8.64611, 30.69686], [8.88781, 30.78991], [9.35148, 30.88185], [9.07646, 31.9493], [9.53975, 32.04045], [9.93056, 32.24815], [10.08167, 32.47426], [10.99663, 32.79785], [10.99727, 32.80701], [10.92814, 32.92033], [10.87386, 32.96019], [10.84506, 32.98768], [10.74172, 33.11536], [10.65447, 33.12516], [10.59037, 33.14001], [10.56604, 33.14764], [10.55666, 33.16723], [10.5447, 33.2016], [10.53322, 33.27111], [10.5336, 33.30687], [10.54661, 33.37611], [10.55936, 33.4102], [10.59581, 33.4732], [10.61985, 33.50268], [10.67648, 33.55382], [10.67408, 33.5456], [10.67994, 33.52985], [10.71713, 33.48355], [10.73813, 33.47801], [10.78053, 33.48574], [10.85622, 33.52431], [10.90943, 33.53962], [10.92514, 33.55508], [10.93279, 33.57404], [10.92628, 33.59125], [10.9092, 33.60786], [10.90652, 33.61644], [10.93621, 33.63628], [10.96062, 33.62767], [10.97145, 33.6319], [10.97788, 33.64312], [10.98479, 33.64303], [11.0603, 33.60833], [11.10815, 33.54962], [11.11661, 33.48998], [11.08993, 33.45415], [11.11077, 33.39297], [11.10207, 33.36408], [11.13111, 33.37151], [11.17067, 33.33177], [11.29369, 33.28681], [11.28004, 33.28003], [11.1819, 33.30679], [11.13364, 33.31143], [11.12184, 33.28002], [11.16333, 33.24262], [11.17018, 33.22101], [11.17954, 33.21109], [11.24563, 33.21787], [11.2882, 33.21], [11.37224, 33.18378], [11.41676, 33.18378], [11.43312, 33.19355], [11.42758, 33.20702], [11.41065, 33.21894], [11.38137, 33.23071], [11.35197, 33.25881], [11.44239, 33.20466], [11.49781, 33.18268], [11.56047, 33.16579], [11.57495, 33.15794], [11.58766, 33.13231], [11.60304, 33.12149], [11.63575, 33.10871], [11.7566, 33.09252], [11.79347, 33.08076], [11.77296, 33.09935], [11.70778, 33.11718], [11.69113, 33.13594], [11.73927, 33.11298], [11.84701, 33.08282], [12.08047, 32.95798], [12.12241, 32.92133], [12.16065, 32.91168], [12.22486, 32.87592], [12.30388, 32.84308], [12.34832, 32.83267], [12.72983, 32.79857], [12.82439, 32.80435], [13.07447, 32.86636], [13.11549, 32.88215], [13.16497, 32.91278], [13.25709, 32.91863], [13.3515, 32.90428], [13.57146, 32.8028], [13.61695, 32.7934], [13.78686, 32.79962], [13.82997, 32.79414], [13.91498, 32.77285], [13.99122, 32.74457], [14.18508, 32.71458], [14.20338, 32.70034], [14.22632, 32.6909], [14.26246, 32.6603], [14.31743, 32.63023], [14.40384, 32.567], [14.44939, 32.52538], [14.46949, 32.51903], [14.6316, 32.49566], [14.66293, 32.47675], [14.72682, 32.45075], [14.91149, 32.44386], [15.11453, 32.41282], [15.19574, 32.38989], [15.23325, 32.34711], [15.2697, 32.32884], [15.28304, 32.31728], [15.30079, 32.26081], [15.3226, 32.22419], [15.3646, 32.17449], [15.37043, 32.15887], [15.35963, 32.10212], [15.35524, 32.03852], [15.36109, 31.96532], [15.37045, 31.92939], [15.49041, 31.66486], [15.51442, 31.62836], [15.62281, 31.49726], [15.68751, 31.43781], [15.76148, 31.38813], [16.04461, 31.27554], [16.35865, 31.22712], [16.72804, 31.22381], [16.94162, 31.18335], [17.16033, 31.1188], [17.33058, 31.08649], [17.36589, 31.0866], [17.41862, 31.06215], [17.44728, 31.03872], [17.46681, 31.02998], [17.61394, 30.99249], [17.69174, 30.95966], [17.77605, 30.93521], [17.84864, 30.92364], [17.86166, 30.91364], [17.88917, 30.87792], [17.90748, 30.86351], [17.92677, 30.85517], [18.0172, 30.83776], [18.1751, 30.78615], [18.20833, 30.76922], [18.23587, 30.74663], [18.32423, 30.65689], [18.45681, 30.57183], [18.41672, 30.49376], [18.36833, 30.43735], [18.31907, 30.39331], [18.39258, 30.33129], [18.47307, 30.27952], [18.48397, 30.28411], [18.50269, 30.32337], [18.54513, 30.38325], [18.57173, 30.4107], [18.62022, 30.44878], [18.65317, 30.42231], [18.71925, 30.39151], [18.76099, 30.38422], [18.78024, 30.37604], [18.92595, 30.29336], [18.96803, 30.27774], [19.05681, 30.26618], [19.14601, 30.26472], [19.23976, 30.27399], [19.33855, 30.29881], [19.41896, 30.33324], [19.53053, 30.39679], [19.55104, 30.40493], [19.59604, 30.41201], [19.61638, 30.42137], [19.74887, 30.51093], [19.91432, 30.68293], [19.9822, 30.77863], [20.03647, 30.81908], [20.09986, 30.935], [20.14666, 31.04556], [20.15235, 31.0882], [20.14666, 31.21678], [20.12812, 31.24299], [20.10328, 31.30874], [20.0822, 31.33662], [20.03835, 31.37589], [20.02212, 31.39705], [19.95486, 31.55948], [19.94801, 31.64509], [19.92065, 31.71796], [19.91973, 31.8049], [19.93434, 31.88841], [19.94801, 31.92597], [19.94013, 31.95775], [20.04823, 32.14633], [20.07173, 32.17658], [20.26173, 32.33954], [20.32546, 32.40981], [20.38551, 32.43464], [20.56268, 32.55784], [20.79656, 32.64301], [20.9338, 32.72243], [21.05096, 32.77227], [21.09669, 32.78106], [21.28679, 32.77114], [21.33188, 32.77464], [21.41481, 32.7934], [21.4546, 32.81257], [21.60847, 32.93059], [21.62322, 32.93674], [21.67172, 32.93989], [21.71632, 32.95037], [21.74366, 32.93085], [21.78745, 32.91596], [21.87745, 32.90322], [22.0962, 32.92308], [22.11672, 32.94415], [22.14958, 32.94793], [22.16943, 32.93821], [22.17506, 32.91625], [22.2068, 32.88813], [22.24733, 32.88085], [22.33983, 32.88208], [22.37915, 32.87034], [22.47731, 32.80707], [22.51384, 32.79096], [22.57915, 32.78454], [22.81251, 32.7245], [22.86671, 32.69416], [22.92921, 32.6767], [22.9769, 32.67669], [23.04135, 32.65253], [23.10612, 32.63983], [23.11865, 32.62934], [23.12093, 32.61522], [23.09441, 32.57738], [23.10385, 32.51634], [23.11329, 32.5008], [23.14892, 32.47809], [23.12842, 32.39551], [23.10866, 32.40234], [23.10987, 32.42032], [23.09441, 32.43647], [23.07911, 32.35444], [23.08058, 32.33405], [23.09555, 32.32355], [23.17896, 32.29995], [23.19507, 32.29164], [23.23065, 32.25085], [23.2435, 32.22061], [23.28543, 32.20374], [23.3025, 32.17072], [23.31218, 32.16275], [23.2991, 32.22417], [23.31837, 32.21784], [23.36222, 32.21703], [23.40528, 32.19066], [23.5311, 32.18138], [23.66969, 32.18325], [23.84014, 32.14916], [23.99869, 32.0939], [23.97071, 32.0666], [24.00489, 32.05292], [24.06788, 32.01118], [24.09067, 32.00576], [24.28115, 32.00754], [24.54607, 31.99144], [24.63624, 32.01488], [24.67026, 32.03241], [24.71062, 32.02558], [24.73373, 32.03314], [24.79176, 32.00776], [24.82439, 32.00299], [24.86541, 31.98933], [24.98169, 31.96791], [25.0179, 31.94903], [25.03336, 31.91633], [25.02223, 31.85468], [25.02955, 31.8369], [25.06392, 31.80387], [25.11686, 31.73798], [25.13673, 31.69257], [25.15625, 31.66307], [25.15279, 31.65588], [25.08842, 31.61352], [25.06041, 31.57937], [25.02372, 31.49441], [24.86125, 31.38036], [24.84895, 31.34863], [24.84864, 31.31204], [24.85856, 31.22791], [24.85949, 31.14596], [24.88265, 31.03909], [24.88957, 31.01883], [24.92461, 30.95677], [24.93763, 30.90576], [24.98124, 30.82541], [24.99489, 30.7851], [24.98858, 30.75058], [24.9736, 30.71627], [24.96119, 30.67627], [24.95065, 30.62123], [24.92037, 30.55235], [24.90766, 30.49866], [24.88812, 30.46434], [24.82973, 30.38755], [24.79945, 30.36084], [24.76286, 30.31707], [24.74612, 30.28275], [24.70467, 30.2179], [24.68865, 30.18276], [24.68834, 30.14416], [24.69733, 30.12261], [24.72555, 30.07837], [24.81164, 29.89089], [24.81619, 29.86841], [24.81495, 29.84857], [24.79821, 29.79643], [24.80492, 29.7548], [24.85619, 29.67948], [24.87066, 29.63835], [24.87055, 29.61401], [24.86156, 29.54156], [24.86384, 29.5029], [24.87376, 29.46833], [24.95665, 29.29268], [24.97432, 29.23894], [24.98125, 29.18137], [24.98124, 25.20488], [25.43129, 25.18777], [25.46365, 25.07227], [25.4695, 25.02923], [25.46992, 24.98652], [25.45161, 24.89999], [25.42733, 24.85303], [24.98123, 24.83871], [24.98123, 22.07822], [25.06812, 22.06], [25.07349, 21.91667], [24.98124, 21.8991], [24.98052, 20.00206], [24.9768, 19.99596], [24.96802, 19.99496], [23.98131, 19.99542], [23.9813, 19.94998], [23.55123, 19.70857], [15.9851, 23.44472], [15.96464, 23.44221], [14.99746, 23.00382], [14.66267, 22.83549], [14.43523, 23.18369], [14.27905, 23.10954], [13.97873, 22.8068], [13.59956, 23.11903], [13.48226, 23.17967], [12.1112, 23.48555], [11.90229, 23.64159], [11.56713, 24.26684], [11.54139, 24.29751], [11.50863, 24.31381], [10.72067, 24.5523], [10.69907, 24.55612], [10.67736, 24.55385], [10.45019, 24.47693], [10.41051, 24.47329], [10.3918, 24.47998], [10.26033, 24.57664], [10.24225, 24.59511], [10.22974, 24.62995], [10.21217, 24.72286], [10.19336, 24.74994], [10.04453, 24.82962], [10.03203, 24.85634], [10.02138, 25.26802], [10.00795, 25.33143], [9.9695, 25.3954], [9.89552, 25.48902], [9.51961, 25.26527], [9.45308, 25.32848], [9.45248, 25.34603], [9.81029, 25.59662], [9.40116, 26.11339], [9.3778, 26.16895], [9.40251, 26.21618], [8.99577, 26.42361], [8.73984, 26.74191]]], [[[25.56579, 31.54324], [25.55741, 31.52753], [25.53332, 31.53521], [25.54741, 31.5387], [25.56579, 31.54324]]]]}}, {"type": "Feature", "properties": {"name": "리비아", "name_en": "Libya", "period": "1914년", "kind": "식민지", "level": "개별 지역", "colonizer": "이탈리아령", "legend": "리비아", "map_title": "아프리카의 저항 운동", "source": "미래엔 세계사 교과서 3권 173쪽", "volume": 3, "page": 173, "coast_snap": "Natural Earth 10m 해안선에 맞춤", "border_snap": "현대 국경(Natural Earth 10m)에 맞춘 구간 약 3106 km", "group": "리비아", "map_folder": "3권_p173_아프리카의 저항 운동"}, "geometry": {"type": "MultiPolygon", "coordinates": [[[[10.95846, 32.90395], [10.9409, 32.94185], [10.92325, 33.01044], [10.92043, 33.04614], [10.9448, 33.321], [10.95341, 33.3694], [10.97167, 33.43123], [11.00434, 33.49434], [11.05116, 33.55136], [11.08433, 33.58051], [11.10824, 33.54942], [11.1166, 33.49018], [11.08993, 33.45415], [11.11077, 33.39297], [11.10207, 33.36408], [11.13111, 33.37151], [11.17066, 33.33177], [11.29369, 33.28681], [11.28004, 33.28003], [11.1819, 33.30679], [11.13364, 33.31143], [11.12184, 33.28002], [11.16333, 33.24262], [11.17018, 33.22101], [11.17954, 33.21109], [11.24563, 33.21787], [11.2882, 33.21], [11.37224, 33.18378], [11.41676, 33.18378], [11.43312, 33.19355], [11.42758, 33.20702], [11.41066, 33.21894], [11.38137, 33.23071], [11.35197, 33.25881], [11.44239, 33.20466], [11.49781, 33.18268], [11.56047, 33.16579], [11.57495, 33.15794], [11.58766, 33.13231], [11.60304, 33.12149], [11.63575, 33.10871], [11.7566, 33.09252], [11.79347, 33.08076], [11.77296, 33.09935], [11.70778, 33.11718], [11.69113, 33.13594], [11.73927, 33.11298], [11.84701, 33.08282], [12.08047, 32.95798], [12.12241, 32.92133], [12.16065, 32.91168], [12.22486, 32.87592], [12.30388, 32.84309], [12.34832, 32.83267], [12.72983, 32.79857], [12.82439, 32.80435], [13.07447, 32.86636], [13.11549, 32.88215], [13.16497, 32.91278], [13.25709, 32.91863], [13.3515, 32.90428], [13.57146, 32.8028], [13.61695, 32.7934], [13.78686, 32.79962], [13.82997, 32.79414], [13.91498, 32.77285], [13.99122, 32.74457], [14.18508, 32.71458], [14.20338, 32.70034], [14.22632, 32.6909], [14.26246, 32.6603], [14.31743, 32.63023], [14.40384, 32.567], [14.44939, 32.52538], [14.46949, 32.51903], [14.6316, 32.49566], [14.66293, 32.47675], [14.72682, 32.45075], [14.91149, 32.44386], [15.11453, 32.41282], [15.19574, 32.38989], [15.23325, 32.34711], [15.2697, 32.32884], [15.28304, 32.31728], [15.30079, 32.26081], [15.3226, 32.22419], [15.3646, 32.17449], [15.37043, 32.15887], [15.35963, 32.10212], [15.35524, 32.03852], [15.36109, 31.96532], [15.37045, 31.92939], [15.49041, 31.66486], [15.51442, 31.62836], [15.62281, 31.49726], [15.68751, 31.43781], [15.76148, 31.38813], [16.04461, 31.27554], [16.35865, 31.22712], [16.72804, 31.22381], [16.94162, 31.18335], [17.16033, 31.1188], [17.33058, 31.08649], [17.36589, 31.0866], [17.41862, 31.06215], [17.44728, 31.03872], [17.46681, 31.02998], [17.61394, 30.99249], [17.69174, 30.95966], [17.77605, 30.93521], [17.84864, 30.92364], [17.86166, 30.91364], [17.88917, 30.87792], [17.90748, 30.86351], [17.92677, 30.85517], [18.0172, 30.83776], [18.1751, 30.78615], [18.20833, 30.76922], [18.23587, 30.74663], [18.32423, 30.65689], [18.56815, 30.50021], [18.6233, 30.44575], [18.65317, 30.42231], [18.71925, 30.39151], [18.76099, 30.38422], [18.78024, 30.37604], [18.92595, 30.29336], [18.96803, 30.27774], [19.05681, 30.26618], [19.14601, 30.26472], [19.23976, 30.27399], [19.33855, 30.29881], [19.41896, 30.33324], [19.53053, 30.39679], [19.55104, 30.40493], [19.59604, 30.41201], [19.61638, 30.42137], [19.74887, 30.51093], [19.91432, 30.68293], [19.98205, 30.77846], [20.03647, 30.81908], [20.09986, 30.935], [20.14666, 31.04556], [20.15235, 31.0882], [20.14666, 31.21678], [20.12812, 31.24299], [20.10328, 31.30874], [20.08221, 31.33662], [20.03835, 31.37589], [20.02212, 31.39705], [19.95486, 31.55948], [19.94801, 31.64509], [19.92068, 31.71772], [19.91727, 31.75896], [19.91973, 31.8049], [19.93431, 31.88824], [19.94801, 31.92597], [19.94013, 31.95775], [20.04787, 32.14578], [20.07155, 32.17641], [20.26173, 32.33954], [20.32546, 32.40981], [20.38551, 32.43464], [20.56268, 32.55784], [20.79656, 32.64301], [20.9338, 32.72243], [21.05096, 32.77227], [21.09669, 32.78106], [21.28679, 32.77114], [21.33188, 32.77464], [21.41481, 32.7934], [21.4546, 32.81257], [21.60847, 32.93059], [21.62322, 32.93674], [21.67172, 32.93989], [21.71632, 32.95037], [21.74366, 32.93085], [21.78745, 32.91596], [21.87745, 32.90322], [22.0962, 32.92308], [22.11672, 32.94415], [22.14958, 32.94793], [22.16943, 32.93821], [22.17506, 32.91625], [22.2068, 32.88813], [22.24733, 32.88084], [22.33983, 32.88208], [22.37915, 32.87034], [22.47731, 32.80707], [22.51385, 32.79096], [22.57915, 32.78454], [22.81251, 32.7245], [22.86671, 32.69416], [22.92921, 32.6767], [22.9769, 32.67669], [23.04135, 32.65253], [23.10612, 32.63983], [23.11865, 32.62934], [23.12093, 32.61522], [23.09441, 32.57738], [23.10385, 32.51634], [23.11329, 32.5008], [23.14892, 32.47809], [23.12842, 32.39551], [23.10866, 32.40234], [23.10987, 32.42032], [23.09441, 32.43647], [23.07911, 32.35444], [23.08058, 32.33405], [23.09555, 32.32355], [23.17896, 32.29995], [23.19507, 32.29164], [23.23065, 32.25085], [23.2435, 32.22061], [23.28543, 32.20374], [23.3025, 32.17072], [23.31219, 32.16275], [23.2991, 32.22417], [23.31837, 32.21784], [23.36222, 32.21703], [23.40528, 32.19066], [23.5311, 32.18138], [23.66969, 32.18325], [23.84014, 32.14916], [23.99869, 32.0939], [23.97071, 32.0666], [24.00489, 32.05292], [24.06788, 32.01118], [24.09067, 32.00576], [24.28115, 32.00754], [24.54607, 31.99144], [24.63624, 32.01488], [24.67026, 32.03241], [24.71062, 32.02558], [24.73373, 32.03314], [24.79176, 32.00776], [24.82439, 32.00299], [24.86541, 31.98933], [24.98195, 31.96779], [25.0179, 31.94903], [25.03336, 31.91633], [25.02223, 31.85468], [25.02955, 31.8369], [25.06392, 31.80387], [25.11686, 31.73798], [25.13673, 31.69257], [25.15625, 31.66307], [25.14942, 31.64887], [25.15224, 31.634], [25.13765, 31.64738], [25.08842, 31.61352], [25.06041, 31.57937], [25.02372, 31.49441], [24.86125, 31.38036], [24.84895, 31.34863], [24.84864, 31.31204], [24.85857, 31.22791], [24.85949, 31.14596], [24.88265, 31.03909], [24.88957, 31.01883], [24.92461, 30.95677], [24.93763, 30.90576], [24.98125, 30.82541], [24.99489, 30.7851], [24.98858, 30.75058], [24.9736, 30.71627], [24.96119, 30.67627], [24.95065, 30.62123], [24.92037, 30.55235], [24.90766, 30.49866], [24.88812, 30.46434], [24.82973, 30.38755], [24.79945, 30.36084], [24.76286, 30.31707], [24.74612, 30.28275], [24.70467, 30.2179], [24.68865, 30.18276], [24.68834, 30.14416], [24.69733, 30.12261], [24.72555, 30.07837], [24.81164, 29.89089], [24.81619, 29.86841], [24.81495, 29.84857], [24.79821, 29.79643], [24.80492, 29.7548], [24.85619, 29.67948], [24.87066, 29.63835], [24.87055, 29.61401], [24.86156, 29.54156], [24.86384, 29.5029], [24.87376, 29.46833], [24.95665, 29.29268], [24.97432, 29.23894], [24.98125, 29.18137], [24.98124, 26.35405], [25.43638, 26.34044], [25.49695, 26.28119], [25.52259, 26.24365], [25.54148, 26.19799], [25.55694, 26.12799], [25.69671, 25.23522], [25.71285, 25.11961], [25.72064, 25.01263], [25.71486, 24.90307], [25.69985, 24.83162], [25.66312, 24.74129], [25.62073, 24.67483], [25.54929, 24.5939], [25.49325, 24.54355], [25.42506, 24.49227], [24.98123, 24.4836], [24.98123, 22.18677], [25.17268, 22.16926], [25.1699, 22.1526], [25.14591, 22.10829], [25.10733, 22.07169], [25.05886, 22.04766], [24.98124, 22.04124], [24.98124, 22.0245], [24.54183, 22.0248], [23.96448, 22.00641], [22.88723, 21.96568], [21.81071, 21.91665], [21.02273, 21.89183], [20.1402, 21.85947], [19.92052, 21.50136], [15.9851, 23.44472], [15.96464, 23.44221], [15.93003, 23.4265], [15.72355, 23.78915], [15.3415, 23.61223], [15.51762, 23.23955], [14.98114, 22.99623], [14.77043, 23.34493], [14.28777, 23.11635], [13.98007, 22.80569], [13.59956, 23.11903], [13.48226, 23.17967], [12.14613, 23.47776], [11.89129, 23.66208], [11.56713, 24.26684], [11.54139, 24.29751], [11.50863, 24.31381], [10.72067, 24.5523], [10.69907, 24.55613], [10.6667, 24.96222], [10.53885, 25.00907], [10.19336, 24.74994], [10.04453, 24.82962], [10.03203, 24.85634], [10.02138, 25.26802], [10.00795, 25.33143], [9.9695, 25.3954], [9.40116, 26.11339], [9.3778, 26.16895], [9.40251, 26.21618], [9.41646, 26.23225], [9.43475, 26.27199], [9.46886, 26.30103], [9.47764, 26.31555], [9.4826, 26.35255], [9.11534, 26.60835], [9.10763, 26.62249], [9.09971, 26.65423], [9.09853, 26.68587], [9.10873, 26.73208], [9.1236, 26.76133], [9.1439, 26.78694], [9.35789, 26.94134], [9.79506, 27.05996], [9.72135, 27.29188], [9.72187, 27.30846], [9.74305, 27.36412], [9.75628, 27.42303], [9.77054, 27.44422], [9.81364, 27.48649], [9.8216, 27.50569], [9.79711, 27.54891], [9.7939, 27.56974], [9.43129, 27.81682], [9.42316, 27.86481], [9.42934, 27.9073], [9.85223, 28.06346], [9.78987, 28.20944], [9.77695, 28.26758], [9.85126, 28.786], [9.84827, 28.97573], [9.82615, 29.12853], [9.66771, 29.60832], [9.54968, 29.80232], [9.42173, 29.96871], [9.31001, 30.08437], [9.28654, 30.11713], [9.35259, 30.14885], [9.47686, 30.39548], [9.34964, 30.88898], [10.24059, 31.02116], [10.24617, 31.05955], [10.24483, 31.07816], [10.21321, 31.13536], [10.18272, 31.24078], [10.1081, 31.41183], [10.10623, 31.42919], [10.11688, 31.49441], [10.13259, 31.51756], [10.19646, 31.57859], [10.26395, 31.6805], [10.31542, 31.71584], [10.42777, 31.7146], [10.48254, 31.7331], [10.49887, 31.74432], [10.52554, 31.77207], [10.54238, 31.80664], [10.58455, 31.84028], [10.59758, 31.87351], [10.60595, 31.95361], [10.62848, 31.97412], [10.64729, 31.97195], [10.68356, 31.95702], [10.7031, 31.96218], [10.73659, 31.98539], [10.77286, 32.00451], [10.80562, 32.03236], [10.84593, 32.11179], [10.87322, 32.1367], [11.44404, 32.36849], [11.5139, 32.408], [11.54635, 32.43427], [11.56413, 32.46549], [11.56062, 32.50758], [11.53736, 32.54352], [11.47039, 32.59928], [11.44993, 32.63796], [11.4492, 32.69302], [11.46378, 32.79846], [11.45654, 32.9021], [10.95846, 32.90395]]], [[[25.30209, 31.50654], [25.31558, 31.50645], [25.30462, 31.49388], [25.28049, 31.51611], [25.30209, 31.50654]]]]}}]}