{"type": "FeatureCollection", "features": [{"type": "Feature", "properties": {"map_title": "명·청대의 산업과 상업", "source": "미래엔 세계사 교과서 3권 121쪽", "volume": 3, "page": 121, "name": "산업 및 상업 중심지", "name_en": "Industrial and commercial centers", "period": "명·청대", "kind": "기타", "legend": "산업 및 상업 중심지", "coast_snap": "Natural Earth 10m 해안선에 맞춤"}, "geometry": {"type": "MultiPolygon", "coordinates": [[[[113.22585, 21.90083], [113.2217, 21.91413], [113.23171, 21.93447], [113.25766, 21.94659], [113.26782, 21.9433], [113.28564, 21.91812], [113.26788, 21.88665], [113.25847, 21.88045], [113.22585, 21.90083]]], [[[113.77586, 21.98607], [113.76447, 21.96683], [113.74821, 21.9728], [113.73629, 21.99715], [113.77174, 22.00033], [113.77586, 21.98607]]], [[[113.1828, 21.96049], [113.18004, 21.97077], [113.19239, 22.03376], [113.20004, 22.03844], [113.24907, 22.03837], [113.23951, 22.0233], [113.24902, 22.00476], [113.22332, 22.00056], [113.20159, 21.98876], [113.19613, 21.9672], [113.18816, 21.96], [113.1828, 21.96049]]], [[[113.41259, 22.07598], [113.41032, 22.06355], [113.39145, 22.02753], [113.40161, 22.01845], [113.40575, 22.00704], [113.3235, 22.01196], [113.30943, 22.02412], [113.3436, 22.0685], [113.37273, 22.08015], [113.37778, 22.08901], [113.38266, 22.08957], [113.3899, 22.07469], [113.39894, 22.06851], [113.41259, 22.07598]]], [[[113.52711, 22.12587], [113.53272, 22.12031], [113.52711, 22.10611], [113.53256, 22.09536], [113.54747, 22.09242], [113.5389, 22.08211], [113.48493, 22.0714], [113.47024, 22.07763], [113.47348, 22.09854], [113.466, 22.10152], [113.46487, 22.10814], [113.47175, 22.11414], [113.51889, 22.12725], [113.52711, 22.12587]]], [[[113.31513, 22.15408], [113.32308, 22.15789], [113.32797, 22.14582], [113.34722, 22.15644], [113.36474, 22.1579], [113.33632, 22.10071], [113.31364, 22.07641], [113.28907, 22.06852], [113.26881, 22.08832], [113.26417, 22.10493], [113.27174, 22.12002], [113.29868, 22.12857], [113.31513, 22.15408]]], [[[113.58594, 22.13193], [113.58748, 22.12487], [113.57748, 22.12665], [113.57797, 22.12093], [113.57404, 22.11938], [113.56674, 22.12336], [113.56632, 22.1077], [113.55738, 22.11115], [113.5468, 22.10537], [113.54111, 22.11327], [113.54526, 22.11424], [113.54233, 22.14073], [113.53225, 22.15253], [113.53445, 22.1612], [113.57406, 22.16074], [113.56023, 22.14155], [113.57252, 22.13731], [113.57796, 22.13963], [113.57488, 22.13504], [113.58594, 22.13193]]], [[[113.93583, 22.07851], [113.93833, 22.09248], [113.96006, 22.12807], [113.98426, 22.15887], [114.00241, 22.17397], [114.0643, 22.21038], [114.09036, 22.20356], [114.09689, 22.197], [114.07262, 22.13707], [114.05368, 22.10828], [114.0353, 22.08976], [114.00914, 22.07742], [113.97906, 22.07102], [113.95222, 22.07114], [113.93583, 22.07851]]], [[[113.9891, 22.18652], [113.97757, 22.19343], [113.98763, 22.19896], [113.9891, 22.18652]]], [[[113.52019, 22.18488], [113.53525, 22.20755], [113.5337, 22.21076], [113.52735, 22.20755], [113.52434, 22.21255], [113.53525, 22.21463], [113.53891, 22.22077], [113.55378, 22.21151], [113.5568, 22.20356], [113.54843, 22.20205], [113.55071, 22.19896], [113.55712, 22.20245], [113.55071, 22.19587], [113.55151, 22.18957], [113.52476, 22.17374], [113.52019, 22.18488]]], [[[114.0345, 22.20522], [114.03142, 22.19588], [114.02678, 22.19896], [114.01581, 22.1919], [114.015, 22.19818], [114.02236, 22.2067], [114.0345, 22.20522]]], [[[114.13909, 22.19111], [114.14534, 22.17871], [114.11087, 22.17708], [114.11411, 22.21613], [114.10427, 22.21598], [114.10669, 22.23538], [114.11328, 22.23334], [114.12574, 22.21345], [114.13281, 22.21612], [114.13282, 22.20995], [114.12574, 22.20523], [114.15461, 22.2036], [114.13909, 22.19111]]], [[[114.04225, 22.25597], [114.04273, 22.2412], [114.03835, 22.24121], [114.02053, 22.2552], [114.04225, 22.25597]]], [[[114.01759, 22.28905], [114.01889, 22.26459], [113.99537, 22.26777], [114.00725, 22.25211], [113.99244, 22.2412], [114.01497, 22.22708], [114.00016, 22.21615], [113.98195, 22.20824], [113.98064, 22.23725], [113.94565, 22.23725], [113.9284, 22.22399], [113.92148, 22.22399], [113.9183, 22.21922], [113.92838, 22.21691], [113.92838, 22.21077], [113.91911, 22.20503], [113.90627, 22.20402], [113.89405, 22.21534], [113.89251, 22.2224], [113.84668, 22.19717], [113.83922, 22.20491], [113.83921, 22.23419], [113.84921, 22.2342], [113.84923, 22.24412], [113.85678, 22.246], [113.85678, 22.25226], [113.85061, 22.25678], [113.86761, 22.27073], [113.8768, 22.27228], [113.89251, 22.2927], [113.92148, 22.29186], [113.9284, 22.28486], [113.96193, 22.30116], [113.97674, 22.29808], [113.98374, 22.30902], [113.99244, 22.31057], [113.99953, 22.32225], [114.01716, 22.33538], [114.02052, 22.32852], [114.04379, 22.34577], [114.05486, 22.33633], [114.05004, 22.32008], [114.03142, 22.32457], [114.02962, 22.309], [114.01271, 22.31135], [114.01271, 22.29808], [114.02213, 22.3019], [114.01759, 22.28905]]], [[[113.93613, 22.31843], [113.94254, 22.32223], [113.93149, 22.29271], [113.92368, 22.31344], [113.93304, 22.32224], [113.93613, 22.31843]]], [[[114.08905, 22.32227], [114.07911, 22.35578], [114.0853, 22.359], [114.10255, 22.35346], [114.10874, 22.34024], [114.1024, 22.32552], [114.08905, 22.32227]]], [[[113.62119, 22.39143], [113.61228, 22.39797], [113.61183, 22.43046], [113.62338, 22.43986], [113.64959, 22.43856], [113.65786, 22.43202], [113.65329, 22.41374], [113.64242, 22.41142], [113.64234, 22.4002], [113.62119, 22.39143]]], [[[113.6451, 22.62511], [113.64182, 22.60163], [113.62802, 22.5958], [113.60262, 22.61153], [113.56243, 22.65568], [113.47651, 22.71951], [113.47655, 22.73126], [113.5255, 22.74486], [113.54676, 22.74187], [113.5595, 22.73499], [113.5732, 22.7007], [113.60393, 22.68494], [113.63567, 22.65647], [113.6451, 22.62511]]], [[[113.59457, 22.7561], [113.57985, 22.75374], [113.55828, 22.75789], [113.54462, 22.76879], [113.52858, 22.80215], [113.52117, 22.78792], [113.50612, 22.79805], [113.48081, 22.84931], [113.47397, 22.84931], [113.47315, 22.8254], [113.45591, 22.83077], [113.40226, 22.88272], [113.39618, 22.8981], [113.40512, 22.90811], [113.43295, 22.912], [113.47559, 22.90069], [113.4878, 22.8928], [113.52703, 22.84663], [113.54672, 22.83487], [113.573, 22.83005], [113.58766, 22.79462], [113.60286, 22.77244], [113.60278, 22.76265], [113.59457, 22.7561]]], [[[113.50997, 22.92122], [113.50575, 22.95161], [113.51536, 22.9692], [113.5292, 22.96035], [113.52919, 22.94859], [113.54513, 22.93776], [113.55359, 22.91128], [113.55353, 22.88582], [113.54501, 22.87997], [113.52377, 22.89669], [113.50997, 22.92122]]], [[[112.88853, 23.11262], [112.91169, 23.14153], [112.96603, 23.19168], [113.04595, 23.23868], [113.07972, 23.29187], [113.10652, 23.3231], [113.12455, 23.43514], [113.20566, 23.64638], [113.34538, 23.81582], [113.53184, 23.9451], [113.75074, 24.03369], [113.98942, 24.08228], [114.23235, 24.09111], [114.46459, 24.06111], [114.6696, 23.99349], [114.74039, 23.95509], [114.80656, 23.9085], [114.86872, 23.85424], [114.92489, 23.79476], [114.97461, 23.73131], [115.01686, 23.66574], [115.05148, 23.59844], [115.07709, 23.53187], [115.10125, 23.42138], [115.10738, 23.30938], [115.10376, 23.22294], [115.11476, 23.21892], [115.17993, 23.24551], [115.22803, 23.25695], [115.26384, 23.2389], [115.32435, 23.1962], [115.37499, 23.14309], [115.41341, 23.08186], [115.43816, 23.01487], [115.44809, 22.93115], [115.44239, 22.92967], [115.43831, 22.92037], [115.42384, 22.91877], [115.40602, 22.92504], [115.42726, 22.90062], [115.43702, 22.89777], [115.44669, 22.90054], [115.4239, 22.76327], [115.41121, 22.78827], [115.38624, 22.7829], [115.36399, 22.76365], [115.33057, 22.78854], [115.28914, 22.79155], [115.2334, 22.78822], [115.23278, 22.80533], [115.32016, 22.85053], [115.3248, 22.85957], [115.30943, 22.86937], [115.31715, 22.90453], [115.3038, 22.90302], [115.29225, 22.89533], [115.24561, 22.83536], [115.23146, 22.83008], [115.21729, 22.83489], [115.19601, 22.8319], [115.17294, 22.82119], [115.18026, 22.78482], [115.15828, 22.79243], [115.15057, 22.80963], [115.13288, 22.81145], [115.11138, 22.8021], [115.06548, 22.79598], [115.04566, 22.77586], [115.03662, 22.75374], [115.01783, 22.73704], [115.03078, 22.71732], [115.02889, 22.70839], [114.99877, 22.7022], [114.98534, 22.68932], [114.95984, 22.69613], [114.95467, 22.70354], [114.95658, 22.71574], [114.94166, 22.75385], [114.92677, 22.76118], [114.91675, 22.74406], [114.90312, 22.74893], [114.88906, 22.76375], [114.87672, 22.76796], [114.86252, 22.76322], [114.88187, 22.74752], [114.8862, 22.73608], [114.87814, 22.72964], [114.88074, 22.72147], [114.89045, 22.71406], [114.90286, 22.71393], [114.91, 22.7236], [114.92672, 22.71692], [114.96662, 22.67649], [114.93873, 22.65729], [114.90194, 22.59806], [114.90521, 22.57844], [114.9191, 22.56116], [114.89596, 22.54753], [114.88365, 22.55093], [114.88023, 22.55911], [114.88923, 22.57289], [114.88682, 22.59087], [114.86582, 22.60175], [114.83223, 22.60208], [114.80641, 22.59252], [114.77461, 22.59769], [114.75415, 22.58973], [114.74379, 22.60941], [114.73746, 22.66904], [114.74999, 22.67872], [114.75378, 22.69339], [114.73889, 22.71065], [114.74196, 22.73265], [114.75255, 22.74965], [114.80202, 22.77337], [114.81324, 22.77485], [114.82125, 22.79056], [114.81695, 22.80039], [114.78476, 22.81586], [114.77524, 22.81582], [114.76979, 22.81045], [114.75488, 22.78169], [114.73414, 22.7758], [114.71673, 22.7908], [114.69548, 22.79264], [114.6838, 22.78134], [114.64548, 22.76701], [114.63778, 22.75508], [114.5796, 22.73338], [114.56332, 22.73273], [114.57087, 22.70226], [114.55209, 22.69454], [114.54225, 22.69531], [114.52206, 22.70596], [114.52377, 22.68722], [114.49958, 22.65311], [114.50661, 22.64652], [114.54822, 22.64454], [114.58252, 22.65525], [114.59033, 22.64387], [114.57765, 22.63589], [114.56087, 22.6088], [114.52914, 22.59833], [114.51393, 22.58735], [114.49537, 22.56196], [114.50204, 22.55085], [114.50929, 22.54955], [114.52955, 22.55512], [114.53697, 22.56704], [114.54322, 22.56939], [114.55478, 22.55732], [114.59306, 22.542], [114.61141, 22.52884], [114.61767, 22.51415], [114.60751, 22.50439], [114.57053, 22.4843], [114.54216, 22.47799], [114.51581, 22.45265], [114.50156, 22.4521], [114.48513, 22.46834], [114.48325, 22.48456], [114.47683, 22.4899], [114.48015, 22.50015], [114.47642, 22.50942], [114.48699, 22.52192], [114.47958, 22.54621], [114.45574, 22.5705], [114.44036, 22.56869], [114.43304, 22.59109], [114.4087, 22.61164], [114.3956, 22.61351], [114.34026, 22.5979], [114.32846, 22.60546], [114.32455, 22.59855], [114.31715, 22.60236], [114.30535, 22.59418], [114.30713, 22.58544], [114.30217, 22.58296], [114.27622, 22.58796], [114.22983, 22.55581], [114.23471, 22.55618], [114.21485, 22.53449], [114.20997, 22.53449], [114.20932, 22.52371], [114.2304, 22.53295], [114.24204, 22.5502], [114.24903, 22.54784], [114.25456, 22.55096], [114.25765, 22.54783], [114.25327, 22.53946], [114.25921, 22.5408], [114.27003, 22.52558], [114.27801, 22.52984], [114.27768, 22.51166], [114.28517, 22.51118], [114.28924, 22.50519], [114.29851, 22.501], [114.33277, 22.51193], [114.33512, 22.50642], [114.30543, 22.48302], [114.28045, 22.47289], [114.25375, 22.45178], [114.24595, 22.45178], [114.23121, 22.46979], [114.21713, 22.46735], [114.21176, 22.47057], [114.21095, 22.4573], [114.21712, 22.44796], [114.20224, 22.45808], [114.16749, 22.44807], [114.21175, 22.42059], [114.20997, 22.41275], [114.21485, 22.40888], [114.20932, 22.39867], [114.21559, 22.40034], [114.23822, 22.43536], [114.26719, 22.43072], [114.26718, 22.41596], [114.27255, 22.40965], [114.27646, 22.41983], [114.28899, 22.42601], [114.27647, 22.44399], [114.30161, 22.45653], [114.30081, 22.46504], [114.32373, 22.48004], [114.32504, 22.47521], [114.33072, 22.4741], [114.32504, 22.46426], [114.33569, 22.46173], [114.33806, 22.44636], [114.33277, 22.44001], [114.33741, 22.43159], [114.34278, 22.43769], [114.34758, 22.42292], [114.35231, 22.42369], [114.35157, 22.44098], [114.35987, 22.46117], [114.36784, 22.45498], [114.37021, 22.44001], [114.39974, 22.43614], [114.40128, 22.41276], [114.38176, 22.41905], [114.37021, 22.39798], [114.37501, 22.40054], [114.38493, 22.38735], [114.38973, 22.36596], [114.37639, 22.37063], [114.37949, 22.36209], [114.37568, 22.35368], [114.36085, 22.34577], [114.35759, 22.33244], [114.35231, 22.3395], [114.35231, 22.35192], [114.34196, 22.34578], [114.33277, 22.35977], [114.33432, 22.37531], [114.3204, 22.38076], [114.31861, 22.38939], [114.30006, 22.38158], [114.28598, 22.39098], [114.278, 22.39098], [114.26873, 22.37845], [114.2798, 22.35501], [114.27645, 22.34806], [114.26718, 22.35578], [114.26637, 22.36595], [114.25839, 22.36209], [114.25554, 22.3559], [114.2658, 22.34634], [114.27255, 22.3207], [114.29126, 22.31655], [114.29208, 22.30516], [114.30388, 22.3067], [114.3116, 22.29731], [114.2977, 22.28563], [114.28899, 22.28718], [114.28956, 22.27391], [114.30005, 22.27704], [114.30314, 22.26919], [114.30314, 22.26216], [114.29672, 22.25829], [114.27833, 22.27047], [114.2798, 22.27936], [114.27337, 22.29576], [114.26482, 22.30195], [114.26637, 22.31598], [114.25554, 22.32233], [114.25302, 22.29578], [114.23894, 22.28168], [114.21176, 22.31057], [114.21485, 22.30117], [114.19549, 22.31826], [114.18653, 22.30874], [114.19142, 22.2989], [114.18369, 22.30195], [114.18165, 22.29442], [114.17189, 22.28872], [114.15952, 22.32225], [114.12436, 22.34223], [114.12355, 22.33716], [114.11337, 22.35269], [114.11101, 22.36595], [114.10483, 22.36986], [114.0975, 22.36302], [114.07911, 22.36595], [114.06723, 22.359], [114.05795, 22.36131], [114.02052, 22.35037], [114.01499, 22.35347], [114.01498, 22.359], [113.99863, 22.35901], [113.98268, 22.36678], [113.97063, 22.38707], [113.96437, 22.38068], [113.97462, 22.37206], [113.95493, 22.36986], [113.94483, 22.3621], [113.91441, 22.37613], [113.9183, 22.38784], [113.897, 22.40876], [113.90944, 22.4186], [113.93068, 22.41983], [113.94101, 22.42679], [113.95412, 22.44948], [113.97755, 22.45885], [113.99863, 22.48854], [114.0127, 22.4861], [114.01116, 22.47289], [114.02988, 22.47826], [114.03062, 22.4955], [114.05795, 22.50487], [114.06577, 22.51585], [114.0853, 22.52294], [114.08237, 22.52936], [114.07968, 22.52375], [114.05844, 22.517], [114.05527, 22.50694], [114.042, 22.50678], [114.03541, 22.51423], [113.99928, 22.53063], [113.97061, 22.53373], [113.9638, 22.53811], [113.96028, 22.52847], [113.95194, 22.52384], [113.94775, 22.49041], [113.91033, 22.48583], [113.90967, 22.47765], [113.89035, 22.45273], [113.88148, 22.47333], [113.87428, 22.47839], [113.86617, 22.51148], [113.89389, 22.52115], [113.87989, 22.53669], [113.84361, 22.56211], [113.82221, 22.58749], [113.79917, 22.631], [113.79357, 22.66161], [113.77294, 22.67245], [113.76466, 22.73481], [113.75807, 22.7534], [113.74439, 22.76118], [113.71217, 22.76333], [113.69972, 22.76118], [113.68458, 22.7469], [113.67238, 22.74691], [113.65359, 22.75874], [113.66261, 22.79808], [113.65528, 22.81924], [113.63273, 22.85284], [113.6172, 22.89029], [113.61012, 22.86205], [113.61718, 22.83628], [113.60557, 22.84724], [113.60233, 22.86656], [113.61036, 22.90453], [113.59799, 22.88964], [113.59604, 22.88058], [113.59231, 22.88907], [113.61134, 22.93378], [113.62436, 22.99921], [113.63819, 23.0349], [113.63071, 23.0349], [113.61671, 23.00788], [113.5967, 22.91822], [113.59506, 22.94477], [113.6041, 22.97346], [113.60507, 23.00141], [113.6172, 23.0349], [113.59921, 23.00922], [113.58668, 22.95356], [113.57621, 22.93876], [113.58383, 22.97846], [113.58302, 23.02123], [113.55413, 22.98777], [113.54183, 22.98669], [113.53274, 22.99576], [113.52881, 23.01106], [113.52834, 23.03803], [113.53639, 23.06314], [113.55641, 23.08413], [113.58212, 23.09846], [113.63722, 23.10912], [113.69199, 23.13254], [113.72022, 23.13793], [113.75807, 23.12157], [113.78443, 23.13174], [113.83009, 23.1175], [113.81324, 23.12979], [113.76108, 23.13793], [113.71982, 23.15534], [113.70314, 23.15778], [113.67392, 23.15046], [113.62647, 23.11799], [113.59327, 23.11066], [113.542, 23.08641], [113.53688, 23.07502], [113.50912, 23.06217], [113.49419, 23.06283], [113.44516, 23.08934], [113.41749, 23.09699], [113.39869, 23.08332], [113.41928, 23.0655], [113.45143, 23.06231], [113.48121, 23.0515], [113.5023, 23.02042], [113.50383, 22.98983], [113.48097, 22.9357], [113.48397, 22.92427], [113.4737, 22.9182], [113.42994, 22.93134], [113.33652, 22.89777], [113.30763, 22.89411], [113.21298, 22.91201], [113.21298, 22.90453], [113.25807, 22.89777], [113.29225, 22.87726], [113.35043, 22.88972], [113.36792, 22.88068], [113.44003, 22.80414], [113.49421, 22.77485], [113.45192, 22.75511], [113.43954, 22.73945], [113.42604, 22.74942], [113.37753, 22.7674], [113.39503, 22.7482], [113.45362, 22.72573], [113.46632, 22.7165], [113.47633, 22.69986], [113.55302, 22.63849], [113.56384, 22.61444], [113.59916, 22.57518], [113.59472, 22.52339], [113.56251, 22.48041], [113.54636, 22.43758], [113.55157, 22.39584], [113.55812, 22.38076], [113.58164, 22.37132], [113.61034, 22.37018], [113.59946, 22.35053], [113.59229, 22.31616], [113.57358, 22.30073], [113.57721, 22.26664], [113.58998, 22.25341], [113.58765, 22.23789], [113.5612, 22.23373], [113.55286, 22.21901], [113.53858, 22.22175], [113.52296, 22.21304], [113.52988, 22.20226], [113.48374, 22.15515], [113.45903, 22.15816], [113.42564, 22.18623], [113.41188, 22.22553], [113.36452, 22.26777], [113.3602, 22.29316], [113.35157, 22.30834], [113.3032, 22.3437], [113.27638, 22.37206], [113.25563, 22.40388], [113.24269, 22.45746], [113.23194, 22.47907], [113.17758, 22.56411], [113.16529, 22.57559], [113.16017, 22.48762], [113.2273, 22.42527], [113.32851, 22.26848], [113.3542, 22.24332], [113.40195, 22.17958], [113.35084, 22.17154], [113.32545, 22.18366], [113.30274, 22.18329], [113.2821, 22.14525], [113.27353, 22.13837], [113.26344, 22.13703], [113.25099, 22.11567], [113.24659, 22.10346], [113.25587, 22.08267], [113.24715, 22.05428], [113.23056, 22.04316], [113.19469, 22.0464], [113.17831, 22.04091], [113.15747, 22.02471], [113.13964, 22.03686], [113.11887, 22.06584], [113.11066, 22.09896], [113.12452, 22.13109], [113.11826, 22.14375], [113.12745, 22.16096], [113.1133, 22.18741], [113.11061, 22.21931], [113.08505, 22.20759], [113.07728, 22.14727], [113.05789, 22.12111], [113.02661, 22.14321], [113.02064, 22.12598], [113.0221, 22.10115], [113.01779, 22.08261], [112.94907, 22.1985], [112.89864, 22.30119], [112.8474, 22.42826], [112.81403, 22.53119], [112.78399, 22.64611], [112.80477, 22.71149], [112.84551, 22.78347], [112.83032, 22.83583], [112.82308, 22.91164], [112.83047, 22.98241], [112.85265, 23.05037], [112.88853, 23.11262]]], [[[102.77681, 25.5054], [102.88845, 25.39832], [102.98446, 25.27428], [103.05751, 25.14133], [103.10033, 25.00745], [103.10562, 24.88053], [103.06608, 24.76834], [102.97465, 24.67862], [102.92465, 24.6519], [102.86569, 24.62997], [102.79743, 24.61329], [102.7195, 24.6023], [102.60384, 24.5985], [102.49649, 24.60925], [102.39649, 24.63284], [102.30293, 24.66762], [102.21494, 24.71189], [102.13172, 24.76401], [102.05244, 24.82231], [101.92024, 24.93672], [101.86883, 24.9912], [101.82334, 25.04812], [101.78498, 25.10706], [101.75496, 25.16757], [101.73454, 25.22922], [101.72494, 25.29159], [101.72742, 25.3542], [101.7388, 25.40262], [101.75948, 25.45468], [101.78904, 25.50774], [101.82708, 25.55913], [101.87314, 25.60615], [101.92679, 25.64611], [101.98756, 25.67629], [102.05499, 25.694], [102.13249, 25.70203], [102.21125, 25.70342], [102.29032, 25.69843], [102.36874, 25.68734], [102.44559, 25.67043], [102.51991, 25.64795], [102.59073, 25.6202], [102.65707, 25.58745], [102.77681, 25.5054]]], [[[106.31386, 26.85343], [106.44038, 26.87635], [106.57017, 26.88315], [106.69901, 26.87367], [106.82267, 26.84775], [106.93694, 26.80522], [107.03756, 26.74595], [107.1202, 26.66981], [107.19497, 26.56145], [107.24486, 26.44466], [107.27291, 26.32199], [107.28223, 26.19597], [107.27604, 26.06913], [107.25773, 25.94398], [107.2307, 25.82299], [107.19848, 25.70857], [107.16793, 25.62416], [107.12799, 25.5438], [107.07751, 25.46904], [107.01535, 25.40142], [106.94037, 25.34249], [106.85141, 25.29376], [106.74723, 25.25671], [106.62661, 25.23282], [106.52358, 25.22559], [106.42416, 25.23044], [106.32927, 25.24647], [106.23984, 25.27282], [106.15676, 25.30863], [106.08093, 25.3531], [106.01328, 25.4054], [105.95473, 25.46475], [105.88028, 25.57074], [105.827, 25.68688], [105.793, 25.81017], [105.77637, 25.93761], [105.77525, 26.06612], [105.78782, 26.1926], [105.81236, 26.31394], [105.84732, 26.42694], [105.89709, 26.53861], [105.92961, 26.59335], [105.96808, 26.64597], [106.01314, 26.69544], [106.06549, 26.74072], [106.12581, 26.78076], [106.19479, 26.8145], [106.31386, 26.85343]]], [[[112.24298, 30.51618], [112.38752, 30.57832], [112.54505, 30.61635], [112.70871, 30.63555], [112.87202, 30.64149], [113.1739, 30.63711], [113.32056, 30.62716], [113.46699, 30.59961], [113.6086, 30.55289], [113.74098, 30.48569], [113.85999, 30.39677], [113.96185, 30.28509], [114.04324, 30.14962], [114.10135, 29.98943], [114.13493, 29.80734], [114.13908, 29.63664], [114.11637, 29.48078], [114.06864, 29.34308], [113.99721, 29.22681], [113.90307, 29.13515], [113.78693, 29.0712], [113.64924, 29.03798], [113.52145, 29.02766], [113.38726, 29.02484], [113.24771, 29.02944], [113.10393, 29.04136], [112.9572, 29.06056], [112.809, 29.08711], [112.66108, 29.12112], [112.51539, 29.1628], [112.36125, 29.23388], [112.22439, 29.33998], [112.10932, 29.47378], [112.02061, 29.62801], [111.9629, 29.79535], [111.94086, 29.9683], [111.95898, 30.13913], [112.02149, 30.29969], [112.11854, 30.42489], [112.24298, 30.51618]]], [[[104.73999, 30.64373], [104.71191, 30.59024], [104.67393, 30.5403], [104.62477, 30.49366], [104.5363, 30.43441], [104.45199, 30.39502], [104.33082, 30.35485], [104.13635, 30.32244], [103.94098, 30.33096], [103.75397, 30.37708], [103.58443, 30.45757], [103.44134, 30.56931], [103.33351, 30.70931], [103.26958, 30.87473], [103.25808, 31.06293], [103.26378, 31.10742], [103.28485, 31.19141], [103.3176, 31.2689], [103.3854, 31.37327], [103.45682, 31.44923], [103.54028, 31.514], [103.63399, 31.56691], [103.73621, 31.60736], [103.84515, 31.63479], [103.9591, 31.64858], [104.07636, 31.64815], [104.19523, 31.63294], [104.3265, 31.59599], [104.44084, 31.54001], [104.53837, 31.46736], [104.61923, 31.38044], [104.68349, 31.28166], [104.73117, 31.17347], [104.76224, 31.0583], [104.77927, 30.90893], [104.77801, 30.82833], [104.77174, 30.76247], [104.75951, 30.70104], [104.73999, 30.64373]], [[104.09769, 31.20492], [104.2999, 31.13294], [104.22657, 31.15971], [104.09769, 31.20492]], [[103.79508, 31.29363], [103.9209, 31.26], [103.87235, 31.27362], [103.79508, 31.29363]]], [[[111.77959, 34.11808], [111.93884, 34.20325], [112.11015, 34.25637], [112.28793, 34.28271], [112.46698, 34.28811], [112.64245, 34.27879], [112.96451, 34.24245], [113.11996, 34.21561], [113.27174, 34.17115], [113.4149, 34.10863], [113.54473, 34.02783], [113.65661, 33.92863], [113.74607, 33.81091], [113.80875, 33.67443], [113.84038, 33.51876], [113.83877, 33.34666], [113.80443, 33.18898], [113.7406, 33.04807], [113.65034, 32.92627], [113.53644, 32.82594], [113.40142, 32.74952], [113.24755, 32.69955], [113.07684, 32.67862], [112.9247, 32.67739], [112.76812, 32.68273], [112.60873, 32.69456], [112.44818, 32.7128], [112.28818, 32.73748], [112.13054, 32.7687], [111.97715, 32.80662], [111.82994, 32.85147], [111.68322, 32.92506], [111.56621, 33.03259], [111.48161, 33.16734], [111.43225, 33.32245], [111.42097, 33.49083], [111.4503, 33.66489], [111.52229, 33.83637], [111.63832, 33.99612], [111.77959, 34.11808]]], [[[109.47598, 34.19037], [109.36533, 34.09144], [109.24753, 34.00964], [109.12521, 33.94797], [109.04312, 33.91819], [108.95231, 33.89248], [108.85649, 33.87238], [108.75922, 33.8592], [108.66393, 33.85415], [108.57395, 33.85833], [108.4925, 33.87276], [108.42283, 33.89841], [108.31996, 33.97132], [108.25456, 34.06317], [108.22294, 34.16974], [108.2216, 34.28707], [108.2471, 34.41123], [108.29597, 34.53827], [108.36457, 34.6641], [108.44907, 34.78442], [108.57256, 34.92633], [108.70367, 35.04749], [108.841, 35.14645], [108.98333, 35.22187], [109.12951, 35.27247], [109.27855, 35.29704], [109.42954, 35.29441], [109.58173, 35.26348], [109.68648, 35.2217], [109.73521, 35.19164], [109.82145, 34.82758], [109.79032, 34.69265], [109.737, 34.5579], [109.66476, 34.42693], [109.57674, 34.30329], [109.47598, 34.19037]]], [[[111.00925, 36.7204], [110.90639, 36.72667], [110.81754, 36.7619], [110.74454, 36.8287], [110.68292, 36.95808], [110.68364, 37.09391], [110.73463, 37.23295], [110.82381, 37.37162], [110.93916, 37.50634], [111.06865, 37.63364], [111.32209, 37.85378], [111.94315, 38.35734], [112.03095, 38.43895], [112.27056, 38.70086], [112.35307, 38.77979], [112.44225, 38.8477], [112.54129, 38.90034], [112.65332, 38.93328], [112.75619, 38.94432], [112.86172, 38.94153], [112.96651, 38.9253], [113.06722, 38.89626], [113.1606, 38.85516], [113.24338, 38.80289], [113.31233, 38.74043], [113.36424, 38.66879], [113.3984, 38.55857], [113.38616, 38.44666], [113.33644, 38.33491], [113.25803, 38.22467], [113.15971, 38.11738], [113.05049, 38.01506], [112.93972, 37.9208], [112.83721, 37.83908], [112.58004, 37.64807], [112.29298, 37.44511], [111.66758, 37.01932], [111.52312, 36.92595], [111.38312, 36.84616], [111.24952, 36.78319], [111.12425, 36.74024], [111.00925, 36.7204]]], [[[114.29298, 22.05781], [114.2986, 22.06712], [114.31006, 22.06858], [114.30249, 22.04488], [114.22242, 22.02168], [114.20674, 22.02579], [114.29298, 22.05781]]], [[[114.26635, 22.17868], [114.26946, 22.16659], [114.25612, 22.15459], [114.25068, 22.16234], [114.26635, 22.17868]]], [[[114.25375, 22.1865], [114.25611, 22.18187], [114.24286, 22.17557], [114.24286, 22.18496], [114.25375, 22.1865]]], [[[114.15634, 22.23176], [114.14436, 22.23668], [114.14218, 22.24189], [114.15634, 22.23884], [114.15634, 22.23176]]], [[[114.23276, 22.21149], [114.2295, 22.23359], [114.22267, 22.23884], [114.21681, 22.23432], [114.22267, 22.23253], [114.22267, 22.22476], [114.21176, 22.21613], [114.21867, 22.20601], [114.21559, 22.19896], [114.21948, 22.19189], [114.2077, 22.18957], [114.20606, 22.20523], [114.20932, 22.20755], [114.20655, 22.21239], [114.19608, 22.20756], [114.19143, 22.20995], [114.19606, 22.21532], [114.18907, 22.21923], [114.1937, 22.22553], [114.19142, 22.23098], [114.18271, 22.23254], [114.18385, 22.24103], [114.16489, 22.22786], [114.16098, 22.24038], [114.12909, 22.24889], [114.11883, 22.26919], [114.11257, 22.27152], [114.11334, 22.27759], [114.13909, 22.28871], [114.1657, 22.27936], [114.17888, 22.27936], [114.19679, 22.29186], [114.21559, 22.28563], [114.22177, 22.27936], [114.23585, 22.27782], [114.25146, 22.25906], [114.25146, 22.24889], [114.24529, 22.24189], [114.25374, 22.22399], [114.24903, 22.2224], [114.2561, 22.20361], [114.24368, 22.20128], [114.23276, 22.21149]]], [[[114.28135, 22.23884], [114.28289, 22.24968], [114.29599, 22.25442], [114.29841, 22.24288], [114.28826, 22.23254], [114.28135, 22.23884]]], [[[114.31634, 22.33633], [114.3235, 22.33946], [114.32887, 22.33714], [114.33122, 22.32612], [114.31952, 22.32381], [114.31634, 22.33633]]], [[[114.30315, 22.36522], [114.31088, 22.37612], [114.31634, 22.37612], [114.31951, 22.359], [114.32887, 22.35037], [114.32887, 22.34256], [114.3078, 22.34257], [114.30315, 22.36522]]], [[[114.28972, 22.35346], [114.28901, 22.36908], [114.29282, 22.37141], [114.29599, 22.34884], [114.28972, 22.35346]]], [[[114.36312, 22.4861], [114.3654, 22.47444], [114.35914, 22.46581], [114.35377, 22.48152], [114.35833, 22.48687], [114.36312, 22.4861]]], [[[114.31706, 22.51816], [114.30006, 22.50642], [114.29363, 22.5128], [114.30315, 22.51427], [114.30852, 22.52602], [114.31706, 22.51816]]], [[[114.28599, 22.54707], [114.28918, 22.55625], [114.2977, 22.5502], [114.30852, 22.55405], [114.3163, 22.55174], [114.29518, 22.54784], [114.30077, 22.53528], [114.28899, 22.5408], [114.28599, 22.54707]]], [[[115.41204, 22.69006], [115.37333, 22.69432], [115.34839, 22.71719], [115.33849, 22.7331], [115.35068, 22.74689], [115.38893, 22.74689], [115.42365, 22.76186], [115.41204, 22.69006]]], [[[117.063, 23.47845], [117.09033, 23.46108], [117.10215, 23.46799], [117.10918, 23.4823], [117.12584, 23.48268], [117.12257, 23.46552], [117.13408, 23.46046], [117.14178, 23.44965], [117.13735, 23.41957], [117.12877, 23.39938], [117.08288, 23.41114], [117.0489, 23.40472], [117.00401, 23.41976], [116.94811, 23.42182], [116.943, 23.43006], [116.95653, 23.44469], [116.98219, 23.45945], [117.00026, 23.44156], [117.01002, 23.43895], [117.03758, 23.4469], [117.04909, 23.47407], [117.063, 23.47845]]], [[[116.93605, 23.53555], [116.95777, 23.54491], [116.97435, 23.55937], [117.00513, 23.56292], [117.00927, 23.555], [116.9878, 23.52412], [116.97096, 23.51465], [116.95094, 23.51741], [116.93728, 23.52628], [116.93605, 23.53555]]], [[[116.94914, 23.5912], [116.96697, 23.60082], [116.97114, 23.59396], [116.96062, 23.57412], [116.95826, 23.54735], [116.92947, 23.53954], [116.92376, 23.54345], [116.91889, 23.555], [116.94597, 23.57449], [116.94914, 23.5912]]], [[[117.48416, 23.71079], [117.47654, 23.68943], [117.47982, 23.66268], [117.46722, 23.65795], [117.44484, 23.66494], [117.43267, 23.66012], [117.42115, 23.64646], [117.41538, 23.60822], [117.42383, 23.60199], [117.43154, 23.58264], [117.37446, 23.57267], [117.3205, 23.57403], [117.33783, 23.59645], [117.36912, 23.62236], [117.39373, 23.67919], [117.3755, 23.6894], [117.36394, 23.69147], [117.34645, 23.68477], [117.34052, 23.68896], [117.34247, 23.69965], [117.37669, 23.72886], [117.37567, 23.7473], [117.37924, 23.74681], [117.37275, 23.76674], [117.38592, 23.77415], [117.40431, 23.77416], [117.41358, 23.77167], [117.41977, 23.7543], [117.44778, 23.74225], [117.4689, 23.75308], [117.50395, 23.74992], [117.52665, 23.7401], [117.51618, 23.71629], [117.49594, 23.72016], [117.48416, 23.71079]]], [[[118.20901, 24.41161], [118.23309, 24.45074], [118.24903, 24.45282], [118.2627, 24.4418], [118.26253, 24.43098], [118.24016, 24.41284], [118.22023, 24.40755], [118.20901, 24.41161]]], [[[118.3854, 24.50381], [118.39422, 24.52268], [118.42237, 24.52793], [118.44958, 24.50552], [118.46734, 24.46183], [118.46335, 24.43153], [118.44878, 24.41553], [118.4229, 24.4303], [118.40362, 24.43601], [118.37286, 24.4332], [118.34576, 24.41758], [118.33098, 24.39649], [118.31822, 24.39056], [118.28395, 24.40128], [118.27957, 24.40843], [118.28886, 24.41998], [118.29233, 24.44062], [118.28209, 24.47736], [118.31666, 24.49334], [118.35481, 24.47056], [118.38141, 24.47351], [118.3854, 24.50381]]], [[[118.61728, 24.44138], [118.55494, 24.40619], [118.50066, 24.3854], [118.48857, 24.38406], [118.48217, 24.38692], [118.48286, 24.39471], [118.49001, 24.40532], [118.61184, 24.52247], [118.67709, 24.59087], [118.70849, 24.55818], [118.71573, 24.54218], [118.70774, 24.52222], [118.66715, 24.47993], [118.61728, 24.44138]]], [[[118.15381, 24.43709], [118.13648, 24.42928], [118.11403, 24.43062], [118.09206, 24.43848], [118.07357, 24.45256], [118.07001, 24.46027], [118.07224, 24.46759], [118.10304, 24.47988], [118.10621, 24.49413], [118.08229, 24.48233], [118.07473, 24.48396], [118.07204, 24.49787], [118.0925, 24.556], [118.13787, 24.53653], [118.1631, 24.53197], [118.1814, 24.53509], [118.18872, 24.49413], [118.16391, 24.47191], [118.15381, 24.43709]]], [[[118.30667, 24.56741], [118.32398, 24.56915], [118.33382, 24.56354], [118.33268, 24.54784], [118.32651, 24.54325], [118.30129, 24.55745], [118.29771, 24.56143], [118.30667, 24.56741]]], [[[119.12143, 25.02746], [119.10501, 25.04844], [119.11826, 25.06167], [119.10907, 25.08059], [119.15673, 25.10079], [119.13608, 25.07941], [119.14355, 25.05561], [119.12412, 25.03661], [119.12143, 25.02746]]], [[[117.08603, 24.39544], [117.12747, 24.51672], [117.21903, 24.71045], [117.34127, 24.89186], [117.4907, 25.05868], [117.66411, 25.21072], [117.85894, 25.34837], [118.06988, 25.46975], [118.29293, 25.57339], [118.64477, 25.70019], [118.76901, 25.75466], [118.88086, 25.81109], [118.88297, 25.81837], [118.87854, 25.82746], [118.78652, 25.90849], [118.74192, 25.96789], [118.71414, 26.02662], [118.72995, 26.07181], [118.76603, 26.13465], [118.81469, 26.18959], [118.95119, 26.28908], [119.0145, 26.34107], [119.09738, 26.42237], [119.13426, 26.5048], [119.15899, 26.50184], [119.16748, 26.50689], [119.15681, 26.54648], [119.20334, 26.62719], [119.28762, 26.74027], [119.38384, 26.83831], [119.48643, 26.92055], [119.59206, 26.98908], [119.67213, 27.03301], [119.77735, 27.08316], [119.98174, 27.16813], [120.06046, 27.18537], [120.14144, 27.18814], [120.2209, 27.17646], [120.28692, 27.15453], [120.35355, 27.14395], [120.39882, 27.13015], [120.38136, 27.12523], [120.37387, 27.13272], [120.36704, 27.12523], [120.38136, 27.11904], [120.38136, 27.11225], [120.37387, 27.11225], [120.37387, 27.10602], [120.39498, 27.10601], [120.37753, 27.09859], [120.35819, 27.09838], [120.28273, 27.11231], [120.26206, 27.12995], [120.24366, 27.13272], [120.27832, 27.06379], [120.2715, 27.05758], [120.25782, 27.07266], [120.23215, 27.05067], [120.21632, 27.04393], [120.21632, 27.0371], [120.24154, 27.03399], [120.25561, 27.01752], [120.25521, 26.99706], [120.23739, 26.98189], [120.22999, 26.98933], [120.19357, 26.98139], [120.14869, 26.98188], [120.18702, 26.96353], [120.19956, 26.96137], [120.23568, 26.96637], [120.24365, 26.95515], [120.22999, 26.9409], [120.23738, 26.92724], [120.2193, 26.91557], [120.20096, 26.91539], [120.16847, 26.92723], [120.12574, 26.92731], [120.11362, 26.91877], [120.12068, 26.89989], [120.09555, 26.88729], [120.08327, 26.88631], [120.05576, 26.89989], [120.03199, 26.89989], [120.05526, 26.88939], [120.02516, 26.86018], [120.02451, 26.83788], [120.04762, 26.82323], [120.0765, 26.81727], [120.11085, 26.79873], [120.12816, 26.79693], [120.09775, 26.75849], [120.10019, 26.74291], [120.1124, 26.73574], [120.14282, 26.73281], [120.14868, 26.72118], [120.14356, 26.71012], [120.10768, 26.70132], [120.10206, 26.68915], [120.10361, 26.67528], [120.1207, 26.64606], [120.13436, 26.65349], [120.13436, 26.64607], [120.08042, 26.61743], [120.07522, 26.62149], [120.07651, 26.63011], [120.08668, 26.63923], [120.07968, 26.64606], [120.01517, 26.61136], [119.95997, 26.61127], [119.94874, 26.60615], [119.94117, 26.59333], [119.93563, 26.56046], [119.88428, 26.52319], [119.84718, 26.52364], [119.83571, 26.5314], [119.83263, 26.55048], [119.83596, 26.5615], [119.85377, 26.56411], [119.85378, 26.59829], [119.86851, 26.61005], [119.92897, 26.62564], [119.98414, 26.65351], [119.97683, 26.67401], [119.98634, 26.67963], [120.01148, 26.72116], [120.03232, 26.71662], [120.032, 26.72858], [120.07765, 26.78559], [120.07968, 26.79694], [120.06748, 26.80048], [120.0149, 26.79004], [119.9463, 26.79694], [119.92514, 26.79218], [119.92368, 26.78124], [119.93562, 26.75902], [119.92407, 26.73249], [119.90187, 26.71011], [119.88803, 26.68724], [119.90161, 26.65974], [119.85695, 26.65352], [119.85377, 26.68769], [119.82919, 26.71499], [119.79176, 26.68792], [119.80227, 26.76679], [119.81154, 26.77577], [119.8401, 26.79002], [119.81577, 26.79759], [119.79177, 26.79004], [119.79738, 26.81639], [119.83481, 26.83251], [119.84628, 26.8522], [119.81984, 26.84927], [119.79835, 26.84138], [119.78199, 26.82852], [119.76523, 26.79409], [119.77054, 26.75882], [119.76644, 26.74495], [119.75619, 26.73775], [119.74301, 26.73714], [119.73025, 26.74291], [119.73268, 26.76341], [119.72608, 26.78653], [119.71201, 26.80793], [119.69239, 26.81737], [119.6858, 26.812], [119.67628, 26.78587], [119.67799, 26.76313], [119.72738, 26.71792], [119.73022, 26.70474], [119.72494, 26.69783], [119.69614, 26.7082], [119.64601, 26.75332], [119.62656, 26.7491], [119.62038, 26.76557], [119.62184, 26.78677], [119.60605, 26.79694], [119.58456, 26.79462], [119.57553, 26.78803], [119.57942, 26.77644], [119.55763, 26.75878], [119.55209, 26.74909], [119.5547, 26.71483], [119.55893, 26.7082], [119.57081, 26.70327], [119.59595, 26.7033], [119.60604, 26.69452], [119.60822, 26.68332], [119.59986, 26.64608], [119.56813, 26.66454], [119.55893, 26.66657], [119.54444, 26.6625], [119.54111, 26.65632], [119.55421, 26.61518], [119.59237, 26.59088], [119.59986, 26.57038], [119.60605, 26.57038], [119.61912, 26.58796], [119.67506, 26.61879], [119.70094, 26.60859], [119.7352, 26.61196], [119.74219, 26.60862], [119.73642, 26.59146], [119.78491, 26.57782], [119.78491, 26.55051], [119.7706, 26.56411], [119.76173, 26.55073], [119.76588, 26.53437], [119.77915, 26.5207], [119.79858, 26.51577], [119.78492, 26.50202], [119.80239, 26.48926], [119.81235, 26.47461], [119.81884, 26.45319], [119.81227, 26.43378], [119.79176, 26.43378], [119.79176, 26.41332], [119.76198, 26.40747], [119.75204, 26.43146], [119.73764, 26.44367], [119.6898, 26.45947], [119.66456, 26.49213], [119.65366, 26.49803], [119.64095, 26.48217], [119.62037, 26.46798], [119.59986, 26.4748], [119.5713, 26.46572], [119.56642, 26.4549], [119.57309, 26.43781], [119.59409, 26.43358], [119.6163, 26.4374], [119.63087, 26.4487], [119.64844, 26.43744], [119.6543, 26.42902], [119.65553, 26.35562], [119.66529, 26.34015], [119.68871, 26.33758], [119.6819, 26.31712], [119.73569, 26.32221], [119.74708, 26.32762], [119.74839, 26.35887], [119.75441, 26.37204], [119.7706, 26.36494], [119.78012, 26.37499], [119.79176, 26.40648], [119.82575, 26.42693], [119.85132, 26.39281], [119.8401, 26.37857], [119.8558, 26.37762], [119.89479, 26.35871], [119.94995, 26.37229], [119.94995, 26.36494], [119.87745, 26.31339], [119.85475, 26.32754], [119.82675, 26.32836], [119.80112, 26.31757], [119.78492, 26.29662], [119.80541, 26.29043], [119.79273, 26.2841], [119.76442, 26.29662], [119.73267, 26.28507], [119.6736, 26.2805], [119.65431, 26.27241], [119.63412, 26.25507], [119.66821, 26.24201], [119.66481, 26.23164], [119.66821, 26.22151], [119.63697, 26.21166], [119.62501, 26.20295], [119.61353, 26.1822], [119.60011, 26.17634], [119.59181, 26.16641], [119.59985, 26.14582], [119.56113, 26.12499], [119.53736, 26.09683], [119.47316, 25.99714], [119.45851, 25.98249], [119.43556, 25.98136], [119.41505, 26.00926], [119.37338, 26.02228], [119.32692, 26.04804], [119.27711, 26.05292], [119.26124, 26.06053], [119.21583, 26.10008], [119.16115, 26.11165], [119.12021, 26.13593], [119.09352, 26.14582], [119.09352, 26.13959], [119.13648, 26.10293], [119.15732, 26.09077], [119.18149, 26.09862], [119.19516, 26.08759], [119.209, 26.0434], [119.24301, 25.99502], [119.24684, 25.96723], [119.29615, 25.95696], [119.32984, 25.94428], [119.34669, 25.94038], [119.37753, 25.94139], [119.40976, 25.94986], [119.44093, 25.96381], [119.49, 25.99421], [119.50001, 26.0102], [119.50424, 26.03596], [119.51905, 26.0445], [119.55429, 26.04564], [119.56642, 26.05023], [119.61939, 26.0235], [119.64845, 26.01545], [119.67506, 26.02227], [119.70055, 25.99538], [119.69897, 25.97256], [119.67504, 25.9261], [119.6543, 25.90694], [119.62355, 25.8994], [119.61647, 25.89265], [119.59986, 25.84421], [119.58408, 25.87694], [119.57423, 25.88491], [119.56642, 25.87206], [119.57789, 25.86237], [119.58302, 25.82022], [119.60791, 25.80516], [119.60605, 25.76903], [119.62085, 25.76032], [119.59645, 25.73151], [119.58993, 25.68717], [119.5726, 25.67969], [119.5643, 25.68968], [119.53541, 25.70588], [119.5228, 25.7058], [119.51734, 25.69018], [119.48707, 25.68732], [119.47706, 25.67969], [119.44907, 25.68716], [119.46705, 25.61392], [119.48323, 25.62565], [119.48105, 25.58047], [119.49244, 25.56477], [119.51734, 25.55679], [119.53443, 25.57586], [119.55844, 25.56379], [119.56813, 25.56904], [119.57941, 25.58459], [119.56837, 25.54743], [119.57228, 25.53343], [119.59309, 25.52948], [119.58302, 25.51732], [119.56642, 25.51581], [119.58164, 25.50926], [119.59983, 25.50836], [119.58741, 25.49872], [119.5726, 25.4947], [119.5726, 25.48786], [119.60359, 25.49115], [119.59986, 25.47484], [119.62219, 25.46952], [119.62789, 25.46157], [119.61402, 25.43879], [119.63412, 25.43325], [119.64526, 25.41047], [119.64599, 25.39257], [119.63729, 25.378], [119.62037, 25.36498], [119.65452, 25.35814], [119.57945, 25.34448], [119.58791, 25.36078], [119.59986, 25.37116], [119.57799, 25.41869], [119.59311, 25.43944], [119.57602, 25.46735], [119.56153, 25.46328], [119.55209, 25.45378], [119.53858, 25.46117], [119.53598, 25.41913], [119.542, 25.41279], [119.55615, 25.41046], [119.55819, 25.40461], [119.54444, 25.37719], [119.48327, 25.37117], [119.49781, 25.3994], [119.50424, 25.42988], [119.49221, 25.44038], [119.49074, 25.44693], [119.50734, 25.47443], [119.46616, 25.47484], [119.44684, 25.43892], [119.43557, 25.44693], [119.43313, 25.45954], [119.44907, 25.50528], [119.4419, 25.50951], [119.36598, 25.52071], [119.35654, 25.52692], [119.35288, 25.53974], [119.35605, 25.55073], [119.38087, 25.59089], [119.36036, 25.5773], [119.35289, 25.58466], [119.35629, 25.60004], [119.34303, 25.6092], [119.3226, 25.61103], [119.30519, 25.60456], [119.32136, 25.58735], [119.31055, 25.57788], [119.27784, 25.57046], [119.27198, 25.55752], [119.2688, 25.52693], [119.23759, 25.48158], [119.21528, 25.47034], [119.18336, 25.46499], [119.12885, 25.4301], [119.10255, 25.42031], [119.10963, 25.40681], [119.15699, 25.36261], [119.17319, 25.32514], [119.18312, 25.32941], [119.19239, 25.34203], [119.19533, 25.35813], [119.20337, 25.35813], [119.22315, 25.31661], [119.20151, 25.30634], [119.18149, 25.28925], [119.20126, 25.25971], [119.22584, 25.27969], [119.24122, 25.31257], [119.24302, 25.33021], [119.26515, 25.31757], [119.27369, 25.31859], [119.27785, 25.33021], [119.28866, 25.32541], [119.29833, 25.3166], [119.29135, 25.3166], [119.31886, 25.27936], [119.3475, 25.26776], [119.35286, 25.25849], [119.34424, 25.24239], [119.32374, 25.23799], [119.28126, 25.24144], [119.27247, 25.23176], [119.28882, 25.18912], [119.28125, 25.1794], [119.25563, 25.17591], [119.24275, 25.18999], [119.22938, 25.19321], [119.17563, 25.17651], [119.14198, 25.22098], [119.1161, 25.21378], [119.10179, 25.19663], [119.10418, 25.18295], [119.1338, 25.13841], [119.14657, 25.14373], [119.15307, 25.13971], [119.1499, 25.13159], [119.1338, 25.12475], [119.09327, 25.13565], [119.08546, 25.12474], [119.0991, 25.11117], [119.0648, 25.12475], [119.07919, 25.15209], [119.06471, 25.16254], [119.05323, 25.15762], [119.04591, 25.14305], [119.04444, 25.12477], [119.02908, 25.14053], [119.03404, 25.15867], [119.0691, 25.20368], [119.06886, 25.21674], [119.05738, 25.225], [119.03476, 25.22777], [118.98732, 25.22225], [118.96935, 25.22639], [118.98, 25.24485], [119.02495, 25.25929], [119.0273, 25.27824], [118.98365, 25.28303], [118.91847, 25.26439], [118.89649, 25.25751], [118.87558, 25.24384], [118.86484, 25.22797], [118.88404, 25.22036], [118.91113, 25.21722], [118.91382, 25.20869], [118.90927, 25.19571], [118.91529, 25.17939], [118.93276, 25.19446], [118.94825, 25.19716], [118.96314, 25.19366], [118.97461, 25.18256], [118.97217, 25.17207], [118.94898, 25.13695], [118.94906, 25.11897], [118.94296, 25.10884], [118.9214, 25.1014], [118.88559, 25.10615], [118.85768, 25.09805], [118.84897, 25.08662], [118.84913, 25.0738], [118.86012, 25.05654], [118.87794, 25.04072], [118.93513, 25.02236], [118.92832, 25.01488], [118.9537, 25.003], [118.96705, 25.00454], [118.97999, 25.01179], [118.99733, 25.05352], [119.00415, 25.05023], [118.99941, 25.02379], [118.98325, 24.9951], [118.99732, 24.95344], [119.01764, 24.96025], [119.00903, 24.94734], [118.99268, 24.93697], [118.97707, 24.93404], [118.96372, 24.95441], [118.9485, 24.95677], [118.91163, 24.95344], [118.90113, 24.93781], [118.90992, 24.90717], [118.93417, 24.88605], [118.96998, 24.89886], [118.97387, 24.89191], [118.96998, 24.8852], [118.97495, 24.88386], [118.97615, 24.87776], [118.95199, 24.87076], [118.92441, 24.86995], [118.89796, 24.87581], [118.86671, 24.89102], [118.82594, 24.87776], [118.79208, 24.8911], [118.7776, 24.8852], [118.78011, 24.86783], [118.76197, 24.85799], [118.71607, 24.84359], [118.69981, 24.85155], [118.6981, 24.85952], [118.70778, 24.87726], [118.72975, 24.8852], [118.7295, 24.90054], [118.72047, 24.9169], [118.69557, 24.94042], [118.69751, 24.90681], [118.69556, 24.89888], [118.6888, 24.89576], [118.68434, 24.91528], [118.68808, 24.92617], [118.66774, 24.95344], [118.64039, 24.9156], [118.67342, 24.88664], [118.67114, 24.87467], [118.65121, 24.8669], [118.62409, 24.86784], [118.57203, 24.8852], [118.6128, 24.85578], [118.6199, 24.84332], [118.61793, 24.80532], [118.63795, 24.77212], [118.64381, 24.7822], [118.66774, 24.78217], [118.68653, 24.79279], [118.70176, 24.81003], [118.71509, 24.79832], [118.71998, 24.76935], [118.74342, 24.77532], [118.76294, 24.76268], [118.76392, 24.7517], [118.74683, 24.7207], [118.73203, 24.71646], [118.69873, 24.67602], [118.68559, 24.66663], [118.65406, 24.69343], [118.6421, 24.6787], [118.636, 24.66376], [118.63356, 24.62788], [118.64023, 24.61693], [118.66414, 24.61224], [118.66146, 24.59032], [118.64643, 24.5683], [118.62045, 24.54549], [118.59101, 24.52817], [118.55398, 24.51806], [118.55089, 24.53731], [118.55446, 24.5532], [118.57814, 24.56021], [118.57114, 24.569], [118.50123, 24.60814], [118.47487, 24.61433], [118.44532, 24.62897], [118.42807, 24.63133], [118.43466, 24.659], [118.43124, 24.69969], [118.40089, 24.67231], [118.42188, 24.62451], [118.40479, 24.60665], [118.37989, 24.59025], [118.35165, 24.58236], [118.32504, 24.59032], [118.30714, 24.58833], [118.28403, 24.59781], [118.27295, 24.57442], [118.26319, 24.57039], [118.24985, 24.57612], [118.24178, 24.54378], [118.21901, 24.54146], [118.19436, 24.55647], [118.18117, 24.57612], [118.18166, 24.5978], [118.20509, 24.5987], [118.21583, 24.60399], [118.21518, 24.61481], [118.2037, 24.62153], [118.17434, 24.62451], [118.18759, 24.65738], [118.18141, 24.67276], [118.16049, 24.69343], [118.15747, 24.66267], [118.14145, 24.65697], [118.13738, 24.6336], [118.1128, 24.5978], [118.11035, 24.58406], [118.10337, 24.58479], [118.0923, 24.5978], [118.04444, 24.61766], [118.03696, 24.5978], [118.04476, 24.576], [118.03736, 24.56062], [118.02109, 24.55501], [118.00295, 24.56245], [118.00929, 24.58072], [117.99244, 24.57148], [117.97486, 24.55272], [117.97877, 24.54255], [118.02101, 24.53648], [118.04403, 24.52826], [118.0581, 24.51585], [118.03671, 24.49088], [118.00937, 24.48554], [117.99952, 24.47085], [118.02026, 24.45465], [118.02173, 24.44576], [117.99611, 24.44698], [117.91188, 24.47895], [117.86769, 24.48957], [117.82594, 24.48045], [117.88486, 24.46865], [117.9011, 24.45321], [117.81568, 24.47162], [117.79127, 24.46747], [117.79127, 24.46064], [117.8746, 24.39631], [117.90732, 24.38491], [117.98935, 24.39476], [118.03012, 24.41282], [118.04297, 24.40668], [118.04744, 24.39887], [118.04077, 24.36563], [118.02394, 24.35078], [118.01588, 24.32685], [118.02418, 24.32355], [118.05299, 24.3469], [118.07179, 24.34885], [118.09058, 24.34145], [118.10231, 24.31428], [118.11963, 24.29926], [118.12646, 24.26204], [118.10874, 24.26105], [118.08473, 24.2491], [118.07179, 24.25458], [118.02393, 24.20674], [117.98927, 24.1931], [117.97876, 24.1621], [117.96787, 24.15983], [117.95851, 24.20307], [117.94361, 24.21259], [117.93214, 24.20795], [117.90732, 24.18626], [117.93238, 24.17828], [117.93774, 24.16169], [117.9305, 24.1411], [117.89576, 24.08662], [117.89365, 24.07331], [117.89941, 24.04019], [117.89364, 24.02803], [117.86232, 24.03522], [117.83912, 24.02363], [117.77198, 23.95893], [117.75863, 23.91548], [117.74805, 23.90755], [117.73659, 23.90812], [117.72927, 23.91938], [117.7379, 23.9505], [117.79135, 24.00153], [117.79811, 24.0218], [117.78647, 24.02814], [117.76173, 24.01485], [117.75711, 24.0249], [117.77613, 24.0373], [117.76328, 24.07026], [117.75709, 24.07026], [117.75001, 24.0373], [117.72413, 24.03377], [117.69223, 24.04654], [117.66708, 24.06273], [117.67099, 24.048], [117.6797, 24.03905], [117.70875, 24.03547], [117.68849, 23.9975], [117.68727, 23.97907], [117.69507, 23.95356], [117.64863, 23.90923], [117.6336, 23.87416], [117.62554, 23.84015], [117.62601, 23.81223], [117.63925, 23.7941], [117.6194, 23.77481], [117.59168, 23.73709], [117.58747, 23.77778], [117.60201, 23.79895], [117.59816, 23.85244], [117.58237, 23.88931], [117.57106, 23.90327], [117.55673, 23.91324], [117.53736, 23.91938], [117.47462, 23.92097], [117.45485, 23.9256], [117.43019, 23.94375], [117.4166, 23.94684], [117.40707, 23.93305], [117.40968, 23.9134], [117.46852, 23.91193], [117.49958, 23.87407], [117.49006, 23.83258], [117.46347, 23.7883], [117.43433, 23.77593], [117.38242, 23.79523], [117.36891, 23.79263], [117.34555, 23.76855], [117.31911, 23.76163], [117.29257, 23.7895], [117.27735, 23.78221], [117.29231, 23.76215], [117.27192, 23.72131], [117.27623, 23.68775], [117.26796, 23.67979], [117.26365, 23.65543], [117.27911, 23.63627], [117.25692, 23.61552], [117.23897, 23.60549], [117.23554, 23.63982], [117.24409, 23.65755], [117.2295, 23.69282], [117.20851, 23.66494], [117.21725, 23.65227], [117.2192, 23.62964], [117.15083, 23.60687], [117.12845, 23.57236], [117.09946, 23.55432], [117.08423, 23.55062], [117.07842, 23.56461], [117.08356, 23.58895], [117.07601, 23.60463], [117.07788, 23.63883], [117.06841, 23.65127], [117.03427, 23.66132], [117.02345, 23.65868], [117.01831, 23.6479], [116.98536, 23.64023], [116.96505, 23.61543], [116.95073, 23.61089], [116.92759, 23.62475], [116.91757, 23.63793], [116.94093, 23.65868], [116.9275, 23.6645], [116.91652, 23.66275], [116.90088, 23.63446], [116.87745, 23.61835], [116.87208, 23.60688], [116.88403, 23.58661], [116.88336, 23.55988], [116.85499, 23.52489], [116.8497, 23.5113], [116.85426, 23.49738], [116.87261, 23.4738], [116.86662, 23.45024], [116.78577, 23.363], [116.72463, 23.46845], [116.67579, 23.60056], [116.64599, 23.72904], [116.63901, 23.79942], [116.64717, 23.87025], [116.67513, 23.94735], [116.73923, 23.98488], [116.77466, 23.99941], [116.86071, 24.02032], [116.90056, 24.02474], [116.98249, 24.02259], [117.02026, 24.05514], [117.03178, 24.15591], [117.05402, 24.27488], [117.08603, 24.39544]]], [[[119.34328, 25.5733], [119.35206, 25.55223], [119.3309, 25.46908], [119.33496, 25.43798], [119.29689, 25.42293], [119.2816, 25.46382], [119.28151, 25.48289], [119.30515, 25.54353], [119.33172, 25.57126], [119.34328, 25.5733]]], [[[119.24334, 26.05707], [119.25758, 26.04755], [119.3698, 26.01423], [119.4012, 25.99603], [119.40495, 25.97794], [119.39063, 25.967], [119.34567, 25.97647], [119.29054, 25.99527], [119.25757, 26.00147], [119.24684, 26.02656], [119.21778, 26.05903], [119.20924, 26.09858], [119.2212, 26.08954], [119.24334, 26.05707]]], [[[120.19678, 32.5036], [120.28942, 32.40257], [120.40417, 32.43552], [120.50711, 32.4436], [120.51459, 32.45302], [120.50426, 32.46612], [120.5708, 32.42768], [120.60819, 32.39675], [120.63797, 32.41541], [120.71334, 32.44544], [120.7942, 32.46239], [120.87743, 32.4656], [120.95978, 32.45494], [121.03807, 32.43084], [121.10926, 32.39421], [121.17061, 32.34649], [121.225, 32.28516], [121.26534, 32.22335], [121.29066, 32.15614], [121.30008, 32.08603], [121.29371, 32.01962], [121.30929, 32.00818], [121.36976, 31.94522], [121.41884, 31.88538], [121.5035, 31.84513], [121.5912, 31.78442], [121.64316, 31.77152], [121.72778, 31.74058], [121.76422, 31.72471], [121.82102, 31.69094], [121.74904, 31.71163], [121.67556, 31.72359], [121.6074, 31.74848], [121.57431, 31.76553], [121.51743, 31.78344], [121.49488, 31.80646], [121.3174, 31.88325], [121.28642, 31.89059], [121.22786, 31.8659], [121.11508, 31.79635], [121.08663, 31.80185], [121.03994, 31.81933], [121.00536, 31.82078], [120.97782, 31.81438], [120.95064, 31.82524], [120.94067, 31.84444], [120.94484, 31.88459], [120.94142, 31.89252], [120.91929, 31.89937], [120.90553, 31.92597], [120.84693, 31.99144], [120.8108, 32.02261], [120.74365, 32.03605], [120.63438, 32.07701], [120.56549, 32.07672], [120.49076, 32.08245], [120.36158, 32.02558], [120.30052, 31.97186], [120.26729, 31.94881], [120.22372, 31.93685], [120.17565, 31.93671], [120.13136, 31.94319], [120.09044, 31.95493], [120.05234, 31.97094], [120.02023, 31.99067], [119.9922, 32.0157], [119.92154, 32.10836], [119.90847, 32.13886], [119.92213, 32.21743], [119.90048, 32.1982], [119.88756, 32.21386], [119.87428, 32.26512], [119.84213, 32.29906], [119.81837, 32.31371], [119.75807, 32.32697], [119.6924, 32.31978], [119.64088, 32.35883], [119.61288, 32.35456], [119.66074, 32.32722], [119.68538, 32.29243], [119.67848, 32.28628], [119.64902, 32.21955], [119.60605, 32.19693], [119.6277, 32.1894], [119.64527, 32.19522], [119.69044, 32.23533], [119.70142, 32.23346], [119.73024, 32.2106], [119.77857, 32.20466], [119.78857, 32.19864], [119.76376, 32.1625], [119.76442, 32.14374], [119.77247, 32.12678], [119.78492, 32.11433], [119.85556, 32.08698], [119.9385, 32.01804], [119.97868, 31.96896], [120.0064, 31.9503], [120.13095, 31.9123], [120.17832, 31.9042], [120.22999, 31.90888], [120.34117, 31.95631], [120.41822, 31.96967], [120.45578, 31.98252], [120.45542, 32.02142], [120.46949, 32.02512], [120.51783, 32.01873], [120.60426, 31.99144], [120.68995, 31.99822], [120.75034, 31.97833], [120.77982, 31.91588], [120.80744, 31.87377], [120.82479, 31.8287], [120.80775, 31.80975], [120.75174, 31.82462], [120.71713, 31.86107], [120.72079, 31.83194], [120.73146, 31.81387], [120.74838, 31.80223], [120.8319, 31.77777], [120.9488, 31.75782], [121.01404, 31.74294], [121.06735, 31.72392], [121.14439, 31.68464], [121.24471, 31.6004], [121.32032, 31.50483], [121.36085, 31.47748], [121.41773, 31.45278], [121.44801, 31.4265], [121.54624, 31.36612], [121.6316, 31.33575], [121.72515, 31.28156], [121.87681, 31.09939], [121.95071, 30.98225], [121.97737, 30.91492], [121.96007, 30.87426], [121.9074, 30.8571], [121.81081, 30.85323], [121.63113, 30.83656], [121.54294, 30.8165], [121.4106, 30.76739], [121.35077, 30.7136], [121.3335, 30.70308], [121.26466, 30.6892], [121.20289, 30.66511], [121.14853, 30.62783], [121.13086, 30.59976], [121.12134, 30.59301], [121.0474, 30.58276], [120.99815, 30.55792], [120.97776, 30.54332], [120.94889, 30.50682], [120.93165, 30.47305], [120.9288, 30.45307], [120.93953, 30.42194], [120.9288, 30.40812], [120.89479, 30.40127], [120.91512, 30.38076], [120.91512, 30.37459], [120.88819, 30.36856], [120.83158, 30.30516], [120.81073, 30.29658], [120.78722, 30.29377], [120.76963, 30.30604], [120.754, 30.32707], [120.74496, 30.35961], [120.69815, 30.39395], [120.667, 30.4015], [120.61919, 30.4061], [120.47915, 30.40352], [120.43032, 30.38984], [120.40723, 30.35424], [120.38883, 30.29085], [120.37897, 30.27354], [120.36455, 30.26865], [120.34228, 30.27425], [120.31625, 30.29092], [120.28517, 30.29881], [120.2579, 30.29808], [120.23978, 30.28888], [120.19577, 30.23289], [120.14709, 30.19889], [120.17897, 30.20067], [120.23024, 30.23604], [120.25002, 30.27008], [120.27439, 30.27761], [120.29552, 30.27873], [120.33137, 30.24924], [120.35034, 30.24073], [120.36812, 30.24085], [120.38472, 30.24959], [120.42096, 30.30542], [120.4505, 30.36885], [120.52455, 30.37785], [120.6216, 30.37255], [120.65166, 30.35926], [120.68494, 30.27178], [120.69869, 30.2518], [120.72551, 30.24263], [120.73439, 30.2322], [120.69135, 30.19745], [120.66596, 30.16624], [120.63011, 30.13497], [120.63179, 30.12239], [120.65332, 30.10254], [120.68246, 30.08491], [120.7234, 30.07974], [120.76498, 30.08662], [120.79225, 30.06607], [120.7837, 30.0893], [120.76466, 30.09662], [120.71412, 30.09333], [120.688, 30.09781], [120.66456, 30.1096], [120.64625, 30.12694], [120.70105, 30.18455], [120.75136, 30.22558], [120.81348, 30.21324], [120.82862, 30.18499], [120.85322, 30.17444], [120.89281, 30.1698], [120.92351, 30.18585], [120.95419, 30.19196], [120.9944, 30.21109], [121.10914, 30.28278], [121.1497, 30.32574], [121.18539, 30.33755], [121.25434, 30.34835], [121.37738, 30.32505], [121.42958, 30.29297], [121.50704, 30.21978], [121.55472, 30.16071], [121.62332, 30.05988], [121.65831, 30.01839], [121.67776, 30.00064], [121.70676, 29.98511], [121.73233, 29.9786], [121.72193, 29.96052], [121.75011, 29.9725], [121.76774, 29.97309], [121.81643, 29.95148], [121.91487, 29.91869], [121.93556, 29.88736], [121.9817, 29.89029], [122.05624, 29.88736], [122.10589, 29.90694], [122.12913, 29.90377], [122.1364, 29.88454], [122.11506, 29.87173], [122.02817, 29.836], [121.98304, 29.82318], [121.93678, 29.79169], [121.90217, 29.75255], [121.88532, 29.76128], [121.87315, 29.75383], [121.86244, 29.70801], [121.77646, 29.65262], [121.7041, 29.57202], [121.68761, 29.56279], [121.667, 29.5566], [121.62387, 29.55443], [121.60914, 29.54573], [121.59281, 29.54364], [121.57431, 29.55215], [121.53082, 29.51003], [121.52256, 29.51293], [121.51684, 29.54609], [121.51104, 29.54899], [121.48439, 29.54466], [121.45834, 29.52522], [121.44337, 29.52424], [121.44337, 29.51801], [121.45701, 29.50087], [121.45531, 29.48936], [121.42784, 29.46795], [121.4427, 29.43976], [121.44259, 29.41537], [121.46507, 29.42089], [121.47976, 29.47475], [121.50487, 29.48381], [121.49179, 29.45596], [121.51367, 29.45196], [121.51172, 29.43757], [121.49715, 29.4222], [121.47763, 29.41275], [121.48486, 29.39054], [121.50893, 29.39835], [121.53132, 29.41704], [121.56965, 29.47457], [121.64267, 29.49522], [121.67555, 29.51048], [121.67431, 29.52033], [121.71095, 29.53863], [121.72461, 29.53847], [121.72657, 29.52228], [121.73129, 29.51801], [121.76399, 29.53076], [121.76645, 29.52065], [121.75722, 29.49905], [121.76457, 29.47665], [121.77838, 29.46942], [121.81199, 29.49012], [121.83059, 29.52805], [121.84742, 29.52424], [121.84482, 29.5362], [121.81398, 29.55215], [121.78298, 29.54347], [121.75827, 29.5481], [121.74498, 29.54468], [121.74843, 29.56256], [121.77432, 29.57544], [121.79613, 29.60058], [121.83453, 29.61556], [121.85402, 29.61591], [121.86793, 29.62725], [121.88014, 29.62352], [121.89964, 29.62753], [121.91578, 29.64084], [121.92725, 29.63446], [121.94264, 29.61127], [121.96631, 29.60247], [121.97111, 29.59351], [121.97094, 29.56892], [121.96371, 29.56022], [121.94117, 29.55117], [121.94978, 29.53849], [121.91041, 29.52456], [121.91236, 29.51431], [121.94409, 29.4977], [121.93995, 29.48701], [121.94272, 29.47972], [121.97094, 29.44912], [121.96932, 29.43916], [121.95777, 29.42308], [121.95728, 29.40818], [121.93629, 29.42772], [121.92256, 29.41815], [121.92909, 29.40874], [121.91573, 29.3907], [121.92143, 29.3813], [121.91625, 29.34894], [121.92944, 29.33925], [121.9314, 29.32388], [121.92505, 29.31909], [121.90895, 29.31879], [121.91577, 29.30513], [121.90048, 29.29865], [121.90585, 29.28461], [121.92221, 29.27049], [121.93995, 29.26415], [121.94956, 29.26728], [121.96266, 29.28143], [121.97437, 29.2846], [121.99144, 29.25732], [121.96656, 29.25576], [121.95322, 29.24966], [121.95069, 29.23713], [121.95727, 29.2164], [121.94296, 29.22321], [121.93971, 29.21011], [121.94295, 29.19588], [121.92213, 29.19579], [121.89381, 29.18708], [121.84058, 29.16113], [121.81255, 29.16148], [121.78536, 29.16809], [121.80182, 29.29267], [121.79967, 29.30512], [121.81837, 29.31623], [121.84059, 29.31879], [121.83066, 29.33389], [121.81699, 29.33218], [121.79966, 29.3188], [121.78818, 29.32856], [121.78793, 29.3426], [121.79965, 29.37397], [121.78663, 29.3745], [121.77589, 29.37263], [121.75864, 29.35977], [121.77084, 29.3378], [121.77784, 29.29663], [121.7743, 29.25389], [121.74568, 29.20161], [121.72432, 29.18204], [121.70422, 29.17419], [121.6706, 29.17576], [121.65247, 29.18303], [121.63917, 29.21727], [121.64161, 29.26756], [121.65455, 29.29999], [121.64039, 29.30663], [121.62485, 29.30146], [121.62892, 29.28461], [121.6229, 29.26411], [121.63233, 29.21064], [121.62891, 29.18845], [121.61468, 29.2062], [121.58872, 29.29149], [121.57431, 29.30512], [121.56308, 29.30418], [121.56202, 29.29584], [121.5741, 29.27767], [121.55083, 29.27144], [121.52589, 29.27778], [121.52589, 29.27098], [121.53637, 29.25828], [121.53039, 29.23803], [121.50489, 29.20893], [121.51172, 29.18928], [121.5035, 29.17895], [121.49098, 29.17598], [121.48024, 29.19721], [121.4712, 29.19135], [121.45638, 29.16113], [121.43141, 29.17219], [121.41977, 29.17145], [121.40854, 29.16112], [121.44334, 29.14742], [121.43605, 29.14061], [121.45638, 29.1406], [121.45638, 29.13378], [121.42832, 29.12714], [121.4017, 29.10651], [121.49684, 29.10444], [121.52866, 29.11505], [121.62142, 29.11326], [121.6246, 29.08828], [121.61473, 29.05804], [121.59921, 29.05024], [121.55641, 29.06489], [121.53688, 29.06118], [121.53028, 29.05117], [121.53207, 29.02049], [121.5381, 29.01805], [121.5486, 29.02143], [121.55275, 29.02871], [121.53956, 29.03758], [121.55738, 29.04902], [121.61744, 29.03998], [121.64194, 29.05124], [121.68172, 29.02675], [121.68977, 29.01708], [121.67587, 29.01325], [121.66171, 29.00292], [121.65382, 28.98859], [121.65943, 28.97272], [121.68465, 28.96751], [121.68417, 28.95563], [121.71776, 28.94879], [121.69142, 28.93001], [121.64587, 28.92659], [121.60533, 28.94258], [121.58741, 28.96312], [121.58528, 28.93831], [121.57081, 28.93009], [121.5543, 28.9357], [121.54648, 28.95222], [121.51686, 28.95637], [121.49781, 28.94965], [121.49179, 28.92837], [121.50488, 28.9352], [121.51249, 28.91645], [121.41131, 28.91456], [121.29507, 28.92408], [121.21665, 28.93736], [121.17818, 28.94921], [121.1074, 28.9819], [121.07446, 29.00304], [121.01711, 29.05268], [120.97207, 29.11079], [120.94606, 29.16269], [120.99814, 29.18623], [121.01069, 29.25266], [121.03201, 29.30592], [121.02467, 29.31645], [120.48494, 29.39581], [120.12124, 29.42402], [119.73457, 29.4183], [119.32995, 29.37346], [118.93563, 29.30008], [118.73803, 29.25325], [118.54365, 29.19858], [118.35465, 29.13489], [118.1761, 29.06198], [118.00879, 28.97761], [117.85904, 28.88202], [117.42499, 28.56345], [117.25303, 28.45291], [117.16403, 28.403], [117.02961, 28.34111], [116.88981, 28.29458], [116.74827, 28.26344], [116.60473, 28.24649], [116.46116, 28.24312], [116.31885, 28.2525], [116.17896, 28.27386], [116.04242, 28.30642], [115.82811, 28.39459], [115.65719, 28.52077], [115.52601, 28.67868], [115.43244, 28.86163], [115.37456, 29.06359], [115.35097, 29.27905], [115.3606, 29.50098], [115.40181, 29.72285], [115.44391, 29.86054], [115.50013, 30.00061], [115.5697, 30.14072], [115.65192, 30.27888], [115.7454, 30.4123], [115.84856, 30.53841], [115.95957, 30.6547], [116.07658, 30.75891], [116.92071, 31.44354], [117.27267, 31.70473], [117.54882, 31.89299], [117.83941, 32.09731], [118.47443, 32.56699], [118.6338, 32.67883], [118.73362, 32.73962], [118.82976, 32.78757], [118.9246, 32.82229], [118.99418, 32.84034], [119.08709, 32.87369], [119.13687, 32.88652], [119.19377, 32.89086], [119.25586, 32.88809], [119.31846, 32.87681], [119.37859, 32.85497], [119.40648, 32.83954], [119.42704, 32.82233], [119.49407, 32.73106], [119.52486, 32.70203], [119.56539, 32.7138], [119.65366, 32.71935], [119.74204, 32.70919], [119.82861, 32.68255], [119.94374, 32.6584], [120.02968, 32.62677], [120.09252, 32.59065], [120.15091, 32.54708], [120.19678, 32.5036]]], [[[116.66564, 39.4627], [116.90583, 39.27688], [117.0974, 39.032], [117.24449, 38.74042], [117.35232, 38.42771], [117.42842, 38.13941], [117.47598, 37.90467], [117.49432, 37.71709], [117.48727, 37.53424], [117.45303, 37.3298], [117.38877, 37.11743], [117.29, 36.91439], [117.15017, 36.74106], [116.96272, 36.62002], [116.72146, 36.57593], [116.41949, 36.63642], [116.23758, 36.7244], [116.08948, 36.83792], [115.97205, 36.97129], [115.88207, 37.11858], [115.81626, 37.27391], [115.77142, 37.43158], [115.74439, 37.58624], [115.68029, 38.38827], [115.67467, 38.55368], [115.67969, 38.71659], [115.69925, 38.87535], [115.7373, 39.02842], [115.77289, 39.12899], [115.81795, 39.23338], [115.87407, 39.33546], [115.94279, 39.42882], [116.02561, 39.50681], [116.12402, 39.56249], [116.23945, 39.58853], [116.37331, 39.57704], [116.66564, 39.4627]]], [[[119.47607, 24.99489], [119.47363, 24.98087], [119.4629, 24.97591], [119.45795, 24.98005], [119.46039, 24.99078], [119.47607, 24.99489]]], [[[119.55129, 25.20944], [119.56754, 25.2049], [119.5534, 25.19526], [119.54819, 25.18598], [119.54866, 25.17244], [119.54232, 25.16552], [119.52899, 25.16536], [119.51735, 25.17146], [119.51093, 25.18232], [119.51271, 25.1988], [119.50327, 25.2038], [119.48872, 25.19633], [119.4612, 25.20333], [119.44964, 25.21419], [119.44469, 25.22907], [119.44655, 25.23598], [119.47039, 25.25217], [119.4917, 25.24139], [119.50262, 25.22102], [119.51197, 25.21345], [119.5228, 25.20844], [119.55129, 25.20944]]], [[[119.82316, 25.60114], [119.83284, 25.59089], [119.8169, 25.57982], [119.8745, 25.55679], [119.84653, 25.53634], [119.83448, 25.54914], [119.81861, 25.5458], [119.8047, 25.53262], [119.79884, 25.51582], [119.80641, 25.49584], [119.83968, 25.47914], [119.84651, 25.46118], [119.82106, 25.46751], [119.79461, 25.46304], [119.77198, 25.45059], [119.75782, 25.43325], [119.75733, 25.40495], [119.72199, 25.4139], [119.70388, 25.42358], [119.69306, 25.43765], [119.69778, 25.4566], [119.71176, 25.46955], [119.70997, 25.48786], [119.68922, 25.48047], [119.66848, 25.48786], [119.68621, 25.50771], [119.74855, 25.50259], [119.76637, 25.50625], [119.77833, 25.52204], [119.7588, 25.53075], [119.72633, 25.52514], [119.71617, 25.53632], [119.73048, 25.581], [119.72706, 25.59089], [119.71876, 25.59125], [119.70265, 25.57732], [119.69273, 25.59423], [119.69875, 25.61261], [119.73048, 25.64614], [119.76352, 25.65948], [119.78173, 25.65916], [119.77589, 25.63573], [119.78028, 25.61742], [119.792, 25.60456], [119.80372, 25.61073], [119.82316, 25.60114]]], [[[120.51227, 25.5463], [120.53739, 25.52231], [120.56087, 25.4927], [120.57504, 25.46414], [120.57622, 25.45222], [120.57224, 25.44289], [120.56266, 25.43582], [120.52448, 25.4225], [120.44809, 25.41223], [120.40504, 25.41626], [120.38785, 25.42334], [120.37393, 25.4332], [120.3251, 25.49749], [120.29949, 25.51542], [120.1883, 25.5632], [120.17531, 25.57278], [120.17075, 25.58194], [120.17401, 25.59232], [120.20255, 25.61495], [120.30776, 25.67145], [120.51227, 25.5463]]], [[[119.67354, 25.65415], [119.681, 25.65184], [119.71704, 25.66391], [119.71876, 25.64557], [119.71453, 25.64025], [119.67661, 25.63647], [119.66539, 25.64428], [119.67354, 25.65415]]], [[[119.59621, 25.66835], [119.60777, 25.66961], [119.60679, 25.65865], [119.57772, 25.63159], [119.56342, 25.637], [119.55911, 25.64366], [119.56545, 25.64902], [119.57187, 25.64024], [119.59621, 25.66835]]], [[[119.99007, 25.96929], [119.98926, 25.96129], [119.96658, 25.94744], [119.97585, 25.96673], [119.98528, 25.96487], [119.99007, 25.96929]]], [[[119.94199, 25.98089], [119.95219, 25.97616], [119.93735, 25.96489], [119.92858, 25.97667], [119.94199, 25.98089]]], [[[119.57488, 26.11953], [119.59936, 26.12811], [119.62696, 26.10789], [119.64395, 26.07863], [119.63884, 26.07051], [119.62037, 26.06421], [119.56529, 26.08048], [119.55397, 26.09566], [119.57488, 26.11953]]], [[[119.95345, 26.14969], [119.92628, 26.13899], [119.91669, 26.14481], [119.91376, 26.15298], [119.91961, 26.16933], [119.92358, 26.16986], [119.92457, 26.1625], [119.93686, 26.15811], [119.95363, 26.16684], [119.96403, 26.16693], [119.96427, 26.16055], [119.95345, 26.14969]]], [[[119.97103, 26.19239], [119.96511, 26.20002], [119.96877, 26.22011], [119.99407, 26.23305], [120.00358, 26.23179], [120.01416, 26.22036], [120.01351, 26.20582], [119.99887, 26.21939], [119.98129, 26.21524], [119.97103, 26.19239]]], [[[120.49106, 26.38873], [120.50764, 26.37593], [120.49635, 26.37438], [120.48959, 26.36414], [120.47691, 26.37011], [120.47911, 26.38068], [120.49106, 26.38873]]], [[[120.03568, 26.52112], [120.06185, 26.52443], [120.06543, 26.51687], [120.06079, 26.50105], [120.03549, 26.49308], [120.02794, 26.49637], [120.03568, 26.52112]]], [[[120.1164, 26.56972], [120.13505, 26.58379], [120.14984, 26.60553], [120.16162, 26.60223], [120.16487, 26.5938], [120.16097, 26.57735], [120.12859, 26.55607], [120.1164, 26.56972]]], [[[119.76044, 26.61628], [119.77002, 26.62689], [119.79461, 26.63218], [119.81363, 26.6236], [119.8073, 26.61295], [119.79274, 26.61514], [119.7754, 26.60392], [119.76491, 26.60884], [119.76044, 26.61628]]], [[[119.72234, 26.65009], [119.7155, 26.64168], [119.69662, 26.6385], [119.67449, 26.64423], [119.66408, 26.64111], [119.65513, 26.66112], [119.65765, 26.66807], [119.71599, 26.66835], [119.72698, 26.66266], [119.73529, 26.67737], [119.75074, 26.67934], [119.75643, 26.67487], [119.74919, 26.66345], [119.72234, 26.65009]]], [[[119.90447, 26.68618], [119.90594, 26.69237], [119.94409, 26.69537], [119.93556, 26.67748], [119.94238, 26.6631], [119.93214, 26.67048], [119.92645, 26.66903], [119.9236, 26.67914], [119.90447, 26.68618]]], [[[120.31201, 26.93107], [120.29786, 26.92907], [120.28543, 26.93403], [120.30266, 26.94179], [120.313, 26.93842], [120.31201, 26.93107]]], [[[120.31853, 26.94859], [120.32243, 26.96208], [120.33709, 26.97003], [120.35092, 26.97117], [120.36304, 26.96303], [120.37387, 26.94359], [120.38566, 26.93517], [120.35255, 26.92379], [120.31853, 26.94859]]], [[[121.78003, 31.32519], [121.76637, 31.32064], [121.72047, 31.35773], [121.59901, 31.42903], [121.5845, 31.44139], [121.59116, 31.44586], [121.61845, 31.4437], [121.69093, 31.41929], [121.72578, 31.40261], [121.76224, 31.37389], [121.77417, 31.35919], [121.78222, 31.34178], [121.78003, 31.32519]]], [[[121.5713, 31.71362], [121.66322, 31.65235], [121.72123, 31.63031], [121.84407, 31.60793], [121.91918, 31.57833], [121.98007, 31.54029], [121.98658, 31.5039], [121.97784, 31.47778], [121.85137, 31.43919], [121.81733, 31.44666], [121.78335, 31.46569], [121.73058, 31.48464], [121.68463, 31.50681], [121.57155, 31.52937], [121.51746, 31.56839], [121.40488, 31.6136], [121.37552, 31.63413], [121.34474, 31.64132], [121.31447, 31.65559], [121.2859, 31.70405], [121.22452, 31.73768], [121.1763, 31.78433], [121.18145, 31.79597], [121.21931, 31.82946], [121.26407, 31.84106], [121.38635, 31.81164], [121.47529, 31.77076], [121.53518, 31.72841], [121.5713, 31.71362]]], [[[120.56537, 32.05231], [120.57952, 32.06253], [120.60011, 32.06082], [120.6272, 32.04653], [120.63135, 32.03608], [120.62688, 32.0306], [120.58188, 32.03328], [120.56627, 32.04174], [120.56537, 32.05231]]], [[[119.87492, 32.15542], [119.88071, 32.12519], [119.90185, 32.0734], [119.89031, 32.07539], [119.85874, 32.10155], [119.792, 32.12177], [119.78712, 32.12958], [119.792, 32.14228], [119.79104, 32.16547], [119.81935, 32.20376], [119.75013, 32.22789], [119.7195, 32.24958], [119.71617, 32.27264], [119.75083, 32.29311], [119.78533, 32.29168], [119.81429, 32.27557], [119.83297, 32.25189], [119.87492, 32.15542]]], [[[121.92515, 29.06307], [121.91228, 29.07136], [121.8887, 29.07234], [121.90016, 29.09374], [121.87159, 29.12661], [121.86819, 29.1474], [121.88137, 29.16029], [121.90333, 29.16656], [121.9266, 29.16672], [121.9432, 29.16111], [121.95191, 29.15228], [121.95833, 29.10188], [121.93531, 29.0629], [121.92515, 29.06307]]], [[[121.78983, 29.14985], [121.84392, 29.1419], [121.85678, 29.13426], [121.86736, 29.11579], [121.85352, 29.09757], [121.84206, 29.09505], [121.81446, 29.11538], [121.78583, 29.11971], [121.78274, 29.12466], [121.78983, 29.14985]]], [[[122.20461, 29.71909], [122.21165, 29.71946], [122.22877, 29.70661], [122.27214, 29.69073], [122.2749, 29.68342], [122.24903, 29.69245], [122.24011, 29.68717], [122.20819, 29.70597], [122.20461, 29.71909]]], [[[122.16296, 29.65456], [122.16977, 29.67504], [122.14943, 29.66886], [122.14942, 29.68183], [122.12746, 29.66902], [122.1211, 29.69172], [122.09278, 29.72578], [122.0739, 29.72443], [122.05307, 29.71602], [122.03648, 29.71748], [122.0329, 29.73094], [122.03933, 29.74754], [122.06821, 29.77952], [122.11475, 29.78851], [122.12374, 29.77111], [122.12208, 29.7508], [122.17684, 29.69704], [122.18685, 29.67341], [122.16296, 29.65456]]], [[[122.27866, 29.73152], [122.24204, 29.74454], [122.21657, 29.77241], [122.22664, 29.78225], [122.24008, 29.78639], [122.2513, 29.77834], [122.24724, 29.76044], [122.27792, 29.74917], [122.2981, 29.74945], [122.30696, 29.73713], [122.27866, 29.73152]]], [[[122.03019, 29.81606], [122.02901, 29.80632], [122.00562, 29.77693], [121.99382, 29.76924], [121.96828, 29.77384], [121.96852, 29.79463], [121.97747, 29.80541], [122.02434, 29.82465], [122.03019, 29.81606]]], [[[122.25132, 29.80611], [122.23269, 29.82783], [122.23171, 29.83624], [122.24774, 29.84609], [122.27093, 29.84682], [122.31201, 29.82904], [122.3047, 29.81745], [122.31469, 29.78368], [122.30836, 29.77628], [122.29535, 29.77925], [122.25132, 29.80611]]], [[[122.30429, 29.85559], [122.28445, 29.86307], [122.29234, 29.88303], [122.3344, 29.88454], [122.34301, 29.87958], [122.33562, 29.87246], [122.33607, 29.86673], [122.30429, 29.85559]]], [[[122.34645, 29.94941], [122.35914, 29.94627], [122.40674, 29.95269], [122.40747, 29.93061], [122.39519, 29.92206], [122.40967, 29.9112], [122.40804, 29.89985], [122.38282, 29.86473], [122.39404, 29.84788], [122.39518, 29.83333], [122.37722, 29.83894], [122.35712, 29.86172], [122.36879, 29.88607], [122.36207, 29.90449], [122.33351, 29.92061], [122.32067, 29.93703], [122.32215, 29.94862], [122.33546, 29.96132], [122.3418, 29.96303], [122.34645, 29.94941]]], [[[121.93361, 29.92132], [121.94607, 29.94255], [121.95997, 29.95318], [121.96647, 29.95172], [121.99338, 29.91904], [121.99243, 29.90828], [121.97413, 29.89985], [121.94614, 29.90396], [121.93361, 29.92132]]], [[[122.04046, 29.96649], [122.052, 29.96246], [122.05384, 29.9535], [122.03826, 29.93453], [122.02667, 29.94388], [122.02525, 29.95368], [122.04046, 29.96649]]], [[[122.14625, 29.97374], [122.13481, 29.97468], [122.16147, 29.98994], [122.18387, 29.9677], [122.17652, 29.96008], [122.14625, 29.97374]]], [[[122.39527, 30.00243], [122.39096, 29.9962], [122.39185, 29.97452], [122.37201, 29.98168], [122.36933, 29.98769], [122.37574, 29.99525], [122.37909, 30.02638], [122.40219, 30.03253], [122.40511, 30.03001], [122.40056, 30.01577], [122.41373, 30.00613], [122.41162, 30.00268], [122.39527, 30.00243]]], [[[121.9021, 30.05352], [121.90918, 30.04499], [121.91048, 30.02412], [121.90332, 30.00178], [121.88965, 29.98396], [121.87159, 29.97672], [121.86039, 29.97806], [121.83638, 29.98856], [121.82903, 29.9973], [121.83478, 30.04519], [121.84768, 30.08315], [121.85304, 30.08713], [121.87647, 30.0816], [121.88526, 30.06118], [121.9021, 30.05352]]], [[[122.1736, 30.10224], [122.18246, 30.09858], [122.20387, 30.09954], [122.22957, 30.0915], [122.25611, 30.06818], [122.28956, 30.06732], [122.29693, 30.06269], [122.30421, 30.04198], [122.32251, 30.03192], [122.32747, 30.02427], [122.32666, 30.01081], [122.30698, 29.99722], [122.29362, 29.9338], [122.27785, 29.93994], [122.24562, 29.96988], [122.18474, 29.99445], [122.14422, 30.0004], [122.0774, 30.01765], [122.06528, 30.01594], [122.02572, 29.99727], [122.01052, 30.00032], [122.01222, 30.03193], [121.99172, 30.03808], [121.97341, 30.05997], [121.97187, 30.06769], [121.9808, 30.09007], [121.96337, 30.14251], [121.97489, 30.14802], [122.08763, 30.14747], [122.1035, 30.14359], [122.13234, 30.12376], [122.1648, 30.1205], [122.16976, 30.11725], [122.1736, 30.10224]]], [[[121.91624, 30.1066], [121.931, 30.11464], [121.95639, 30.10851], [121.94957, 30.08778], [121.93174, 30.06946], [121.92661, 30.08381], [121.90823, 30.09301], [121.91624, 30.1066]]], [[[122.75625, 30.144], [122.77133, 30.14105], [122.7814, 30.13239], [122.76328, 30.12772], [122.75625, 30.144]]], [[[122.18229, 30.16247], [122.16236, 30.144], [122.1452, 30.16243], [122.14496, 30.18866], [122.16882, 30.20199], [122.18531, 30.19614], [122.19093, 30.18952], [122.19923, 30.19293], [122.20622, 30.18822], [122.20101, 30.17732], [122.18304, 30.17149], [122.18229, 30.16247]]], [[[122.05688, 30.18782], [122.02362, 30.16577], [122.02646, 30.17796], [122.01078, 30.18627], [122.02646, 30.19903], [122.0359, 30.1944], [122.04054, 30.20249], [122.05322, 30.19883], [122.05688, 30.18782]]], [[[122.68482, 30.18192], [122.68279, 30.19098], [122.66995, 30.20352], [122.67482, 30.20969], [122.68791, 30.19831], [122.68482, 30.18192]]], [[[122.64803, 30.18626], [122.63227, 30.21059], [122.64177, 30.21433], [122.6486, 30.19595], [122.64803, 30.18626]]], [[[122.39585, 30.23946], [122.38454, 30.25015], [122.38063, 30.26374], [122.34571, 30.24194], [122.27761, 30.23555], [122.28725, 30.24763], [122.3025, 30.2521], [122.32399, 30.27215], [122.38235, 30.27715], [122.39991, 30.2746], [122.41064, 30.25471], [122.40853, 30.24397], [122.39585, 30.23946]]], [[[122.22047, 30.3207], [122.23875, 30.31313], [122.20387, 30.29141], [122.20387, 30.28514], [122.23191, 30.27773], [122.21957, 30.27045], [122.21452, 30.24731], [122.20232, 30.24194], [122.13771, 30.25463], [122.11403, 30.26509], [122.0736, 30.29141], [122.08815, 30.30581], [122.12181, 30.3192], [122.15284, 30.3227], [122.16603, 30.33168], [122.21143, 30.34661], [122.22509, 30.33234], [122.21876, 30.32608], [122.22047, 30.3207]]], [[[121.97021, 30.30736], [121.9555, 30.29339], [121.95136, 30.30797], [121.96567, 30.33628], [121.97316, 30.33458], [121.9739, 30.34393], [121.98234, 30.34474], [121.98154, 30.33553], [121.96982, 30.31826], [121.97021, 30.30736]]], [[[122.3685, 30.4632], [122.37468, 30.45734], [122.41097, 30.45213], [122.42309, 30.41496], [122.34799, 30.43598], [122.306, 30.42317], [122.28542, 30.42208], [122.27281, 30.43598], [122.28712, 30.44221], [122.27379, 30.45136], [122.27681, 30.47996], [122.28711, 30.48313], [122.29078, 30.47167], [122.31129, 30.47263], [122.33741, 30.45848], [122.34881, 30.46064], [122.36914, 30.47697], [122.3685, 30.4632]]], [[[122.08788, 30.59673], [122.07724, 30.58983], [122.08113, 30.58357], [122.07123, 30.57659], [122.06479, 30.58682], [122.05033, 30.59165], [122.08788, 30.59673]]], [[[121.83473, 31.29256], [121.82343, 31.3024], [121.81337, 31.32055], [121.79422, 31.3688], [121.80446, 31.37469], [121.83774, 31.37514], [121.86784, 31.36619], [121.87793, 31.35431], [121.88183, 31.33662], [121.87744, 31.31965], [121.86621, 31.30419], [121.85108, 31.29394], [121.83473, 31.29256]]]]}}]}