{"type": "FeatureCollection", "features": [{"type": "Feature", "properties": {"map_title": "중세 유럽의 교역 발달", "source": "미래엔 세계사 교과서 1권 59쪽", "volume": 1, "page": 59, "name": "샹파뉴 지방(정기시)", "name_en": "Champagne (fairs)", "period": "12~13세기", "kind": "기타", "legend": "샹파뉴 지방 정기시 형성", "coast_snap": "Natural Earth 10m 해안선에 맞춤", "group": "샹파뉴 지방", "map_folder": "1권_p059_중세 유럽의 교역 발달"}, "geometry": {"type": "Polygon", "coordinates": [[[3.78461, 49.46423], [3.86165, 49.06053], [3.89073, 48.85962], [3.90762, 48.66815], [3.90433, 48.4925], [3.87193, 48.33883], [3.80264, 48.21314], [3.69717, 48.12508], [3.56485, 48.07927], [3.41668, 48.07342], [3.267, 48.10489], [3.1303, 48.17094], [3.01753, 48.26909], [2.93431, 48.39733], [2.88108, 48.55427], [2.85419, 48.73063], [2.84376, 48.91543], [2.84128, 49.29453], [2.85238, 49.47764], [2.8827, 49.64751], [2.93915, 49.79808], [3.02361, 49.92448], [3.12795, 50.0183], [3.23879, 50.07518], [3.34776, 50.09622], [3.44882, 50.08146], [3.53857, 50.03024], [3.6158, 49.94179], [3.68115, 49.81586], [3.7369, 49.65304], [3.78461, 49.46423]]]}}]}