{"type": "FeatureCollection", "features": [{"type": "Feature", "properties": {"map_title": "중세 유럽의 교역 발달", "source": "미래엔 세계사 교과서 1권 59쪽", "volume": 1, "page": 59, "name": "롬바르드 동맹", "name_en": "Lombard League", "period": "1167년~", "kind": "기타", "legend": "롬바르드 동맹 결성", "coast_snap": "Natural Earth 10m 해안선에 맞춤", "border_snap": "현대 국경(Natural Earth 10m)에 맞춘 구간 약 340 km", "group": "롬바르드 동맹", "map_folder": "1권_p059_중세 유럽의 교역 발달"}, "geometry": {"type": "MultiPolygon", "coordinates": [[[[10.05886, 42.57593], [10.05032, 42.58194], [10.05259, 42.58901], [10.06275, 42.59203], [10.08431, 42.61468], [10.0979, 42.58796], [10.09538, 42.57698], [10.08578, 42.57247], [10.05886, 42.57593]]], [[[9.26465, 42.70888], [9.28533, 42.67475], [9.29217, 42.67475], [9.32789, 42.72004], [9.34254, 42.74909], [9.33303, 42.77094], [9.34099, 42.79011], [9.33546, 42.8076], [9.30569, 42.83926], [9.33302, 42.86713], [9.32634, 42.88552], [9.33027, 42.90355], [9.3602, 42.92862], [9.35574, 42.93651], [9.3602, 42.94912], [9.34996, 42.95723], [9.34345, 42.97309], [9.3467, 43.00372], [9.36305, 43.01153], [9.40431, 43.01166], [9.42237, 43.01739], [9.43556, 43.00373], [9.46403, 42.99005], [9.45387, 42.96381], [9.47005, 42.94229], [9.46551, 42.92353], [9.48434, 42.83264], [9.48277, 42.80255], [9.45037, 42.70889], [9.45037, 42.65363], [9.44288, 42.64057], [9.45655, 42.63443], [9.46168, 42.61982], [9.45655, 42.60643], [9.4646, 42.60162], [9.4769, 42.57917], [9.51189, 42.5655], [9.50912, 42.57998], [9.48964, 42.61255], [9.52807, 42.56354], [9.53338, 42.45624], [9.5459, 42.43513], [9.53868, 42.41837], [9.23173, 42.45254], [9.13574, 42.47076], [8.80818, 42.58699], [8.81284, 42.59959], [8.80546, 42.60642], [8.84534, 42.60895], [8.90651, 42.63246], [9.01832, 42.65013], [9.04998, 42.66218], [9.053, 42.68158], [9.11814, 42.73204], [9.16521, 42.73516], [9.23682, 42.72255], [9.26465, 42.70888]]], [[[10.32211, 42.81171], [10.33277, 42.80598], [10.34734, 42.80585], [10.38136, 42.83242], [10.39993, 42.86883], [10.41236, 42.87335], [10.42174, 42.87092], [10.44335, 42.84545], [10.43116, 42.82787], [10.43668, 42.80443], [10.42025, 42.77644], [10.38884, 42.7635], [10.40794, 42.75728], [10.42494, 42.74099], [10.43066, 42.72212], [10.41554, 42.70891], [10.41098, 42.71796], [10.38137, 42.72257], [10.36427, 42.74982], [10.3379, 42.76484], [10.32504, 42.76484], [10.31373, 42.74301], [10.30454, 42.75975], [10.26539, 42.74459], [10.24537, 42.75727], [10.23489, 42.73588], [10.14723, 42.7373], [10.12513, 42.74304], [10.1068, 42.7574], [10.10142, 42.784], [10.11167, 42.80125], [10.13272, 42.81178], [10.17953, 42.81874], [10.22438, 42.80443], [10.26588, 42.80443], [10.25906, 42.81191], [10.27215, 42.81875], [10.27216, 42.82733], [10.32682, 42.82623], [10.32211, 42.81171]]], [[[9.80151, 43.00782], [9.78461, 43.02844], [9.80722, 43.06653], [9.82578, 43.07462], [9.84749, 43.05857], [9.85479, 43.04428], [9.84212, 43.02496], [9.82295, 43.00847], [9.80151, 43.00782]]], [[[9.90845, 43.42692], [9.89423, 43.43253], [9.90023, 43.44378], [9.90813, 43.44659], [9.91569, 43.44293], [9.90845, 43.42692]]], [[[7.74608, 44.39966], [7.75977, 44.55618], [7.72566, 44.73384], [7.72501, 44.91483], [7.69165, 45.10876], [7.70477, 45.29276], [7.70463, 45.48292], [7.77871, 45.68619], [7.82544, 45.91467], [7.84374, 45.91921], [7.84962, 45.93971], [7.8702, 45.94037], [7.87292, 45.95938], [7.88378, 45.97387], [7.89821, 45.98195], [7.96911, 45.99311], [7.98585, 45.99931], [7.99835, 46.01063], [8.01065, 46.0297], [8.0182, 46.08086], [8.02533, 46.09114], [8.03535, 46.09652], [8.06688, 46.1006], [8.11059, 46.12695], [8.1323, 46.15935], [8.12951, 46.19604], [8.09995, 46.23563], [8.07308, 46.25361], [8.08734, 46.2718], [8.10687, 46.28555], [8.12847, 46.29247], [8.17188, 46.29919], [8.19255, 46.30916], [8.24175, 46.35412], [8.28154, 46.37012], [8.29746, 46.38751], [8.29704, 46.39763], [8.2866, 46.40536], [8.29498, 46.41805], [8.31627, 46.43365], [8.34345, 46.44389], [8.39916, 46.45218], [8.42789, 46.44869], [8.44163, 46.43495], [8.44577, 46.41236], [8.44629, 46.38218], [8.44287, 46.35337], [8.42665, 46.30157], [8.42324, 46.27583], [8.42717, 46.25144], [8.43812, 46.23537], [8.45652, 46.22483], [8.51026, 46.20788], [8.53868, 46.18762], [8.60183, 46.12282], [8.63087, 46.11471], [8.67748, 46.09579], [8.69505, 46.09517], [8.72389, 46.10954], [8.83946, 46.32725], [8.91393, 46.33901], [9.18133, 46.20405], [9.20417, 46.21356], [9.22484, 46.23118], [9.23973, 46.267], [9.26897, 46.30937], [9.27518, 46.33138], [9.27383, 46.34425], [9.2604, 46.37973], [9.26288, 46.40663], [9.26091, 46.41665], [9.24758, 46.42303], [9.23797, 46.43655], [9.24582, 46.46104], [9.26319, 46.48512], [9.28231, 46.49737], [9.33099, 46.5015], [9.35083, 46.49786], [9.35155, 46.48548], [9.38463, 46.46642], [9.39548, 46.46941], [9.41067, 46.4889], [9.43465, 46.49833], [9.43785, 46.49205], [9.44436, 46.37528], [9.4826, 46.35681], [9.50255, 46.32074], [9.51526, 46.3086], [9.53645, 46.29862], [9.55971, 46.29273], [9.67432, 46.2918], [9.69313, 46.29707], [9.70843, 46.31175], [9.70926, 46.34239], [9.72011, 46.35089], [9.73086, 46.35071], [9.75525, 46.34053], [9.76806, 46.33862], [9.8554, 46.36696], [9.89901, 46.37216], [9.91844, 46.37115], [9.93901, 46.36746], [9.96402, 46.35609], [9.97064, 46.33981], [9.97105, 46.32002], [9.97756, 46.2981], [9.99224, 46.28436], [10.03172, 46.26007], [10.04185, 46.24307], [10.04267, 46.22049], [10.07575, 46.22002], [10.11791, 46.23113], [10.14582, 46.24333], [10.15894, 46.26245], [10.14613, 46.28028], [10.10489, 46.30937], [10.09177, 46.32896], [10.09745, 46.35164], [10.10499, 46.36136], [10.13321, 46.3811], [10.14075, 46.4029], [10.13342, 46.41402], [10.04205, 46.43272], [10.02634, 46.44626], [10.04402, 46.46698], [10.03533, 46.47107], [10.0281, 46.48393], [10.02686, 46.49318], [10.0312, 46.50383], [10.03275, 46.53297], [10.0712, 46.56439], [10.08784, 46.60439], [10.19212, 46.62682], [10.21786, 46.62697], [10.23377, 46.61798], [10.23574, 46.60669], [10.23026, 46.58615], [10.2347, 46.5753], [10.27594, 46.56553], [10.29537, 46.55109], [10.31945, 46.54605], [10.35428, 46.54832], [10.42591, 46.53533], [10.44399, 46.53773], [10.58194, 46.32876], [10.86234, 46.29869], [11.26173, 46.22098], [11.65413, 46.13952], [12.01654, 46.02921], [12.35363, 45.91719], [12.45097, 45.93103], [12.50201, 45.93314], [12.64192, 45.92174], [12.70355, 45.98792], [12.76903, 46.03689], [12.82629, 46.06755], [12.86119, 46.06443], [12.95866, 46.0452], [13.04823, 46.01326], [13.2467, 45.90557], [13.31856, 45.8569], [13.49309, 45.71243], [13.46925, 45.70686], [13.42798, 45.68115], [13.4017, 45.67545], [13.37676, 45.68317], [13.40919, 45.69131], [13.43141, 45.70686], [13.42262, 45.72407], [13.38169, 45.73006], [13.3694, 45.74462], [13.35182, 45.74031], [13.2549, 45.75606], [13.21551, 45.7788], [13.16944, 45.76874], [13.14967, 45.75154], [13.13982, 45.75487], [13.13136, 45.76887], [13.11931, 45.77196], [13.11085, 45.76765], [13.10816, 45.7582], [13.11183, 45.74885], [13.12288, 45.74462], [13.12288, 45.73722], [13.1006, 45.73623], [13.08058, 45.72761], [13.06959, 45.71369], [13.07504, 45.69684], [13.09148, 45.6892], [13.11166, 45.69135], [13.14964, 45.70374], [13.13802, 45.6894], [13.10304, 45.66901], [13.08496, 45.64192], [13.06055, 45.63667], [12.9817, 45.63483], [12.94386, 45.62857], [12.78039, 45.5534], [12.61194, 45.49626], [12.51271, 45.47044], [12.4878, 45.45674], [12.45143, 45.45043], [12.41033, 45.43622], [12.4358, 45.47492], [12.43094, 45.48403], [12.44728, 45.48432], [12.45144, 45.49824], [12.45818, 45.49824], [12.46697, 45.48558], [12.47193, 45.48591], [12.47869, 45.49079], [12.46503, 45.50445], [12.49732, 45.50673], [12.5066, 45.49824], [12.49293, 45.49824], [12.49293, 45.49079], [12.51515, 45.49274], [12.52151, 45.51898], [12.53048, 45.52558], [12.56251, 45.53164], [12.58172, 45.55288], [12.53728, 45.53583], [12.51065, 45.5589], [12.5066, 45.57331], [12.45851, 45.54833], [12.4419, 45.53034], [12.45143, 45.51191], [12.43491, 45.51236], [12.41774, 45.52359], [12.40357, 45.51813], [12.39674, 45.53925], [12.38413, 45.52302], [12.39039, 45.51398], [12.424, 45.50446], [12.42399, 45.49824], [12.3934, 45.49165], [12.38056, 45.49479], [12.38307, 45.50446], [12.35043, 45.50487], [12.30958, 45.48892], [12.27272, 45.46361], [12.2527, 45.43622], [12.2527, 45.43], [12.25894, 45.43], [12.2461, 45.41132], [12.24855, 45.40253], [12.25894, 45.39521], [12.2492, 45.38548], [12.24528, 45.36108], [12.22381, 45.35395], [12.23217, 45.34056], [12.21631, 45.31623], [12.20873, 45.30907], [12.18755, 45.30647], [12.16293, 45.31623], [12.15447, 45.31346], [12.1491, 45.29218], [12.15983, 45.2831], [12.16879, 45.26215], [12.18068, 45.25804], [12.19166, 45.26288], [12.19939, 45.2746], [12.19746, 45.29962], [12.21728, 45.29384], [12.22485, 45.25117], [12.21111, 45.24299], [12.22485, 45.23069], [12.22137, 45.21625], [12.23048, 45.20425], [12.24732, 45.19693], [12.26637, 45.1966], [12.25898, 45.20282], [12.30727, 45.23068], [12.29802, 45.2154], [12.32104, 45.17235], [12.32845, 45.10102], [12.3073, 45.10786], [12.3073, 45.12836], [12.29737, 45.10635], [12.29672, 45.08857], [12.30665, 45.07856], [12.32846, 45.0799], [12.32106, 45.09357], [12.341, 45.08124], [12.37623, 45.03897], [12.37623, 45.03217], [12.35515, 45.02464], [12.36883, 45.01097], [12.38356, 45.02643], [12.38657, 45.03876], [12.36885, 45.06559], [12.41341, 45.04287], [12.41033, 45.03217], [12.44458, 45.01096], [12.48618, 44.97651], [12.4992, 44.98371], [12.4861, 44.98371], [12.48609, 44.99114], [12.50261, 44.99143], [12.51701, 44.98746], [12.53385, 44.97004], [12.52312, 44.95002], [12.52701, 44.94335], [12.5127, 44.92232], [12.49903, 44.92145], [12.4873, 44.86225], [12.44459, 44.82052], [12.424, 44.85464], [12.43922, 44.87759], [12.44304, 44.89008], [12.43832, 44.90111], [12.42693, 44.90498], [12.40691, 44.8913], [12.3921, 44.86839], [12.39161, 44.85883], [12.41652, 44.85114], [12.40821, 44.83625], [12.39674, 44.83348], [12.39674, 44.82665], [12.424, 44.82049], [12.41592, 44.80315], [12.39795, 44.79378], [12.37567, 44.79223], [12.30299, 44.84292], [12.29233, 44.84325], [12.26637, 44.82665], [12.26637, 44.8205], [12.28002, 44.8205], [12.25359, 44.75129], [12.24659, 44.71161], [12.2527, 44.6684], [12.28577, 44.60292], [12.28004, 44.53189], [12.2837, 44.48762], [12.32106, 44.35371], [12.34199, 44.32973], [12.35027, 44.28815], [12.36883, 44.25068], [12.38998, 44.22272], [12.41717, 44.19546], [12.45801, 44.1664], [12.47877, 44.13935], [12.51092, 44.11457], [12.54737, 44.09345], [12.57422, 44.08559], [12.63136, 44.0301], [12.69158, 43.99063], [12.75611, 43.97187], [12.80396, 43.96685], [12.86215, 43.93537], [12.92887, 43.91583], [12.94728, 43.89761], [13.25327, 43.70319], [13.38981, 43.64459], [13.39967, 43.63565], [13.44662, 43.62371], [13.4734, 43.61201], [13.50441, 43.63275], [13.51611, 43.63173], [13.52101, 43.62271], [13.54321, 43.61322], [13.57887, 43.5729], [13.59791, 43.56952], [13.61556, 43.56048], [13.62451, 43.54719], [13.61695, 43.53132], [13.65856, 43.45385], [13.53723, 43.3388], [13.46538, 43.29162], [13.38185, 43.25533], [13.33715, 43.24192], [13.25143, 43.22609], [13.20744, 43.30396], [13.15322, 43.32364], [12.9898, 43.39856], [12.97908, 43.39891], [12.94907, 43.37288], [12.46792, 43.07973], [11.95121, 42.8663], [11.56833, 42.77472], [11.56389, 42.76431], [11.5907, 42.73157], [11.68031, 42.69317], [11.6614, 42.62787], [11.62385, 42.56297], [11.57, 42.50471], [11.50192, 42.4553], [11.46334, 42.43452], [11.38655, 42.40438], [11.35467, 42.40721], [11.36206, 42.40039], [11.33302, 42.40059], [11.25904, 42.42084], [11.22739, 42.42219], [11.21127, 42.41889], [11.20436, 42.41096], [11.20092, 42.39546], [11.1851, 42.37304], [11.14917, 42.37055], [11.13453, 42.38418], [11.10663, 42.39127], [11.08677, 42.41836], [11.08696, 42.42945], [11.09897, 42.44268], [11.11302, 42.44635], [11.14182, 42.4388], [11.16419, 42.43983], [11.17969, 42.4565], [11.18845, 42.48027], [11.18686, 42.52082], [11.16605, 42.54622], [11.15846, 42.56403], [11.12868, 42.55806], [11.09742, 42.60688], [11.08092, 42.61271], [11.07781, 42.63223], [11.00572, 42.66792], [10.99, 42.71027], [10.94361, 42.74299], [10.89088, 42.7639], [10.73132, 42.80443], [10.75538, 42.81916], [10.7649, 42.83527], [10.76565, 42.8771], [10.77768, 42.89472], [10.76352, 42.91828], [10.68141, 42.94904], [10.6325, 42.95848], [10.58326, 42.9597], [10.53907, 42.94912], [10.54654, 42.93476], [10.51857, 42.92529], [10.49954, 42.9405], [10.47757, 42.99005], [10.5027, 43.00556], [10.5171, 43.02391], [10.53907, 43.07941], [10.5357, 43.11289], [10.54656, 43.14712], [10.53448, 43.18505], [10.52817, 43.24677], [10.43702, 43.38858], [10.37338, 43.45319], [10.35914, 43.46528], [10.32636, 43.47688], [10.31734, 43.49243], [10.29474, 43.56882], [10.26401, 43.80939], [10.25164, 43.84662], [10.21013, 43.92023], [10.18067, 43.95527], [10.1365, 43.97871], [10.10581, 44.01675], [10.09059, 44.02538], [10.07204, 44.02954], [10.03533, 44.04784], [9.98854, 44.05976], [9.98071, 44.04988], [9.96274, 44.04468], [9.88795, 44.093], [9.8768, 44.08785], [9.84474, 44.10863], [9.82643, 44.10725], [9.83325, 44.09985], [9.81959, 44.093], [9.83058, 44.07884], [9.84749, 44.07249], [9.84749, 44.06632], [9.83326, 44.05207], [9.84634, 44.04629], [9.84253, 44.04117], [9.8323, 44.04231], [9.81983, 44.06338], [9.77183, 44.07942], [9.68263, 44.13654], [9.62111, 44.14827], [9.57994, 44.17895], [9.57301, 44.1916], [9.49904, 44.22184], [9.48439, 44.24384], [9.45418, 44.23773], [9.43679, 44.2395], [9.42237, 44.25678], [9.37453, 44.2718], [9.36769, 44.29442], [9.26308, 44.33626], [9.23064, 44.3537], [9.21371, 44.33344], [9.21069, 44.30534], [9.16506, 44.31831], [9.14667, 44.32856], [9.14861, 44.34003], [9.13006, 44.36335], [9.10206, 44.37397], [9.00123, 44.38728], [8.92368, 44.41157], [8.86873, 44.40973], [8.84567, 44.41343], [8.827, 44.42845], [8.76238, 44.43212], [8.73715, 44.42878], [8.67855, 44.39469], [8.65512, 44.39468], [8.59376, 44.36275], [8.56479, 44.35716], [8.54029, 44.34004], [8.46608, 44.30427], [8.44451, 44.28388], [8.4497, 44.26435], [8.43538, 44.24043], [8.41188, 44.22704], [8.4065, 44.21503], [8.4082, 44.19351], [8.39427, 44.18226], [8.31349, 44.16047], [8.28468, 44.14826], [8.25652, 44.12836], [8.23316, 44.10358], [8.22998, 44.0725], [8.21631, 44.04524], [8.16912, 44.00666], [8.15268, 43.98322], [8.16797, 43.9565], [8.14471, 43.95258], [8.11524, 43.92769], [8.0892, 43.91987], [8.06771, 43.89668], [8.03142, 43.88752], [7.95972, 43.85286], [7.78582, 43.82197], [7.73631, 43.7982], [7.695, 43.79122], [7.57203, 43.79133], [7.54378, 43.78449], [7.50229, 43.79222], [7.47641, 43.78449], [7.4764, 43.76464], [7.45434, 43.75712], [7.40431, 43.71798], [7.36575, 43.72273], [7.3423, 43.70783], [7.33052, 43.68643], [7.3064, 43.68696], [7.27036, 43.74911], [7.23111, 43.88457], [7.47787, 43.86552], [7.49347, 43.88624], [7.53678, 43.92078], [7.55693, 43.94409], [7.60861, 43.97561], [7.63093, 43.99354], [7.65336, 44.03969], [7.68995, 44.06734], [7.69191, 44.08465], [7.6762, 44.10899], [7.65409, 44.12496], [7.64189, 44.14356], [7.74608, 44.39966]]], [[[10.88299, 42.39214], [10.91478, 42.37313], [10.87632, 42.37574], [10.87584, 42.38678], [10.88299, 42.39214]]], [[[13.76108, 44.90351], [13.7561, 44.88992], [13.74734, 44.88761], [13.75009, 44.91315], [13.73546, 44.92393], [13.74789, 44.9251], [13.77384, 44.91526], [13.77769, 44.90251], [13.76108, 44.90351]]], [[[13.58961, 45.53579], [13.6724, 45.54445], [13.76005, 45.45519], [13.91141, 45.21113], [14.01216, 45.01753], [14.03962, 44.93641], [14.03467, 44.92232], [14.02247, 44.92349], [14.02783, 44.90864], [14.0215, 44.90737], [14.02051, 44.90113], [14.01059, 44.90526], [13.97267, 44.90111], [13.99288, 44.8815], [13.98618, 44.88129], [13.98618, 44.87507], [13.993, 44.87507], [13.99301, 44.86784], [13.97267, 44.84715], [13.97267, 44.82665], [13.98942, 44.82509], [13.99999, 44.81307], [13.96356, 44.81187], [13.93165, 44.8205], [13.92481, 44.81307], [13.91871, 44.82905], [13.89959, 44.82905], [13.89015, 44.83348], [13.88315, 44.82665], [13.90431, 44.81729], [13.90935, 44.80899], [13.90447, 44.79877], [13.91796, 44.77827], [13.90318, 44.77242], [13.89698, 44.81306], [13.84915, 44.82665], [13.85597, 44.84028], [13.84232, 44.84028], [13.84913, 44.84715], [13.8423, 44.85464], [13.81569, 44.8566], [13.78714, 44.87507], [13.79462, 44.88128], [13.80486, 44.87059], [13.81959, 44.86766], [13.83375, 44.87336], [13.8423, 44.88813], [13.81528, 44.88353], [13.80486, 44.8854], [13.79462, 44.89497], [13.80812, 44.91543], [13.79674, 44.92488], [13.7741, 44.96381], [13.73306, 44.99471], [13.66082, 45.06122], [13.64381, 45.0705], [13.62324, 45.07307], [13.63689, 45.09357], [13.61258, 45.11786], [13.63852, 45.13003], [13.72625, 45.13451], [13.6836, 45.14338], [13.60048, 45.13749], [13.59597, 45.14541], [13.59938, 45.17129], [13.58914, 45.17549], [13.59441, 45.18732], [13.58229, 45.19682], [13.5823, 45.20282], [13.59449, 45.21263], [13.58914, 45.2307], [13.59522, 45.2508], [13.57547, 45.26488], [13.58425, 45.27606], [13.60271, 45.27912], [13.60271, 45.28535], [13.58466, 45.29321], [13.57547, 45.30646], [13.60955, 45.32014], [13.56179, 45.32637], [13.54128, 45.34614], [13.54055, 45.35675], [13.55494, 45.36107], [13.55494, 45.36734], [13.54316, 45.37617], [13.51337, 45.43622], [13.52076, 45.44302], [13.51565, 45.44814], [13.52076, 45.45726], [13.50149, 45.4986], [13.50985, 45.51191], [13.56861, 45.49079], [13.58953, 45.48884], [13.59596, 45.51813], [13.57863, 45.52339], [13.56864, 45.53924], [13.58961, 45.53579]]], [[[12.38917, 45.43354], [12.40748, 45.43065], [12.42778, 45.41683], [12.4048, 45.42227], [12.37623, 45.42255], [12.32147, 45.34804], [12.32802, 45.37244], [12.37184, 45.42487], [12.38917, 45.43354]]], [[[12.32066, 45.42984], [12.31659, 45.44306], [12.32985, 45.4588], [12.34717, 45.4588], [12.36378, 45.44965], [12.36207, 45.43814], [12.33751, 45.42751], [12.32066, 45.42984]]], [[[12.41408, 45.47308], [12.41839, 45.46874], [12.39609, 45.44941], [12.38536, 45.44571], [12.37518, 45.45379], [12.39731, 45.46003], [12.41408, 45.47308]]]]}}]}