{"type": "FeatureCollection", "features": [{"type": "Feature", "properties": {"map_title": "십자군 전쟁의 전개 과정", "source": "미래엔 세계사 교과서 1권 58쪽", "volume": 1, "page": 58, "name": "콘스탄티노폴리스", "name_en": "Constantinople", "category": "수도", "legend": "콘스탄티노폴리스", "coord_source": "실제 위치", "map_lon": 28.97789, "map_lat": 41.00855, "map_offset_km": 64.6, "note": "라틴 제국 성립(1204)"}, "geometry": {"type": "Point", "coordinates": [28.978, 41.008]}}, {"type": "Feature", "properties": {"map_title": "십자군 전쟁의 전개 과정", "source": "미래엔 세계사 교과서 1권 58쪽", "volume": 1, "page": 58, "name": "마르세유", "name_en": "Marseille", "category": "항구", "legend": "마르세유", "coord_source": "실제 위치", "map_lon": 5.37022, "map_lat": 43.29789, "map_offset_km": 55.6}, "geometry": {"type": "Point", "coordinates": [5.37, 43.297]}}, {"type": "Feature", "properties": {"map_title": "십자군 전쟁의 전개 과정", "source": "미래엔 세계사 교과서 1권 58쪽", "volume": 1, "page": 58, "name": "안티오크", "name_en": "Antioch", "category": "도시", "legend": "안티오크", "coord_source": "실제 위치", "map_lon": 36.1602, "map_lat": 36.20193, "map_offset_km": 211.9}, "geometry": {"type": "Point", "coordinates": [36.16, 36.202]}}, {"type": "Feature", "properties": {"map_title": "십자군 전쟁의 전개 과정", "source": "미래엔 세계사 교과서 1권 58쪽", "volume": 1, "page": 58, "name": "트리폴리", "name_en": "Tripoli", "category": "도시", "legend": "트리폴리", "coord_source": "실제 위치", "map_lon": 35.84972, "map_lat": 34.43695, "map_offset_km": 181.2}, "geometry": {"type": "Point", "coordinates": [35.849, 34.437]}}, {"type": "Feature", "properties": {"map_title": "십자군 전쟁의 전개 과정", "source": "미래엔 세계사 교과서 1권 58쪽", "volume": 1, "page": 58, "name": "예루살렘", "name_en": "Jerusalem", "category": "도시", "legend": "예루살렘", "coord_source": "실제 위치", "map_lon": 35.23458, "map_lat": 31.77812, "map_offset_km": 151.6, "note": "예루살렘 왕국 성립(1099)"}, "geometry": {"type": "Point", "coordinates": [35.235, 31.778]}}, {"type": "Feature", "properties": {"map_title": "십자군 전쟁의 전개 과정", "source": "미래엔 세계사 교과서 1권 58쪽", "volume": 1, "page": 58, "name": "베네치아", "name_en": "Venice", "category": "항구", "legend": "베네치아", "coord_source": "실제 위치", "map_lon": 12.31671, "map_lat": 45.44085, "map_offset_km": 93.9}, "geometry": {"type": "Point", "coordinates": [12.316, 45.441]}}, {"type": "Feature", "properties": {"map_title": "십자군 전쟁의 전개 과정", "source": "미래엔 세계사 교과서 1권 58쪽", "volume": 1, "page": 58, "name": "루앙", "name_en": "Rouen", "category": "도시", "legend": "루앙", "coord_source": "실제 위치", "map_lon": 1.09943, "map_lat": 49.44294, "map_offset_km": 156.5}, "geometry": {"type": "Point", "coordinates": [1.099, 49.443]}}, {"type": "Feature", "properties": {"map_title": "십자군 전쟁의 전개 과정", "source": "미래엔 세계사 교과서 1권 58쪽", "volume": 1, "page": 58, "name": "리옹", "name_en": "Lyon", "category": "도시", "legend": "리옹", "coord_source": "실제 위치", "map_lon": 4.83608, "map_lat": 45.7639, "map_offset_km": 41.6}, "geometry": {"type": "Point", "coordinates": [4.836, 45.764]}}, {"type": "Feature", "properties": {"map_title": "십자군 전쟁의 전개 과정", "source": "미래엔 세계사 교과서 1권 58쪽", "volume": 1, "page": 58, "name": "빈", "name_en": "Vienna", "category": "도시", "legend": "빈", "coord_source": "실제 위치", "map_lon": 16.37295, "map_lat": 48.20802, "map_offset_km": 115.3}, "geometry": {"type": "Point", "coordinates": [16.373, 48.208]}}, {"type": "Feature", "properties": {"map_title": "십자군 전쟁의 전개 과정", "source": "미래엔 세계사 교과서 1권 58쪽", "volume": 1, "page": 58, "name": "클레르몽", "name_en": "Clermont", "category": "도시", "legend": "클레르몽", "coord_source": "실제 위치", "map_lon": 3.08616, "map_lat": 45.77818, "map_offset_km": 132.7}, "geometry": {"type": "Point", "coordinates": [3.087, 45.778]}}, {"type": "Feature", "properties": {"map_title": "십자군 전쟁의 전개 과정", "source": "미래엔 세계사 교과서 1권 58쪽", "volume": 1, "page": 58, "name": "튀니스", "name_en": "Tunis", "category": "도시", "legend": "튀니스", "coord_source": "실제 위치", "map_lon": 10.18198, "map_lat": 36.80553, "map_offset_km": 166.8}, "geometry": {"type": "Point", "coordinates": [10.182, 36.806]}}, {"type": "Feature", "properties": {"map_title": "십자군 전쟁의 전개 과정", "source": "미래엔 세계사 교과서 1권 58쪽", "volume": 1, "page": 58, "name": "툴루즈", "name_en": "Toulouse", "category": "도시", "legend": "툴루즈", "coord_source": "실제 위치", "map_lon": 1.44442, "map_lat": 43.60488, "map_offset_km": 83.9}, "geometry": {"type": "Point", "coordinates": [1.444, 43.605]}}, {"type": "Feature", "properties": {"map_title": "십자군 전쟁의 전개 과정", "source": "미래엔 세계사 교과서 1권 58쪽", "volume": 1, "page": 58, "name": "리스본", "name_en": "Lisbon", "category": "도시", "legend": "리스본", "coord_source": "실제 위치", "map_lon": -9.13862, "map_lat": 38.72216, "map_offset_km": 277.0}, "geometry": {"type": "Point", "coordinates": [-9.139, 38.722]}}, {"type": "Feature", "properties": {"map_title": "십자군 전쟁의 전개 과정", "source": "미래엔 세계사 교과서 1권 58쪽", "volume": 1, "page": 58, "name": "로마", "name_en": "Rome", "category": "수도", "legend": "로마", "coord_source": "실제 위치", "map_lon": 12.48329, "map_lat": 41.89293, "map_offset_km": 153.4}, "geometry": {"type": "Point", "coordinates": [12.483, 41.893]}}]}