{"type": "FeatureCollection", "features": [{"type": "Feature", "properties": {"name": "알자스·로렌(1871년 독일 편입)", "name_en": "Alsace-Lorraine (annexed 1871)", "period": "1871년", "kind": "기타", "legend": "(지도 글자) 알자스·로렌 — 회색 점선 경계로 구분", "map_title": "독일의 통일 과정", "source": "미래엔 세계사 교과서 3권 146쪽", "volume": 3, "page": 146, "coast_snap": "Natural Earth 10m 해안선에 맞춤", "border_snap": "현대 국경(Natural Earth 10m)에 맞춘 구간 약 420 km", "group": "알자스·로렌", "map_folder": "3권_p146_독일의 통일 과정"}, "geometry": {"type": "MultiPolygon", "coordinates": [[[[7.63869, 47.63928], [7.66073, 47.58983], [7.63977, 47.60318], [7.63145, 47.61248], [7.59032, 47.60795], [7.57264, 47.622], [7.55011, 47.65244], [7.56439, 47.63316], [7.63869, 47.63928]]], [[[7.32633, 49.75198], [7.43138, 49.79505], [7.56459, 49.68983], [7.92189, 49.63299], [8.21342, 49.54412], [8.15308, 49.36557], [8.04095, 49.25692], [7.9319, 49.03484], [8.09044, 48.97918], [8.18873, 48.96575], [8.20031, 48.95856], [8.17932, 48.9427], [8.14811, 48.90373], [8.10274, 48.82131], [8.09034, 48.80751], [8.04755, 48.79103], [8.03877, 48.79077], [8.02729, 48.78002], [8.02295, 48.76509], [8.01727, 48.76183], [7.97014, 48.75728], [7.96487, 48.74834], [7.96363, 48.72928], [7.95918, 48.72137], [7.89593, 48.67651], [7.88064, 48.66773], [7.85242, 48.65868], [7.81025, 48.61502], [7.80178, 48.58236], [7.80167, 48.54758], [7.81346, 48.52634], [7.81346, 48.51947], [7.77646, 48.49818], [7.77129, 48.48911], [7.76922, 48.47007], [7.75072, 48.44441], [7.73832, 48.40661], [7.73718, 48.39348], [7.74038, 48.38144], [7.75196, 48.35534], [7.75072, 48.34137], [8.0926, 48.29609], [8.15141, 48.21847], [8.03529, 48.10213], [7.67662, 48.2384], [7.61336, 48.1792], [7.60675, 48.16698], [7.61187, 48.17645], [7.30183, 48.26558], [7.29258, 48.39289], [7.28244, 48.4358], [7.24633, 48.51132], [7.16477, 48.62632], [7.11292, 48.68056], [7.05379, 48.73188], [6.98758, 48.77971], [6.91449, 48.82354], [6.67546, 48.93382], [6.59143, 48.94889], [6.48404, 48.98796], [6.41438, 49.02476], [6.33742, 49.07606], [6.25181, 49.14719], [6.06063, 49.333], [5.98709, 49.4394], [5.89232, 49.52335], [5.8374, 49.56111], [5.84691, 49.57672], [5.82996, 49.58276], [5.84122, 49.58969], [5.862, 49.62276], [5.87988, 49.63485], [5.88546, 49.64353], [5.87988, 49.65775], [5.87264, 49.66172], [5.85259, 49.66322], [5.84577, 49.66658], [5.84226, 49.67392], [5.84877, 49.69273], [5.85735, 49.70043], [5.856, 49.70808], [5.85022, 49.71402], [6.2227, 49.88714], [6.23831, 49.8769], [6.28678, 49.86104], [6.30259, 49.83494], [6.33442, 49.84022], [6.39706, 49.80859], [6.41452, 49.80549], [6.46248, 49.80549], [6.4972, 49.79944], [6.50258, 49.79567], [7.32633, 49.75198]]]]}}]}