{"type": "FeatureCollection", "features": [{"type": "Feature", "properties": {"name": "베이징", "name_en": "Beijing", "category": "수도", "year": "1860", "coord_source": "실제 위치", "map_lon": 116.4, "map_lat": 39.9, "legend": "베이징 조약(1860)", "map_title": "아편 전쟁과 중국의 개항", "source": "미래엔 세계사 교과서 3권 160쪽", "volume": 3, "page": 160}, "geometry": {"type": "Point", "coordinates": [116.4, 39.9]}}, {"type": "Feature", "properties": {"name": "톈진", "name_en": "Tianjin", "category": "항구", "year": "1858", "coord_source": "실제 위치", "map_lon": 117.20006, "map_lat": 39.07995, "legend": "톈진·베이징 조약 때 개항 / 톈진 조약(1858)", "map_title": "아편 전쟁과 중국의 개항", "source": "미래엔 세계사 교과서 3권 160쪽", "volume": 3, "page": 160}, "geometry": {"type": "Point", "coordinates": [117.2, 39.08]}}, {"type": "Feature", "properties": {"name": "뉴좡", "name_en": "Niuzhuang (Yingkou)", "category": "항구", "year": "", "coord_source": "실제 위치", "map_lon": 122.23, "map_lat": 40.66998, "legend": "톈진·베이징 조약 때 개항", "map_title": "아편 전쟁과 중국의 개항", "source": "미래엔 세계사 교과서 3권 160쪽", "volume": 3, "page": 160}, "geometry": {"type": "Point", "coordinates": [122.23, 40.67]}}, {"type": "Feature", "properties": {"name": "옌타이", "name_en": "Yantai (Chefoo)", "category": "항구", "year": "", "coord_source": "실제 위치", "map_lon": 121.39037, "map_lat": 37.54011, "legend": "톈진·베이징 조약 때 개항", "map_title": "아편 전쟁과 중국의 개항", "source": "미래엔 세계사 교과서 3권 160쪽", "volume": 3, "page": 160}, "geometry": {"type": "Point", "coordinates": [121.39, 37.54]}}, {"type": "Feature", "properties": {"name": "전장", "name_en": "Zhenjiang", "category": "항구", "year": "", "coord_source": "실제 위치", "map_lon": 119.45009, "map_lat": 32.20004, "legend": "톈진·베이징 조약 때 개항", "map_title": "아편 전쟁과 중국의 개항", "source": "미래엔 세계사 교과서 3권 160쪽", "volume": 3, "page": 160}, "geometry": {"type": "Point", "coordinates": [119.45, 32.2]}}, {"type": "Feature", "properties": {"name": "난징", "name_en": "Nanjing", "category": "항구", "year": "1842", "coord_source": "실제 위치", "map_lon": 118.77994, "map_lat": 32.05997, "legend": "톈진·베이징 조약 때 개항 / 난징 조약(1842)", "map_title": "아편 전쟁과 중국의 개항", "source": "미래엔 세계사 교과서 3권 160쪽", "volume": 3, "page": 160}, "geometry": {"type": "Point", "coordinates": [118.78, 32.06]}}, {"type": "Feature", "properties": {"name": "한커우", "name_en": "Hankou", "category": "항구", "year": "", "coord_source": "실제 위치", "map_lon": 114.30001, "map_lat": 30.57999, "legend": "톈진·베이징 조약 때 개항", "map_title": "아편 전쟁과 중국의 개항", "source": "미래엔 세계사 교과서 3권 160쪽", "volume": 3, "page": 160}, "geometry": {"type": "Point", "coordinates": [114.3, 30.58]}}, {"type": "Feature", "properties": {"name": "주장", "name_en": "Jiujiang", "category": "항구", "year": "", "coord_source": "실제 위치", "map_lon": 115.98999, "map_lat": 29.71001, "legend": "톈진·베이징 조약 때 개항", "map_title": "아편 전쟁과 중국의 개항", "source": "미래엔 세계사 교과서 3권 160쪽", "volume": 3, "page": 160}, "geometry": {"type": "Point", "coordinates": [115.99, 29.71]}}, {"type": "Feature", "properties": {"name": "산터우", "name_en": "Shantou (Swatow)", "category": "항구", "year": "", "coord_source": "실제 위치", "map_lon": 116.67995, "map_lat": 23.35003, "legend": "톈진·베이징 조약 때 개항", "map_title": "아편 전쟁과 중국의 개항", "source": "미래엔 세계사 교과서 3권 160쪽", "volume": 3, "page": 160}, "geometry": {"type": "Point", "coordinates": [116.68, 23.35]}}, {"type": "Feature", "properties": {"name": "충저우", "name_en": "Qiongzhou", "category": "항구", "year": "", "coord_source": "실제 위치", "map_lon": 110.35017, "map_lat": 20.0198, "legend": "톈진·베이징 조약 때 개항", "map_title": "아편 전쟁과 중국의 개항", "source": "미래엔 세계사 교과서 3권 160쪽", "volume": 3, "page": 160}, "geometry": {"type": "Point", "coordinates": [110.35, 20.02]}}, {"type": "Feature", "properties": {"name": "단수이", "name_en": "Tamsui", "category": "항구", "year": "", "coord_source": "실제 위치", "map_lon": 121.4398, "map_lat": 25.17005, "legend": "톈진·베이징 조약 때 개항", "map_title": "아편 전쟁과 중국의 개항", "source": "미래엔 세계사 교과서 3권 160쪽", "volume": 3, "page": 160}, "geometry": {"type": "Point", "coordinates": [121.44, 25.17]}}, {"type": "Feature", "properties": {"name": "타이난", "name_en": "Tainan", "category": "항구", "year": "", "coord_source": "실제 위치", "map_lon": 120.20009, "map_lat": 22.99975, "legend": "톈진·베이징 조약 때 개항", "map_title": "아편 전쟁과 중국의 개항", "source": "미래엔 세계사 교과서 3권 160쪽", "volume": 3, "page": 160}, "geometry": {"type": "Point", "coordinates": [120.2, 23.0]}}, {"type": "Feature", "properties": {"name": "상하이", "name_en": "Shanghai", "category": "항구", "year": "", "coord_source": "실제 위치", "map_lon": 121.46995, "map_lat": 31.23014, "legend": "난징 조약 때 개항", "map_title": "아편 전쟁과 중국의 개항", "source": "미래엔 세계사 교과서 3권 160쪽", "volume": 3, "page": 160}, "geometry": {"type": "Point", "coordinates": [121.47, 31.23]}}, {"type": "Feature", "properties": {"name": "닝보", "name_en": "Ningbo", "category": "항구", "year": "", "coord_source": "실제 위치", "map_lon": 121.54969, "map_lat": 29.86996, "legend": "난징 조약 때 개항", "map_title": "아편 전쟁과 중국의 개항", "source": "미래엔 세계사 교과서 3권 160쪽", "volume": 3, "page": 160}, "geometry": {"type": "Point", "coordinates": [121.55, 29.87]}}, {"type": "Feature", "properties": {"name": "광저우", "name_en": "Guangzhou (Canton)", "category": "항구", "year": "", "coord_source": "실제 위치", "map_lon": 113.26019, "map_lat": 23.12969, "legend": "난징 조약 때 개항", "map_title": "아편 전쟁과 중국의 개항", "source": "미래엔 세계사 교과서 3권 160쪽", "volume": 3, "page": 160}, "geometry": {"type": "Point", "coordinates": [113.26, 23.13]}}, {"type": "Feature", "properties": {"name": "푸저우", "name_en": "Fuzhou", "category": "항구", "year": "", "coord_source": "실제 위치", "map_lon": 119.30013, "map_lat": 26.07993, "legend": "난징 조약 때 개항", "map_title": "아편 전쟁과 중국의 개항", "source": "미래엔 세계사 교과서 3권 160쪽", "volume": 3, "page": 160}, "geometry": {"type": "Point", "coordinates": [119.3, 26.08]}}, {"type": "Feature", "properties": {"name": "샤먼", "name_en": "Xiamen (Amoy)", "category": "항구", "year": "", "coord_source": "실제 위치", "map_lon": 118.09003, "map_lat": 24.48, "legend": "난징 조약 때 개항", "map_title": "아편 전쟁과 중국의 개항", "source": "미래엔 세계사 교과서 3권 160쪽", "volume": 3, "page": 160}, "geometry": {"type": "Point", "coordinates": [118.09, 24.48]}}, {"type": "Feature", "properties": {"name": "홍콩", "name_en": "Hong Kong", "category": "항구", "year": "1842", "coord_source": "실제 위치", "map_lon": 114.16977, "map_lat": 22.28024, "legend": "난징 조약 때 영국에 할양", "map_title": "아편 전쟁과 중국의 개항", "source": "미래엔 세계사 교과서 3권 160쪽", "volume": 3, "page": 160}, "geometry": {"type": "Point", "coordinates": [114.17, 22.28]}}, {"type": "Feature", "properties": {"name": "항저우", "name_en": "Hangzhou", "category": "도시", "year": "", "coord_source": "실제 위치", "map_lon": 120.16037, "map_lat": 30.26995, "legend": "항저우", "map_title": "아편 전쟁과 중국의 개항", "source": "미래엔 세계사 교과서 3권 160쪽", "volume": 3, "page": 160}, "geometry": {"type": "Point", "coordinates": [120.16, 30.27]}}]}