{"type": "FeatureCollection", "features": [{"type": "Feature", "properties": {"name": "다마스쿠스", "name_en": "Damascus", "category": "수도", "year": null, "coord_source": "실제 위치", "map_lon": 36.27364, "map_lat": 33.52207, "legend": "다마스쿠스", "note": "우마이야 왕조의 수도", "map_title": "도시로 보는 이슬람 문화(위치 지도)", "source": "미래엔 세계사 교과서 2권 75쪽", "volume": 2, "page": 75}, "geometry": {"type": "Point", "coordinates": [36.29, 33.51]}}, {"type": "Feature", "properties": {"name": "바그다드", "name_en": "Baghdad", "category": "수도", "year": null, "coord_source": "실제 위치", "map_lon": 44.35388, "map_lat": 33.31129, "legend": "바그다드", "note": "아바스 왕조의 수도", "map_title": "도시로 보는 이슬람 문화(위치 지도)", "source": "미래엔 세계사 교과서 2권 75쪽", "volume": 2, "page": 75}, "geometry": {"type": "Point", "coordinates": [44.366, 33.315]}}, {"type": "Feature", "properties": {"name": "사마르칸트", "name_en": "Samarkand", "category": "수도", "year": null, "coord_source": "실제 위치", "map_lon": 66.98689, "map_lat": 39.65975, "legend": "사마르칸트", "note": "티무르 왕조의 수도", "map_title": "도시로 보는 이슬람 문화(위치 지도)", "source": "미래엔 세계사 교과서 2권 75쪽", "volume": 2, "page": 75}, "geometry": {"type": "Point", "coordinates": [66.975, 39.654]}}, {"type": "Feature", "properties": {"name": "이스파한", "name_en": "Isfahan", "category": "수도", "year": null, "coord_source": "실제 위치", "map_lon": 51.63011, "map_lat": 32.71559, "legend": "이스파한", "note": "사파비 왕조의 수도", "map_title": "도시로 보는 이슬람 문화(위치 지도)", "source": "미래엔 세계사 교과서 2권 75쪽", "volume": 2, "page": 75}, "geometry": {"type": "Point", "coordinates": [51.668, 32.654]}}]}