{"type": "FeatureCollection", "features": [{"type": "Feature", "properties": {"name": "아리아인의 정착지(기원전 1000년경)", "name_en": "Aryan settlement c.1000 BCE", "period": "기원전 1000년경", "kind": "기타", "legend": "아리아인의 정착지 기원전 1000년경", "map_title": "인도 문명과 아리아인의 이동", "source": "미래엔 세계사 교과서 1권 18쪽", "volume": 1, "page": 18, "coast_snap": "Natural Earth 10m 해안선에 맞춤", "border_snap": "현대 국경(Natural Earth 10m)에 맞춘 구간 약 198 km", "group": "아리아인의 정착지", "map_folder": "1권_p018_인도 문명과 아리아인의 이동"}, "geometry": {"type": "Polygon", "coordinates": [[[81.88026, 27.54745], [81.99136, 27.34244], [82.09698, 27.13098], [82.19553, 26.91508], [82.32358, 26.59573], [82.42853, 26.27735], [82.50588, 25.96595], [82.55134, 25.66736], [82.56073, 25.3872], [82.53002, 25.13093], [82.4552, 24.90384], [82.33221, 24.71114], [82.13793, 24.55743], [81.89717, 24.47888], [81.62199, 24.46354], [81.32424, 24.49981], [81.01591, 24.57615], [80.70925, 24.68098], [80.41694, 24.80271], [80.15202, 24.92972], [79.58274, 25.26606], [79.04523, 25.67219], [78.54563, 26.13653], [78.09133, 26.64844], [77.69151, 27.19805], [77.35707, 27.77537], [77.09995, 28.3691], [76.93251, 28.96603], [76.90829, 29.13042], [76.90159, 29.29384], [76.91332, 29.45347], [76.94439, 29.6065], [76.99565, 29.75012], [77.06795, 29.8815], [77.16206, 29.99786], [77.27875, 30.09635], [77.80034, 30.34078], [78.34147, 30.39373], [78.88894, 30.28589], [79.43019, 30.04758], [79.95316, 29.70933], [80.05808, 29.62308], [80.22304, 29.43821], [80.21767, 29.43464], [80.21374, 29.41689], [80.22097, 29.40012], [80.24216, 29.36741], [80.2495, 29.327], [80.25498, 29.31664], [80.27275, 29.3157], [80.28009, 29.31015], [80.28278, 29.29131], [80.27875, 29.26808], [80.53973, 29.21045], [80.89868, 28.85668], [81.08737, 28.6448], [80.97602, 28.43692], [80.9878, 28.43098], [80.99317, 28.40783], [81.00041, 28.397], [81.14634, 28.37225], [81.1697, 28.36132], [81.19037, 28.33812], [81.21073, 28.27864], [81.22432, 28.25078], [81.28236, 28.19159], [81.29595, 28.16745], [81.28075, 28.16198], [81.27678, 28.15379], [81.28308, 28.14609], [81.29941, 28.14252], [81.2962, 28.12831], [81.30706, 28.12381], [81.3237, 28.12624], [81.33811, 28.13273], [81.35791, 28.16598], [81.3732, 28.16784], [81.39604, 28.16063], [81.41733, 28.14702], [81.43527, 28.12978], [81.44824, 28.11141], [81.45821, 28.07728], [81.47346, 28.0664], [81.56192, 28.02599], [81.58218, 28.01328], [81.5951, 27.99488], [81.61505, 27.98124], [81.68895, 27.9632], [81.71039, 27.94752], [81.75013, 27.90967], [81.85565, 27.85094], [81.83609, 27.62305], [81.88026, 27.54745]]]}}, {"type": "Feature", "properties": {"name": "아리아인의 정착지(기원전 1500년경)", "name_en": "Aryan settlement c.1500 BCE", "period": "기원전 1500년경", "kind": "기타", "legend": "아리아인의 정착지 기원전 1500년경", "map_title": "인도 문명과 아리아인의 이동", "source": "미래엔 세계사 교과서 1권 18쪽", "volume": 1, "page": 18, "coast_snap": "Natural Earth 10m 해안선에 맞춤", "border_snap": "현대 국경(Natural Earth 10m)에 맞춘 구간 약 94 km", "group": "아리아인의 정착지", "map_folder": "1권_p018_인도 문명과 아리아인의 이동"}, "geometry": {"type": "Polygon", "coordinates": [[[78.05061, 31.62485], [78.12726, 31.41166], [78.17892, 31.19647], [78.21121, 30.83213], [78.17639, 30.47944], [78.07761, 30.14902], [77.91783, 29.85119], [77.69989, 29.59592], [77.42641, 29.39297], [77.09983, 29.25191], [76.7224, 29.18227], [76.27766, 29.19017], [75.82336, 29.26464], [75.3626, 29.3811], [74.89895, 29.51474], [74.43642, 29.64013], [73.97936, 29.73113], [73.53255, 29.76063], [73.10109, 29.70038], [73.08294, 29.69427], [72.8834, 29.62684], [72.66961, 29.53315], [72.24853, 29.33121], [72.03902, 29.24614], [71.82911, 29.18715], [71.61827, 29.16585], [71.40606, 29.19376], [71.22775, 29.26588], [71.07622, 29.37664], [70.95046, 29.51958], [70.84954, 29.6881], [70.7727, 29.87546], [70.71947, 30.07496], [70.68955, 30.27991], [70.68287, 30.48367], [70.69501, 30.68372], [70.71889, 30.88204], [70.85025, 31.66137], [70.8711, 31.85407], [70.8785, 32.04668], [70.86783, 32.25278], [70.83985, 32.45602], [70.79794, 32.65707], [70.74553, 32.85651], [70.5015, 33.64809], [70.45039, 33.84897], [70.41095, 34.05369], [70.38655, 34.25986], [70.38061, 34.46509], [70.39659, 34.66695], [70.43796, 34.86296], [70.5082, 35.05054], [70.61078, 35.2271], [70.79962, 35.43567], [71.03277, 35.59778], [71.3014, 35.71475], [71.59655, 35.78813], [71.9092, 35.81966], [72.23032, 35.81132], [72.55083, 35.76531], [72.86168, 35.68413], [73.2327, 35.54997], [73.60063, 35.38824], [73.96096, 35.201], [74.29259, 35.0005], [74.33228, 34.77224], [74.34888, 34.77343], [74.41213, 34.76449], [74.66493, 34.68832], [75.01778, 34.62972], [75.03802, 34.63058], [75.06552, 34.40245], [75.23632, 34.24276], [75.49139, 33.96347], [75.75048, 33.69615], [76.04199, 33.45742], [76.35426, 33.23632], [76.99436, 32.80513], [77.29888, 32.57482], [77.57766, 32.32161], [77.81936, 32.03587], [77.88715, 31.93577], [77.94823, 31.8337], [78.00269, 31.72996], [78.05061, 31.62485]]]}}, {"type": "Feature", "properties": {"name": "아리아인의 정착지(기원전 500년경)", "name_en": "Aryan settlement c.500 BCE", "period": "기원전 500년경", "kind": "기타", "legend": "아리아인의 정착지 기원전 500년경", "map_title": "인도 문명과 아리아인의 이동", "source": "미래엔 세계사 교과서 1권 18쪽", "volume": 1, "page": 18, "coast_snap": "Natural Earth 10m 해안선에 맞춤", "border_snap": "현대 국경(Natural Earth 10m)에 맞춘 구간 약 368 km", "group": "아리아인의 정착지", "map_folder": "1권_p018_인도 문명과 아리아인의 이동"}, "geometry": {"type": "MultiPolygon", "coordinates": [[[[88.14599, 21.64375], [88.13941, 21.63032], [88.12981, 21.62596], [88.09156, 21.63654], [88.06349, 21.63668], [88.05178, 21.6416], [88.04315, 21.65762], [88.04403, 21.68112], [88.08996, 21.8085], [88.11931, 21.85952], [88.14674, 21.86985], [88.16699, 21.76518], [88.16341, 21.70548], [88.13258, 21.68496], [88.1444, 21.65757], [88.14599, 21.64375]]], [[[88.59182, 21.8044], [88.58432, 21.83576], [88.5988, 21.87011], [88.63625, 21.92137], [88.65016, 21.92744], [88.66336, 21.9211], [88.67057, 21.90741], [88.64918, 21.84235], [88.64632, 21.78793], [88.59182, 21.8044]]], [[[88.09426, 21.93788], [88.10573, 21.94757], [88.1189, 21.945], [88.13257, 21.92048], [88.125, 21.88866], [88.10499, 21.86115], [88.0809, 21.84936], [88.07229, 21.85676], [88.07107, 21.87337], [88.07745, 21.90489], [88.09426, 21.93788]]], [[[81.93187, 26.12795], [82.1774, 26.23618], [82.45668, 26.29688], [82.75749, 26.30758], [83.2905, 26.26684], [83.82138, 26.198], [84.34751, 26.10283], [84.86661, 25.98304], [85.37573, 25.84033], [85.70689, 25.73126], [85.87225, 25.67645], [86.37142, 25.48531], [86.81715, 25.29167], [87.08857, 25.16041], [87.35224, 25.02005], [87.59959, 24.87421], [87.78675, 24.7509], [88.02716, 24.67573], [88.02179, 24.6456], [88.05724, 24.63411], [88.06726, 24.61367], [88.08184, 24.59987], [88.08499, 24.59388], [88.08602, 24.53672], [88.09879, 24.52248], [88.10995, 24.50099], [88.13878, 24.49525], [88.4013, 24.36942], [88.4754, 24.31547], [88.49835, 24.31097], [88.5631, 24.30821], [88.61245, 24.29288], [88.63452, 24.29412], [88.6495, 24.31536], [88.66015, 24.33826], [88.6818, 24.33389], [88.71456, 24.31542], [88.73751, 24.2871], [88.74304, 24.24754], [88.74981, 24.22325], [88.73162, 24.18984], [88.69379, 24.17532], [88.68376, 24.16654], [88.67808, 24.15429], [88.68299, 24.12429], [88.6741, 24.08264], [88.67901, 24.07122], [88.69782, 24.05626], [88.70092, 24.04365], [88.725, 24.03838], [88.72547, 24.0289], [88.70159, 23.99528], [88.71436, 23.9644], [88.71715, 23.94314], [88.71415, 23.92516], [88.65312, 23.86978], [88.63395, 23.86614], [88.59359, 23.86692], [88.57762, 23.85516], [88.57437, 23.84563], [88.57752, 23.81852], [88.55271, 23.77498], [88.55251, 23.76542], [88.56119, 23.74101], [88.5401, 23.64995], [88.54155, 23.63877], [88.56636, 23.62874], [88.5617, 23.60202], [88.57142, 23.59233], [88.58155, 23.58833], [88.60925, 23.58879], [88.62423, 23.57386], [88.64764, 23.53508], [88.66449, 23.51831], [88.70464, 23.49518], [88.71942, 23.4681], [88.73193, 23.47263], [88.74371, 23.48932], [88.75684, 23.4988], [88.77017, 23.48883], [88.76789, 23.46728], [88.71927, 23.34829], [88.69503, 23.31261], [88.68594, 23.29331], [88.68661, 23.2716], [88.69658, 23.25235], [88.71002, 23.24122], [88.7757, 23.22163], [88.78619, 23.22153], [88.80954, 23.23605], [88.82267, 23.23796], [88.91807, 23.20858], [88.95424, 23.20742], [88.95998, 23.20269], [88.95982, 23.19445], [88.9547, 23.18381], [88.9191, 23.15386], [88.86479, 23.10027], [88.8513, 23.07513], [88.84872, 23.02384], [88.83941, 22.99537], [88.83879, 22.97581], [88.84277, 22.96457], [88.87218, 22.92677], [88.89347, 22.87964], [88.90515, 22.86643], [88.9331, 22.85812], [88.94452, 22.84801], [88.9468, 22.83452], [88.94514, 22.81509], [88.93688, 22.78233], [88.91496, 22.7544], [88.90814, 22.74078], [88.91057, 22.72259], [88.92251, 22.69371], [88.93, 22.65862], [88.94235, 22.63748], [88.95202, 22.6119], [88.95641, 22.58498], [88.95031, 22.56198], [88.92799, 22.54813], [88.95904, 22.53682], [88.97098, 22.52793], [88.97997, 22.49093], [88.99837, 22.45124], [89.0025, 22.42799], [88.98948, 22.39667], [89.00152, 22.33368], [89.02354, 22.29482], [89.00912, 22.28562], [89.01863, 22.26469], [89.0623, 22.21156], [89.0762, 22.17503], [89.07816, 22.15085], [89.06522, 22.13577], [89.02832, 22.14376], [89.01303, 22.11619], [88.96177, 22.04799], [88.8422, 21.92245], [88.7691, 21.85175], [88.70202, 21.80082], [88.70362, 21.81061], [88.69452, 21.83983], [88.71469, 21.89785], [88.71698, 21.95197], [88.72219, 21.96613], [88.75831, 21.99946], [88.76303, 22.01728], [88.75465, 22.03758], [88.71705, 22.05805], [88.70851, 22.07221], [88.71485, 22.08698], [88.73015, 22.10358], [88.76303, 22.13056], [88.74391, 22.12934], [88.72657, 22.12116], [88.71217, 22.10904], [88.69484, 22.08153], [88.69288, 22.06586], [88.69947, 22.05321], [88.71852, 22.04804], [88.73072, 22.03718], [88.7233, 22.01309], [88.68994, 21.946], [88.67872, 21.93669], [88.667, 21.94501], [88.64259, 21.9409], [88.63088, 21.94547], [88.626, 21.95551], [88.62746, 21.9704], [88.65349, 22.01801], [88.6395, 22.10954], [88.65699, 22.15107], [88.674, 22.16206], [88.68312, 22.18496], [88.67994, 22.20441], [88.66017, 22.20502], [88.65592, 22.18305], [88.63494, 22.14496], [88.63087, 22.1258], [88.61915, 22.10952], [88.62597, 22.04804], [88.62036, 22.02998], [88.60255, 22.00642], [88.59864, 21.9903], [88.59839, 21.92935], [88.56707, 21.85082], [88.56463, 21.83234], [88.56463, 21.76683], [88.60418, 21.77874], [88.62402, 21.77802], [88.63011, 21.75864], [88.51485, 21.69787], [88.5049, 21.74152], [88.51272, 21.76341], [88.53289, 21.79531], [88.53102, 21.82412], [88.49563, 21.8767], [88.51466, 21.91621], [88.51498, 21.9372], [88.49562, 21.95181], [88.49985, 21.93366], [88.48121, 21.9099], [88.47446, 21.89033], [88.47706, 21.87181], [88.49208, 21.83692], [88.49354, 21.80539], [88.47446, 21.80097], [88.45338, 21.74177], [88.45476, 21.70539], [88.46875, 21.67651], [88.38341, 21.64001], [88.38284, 21.67133], [88.39259, 21.69855], [88.35565, 21.68499], [88.3462, 21.68862], [88.33123, 21.71906], [88.32472, 21.70136], [88.3274, 21.69111], [88.34944, 21.66095], [88.34552, 21.63676], [88.34142, 21.62818], [88.30737, 21.62066], [88.29819, 21.76411], [88.28981, 21.78022], [88.27312, 21.79792], [88.26157, 21.79865], [88.26417, 21.77529], [88.29542, 21.67658], [88.29444, 21.64281], [88.2838, 21.61568], [88.23361, 21.60507], [88.22438, 21.61302], [88.20827, 21.60299], [88.18937, 21.64208], [88.18093, 21.68496], [88.20346, 21.72435], [88.21046, 21.74726], [88.20144, 21.77432], [88.20973, 21.78856], [88.20379, 21.80541], [88.15408, 21.88809], [88.15943, 21.90616], [88.14675, 21.95922], [88.15636, 21.99103], [88.22242, 22.07795], [88.21275, 22.10005], [88.19801, 22.16779], [88.16529, 22.185], [88.08132, 22.21736], [88.07732, 22.24042], [88.04347, 22.22477], [88.02703, 22.22786], [88.00905, 22.24043], [87.97268, 22.28319], [87.95069, 22.35619], [87.94044, 22.41303], [87.92799, 22.42422], [87.90659, 22.42475], [87.90659, 22.41861], [87.92285, 22.39777], [87.9358, 22.35517], [87.95281, 22.26244], [87.99195, 22.21589], [88.00847, 22.2049], [88.09547, 22.19123], [88.13258, 22.17914], [88.1608, 22.1567], [88.1735, 22.11689], [88.1643, 22.0898], [88.14063, 22.06013], [88.11094, 22.03473], [88.08472, 22.02071], [88.0486, 22.02074], [88.04314, 22.01728], [88.05078, 21.98501], [88.0324, 21.95718], [87.98364, 21.8542], [87.97046, 21.8365], [87.89918, 21.79483], [87.8929, 21.77433], [87.86719, 21.75081], [87.83371, 21.72918], [87.75571, 21.69172], [87.70378, 21.65551], [87.68385, 21.65015], [87.62135, 21.65062], [87.57593, 21.63897], [87.52546, 21.68755], [87.48434, 21.7465], [87.45607, 21.81221], [87.44332, 21.87182], [87.43656, 21.87762], [87.28871, 21.85787], [86.9169, 21.78854], [86.74263, 21.76353], [86.57181, 21.75201], [86.40294, 21.75463], [86.28658, 21.76499], [86.04969, 21.79686], [85.86608, 21.83703], [85.6791, 21.88409], [85.29795, 22.0119], [84.91252, 22.17636], [84.53036, 22.37371], [84.15795, 22.60118], [83.8009, 22.85725], [83.46706, 23.1392], [83.2495, 23.32882], [82.73355, 23.75129], [82.46168, 23.98117], [82.19914, 24.22078], [81.96042, 24.4678], [81.76028, 24.71987], [81.61362, 24.97485], [81.51941, 25.27658], [81.51464, 25.5462], [81.58909, 25.77999], [81.73208, 25.97508], [81.93187, 26.12795]]]]}}]}