{"type": "FeatureCollection", "features": [{"type": "Feature", "properties": {"name": "우즈베키스탄", "name_en": "Uzbekistan", "period": "1991년", "kind": "국가", "legend": "독립 국가 연합(CIS, 1991년 기준)", "map_title": "소련의 해체와 동유럽의 변화", "source": "미래엔 세계사 교과서 4권 201쪽", "volume": 4, "page": 201, "geometry_source": "Natural Earth 10m 국가 경계", "group": "우즈베키스탄", "map_folder": "4권_p201_소련의 해체와 동유럽의 변화"}, "geometry": {"type": "MultiPolygon", "coordinates": [[[[70.93834, 40.23992], [70.84971, 40.23377], [70.70719, 40.20018], [70.6643, 40.1975], [70.62213, 40.19956], [70.58182, 40.22173], [70.56394, 40.26421], [70.55061, 40.31046], [70.52405, 40.34374], [70.50193, 40.35082], [70.44219, 40.34333], [70.37139, 40.36493], [70.38493, 40.39971], [70.35703, 40.4304], [70.35382, 40.45614], [70.36964, 40.47552], [70.39935, 40.49019], [70.4778, 40.50549], [70.51195, 40.54678], [70.52549, 40.55711], [70.56932, 40.57044], [70.58208, 40.57876], [70.61717, 40.61194], [70.70724, 40.66899], [70.7321, 40.67499], [70.74067, 40.6877], [70.75618, 40.69514], [70.76713, 40.73762], [70.72889, 40.75446], [70.63742, 40.77059], [70.62177, 40.78599], [70.61934, 40.8032], [70.62874, 40.81586], [70.64869, 40.81751], [70.68347, 40.79451], [70.70316, 40.78893], [70.70512, 40.80743], [70.51443, 40.97259], [70.48291, 40.99352], [70.44571, 41.02592], [70.40116, 41.03998], [70.36354, 41.03243], [70.33589, 40.92696], [70.28039, 40.87771], [70.20799, 40.84459], [70.10423, 40.81332], [70.00966, 40.75803], [69.82533, 40.714], [69.80331, 40.70563], [69.78352, 40.69297], [69.74156, 40.65246], [69.71769, 40.63628], [69.69092, 40.63003], [69.66012, 40.63871], [69.64751, 40.64744], [69.61888, 40.68165], [69.60782, 40.69178], [69.57082, 40.71245], [69.53186, 40.7586], [69.50922, 40.77467], [69.47729, 40.77705], [69.46168, 40.78433], [69.43584, 40.80268], [69.41776, 40.80423], [69.38525, 40.79612], [69.35507, 40.78035], [69.3296, 40.75534], [69.3142, 40.7293], [69.30717, 40.69933], [69.3066, 40.66253], [69.31347, 40.60936], [69.30934, 40.59582], [69.29497, 40.58915], [69.23425, 40.58528], [69.19844, 40.56652], [69.19803, 40.54585], [69.23834, 40.49396], [69.25973, 40.43764], [69.30634, 40.36498], [69.3127, 40.34281], [69.30531, 40.29382], [69.27312, 40.28958], [69.23462, 40.30085], [69.20836, 40.29832], [69.2125, 40.26876], [69.28526, 40.21863], [69.28526, 40.19496], [69.24769, 40.18174], [69.19793, 40.18297], [69.10801, 40.20365], [69.04202, 40.22917], [69.01923, 40.23207], [68.85655, 40.21274], [68.80188, 40.19114], [68.77847, 40.18876], [68.72054, 40.19651], [68.69832, 40.19496], [68.60199, 40.17543], [68.58112, 40.16422], [68.60695, 40.14231], [68.65171, 40.12076], [68.68705, 40.11032], [68.93066, 40.1468], [68.97727, 40.12101], [68.98698, 40.09171], [68.98543, 40.07714], [68.97727, 40.06489], [68.95453, 40.06205], [68.88177, 40.07084], [68.86151, 40.06582], [68.82606, 40.04205], [68.81314, 40.0389], [68.79041, 40.07017], [68.7747, 40.07988], [68.76172, 40.06148], [68.76384, 40.05249], [68.78162, 40.04154], [68.78503, 40.03394], [68.78291, 40.01342], [68.78937, 39.99399], [68.87743, 39.90056], [68.88079, 39.87834], [68.83826, 39.86465], [68.81536, 39.89188], [68.80012, 39.93514], [68.77976, 39.96945], [68.75888, 39.98056], [68.75201, 39.97275], [68.75557, 39.95405], [68.78762, 39.89576], [68.78736, 39.8817], [68.77521, 39.86253], [68.75754, 39.85752], [68.75041, 39.84248], [68.74834, 39.82615], [68.74162, 39.81964], [68.72819, 39.82496], [68.70152, 39.85845], [68.68509, 39.86801], [68.65109, 39.8447], [68.62618, 39.84961], [68.61584, 39.82811], [68.60582, 39.66688], [68.60034, 39.64285], [68.58701, 39.62316], [68.56293, 39.60358], [68.52024, 39.58255], [68.5067, 39.56756], [68.51745, 39.54844], [68.49771, 39.54141], [68.43627, 39.5288], [68.38661, 39.52519], [68.33756, 39.52792], [68.25586, 39.55056], [68.10621, 39.55412], [67.76453, 39.6226], [67.7176, 39.62337], [67.68045, 39.61412], [67.58738, 39.56265], [67.50744, 39.55294], [67.48764, 39.538], [67.49457, 39.49371], [67.49116, 39.4901], [67.47741, 39.48441], [67.43648, 39.48571], [67.42728, 39.47661], [67.41478, 39.43811], [67.40816, 39.39791], [67.40708, 39.36101], [67.39442, 39.32737], [67.38687, 39.29419], [67.36062, 39.29176], [67.34646, 39.28081], [67.34269, 39.25957], [67.35008, 39.21983], [67.37819, 39.19949], [67.49901, 39.16598], [67.58035, 39.1636], [67.61983, 39.15125], [67.63771, 39.13154], [67.66758, 39.13177], [67.67673, 39.11963], [67.67859, 39.10594], [67.66722, 39.02837], [67.67223, 39.00377], [67.69052, 38.98961], [67.81837, 38.97341], [67.84524, 38.97377], [67.93485, 38.99907], [67.96327, 39.00191], [67.98797, 38.99377], [68.00337, 38.98212], [68.01981, 38.97969], [68.03645, 38.98439], [68.05309, 38.99395], [68.06911, 38.9961], [68.08564, 38.99377], [68.10094, 38.97928], [68.13468, 38.92099], [68.16372, 38.88747], [68.1737, 38.86732], [68.17256, 38.84528], [68.16367, 38.82864], [68.15127, 38.81513], [68.13598, 38.80451], [68.11902, 38.7967], [68.07789, 38.79339], [68.06673, 38.78797], [68.06332, 38.76632], [68.07665, 38.7381], [68.07593, 38.72686], [68.07076, 38.72074], [68.04549, 38.70671], [68.03763, 38.69165], [68.04032, 38.67335], [68.05371, 38.63594], [68.05588, 38.61573], [68.05252, 38.55827], [68.05515, 38.5363], [68.08688, 38.49403], [68.09257, 38.47879], [68.09804, 38.43244], [68.10755, 38.41828], [68.14672, 38.38874], [68.18372, 38.33549], [68.20083, 38.32169], [68.25266, 38.29875], [68.33204, 38.24299], [68.35622, 38.2126], [68.36066, 38.17405], [68.34433, 38.11545], [68.31953, 38.06021], [68.28057, 38.01324], [68.26827, 37.99383], [68.24873, 37.94895], [68.23302, 37.9398], [68.21773, 37.93608], [68.17112, 37.93107], [68.13995, 37.9227], [68.12223, 37.90833], [68.07965, 37.80627], [68.05019, 37.76041], [67.97733, 37.67974], [67.92338, 37.63879], [67.87186, 37.5868], [67.82922, 37.52794], [67.80121, 37.46645], [67.79734, 37.42444], [67.81718, 37.34542], [67.82064, 37.30331], [67.81543, 37.26734], [67.80395, 37.23344], [67.78509, 37.20357], [67.78054, 37.18887], [67.776, 37.20755], [67.76427, 37.22088], [67.74659, 37.22941], [67.72587, 37.23354], [67.6775, 37.23354], [67.64463, 37.25122], [67.63316, 37.25406], [67.59229, 37.24719], [67.57219, 37.22315], [67.56139, 37.2199], [67.545, 37.23153], [67.52614, 37.27289], [67.50315, 37.28196], [67.48237, 37.27736], [67.43111, 37.23977], [67.39116, 37.21959], [67.31959, 37.20843], [67.28145, 37.18866], [67.25913, 37.18515], [67.23675, 37.19241], [67.22528, 37.2077], [67.20797, 37.24346], [67.18782, 37.25824], [67.14348, 37.27186], [67.12332, 37.28196], [67.11392, 37.29718], [67.09738, 37.34059], [67.08508, 37.34963], [67.0641, 37.35457], [67.02411, 37.37749], [67.00592, 37.38439], [66.95765, 37.38521], [66.86577, 37.36793], [66.73498, 37.3633], [66.6941, 37.34341], [66.65467, 37.34614], [66.58858, 37.36847], [66.5646, 37.37069], [66.53902, 37.36909], [66.51959, 37.36418], [66.49483, 37.37942], [66.49701, 37.39774], [66.5308, 37.43015], [66.54662, 37.45079], [66.54269, 37.46676], [66.50713, 37.49384], [66.49349, 37.52221], [66.49721, 37.55789], [66.51912, 37.62525], [66.52295, 37.66504], [66.51499, 37.74348], [66.51881, 37.78271], [66.55364, 37.83201], [66.60904, 37.88919], [66.64578, 37.9459], [66.62434, 37.99383], [66.59038, 38.01298], [66.55416, 38.02685], [66.51592, 38.0351], [66.43944, 38.03546], [66.40833, 38.04285], [66.30694, 38.08039], [66.26043, 38.12674], [66.23108, 38.14878], [66.19842, 38.16072], [66.13357, 38.17529], [66.07161, 38.21454], [66.04349, 38.22619], [65.97745, 38.23457], [65.87668, 38.27296], [65.84288, 38.27534], [65.81436, 38.26619], [65.76599, 38.23555], [65.7402, 38.22408], [65.67163, 38.21968], [65.60414, 38.23741], [65.2053, 38.44964], [64.97772, 38.61227], [64.91054, 38.64534], [64.76336, 38.68601], [64.6349, 38.74415], [64.42432, 38.88295], [64.33734, 38.97096], [64.31357, 38.98248], [64.28339, 38.97969], [64.20598, 38.94946], [64.18014, 38.94512], [64.15059, 38.94946], [64.12061, 38.96168], [63.70927, 39.19089], [63.6485, 39.23952], [63.54101, 39.3561], [63.47755, 39.40292], [62.59316, 39.89023], [62.53539, 39.93498], [62.52459, 39.93973], [62.45281, 40.00924], [62.42439, 40.09213], [62.4216, 40.11507], [62.42578, 40.13667], [62.43968, 40.1729], [62.43575, 40.19419], [62.40506, 40.24524], [62.39653, 40.31201], [62.38831, 40.33015], [62.36258, 40.36968], [62.35638, 40.38818], [62.35328, 40.4304], [62.34361, 40.43939], [62.26093, 40.47572], [62.21344, 40.48657], [62.19184, 40.49903], [62.17138, 40.53996], [62.13417, 40.57783], [62.12068, 40.59897], [62.10006, 40.66041], [62.0887, 40.67437], [62.05573, 40.70175], [62.04477, 40.71498], [62.03681, 40.73633], [62.02534, 40.78196], [61.99387, 40.86588], [61.98271, 40.88567], [61.99025, 40.89316], [61.98539, 40.90789], [61.98271, 40.97843], [61.9793, 40.99884], [61.97082, 41.01543], [61.89744, 41.10881], [61.87791, 41.12498], [61.65436, 41.24942], [61.56733, 41.27779], [61.47008, 41.29717], [61.43318, 41.30032], [61.41075, 41.292], [61.39721, 41.27097], [61.3875, 41.23578], [61.363, 41.22519], [61.34399, 41.19382], [61.31587, 41.17046], [61.28135, 41.15728], [61.24322, 41.1563], [61.2026, 41.16881], [61.09966, 41.2241], [61.08188, 41.22451], [61.02277, 41.21686], [61.01408, 41.2349], [61.01026, 41.23723], [60.99114, 41.21247], [60.97801, 41.20281], [60.93026, 41.24022], [60.8603, 41.25299], [60.65886, 41.24379], [60.53814, 41.21325], [60.4781, 41.21211], [60.44327, 41.21966], [60.41453, 41.23526], [60.36027, 41.27634], [60.29992, 41.30983], [60.09424, 41.38952], [60.06613, 41.4105], [60.05921, 41.43417], [60.07171, 41.51437], [60.07957, 41.53147], [60.09259, 41.54548], [60.10964, 41.55679], [60.15098, 41.57235], [60.16473, 41.58496], [60.15563, 41.60333], [60.08908, 41.67412], [60.05828, 41.71859], [60.04918, 41.7535], [60.07492, 41.78104], [60.10241, 41.79528], [60.13372, 41.79729], [60.17135, 41.78841], [60.2254, 41.76546], [60.24111, 41.76706], [60.25268, 41.78006], [60.25082, 41.79427], [60.22891, 41.81962], [60.16752, 41.84959], [60.15254, 41.86119], [60.11822, 41.90044], [60.08877, 41.91936], [59.98366, 41.94904], [59.93177, 41.94765], [59.91751, 41.95243], [59.90645, 41.96661], [59.908, 41.97982], [59.91927, 41.98966], [59.99719, 42.01062], [59.9941, 42.0501], [59.97446, 42.09924], [59.98366, 42.14559], [60.03699, 42.1697], [60.0404, 42.18647], [60.0282, 42.19952], [60.00505, 42.20978], [59.96071, 42.22272], [59.92567, 42.24629], [59.89787, 42.27853], [59.86635, 42.30421], [59.82098, 42.30799], [59.77633, 42.30396], [59.68951, 42.3098], [59.47816, 42.28564], [59.42648, 42.28677], [59.40147, 42.29391], [59.36158, 42.32579], [59.33811, 42.33181], [59.28716, 42.33594], [59.25843, 42.34754], [59.2452, 42.36535], [59.23331, 42.44173], [59.22381, 42.46087], [59.20965, 42.47772], [59.14608, 42.52676], [59.122, 42.538], [59.09647, 42.53598], [59.06743, 42.52557], [59.0386, 42.51973], [59.00924, 42.51846], [58.9647, 42.52438], [58.89442, 42.54784], [58.82745, 42.59376], [58.61227, 42.78085], [58.58788, 42.79119], [58.56938, 42.7685], [58.55573, 42.6836], [58.53455, 42.6545], [58.4932, 42.64546], [58.44184, 42.64784], [58.39057, 42.65667], [58.28267, 42.68892], [58.25828, 42.68951], [58.23958, 42.68515], [58.18656, 42.6612], [58.14883, 42.649], [58.13064, 42.63885], [58.12134, 42.62425], [58.12703, 42.605], [58.14573, 42.59257], [58.271, 42.54903], [58.30624, 42.52867], [58.33704, 42.49371], [58.3637, 42.44707], [58.43791, 42.3577], [58.48959, 42.31452], [58.49413, 42.30571], [58.49062, 42.29757], [58.47822, 42.29199], [58.41393, 42.28476], [58.3976, 42.28786], [58.38582, 42.30132], [58.38613, 42.31685], [58.39492, 42.35225], [58.38468, 42.38783], [58.35895, 42.41341], [58.32505, 42.43186], [58.22573, 42.46658], [58.20382, 42.4695], [58.18573, 42.46725], [58.14945, 42.45568], [58.13323, 42.45457], [58.11721, 42.46152], [58.09437, 42.48671], [58.0799, 42.4973], [58.06088, 42.50227], [58.01602, 42.49971], [57.99773, 42.49343], [57.9783, 42.47178], [57.95277, 42.45007], [57.92559, 42.44111], [57.90864, 42.43043], [57.91432, 42.40395], [57.93572, 42.36982], [57.93748, 42.35424], [57.92879, 42.33093], [57.88807, 42.26158], [57.87371, 42.24964], [57.83547, 42.24045], [57.8273, 42.22737], [57.83454, 42.21164], [57.84735, 42.20091], [57.85045, 42.19143], [57.82844, 42.17954], [57.80922, 42.17639], [57.7409, 42.17874], [57.72157, 42.17533], [57.66628, 42.1551], [57.61977, 42.14818], [57.47828, 42.16652], [57.38226, 42.16363], [57.28821, 42.12942], [57.20781, 42.07056], [57.15292, 41.99348], [57.11551, 41.95209], [57.07438, 41.92879], [56.97836, 41.89512], [56.95015, 41.86605], [56.94984, 41.8275], [56.97195, 41.74854], [56.96947, 41.71089], [56.96162, 41.67872], [56.96048, 41.6472], [56.97836, 41.61147], [57.00058, 41.58403], [57.01205, 41.55783], [57.01577, 41.52899], [57.01505, 41.49364], [57.0196, 41.46595], [57.03303, 41.43825], [57.05226, 41.4136], [57.07417, 41.39499], [57.10363, 41.38161], [57.15375, 41.37236], [57.1614, 41.36797], [57.15923, 41.36115], [57.14796, 41.35107], [57.12667, 41.3396], [57.08006, 41.32203], [57.06032, 41.30492], [57.02952, 41.2626], [57.01019, 41.25412], [56.79346, 41.28833], [55.97842, 41.32172], [55.97584, 44.99441], [57.47828, 45.33692], [58.2096, 45.49335], [58.53144, 45.55872], [58.55491, 45.55717], [58.58219, 45.54869], [61.0363, 44.38282], [61.06214, 44.362], [61.08023, 44.33549], [61.08664, 44.3112], [61.09315, 44.25942], [61.10286, 44.23606], [61.16167, 44.16811], [61.38605, 43.99344], [61.9857, 43.49334], [62.02611, 43.48063], [62.47772, 43.54112], [63.20801, 43.62747], [64.42674, 43.54703], [64.46157, 43.55432], [64.85504, 43.71291], [64.89101, 43.72279], [64.92294, 43.71912], [64.95653, 43.69736], [65.17192, 43.49368], [65.27145, 43.41701], [65.47738, 43.32281], [65.51691, 43.29723], [65.79524, 42.8772], [65.8126, 42.87576], [66.10127, 42.99032], [66.05321, 42.44087], [66.04318, 42.42366], [66.01962, 42.41684], [66.01373, 42.40302], [66.00649, 42.01343], [66.00866, 42.00266], [66.01724, 41.99762], [66.48481, 41.99702], [66.50414, 41.99348], [66.53886, 41.74076], [66.60263, 41.4938], [66.68821, 41.19919], [66.73296, 41.15806], [66.81528, 41.14188], [67.74814, 41.1841], [67.77093, 41.1793], [67.83491, 41.15687], [67.85413, 41.15899], [67.93743, 41.20038], [67.94948, 41.17191], [67.95893, 41.15945], [68.00306, 41.11563], [68.01319, 41.09785], [68.02115, 41.05915], [68.03438, 41.04272], [68.05908, 41.05476], [68.07138, 41.05331], [68.08213, 41.04272], [68.09598, 41.06514], [68.11737, 41.06674], [68.12145, 41.04328], [68.11892, 41.03403], [68.13132, 41.02964], [68.0997, 41.01362], [68.10786, 41.01026], [68.12089, 40.99383], [68.12058, 40.9653], [68.11076, 40.93166], [68.08058, 40.87296], [68.05474, 40.84722], [68.0382, 40.8372], [68.00306, 40.82516], [67.99407, 40.81896], [67.99092, 40.8111], [67.99748, 40.80754], [68.03707, 40.80108], [68.0675, 40.788], [68.15892, 40.71912], [68.2261, 40.67886], [68.46174, 40.58466], [68.47735, 40.59923], [68.49244, 40.59861], [68.50546, 40.61432], [68.51481, 40.61912], [68.52634, 40.61757], [68.56623, 40.60248], [68.593, 40.59949], [68.61424, 40.6091], [68.62039, 40.62222], [68.60111, 40.63003], [68.62545, 40.66041], [68.62742, 40.66713], [68.61212, 40.69054], [68.6085, 40.70336], [68.60943, 40.71581], [68.57461, 40.72449], [68.56634, 40.7325], [68.55977, 40.75131], [68.5497, 40.83503], [68.55342, 40.85043], [68.56541, 40.85916], [68.57187, 40.87048], [68.57088, 40.91352], [68.58918, 40.9066], [68.60013, 40.93006], [68.62793, 40.94453], [68.68938, 40.96494], [68.70953, 40.98375], [68.74627, 41.0638], [68.77377, 41.08726], [68.84244, 41.1101], [68.88022, 41.15552], [68.90084, 41.16064], [68.94378, 41.16488], [68.97975, 41.17821], [69.01406, 41.19604], [69.03122, 41.20875], [69.03918, 41.22028], [69.05478, 41.31541], [69.05116, 41.34363], [69.03427, 41.35872], [69.03158, 41.36698], [69.03618, 41.37401], [69.09064, 41.39629], [69.10946, 41.40068], [69.12806, 41.39515], [69.13819, 41.41592], [69.16268, 41.43406], [69.21715, 41.46005], [69.23332, 41.46264], [69.26293, 41.45458], [69.27756, 41.45618], [69.31616, 41.47483], [69.33115, 41.47793], [69.39068, 41.46972], [69.40236, 41.47483], [69.40112, 41.48517], [69.38448, 41.50822], [69.38081, 41.51881], [69.39378, 41.54496], [69.42034, 41.55953], [69.47729, 41.57312], [69.57899, 41.63338], [69.60756, 41.65828], [69.62457, 41.66831], [69.75944, 41.69645], [69.87086, 41.69958], [69.9124, 41.71286], [69.95654, 41.75518], [69.97204, 41.76458], [70.02795, 41.77998], [70.1111, 41.82597], [70.13637, 41.84809], [70.20417, 41.93581], [70.21859, 41.94692], [70.27031, 41.96555], [70.28298, 41.97625], [70.29026, 41.99377], [70.31507, 42.03459], [70.35791, 42.06224], [70.45542, 42.09374], [70.4702, 42.09162], [70.48849, 42.08188], [70.50446, 42.06847], [70.51888, 42.03669], [70.53423, 42.02498], [70.55526, 42.0187], [70.57903, 42.01625], [70.61024, 42.02741], [70.63148, 42.05687], [70.64983, 42.0934], [70.67318, 42.12598], [70.70114, 42.15094], [70.71184, 42.16433], [70.7199, 42.1829], [70.73427, 42.1973], [70.75814, 42.19802], [70.80455, 42.18843], [70.84237, 42.19254], [70.87999, 42.20693], [70.9696, 42.26347], [71.01404, 42.2877], [71.04577, 42.29096], [71.0776, 42.28117], [71.21785, 42.20636], [71.2532, 42.19756], [71.23821, 42.16024], [71.20101, 42.14079], [71.11843, 42.12291], [70.97714, 42.04423], [70.93591, 42.03687], [70.88671, 42.03849], [70.84547, 42.03036], [70.82806, 41.99374], [70.82511, 41.93633], [70.814, 41.91954], [70.77933, 41.90966], [70.6797, 41.90111], [70.64895, 41.88739], [70.55009, 41.82406], [70.50648, 41.78559], [70.47723, 41.73844], [70.45366, 41.71208], [70.42348, 41.69691], [70.39082, 41.68505], [70.33119, 41.64963], [70.16929, 41.57834], [70.14826, 41.55245], [70.16655, 41.52021], [70.20345, 41.50563], [70.34442, 41.4938], [70.38225, 41.47644], [70.39899, 41.46496], [70.41361, 41.4507], [70.43806, 41.41608], [70.4532, 41.40548], [70.47723, 41.40466], [70.51133, 41.41448], [70.63381, 41.4675], [70.66781, 41.47137], [70.68672, 41.46248], [70.70357, 41.44548], [70.75969, 41.37251], [70.7692, 41.3521], [70.77106, 41.33102], [70.75628, 41.26963], [70.75804, 41.25216], [70.77044, 41.23852], [70.78656, 41.24043], [70.80599, 41.24746], [70.82852, 41.24911], [70.84775, 41.24307], [70.86573, 41.2332], [70.9142, 41.19304], [70.93415, 41.19144], [70.97714, 41.19635], [71.02469, 41.18979], [71.04701, 41.18203], [71.08577, 41.16204], [71.12308, 41.15821], [71.1391, 41.14839], [71.16442, 41.1162], [71.18013, 41.10814], [71.18995, 41.12747], [71.18302, 41.16638], [71.18571, 41.18023], [71.20638, 41.18875], [71.23015, 41.18726], [71.24152, 41.17516], [71.25382, 41.13749], [71.26338, 41.12349], [71.27614, 41.11315], [71.28948, 41.11387], [71.30023, 41.13305], [71.32524, 41.15733], [71.39366, 41.11274], [71.41608, 41.12736], [71.42146, 41.16209], [71.41257, 41.33469], [71.41877, 41.3474], [71.43247, 41.34482], [71.48063, 41.31076], [71.52383, 41.29665], [71.55794, 41.30172], [71.58553, 41.32352], [71.61881, 41.37779], [71.63307, 41.41132], [71.63742, 41.43127], [71.63369, 41.44962], [71.60558, 41.47685], [71.59545, 41.49375], [71.6153, 41.53214], [71.62739, 41.5432], [71.64951, 41.54992], [71.67142, 41.54739], [71.68413, 41.53406], [71.6894, 41.51463], [71.6895, 41.4938], [71.67111, 41.43763], [71.67194, 41.42548], [71.68144, 41.42285], [71.69612, 41.44745], [71.70687, 41.44409], [71.71224, 41.42802], [71.72165, 41.42476], [71.72971, 41.43008], [71.73043, 41.45117], [71.73684, 41.4554], [71.74521, 41.45282], [71.75317, 41.44729], [71.84701, 41.34182], [71.86303, 41.31221], [71.86882, 41.27924], [71.86634, 41.23661], [71.87161, 41.19449], [71.89766, 41.18493], [71.97703, 41.19521], [72.00122, 41.18002], [72.01651, 41.16354], [72.03377, 41.15661], [72.06364, 41.1702], [72.1085, 41.1964], [72.13289, 41.19929], [72.15842, 41.18787], [72.16989, 41.16865], [72.1856, 41.06065], [72.1856, 41.04106], [72.16514, 40.99936], [72.25298, 41.01962], [72.28978, 41.02354], [72.29732, 41.02814], [72.31407, 41.06168], [72.33236, 41.07284], [72.34569, 41.06597], [72.37432, 41.03197], [72.3952, 41.02204], [72.42352, 41.01574], [72.47674, 41.01181], [72.48191, 41.00882], [72.48522, 40.99957], [72.48336, 40.97057], [72.50145, 40.9635], [72.52625, 40.9622], [72.54558, 40.95652], [72.58847, 40.90583], [72.61947, 40.88009], [72.65823, 40.86717], [72.70123, 40.86324], [72.83011, 40.87208], [72.86866, 40.86412], [72.873, 40.83482], [72.87031, 40.81818], [72.88313, 40.81963], [72.92943, 40.84417], [73.00343, 40.87017], [73.01945, 40.8619], [73.0333, 40.84722], [73.05356, 40.83632], [73.11247, 40.83916], [73.14337, 40.83384], [73.14864, 40.81369], [73.11805, 40.78294], [73.07061, 40.76247], [72.97677, 40.73607], [72.89098, 40.69509], [72.81894, 40.68108], [72.78391, 40.66966], [72.76003, 40.64176], [72.74836, 40.5751], [72.71921, 40.56486], [72.68242, 40.57768], [72.66423, 40.57778], [72.65647, 40.56114], [72.65048, 40.53215], [72.64087, 40.51985], [72.62547, 40.5105], [72.58578, 40.50874], [72.51529, 40.54564], [72.47674, 40.54957], [72.44791, 40.56047], [72.41483, 40.58987], [72.38156, 40.61215], [72.35189, 40.60197], [72.34848, 40.58538], [72.37008, 40.55773], [72.36998, 40.53985], [72.36326, 40.52357], [72.36347, 40.51231], [72.37225, 40.50326], [72.41566, 40.47929], [72.4262, 40.45934], [72.42517, 40.43598], [72.41442, 40.41071], [72.39406, 40.38942], [72.3705, 40.38565], [72.34342, 40.3934], [72.26962, 40.42404], [72.22436, 40.42244], [72.21164, 40.4256], [72.2165, 40.43495], [72.2596, 40.44239], [72.26363, 40.45252], [72.25423, 40.45831], [72.1827, 40.45779], [72.16586, 40.45443], [72.0993, 40.42637], [72.0901, 40.41604], [72.08411, 40.39738], [72.06964, 40.36942], [72.04318, 40.34932], [71.95667, 40.31568], [71.95109, 40.30152], [71.95822, 40.28653], [72.01982, 40.25873], [72.0254, 40.25088], [72.01889, 40.24003], [72.00483, 40.23729], [71.96918, 40.24442], [71.95181, 40.2409], [71.91233, 40.24344], [71.87296, 40.25077], [71.83647, 40.24917], [71.80547, 40.2253], [71.77591, 40.17993], [71.75978, 40.16809], [71.70718, 40.14427], [71.69333, 40.14112], [71.67307, 40.14789], [71.66687, 40.16313], [71.66718, 40.20416], [71.66015, 40.22447], [71.64599, 40.2471], [71.62832, 40.25889], [71.61013, 40.24638], [71.60165, 40.20995], [71.59297, 40.19843], [71.56827, 40.19657], [71.52125, 40.20375], [71.47711, 40.2208], [71.45892, 40.23413], [71.44136, 40.2609], [71.39655, 40.27155], [71.36513, 40.29413], [71.31356, 40.29268], [71.28323, 40.29842], [71.26395, 40.31821], [71.25382, 40.32441], [71.23956, 40.32111], [71.22395, 40.30286], [71.21511, 40.28075], [71.20101, 40.26385], [71.16938, 40.26142], [71.05321, 40.27423], [70.99513, 40.26659], [70.95896, 40.23837], [70.93834, 40.23992]], [[70.54978, 41.01522], [70.56146, 40.9946], [70.60838, 40.95094], [70.62523, 40.93869], [70.64507, 40.93518], [70.64342, 40.95228], [70.6305, 40.97642], [70.61665, 40.99352], [70.59345, 41.00938], [70.5659, 41.01838], [70.54978, 41.01522]]], [[[71.78976, 39.97932], [71.76712, 39.91545], [71.7573, 39.9031], [71.7418, 39.90077], [71.69684, 39.91384], [71.67535, 39.92578], [71.66553, 39.9402], [71.68175, 39.95508], [71.70687, 39.95611], [71.72413, 39.96268], [71.76061, 39.98371], [71.78552, 39.98971], [71.78976, 39.97932]]], [[[71.18189, 40.0434], [71.19822, 40.05259], [71.22374, 40.05787], [71.23635, 40.05606], [71.244, 40.04676], [71.23728, 40.0311], [71.19098, 40.00624], [71.1747, 39.99399], [71.17703, 39.96816], [71.22106, 39.93172], [71.21909, 39.90093], [71.20845, 39.88878], [71.1946, 39.8848], [71.16101, 39.88423], [71.11367, 39.87447], [71.09889, 39.8755], [71.08722, 39.88382], [71.07998, 39.9034], [71.06096, 39.90413], [71.0219, 39.88082], [71.00929, 39.88573], [71.00763, 39.91116], [71.05037, 39.96288], [71.04582, 39.99203], [71.0343, 39.99911], [71.00763, 40.0035], [70.99451, 40.00888], [70.98314, 40.02138], [70.95844, 40.06309], [70.95296, 40.07921], [70.95405, 40.0958], [70.95988, 40.11342], [70.97714, 40.14458], [71.00856, 40.15776], [71.0312, 40.1469], [71.04794, 40.12251], [71.06174, 40.09518], [71.07884, 40.07864], [71.10598, 40.06495], [71.16938, 40.04283], [71.18189, 40.0434]]]]}}]}