{"type": "FeatureCollection", "features": [{"type": "Feature", "properties": {"name": "하와이", "name_en": "Hawaii", "period": "1914년경", "kind": "식민지", "legend": "하와이", "map_title": "제국주의 열강의 아시아·태평양 분할(1914년경)", "source": "미래엔 세계사 교과서 3권 157쪽", "volume": 3, "page": 157, "note": "미국령", "coast_snap": "Natural Earth 10m 해안선에 맞춤", "group": "하와이", "map_folder": "3권_p157_제국주의 열강의 아시아·태평양 분할"}, "geometry": {"type": "MultiPolygon", "coordinates": [[[[-155.9875, 19.82437], [-155.98203, 19.84332], [-155.96817, 19.85407], [-155.92602, 19.8688], [-155.87323, 19.9515], [-155.8509, 19.97528], [-155.83546, 19.9757], [-155.82408, 20.02009], [-155.83107, 20.03937], [-155.8477, 20.05453], [-155.88255, 20.10495], [-155.89696, 20.14885], [-155.89927, 20.21648], [-155.88047, 20.25201], [-155.86724, 20.26312], [-155.83085, 20.26337], [-155.73799, 20.24379], [-155.71167, 20.19615], [-155.64831, 20.16811], [-155.63065, 20.14821], [-155.60653, 20.13794], [-155.58636, 20.12294], [-155.5631, 20.12839], [-155.5272, 20.12626], [-155.42072, 20.09018], [-155.33213, 20.04661], [-155.16805, 19.94682], [-155.11608, 19.89695], [-155.08715, 19.86038], [-155.08537, 19.72741], [-155.05749, 19.72853], [-155.01855, 19.74582], [-154.98993, 19.7267], [-154.97668, 19.70575], [-154.98004, 19.66281], [-154.94991, 19.61145], [-154.89962, 19.56702], [-154.84663, 19.54493], [-154.82532, 19.52748], [-154.81408, 19.50658], [-154.81722, 19.47973], [-154.87474, 19.41289], [-154.91893, 19.39731], [-154.98231, 19.33925], [-155.0251, 19.32758], [-155.02667, 19.31618], [-155.06261, 19.30782], [-155.09304, 19.28622], [-155.20296, 19.25559], [-155.24506, 19.26554], [-155.26928, 19.26618], [-155.29113, 19.25952], [-155.34569, 19.2248], [-155.36414, 19.20359], [-155.40015, 19.19369], [-155.43712, 19.16972], [-155.5028, 19.13768], [-155.54613, 19.09821], [-155.55374, 19.08196], [-155.55227, 19.04562], [-155.60206, 18.99738], [-155.61853, 18.95555], [-155.67476, 18.90613], [-155.68353, 18.91116], [-155.68293, 18.93289], [-155.70417, 18.94908], [-155.81725, 19.01323], [-155.87812, 19.02908], [-155.89105, 19.06565], [-155.9039, 19.06947], [-155.91992, 19.1386], [-155.88553, 19.33416], [-155.88737, 19.35957], [-155.90095, 19.38292], [-155.93658, 19.48131], [-155.95637, 19.51424], [-155.95397, 19.53608], [-155.96563, 19.55663], [-155.9822, 19.60768], [-155.99952, 19.63218], [-156.03625, 19.66794], [-156.06009, 19.73143], [-156.0388, 19.78314], [-155.9875, 19.82437]]], [[[-156.56178, 20.598], [-156.53658, 20.57094], [-156.54977, 20.54147], [-156.53414, 20.53178], [-156.54456, 20.51323], [-156.59951, 20.5174], [-156.67926, 20.50472], [-156.70055, 20.52543], [-156.68845, 20.5401], [-156.63899, 20.57522], [-156.58262, 20.59995], [-156.56178, 20.598]]], [[[-156.65385, 21.00476], [-156.64538, 21.01337], [-156.64483, 21.02118], [-156.63579, 21.02711], [-156.61568, 21.02515], [-156.59793, 21.03264], [-156.58139, 21.01815], [-156.54238, 21.00338], [-156.53752, 20.99065], [-156.5259, 20.98731], [-156.52305, 20.9622], [-156.50903, 20.95014], [-156.48167, 20.9044], [-156.46407, 20.90562], [-156.45292, 20.91791], [-156.37849, 20.92398], [-156.34642, 20.94586], [-156.3304, 20.95127], [-156.28221, 20.95031], [-156.26098, 20.94366], [-156.25556, 20.93765], [-156.24291, 20.94154], [-156.22689, 20.93194], [-156.22184, 20.92034], [-156.19726, 20.89501], [-156.1661, 20.87148], [-156.16476, 20.86279], [-156.14794, 20.8617], [-156.14442, 20.8671], [-156.13128, 20.85745], [-156.11928, 20.83607], [-156.08499, 20.83144], [-156.05101, 20.81586], [-156.00171, 20.80043], [-155.97956, 20.75737], [-155.98471, 20.71759], [-156.00314, 20.68591], [-156.02774, 20.67937], [-156.04843, 20.6509], [-156.0754, 20.65067], [-156.12951, 20.62448], [-156.20383, 20.62604], [-156.30259, 20.58119], [-156.35251, 20.59243], [-156.40765, 20.58722], [-156.43548, 20.61198], [-156.43858, 20.6222], [-156.45165, 20.63574], [-156.44314, 20.6426], [-156.44275, 20.66057], [-156.45048, 20.72638], [-156.45843, 20.74452], [-156.45799, 20.76484], [-156.46432, 20.78138], [-156.48573, 20.79666], [-156.50163, 20.79619], [-156.51588, 20.79009], [-156.52131, 20.77625], [-156.5339, 20.77415], [-156.56273, 20.79184], [-156.58448, 20.79546], [-156.60598, 20.80838], [-156.62023, 20.8071], [-156.6849, 20.88189], [-156.68613, 20.90382], [-156.696, 20.91581], [-156.67693, 20.98774], [-156.66646, 21.00343], [-156.65385, 21.00476]]], [[[-156.89272, 20.91413], [-156.84822, 20.87666], [-156.81617, 20.84143], [-156.80581, 20.8251], [-156.80358, 20.81278], [-156.80975, 20.79549], [-156.83126, 20.76382], [-156.8766, 20.74434], [-156.91374, 20.73474], [-156.96227, 20.7324], [-156.98237, 20.75942], [-156.99214, 20.84634], [-157.0508, 20.87141], [-157.06312, 20.89039], [-157.05529, 20.91117], [-157.03155, 20.92271], [-156.99041, 20.9275], [-156.89272, 20.91413]]], [[[-157.25116, 21.18028], [-157.24663, 21.19976], [-157.25903, 21.21483], [-157.25975, 21.22187], [-157.20916, 21.22026], [-157.19691, 21.217], [-157.18868, 21.20514], [-156.98974, 21.18285], [-156.97561, 21.21114], [-156.96577, 21.21331], [-156.95242, 21.1967], [-156.94776, 21.17785], [-156.92523, 21.17125], [-156.89705, 21.16519], [-156.84668, 21.16673], [-156.80031, 21.17767], [-156.77352, 21.17719], [-156.74901, 21.17097], [-156.73901, 21.17275], [-156.73322, 21.16875], [-156.73592, 21.16408], [-156.71318, 21.16136], [-156.70574, 21.15654], [-156.72485, 21.12373], [-156.75561, 21.09553], [-156.8308, 21.06118], [-156.86958, 21.05338], [-156.94753, 21.06457], [-157.07237, 21.09938], [-157.22257, 21.08685], [-157.27306, 21.08736], [-157.29259, 21.09472], [-157.30393, 21.10957], [-157.30426, 21.12824], [-157.28538, 21.15606], [-157.26739, 21.16254], [-157.25116, 21.18028]]], [[[-158.12107, 21.5859], [-158.11294, 21.6039], [-158.06579, 21.63557], [-158.0672, 21.64142], [-158.0506, 21.67128], [-158.01461, 21.70135], [-157.98264, 21.70984], [-157.96966, 21.70905], [-157.93392, 21.67789], [-157.93333, 21.66717], [-157.9247, 21.66306], [-157.92409, 21.65434], [-157.91555, 21.64554], [-157.92018, 21.62745], [-157.89377, 21.59838], [-157.8875, 21.58088], [-157.87674, 21.5754], [-157.87118, 21.55792], [-157.85351, 21.55633], [-157.83646, 21.53405], [-157.8364, 21.51128], [-157.84437, 21.51136], [-157.84952, 21.50538], [-157.84213, 21.46105], [-157.82053, 21.45341], [-157.80351, 21.42907], [-157.78838, 21.42418], [-157.78632, 21.41679], [-157.77623, 21.41331], [-157.76005, 21.43323], [-157.7751, 21.44282], [-157.77351, 21.45419], [-157.76262, 21.45875], [-157.73806, 21.45578], [-157.72572, 21.45897], [-157.72293, 21.45157], [-157.73762, 21.43769], [-157.7387, 21.40545], [-157.70932, 21.38358], [-157.70581, 21.3749], [-157.7103, 21.36346], [-157.69615, 21.3364], [-157.64718, 21.30643], [-157.69346, 21.26267], [-157.70407, 21.25954], [-157.70676, 21.27501], [-157.71535, 21.28184], [-157.76381, 21.2731], [-157.79497, 21.25467], [-157.81082, 21.2542], [-157.81797, 21.25764], [-157.83071, 21.27726], [-157.88013, 21.29797], [-157.89497, 21.32228], [-157.89488, 21.33169], [-157.91518, 21.31647], [-157.90525, 21.30564], [-157.94699, 21.30275], [-157.94044, 21.31072], [-157.94827, 21.31683], [-157.9641, 21.31635], [-157.96805, 21.34788], [-157.93622, 21.36295], [-157.93185, 21.37166], [-157.96093, 21.38882], [-157.96922, 21.37204], [-157.99133, 21.39107], [-157.98444, 21.36213], [-157.98951, 21.35883], [-158.02017, 21.38331], [-158.01315, 21.36712], [-157.97541, 21.33389], [-157.98063, 21.31853], [-157.99897, 21.31129], [-158.09861, 21.2953], [-158.11526, 21.30513], [-158.13472, 21.36566], [-158.15744, 21.39465], [-158.17604, 21.40354], [-158.18712, 21.4445], [-158.21567, 21.46553], [-158.22759, 21.48305], [-158.22932, 21.5326], [-158.2775, 21.57599], [-158.23603, 21.58496], [-158.13659, 21.58929], [-158.12107, 21.5859]]], [[[-160.09564, 22.00775], [-160.07889, 22.00716], [-160.05997, 22.00055], [-160.05145, 21.98305], [-160.07223, 21.95945], [-160.07954, 21.93789], [-160.07235, 21.91066], [-160.08526, 21.89355], [-160.13634, 21.87292], [-160.15866, 21.85956], [-160.17654, 21.83921], [-160.16848, 21.93127], [-160.12362, 21.9563], [-160.11274, 21.98174], [-160.11375, 22.00026], [-160.09564, 22.00775]]], [[[-159.73261, 22.14077], [-159.7259, 22.14362], [-159.71653, 22.15751], [-159.66819, 22.16948], [-159.59823, 22.21086], [-159.58957, 22.22094], [-159.56577, 22.22565], [-159.55854, 22.23298], [-159.54845, 22.23097], [-159.53763, 22.21826], [-159.50806, 22.2082], [-159.49941, 22.20885], [-159.49937, 22.22357], [-159.48132, 22.23022], [-159.44018, 22.22751], [-159.42865, 22.2208], [-159.41926, 22.22214], [-159.39972, 22.23548], [-159.37375, 22.22209], [-159.35787, 22.22272], [-159.33874, 22.21303], [-159.33122, 22.19794], [-159.31867, 22.18578], [-159.31182, 22.18449], [-159.30134, 22.15107], [-159.29281, 22.14642], [-159.29471, 22.10763], [-159.30414, 22.09561], [-159.3187, 22.05757], [-159.33318, 22.04957], [-159.33065, 21.98453], [-159.33414, 21.95807], [-159.34789, 21.95811], [-159.35912, 21.9529], [-159.34787, 21.93671], [-159.3535, 21.93021], [-159.36541, 21.93083], [-159.38249, 21.91742], [-159.38991, 21.90525], [-159.41496, 21.8881], [-159.41642, 21.88076], [-159.42723, 21.87945], [-159.43732, 21.86878], [-159.48192, 21.88355], [-159.52962, 21.88567], [-159.58194, 21.89436], [-159.59058, 21.90172], [-159.59635, 21.89371], [-159.60497, 21.89172], [-159.61001, 21.89972], [-159.63448, 21.91375], [-159.65029, 21.93981], [-159.66181, 21.94249], [-159.66612, 21.9505], [-159.75979, 21.97854], [-159.77133, 22.00525], [-159.7872, 22.01927], [-159.7865, 22.06603], [-159.77656, 22.06953], [-159.73568, 22.11525], [-159.73261, 22.14077]]]]}}]}