{"type": "FeatureCollection", "features": [{"type": "Feature", "properties": {"map_title": "미국 혁명의 전개", "source": "미래엔 세계사 교과서 3권 137쪽", "volume": 3, "page": 137, "name": "새러토가 전투", "name_en": "Battles of Saratoga", "category": "격전지", "year": "1777", "coord_source": "실제 위치", "map_lon": -73.03145, "map_lat": 42.98408, "legend": "새러토가(주요 전투)"}, "geometry": {"type": "Point", "coordinates": [-73.64, 43.0]}}, {"type": "Feature", "properties": {"map_title": "미국 혁명의 전개", "source": "미래엔 세계사 교과서 3권 137쪽", "volume": 3, "page": 137, "name": "렉싱턴 전투", "name_en": "Battle of Lexington", "category": "격전지", "year": "1775", "coord_source": "실제 위치", "map_lon": -70.96524, "map_lat": 42.5291, "legend": "렉싱턴(주요 전투)"}, "geometry": {"type": "Point", "coordinates": [-71.23, 42.45]}}, {"type": "Feature", "properties": {"map_title": "미국 혁명의 전개", "source": "미래엔 세계사 교과서 3권 137쪽", "volume": 3, "page": 137, "name": "요크타운 전투", "name_en": "Siege of Yorktown", "category": "격전지", "year": "1781", "coord_source": "실제 위치", "map_lon": -76.44299, "map_lat": 37.30648, "legend": "요크타운(주요 전투)"}, "geometry": {"type": "Point", "coordinates": [-76.51, 37.24]}}]}