{"type": "FeatureCollection", "features": [{"type": "Feature", "properties": {"name": "모로코(프랑스 보호령)", "name_en": "French Morocco", "period": "1913년경", "kind": "식민지", "legend": "모로코(프랑스 보호령)", "map_title": "제국주의 열강의 아프리카 분할(1913년경)", "source": "미래엔 세계사 교과서 3권 156쪽", "volume": 3, "page": 156, "note": "프랑스령", "coast_snap": "Natural Earth 10m 해안선에 맞춤", "border_snap": "현대 국경(Natural Earth 10m)에 맞춘 구간 약 504 km"}, "geometry": {"type": "MultiPolygon", "coordinates": [[[[-13.56111, 26.74909], [-13.50089, 26.8583], [-13.48034, 26.91169], [-13.46104, 26.99274], [-13.432, 27.05077], [-13.40244, 27.17719], [-13.38353, 27.21544], [-13.3011, 27.32445], [-13.30792, 27.34495], [-13.29426, 27.35175], [-13.24083, 27.4654], [-13.20759, 27.56745], [-13.20078, 27.60651], [-13.18098, 27.64484], [-13.17124, 27.685], [-13.16071, 27.69447], [-13.13036, 27.70808], [-13.10483, 27.72711], [-13.03324, 27.71889], [-12.99446, 27.70927], [-12.92242, 27.68066], [-12.88851, 27.66141], [-12.82901, 27.61536], [-12.78465, 27.56512], [-12.77212, 27.56403], [-12.62554, 27.67301], [-12.6718, 27.73716], [-12.6892, 27.76897], [-12.71313, 27.83635], [-12.72183, 27.90705], [-12.71148, 27.98987], [-12.65783, 27.99802], [-12.51354, 27.99543], [-12.33467, 28.04732], [-12.06143, 28.08902], [-12.02309, 28.11956], [-12.00561, 28.1232], [-11.48558, 28.32563], [-11.45279, 28.34846], [-11.42882, 28.37592], [-11.3893, 28.43488], [-11.34097, 28.47968], [-11.32591, 28.5152], [-11.26647, 28.55158], [-11.21964, 28.60248], [-11.21181, 28.61676], [-11.17032, 28.63972], [-11.14915, 28.66766], [-11.11498, 28.69184], [-11.09104, 28.7263], [-11.06309, 28.75238], [-10.7626, 28.8902], [-10.69444, 28.93043], [-10.61242, 28.96772], [-10.5738, 28.99042], [-10.45092, 29.09219], [-10.34771, 29.22959], [-10.30199, 29.27187], [-10.26403, 29.28413], [-10.19913, 29.36127], [-10.17763, 29.40582], [-10.14175, 29.42862], [-10.12815, 29.45595], [-10.08092, 29.52114], [-10.0727, 29.56438], [-10.05309, 29.59975], [-10.00528, 29.63841], [-9.99168, 29.66681], [-9.9501, 29.71582], [-9.82022, 29.83894], [-9.71793, 29.99657], [-9.65514, 30.1269], [-9.64525, 30.16401], [-9.62844, 30.29114], [-9.61002, 30.35781], [-9.60733, 30.37763], [-9.61164, 30.40436], [-9.65492, 30.44201], [-9.66612, 30.4591], [-9.69175, 30.50959], [-9.70006, 30.54271], [-9.73082, 30.55208], [-9.75817, 30.58682], [-9.82966, 30.62861], [-9.87401, 30.63399], [-9.88853, 30.64826], [-9.88669, 30.68667], [-9.82022, 30.7923], [-9.8129, 30.82714], [-9.82435, 30.85175], [-9.82022, 30.87108], [-9.82771, 31.06745], [-9.84751, 31.12128], [-9.83503, 31.14476], [-9.80895, 31.2862], [-9.80663, 31.34345], [-9.8109, 31.36685], [-9.84751, 31.40241], [-9.81623, 31.43684], [-9.79296, 31.47134], [-9.76963, 31.53148], [-9.73327, 31.56737], [-9.72764, 31.58514], [-9.6942, 31.62572], [-9.67519, 31.7154], [-9.66729, 31.73114], [-9.5758, 31.81611], [-9.53514, 31.86471], [-9.50495, 31.88841], [-9.48357, 31.92275], [-9.36612, 32.02631], [-9.34642, 32.06151], [-9.32811, 32.13043], [-9.29198, 32.16893], [-9.27774, 32.1966], [-9.27001, 32.22748], [-9.26476, 32.33063], [-9.28774, 32.3435], [-9.29197, 32.35082], [-9.28348, 32.38747], [-9.24885, 32.45254], [-9.24694, 32.47232], [-9.2783, 32.52953], [-9.27895, 32.54633], [-9.26004, 32.5767], [-9.11217, 32.68285], [-8.99852, 32.7971], [-8.90168, 32.8548], [-8.86779, 32.8819], [-8.75486, 33.01047], [-8.62914, 33.12763], [-8.62149, 33.13935], [-8.62087, 33.17371], [-8.52916, 33.2687], [-8.52115, 33.27252], [-8.51276, 33.27055], [-8.49413, 33.25951], [-8.45165, 33.26423], [-8.41503, 33.28002], [-8.37877, 33.30467], [-8.32021, 33.36537], [-8.28465, 33.38983], [-8.24293, 33.40457], [-8.10656, 33.43085], [-7.96277, 33.48473], [-7.89143, 33.50336], [-7.8695, 33.52665], [-7.77798, 33.55329], [-7.701, 33.58275], [-7.66755, 33.61269], [-7.64786, 33.60834], [-7.63622, 33.61456], [-7.60619, 33.60834], [-7.57925, 33.62074], [-7.52912, 33.63264], [-7.49706, 33.64997], [-7.46328, 33.6865], [-7.43432, 33.69823], [-7.40635, 33.72699], [-7.38713, 33.73247], [-7.39395, 33.72504], [-7.37385, 33.71931], [-7.35261, 33.72468], [-7.26749, 33.77241], [-7.22905, 33.80105], [-7.15282, 33.82999], [-7.09948, 33.84028], [-7.06785, 33.86366], [-7.03181, 33.87425], [-6.92736, 33.94416], [-6.82209, 34.03962], [-6.73375, 34.16258], [-6.66779, 34.2805], [-6.55793, 34.41771], [-6.5309, 34.47402], [-6.50792, 34.50479], [-6.2921, 34.8808], [-6.2053, 35.12477], [-6.02392, 35.50117], [-6.01231, 35.55882], [-5.99083, 35.59854], [-5.96523, 35.67023], [-5.95206, 35.68549], [-5.93617, 35.76561], [-5.92722, 35.78074], [-5.90802, 35.79734], [-5.8734, 35.80198], [-5.7814, 35.79092], [-5.76928, 35.79279], [-5.72988, 35.82265], [-5.69351, 35.83428], [-5.6809, 35.82917], [-5.66344, 35.83587], [-5.63972, 35.83636], [-5.61596, 35.83152], [-5.59899, 35.82233], [-5.54003, 35.85098], [-5.48718, 35.89716], [-5.46033, 35.9137], [-5.45407, 35.89934], [-5.38972, 35.90205], [-5.3784, 35.88169], [-5.3629, 35.86381], [-5.34072, 35.84737], [-5.42222, 35.43175], [-5.44146, 35.39957], [-5.49002, 35.34169], [-5.53154, 35.30693], [-5.60598, 35.36879], [-5.6169, 35.36399], [-5.63608, 35.32186], [-5.58847, 35.27588], [-5.51546, 35.2284], [-5.37167, 35.15261], [-5.35907, 35.1591], [-5.34879, 35.23668], [-5.32244, 35.30351], [-5.30304, 35.3356], [-5.28013, 35.3656], [-5.2245, 35.41904], [-5.19152, 35.44259], [-5.12113, 35.48151], [-5.06627, 35.41747], [-5.05085, 35.40754], [-5.00822, 35.39923], [-4.98881, 35.38805], [-4.95471, 35.36245], [-4.90933, 35.31452], [-4.86499, 35.30198], [-4.81062, 35.26], [-4.7705, 35.24103], [-4.62828, 35.20539], [-4.49404, 35.18052], [-4.37605, 35.15184], [-4.34765, 35.15013], [-4.32706, 35.15477], [-4.26939, 35.18487], [-4.1306, 35.20478], [-4.0467, 35.23589], [-3.96129, 35.25043], [-3.91935, 35.26682], [-3.90943, 35.25528], [-3.92953, 35.24382], [-3.9039, 35.21417], [-3.88926, 35.20841], [-3.84089, 35.20539], [-3.78747, 35.20922], [-3.7648, 35.21845], [-3.74696, 35.26382], [-3.72622, 35.28229], [-3.69957, 35.29083], [-3.67336, 35.28779], [-3.59097, 35.2333], [-3.51602, 35.22353], [-3.48933, 35.211], [-3.45385, 35.2116], [-3.41291, 35.19794], [-3.36205, 35.19452], [-3.31924, 35.20181], [-3.19514, 35.23823], [-3.17394, 35.24909], [-3.11803, 35.29413], [-3.08967, 35.28628], [-3.07706, 35.28791], [-3.0454, 35.31444], [-3.00624, 35.39354], [-2.98082, 35.42451], [-2.9828, 35.435], [-2.97792, 35.4433], [-2.96858, 35.44643], [-2.95666, 35.44122], [-2.95223, 35.43305], [-2.95759, 35.41584], [-2.95296, 35.404], [-2.96304, 35.37348], [-2.94811, 35.33027], [-2.89905, 35.26], [-2.90795, 35.25096], [-2.91332, 35.21906], [-2.90982, 35.18671], [-2.89639, 35.16181], [-2.88199, 35.14672], [-2.85607, 35.13129], [-2.82095, 35.12189], [-2.74812, 35.11595], [-2.79181, 35.14517], [-2.8681, 35.21719], [-2.88315, 35.23851], [-2.8784, 35.24631], [-2.7611, 35.14326], [-2.71833, 35.12299], [-2.65589, 35.10695], [-2.66709, 35.04652], [-2.67941, 35.01264], [-2.71578, 34.94864], [-2.76654, 34.89167], [-2.83962, 34.83814], [-2.84274, 34.83157], [-2.80768, 33.84213], [-2.65855, 33.10322], [-2.17654, 32.68128], [-2.25679, 32.53428], [-2.28802, 32.1232], [-2.51615, 32.1322], [-2.69557, 32.08967], [-2.88119, 32.07629], [-2.93873, 32.04864], [-3.38003, 32.20876], [-3.92226, 32.17011], [-3.92867, 32.16555], [-4.09998, 31.87685], [-4.8685, 31.69898], [-4.87231, 31.69012], [-4.71647, 31.02395], [-5.88595, 30.48307], [-6.38239, 29.98087], [-6.34374, 29.57211], [-6.41311, 29.56515], [-6.55987, 29.5302], [-6.69965, 29.51623], [-6.78352, 29.44634], [-6.95824, 29.50924], [-7.07006, 29.51623], [-7.14693, 29.50924], [-7.25875, 29.4673], [-7.34961, 29.38344], [-7.46329, 29.38914], [-7.48406, 29.38245], [-7.50613, 29.38022], [-7.61945, 29.38942], [-7.65361, 29.37619], [-7.72999, 29.31116], [-7.778, 29.28932], [-7.83913, 29.23904], [-7.94501, 29.17623], [-8.03633, 29.09985], [-8.06966, 29.07934], [-8.18231, 29.03554], [-8.25047, 28.99477], [-8.31677, 28.93906], [-8.36845, 28.91653], [-8.38349, 28.90578], [-8.4178, 28.85235], [-8.43041, 28.84101], [-8.47584, 28.81876], [-8.52082, 28.78708], [-8.64885, 28.72595], [-8.66761, 28.71169], [-8.67877, 28.69282], [-8.68238, 28.65253], [-9.156, 28.64172], [-9.48667, 28.44273], [-9.53244, 28.21577], [-9.57125, 27.98774], [-9.63833, 27.52068], [-10.35064, 27.51659], [-11.41983, 27.53165], [-11.72226, 27.53011], [-11.94173, 27.51708], [-12.15736, 27.48621], [-12.36979, 27.43175], [-12.58032, 27.35482], [-12.91613, 27.21296], [-12.94833, 27.15007], [-13.01978, 27.05315], [-13.04925, 26.93977], [-13.07663, 26.88021], [-13.11267, 26.76299], [-13.19648, 26.74044], [-13.44644, 26.70135], [-13.52378, 26.70224], [-13.59427, 26.71519], [-13.56111, 26.74909]]], [[[-5.55137, 36.02608], [-5.61176, 36.00647], [-5.62971, 36.03677], [-5.68936, 36.06712], [-5.71312, 36.05997], [-5.75365, 36.07559], [-5.79605, 36.08553], [-5.85777, 36.14219], [-5.76113, 36.12755], [-5.68531, 36.10517], [-5.6159, 36.07203], [-5.55137, 36.02608]]]]}}]}