{"type": "FeatureCollection", "features": [{"type": "Feature", "properties": {"name": "수단", "name_en": "Anglo-Egyptian Sudan", "period": "1913년경", "kind": "식민지", "legend": "수단", "map_title": "제국주의 열강의 아프리카 분할(1913년경)", "source": "미래엔 세계사 교과서 3권 156쪽", "volume": 3, "page": 156, "note": "영국령", "coast_snap": "Natural Earth 10m 해안선에 맞춤", "border_snap": "현대 국경(Natural Earth 10m)에 맞춘 구간 약 6764 km"}, "geometry": {"type": "MultiPolygon", "coordinates": [[[[22.82628, 21.94104], [23.24244, 21.97397], [23.39922, 21.99213], [23.81148, 22.05007], [24.31619, 22.10375], [24.53133, 22.11968], [24.98125, 22.11998], [24.98125, 22.14677], [25.14866, 21.9953], [31.24841, 21.99437], [31.26164, 22.00176], [31.35951, 22.1881], [31.38535, 22.21446], [31.40406, 22.22376], [31.42328, 22.22696], [31.4425, 22.22417], [31.4609, 22.21549], [31.48292, 22.19544], [31.4918, 22.17322], [31.49056, 22.14821], [31.43548, 21.99535], [35.08197, 21.99558], [35.09087, 22.40539], [35.24292, 22.76767], [35.35066, 22.73421], [35.36203, 22.74008], [35.31732, 22.8248], [35.29819, 22.87035], [35.27892, 22.96105], [35.31381, 23.0136], [35.33826, 23.04102], [35.56056, 23.27255], [35.57468, 23.21256], [35.62097, 23.13948], [35.65463, 23.07375], [35.66782, 22.98261], [35.67506, 22.96662], [35.6953, 22.93213], [35.73707, 22.88398], [35.76368, 22.87043], [35.72342, 22.93186], [35.74293, 22.93129], [35.7557, 22.9223], [35.77105, 22.89059], [35.78492, 22.8332], [35.80127, 22.82257], [35.84755, 22.76299], [35.88596, 22.7357], [35.94019, 22.71661], [35.96949, 22.69798], [36.1203, 22.67574], [36.19776, 22.65168], [36.22608, 22.63543], [36.27466, 22.59235], [36.2904, 22.56839], [36.29637, 22.522], [36.31342, 22.49161], [36.37452, 22.44526], [36.40476, 22.43288], [36.40157, 22.44856], [36.40685, 22.44857], [36.42809, 22.42604], [36.42282, 22.3976], [36.43982, 22.35644], [36.50791, 22.32794], [36.56262, 22.29681], [36.6233, 22.24957], [36.71372, 22.16914], [36.73276, 22.15961], [36.74757, 22.16096], [36.75685, 22.17689], [36.78208, 22.16455], [36.79565, 22.15078], [36.81821, 22.10883], [36.87194, 22.07411], [36.89537, 22.06612], [36.89844, 22.01749], [36.8838, 21.99665], [36.88051, 21.98049], [36.8737, 21.97408], [36.8401, 21.96613], [36.86393, 21.94936], [36.87353, 21.9361], [36.8742, 21.81525], [36.89681, 21.67788], [36.88787, 21.65013], [36.90202, 21.64105], [36.90594, 21.61709], [36.93053, 21.5857], [36.98406, 21.46581], [37.11362, 21.27806], [37.1992, 21.20188], [37.3053, 21.0746], [37.31299, 21.05768], [37.30396, 21.02091], [37.29135, 21.01265], [37.27215, 21.02017], [37.25179, 21.00619], [37.2339, 21.02026], [37.19234, 21.08591], [37.18931, 21.09723], [37.1963, 21.10211], [37.20931, 21.09861], [37.22706, 21.07168], [37.25001, 21.055], [37.26352, 21.04975], [37.27215, 21.05427], [37.27003, 21.06257], [37.24538, 21.08906], [37.22975, 21.12783], [37.21892, 21.14175], [37.20314, 21.13688], [37.17514, 21.15672], [37.167, 21.1462], [37.1592, 21.14803], [37.14862, 21.17097], [37.15952, 21.20645], [37.14861, 21.21874], [37.12143, 21.22427], [37.10499, 21.20751], [37.0984, 21.18089], [37.10076, 21.15672], [37.1058, 21.15111], [37.11817, 21.15033], [37.1206, 21.1437], [37.11378, 21.12324], [37.11784, 21.08613], [37.11377, 21.07478], [37.10394, 21.06549], [37.08668, 21.05712], [37.08644, 21.04059], [37.12061, 20.99969], [37.1473, 20.94086], [37.16002, 20.87796], [37.16912, 20.74641], [37.1836, 20.68439], [37.22805, 20.56478], [37.23047, 20.49999], [37.22241, 20.46825], [37.21273, 20.4587], [37.1823, 20.46284], [37.17888, 20.44994], [37.18261, 20.42023], [37.17514, 20.34919], [37.18263, 20.29393], [37.20623, 20.23537], [37.21422, 20.20024], [37.22488, 20.11953], [37.2063, 20.06387], [37.18946, 20.04011], [37.18881, 20.01317], [37.19614, 19.97915], [37.25944, 19.8207], [37.2653, 19.78685], [37.26334, 19.70377], [37.24138, 19.67048], [37.23829, 19.65526], [37.24383, 19.57616], [37.24928, 19.55829], [37.26539, 19.53216], [37.28585, 19.47512], [37.32541, 19.26307], [37.33351, 19.15965], [37.33717, 19.14769], [37.36084, 19.12832], [37.35523, 19.10163], [37.37955, 19.0693], [37.42585, 18.91379], [37.43434, 18.86172], [37.49229, 18.76751], [37.52523, 18.7385], [37.53981, 18.71589], [37.55104, 18.70995], [37.57439, 18.7199], [37.64151, 18.72674], [37.67472, 18.74094], [37.67937, 18.7225], [37.70167, 18.71117], [37.74073, 18.70916], [37.74947, 18.68139], [37.76556, 18.66729], [37.75807, 18.62865], [37.78516, 18.64015], [37.81276, 18.61563], [37.92567, 18.58489], [37.96693, 18.54696], [37.99488, 18.50202], [38.0382, 18.46109], [38.06572, 18.44371], [38.10924, 18.42742], [38.12184, 18.4133], [38.10927, 18.39593], [38.08296, 18.38288], [38.07612, 18.34812], [38.10362, 18.29166], [38.15167, 18.24933], [38.20542, 18.23739], [38.24543, 18.24391], [38.25117, 18.28082], [38.27125, 18.28661], [38.30616, 18.30653], [38.31233, 18.29597], [38.27947, 18.27302], [38.27605, 18.24186], [38.2645, 18.23078], [38.22486, 18.22655], [38.2173, 18.21772], [38.26515, 18.22394], [38.27833, 18.22166], [38.30616, 18.20409], [38.37623, 18.19062], [38.38657, 18.19526], [38.38803, 18.20319], [38.37568, 18.21036], [38.39145, 18.22418], [38.41113, 18.20489], [38.44319, 18.15571], [38.43385, 18.14228], [38.45045, 18.13239], [38.4756, 18.13056], [38.49171, 18.14141], [38.50228, 18.12604], [38.50571, 18.08637], [38.51222, 18.07372], [38.53199, 18.07071], [38.54168, 18.08588], [38.54005, 18.10871], [38.52592, 18.12833], [38.54281, 18.11839], [38.58433, 18.07729], [38.59106, 18.06175], [38.59343, 18.0362], [38.60384, 18.01386], [38.60369, 17.99437], [38.61304, 17.98346], [38.62037, 17.95258], [38.66292, 17.89496], [38.66977, 17.85399], [38.68798, 17.82914], [38.69581, 17.80663], [38.78972, 17.66889], [38.85963, 17.51325], [38.92904, 17.39712], [38.9533, 17.31224], [38.96468, 17.2923], [38.95265, 17.25348], [38.9712, 17.22333], [38.99854, 17.19595], [39.01334, 17.15869], [38.96748, 17.1223], [38.93575, 17.10339], [38.90265, 17.08775], [38.83295, 17.0662], [38.75935, 17.05795], [38.68644, 17.06352], [38.62323, 17.08024], [38.61098, 17.10266], [38.58623, 17.17233], [38.57668, 17.26043], [38.2502, 17.54182], [38.23336, 17.5257], [38.20969, 17.52229], [38.1606, 17.55733], [38.11946, 17.5456], [38.11491, 17.53666], [38.11843, 17.51294], [38.10799, 17.49382], [38.09145, 17.48002], [38.07647, 17.47986], [38.07078, 17.50147], [38.0712, 17.5381], [38.06179, 17.54808], [38.03885, 17.54818], [38.01539, 17.53996], [37.94686, 17.49573], [37.91555, 17.45702], [37.89591, 17.44255], [37.87203, 17.43728], [37.84919, 17.444], [37.81922, 17.4717], [37.79886, 17.47713], [37.76393, 17.45909], [37.72042, 17.38385], [37.67959, 17.36344], [37.63918, 17.35801], [37.50679, 17.31848], [37.49604, 17.31217], [37.49356, 17.30075], [37.50472, 17.25497], [37.50565, 17.23678], [37.501, 17.19508], [37.49469, 17.17461], [37.47278, 17.13699], [37.46803, 17.11467], [37.45976, 17.09472], [37.40343, 17.02992], [37.65707, 16.69237], [37.65439, 16.4815], [37.4593, 16.13038], [37.14767, 15.59582], [37.20834, 14.86698], [37.28003, 14.45545], [37.25822, 14.44811], [37.18422, 14.44956], [37.1497, 14.44194], [37.12107, 14.42083], [37.10588, 14.39923], [37.09782, 14.37951], [37.091, 14.31422], [37.08345, 14.29773], [37.0727, 14.2853], [37.0602, 14.27683], [37.02609, 14.27683], [37.01152, 14.26507], [36.9954, 14.26409], [36.87469, 13.87273], [36.45735, 13.83469], [36.45817, 13.82014], [36.39843, 13.67604], [36.3913, 13.59935], [36.3821, 13.57103], [36.23358, 13.36164], [36.13695, 13.03244], [36.13839, 13.01332], [36.14955, 12.98882], [36.14986, 12.98024], [36.11442, 12.93389], [36.11535, 12.91172], [36.1387, 12.87185], [36.14304, 12.85694], [36.14325, 12.83255], [36.12361, 12.72145], [36.11504, 12.70181], [36.09943, 12.69566], [36.07214, 12.70305], [36.05065, 12.71545], [36.02998, 12.71716], [35.72839, 12.67437], [35.68767, 12.65923], [35.68405, 12.65608], [35.67237, 12.6043], [35.66245, 12.59365], [35.62587, 12.58512], [35.61688, 12.57515], [35.42877, 12.26695], [35.41813, 12.239], [35.41255, 12.19864], [35.40335, 12.1851], [35.3711, 12.16551], [35.35374, 12.14603], [35.33596, 12.10231], [35.32604, 12.04748], [35.31736, 12.02371], [35.29782, 12.00159], [35.26041, 11.98041], [35.25142, 11.97173], [35.24573, 11.92987], [35.21556, 11.89659], [35.12667, 11.86295], [35.08802, 11.83819], [35.07272, 11.81887], [35.04823, 11.77138], [35.0412, 11.7476], [35.04058, 11.7274], [35.04812, 11.68952], [35.04626, 11.64864], [35.07438, 11.58736], [35.07686, 11.56865], [35.07314, 11.54896], [34.94715, 11.27487], [34.94425, 11.25324], [34.95397, 11.22611], [34.97144, 11.20689], [34.98415, 11.1864], [34.98032, 11.15526], [34.91428, 10.96396], [34.91356, 10.95298], [34.92317, 10.93993], [34.95283, 10.91843], [34.95831, 10.90342], [34.95066, 10.86918], [34.93382, 10.84531], [34.86157, 10.78759], [34.85134, 10.74575], [34.83852, 10.72914], [34.79853, 10.72966], [34.78623, 10.71898], [34.7729, 10.68826], [34.76483, 10.68025], [34.7544, 10.68413], [34.75295, 10.69873], [34.75698, 10.7288], [34.75067, 10.74395], [34.70809, 10.77407], [34.58707, 10.87929], [34.57477, 10.88414], [34.55782, 10.87779], [34.43731, 10.79567], [34.42005, 10.78082], [34.40424, 10.75984], [34.36558, 10.68578], [34.27949, 10.56551], [34.27174, 10.53008], [34.27618, 10.48871], [34.32486, 10.26865], [34.32589, 10.22356], [34.31742, 10.18127], [34.30181, 10.16028], [34.30347, 10.11354], [34.28083, 10.08011], [34.22192, 10.02603], [34.09821, 9.67972], [34.06689, 9.53118], [34.09043, 9.0574], [33.67362, 9.03631], [33.31992, 8.99466], [33.3154, 8.98858], [33.29037, 8.86779], [33.25273, 8.45817], [33.36135, 8.43429], [33.37086, 8.43739], [33.3921, 8.45186], [33.41313, 8.44972], [33.48052, 8.45765], [33.48992, 8.46292], [33.48476, 8.47401], [33.50512, 8.47488], [33.53705, 8.45321], [33.55214, 8.44682], [33.57116, 8.45013], [33.6001, 8.46396], [33.62041, 8.4607], [33.65167, 8.4345], [33.67131, 8.40029], [33.69555, 8.37287], [33.74102, 8.36709], [33.75621, 8.37014], [33.93813, 8.00252], [33.95093, 7.99034], [33.71606, 7.65716], [33.76107, 7.59814], [33.81151, 7.56099], [33.85254, 7.55354], [33.88241, 7.53608], [34.00653, 7.40994], [34.02369, 7.38245], [34.03061, 7.3487], [34.03113, 7.25537], [34.03361, 7.25026], [34.08591, 7.2115], [34.11319, 7.17755], [34.13242, 7.16339], [34.15112, 7.16747], [34.16776, 7.17538], [34.18141, 7.16721], [34.19091, 7.14954], [34.19577, 7.12902], [34.19825, 7.06438], [34.206, 7.05451], [34.21996, 7.04613], [34.22988, 7.03337], [34.27081, 7.0034], [34.27566, 6.9974], [34.28073, 6.98009], [34.29757, 6.96857], [34.43917, 6.93488], [34.50366, 6.89002], [34.51906, 6.86165], [34.5233, 6.84418], [34.52475, 6.82457], [34.5111, 6.81431], [34.51792, 6.79382], [34.52475, 6.75287], [34.53632, 6.74308], [34.55399, 6.73925], [34.61849, 6.73654], [34.63554, 6.72982], [34.70354, 6.68492], [34.7145, 6.65567], [34.73352, 6.63761], [34.75388, 6.55642], [34.7761, 6.49945], [34.78426, 6.44183], [34.79274, 6.42168], [34.83263, 6.35354], [34.83904, 6.3276], [34.83976, 6.26869], [34.84473, 6.24869], [34.87997, 6.18763], [34.89888, 6.13867], [34.95149, 6.08118], [34.95945, 6.06172], [34.96978, 5.99669], [34.95924, 5.9755], [34.95531, 5.95256], [34.96038, 5.94171], [34.97681, 5.92403], [34.97991, 5.91284], [34.97268, 5.87626], [34.97443, 5.86311], [34.98436, 5.84101], [35.06528, 5.72645], [35.07954, 5.69978], [35.08822, 5.64175], [35.09866, 5.62247], [35.14331, 5.58966], [35.22341, 5.543], [35.26196, 5.51189], [35.27364, 5.47987], [35.25183, 5.44737], [35.25069, 5.43515], [35.28749, 5.37409], [35.30237, 5.35737], [35.32077, 5.34872], [35.34495, 5.35236], [35.36748, 5.36805], [35.40821, 5.41257], [35.43022, 5.42722], [35.46929, 5.43076], [35.50804, 5.42342], [35.53078, 5.41008], [35.57388, 5.37533], [35.59817, 5.36874], [35.65832, 5.38642], [35.68364, 5.3796], [35.74937, 5.33916], [35.80415, 5.31802], [35.80911, 5.30911], [35.78203, 5.26986], [35.77532, 5.24658], [35.77842, 5.22715], [35.79826, 5.18927], [35.80715, 5.16527], [35.80735, 5.14467], [35.79919, 5.12462], [35.76095, 5.07633], [35.75588, 5.06344], [35.75165, 4.85436], [35.75975, 4.8073], [35.5416, 4.82991], [35.57084, 4.90431], [35.49564, 4.92643], [35.39612, 4.92643], [35.43372, 5.00384], [35.4116, 5.03038], [35.26342, 4.94855], [35.24573, 4.98172], [35.22526, 5.17775], [35.19589, 5.24225], [35.18547, 5.24728], [35.08571, 5.2109], [35.16462, 4.95122], [34.66628, 4.76498], [34.38119, 4.62016], [33.53261, 3.77429], [33.49065, 3.74975], [33.44734, 3.74437], [33.19542, 3.75706], [33.16447, 3.76305], [33.14349, 3.77409], [33.01724, 3.87718], [32.99724, 3.88553], [32.97957, 3.8792], [32.96891, 3.87128], [32.71534, 4.19105], [32.10259, 4.0931], [31.8307, 3.78388], [31.80703, 3.80372], [31.77788, 3.81644], [31.55833, 4.1626], [31.54433, 4.17302], [31.48325, 4.14298], [31.29502, 3.77419], [31.25575, 3.78667], [31.21482, 3.79235], [31.16758, 3.79241], [31.14149, 3.78512], [30.96838, 4.16183], [30.90174, 4.18633], [30.52525, 3.86754], [30.51553, 3.87085], [30.48587, 3.86558], [30.45683, 3.86759], [30.41895, 3.87971], [30.33792, 3.92788], [30.27095, 3.94945], [30.20589, 3.95038], [30.18935, 3.95609], [30.18212, 3.96552], [30.17808, 3.9971], [30.14749, 4.03665], [30.13302, 4.0828], [30.12269, 4.10246], [30.0998, 4.1151], [30.05778, 4.12365], [30.0429, 4.13311], [30.02791, 4.15445], [30.00476, 4.19928], [29.98936, 4.21778], [29.966, 4.23181], [29.93216, 4.23615], [29.92415, 4.24558], [29.92322, 4.25775], [29.94012, 4.28834], [29.93035, 4.30865], [29.90849, 4.32919], [29.8827, 4.34402], [29.86069, 4.34728], [29.81485, 4.34676], [29.78783, 4.3688], [29.7762, 4.40562], [29.77677, 4.44934], [29.787, 4.48968], [29.7777, 4.52386], [29.7933, 4.54538], [29.79671, 4.55603], [29.74514, 4.58391], [29.72292, 4.5782], [29.71532, 4.57967], [29.7008, 4.5883], [29.66029, 4.62212], [29.61853, 4.64158], [29.57668, 4.64445], [29.53502, 4.6607], [29.51327, 4.65215], [29.4941, 4.6683], [29.4726, 4.6722], [29.45761, 4.66953], [29.29422, 5.04754], [29.16344, 5.04498], [29.08936, 5.01859], [29.02782, 4.96907], [28.97373, 4.90341], [28.76918, 4.54977], [28.75543, 4.55399], [28.72453, 4.53399], [28.69518, 4.53259], [28.65373, 4.4527], [28.63864, 4.43208], [28.62366, 4.42237], [28.58242, 4.41263], [28.57054, 4.40511], [28.56428, 4.3826], [28.55731, 4.37353], [28.54821, 4.37082], [28.51927, 4.37441], [28.49684, 4.36901], [28.48243, 4.35899], [28.44393, 4.3085], [28.42543, 4.29082], [28.40414, 4.27783], [28.3815, 4.2753], [28.35742, 4.28287], [28.3491, 4.29235], [28.33685, 4.32749], [28.30316, 4.35224], [28.26104, 4.35038], [28.21696, 4.34204], [28.17759, 4.34723], [28.15872, 4.36079], [28.14022, 4.37932], [28.11237, 4.41464], [28.10834, 4.43399], [28.10173, 4.44213], [28.08555, 4.44332], [28.0763, 4.43769], [28.05976, 4.42007], [28.04974, 4.41914], [28.01904, 4.46275], [28.01124, 4.48014], [28.00892, 4.49908], [28.01708, 4.53905], [28.01403, 4.55003], [27.96251, 4.55745], [27.94453, 4.55729], [27.92923, 4.56998], [27.9161, 4.56215], [27.91404, 4.54931], [27.90794, 4.54869], [27.88551, 4.55667], [27.84913, 4.55321], [27.83766, 4.55998], [27.80924, 4.58799], [27.77244, 4.59582], [27.76521, 4.61207], [27.76076, 4.636], [27.7588, 4.67716], [27.76686, 4.73545], [27.76314, 4.7571], [27.7526, 4.77767], [27.74423, 4.78785], [27.73482, 4.7932], [27.69906, 4.78744], [27.68594, 4.7979], [27.67974, 4.81449], [27.67188, 4.85591], [27.65876, 4.87965], [27.64098, 4.89094], [27.55272, 4.90053], [27.53256, 4.90758], [27.51458, 4.92244], [27.5092, 4.93244], [27.50135, 4.96329], [27.49282, 4.97303], [27.43634, 5.01316], [27.44211, 5.06479], [27.46531, 5.07951], [27.43602, 5.07745], [27.40213, 5.1045], [27.3858, 5.14385], [27.35852, 5.16677], [27.30131, 5.20519], [27.2809, 5.23056], [27.26446, 5.26014], [27.2378, 5.32319], [27.22824, 5.3876], [27.21806, 5.42551], [27.22013, 5.44088], [27.26074, 5.55026], [27.26105, 5.57759], [27.25713, 5.58607], [27.24752, 5.59261], [27.22261, 5.58436], [27.21734, 5.5854], [27.21067, 5.60162], [27.21837, 5.64531], [27.19641, 5.66146], [27.19077, 5.69182], [27.18235, 5.70746], [27.17041, 5.72035], [27.13631, 5.73402], [27.13145, 5.74146], [27.13093, 5.75213], [27.1238, 5.76875], [27.11481, 5.77528], [27.07274, 5.79122], [27.03606, 5.78513], [27.02954, 5.78988], [27.022, 5.8051], [27.0035, 5.81928], [26.99182, 5.84771], [26.98107, 5.8592], [26.93746, 5.84851], [26.91648, 5.84964], [26.90376, 5.86698], [26.89426, 5.88967], [26.88206, 5.89194], [26.86532, 5.88597], [26.84216, 5.88427], [26.81891, 5.89463], [26.81085, 5.91238], [26.80506, 5.95718], [26.79436, 5.97049], [26.77633, 5.98188], [26.70502, 6.00979], [26.63432, 6.00648], [26.60218, 6.01062], [26.54358, 6.03085], [26.52797, 6.04317], [26.49883, 6.09984], [26.48105, 6.10495], [26.44064, 6.077], [26.42483, 6.07245], [26.42131, 6.09366], [26.42927, 6.11309], [26.4456, 6.13022], [26.50007, 6.16797], [26.50947, 6.18639], [26.50896, 6.20546], [26.49583, 6.22115], [26.4795, 6.22507], [26.46493, 6.2244], [26.45562, 6.23047], [26.45201, 6.28029], [26.4362, 6.29171], [26.39465, 6.30055], [26.37584, 6.31259], [26.35176, 6.34437], [26.33522, 6.36059], [26.3007, 6.37783], [26.28964, 6.38721], [26.28282, 6.40785], [26.29067, 6.44467], [26.28912, 6.45943], [26.27021, 6.46565], [26.27703, 6.47736], [26.30504, 6.49692], [26.32437, 6.5372], [26.3561, 6.5795], [26.37987, 6.61978], [26.37801, 6.65329], [26.32974, 6.68057], [26.27062, 6.70249], [26.23621, 6.72003], [26.21946, 6.73752], [26.17874, 6.76592], [26.14763, 6.8047], [26.11373, 6.81646], [26.0912, 6.83033], [26.08097, 6.84235], [26.07735, 6.85333], [26.07157, 6.87746], [26.07363, 6.89514], [26.06919, 6.89906], [26.05058, 6.89669], [26.04542, 6.89968], [26.03581, 6.92227], [26.03229, 6.9741], [26.02609, 6.99668], [25.96945, 7.00355], [25.96625, 7.01745], [25.96046, 7.02448], [25.92026, 7.03414], [25.88874, 7.05187], [25.87747, 7.08773], [25.86073, 7.09554], [25.81577, 7.09977], [25.80078, 7.10494], [25.79169, 7.12112], [25.79158, 7.1344], [25.78621, 7.14267], [25.75024, 7.14654], [25.73443, 7.16241], [25.72451, 7.1667], [25.69702, 7.16861], [25.67273, 7.18783], [25.65402, 7.19538], [25.59242, 7.21124], [25.57661, 7.21982], [25.53165, 7.26069], [25.51677, 7.26994], [25.50034, 7.27279], [25.48116, 7.26617], [25.45512, 7.27821], [25.41615, 7.30777], [25.36003, 7.33557], [25.3468, 7.34503], [25.33595, 7.3596], [25.32417, 7.40291], [25.31621, 7.41722], [25.2851, 7.43159], [25.2696, 7.45422], [25.24996, 7.46998], [25.19043, 7.5012], [25.16904, 7.55117], [25.16459, 7.56734], [25.16521, 7.5799], [25.1865, 7.60011], [25.25255, 7.62243], [25.27497, 7.64196], [25.27942, 7.65948], [25.26681, 7.7031], [25.26991, 7.76077], [25.26454, 7.77772], [25.24965, 7.80433], [25.23942, 7.83596], [25.2297, 7.85162], [25.21689, 7.86407], [25.19157, 7.87239], [25.17317, 7.88856], [25.13441, 7.89254], [25.08956, 7.8849], [25.05917, 7.89611], [25.0293, 7.91885], [24.98124, 7.97233], [24.96481, 7.98261], [24.95262, 7.99657], [24.95055, 8.0144], [24.93008, 8.03545], [24.92781, 8.07096], [24.91799, 8.08703], [24.83211, 8.16573], [24.80017, 8.18028], [24.74229, 8.18684], [24.71056, 8.20431], [24.67088, 8.20684], [24.61486, 8.21715], [24.62561, 8.55384], [24.55464, 8.56657], [24.25054, 8.57963], [24.24558, 8.5918], [24.2184, 8.61304], [24.21127, 8.62707], [24.09322, 8.64884], [24.11223, 8.72674], [24.00962, 8.69888], [23.98131, 8.69417], [23.96208, 8.69702], [23.92229, 8.71345], [23.86669, 8.70779], [23.80344, 8.72213], [23.76892, 8.72125], [23.72127, 8.702], [23.68913, 8.71068], [23.65709, 8.71001], [23.61337, 8.73223], [23.59642, 8.73414], [23.57802, 8.73048], [23.54051, 8.70479], [23.52573, 8.70148], [23.50526, 8.71074], [23.49007, 8.7326], [23.4818, 8.75936], [23.48232, 8.78339], [23.49544, 8.80944], [23.53668, 8.85561], [23.55363, 8.88315], [23.56593, 8.94002], [23.56748, 8.97483], [23.56014, 8.99646], [23.54257, 8.99728], [23.50547, 8.96108], [23.47808, 8.95891], [23.45142, 8.97418], [23.43829, 8.99454], [23.43571, 9.01893], [23.45772, 9.14616], [23.47426, 9.17068], [23.48945, 9.1767], [23.5218, 9.17536], [23.53792, 9.17815], [23.5495, 9.18525], [23.63218, 9.27757], [23.63073, 9.29217], [23.6205, 9.32287], [23.62184, 9.34062], [23.64686, 9.41839], [23.64634, 9.42503], [23.64086, 9.43312], [23.62753, 9.43508], [23.61998, 9.44772], [23.61719, 9.45718], [23.61854, 9.48831], [23.60676, 9.52624], [23.60614, 9.53717], [23.61854, 9.56608], [23.65554, 9.62246], [23.66908, 9.65202], [23.67404, 9.69034], [23.64479, 9.86307], [23.62402, 9.90777], [23.29122, 10.43973], [23.10942, 10.6145], [23.00555, 10.68682], [22.92132, 10.8082], [22.88645, 11.01035], [22.90023, 11.0599], [22.92235, 11.08708], [22.92897, 11.13793], [22.95202, 11.19105], [22.95646, 11.2088], [22.95367, 11.25094], [22.92835, 11.32515], [22.91481, 11.3961], [22.90044, 11.40825], [22.87698, 11.40884], [22.78179, 11.39889], [22.77187, 11.40318], [22.77156, 11.43331], [22.76877, 11.44233], [22.74303, 11.4661], [22.66252, 11.49307], [22.62811, 11.50984], [22.59235, 11.54366], [22.56175, 11.58601], [22.5417, 11.63299], [22.53705, 11.68089], [22.59286, 11.98893], [22.61054, 12.03963], [22.6124, 12.0728], [22.60733, 12.07771], [22.59886, 12.06324], [22.58552, 12.07136], [22.54646, 12.06443], [22.48145, 12.04428], [22.45809, 12.03043], [22.48383, 12.14035], [22.48403, 12.16474], [22.40797, 12.39976], [22.37489, 12.45087], [22.37282, 12.46312], [22.39587, 12.49609], [22.44569, 12.61107], [22.43246, 12.62383], [22.33014, 12.66145], [22.20488, 12.74336], [22.17625, 12.7015], [22.1441, 12.67127], [22.10587, 12.65039], [22.05874, 12.6367], [22.01967, 12.63143], [21.97719, 12.63184], [21.93595, 12.63954], [21.90081, 12.65644], [21.88014, 12.67628], [21.84087, 12.74894], [21.81369, 12.7823], [21.80945, 12.79367], [21.82785, 12.8311], [21.85296, 12.90573], [21.93513, 13.05915], [21.96406, 13.09835], [21.99838, 13.1306], [22.01605, 13.14023], [22.12344, 13.18217], [22.13997, 13.19351], [22.23226, 13.28904], [22.26761, 13.33456], [22.27598, 13.37632], [22.264, 13.39918], [22.22865, 13.44112], [22.21562, 13.46499], [22.21118, 13.48419], [22.21056, 13.54173], [22.19588, 13.58046], [22.13212, 13.63865], [22.11434, 13.67738], [22.1163, 13.71519], [22.11289, 13.72984], [22.09708, 13.74976], [22.07372, 13.77136], [22.07496, 13.78032], [22.09935, 13.81942], [22.19061, 13.93279], [22.2147, 13.95662], [22.24353, 13.97543], [22.40228, 14.0493], [22.42161, 14.06214], [22.45871, 14.09612], [22.48145, 14.10855], [22.50822, 14.11364], [22.53147, 14.12263], [22.54636, 14.13971], [22.5477, 14.16903], [22.54088, 14.20118], [22.53189, 14.22063], [22.51411, 14.23146], [22.45768, 14.24115], [22.44104, 14.24986], [22.42905, 14.26461], [22.41995, 14.28624], [22.41809, 14.30595], [22.42698, 14.323], [22.44486, 14.33336], [22.44993, 14.33838], [22.45096, 14.34579], [22.43907, 14.36292], [22.42492, 14.47044], [22.41716, 14.4841], [22.38636, 14.50653], [22.36352, 14.54353], [22.38233, 14.57911], [22.42275, 14.60908], [22.46543, 14.62929], [22.66635, 14.68174], [22.67658, 14.68897], [22.68144, 14.70293], [22.67968, 14.71182], [22.65901, 14.76127], [22.65084, 14.81615], [22.65084, 14.84194], [22.65891, 14.85742], [22.69549, 14.88147], [22.71534, 14.89943], [22.72102, 14.91594], [22.72722, 14.95904], [22.7389, 14.97981], [22.82903, 15.07164], [22.84876, 15.0875], [22.90551, 15.11257], [22.91326, 15.12169], [22.95801, 15.20163], [22.96566, 15.2239], [22.97837, 15.3402], [22.97641, 15.37364], [22.96648, 15.40482], [22.92359, 15.45557], [22.90685, 15.48141], [22.89951, 15.51019], [22.90675, 15.5414], [22.92566, 15.56394], [23.00452, 15.61143], [23.06849, 15.68669], [23.09464, 15.70426], [23.16678, 15.71294], [23.32057, 15.68132], [23.39581, 15.68835], [23.52707, 15.73517], [23.5927, 15.74901], [23.70752, 15.74886], [23.82907, 15.73103], [23.94555, 15.69222], [23.97262, 15.69109], [23.98441, 15.72116], [23.98131, 19.98471], [23.51965, 19.72417], [19.95632, 21.4837], [20.17401, 21.83885], [21.42437, 21.87872], [22.29487, 21.9136], [22.82628, 21.94104]], [[24.14774, 8.73637], [24.183, 8.71792], [24.24057, 8.76153], [24.14774, 8.73637]]], [[[37.26449, 20.75], [37.25441, 20.74983], [37.24416, 20.77265], [37.24348, 20.80425], [37.25083, 20.83466], [37.26531, 20.85503], [37.27913, 20.84564], [37.28353, 20.83275], [37.27187, 20.76637], [37.26449, 20.75]]], [[[37.3592, 20.73126], [37.35085, 20.72999], [37.33518, 20.74511], [37.32041, 20.7712], [37.27797, 20.87654], [37.23018, 20.97833], [37.34345, 20.89579], [37.37265, 20.86535], [37.37783, 20.83226], [37.37541, 20.78395], [37.36616, 20.74251], [37.3592, 20.73126]]], [[[36.65992, 22.24439], [36.65805, 22.25491], [36.63103, 22.25214], [36.63747, 22.27692], [36.64893, 22.28143], [36.65168, 22.27784], [36.6443, 22.27322], [36.66146, 22.2615], [36.65992, 22.24439]]], [[[36.19434, 22.68532], [36.20678, 22.65986], [36.20086, 22.65168], [36.18531, 22.67292], [36.17004, 22.68377], [36.19434, 22.68532]]], [[[36.05568, 22.74327], [36.0433, 22.73188], [36.04704, 22.72611], [36.04209, 22.72087], [36.03835, 22.73717], [36.05593, 22.76072], [36.06624, 22.76689], [36.0617, 22.7554], [36.06665, 22.72815], [36.0616, 22.72999], [36.05568, 22.74327]]], [[[36.20656, 22.7843], [36.19683, 22.79091], [36.21795, 22.7934], [36.214, 22.81356], [36.2238, 22.80259], [36.22185, 22.79267], [36.25014, 22.78949], [36.20656, 22.7843]]], [[[35.69907, 23.22386], [35.69793, 23.22045], [35.71834, 23.19863], [35.71923, 23.19183], [35.68809, 23.20963], [35.67384, 23.2248], [35.6635, 23.22606], [35.66082, 23.22099], [35.63648, 23.22789], [35.62517, 23.22634], [35.60882, 23.21145], [35.60076, 23.21621], [35.61929, 23.20207], [35.58969, 23.21105], [35.59042, 23.21629], [35.5822, 23.22663], [35.64031, 23.23224], [35.6482, 23.23667], [35.67685, 23.23037], [35.69615, 23.23674], [35.70409, 23.22098], [35.69907, 23.22386]]]]}}]}