{"type": "FeatureCollection", "features": [{"type": "Feature", "properties": {"name": "독일령 동아프리카", "name_en": "German East Africa", "period": "1913년경", "kind": "식민지", "legend": "독일령 동아프리카", "map_title": "제국주의 열강의 아프리카 분할(1913년경)", "source": "미래엔 세계사 교과서 3권 156쪽", "volume": 3, "page": 156, "note": "독일령", "coast_snap": "Natural Earth 10m 해안선에 맞춤", "border_snap": "현대 국경(Natural Earth 10m)에 맞춘 구간 약 3546 km"}, "geometry": {"type": "MultiPolygon", "coordinates": [[[[39.61251, -9.0592], [39.61843, -9.07676], [39.60762, -9.09452], [39.58962, -9.08267], [39.56198, -9.05066], [39.56079, -9.03409], [39.61251, -9.0592]]], [[[39.50141, -8.50956], [39.52523, -8.52841], [39.52758, -8.54258], [39.50853, -8.53905], [39.49424, -8.52607], [39.48951, -8.50721], [39.50141, -8.50956]]], [[[39.71943, -8.09256], [39.70272, -8.09119], [39.69686, -8.07491], [39.70281, -8.04901], [39.7147, -8.02781], [39.74205, -7.99483], [39.79673, -7.99246], [39.80135, -8.00676], [39.74931, -8.06533], [39.71943, -8.09256]]], [[[39.69827, -7.83619], [39.70404, -7.81931], [39.71535, -7.81163], [39.76596, -7.80633], [39.8143, -7.78851], [39.80877, -7.78045], [39.77346, -7.78166], [39.77346, -7.77549], [39.79607, -7.76702], [39.8449, -7.73773], [39.85194, -7.71186], [39.86968, -7.68434], [39.88356, -7.67343], [39.89569, -7.63766], [39.91043, -7.66542], [39.90931, -7.6869], [39.89345, -7.75389], [39.86502, -7.81879], [39.85157, -7.83709], [39.84171, -7.87766], [39.82325, -7.91398], [39.7837, -7.90586], [39.75465, -7.9153], [39.72632, -7.97339], [39.66651, -7.99341], [39.64992, -7.9939], [39.62974, -7.98576], [39.58719, -7.94549], [39.62192, -7.93922], [39.63169, -7.91498], [39.64991, -7.91188], [39.69304, -7.87029], [39.70753, -7.84743], [39.69827, -7.83619]]], [[[39.51034, -6.46219], [39.47169, -6.45207], [39.44371, -6.42156], [39.43387, -6.40129], [39.41622, -6.3249], [39.51034, -6.46219]]], [[[31.4365, -1.4174], [31.31033, -1.801], [31.31523, -2.02607], [31.32566, -2.11514], [31.33552, -2.14561], [31.42723, -2.3243], [31.46337, -2.55833], [31.49009, -2.66824], [31.49672, -2.67337], [31.50404, -2.67138], [31.58194, -2.5912], [31.68012, -2.45893], [31.81719, -2.25134], [31.86444, -2.209], [31.93289, -2.15711], [32.00476, -2.11313], [32.03647, -2.09958], [32.06158, -2.0949], [32.1006, -2.10043], [32.15109, -2.11457], [32.26817, -2.16015], [32.38164, -2.21595], [32.42736, -2.24281], [32.46054, -2.26637], [32.47568, -2.28385], [32.52043, -2.37821], [32.5584, -2.50324], [32.56001, -2.53365], [32.54406, -2.72108], [32.54513, -2.76368], [32.55798, -2.82087], [32.56831, -2.82688], [32.63229, -2.80011], [32.72131, -2.74072], [32.8006, -2.67156], [32.83664, -2.62915], [32.83524, -2.62172], [32.80139, -2.57396], [32.69041, -2.44377], [32.67158, -2.41505], [32.66256, -2.39056], [32.66619, -2.32442], [32.68709, -2.23387], [32.71996, -2.15361], [32.73966, -2.12685], [32.7605, -2.11489], [32.80798, -2.11721], [32.86937, -2.13405], [32.94022, -2.16129], [33.16188, -2.26021], [33.22319, -2.28393], [33.27262, -2.2955], [33.29588, -2.28386], [33.40072, -2.20237], [33.60506, -2.02679], [33.69999, -1.93608], [33.70064, -1.92846], [33.67429, -1.86483], [33.64364, -1.81994], [33.61934, -1.79767], [33.56452, -1.79174], [33.49966, -1.79274], [33.18593, -1.81569], [33.12172, -1.81406], [33.07361, -1.80439], [33.07171, -1.79262], [33.0923, -1.77074], [33.25979, -1.64855], [33.30674, -1.60922], [33.30427, -1.59966], [33.18837, -1.51225], [33.17416, -1.49655], [33.16999, -1.48231], [33.17743, -1.459], [33.2032, -1.41817], [33.21259, -1.00258], [33.76595, -1.00258], [33.90051, -0.8701], [33.90004, -0.85329], [34.00002, -1.00257], [34.00199, -1.02872], [34.01542, -1.03751], [34.05253, -1.0404], [37.64487, -3.04596], [37.66016, -3.07056], [37.70006, -3.31437], [37.68186, -3.31571], [37.67194, -3.32429], [37.66843, -3.33824], [37.66988, -3.35612], [37.65096, -3.35757], [37.62719, -3.37028], [37.60487, -3.38796], [37.58523, -3.41297], [37.57789, -3.43581], [37.57944, -3.44635], [37.58668, -3.45369], [37.60311, -3.45576], [37.60817, -3.46361], [37.59618, -3.49968], [37.59908, -3.51343], [37.64693, -3.51064], [37.66833, -3.5125], [37.68941, -3.51808], [37.70832, -3.52717], [37.72228, -3.53999], [37.72982, -3.55539], [37.74718, -3.61699], [37.75721, -3.63745], [37.77096, -3.65544], [38.99245, -4.53479], [39.22398, -4.19267], [39.21597, -4.16584], [39.28418, -4.1842], [39.34747, -4.21554], [39.55658, -4.3816], [39.54005, -4.43041], [39.5311, -4.41741], [39.52247, -4.41815], [39.50603, -4.43808], [39.50537, -4.45598], [39.48487, -4.47894], [39.45069, -4.58193], [39.44436, -4.56341], [39.44744, -4.53428], [39.44386, -4.51995], [39.431, -4.52996], [39.40967, -4.57447], [39.39137, -4.57106], [39.39064, -4.59344], [39.40625, -4.61517], [39.39616, -4.62899], [39.36248, -4.63396], [39.3244, -4.6246], [39.30047, -4.59499], [39.29371, -4.61548], [39.26433, -4.60662], [39.24269, -4.62737], [39.22437, -4.65585], [39.1906, -4.6775], [39.19744, -4.68377], [39.21509, -4.68866], [39.22152, -4.71673], [39.21611, -4.74891], [39.19743, -4.76628], [39.17018, -4.77996], [39.21598, -4.79567], [39.2185, -4.818], [39.21354, -4.85638], [39.17525, -4.92627], [39.16229, -4.93864], [39.15651, -4.924], [39.16961, -4.8659], [39.16334, -4.84832], [39.14568, -4.89984], [39.13038, -4.91813], [39.10865, -4.9166], [39.12861, -4.95316], [39.13216, -5.01018], [39.12915, -5.02019], [39.12232, -5.0245], [39.10678, -5.01963], [39.09816, -5.02337], [39.08448, -5.04778], [39.08277, -5.06146], [39.09718, -5.06064], [39.12915, -5.04756], [39.12989, -5.06259], [39.14274, -5.09588], [39.09409, -5.14495], [39.07405, -5.18656], [39.04363, -5.23219], [39.04037, -5.23935], [39.04819, -5.24668], [39.07455, -5.21886], [39.08057, -5.23113], [39.02647, -5.37833], [39.01246, -5.39706], [38.98129, -5.41741], [38.97828, -5.43108], [38.98259, -5.43955], [38.9974, -5.4494], [38.99877, -5.46503], [38.98546, -5.5047], [38.95668, -5.56339], [38.92177, -5.61611], [38.88893, -5.63714], [38.90259, -5.64333], [38.89601, -5.66399], [38.89518, -5.71054], [38.83253, -5.81561], [38.82162, -5.86053], [38.82129, -5.92498], [38.80104, -5.95973], [38.79492, -5.98853], [38.77801, -6.03069], [38.77906, -6.05486], [38.79956, -6.08221], [38.81324, -6.13063], [38.85677, -6.16368], [38.86247, -6.20762], [38.86006, -6.23138], [38.85303, -6.25318], [38.84116, -6.26776], [38.84879, -6.29266], [38.85222, -6.34873], [38.86476, -6.37363], [38.89828, -6.39471], [38.91505, -6.4367], [38.92888, -6.44939], [38.95386, -6.45502], [38.96469, -6.47324], [39.00506, -6.47698], [39.02605, -6.48699], [39.03688, -6.48317], [39.0359, -6.47519], [38.99144, -6.45211], [39.04105, -6.47032], [39.09601, -6.52221], [39.12916, -6.56194], [39.15569, -6.58092], [39.18727, -6.6242], [39.21273, -6.64179], [39.22334, -6.66591], [39.23097, -6.70371], [39.24586, -6.73105], [39.26393, -6.7444], [39.28003, -6.72717], [39.28442, -6.75612], [39.28028, -6.8305], [39.30047, -6.84938], [39.29982, -6.83115], [39.29372, -6.81521], [39.31202, -6.81635], [39.35499, -6.83913], [39.40056, -6.84589], [39.42791, -6.85809], [39.46453, -6.85769], [39.49431, -6.9013], [39.5027, -6.93084], [39.55371, -7.00075], [39.55257, -7.01043], [39.54005, -7.02809], [39.54859, -7.09189], [39.54753, -7.11825], [39.53256, -7.11688], [39.52247, -7.12957], [39.50903, -7.16838], [39.49789, -7.17717], [39.48846, -7.17692], [39.48143, -7.16823], [39.47787, -7.15106], [39.43588, -7.18027], [39.42677, -7.19232], [39.41439, -7.24089], [39.3899, -7.26482], [39.36744, -7.27142], [39.37565, -7.29559], [39.36979, -7.30689], [39.32781, -7.30926], [39.35425, -7.3493], [39.35433, -7.37078], [39.33053, -7.42405], [39.30397, -7.4485], [39.29233, -7.48626], [39.27475, -7.59645], [39.28004, -7.63763], [39.29623, -7.68841], [39.28688, -7.71754], [39.302, -7.75412], [39.29713, -7.77166], [39.25262, -7.82334], [39.28321, -7.81658], [39.30502, -7.79176], [39.32782, -7.72635], [39.35522, -7.75254], [39.35668, -7.76688], [39.34083, -7.78167], [39.39551, -7.77989], [39.44027, -7.81854], [39.44348, -7.8324], [39.42091, -7.90203], [39.43164, -7.93695], [39.43702, -7.99391], [39.45752, -7.97969], [39.45434, -8.01043], [39.4419, -8.03867], [39.40968, -8.08953], [39.37658, -8.17917], [39.36193, -8.20661], [39.35499, -8.20355], [39.34083, -8.2068], [39.34782, -8.22161], [39.34831, -8.27506], [39.33399, -8.26881], [39.32781, -8.29557], [39.31153, -8.27776], [39.29371, -8.26881], [39.30161, -8.28338], [39.30208, -8.29509], [39.29492, -8.3038], [39.28004, -8.30926], [39.29279, -8.33506], [39.30531, -8.38868], [39.30664, -8.41937], [39.29998, -8.47731], [39.30307, -8.50547], [39.33643, -8.53949], [39.35774, -8.58863], [39.36182, -8.61116], [39.36004, -8.69423], [39.35434, -8.71396], [39.38933, -8.72382], [39.40219, -8.74505], [39.43311, -8.74962], [39.43898, -8.75532], [39.44386, -8.789], [39.45265, -8.80535], [39.48853, -8.82693], [39.50856, -8.87591], [39.51954, -8.89202], [39.54769, -8.91319], [39.55371, -8.92229], [39.53972, -8.92619], [39.52069, -8.92302], [39.4851, -8.89223], [39.46461, -8.86745], [39.44939, -8.85866], [39.4131, -8.86736], [39.38868, -8.89886], [39.40382, -8.90455], [39.46418, -8.89887], [39.4476, -8.92555], [39.45533, -8.93133], [39.49186, -8.93842], [39.48487, -8.9944], [39.49853, -9.00873], [39.49858, -9.02898], [39.49236, -9.0429], [39.50602, -9.05625], [39.49334, -9.07952], [39.50268, -9.10662], [39.49855, -9.1242], [39.52996, -9.11305], [39.55714, -9.09386], [39.56918, -9.09304], [39.62653, -9.16009], [39.6438, -9.18906], [39.6486, -9.2199], [39.63209, -9.25848], [39.6499, -9.28249], [39.64308, -9.32342], [39.64624, -9.35662], [39.64289, -9.36837], [39.61597, -9.39714], [39.58155, -9.39918], [39.5691, -9.40496], [39.56397, -9.41424], [39.56739, -9.44752], [39.57655, -9.44309], [39.60841, -9.44012], [39.6159, -9.42491], [39.65072, -9.44477], [39.64991, -9.4743], [39.68077, -9.50553], [39.68913, -9.525], [39.70094, -9.57952], [39.71144, -9.59466], [39.72493, -9.6041], [39.71209, -9.6251], [39.74089, -9.66676], [39.73748, -9.68711], [39.74658, -9.70647], [39.71827, -9.72064], [39.69695, -9.74489], [39.70509, -9.74863], [39.75228, -9.74864], [39.7697, -9.79306], [39.7938, -9.81229], [39.80068, -9.82404], [39.80729, -9.85223], [39.80005, -9.87265], [39.78126, -9.88241], [39.75229, -9.879], [39.76075, -9.89251], [39.78923, -9.91424], [39.7902, -9.92302], [39.74513, -9.94452], [39.7142, -9.95208], [39.71372, -9.96356], [39.72632, -9.98887], [39.72438, -10.0075], [39.71705, -10.02158], [39.69077, -10.04339], [39.71648, -10.03875], [39.7632, -9.98285], [39.7837, -9.98505], [39.79705, -9.99245], [39.82691, -9.99034], [39.84816, -10.01141], [39.88941, -10.01492], [39.91431, -10.03387], [39.97495, -10.1334], [39.97682, -10.19101], [39.98512, -10.22096], [39.99537, -10.20908], [40.0005, -10.19264], [40.00066, -10.17523], [39.98658, -10.13974], [39.98877, -10.13131], [40.01947, -10.13286], [40.13265, -10.1697], [40.13408, -10.19331], [40.12428, -10.22161], [40.1355, -10.24765], [40.11842, -10.25693], [40.11541, -10.26312], [40.12062, -10.27117], [40.13591, -10.26874], [40.16041, -10.28045], [40.16755, -10.25648], [40.17384, -10.25515], [40.19631, -10.26759], [40.23211, -10.29665], [40.23894, -10.26873], [40.25278, -10.27557], [40.26686, -10.26873], [40.19803, -10.24212], [40.23211, -10.20047], [40.24536, -10.20469], [40.25945, -10.24212], [40.30103, -10.26874], [40.33871, -10.34881], [40.34881, -10.35809], [40.38982, -10.36492], [40.42213, -10.35564], [40.42677, -10.33587], [40.41481, -10.32041], [40.39723, -10.32389], [40.3926, -10.31211], [40.39602, -10.30349], [40.40512, -10.29844], [40.41773, -10.29666], [40.427, -10.30007], [40.44938, -10.34539], [40.44019, -10.36142], [40.4109, -10.39227], [40.43685, -10.39228], [40.42457, -10.43719], [40.4375, -10.4616], [40.43686, -10.47479], [40.45395, -10.46902], [40.4694, -10.4726], [40.47542, -10.48268], [40.46485, -10.49586], [40.48374, -10.5001], [40.51051, -10.47773], [40.52702, -10.48846], [40.53206, -10.50945], [40.49903, -10.55047], [40.5066, -10.56634], [40.56104, -10.58466], [40.56812, -10.59979], [40.57049, -10.63388], [40.57781, -10.64984], [40.59213, -10.65789], [40.63158, -10.66297], [40.64673, -10.67035], [40.65494, -10.68694], [40.64039, -10.69133], [40.60206, -10.68768], [40.56983, -10.69671], [40.48536, -10.76214], [40.4922, -10.79697], [40.50563, -10.78541], [40.51271, -10.76964], [40.53199, -10.78582], [40.60205, -10.8205], [40.62028, -10.84092], [40.60157, -10.85995], [40.54672, -10.88568], [40.52557, -10.90574], [40.49963, -10.91707], [40.35333, -10.5607], [40.28853, -10.58302], [40.2507, -10.61093], [40.19158, -10.6688], [40.16109, -10.70436], [40.13319, -10.71459], [40.00813, -10.81112], [39.88597, -10.86445], [39.78582, -10.93256], [39.7605, -10.9431], [39.59276, -10.97938], [39.51566, -10.98506], [39.4985, -10.99065], [39.48268, -10.99922], [39.28662, -11.15415], [39.26327, -11.16676], [39.23815, -11.1742], [39.21159, -11.17389], [39.19051, -11.16624], [39.14979, -11.14433], [39.12622, -11.13968], [39.09542, -11.15343], [39.0608, -11.16014], [38.93006, -11.16004], [38.89626, -11.16769], [38.85192, -11.20283], [38.83105, -11.208], [38.81782, -11.21626], [38.77802, -11.25368], [38.75973, -11.26319], [38.71508, -11.25647], [38.65421, -11.2758], [38.63819, -11.28923], [38.61566, -11.31724], [38.51716, -11.38308], [38.49226, -11.41346], [38.46239, -11.39631], [38.38311, -11.37667], [38.34766, -11.35879], [38.29247, -11.30164], [38.25661, -11.27714], [38.21041, -11.27001], [38.1669, -11.28375], [38.15501, -11.28055], [38.13538, -11.26639], [38.12566, -11.26319], [38.11543, -11.24954], [38.10933, -11.24965], [38.10117, -11.25647], [38.07078, -11.25585], [38.01363, -11.26546], [38.00422, -11.27528], [37.99533, -11.27755], [37.95461, -11.28003], [37.93808, -11.28396], [37.87524, -11.3191], [37.86842, -11.32778], [37.85043, -11.38762], [37.84103, -11.39982], [37.84248, -11.4178], [37.8185, -11.45987], [37.81323, -11.4823], [37.82511, -11.52023], [37.81695, -11.53356], [37.78367, -11.55888], [37.71091, -11.5904], [37.66636, -11.62554], [37.64776, -11.63598], [37.57293, -11.64415], [37.53676, -11.66296], [37.50379, -11.67267], [37.48477, -11.70884], [37.46968, -11.71949], [37.45066, -11.72259], [37.42782, -11.72259], [37.37832, -11.70885], [37.37015, -11.70481], [37.35238, -11.68631], [37.3408, -11.68094], [37.3314, -11.68156], [37.30607, -11.69458], [37.27021, -11.69841], [37.2266, -11.69376], [37.14164, -11.67474], [37.1065, -11.6581], [37.07157, -11.62916], [37.04438, -11.59567], [37.0324, -11.56487], [36.99839, -11.58461], [36.90589, -11.59278], [36.89111, -11.58999], [36.86631, -11.57418], [36.84657, -11.57273], [36.83706, -11.56797], [36.82011, -11.57356], [36.73805, -11.67474], [36.68968, -11.69458], [36.66725, -11.71339], [36.64058, -11.71629], [36.6257, -11.72135], [36.56297, -11.73127], [36.54571, -11.72941], [36.50871, -11.70978], [36.50271, -11.68631], [36.49486, -11.68094], [36.37807, -11.68094], [36.36122, -11.69241], [36.27875, -11.70885], [36.25291, -11.69665], [36.24092, -11.69458], [36.19968, -11.70151], [36.18821, -11.69365], [36.17922, -11.67556], [36.17622, -11.655], [36.18263, -11.64001], [36.16806, -11.57872], [36.14284, -11.56901], [36.12113, -11.55061], [36.07958, -11.53697], [36.02222, -11.50565], [35.98853, -11.51216], [35.96982, -11.50245], [35.96083, -11.48354], [35.97034, -11.46121], [35.95308, -11.44064], [35.93975, -11.43413], [35.90202, -11.43455], [35.8673, -11.4209], [35.82637, -11.41346], [35.81314, -11.42235], [35.78193, -11.46121], [35.76426, -11.47485], [35.71403, -11.48385], [35.69563, -11.49459], [35.70338, -11.5165], [35.69129, -11.52426], [35.68023, -11.53759], [35.66483, -11.57201], [35.65481, -11.57831], [35.59972, -11.59216], [35.57626, -11.60518], [35.5437, -11.59474], [35.53274, -11.59557], [35.53151, -11.61273], [35.52014, -11.60911], [35.50763, -11.58906], [35.49874, -11.58234], [35.49409, -11.58182], [35.47011, -11.59216], [35.44118, -11.59144], [35.43187, -11.58844], [35.4235, -11.57655], [34.97411, -11.57365], [34.96083, -11.64047], [34.78657, -11.46096], [34.76556, -11.34515], [34.73703, -11.29678], [34.7575, -11.28376], [34.7575, -11.27755], [34.74168, -11.26866], [34.72866, -11.25399], [34.71977, -11.23456], [34.71409, -11.20273], [34.70789, -11.19497], [34.69993, -11.1895], [34.68184, -11.18505], [34.66872, -11.16014], [34.62107, -11.11973], [34.61353, -11.10216], [34.61063, -11.07767], [34.59296, -11.01617], [34.59792, -10.99096], [34.62706, -10.95406], [34.64546, -10.91324], [34.64763, -10.85856], [34.66055, -10.79603], [34.65673, -10.76988], [34.67502, -10.75242], [34.67244, -10.7395], [34.65993, -10.72772], [34.64763, -10.70839], [34.66086, -10.68731], [34.66003, -10.6655], [34.65052, -10.64534], [34.62634, -10.61434], [34.62717, -10.59511], [34.62438, -10.58344], [34.6004, -10.57806], [34.58572, -10.55357], [34.58107, -10.53972], [34.58149, -10.51367], [34.59296, -10.48174], [34.58872, -10.46313], [34.5695, -10.4314], [34.56505, -10.4098], [34.58562, -10.29002], [34.57508, -10.25581], [34.56557, -10.20268], [34.53239, -10.12889], [34.52475, -10.09478], [34.53777, -10.05386], [34.52475, -10.00879], [34.4833, -9.94616], [34.38232, -9.81966], [34.33168, -9.76922], [34.32424, -9.73243], [34.31794, -9.7192], [34.28807, -9.70845], [34.19081, -9.60675], [34.16187, -9.59362], [34.13707, -9.57058], [34.10317, -9.52986], [34.08932, -9.52221], [34.07981, -9.51105], [34.04746, -9.48996], [34.01273, -9.47746], [33.96075, -9.5249], [33.94587, -9.55001], [33.96447, -9.59466], [33.95486, -9.6606], [33.95134, -9.67362], [33.94308, -9.68385], [33.9283, -9.69346], [33.9283, -9.70028], [33.91186, -9.71796], [33.90018, -9.70959], [33.88933, -9.68974], [33.86525, -9.66959], [33.83693, -9.65285], [33.81347, -9.64334], [33.78753, -9.62649], [33.762, -9.60096], [33.73461, -9.58412], [33.70252, -9.5929], [33.67606, -9.60768], [33.65064, -9.61099], [33.59338, -9.59683], [33.55948, -9.59331], [33.51163, -9.61698], [33.48052, -9.62442], [33.34347, -9.83144], [33.33696, -9.82369], [33.28777, -9.80384], [33.2672, -9.78121], [33.25273, -9.75403], [33.24177, -9.74235], [33.21671, -9.72705], [33.20725, -9.71289], [33.20457, -9.69812], [33.21578, -9.6699], [33.21428, -9.65471], [33.19542, -9.61626], [33.17542, -9.60231], [33.12147, -9.59952], [33.09832, -9.58846], [33.08922, -9.64396], [33.08044, -9.66225], [33.05832, -9.65429], [33.04675, -9.62205], [33.03574, -9.61698], [33.02225, -9.62029], [33.00014, -9.6328], [32.98691, -9.62846], [32.97471, -9.60127], [32.99238, -9.52913], [32.99197, -9.50185], [32.9619, -9.48035], [32.95027, -9.48087], [32.9375, -9.48779], [32.83074, -9.37018], [32.78433, -9.33969], [32.75963, -9.34], [32.75229, -9.33741], [32.74651, -9.32997], [32.73969, -9.30734], [32.72584, -9.29256], [32.71323, -9.28584], [32.6416, -9.27985], [32.55561, -9.26124], [32.51805, -9.25825], [32.50446, -9.24925], [32.49009, -9.22734], [32.47066, -9.18187], [32.4597, -9.16802], [32.42343, -9.14383], [32.38302, -9.13391], [32.25274, -9.1365], [32.23145, -9.13381], [32.21129, -9.12678], [32.19161, -9.11221], [32.15481, -9.07521], [32.13414, -9.06415], [32.09642, -9.06911], [32.05725, -9.04958], [32.03172, -9.04596], [31.98056, -9.0719], [31.93808, -9.06177], [31.91772, -9.0225], [31.91782, -8.9731], [31.93663, -8.93258], [31.7876, -8.89217], [31.76434, -8.89413], [31.73024, -8.91243], [31.70978, -8.91966], [31.68962, -8.91956], [31.67267, -8.91305], [31.57645, -8.83967], [31.55335, -8.80907], [31.54586, -8.76629], [31.54596, -8.72897], [31.53904, -8.70355], [31.51909, -8.68701], [31.48064, -8.67616], [31.46472, -8.66614], [31.44323, -8.64154], [31.42752, -8.63348], [31.38597, -8.63255], [31.37264, -8.62386], [31.36592, -8.59865], [31.3622, -8.59234], [31.35331, -8.58717], [31.34752, -8.59245], [31.26091, -8.62397], [31.24805, -8.6219], [31.23735, -8.61394], [31.21844, -8.58872], [31.20676, -8.58077], [31.18268, -8.58077], [31.11984, -8.61663], [31.07782, -8.61632], [31.03364, -8.6003], [30.99235, -8.57591], [30.95954, -8.55048], [30.89189, -8.47917], [30.82828, -8.38812], [30.7926, -8.3175], [30.59422, -8.21808], [30.43189, -8.24272], [30.60068, -7.84318], [30.44164, -7.59633], [30.41471, -7.50197], [30.40494, -7.43603], [30.3696, -7.31025], [30.29446, -7.14943], [30.23467, -7.05714], [30.09085, -6.89002], [30.01272, -6.82522], [29.87309, -6.75421], [29.73863, -6.65241], [29.707, -6.61934], [29.68437, -6.58151], [29.63393, -6.44694], [29.56603, -6.35951], [29.53771, -6.31238], [29.52551, -6.2731], [29.50882, -6.15373], [29.4787, -6.0418], [29.47611, -6.00211], [29.49606, -5.93865], [29.57089, -5.83799], [29.60303, -5.78166], [29.61244, -5.70435], [29.59352, -5.62033], [29.49637, -5.39171], [29.45565, -5.22996], [29.37782, -5.08754], [29.34423, -5.006], [29.32377, -4.92016], [29.32103, -4.83634], [29.34082, -4.7517], [29.40134, -4.58685], [29.4109, -4.50231], [29.37276, -4.20817], [29.33948, -4.09324], [29.27773, -3.98895], [29.2398, -3.94803], [29.22455, -3.92653], [29.21504, -3.89986], [29.20657, -3.78194], [29.22326, -3.66701], [29.22517, -3.58856], [29.20883, -3.36411], [28.79053, -3.39759], [28.75754, -3.407], [28.74801, -3.41358], [28.75758, -3.16556], [29.08978, -2.92607], [29.08327, -2.91005], [29.08172, -2.89393], [29.0627, -2.8622], [29.04906, -2.82748], [29.03407, -2.82086], [28.9949, -2.81363], [28.98689, -2.79678], [28.89909, -2.66066], [28.89134, -2.6527], [28.89806, -2.57633], [28.89134, -2.55307], [28.88106, -2.54263], [28.86096, -2.53116], [28.85724, -2.51835], [28.45198, -2.51551], [28.38196, -2.3778], [28.69249, -1.98353], [28.6768, -1.71093], [28.91963, -1.33884], [29.14767, -1.15838], [29.55693, -1.15771], [29.56913, -1.0959], [29.57006, -1.07792], [29.56593, -1.05859], [29.5512, -1.02014], [29.54846, -1.00257], [29.56034, -0.97208], [29.55528, -0.93849], [29.556, -0.91948], [29.56717, -0.90191], [29.59672, -0.89188], [29.60799, -0.87845], [29.612, -0.83566], [30.33745, -1.06624], [30.35275, -1.06076], [30.40319, -1.07037], [30.43202, -1.06055], [30.48101, -1.05911], [30.49342, -1.06024], [30.51166, -1.07337], [30.59274, -1.06345], [30.61454, -1.06583], [30.63863, -1.07337], [30.6871, -1.025], [30.70157, -1.01746], [30.7395, -1.00547], [30.77712, -0.98583], [30.81246, -0.99472], [30.82838, -1.00257], [31.44084, -1.00257], [31.4365, -1.4174]]], [[[39.2278, -5.89073], [39.28004, -5.84197], [39.28826, -5.81048], [39.29527, -5.73651], [39.31348, -5.71846], [39.32521, -5.74896], [39.35571, -5.80381], [39.35788, -5.81631], [39.24773, -6.00705], [39.25734, -6.06094], [39.2598, -6.10913], [39.30241, -6.15611], [39.40325, -6.30539], [39.39405, -6.3082], [39.39422, -6.31902], [39.40968, -6.3458], [39.40845, -6.36825], [39.40357, -6.3737], [39.37567, -6.36337], [39.38006, -6.34417], [39.37436, -6.32879], [39.34833, -6.30136], [39.3169, -6.25302], [39.30047, -6.23935], [39.28688, -6.24676], [39.28688, -6.25408], [39.29272, -6.25498], [39.2937, -6.26773], [39.28028, -6.25848], [39.27605, -6.2741], [39.27955, -6.29665], [39.29028, -6.3082], [39.28248, -6.31217], [39.26418, -6.30242], [39.20802, -6.2365], [39.19859, -6.22079], [39.17702, -6.15789], [39.2129, -6.11419], [39.20476, -6.05641], [39.18622, -5.99432], [39.19049, -5.91404], [39.19744, -5.89668], [39.21111, -5.91774], [39.2278, -5.89073]]], [[[39.23165, -5.82322], [39.23784, -5.83621], [39.23785, -5.85604], [39.21448, -5.8581], [39.21242, -5.84355], [39.21718, -5.79791], [39.21442, -5.77739], [39.22609, -5.76919], [39.23026, -5.80064], [39.23851, -5.81296], [39.23165, -5.82322]]]]}}]}