{"type": "FeatureCollection", "features": [{"type": "Feature", "properties": {"name": "벨기에령", "name_en": "Belgian colony", "period": "1913년경", "kind": "식민지", "legend": "벨기에령", "map_title": "제국주의 열강의 아프리카 분할(1913년경)", "source": "미래엔 세계사 교과서 3권 156쪽", "volume": 3, "page": 156, "coast_snap": "Natural Earth 10m 해안선에 맞춤", "border_snap": "현대 국경(Natural Earth 10m)에 맞춘 구간 약 5180 km"}, "geometry": {"type": "MultiPolygon", "coordinates": [[[[29.21401, -13.40833], [29.25018, -13.39158], [29.30827, -13.35365], [29.44955, -13.30032], [29.47002, -13.28782], [29.528, -13.23408], [29.55104, -13.22415], [29.5744, -13.22539], [29.62908, -13.26146], [29.6575, -13.26012], [29.66659, -13.27118], [29.66918, -13.2812], [29.66752, -13.29195], [29.65889, -13.30952], [29.6515, -13.31459], [29.63362, -13.31893], [29.62659, -13.32637], [29.62515, -13.3642], [29.60169, -13.37443], [29.60169, -13.38838], [29.60551, -13.39996], [29.6174, -13.42125], [29.62608, -13.42982], [29.4189, -13.78322], [29.41902, -13.80123], [29.38306, -13.7961], [29.18414, -13.43685], [29.19479, -13.43096], [29.21401, -13.40833]]], [[[28.67508, -4.45645], [28.73321, -4.48228], [28.76437, -4.41333], [28.8217, -4.25427], [28.83157, -4.23814], [28.83833, -4.24314], [28.84345, -4.28003], [28.83698, -4.38597], [28.80598, -4.56526], [28.77882, -4.67985], [28.71278, -4.84344], [28.68694, -4.92019], [28.68257, -4.94833], [28.68502, -4.99475], [28.71758, -5.19728], [28.773, -5.44258], [28.93325, -5.87663], [28.94064, -5.97264], [28.94177, -6.09098], [28.93408, -6.14725], [28.92226, -6.16912], [28.8193, -6.28483], [28.7803, -6.3402], [28.77539, -6.36251], [28.78356, -6.39055], [28.82918, -6.46092], [28.97053, -6.62622], [29.00177, -6.69316], [29.11403, -6.97548], [29.17253, -7.06385], [29.30343, -7.23704], [29.41776, -7.36859], [29.80684, -7.70636], [29.88377, -7.78349], [29.93617, -7.89644], [30.00532, -8.30749], [28.91527, -8.47287], [28.88917, -8.4831], [28.89279, -8.50191], [28.93547, -8.59079], [28.93046, -8.67988], [28.8931, -8.76577], [28.76541, -8.93403], [28.59906, -9.09639], [28.5062, -9.1644], [28.41509, -9.20708], [28.3723, -9.23509], [28.35246, -9.27199], [28.36853, -9.30858], [27.8824, -9.63135], [28.20017, -10.11844], [28.10938, -10.60654], [28.14572, -10.76286], [28.54945, -10.85856], [28.54945, -10.9029], [28.53136, -10.95509], [28.50785, -10.98207], [28.50863, -11.01349], [28.50408, -11.03436], [28.47679, -11.07798], [28.48734, -11.15343], [28.47369, -11.18123], [28.47369, -11.22567], [28.45509, -11.2637], [28.43618, -11.28913], [28.43199, -11.31104], [28.43959, -11.34825], [28.40858, -11.37243], [28.35701, -11.44695], [28.35442, -11.46472], [28.357, -11.52258], [27.96338, -11.65124], [27.87957, -11.84895], [27.83427, -12.2602], [27.85668, -12.2624], [27.87704, -12.26995], [27.93388, -12.30333], [27.94845, -12.32142], [27.95869, -12.36782], [27.98101, -12.37454], [28.01403, -12.37051], [28.08767, -12.37754], [28.09687, -12.38302], [28.107, -12.4102], [28.13128, -12.42921], [28.14596, -12.42312], [28.16074, -12.40875], [28.18575, -12.40245], [28.20498, -12.41082], [28.23753, -12.43707], [28.30368, -12.43542], [28.32249, -12.4411], [28.33975, -12.45051], [28.42274, -12.5213], [28.43643, -12.5428], [28.45592, -12.5921], [28.46827, -12.61463], [28.50201, -12.64956], [28.5123, -12.66837], [28.51162, -12.69442], [28.50015, -12.71095], [28.48398, -12.72222], [28.474, -12.73648], [28.48093, -12.76211], [28.5016, -12.78847], [28.52361, -12.81017], [28.53942, -12.83384], [28.54284, -12.88562], [28.55338, -12.89492], [28.56847, -12.89554], [28.58397, -12.88872], [28.59369, -12.87673], [28.60816, -12.8479], [28.62118, -12.83942], [28.66789, -12.84934], [28.70799, -12.88976], [28.77569, -12.97657], [28.79336, -12.99156], [28.8006, -13.00241], [28.80944, -13.03838], [28.83088, -13.05181], [28.82551, -13.06783], [28.82582, -13.09284], [28.82974, -13.09718], [28.84421, -13.10235], [28.85367, -13.13708], [28.86323, -13.14266], [28.88271, -13.14359], [28.89186, -13.14731], [28.90343, -13.1623], [28.93413, -13.30963], [28.95036, -13.35097], [28.99397, -13.39592], [28.80746, -13.76536], [28.55668, -13.78706], [28.32083, -13.32536], [28.14177, -13.26197], [27.87271, -12.83211], [27.46212, -12.7857], [27.35539, -12.66955], [27.17748, -12.70338], [26.99965, -12.60301], [26.92387, -12.38601], [26.83173, -11.97333], [26.75938, -11.96867], [26.74419, -11.98118], [26.73256, -11.99834], [26.71742, -12.01301], [26.69706, -12.01746], [26.6798, -12.0096], [26.64352, -11.98552], [26.6059, -11.97777], [26.52487, -11.97229], [26.48911, -11.96082], [26.43836, -11.91906], [26.41459, -11.91183], [26.37635, -11.91286], [26.33915, -11.91896], [26.29801, -11.94118], [26.28623, -11.94056], [26.23094, -12.34869], [26.11448, -12.39949], [25.83224, -12.29537], [25.41033, -12.28996], [25.20062, -12.16837], [24.85086, -12.12828], [24.64347, -11.85984], [24.56473, -11.44467], [24.53269, -11.44612], [24.49094, -11.46152], [24.46965, -11.46555], [24.4465, -11.46359], [24.42645, -11.45408], [24.39255, -11.42338], [24.37022, -11.41015], [24.35172, -11.40706], [24.31007, -11.40664], [24.00539, -11.53521], [24.00973, -11.52343], [24.00756, -11.47051], [23.65136, -11.00522], [23.49482, -10.96429], [23.45596, -10.96098], [23.41545, -10.96326], [23.37328, -10.97514], [23.19675, -11.07188], [23.01434, -11.10247], [22.96959, -11.10247], [22.93114, -11.09679], [22.91119, -11.08831], [22.85311, -11.05307], [22.82923, -11.05214], [22.76422, -11.09048], [22.72774, -11.09679], [22.68898, -11.09297], [22.65095, -11.08232], [22.53757, -11.03716], [22.50098, -11.04243], [22.46936, -11.12242], [22.44031, -11.14692], [22.34027, -11.1802], [22.3257, -11.19032], [22.28177, -11.23673], [22.26306, -11.2482], [21.81244, -11.2754], [21.79513, -11.2713], [21.5045, -11.4826], [21.41537, -11.09781], [21.568, -11.00136], [21.57805, -10.60568], [21.43997, -10.11554], [21.30867, -10.03927], [21.08646, -9.57961], [21.23827, -8.59205], [21.08207, -8.05209], [21.16174, -7.70075], [21.16481, -7.28457], [20.52054, -7.28638], [20.51826, -7.18974], [20.52446, -7.14313], [20.61149, -6.91596], [20.31951, -6.91854], [20.31125, -6.92505], [20.29864, -6.95451], [20.2943, -7.00195], [19.52184, -7.00195], [19.54261, -7.05228], [19.5362, -7.0684], [19.49703, -7.12174], [19.1049, -6.99898], [18.92767, -6.99051], [18.90675, -7.49472], [18.82633, -7.53287], [18.73852, -7.93233], [18.51652, -7.93223], [18.50433, -7.9407], [18.50226, -7.96013], [18.50764, -7.99755], [18.42051, -7.99827], [18.40387, -8.00065], [18.38196, -8.01233], [18.36656, -8.01677], [18.35364, -8.01594], [18.31622, -8.00168], [18.19272, -7.99693], [18.1766, -7.9992], [18.13577, -8.01853], [18.12037, -8.02246], [18.10218, -8.03331], [18.09288, -8.05635], [18.09174, -8.08416], [18.09815, -8.10927], [18.00854, -8.11124], [17.98188, -8.10534], [17.93082, -8.06214], [17.90137, -8.04809], [17.86798, -8.04447], [17.85176, -8.04778], [17.78954, -8.08178], [17.77724, -8.08333], [17.74334, -8.07072], [17.71326, -8.06834], [17.62841, -8.09801], [17.6002, -8.09852], [17.54428, -8.08478], [17.53653, -8.07599], [17.52837, -8.06059], [17.54004, -8.03207], [17.53653, -8.01512], [17.49622, -7.98721], [17.48186, -7.94566], [17.46832, -7.95993], [17.46305, -7.9498], [17.46832, -7.93946], [17.44682, -7.92892], [17.43411, -7.9158], [17.43938, -7.90215], [17.44868, -7.89285], [17.4524, -7.88396], [17.44093, -7.87115], [17.42636, -7.87549], [17.42057, -7.84386], [17.3907, -7.83921], [17.4, -7.83022], [17.4, -7.8234], [17.38098, -7.82319], [17.37613, -7.8141], [17.3754, -7.79229], [17.36548, -7.78733], [17.34244, -7.78402], [17.33406, -7.76965], [17.31598, -7.75363], [17.3106, -7.74082], [17.32063, -7.72242], [17.32042, -7.71364], [17.30378, -7.70671], [17.30812, -7.70237], [17.30378, -7.69245], [17.2889, -7.69948], [17.28745, -7.6602], [17.2827, -7.64398], [17.28642, -7.62517], [17.26657, -7.61039], [17.21779, -7.586], [17.20291, -7.56429], [17.18627, -7.51634], [17.17283, -7.49381], [17.14854, -7.47262], [17.14617, -7.46311], [17.15154, -7.45122], [17.1749, -7.44161], [17.18027, -7.43541], [17.17655, -7.42818], [17.14617, -7.41805], [17.13222, -7.40957], [17.12622, -7.41143], [17.11816, -7.42549], [17.104, -7.41608], [17.09811, -7.40234], [17.0978, -7.3674], [17.09335, -7.35232], [17.0825, -7.34229], [17.05666, -7.32989], [17.02287, -7.30601], [16.9961, -7.29795], [16.99166, -7.28607], [16.98907, -7.25485], [16.97285, -7.23222], [16.95083, -7.2132], [16.94566, -7.20462], [16.94752, -7.15109], [16.92706, -7.08566], [16.52218, -7.15136], [16.47391, -7.07634], [16.4699, -7.02345], [16.8329, -6.8278], [16.82309, -6.78511], [16.7681, -6.70832], [16.76035, -6.69199], [16.75591, -6.67411], [16.75301, -6.63722], [16.74867, -6.61954], [16.734, -6.58606], [16.73079, -6.56983], [16.73451, -6.55236], [16.74681, -6.53159], [16.74733, -6.52198], [16.7217, -6.4918], [16.72128, -6.48053], [16.7278, -6.46596], [16.70609, -6.46503], [16.31454, -6.57775], [16.2794, -6.51481], [16.2473, -6.27506], [16.39614, -5.89411], [16.37433, -5.88284], [16.34126, -5.8598], [16.31573, -5.85463], [14.75134, -5.88061], [14.75739, -5.47271], [14.81883, -5.41448], [14.92515, -5.3039], [15.02806, -5.18842], [15.28172, -4.87661], [15.07611, -4.52008], [15.09792, -4.49993], [15.18804, -4.37219], [15.20396, -4.33901], [15.38658, -4.24434], [15.42545, -4.23018], [15.45893, -4.21385], [15.49035, -4.1752], [15.52115, -4.0768], [15.53376, -4.05799], [15.54906, -4.04621], [15.56683, -4.03805], [15.71122, -3.99216], [15.8, -3.97883], [15.84423, -3.9656], [15.88299, -3.94534], [15.91213, -3.91743], [15.93032, -3.85863], [15.97425, -3.78649], [15.9911, -3.73894], [16.00525, -3.72478], [16.0127, -3.70225], [16.05331, -3.61999], [16.11553, -3.54423], [16.13786, -3.50072], [16.15842, -3.44728], [16.20772, -3.36191], [16.22075, -3.33173], [16.22746, -3.28988], [16.22209, -3.27913], [16.19863, -3.25949], [16.19336, -3.23841], [16.19946, -3.19479], [16.19925, -3.17185], [16.59615, -3.08352], [16.67618, -2.96539], [16.84137, -2.70789], [16.99718, -2.44365], [17.13918, -2.17242], [17.2629, -1.89403], [17.36387, -1.6083], [17.41162, -1.41858], [17.29768, -1.02107], [17.30802, -1.01498], [17.33045, -0.98655], [17.36497, -0.96723], [17.38543, -0.94242], [17.41147, -0.91834], [17.60216, -0.68869], [17.62304, -0.67329], [17.65094, -0.64632], [17.65446, -0.62751], [17.66417, -0.61273], [17.72804, -0.55309], [17.74954, -0.52343], [17.74076, -0.34618], [17.71626, -0.24624], [17.71368, -0.22092], [17.71637, -0.1958], [17.75709, -0.00946], [17.77538, 0.02641], [17.85403, 0.24107], [17.93992, 0.36127], [17.9455, 0.37729], [17.95201, 0.47434], [17.94994, 0.4915], [17.94364, 0.51082], [17.9331, 0.52705], [17.91842, 0.53521], [17.8993, 0.58327], [17.8932, 0.60766], [17.89258, 0.63588], [17.90757, 0.71308], [17.90767, 0.74047], [17.87791, 0.86791], [17.87822, 0.94718], [17.86664, 1.01663], [17.87326, 1.03963], [17.89248, 1.0774], [17.9148, 1.102], [17.95625, 1.17166], [17.96338, 1.19145], [17.967, 1.25372], [18.00203, 1.36578], [18.01226, 1.42196], [18.07138, 1.55146], [18.07366, 1.57233], [18.06611, 1.85898], [18.06818, 1.87622], [18.07831, 1.90929], [18.08172, 1.94242], [18.07603, 1.98848], [18.08079, 2.08416], [18.07242, 2.16002], [18.11117, 2.26529], [18.1427, 2.3057], [18.14673, 2.31593], [18.16378, 2.32105], [18.17401, 2.33614], [18.18796, 2.37092], [18.19913, 2.38911], [18.21411, 2.42766], [18.22517, 2.48646], [18.23303, 2.50259], [18.24615, 2.51892], [18.30351, 2.57256], [18.31374, 2.57597], [18.39322, 2.71369], [18.41834, 2.78174], [18.42516, 2.82215], [18.44924, 2.873], [18.47177, 2.90923], [18.4758, 2.93119], [18.49534, 2.96607], [18.52841, 3.06477], [18.19242, 3.48254], [18.20254, 3.48733], [18.22, 3.50395], [18.23158, 3.52116], [18.24853, 3.5749], [18.25587, 3.57722], [18.27592, 3.57438], [18.3556, 3.58146], [18.37989, 3.57438], [18.39229, 3.59585], [18.42061, 3.59637], [18.42971, 3.60022], [18.45906, 3.63138], [18.61171, 3.87909], [18.61368, 3.90147], [18.63455, 3.93573], [18.64158, 3.95826], [18.6453, 3.98244], [18.64654, 4.04598], [18.63269, 4.13042], [18.61967, 4.16957], [18.58391, 4.23579], [18.57254, 4.26568], [18.54505, 4.28902], [18.53709, 4.30607], [18.54195, 4.32785], [18.55683, 4.35415], [18.57647, 4.37276], [18.5958, 4.37126], [18.61429, 4.35981], [18.63393, 4.35596], [18.67434, 4.36131], [18.72106, 4.37736], [18.7533, 4.40061], [18.77697, 4.43345], [18.82824, 4.55998], [18.85242, 4.59406], [18.88653, 4.6214], [18.89789, 4.65065], [18.92818, 4.66644], [18.96228, 4.72444], [18.99804, 4.75064], [19.01158, 4.76503], [19.01975, 4.8033], [19.04414, 4.82689], [19.05778, 4.86779], [19.06905, 4.89125], [19.08331, 4.90934], [19.11618, 4.94045], [19.13302, 4.94693], [19.17902, 4.94642], [19.19565, 4.95034], [19.237, 5.01078], [19.28382, 5.03228], [19.37311, 5.08755], [19.3942, 5.11698], [19.40898, 5.13039], [19.43151, 5.13597], [19.49652, 5.1338], [19.51708, 5.13597], [19.5486, 5.15137], [19.56876, 5.15519], [19.60555, 5.13829], [19.71955, 5.13597], [19.7488, 5.12442], [19.77918, 5.11816], [19.82466, 5.09698], [19.83861, 5.08755], [19.85019, 5.07375], [19.87551, 5.03106], [19.88037, 5.01553], [19.89091, 5.00212], [19.9154, 4.99311], [20.00398, 4.97448], [20.03106, 4.95799], [20.08635, 4.91626], [20.1526, 4.89068], [20.17172, 4.87836], [20.21719, 4.82245], [20.23662, 4.80635], [20.25482, 4.79712], [20.30174, 4.78165], [20.32251, 4.77906], [20.33894, 4.77191], [20.35403, 4.7554], [20.37367, 4.72444], [20.39548, 4.67711], [20.40375, 4.66985], [20.42059, 4.66235], [20.44023, 4.64411], [20.45646, 4.6215], [20.46307, 4.60093], [20.44705, 4.56967], [20.44209, 4.5505], [20.45232, 4.52892], [20.55981, 4.42836], [20.58027, 4.415], [20.60311, 4.40973], [20.68838, 4.42278], [20.76786, 4.42278], [20.79184, 4.42619], [20.83235, 4.45069], [20.87152, 4.45337], [20.96351, 4.43374], [21.05962, 4.3986], [21.07606, 4.39547], [21.08422, 4.38824], [21.10344, 4.35328], [21.11357, 4.34085], [21.15006, 4.32671], [21.15812, 4.3102], [21.19574, 4.30292], [21.21093, 4.29157], [21.22344, 4.29245], [21.23243, 4.29783], [21.25072, 4.32036], [21.26592, 4.33007], [21.28834, 4.33338], [21.29889, 4.33023], [21.31036, 4.31609], [21.35831, 4.28555], [21.37485, 4.27816], [21.39769, 4.27163], [21.46022, 4.27194], [21.47314, 4.2693], [21.49722, 4.25147], [21.52781, 4.24925], [21.53815, 4.24465], [21.63416, 4.29421], [21.73731, 4.29338], [21.7585, 4.28561], [21.771, 4.27349], [21.81989, 4.27194], [21.83808, 4.26326], [21.86774, 4.24155], [21.89161, 4.23718], [21.9499, 4.23346], [21.98959, 4.24424], [22.00148, 4.24465], [22.05781, 4.21954], [22.10845, 4.20985], [22.12788, 4.20308], [22.15165, 4.17946], [22.18472, 4.1646], [22.20725, 4.15032], [22.30327, 4.12872], [22.42264, 4.13479], [22.45737, 4.14908], [22.49271, 4.17404], [22.51049, 4.19127], [22.51824, 4.2068], [22.54046, 4.22726], [22.54615, 4.23718], [22.53933, 4.27816], [22.56858, 4.33155], [22.57653, 4.34085], [22.58801, 4.34418], [22.59989, 4.35255], [22.6093, 4.36335], [22.61374, 4.37436], [22.61126, 4.38185], [22.594, 4.40232], [22.58904, 4.42195], [22.58697, 4.44939], [22.59245, 4.47371], [22.61033, 4.48422], [22.67565, 4.48474], [22.6895, 4.49167], [22.69715, 4.51203], [22.69704, 4.53575], [22.71368, 4.55122], [22.73115, 4.58727], [22.72361, 4.62884], [22.73787, 4.63775], [22.7574, 4.6608], [22.77642, 4.7101], [22.78603, 4.72465], [22.80288, 4.73064], [22.83729, 4.71423], [22.85383, 4.71126], [22.8653, 4.73868], [22.89558, 4.76539], [22.8868, 4.77669], [22.88236, 4.78849], [22.88287, 4.80074], [22.88876, 4.81322], [22.89837, 4.82358], [22.92969, 4.82061], [22.96504, 4.83529], [22.97744, 4.83431], [22.98571, 4.82642], [23.01733, 4.75051], [23.05516, 4.7378], [23.07738, 4.72106], [23.0994, 4.71165], [23.12389, 4.71563], [23.16875, 4.73811], [23.18373, 4.72527], [23.20864, 4.69054], [23.25184, 4.66297], [23.26486, 4.63507], [23.29515, 4.6276], [23.31644, 4.60773], [23.35395, 4.60357], [23.38837, 4.58727], [23.39602, 4.59161], [23.41452, 4.59083], [23.42258, 4.59406], [23.42744, 4.60135], [23.43002, 4.62884], [23.43715, 4.64656], [23.44832, 4.65941], [23.46506, 4.66721], [23.48842, 4.66984], [23.50609, 4.67643], [23.56655, 4.72444], [23.58805, 4.73395], [23.63404, 4.74514], [23.67269, 4.7672], [23.69285, 4.7734], [23.73791, 4.77906], [23.76003, 4.78744], [23.79848, 4.81475], [23.81666, 4.82061], [23.85522, 4.81322], [23.88188, 4.82689], [23.92436, 4.81779], [23.94834, 4.81769], [23.94741, 4.83058], [23.94276, 4.84051], [23.94317, 4.8517], [23.95082, 4.86779], [23.95712, 4.87082], [23.96312, 4.8687], [23.978, 4.85415], [24.04694, 4.88893], [24.07246, 4.91027], [24.08962, 4.92022], [24.10843, 4.92306], [24.1199, 4.9189], [24.13923, 4.90544], [24.15277, 4.9026], [24.1629, 4.90779], [24.1909, 4.94417], [24.20961, 4.95618], [24.22977, 4.96117], [24.2462, 4.95407], [24.25302, 4.92988], [24.25922, 4.92988], [24.2677, 4.93572], [24.27297, 4.96401], [24.28465, 4.99244], [24.29664, 5.00326], [24.36847, 5.01243], [24.38614, 5.02236], [24.39864, 5.03602], [24.39689, 5.04819], [24.37198, 5.05339], [24.36123, 5.06295], [24.36785, 5.08455], [24.38252, 5.10786], [24.39637, 5.1223], [24.41694, 5.07326], [24.43068, 5.06742], [24.43668, 5.10059], [24.45962, 5.10744], [24.48722, 5.1008], [24.51368, 5.08724], [24.533, 5.07326], [24.55347, 5.0391], [24.60122, 5.0261], [24.6101, 5.01672], [24.61, 4.99672], [24.61548, 4.9851], [24.62747, 4.97691], [24.65692, 4.96727], [24.67077, 4.95722], [24.65744, 4.93978], [24.65424, 4.92942], [24.66436, 4.9244], [24.73061, 4.9175], [24.74984, 4.91874], [24.76637, 4.92988], [24.77826, 4.91854], [24.78942, 4.91986], [24.90887, 4.53084], [25.03781, 4.50139], [25.21191, 4.4724], [25.38808, 4.45453], [25.56596, 4.44617], [25.74515, 4.44574], [25.92527, 4.45165], [26.46728, 4.49145], [26.77589, 4.50208], [27.36254, 4.49719], [27.76521, 4.61207], [27.77244, 4.59582], [27.80924, 4.58799], [27.83766, 4.55998], [27.84913, 4.55321], [27.88551, 4.55667], [27.90794, 4.54869], [27.91404, 4.54931], [27.9161, 4.56215], [27.92923, 4.56998], [27.94453, 4.55729], [27.96251, 4.55745], [28.01403, 4.55003], [28.01708, 4.53905], [28.00891, 4.49908], [28.01124, 4.48014], [28.01904, 4.46275], [28.04974, 4.41914], [28.05976, 4.42007], [28.0763, 4.43769], [28.08555, 4.44332], [28.10173, 4.44213], [28.10834, 4.43399], [28.11237, 4.41464], [28.14022, 4.37932], [28.15872, 4.36079], [28.17759, 4.34723], [28.21696, 4.34204], [28.26105, 4.35038], [28.30316, 4.35224], [28.33685, 4.32749], [28.3491, 4.29235], [28.35742, 4.28287], [28.3815, 4.2753], [28.40414, 4.27783], [28.42543, 4.29082], [28.44393, 4.3085], [28.48243, 4.35899], [28.49684, 4.36901], [28.51927, 4.37441], [28.54821, 4.37082], [28.55731, 4.37353], [28.56428, 4.3826], [28.57054, 4.40511], [28.58242, 4.41263], [28.62366, 4.42237], [28.63864, 4.43208], [28.65373, 4.4527], [28.69518, 4.53259], [28.72453, 4.53399], [28.75543, 4.55399], [28.76918, 4.54977], [28.78365, 4.53037], [28.78995, 4.48859], [28.81527, 4.47828], [28.8562, 4.48247], [28.90364, 4.47859], [28.92555, 4.48081], [28.98622, 4.49593], [29.05783, 4.90531], [29.21602, 5.096], [29.30292, 5.08194], [29.35386, 5.06836], [29.45761, 4.66953], [29.4726, 4.6722], [29.4941, 4.66829], [29.51327, 4.65215], [29.53502, 4.6607], [29.57668, 4.64445], [29.61853, 4.64158], [29.66029, 4.62212], [29.7008, 4.5883], [29.71532, 4.57967], [29.72292, 4.5782], [29.74514, 4.58391], [29.79671, 4.55603], [29.7933, 4.54538], [29.7777, 4.52386], [29.787, 4.48967], [29.77677, 4.44934], [29.7762, 4.40562], [29.78783, 4.3688], [29.81485, 4.34676], [29.86069, 4.34728], [29.8827, 4.34402], [29.90849, 4.32919], [29.93035, 4.30865], [29.94012, 4.28834], [29.92322, 4.25775], [29.92415, 4.24558], [29.93216, 4.23615], [29.966, 4.23181], [29.98936, 4.21778], [30.00476, 4.19928], [30.02791, 4.15445], [30.0429, 4.13311], [30.05778, 4.12365], [30.0998, 4.1151], [30.12269, 4.10246], [30.13302, 4.0828], [30.14749, 4.03665], [30.17808, 3.9971], [30.18212, 3.96552], [30.18935, 3.95609], [30.20589, 3.95038], [30.27095, 3.94945], [30.33792, 3.92787], [30.41895, 3.87971], [30.45683, 3.86759], [30.48587, 3.86558], [30.51553, 3.87085], [30.52525, 3.86754], [30.53889, 3.84155], [30.56287, 3.69487], [30.56225, 3.67533], [30.55491, 3.63639], [30.54302, 3.61291], [30.56225, 3.60136], [30.79688, 3.22402], [30.74787, 3.07671], [30.74384, 3.05547], [30.74508, 3.0363], [30.75707, 3.02147], [30.80363, 2.98907], [30.82094, 2.97315], [30.84399, 2.93279], [30.85484, 2.89321], [30.85339, 2.85337], [30.82869, 2.78608], [30.82187, 2.77616], [30.80161, 2.76908], [30.79769, 2.74836], [30.7643, 2.65839], [30.75893, 2.63379], [30.73526, 2.59307], [30.73702, 2.51954], [30.70766, 2.46228], [30.71056, 2.44512], [30.72492, 2.44078], [30.795, 2.44011], [30.80492, 2.43437], [30.80967, 2.39236], [30.83634, 2.35634], [30.54194, 2.06517], [30.06309, 1.5417], [29.59614, 1.18828], [29.5375, 0.77208], [29.32742, 0.43468], [29.25986, -0.20541], [29.65548, -0.29007], [29.62938, -0.4424], [29.63187, -0.46121], [29.64974, -0.50431], [29.65305, -0.5656], [29.65088, -0.57955], [29.64282, -0.58503], [29.62287, -0.58844], [29.61884, -0.59939], [29.63057, -0.62203], [29.62928, -0.62978], [29.61554, -0.64415], [29.60303, -0.7229], [29.6022, -0.74378], [29.61336, -0.80383], [29.60799, -0.87845], [29.59672, -0.89188], [29.56717, -0.90191], [29.556, -0.91948], [29.55528, -0.9385], [29.56034, -0.97208], [29.54846, -1.00257], [29.5512, -1.02014], [29.56593, -1.05859], [29.57006, -1.07792], [29.56913, -1.0959], [29.55693, -1.15771], [29.14787, -1.15846], [28.91946, -1.33856], [28.67662, -1.71108], [28.69385, -1.98256], [28.38179, -2.37797], [28.45188, -2.51537], [28.85724, -2.51835], [28.86096, -2.53116], [28.88106, -2.54263], [28.89134, -2.55307], [28.89806, -2.57633], [28.89134, -2.65271], [28.89909, -2.66066], [28.98689, -2.79678], [28.9949, -2.81363], [29.03407, -2.82086], [29.04906, -2.82748], [29.0627, -2.8622], [29.08172, -2.89393], [29.08327, -2.91005], [29.08978, -2.92607], [28.75803, -3.16582], [28.74812, -3.41343], [28.72436, -3.59527], [28.69719, -3.93259], [28.67922, -3.93309], [28.63762, -4.24609], [28.62739, -4.3707], [28.62863, -4.42496], [28.67508, -4.45645]]]]}}]}