{"type": "FeatureCollection", "features": [{"type": "Feature", "properties": {"name": "골드코스트", "name_en": "Gold Coast", "period": "1913년경", "kind": "식민지", "legend": "(영국령)", "map_title": "제국주의 열강의 아프리카 분할(1913년경)", "source": "미래엔 세계사 교과서 3권 156쪽", "volume": 3, "page": 156, "note": "영국령 · 지도에 이름 표기 없음 — 색과 위치로 이름을 붙임", "coast_snap": "Natural Earth 10m 해안선에 맞춤", "border_snap": "현대 국경(Natural Earth 10m)에 맞춘 구간 약 1686 km"}, "geometry": {"type": "Polygon", "coordinates": [[[-3.27007, 10.3351], [-3.26757, 10.35239], [-2.89152, 10.52166], [-2.89829, 10.56261], [-2.92827, 10.61522], [-2.9325, 10.63431], [-2.90511, 10.69273], [-2.90803, 10.70364], [-2.91891, 10.70661], [-2.92232, 10.72121], [-2.9031, 10.74715], [-2.89948, 10.76999], [-2.88266, 10.79707], [-2.86424, 10.86427], [-2.8214, 10.90626], [-2.81577, 10.92915], [-2.83871, 10.98512], [-2.83734, 10.99801], [-2.75112, 10.99646], [-2.75071, 10.98584], [-1.59868, 10.99713], [-1.587, 11.00367], [-1.57982, 11.02122], [-1.56241, 11.02659], [-1.43606, 11.02271], [-1.38035, 11.00127], [-1.35529, 10.99672], [-1.10755, 10.99434], [-1.09871, 11.00956], [-1.07034, 11.0139], [-0.93247, 11.0031], [-0.91645, 10.9962], [-0.90948, 10.98269], [-0.90436, 10.97949], [-0.89392, 10.9799], [-0.90059, 10.96623], [-0.88317, 10.96863], [-0.8608, 10.99292], [-0.8394, 10.99646], [-0.82777, 11.00584], [-0.82214, 11.00362], [-0.81697, 10.9962], [-0.696, 10.99403], [-0.69466, 10.98274], [-0.67393, 10.98352], [-0.66799, 10.97651], [-0.68277, 10.9536], [-0.63476, 10.90797], [-0.61724, 10.91864], [-0.59983, 10.96577], [-0.59058, 10.98243], [-0.57621, 10.98775], [-0.55544, 10.98995], [-0.51647, 10.98863], [-0.50671, 10.99367], [-0.49482, 11.0078], [-0.46852, 11.02013], [-0.45669, 11.02961], [-0.45126, 11.04021], [-0.44439, 11.07744], [-0.42521, 11.10147], [-0.40589, 11.10147], [-0.38692, 11.0864], [-0.07896, 10.76505], [-0.09769, 10.67501], [-0.09834, 10.65416], [-0.08813, 10.63349], [-0.06836, 10.62106], [-0.03335, 10.61506], [-0.01092, 10.59827], [0.02943, 10.58253], [0.05726, 10.54112], [0.11018, 10.50825], [0.12602, 10.49161], [0.17986, 10.39417], [0.18751, 10.39495], [0.19707, 10.41027], [0.23322, 10.39862], [0.26301, 10.40893], [0.27324, 10.4066], [0.28311, 10.39681], [0.27882, 10.36663], [0.29004, 10.34849], [0.30707, 10.33327], [0.31758, 10.31733], [0.3088, 10.2971], [0.3666, 10.30449], [0.3966, 10.28322], [0.37205, 10.26514], [0.36443, 10.23341], [0.35719, 10.22], [0.35885, 10.18633], [0.3536, 10.11551], [0.36339, 10.08967], [0.39515, 10.07236], [0.39815, 10.05213], [0.39391, 10.03249], [0.34978, 10.02882], [0.35572, 10.01898], [0.34978, 9.99717], [0.37019, 9.94702], [0.36957, 9.93883], [0.34978, 9.91896], [0.34171, 9.90379], [0.33967, 9.88984], [0.34389, 9.83839], [0.32244, 9.76067], [0.32389, 9.74207], [0.34295, 9.71354], [0.34761, 9.69884], [0.34988, 9.68065], [0.34709, 9.66316], [0.33665, 9.65083], [0.31872, 9.64861], [0.30192, 9.65784], [0.27528, 9.68559], [0.26097, 9.65716], [0.26169, 9.62794], [0.27764, 9.60699], [0.3088, 9.60368], [0.34936, 9.61391], [0.36916, 9.61014], [0.37773, 9.58942], [0.37081, 9.57564], [0.35461, 9.5711], [0.33616, 9.5742], [0.32244, 9.58314], [0.30456, 9.57156], [0.28053, 9.57017], [0.2302, 9.57575], [0.22307, 9.54118], [0.22591, 9.53193], [0.2535, 9.51425], [0.27901, 9.51901], [0.29314, 9.51828], [0.30192, 9.50746], [0.2981, 9.4971], [0.28531, 9.48836], [0.26973, 9.48234], [0.22805, 9.47397], [0.22795, 9.45973], [0.23498, 9.44377], [0.22681, 9.43234], [0.23136, 9.41896], [0.24989, 9.41695], [0.26849, 9.42064], [0.31422, 9.43648], [0.32182, 9.44284], [0.3288, 9.47157], [0.33378, 9.47947], [0.34895, 9.48604], [0.37143, 9.49002], [0.41166, 9.49224], [0.43044, 9.48919], [0.48352, 9.47002], [0.48992, 9.46113], [0.49168, 9.45129], [0.48351, 9.42684], [0.51328, 9.41679], [0.53137, 9.40111], [0.53757, 9.37765], [0.52827, 9.32695], [0.52661, 9.29765], [0.52248, 9.28507], [0.49292, 9.25861], [0.49199, 9.2389], [0.50439, 9.20311], [0.5047, 9.18717], [0.49261, 9.16675], [0.46998, 9.14673], [0.46365, 9.13709], [0.45848, 9.08924], [0.44155, 9.05818], [0.43127, 9.02759], [0.44468, 8.99656], [0.49313, 8.91522], [0.50563, 8.86633], [0.48352, 8.83481], [0.47349, 8.79355], [0.46248, 8.7883], [0.43013, 8.79474], [0.41959, 8.79125], [0.42497, 8.78732], [0.4183, 8.7706], [0.40781, 8.75905], [0.39711, 8.78153], [0.38528, 8.78608], [0.37267, 8.78375], [0.36587, 8.77427], [0.37443, 8.72477], [0.40373, 8.66208], [0.44352, 8.60687], [0.48352, 8.57979], [0.52475, 8.53803], [0.5508, 8.51933], [0.61632, 8.48876], [0.63379, 8.45202], [0.64671, 8.41416], [0.68505, 8.38256], [0.68919, 8.3313], [0.70882, 8.32257], [0.71275, 8.29797], [0.70521, 8.28275], [0.64506, 8.25343], [0.62831, 8.24247], [0.59503, 8.21273], [0.57385, 8.20395], [0.57271, 8.191], [0.57684, 8.18048], [0.59152, 8.16449], [0.59328, 8.15067], [0.5878, 8.13772], [0.57498, 8.12462], [0.58025, 8.10008], [0.58397, 8.05305], [0.59317, 8.01574], [0.59286, 7.95931], [0.60341, 7.88831], [0.60258, 7.82841], [0.61167, 7.77126], [0.6095, 7.71896], [0.61229, 7.69943], [0.58335, 7.70428], [0.57054, 7.68393], [0.56775, 7.62574], [0.56206, 7.6123], [0.51938, 7.5952], [0.50925, 7.58538], [0.49943, 7.56238], [0.49561, 7.5043], [0.50057, 7.45505], [0.51669, 7.41102], [0.54821, 7.38327], [0.5664, 7.38079], [0.58625, 7.38436], [0.62304, 7.3979], [0.62966, 7.38916], [0.64568, 7.32358], [0.64444, 7.30193], [0.6311, 7.26524], [0.6218, 7.21884], [0.59772, 7.15889], [0.59431, 7.11972], [0.59875, 7.07471], [0.59803, 7.0312], [0.57891, 6.99678], [0.56599, 6.98965], [0.49457, 6.97312], [0.50605, 6.95782], [0.53447, 6.93591], [0.54625, 6.91477], [0.54387, 6.89793], [0.52279, 6.86284], [0.51607, 6.84181], [0.51928, 6.83225], [0.54108, 6.81718], [0.57664, 6.75473], [0.59379, 6.75111], [0.61126, 6.74153], [0.62583, 6.72776], [0.63431, 6.71161], [0.63534, 6.69538], [0.62666, 6.64489], [0.63224, 6.62399], [0.65942, 6.60172], [0.66821, 6.58583], [0.71461, 6.58391], [0.72743, 6.57143], [0.72681, 6.56211], [0.71347, 6.53999], [0.71172, 6.51338], [0.71792, 6.48883], [0.74572, 6.4409], [0.7668, 6.41935], [0.81621, 6.39506], [0.84132, 6.37922], [0.87388, 6.34013], [0.8868, 6.33039], [0.90726, 6.32491], [0.98354, 6.3246], [1.59735, 6.60081], [1.6112, 6.58469], [1.62743, 6.57335], [1.65388, 6.57066], [1.65781, 6.55226], [1.68076, 6.53007], [1.68168, 6.48984], [1.71837, 6.467], [1.74411, 6.42573], [1.78235, 6.27727], [1.76158, 6.27603], [1.63311, 6.24569], [1.61244, 6.23476], [1.52935, 6.21382], [1.54053, 6.20061], [1.42954, 6.18195], [1.27101, 6.13373], [1.19978, 6.10262], [1.1784, 6.09797], [1.13307, 6.07364], [1.09881, 6.04702], [1.03639, 5.97516], [1.01173, 5.92626], [0.99519, 5.83912], [0.98657, 5.82075], [0.95462, 5.79101], [0.91415, 5.77706], [0.72348, 5.75545], [0.36492, 5.78148], [0.32195, 5.7792], [0.28598, 5.76887], [0.27589, 5.76017], [0.25172, 5.7591], [0.22437, 5.74263], [0.1574, 5.72455], [0.11459, 5.68867], [0.07569, 5.67756], [0.03451, 5.62837], [-0.04503, 5.60163], [-0.0686, 5.58122], [-0.09325, 5.57665], [-0.30765, 5.50746], [-0.3531, 5.50169], [-0.37157, 5.49274], [-0.44506, 5.43138], [-0.45813, 5.40474], [-0.47175, 5.39072], [-0.50744, 5.36885], [-0.58934, 5.35151], [-0.61287, 5.33203], [-0.62926, 5.32679], [-0.63777, 5.34089], [-0.68953, 5.30476], [-0.7023, 5.29999], [-0.76073, 5.25218], [-0.7845, 5.22428], [-0.79955, 5.21484], [-0.8741, 5.20402], [-0.89684, 5.20503], [-0.91149, 5.218], [-0.91829, 5.20943], [-0.92753, 5.20619], [-0.97677, 5.19832], [-0.98839, 5.19881], [-0.99706, 5.21678], [-1.01733, 5.20442], [-1.04979, 5.19868], [-1.15412, 5.15388], [-1.17389, 5.13042], [-1.23364, 5.10075], [-1.25434, 5.0965], [-1.31924, 5.09455], [-1.36401, 5.07344], [-1.40494, 5.07343], [-1.45971, 5.04976], [-1.52929, 5.03986], [-1.55187, 5.0314], [-1.56949, 5.0188], [-1.58385, 5.02538], [-1.60147, 5.02668], [-1.61848, 5.02245], [-1.63085, 5.01264], [-1.63244, 5.00454], [-1.62549, 4.98949], [-1.63385, 4.97463], [-1.71882, 4.92768], [-1.74767, 4.8959], [-1.74862, 4.87719], [-1.83544, 4.85513], [-1.9121, 4.82087], [-1.96747, 4.75804], [-2.06383, 4.73819], [-2.09057, 4.73714], [-2.10386, 4.74507], [-2.10798, 4.77558], [-2.15537, 4.78609], [-2.15437, 4.79068], [-2.16373, 4.80052], [-2.20629, 4.83446], [-2.23704, 4.8492], [-2.25276, 4.87914], [-2.3566, 4.91962], [-2.52605, 4.9545], [-2.69042, 5.0102], [-2.82109, 5.02012], [-2.96472, 5.04527], [-3.10375, 5.08771], [-3.16381, 5.10155], [-3.23027, 5.10795], [-3.1985, 5.14808], [-3.19319, 5.13614], [-3.1634, 5.12547], [-3.15514, 5.12786], [-3.1317, 5.10814], [-3.11832, 5.107], [-3.08746, 5.11497], [-3.0161, 5.11445], [-2.9945, 5.10814], [-2.97094, 5.08088], [-2.92634, 5.09455], [-2.92901, 5.12201], [-2.90123, 5.1336], [-2.8653, 5.13931], [-2.8437, 5.14911], [-2.84618, 5.17699], [-2.87938, 5.18134], [-2.94669, 5.17707], [-2.93848, 5.15693], [-2.94352, 5.13679], [-2.958, 5.12117], [-2.97777, 5.11499], [-3.04608, 5.14401], [-3.06281, 5.15664], [-3.08276, 5.15108], [-3.12238, 5.14997], [-3.13914, 5.14233], [-3.162, 5.18349], [-3.12167, 5.21497], [-3.12546, 5.31647], [-3.11594, 5.36844], [-2.9695, 5.62144], [-2.9749, 5.64728], [-2.9648, 5.70978], [-3.02976, 5.70425], [-3.01997, 5.81835], [-3.02252, 5.8545], [-3.03472, 5.8907], [-3.07324, 5.96096], [-3.08776, 5.99669], [-3.11807, 6.16348], [-3.13936, 6.21929], [-3.16879, 6.24605], [-3.1836, 6.26391], [-3.26251, 6.61714], [-3.26111, 6.63394], [-3.2539, 6.64443], [-3.23548, 6.65458], [-3.23006, 6.66112], [-3.21042, 6.716], [-3.22623, 6.74858], [-3.24308, 6.77476], [-3.24168, 6.8109], [-3.22494, 6.8494], [-3.1096, 7.04639], [-3.09547, 7.05518], [-3.04593, 7.07125], [-3.04087, 7.07833], [-3.0326, 7.12835], [-3.02754, 7.13843], [-2.9817, 7.19553], [-2.97281, 7.21496], [-2.97209, 7.2286], [-2.98953, 7.25894], [-2.99046, 7.27067], [-2.94152, 7.57716], [-2.92816, 7.61768], [-2.85595, 7.77157], [-2.83817, 7.79684], [-2.84, 7.82025], [-2.80119, 7.85022], [-2.79789, 7.86128], [-2.79355, 7.93595], [-2.79063, 7.94329], [-2.78435, 7.94401], [-2.77122, 7.93073], [-2.75489, 7.94437], [-2.70926, 7.99672], [-2.69086, 8.00975], [-2.63118, 8.02959], [-2.61056, 8.04], [-2.60069, 8.05295], [-2.59976, 8.07039], [-2.62188, 8.13573], [-2.61066, 8.16485], [-2.60426, 8.17079], [-2.57175, 8.16312], [-2.55811, 8.16769], [-2.5132, 8.19402], [-2.50633, 8.20927], [-2.59836, 8.76947], [-2.60312, 8.78515], [-2.61216, 8.78096], [-2.61723, 8.78918], [-2.61464, 8.80192], [-2.59666, 8.8144], [-2.59557, 8.82807], [-2.61593, 8.89783], [-2.61945, 8.92362], [-2.63769, 8.93147], [-2.6533, 8.97839], [-2.65433, 8.99883], [-2.66079, 9.0149], [-2.68606, 9.02826], [-2.71133, 9.03389], [-2.75081, 9.03741], [-2.77484, 9.05498], [-2.76543, 9.06911], [-2.7613, 9.0848], [-2.75939, 9.13482], [-2.7552, 9.14314], [-2.80462, 9.40669], [-2.91015, 9.54273], [-2.95989, 9.63861], [-2.98999, 9.70843], [-3.00568, 9.72416], [-3.02464, 9.72861], [-3.05906, 9.71856], [-3.07709, 9.71941], [-3.09456, 9.73385], [-3.10438, 9.75713], [-3.11691, 9.80529], [-3.13694, 9.82953], [-3.16011, 9.8347], [-3.18257, 9.83516], [-3.20001, 9.84537], [-3.2044, 9.86537], [-3.20257, 9.90823], [-3.21476, 9.91562], [-3.27007, 10.3351]]]}}]}