{"type": "FeatureCollection", "features": [{"type": "Feature", "properties": {"name": "베추아날란드", "name_en": "Bechuanaland", "period": "1913년경", "kind": "식민지", "legend": "(영국령)", "map_title": "제국주의 열강의 아프리카 분할(1913년경)", "source": "미래엔 세계사 교과서 3권 156쪽", "volume": 3, "page": 156, "note": "영국령 · 지도에 이름 표기 없음 — 색과 위치로 이름을 붙임", "coast_snap": "Natural Earth 10m 해안선에 맞춤", "border_snap": "현대 국경(Natural Earth 10m)에 맞춘 구간 약 2106 km"}, "geometry": {"type": "Polygon", "coordinates": [[[24.42791, -26.18976], [24.41035, -26.19626], [23.46927, -25.98846], [23.22628, -25.87454], [22.76546, -25.82654], [22.75792, -25.80597], [22.75089, -25.79605], [22.74118, -25.79088], [22.74045, -25.77703], [22.28772, -25.71548], [22.24862, -25.71969], [22.16129, -25.8954], [22.43617, -26.22104], [22.42884, -26.22651], [22.39505, -26.27188], [22.34285, -26.31736], [22.31877, -26.32883], [22.25728, -26.34092], [22.24829, -26.34692], [22.23774, -26.36676], [22.19744, -26.40407], [22.17832, -26.43994], [22.14617, -26.51921], [22.10814, -26.57192], [22.0577, -26.6176], [21.999, -26.65026], [21.93585, -26.6639], [21.8388, -26.66452], [21.80728, -26.66958], [21.78061, -26.67816], [21.76873, -26.68871], [21.76749, -26.70431], [21.77648, -26.74917], [21.77751, -26.76849], [21.77338, -26.78679], [21.76232, -26.80446], [21.74382, -26.82048], [21.68718, -26.85521], [21.66455, -26.86306], [21.64336, -26.86275], [21.58393, -26.84839], [21.49867, -26.84642], [21.44947, -26.82637], [21.42663, -26.82265], [21.38084, -26.824], [21.29692, -26.84446], [21.2406, -26.84198], [21.15347, -26.86451], [21.12246, -26.86534], [20.99038, -26.83857], [20.95017, -26.81604], [20.9077, -26.80002], [20.85188, -26.80653], [20.82605, -26.81883], [20.77943, -26.84808], [20.71494, -26.87505], [20.69076, -26.89179], [19.98269, -27.07763], [19.98207, -25.52959], [19.52889, -25.51466], [19.34809, -25.27882], [18.98543, -25.01315], [18.94896, -24.28114], [18.91972, -23.54374], [18.88758, -22.30534], [19.53174, -22.34274], [19.9788, -22.34393], [19.97835, -22.00067], [19.92889, -21.59653], [19.92218, -20.95586], [19.9225, -20.21688], [19.92983, -19.47311], [19.94424, -18.72375], [20.43495, -18.7033], [20.54736, -18.68942], [20.97508, -18.68806], [20.97508, -18.31935], [21.47572, -18.2995], [22.37325, -18.13291], [22.46285, -18.53552], [22.76107, -18.93805], [23.14156, -18.62083], [23.17507, -18.60411], [23.57916, -18.46786], [23.59218, -18.4782], [23.60986, -18.47768], [23.64541, -18.466], [23.65647, -18.45825], [23.68014, -18.43148], [23.70091, -18.42797], [23.71579, -18.41908], [23.80984, -18.32172], [23.82555, -18.31707], [23.83723, -18.30581], [23.85521, -18.28007], [23.91289, -18.23573], [23.91599, -18.20121], [23.95082, -18.17765], [23.96198, -18.17786], [23.97118, -18.18385], [23.97965, -18.17186], [23.99174, -18.16339], [24.02027, -18.1516], [24.05696, -18.11905], [24.10161, -18.10882], [24.1351, -18.08546], [24.18305, -18.02944], [24.21829, -18.0126], [24.23824, -18.00991], [24.25922, -18.0126], [24.29643, -18.02624], [24.30583, -18.01942], [24.33426, -17.97156], [24.35059, -17.95606], [24.36526, -17.95079], [24.42159, -17.95647], [24.43389, -17.96722], [24.45105, -17.99895], [24.46975, -18.01445], [24.47151, -18.02996], [24.50562, -18.06034], [24.58947, -18.46483], [24.59917, -18.49824], [25.3375, -19.39243], [25.6185, -19.97185], [26.41831, -20.42103], [26.77346, -20.47779], [26.90705, -20.84177], [27.22547, -20.90574], [27.67261, -20.91371], [27.68036, -20.97965], [27.67896, -21.00073], [27.66682, -21.05375], [27.66661, -21.07122], [27.67478, -21.09013], [27.70919, -21.13447], [27.38796, -21.42309], [27.39695, -21.51146], [27.55306, -21.67132], [27.95321, -21.51047], [27.9637, -21.51047], [27.97057, -21.5144], [27.99042, -21.55191], [28.01656, -21.57289], [27.81407, -21.93737], [27.84023, -21.96395], [27.89772, -21.96696], [28.03289, -21.57786], [28.09077, -21.58127], [28.1657, -21.59522], [28.28487, -21.59687], [28.32192, -21.60349], [28.36176, -21.6163], [28.4431, -21.65578], [28.4646, -21.66033], [28.554, -21.63656], [28.58593, -21.64441], [28.6157, -21.6471], [28.6297, -21.65134], [28.66841, -21.67997], [28.71419, -21.69351], [28.86085, -21.75738], [28.89103, -21.76492], [28.95191, -21.76833], [28.98085, -21.77485], [28.99873, -21.78601], [29.03872, -21.79789], [29.05526, -21.80999], [29.05764, -21.82921], [29.01795, -21.89814], [29.01382, -21.94042], [29.02157, -21.98279], [29.04053, -22.02093], [29.03639, -22.22686], [29.01785, -22.25037], [29.01805, -22.25502], [29.00276, -22.26339], [28.96023, -22.31021], [28.96793, -22.38039], [28.96338, -22.39217], [28.95346, -22.40075], [28.93041, -22.44085], [28.91253, -22.45367], [28.86938, -22.44891], [28.84659, -22.44995], [28.83677, -22.46318], [28.83119, -22.4823], [28.81683, -22.49294], [28.73135, -22.51392], [28.659, -22.55196], [28.62386, -22.56281], [28.57756, -22.56002], [28.55984, -22.56301], [28.5385, -22.58027], [28.52248, -22.58482], [28.45938, -22.56963], [28.37685, -22.575], [28.33856, -22.58461], [28.30182, -22.60384], [28.28683, -22.61583], [28.25055, -22.65562], [28.24068, -22.66089], [28.20549, -22.66595], [28.19619, -22.67164], [28.15971, -22.71815], [28.15774, -22.73107], [28.1625, -22.75897], [28.15495, -22.77199], [28.14586, -22.77974], [28.11744, -22.78946], [28.10369, -22.81675], [28.04716, -22.8369], [28.0454, -22.84775], [28.05398, -22.86915], [28.04974, -22.89137], [28.03744, -22.91142], [28.02183, -22.92661], [28.0083, -22.93477], [27.9684, -22.951], [27.94918, -22.9539], [27.9375, -22.96382], [27.93791, -22.98666], [27.94608, -23.02903], [27.93006, -23.05704], [27.89554, -23.07947], [27.85378, -23.09559], [27.81575, -23.10469], [27.82226, -23.12298], [27.80645, -23.12835], [27.7742, -23.12515], [27.77172, -23.133], [27.77461, -23.14076], [27.78929, -23.1638], [27.7742, -23.173], [27.75363, -23.22075], [27.73916, -23.22757], [27.72573, -23.22168], [27.69844, -23.19347], [27.65876, -23.22344], [27.64713, -23.22757], [27.61917, -23.21703], [27.60801, -23.21672], [27.59922, -23.24463], [27.58041, -23.26385], [27.57308, -23.29052], [27.56331, -23.2992], [27.56936, -23.32038], [27.56367, -23.34281], [27.54889, -23.3608], [27.52884, -23.37309], [27.50724, -23.37909], [27.46569, -23.38043], [27.45267, -23.38529], [27.435, -23.40658], [27.42518, -23.41268], [27.41112, -23.40575], [27.41846, -23.39128], [27.4105, -23.38932], [27.38373, -23.39955], [27.37133, -23.41702], [27.3612, -23.4225], [27.34999, -23.39149], [27.33557, -23.40245], [27.31201, -23.43707], [27.29557, -23.45175], [27.27811, -23.46363], [27.23971, -23.48141], [27.2025, -23.49205], [27.1915, -23.50384], [27.20566, -23.52306], [27.18664, -23.5273], [27.17145, -23.51562], [27.15718, -23.5367], [27.14912, -23.5275], [27.13765, -23.52337], [27.12742, -23.52502], [27.12308, -23.53298], [27.12742, -23.54528], [27.14117, -23.5583], [27.13672, -23.57019], [27.12442, -23.56316], [27.11336, -23.5643], [27.10375, -23.57174], [27.09579, -23.58383], [27.10251, -23.58383], [27.08411, -23.59603], [27.07522, -23.61122], [27.06153, -23.6044], [27.07006, -23.65607], [27.05476, -23.66641], [27.0376, -23.66569], [27.02427, -23.64254], [27.01383, -23.6385], [27.00417, -23.64584], [26.98655, -23.68698], [26.96717, -23.71871], [26.96205, -23.73741], [26.9666, -23.75519], [26.93813, -23.80289], [26.945, -23.82325], [26.94118, -23.85022], [26.8709, -24.11584], [26.86893, -24.16038], [26.84971, -24.24813], [26.83917, -24.2656], [26.82325, -24.27883], [26.80227, -24.28968], [26.71401, -24.31593], [26.69292, -24.32658], [26.68409, -24.34146], [26.62347, -24.39944], [26.55836, -24.4382], [26.53118, -24.45866], [26.50606, -24.48884], [26.47681, -24.55995], [26.46947, -24.57142], [26.40436, -24.63281], [26.32571, -24.62237], [26.27879, -24.62847], [26.01358, -24.70454], [25.96604, -24.73358], [25.91468, -24.73182], [25.87406, -24.7434], [25.86837, -24.74815], [25.86693, -24.77265], [25.87726, -24.84572], [25.87675, -24.88603], [25.8662, -24.91817], [25.83706, -24.97915], [25.8352, -25.01635], [25.80492, -25.06483], [25.7829, -25.13138], [25.69546, -25.30998], [25.66353, -25.44], [25.60886, -25.55927], [25.58725, -25.61952], [25.45842, -25.71119], [25.38649, -25.74354], [25.17782, -25.76328], [25.05173, -25.73786], [25.01328, -25.74303], [24.96791, -25.76287], [24.90838, -25.80411], [24.8289, -25.82602], [24.79862, -25.82922], [24.73795, -25.81589], [24.66498, -25.82333], [24.62964, -25.8161], [24.42791, -26.18976]]]}}]}