{"type": "FeatureCollection", "features": [{"type": "Feature", "properties": {"name": "파쇼다", "name_en": "Fashoda (Kodok)", "category": "기타", "year": "1898", "coord_source": "실제 위치", "map_lon": 32.78766, "map_lat": 9.49914, "legend": "파쇼다 사건", "map_title": "제국주의 열강의 아프리카 분할(1913년경)", "source": "미래엔 세계사 교과서 3권 156쪽", "volume": 3, "page": 156}, "geometry": {"type": "Point", "coordinates": [32.07, 9.89]}}, {"type": "Feature", "properties": {"name": "카이로", "name_en": "Cairo", "category": "수도", "year": "", "coord_source": "실제 위치", "map_lon": 31.24005, "map_lat": 30.03991, "legend": "카이로", "map_title": "제국주의 열강의 아프리카 분할(1913년경)", "source": "미래엔 세계사 교과서 3권 156쪽", "volume": 3, "page": 156}, "geometry": {"type": "Point", "coordinates": [31.24, 30.04]}}, {"type": "Feature", "properties": {"name": "케이프타운", "name_en": "Cape Town", "category": "도시", "year": "", "coord_source": "실제 위치", "map_lon": 18.42054, "map_lat": -33.93011, "legend": "케이프타운", "map_title": "제국주의 열강의 아프리카 분할(1913년경)", "source": "미래엔 세계사 교과서 3권 156쪽", "volume": 3, "page": 156}, "geometry": {"type": "Point", "coordinates": [18.42, -33.93]}}]}