{"type": "FeatureCollection", "features": [{"type": "Feature", "properties": {"name": "아리아인의 정착지(기원전 1500년경)", "name_en": "Aryan settlement c.1500 BCE", "period": "기원전 1500년경", "kind": "기타", "legend": "아리아인의 정착지 기원전 1500년경", "map_title": "인도 문명과 아리아인의 이동", "source": "미래엔 세계사 교과서 1권 18쪽", "volume": 1, "page": 18, "coast_snap": "Natural Earth 10m 해안선에 맞춤", "border_snap": "현대 국경(Natural Earth 10m)에 맞춘 구간 약 94 km"}, "geometry": {"type": "Polygon", "coordinates": [[[78.05061, 31.62485], [78.12726, 31.41166], [78.17892, 31.19647], [78.21121, 30.83213], [78.17639, 30.47944], [78.07761, 30.14902], [77.91783, 29.85119], [77.69989, 29.59592], [77.42641, 29.39297], [77.09983, 29.25191], [76.7224, 29.18227], [76.27766, 29.19017], [75.82336, 29.26464], [75.3626, 29.3811], [74.89895, 29.51474], [74.43642, 29.64013], [73.97936, 29.73113], [73.53255, 29.76063], [73.10109, 29.70038], [73.08294, 29.69427], [72.8834, 29.62684], [72.66961, 29.53315], [72.24853, 29.33121], [72.03902, 29.24614], [71.82911, 29.18715], [71.61827, 29.16585], [71.40606, 29.19376], [71.22775, 29.26588], [71.07622, 29.37664], [70.95046, 29.51958], [70.84954, 29.6881], [70.7727, 29.87546], [70.71947, 30.07496], [70.68955, 30.27991], [70.68287, 30.48367], [70.69501, 30.68372], [70.71889, 30.88204], [70.85025, 31.66137], [70.8711, 31.85407], [70.8785, 32.04668], [70.86783, 32.25278], [70.83985, 32.45602], [70.79794, 32.65707], [70.74553, 32.85651], [70.5015, 33.64809], [70.45039, 33.84897], [70.41095, 34.05369], [70.38655, 34.25986], [70.38061, 34.46509], [70.39659, 34.66695], [70.43796, 34.86296], [70.5082, 35.05054], [70.61078, 35.2271], [70.79962, 35.43567], [71.03277, 35.59778], [71.3014, 35.71475], [71.59655, 35.78813], [71.9092, 35.81966], [72.23032, 35.81132], [72.55083, 35.76531], [72.86168, 35.68413], [73.2327, 35.54997], [73.60063, 35.38824], [73.96096, 35.201], [74.29259, 35.0005], [74.33228, 34.77224], [74.34888, 34.77343], [74.41213, 34.76449], [74.66493, 34.68832], [75.01778, 34.62972], [75.03802, 34.63058], [75.06552, 34.40245], [75.23632, 34.24276], [75.49139, 33.96347], [75.75048, 33.69615], [76.04199, 33.45742], [76.35426, 33.23632], [76.99436, 32.80513], [77.29888, 32.57482], [77.57766, 32.32161], [77.81936, 32.03587], [77.88715, 31.93577], [77.94823, 31.8337], [78.00269, 31.72996], [78.05061, 31.62485]]]}}]}