{"type": "FeatureCollection", "features": [{"type": "Feature", "properties": {"name": "인더스 문명", "name_en": "Indus Valley Civilization", "period": "기원전 2500–1800년경", "kind": "문명", "legend": "인더스 문명", "map_title": "인도 문명과 아리아인의 이동", "source": "미래엔 세계사 교과서 1권 18쪽", "volume": 1, "page": 18, "coast_snap": "Natural Earth 10m 해안선에 맞춤", "border_snap": "현대 국경(Natural Earth 10m)에 맞춘 구간 약 610 km"}, "geometry": {"type": "MultiPolygon", "coordinates": [[[[67.39341, 24.02807], [67.3755, 24.06273], [67.39039, 24.04926], [67.41326, 24.04877], [67.45802, 24.06273], [67.48527, 24.04849], [67.46518, 24.0406], [67.45395, 24.01341], [67.42717, 24.00757], [67.40944, 24.01351], [67.39341, 24.02807]]], [[[65.33022, 25.46842], [65.34776, 25.5371], [65.41757, 25.68175], [65.46051, 25.7476], [65.53821, 25.74078], [65.63224, 25.72222], [65.74931, 25.76421], [65.84509, 25.77932], [65.89401, 25.82931], [65.93713, 25.86462], [65.97818, 25.84643], [65.98894, 25.84845], [66.03666, 25.91267], [66.16123, 26.06191], [66.29065, 26.20264], [66.7399, 26.64843], [66.90256, 26.81826], [67.06192, 27.00184], [67.27972, 27.30196], [67.45919, 27.62097], [67.59889, 27.95363], [67.70536, 28.29408], [67.78973, 28.63939], [67.93359, 29.33306], [68.01196, 29.67473], [68.21456, 30.32994], [68.48495, 30.95251], [68.72933, 31.37852], [68.80384, 31.60257], [68.84353, 31.6065], [68.90699, 31.6343], [68.94099, 31.64365], [68.97727, 31.64148], [69.00404, 31.65109], [69.04011, 31.67311], [69.07163, 31.69786], [69.08475, 31.71579], [69.10005, 31.72401], [69.11431, 31.73775], [69.22376, 31.88193], [69.25095, 31.90705], [69.29885, 31.93769], [69.30479, 31.94694], [69.30216, 31.95991], [69.27063, 32.03598], [69.25105, 32.13065], [69.25188, 32.15225], [69.25952, 32.19452], [69.25999, 32.23682], [69.2681, 32.30134], [69.26443, 32.32237], [69.23854, 32.37828], [69.228, 32.4213], [69.23286, 32.46267], [69.25157, 32.50055], [69.28195, 32.5328], [69.3021, 32.54378], [69.34355, 32.55605], [69.36122, 32.56848], [69.41393, 32.63548], [69.42602, 32.65509], [69.67246, 32.56603], [70.18129, 33.00145], [70.73891, 33.37663], [71.34046, 33.687], [71.91123, 33.91029], [72.59391, 34.11023], [73.30898, 34.24533], [73.5209, 34.26312], [73.78271, 34.34682], [73.80421, 34.32749], [73.8533, 34.30742], [73.87904, 34.30429], [73.90746, 34.3068], [73.93774, 34.30421], [73.95438, 34.28719], [73.9767, 34.23755], [73.99055, 34.21851], [74.26421, 34.29869], [74.79693, 34.27847], [75.52086, 34.14912], [76.19771, 33.90652], [76.80353, 33.53962], [77.08512, 33.29237], [77.33051, 33.01457], [77.53436, 32.71477], [77.69225, 32.39988], [77.79797, 32.08025], [77.84698, 31.76217], [77.83361, 31.45499], [77.75254, 31.16629], [77.59531, 30.89314], [77.38073, 30.66505], [77.1179, 30.47554], [76.81629, 30.31831], [76.48541, 30.18693], [76.13458, 30.07497], [75.77363, 29.97638], [74.76138, 29.72547], [74.47842, 29.65077], [74.20934, 29.5744], [74.05576, 29.53052], [73.76832, 29.43225], [73.3772, 29.28818], [73.14065, 29.38022], [73.05087, 29.22822], [72.98865, 29.15463], [72.96291, 29.11683], [72.93036, 29.04768], [72.91816, 29.03285], [72.90152, 29.02262], [72.38218, 28.78401], [72.35458, 28.76719], [72.28027, 28.68717], [72.2565, 28.64559], [72.19779, 28.44488], [72.17764, 28.39705], [72.14994, 28.35377], [72.11098, 28.31763], [71.9882, 28.2281], [71.9083, 28.13557], [71.89693, 28.11555], [71.64546, 28.15858], [71.60429, 28.11975], [71.6631, 27.89638], [71.56073, 27.86853], [71.47712, 27.86244], [71.39779, 27.86838], [71.31144, 27.86171], [71.22633, 27.84536], [71.15068, 27.82241], [71.07934, 27.79092], [71.17917, 27.57723], [71.07096, 27.42571], [70.78967, 26.74773], [70.73507, 26.474], [70.72016, 26.20384], [70.74391, 25.94043], [70.75201, 25.90654], [70.63231, 25.70138], [70.65386, 25.67446], [70.65747, 25.63363], [70.64662, 25.43137], [70.65448, 25.39659], [70.67039, 25.37556], [70.71049, 25.33587], [70.7231, 25.2873], [70.73489, 25.26735], [70.76837, 25.23309], [70.83142, 25.18332], [70.84857, 25.16332], [70.85989, 25.13945], [70.88759, 25.02549], [71.13851, 25.05968], [71.1795, 25.00313], [71.35862, 24.8096], [71.55753, 24.63712], [71.77328, 24.48388], [72.00655, 24.34751], [72.25337, 24.22804], [72.51251, 24.1227], [72.78094, 24.02853], [73.05634, 23.94164], [73.54338, 23.79532], [73.75069, 23.72797], [73.95254, 23.65386], [74.1458, 23.57075], [74.32804, 23.47645], [74.49551, 23.36986], [74.6468, 23.24871], [74.77919, 23.11139], [74.92299, 22.89697], [75.018, 22.66134], [75.06642, 22.40952], [75.07051, 22.14596], [75.0329, 21.87591], [74.95642, 21.6035], [74.84417, 21.33318], [74.6995, 21.06945], [74.52811, 20.81555], [74.33527, 20.57056], [74.12603, 20.33589], [73.90454, 20.11232], [73.67613, 19.9032], [73.4467, 19.71349], [73.25908, 19.57365], [73.25983, 19.55248], [73.33293, 19.4758], [73.37275, 19.41259], [73.41106, 19.32695], [73.40211, 19.29974], [73.36951, 19.23563], [73.34854, 19.20635], [73.29847, 19.15465], [73.03314, 18.96087], [72.96994, 18.92285], [72.8982, 18.89698], [72.91261, 18.92347], [72.92807, 18.91136], [72.93458, 18.9208], [72.93679, 18.94741], [72.94923, 18.95148], [72.97722, 18.94843], [72.98829, 18.96442], [72.95364, 18.96442], [72.95363, 18.97125], [73.04664, 18.99518], [73.05681, 19.01533], [73.03981, 19.01752], [72.9883, 18.99861], [72.98358, 19.01044], [72.9878, 19.03693], [72.98098, 19.04637], [72.99187, 19.06721], [72.97381, 19.07857], [72.96731, 19.09101], [72.97478, 19.16307], [72.9673, 19.16307], [72.95003, 19.12792], [72.93556, 19.11506], [72.93392, 19.08031], [72.92693, 19.06684], [72.94336, 19.05512], [72.93425, 19.03409], [72.89146, 18.99179], [72.88526, 19.02586], [72.86931, 19.01142], [72.83627, 18.95913], [72.82129, 18.90331], [72.81251, 18.89746], [72.80276, 18.90982], [72.80738, 18.94282], [72.80274, 18.95759], [72.79591, 18.95759], [72.77541, 18.93653], [72.77037, 18.94819], [72.80242, 18.99966], [72.80276, 19.04017], [72.81707, 19.0327], [72.82423, 19.05353], [72.8213, 19.06318], [72.80959, 19.06685], [72.82309, 19.10847], [72.80959, 19.14633], [72.82309, 19.16926], [72.81804, 19.17536], [72.81121, 19.17552], [72.79216, 19.15047], [72.78493, 19.15039], [72.7816, 19.15965], [72.8025, 19.21162], [72.83009, 19.25243], [72.81512, 19.25365], [72.7894, 19.21735], [72.77541, 19.20468], [72.77226, 19.26545], [72.77565, 19.29902], [72.78542, 19.3139], [72.83937, 19.31907], [72.86704, 19.3168], [72.88551, 19.29605], [72.93035, 19.28657], [72.95973, 19.29483], [72.97267, 19.29369], [72.98829, 19.27912], [73.01051, 19.22431], [73.02662, 19.20551], [73.04965, 19.21772], [73.03004, 19.22773], [73.02914, 19.25935], [72.9878, 19.30069], [72.97096, 19.30703], [72.91676, 19.30337], [72.89894, 19.30703], [72.85532, 19.3395], [72.83692, 19.34805], [72.81853, 19.33027], [72.80212, 19.33193], [72.78762, 19.34521], [72.76357, 19.38], [72.7482, 19.44456], [72.74685, 19.46796], [72.75442, 19.48175], [72.87916, 19.53237], [72.8567, 19.54133], [72.81593, 19.52852], [72.79591, 19.52681], [72.78127, 19.53657], [72.77068, 19.56615], [72.74195, 19.5808], [72.73455, 19.5808], [72.74072, 19.56074], [72.73455, 19.54662], [72.75476, 19.52721], [72.75561, 19.51936], [72.74919, 19.51261], [72.74155, 19.51603], [72.72252, 19.53629], [72.7108, 19.58759], [72.71803, 19.60668], [72.70965, 19.64997], [72.68671, 19.72478], [72.69995, 19.71417], [72.70777, 19.69746], [72.72641, 19.7058], [72.71405, 19.74583], [72.7173, 19.75152], [72.73129, 19.75458], [72.73276, 19.77973], [72.72828, 19.79365], [72.69011, 19.74898], [72.67792, 19.74658], [72.67986, 19.80048], [72.65009, 19.84199], [72.6492, 19.85178], [72.66424, 19.88158], [72.66522, 19.95294], [72.68434, 19.96402], [72.70338, 19.99763], [72.70777, 20.01276], [72.71026, 20.08275], [72.72828, 20.12946], [72.73765, 20.18427], [72.75229, 20.20376], [72.75563, 20.21516], [72.7444, 20.2194], [72.74197, 20.22505], [72.74823, 20.28034], [72.77752, 20.33006], [72.7816, 20.35227], [72.79819, 20.35932], [72.81707, 20.37592], [72.82945, 20.43793], [72.87916, 20.51244], [72.88648, 20.53156], [72.89145, 20.57514], [72.88528, 20.61921], [72.88845, 20.62848], [72.9026, 20.64191], [72.90943, 20.69868], [72.90797, 20.71833], [72.89895, 20.73216], [72.94028, 20.75943], [72.94679, 20.75947], [72.945, 20.77001], [72.91945, 20.78743], [72.92498, 20.81061], [72.91944, 20.82152], [72.90024, 20.79915], [72.88576, 20.80712], [72.88015, 20.8299], [72.88844, 20.85196], [72.9004, 20.86811], [72.89381, 20.87006], [72.8812, 20.86567], [72.83695, 20.83587], [72.84588, 20.85179], [72.85427, 20.88715], [72.86492, 20.89728], [72.8367, 20.92992], [72.85646, 20.94797], [72.88648, 20.9621], [72.88844, 20.98261], [72.8327, 20.97237], [72.81609, 20.99901], [72.78742, 21.00701], [72.77199, 21.02388], [72.76687, 21.03855], [72.78395, 21.04042], [72.82309, 21.03384], [72.84498, 21.03832], [72.84986, 21.048], [72.80958, 21.13003], [72.75563, 21.10958], [72.74195, 21.12324], [72.73561, 21.11074], [72.73454, 21.09248], [72.70038, 21.07479], [72.70583, 21.10635], [72.72869, 21.1481], [72.71404, 21.16413], [72.70655, 21.15771], [72.6867, 21.15815], [72.67644, 21.15363], [72.6727, 21.14574], [72.67123, 21.09981], [72.6587, 21.0976], [72.63787, 21.08541], [72.62966, 21.08797], [72.61501, 21.10587], [72.6155, 21.11981], [72.63039, 21.13596], [72.71177, 21.19402], [72.72104, 21.1988], [72.73455, 21.19892], [72.72364, 21.20913], [72.68768, 21.22046], [72.67319, 21.23908], [72.64699, 21.25361], [72.64576, 21.27338], [72.61827, 21.25308], [72.60214, 21.27744], [72.59791, 21.30756], [72.58678, 21.34121], [72.59054, 21.34855], [72.63852, 21.35716], [72.64576, 21.36278], [72.63868, 21.37124], [72.59409, 21.36278], [72.57912, 21.36694], [72.56765, 21.37642], [72.56464, 21.3858], [72.6351, 21.40746], [72.72828, 21.46581], [72.74708, 21.45287], [72.75262, 21.46357], [72.74855, 21.47964], [72.73829, 21.48286], [72.66505, 21.45722], [72.61247, 21.42187], [72.58369, 21.41744], [72.61965, 21.48736], [72.65105, 21.50703], [72.69033, 21.54079], [72.70395, 21.5484], [72.72682, 21.55317], [72.7732, 21.58051], [72.78907, 21.59553], [72.8104, 21.63507], [72.8229, 21.64382], [72.87159, 21.63654], [72.88966, 21.64053], [72.93556, 21.65835], [72.96534, 21.67878], [73.02247, 21.69855], [73.08497, 21.72968], [73.11695, 21.73725], [73.13201, 21.7578], [73.12615, 21.76683], [73.11883, 21.76472], [73.084, 21.74641], [73.04664, 21.73334], [73.02247, 21.71601], [72.99147, 21.70844], [72.95021, 21.68915], [72.92716, 21.685], [72.85816, 21.69497], [72.81918, 21.67505], [72.79811, 21.67354], [72.73325, 21.68749], [72.67644, 21.67814], [72.61606, 21.68545], [72.55008, 21.66678], [72.53469, 21.67293], [72.52851, 21.69514], [72.55633, 21.77432], [72.56691, 21.84934], [72.58546, 21.85887], [72.61859, 21.92525], [72.63405, 21.93748], [72.65189, 21.94102], [72.69012, 21.93879], [72.70232, 21.94758], [72.71404, 21.98298], [72.73455, 21.98656], [72.73455, 21.99404], [72.70777, 21.99404], [72.70094, 21.98892], [72.69354, 21.97233], [72.62306, 21.96662], [72.6027, 21.9436], [72.58205, 21.92835], [72.54274, 21.91085], [72.53324, 21.92053], [72.50173, 21.97602], [72.52223, 22.05427], [72.51955, 22.08844], [72.53004, 22.10749], [72.536, 22.14078], [72.54229, 22.15689], [72.57562, 22.19464], [72.59051, 22.20502], [72.61389, 22.21168], [72.63445, 22.21039], [72.6819, 22.18159], [72.70802, 22.1857], [72.72925, 22.17743], [72.74822, 22.16405], [72.79022, 22.21723], [72.81227, 22.23411], [72.84742, 22.24041], [72.89723, 22.21304], [72.91603, 22.22309], [72.92213, 22.23652], [72.9227, 22.25458], [72.91749, 22.27143], [72.90577, 22.2814], [72.89947, 22.26909], [72.88608, 22.26241], [72.86974, 22.2624], [72.83863, 22.27656], [72.81821, 22.27342], [72.7566, 22.24373], [72.72658, 22.24894], [72.65943, 22.27391], [72.62501, 22.2714], [72.60662, 22.28384], [72.57374, 22.28823], [72.55307, 22.28246], [72.50171, 22.24043], [72.46616, 22.23258], [72.45705, 22.23673], [72.45486, 22.2453], [72.46697, 22.25584], [72.46388, 22.26398], [72.44874, 22.26683], [72.41375, 22.24633], [72.39186, 22.25349], [72.38108, 22.28975], [72.38039, 22.3124], [72.40496, 22.33295], [72.40805, 22.35346], [72.39723, 22.36677], [72.37135, 22.3559], [72.36101, 22.34345], [72.3405, 22.30321], [72.32829, 22.26074], [72.30909, 22.25724], [72.27516, 22.26033], [72.2632, 22.27637], [72.26466, 22.29523], [72.24041, 22.30191], [72.20851, 22.30044], [72.20094, 22.29145], [72.20631, 22.27391], [72.16179, 22.28095], [72.14877, 22.2779], [72.16603, 22.26032], [72.19068, 22.25129], [72.20924, 22.25943], [72.24041, 22.28824], [72.2461, 22.27558], [72.23414, 22.24356], [72.23911, 22.23892], [72.26832, 22.22675], [72.30648, 22.22955], [72.31722, 22.18488], [72.30762, 22.07901], [72.29566, 22.05118], [72.29176, 22.05341], [72.27515, 22.02754], [72.25765, 22.01216], [72.23732, 22.00703], [72.22096, 22.01097], [72.21648, 22.0078], [72.21436, 21.99405], [72.20631, 21.99405], [72.19988, 22.00699], [72.18636, 21.98656], [72.1731, 21.97566], [72.16343, 21.97322], [72.1517, 21.99388], [72.13429, 22.00458], [72.11378, 22.01057], [72.09702, 22.00703], [72.12809, 21.98354], [72.12484, 21.97233], [72.11492, 21.9694], [72.07651, 21.97972], [72.10449, 21.95922], [72.10205, 21.94506], [72.0962, 21.94303], [72.07325, 21.9545], [72.05519, 21.95352], [72.03842, 21.94758], [72.02866, 21.93879], [72.1045, 21.91767], [72.15647, 21.92584], [72.14536, 21.91767], [72.14536, 21.91083], [72.15918, 21.9046], [72.15235, 21.89785], [72.16976, 21.89044], [72.16, 21.86591], [72.16943, 21.84138], [72.16188, 21.83919], [72.13088, 21.84627], [72.09848, 21.88052], [72.07765, 21.89444], [72.05795, 21.89875], [72.04933, 21.88044], [72.08643, 21.86562], [72.10449, 21.83577], [72.08676, 21.83028], [72.0631, 21.83433], [72.00416, 21.85773], [71.99732, 21.85493], [71.99464, 21.8395], [71.9961, 21.79951], [72.00148, 21.78791], [72.02181, 21.80095], [72.02182, 21.77432], [72.0739, 21.78871], [72.1032, 21.77521], [72.11744, 21.7766], [72.16624, 21.79381], [72.17106, 21.79095], [72.17701, 21.76667], [72.1958, 21.75779], [72.20239, 21.74811], [72.21437, 21.71284], [72.22381, 21.70059], [72.24041, 21.69172], [72.27173, 21.69089], [72.27833, 21.67194], [72.29565, 21.65387], [72.29883, 21.62629], [72.29565, 21.61604], [72.27516, 21.59553], [72.24219, 21.48078], [72.22004, 21.44496], [72.16684, 21.39208], [72.15144, 21.35998], [72.1045, 21.31501], [72.11149, 21.29609], [72.10775, 21.28999], [72.09702, 21.28766], [72.10254, 21.2744], [72.09083, 21.25292], [72.10449, 21.22215], [72.10474, 21.20507], [72.09083, 21.19148], [72.06666, 21.18134], [72.05502, 21.16837], [71.99073, 21.13639], [71.92628, 21.13003], [71.80616, 21.06208], [71.76294, 21.03231], [71.74366, 21.02759], [71.71762, 21.03205], [71.68335, 21.01147], [71.63998, 20.99681], [71.5835, 20.95825], [71.54959, 20.95125], [71.56935, 20.97919], [71.55112, 20.97358], [71.49342, 20.92915], [71.48439, 20.91714], [71.48071, 20.90038], [71.46224, 20.88533], [71.37842, 20.85954], [71.31861, 20.84931], [71.14063, 20.7657], [71.11695, 20.76691], [71.11011, 20.75948], [71.09547, 20.76374], [71.06234, 20.73897], [71.02418, 20.74453], [71.00766, 20.7416], [71.00082, 20.72216], [70.98243, 20.71016], [70.8399, 20.7019], [70.80161, 20.70906], [70.77459, 20.72736], [70.74025, 20.7185], [70.69858, 20.74641], [70.54152, 20.80786], [70.48414, 20.84394], [70.45143, 20.85591], [70.39877, 20.90351], [70.33669, 20.92708], [70.29998, 20.95856], [70.26353, 20.98042], [70.15219, 21.07852], [70.05446, 21.15317], [69.95826, 21.27334], [69.91146, 21.3152], [69.84518, 21.38938], [69.81472, 21.43367], [69.8086, 21.46581], [69.78852, 21.46943], [69.75656, 21.49026], [69.62973, 21.61603], [69.56806, 21.65028], [69.51979, 21.70478], [69.49937, 21.72021], [69.47853, 21.75263], [69.44631, 21.76631], [69.42728, 21.7814], [69.39765, 21.81545], [69.39179, 21.83218], [69.39519, 21.86131], [69.39088, 21.8767], [69.36761, 21.85605], [69.35548, 21.85319], [69.3362, 21.86246], [69.24391, 21.94595], [69.19858, 21.97958], [69.15065, 22.0412], [69.10305, 22.07637], [69.09205, 22.0996], [69.04819, 22.1579], [68.99416, 22.20393], [68.98048, 22.23554], [68.9446, 22.29507], [68.94403, 22.31826], [68.96062, 22.34951], [68.96771, 22.38743], [68.9831, 22.41914], [69.0075, 22.44317], [69.07358, 22.48187], [69.08138, 22.48053], [69.0852, 22.47288], [69.08227, 22.45955], [69.07447, 22.44946], [69.056, 22.44184], [69.04819, 22.43159], [69.07179, 22.39948], [69.09742, 22.39887], [69.12273, 22.41106], [69.14698, 22.40485], [69.17856, 22.42763], [69.18824, 22.42641], [69.20215, 22.41486], [69.20573, 22.39867], [69.18214, 22.36644], [69.1853, 22.34968], [69.16969, 22.32795], [69.17384, 22.30829], [69.19044, 22.2923], [69.21208, 22.28139], [69.21209, 22.27391], [69.28647, 22.28461], [69.3357, 22.30614], [69.34645, 22.32489], [69.35988, 22.32916], [69.4354, 22.33039], [69.47967, 22.34223], [69.5027, 22.37225], [69.51987, 22.37763], [69.52564, 22.39208], [69.51373, 22.43135], [69.51597, 22.44814], [69.53077, 22.44611], [69.54785, 22.45208], [69.56167, 22.39182], [69.5547, 22.37763], [69.61606, 22.3559], [69.61989, 22.37104], [69.62973, 22.38376], [69.64039, 22.37596], [69.66945, 22.40924], [69.69939, 22.40428], [69.73341, 22.48003], [69.79493, 22.41861], [69.80698, 22.42097], [69.82229, 22.45209], [69.83327, 22.46381], [69.86378, 22.46577], [69.88478, 22.47358], [69.97299, 22.54144], [69.99627, 22.54145], [70.02085, 22.55511], [70.05882, 22.55839], [70.1447, 22.5478], [70.17848, 22.56196], [70.2073, 22.61497], [70.23487, 22.64887], [70.2674, 22.70615], [70.3191, 22.77827], [70.32325, 22.78767], [70.32253, 22.82266], [70.34295, 22.84317], [70.37527, 22.90265], [70.40463, 22.9195], [70.43687, 22.95489], [70.45338, 22.96661], [70.48634, 22.96369], [70.50473, 22.97956], [70.52719, 23.02359], [70.52849, 23.04706], [70.5149, 23.08955], [70.48422, 23.12214], [70.46713, 23.12971], [70.45112, 23.10583], [70.41066, 23.086], [70.39877, 23.06904], [70.40105, 23.0454], [70.41097, 23.02318], [70.40187, 22.99925], [70.40161, 22.95385], [70.39242, 22.94087], [70.36354, 22.93871], [70.34669, 22.93131], [70.32569, 22.94501], [70.30348, 22.93815], [70.29176, 22.95303], [70.2693, 22.95857], [70.24968, 22.98745], [70.23308, 23.00015], [70.23193, 22.97492], [70.22201, 22.95918], [70.20411, 22.95223], [70.17848, 22.95303], [70.1631, 22.94897], [70.14747, 22.96605], [70.12906, 22.96934], [70.12501, 22.97598], [70.13063, 22.99396], [70.10955, 22.95917], [70.13232, 22.94106], [70.13541, 22.93001], [70.06178, 22.9182], [69.99691, 22.8938], [69.94068, 22.88614], [69.88429, 22.86784], [69.83318, 22.85847], [69.78012, 22.82746], [69.7601, 22.80834], [69.72884, 22.75484], [69.71583, 22.74691], [69.65382, 22.76048], [69.58571, 22.76119], [69.55698, 22.77851], [69.4998, 22.78175], [69.47218, 22.79466], [69.37257, 22.81901], [69.33814, 22.83308], [69.23878, 22.84196], [69.20192, 22.85225], [69.13543, 22.88848], [69.03989, 22.95051], [68.86623, 23.01997], [68.65407, 23.15779], [68.64967, 23.18085], [68.62258, 23.19156], [68.59989, 23.22525], [68.59574, 23.24034], [68.60939, 23.22671], [68.62013, 23.24543], [68.62306, 23.26765], [68.60531, 23.2596], [68.57781, 23.25528], [68.55226, 23.25972], [68.54104, 23.27823], [68.56105, 23.3161], [68.60694, 23.32559], [68.59205, 23.34007], [68.57106, 23.34639], [68.56105, 23.36392], [68.54102, 23.35701], [68.52057, 23.36937], [68.51511, 23.37725], [68.51516, 23.39931], [68.52955, 23.41193], [68.54103, 23.41169], [68.53639, 23.42133], [68.53012, 23.42569], [68.52215, 23.42475], [68.51321, 23.41853], [68.50148, 23.42329], [68.49048, 23.40934], [68.47535, 23.40486], [68.46259, 23.40913], [68.45884, 23.41983], [68.4655, 23.44579], [68.44044, 23.43428], [68.43093, 23.4366], [68.42369, 23.44579], [68.44744, 23.48745], [68.46562, 23.50529], [68.48585, 23.51411], [68.48129, 23.52513], [68.46803, 23.51984], [68.45867, 23.52147], [68.43735, 23.54881], [68.44744, 23.51634], [68.44695, 23.503], [68.43116, 23.49361], [68.41164, 23.49471], [68.40611, 23.50874], [68.41082, 23.54881], [68.40497, 23.5976], [68.40888, 23.62132], [68.4275, 23.6314], [68.47153, 23.61864], [68.49147, 23.61884], [68.49269, 23.6376], [68.48618, 23.64142], [68.46877, 23.64082], [68.46552, 23.65526], [68.46942, 23.65924], [68.50473, 23.67421], [68.53354, 23.67919], [68.58365, 23.7354], [68.60174, 23.74867], [68.63787, 23.76154], [68.65457, 23.79905], [68.67075, 23.81573], [68.7256, 23.81892], [68.74513, 23.83307], [68.76881, 23.84113], [68.82162, 23.8784], [68.80567, 23.88443], [68.78004, 23.8741], [68.76694, 23.8784], [68.74024, 23.85347], [68.71778, 23.84102], [68.63347, 23.83308], [68.62306, 23.82441], [68.59868, 23.78177], [68.5547, 23.76854], [68.51001, 23.7441], [68.47283, 23.73749], [68.42774, 23.7143], [68.34197, 23.62397], [68.35156, 23.61782], [68.34888, 23.60342], [68.32732, 23.58691], [68.31764, 23.58614], [68.29412, 23.5904], [68.23081, 23.58809], [68.18161, 23.59404], [68.1574, 23.60082], [68.14342, 23.6127], [68.15009, 23.63141], [68.17433, 23.63142], [68.18426, 23.65192], [68.19809, 23.65908], [68.20932, 23.66273], [68.22006, 23.65924], [68.23268, 23.64501], [68.24514, 23.65913], [68.27589, 23.66584], [68.28045, 23.68598], [68.25896, 23.67471], [68.24101, 23.67402], [68.20876, 23.69624], [68.1975, 23.71479], [68.19776, 23.77481], [68.16815, 23.74748], [68.16376, 23.75772], [68.16603, 23.77318], [68.17563, 23.79825], [68.18312, 23.84345], [68.15748, 23.9051], [68.15748, 23.86416], [68.17058, 23.83991], [68.14332, 23.76114], [68.14422, 23.74315], [68.15747, 23.69624], [68.1491, 23.69454], [68.10222, 23.73383], [68.09888, 23.70931], [68.08172, 23.7087], [68.06277, 23.72314], [68.05397, 23.74392], [68.07439, 23.76484], [68.07326, 23.78343], [68.08173, 23.80564], [68.10222, 23.80952], [68.10222, 23.81574], [68.07269, 23.84169], [68.05943, 23.86189], [68.0539, 23.88467], [68.06373, 23.92316], [68.0477, 23.92122], [68.01352, 23.93928], [68.04151, 23.85224], [68.05387, 23.82941], [68.02455, 23.7748], [68.01352, 23.76855], [67.99415, 23.81118], [67.97193, 23.80208], [67.95086, 23.80891], [67.94167, 23.81587], [67.93425, 23.83299], [67.90993, 23.83626], [67.90464, 23.84626], [67.90594, 23.85928], [67.89991, 23.86758], [67.89194, 23.86957], [67.86891, 23.85051], [67.86329, 23.90282], [67.85523, 23.91193], [67.83903, 23.82339], [67.83171, 23.80953], [67.7735, 23.82103], [67.7186, 23.8437], [67.74106, 23.82307], [67.74365, 23.80879], [67.73226, 23.79524], [67.71567, 23.79171], [67.63161, 23.80346], [67.63072, 23.82477], [67.64291, 23.85049], [67.65105, 23.90705], [67.65659, 23.91938], [67.6504, 23.93305], [67.63803, 23.91592], [67.63738, 23.87425], [67.62924, 23.85668], [67.61451, 23.85009], [67.59963, 23.85424], [67.58952, 23.86634], [67.58839, 23.88467], [67.57455, 23.87178], [67.54664, 23.89826], [67.53256, 23.89916], [67.53012, 23.89126], [67.54661, 23.87101], [67.49106, 23.88313], [67.47855, 23.8915], [67.50262, 23.89289], [67.51254, 23.89826], [67.54054, 23.93928], [67.50904, 23.92326], [67.49888, 23.92561], [67.49696, 23.93587], [67.50636, 23.97403], [67.4512, 23.9877], [67.46811, 24.02196], [67.4782, 24.03242], [67.4922, 24.02802], [67.51987, 24.04507], [67.5298, 24.05492], [67.53305, 24.07026], [67.50978, 24.05207], [67.48911, 24.0541], [67.44068, 24.07026], [67.38356, 24.0668], [67.35402, 24.07088], [67.34133, 24.08638], [67.33709, 24.11896], [67.29565, 24.19903], [67.29233, 24.26187], [67.27916, 24.28124], [67.29282, 24.30297], [67.28599, 24.32957], [67.30592, 24.34284], [67.33644, 24.34642], [67.36248, 24.34394], [67.32537, 24.35761], [67.28297, 24.35762], [67.27167, 24.36909], [67.27362, 24.39509], [67.28663, 24.43952], [67.25881, 24.41911], [67.25685, 24.44497], [67.24684, 24.46796], [67.21096, 24.50845], [67.2308, 24.52509], [67.22674, 24.53238], [67.20412, 24.53511], [67.19471, 24.54711], [67.18362, 24.5903], [67.21811, 24.58242], [67.25262, 24.59032], [67.209, 24.61376], [67.19044, 24.61766], [67.15992, 24.61226], [67.15212, 24.61572], [67.1496, 24.63508], [67.15693, 24.66266], [67.1754, 24.68851], [67.20011, 24.71074], [67.25294, 24.74038], [67.25554, 24.74799], [67.23268, 24.77074], [67.17628, 24.75776], [67.16734, 24.76017], [67.15602, 24.79157], [67.13966, 24.80329], [67.09995, 24.79708], [67.08123, 24.80329], [67.07374, 24.7958], [67.08251, 24.77417], [67.06374, 24.7817], [67.02296, 24.81004], [66.98732, 24.82222], [66.9651, 24.84357], [66.95769, 24.84357], [66.95786, 24.82543], [66.96508, 24.81006], [66.94118, 24.81258], [66.88209, 24.85102], [66.85377, 24.85224], [66.8025, 24.83956], [66.77963, 24.85102], [66.71632, 24.84154], [66.6797, 24.83056], [66.65416, 24.83919], [66.65691, 24.85888], [66.67702, 24.87953], [66.70444, 24.89203], [66.70444, 24.89887], [66.68134, 24.91056], [66.68134, 24.94888], [66.69703, 25.02546], [66.69961, 25.08548], [66.71345, 25.12057], [66.73227, 25.14326], [66.73797, 25.15949], [66.73715, 25.1811], [66.72146, 25.2126], [66.71754, 25.23119], [66.71022, 25.23924], [66.67408, 25.26903], [66.64805, 25.2834], [66.59522, 25.33023], [66.56073, 25.34968], [66.54788, 25.36563], [66.55373, 25.38543], [66.57928, 25.37938], [66.59116, 25.3996], [66.58709, 25.42622], [66.56423, 25.43945], [66.55056, 25.4571], [66.53102, 25.51813], [66.51271, 25.50838], [66.50587, 25.52204], [66.49285, 25.51806], [66.47788, 25.5493], [66.44411, 25.58251], [66.43702, 25.59772], [66.41212, 25.59057], [66.38771, 25.59245], [66.37258, 25.60391], [66.3755, 25.62568], [66.3587, 25.61452], [66.33855, 25.60811], [66.30323, 25.60458], [66.25815, 25.61201], [66.23975, 25.59993], [66.20395, 25.59321], [66.18344, 25.58161], [66.16717, 25.56607], [66.13737, 25.51383], [66.10963, 25.49543], [66.09441, 25.47484], [66.1211, 25.47517], [66.21306, 25.49136], [66.24156, 25.51845], [66.2588, 25.52485], [66.25816, 25.54311], [66.30912, 25.55399], [66.33643, 25.55336], [66.34831, 25.5462], [66.35271, 25.53555], [66.38851, 25.52203], [66.42319, 25.48102], [66.43727, 25.49127], [66.45623, 25.49603], [66.47583, 25.4933], [66.49218, 25.48102], [66.45753, 25.45376], [66.49789, 25.43048], [66.51155, 25.41421], [66.49838, 25.39852], [66.48367, 25.40067], [66.43702, 25.43325], [66.35955, 25.46524], [66.31186, 25.47492], [66.27866, 25.46736], [66.2518, 25.47289], [66.15919, 25.44694], [66.06902, 25.44623], [66.00434, 25.42959], [65.92471, 25.41864], [65.85841, 25.41755], [65.76539, 25.37801], [65.72438, 25.37116], [65.67164, 25.34741], [65.65211, 25.34448], [65.46778, 25.38544], [65.40073, 25.3667], [65.38235, 25.37117], [65.39536, 25.39228], [65.3628, 25.39057], [65.32968, 25.38293], [65.33022, 25.46842]]]]}}, {"type": "Feature", "properties": {"name": "아리아인의 정착지(기원전 1500년경)", "name_en": "Aryan settlement c.1500 BCE", "period": "기원전 1500년경", "kind": "기타", "legend": "아리아인의 정착지 기원전 1500년경", "map_title": "인도 문명과 아리아인의 이동", "source": "미래엔 세계사 교과서 1권 18쪽", "volume": 1, "page": 18, "coast_snap": "Natural Earth 10m 해안선에 맞춤", "border_snap": "현대 국경(Natural Earth 10m)에 맞춘 구간 약 94 km"}, "geometry": {"type": "Polygon", "coordinates": [[[78.05061, 31.62485], [78.12726, 31.41166], [78.17892, 31.19647], [78.21121, 30.83213], [78.17639, 30.47944], [78.07761, 30.14902], [77.91783, 29.85119], [77.69989, 29.59592], [77.42641, 29.39297], [77.09983, 29.25191], [76.7224, 29.18227], [76.27766, 29.19017], [75.82336, 29.26464], [75.3626, 29.3811], [74.89895, 29.51474], [74.43642, 29.64013], [73.97936, 29.73113], [73.53255, 29.76063], [73.10109, 29.70038], [73.08294, 29.69427], [72.8834, 29.62684], [72.66961, 29.53315], [72.24853, 29.33121], [72.03902, 29.24614], [71.82911, 29.18715], [71.61827, 29.16585], [71.40606, 29.19376], [71.22775, 29.26588], [71.07622, 29.37664], [70.95046, 29.51958], [70.84954, 29.6881], [70.7727, 29.87546], [70.71947, 30.07496], [70.68955, 30.27991], [70.68287, 30.48367], [70.69501, 30.68372], [70.71889, 30.88204], [70.85025, 31.66137], [70.8711, 31.85407], [70.8785, 32.04668], [70.86783, 32.25278], [70.83985, 32.45602], [70.79794, 32.65707], [70.74553, 32.85651], [70.5015, 33.64809], [70.45039, 33.84897], [70.41095, 34.05369], [70.38655, 34.25986], [70.38061, 34.46509], [70.39659, 34.66695], [70.43796, 34.86296], [70.5082, 35.05054], [70.61078, 35.2271], [70.79962, 35.43567], [71.03277, 35.59778], [71.3014, 35.71475], [71.59655, 35.78813], [71.9092, 35.81966], [72.23032, 35.81132], [72.55083, 35.76531], [72.86168, 35.68413], [73.2327, 35.54997], [73.60063, 35.38824], [73.96096, 35.201], [74.29259, 35.0005], [74.33228, 34.77224], [74.34888, 34.77343], [74.41213, 34.76449], [74.66493, 34.68832], [75.01778, 34.62972], [75.03802, 34.63058], [75.06552, 34.40245], [75.23632, 34.24276], [75.49139, 33.96347], [75.75048, 33.69615], [76.04199, 33.45742], [76.35426, 33.23632], [76.99436, 32.80513], [77.29888, 32.57482], [77.57766, 32.32161], [77.81936, 32.03587], [77.88715, 31.93577], [77.94823, 31.8337], [78.00269, 31.72996], [78.05061, 31.62485]]]}}, {"type": "Feature", "properties": {"name": "아리아인의 정착지(기원전 1000년경)", "name_en": "Aryan settlement c.1000 BCE", "period": "기원전 1000년경", "kind": "기타", "legend": "아리아인의 정착지 기원전 1000년경", "map_title": "인도 문명과 아리아인의 이동", "source": "미래엔 세계사 교과서 1권 18쪽", "volume": 1, "page": 18, "coast_snap": "Natural Earth 10m 해안선에 맞춤", "border_snap": "현대 국경(Natural Earth 10m)에 맞춘 구간 약 198 km"}, "geometry": {"type": "Polygon", "coordinates": [[[81.88026, 27.54745], [81.99136, 27.34244], [82.09698, 27.13098], [82.19553, 26.91508], [82.32358, 26.59573], [82.42853, 26.27735], [82.50588, 25.96595], [82.55134, 25.66736], [82.56073, 25.3872], [82.53002, 25.13093], [82.4552, 24.90384], [82.33221, 24.71114], [82.13793, 24.55743], [81.89717, 24.47888], [81.62199, 24.46354], [81.32424, 24.49981], [81.01591, 24.57615], [80.70925, 24.68098], [80.41694, 24.80271], [80.15202, 24.92972], [79.58274, 25.26606], [79.04523, 25.67219], [78.54563, 26.13653], [78.09133, 26.64844], [77.69151, 27.19805], [77.35707, 27.77537], [77.09995, 28.3691], [76.93251, 28.96603], [76.90829, 29.13042], [76.90159, 29.29384], [76.91332, 29.45347], [76.94439, 29.6065], [76.99565, 29.75012], [77.06795, 29.8815], [77.16206, 29.99786], [77.27875, 30.09635], [77.80034, 30.34078], [78.34147, 30.39373], [78.88894, 30.28589], [79.43019, 30.04758], [79.95316, 29.70933], [80.05808, 29.62308], [80.22304, 29.43821], [80.21767, 29.43464], [80.21374, 29.41689], [80.22097, 29.40012], [80.24216, 29.36741], [80.2495, 29.327], [80.25498, 29.31664], [80.27275, 29.3157], [80.28009, 29.31015], [80.28278, 29.29131], [80.27875, 29.26808], [80.53973, 29.21045], [80.89868, 28.85668], [81.08737, 28.6448], [80.97602, 28.43692], [80.9878, 28.43098], [80.99317, 28.40783], [81.00041, 28.397], [81.14634, 28.37225], [81.1697, 28.36132], [81.19037, 28.33812], [81.21073, 28.27864], [81.22432, 28.25078], [81.28236, 28.19159], [81.29595, 28.16745], [81.28075, 28.16198], [81.27678, 28.15379], [81.28308, 28.14609], [81.29941, 28.14252], [81.2962, 28.12831], [81.30706, 28.12381], [81.3237, 28.12624], [81.33811, 28.13273], [81.35791, 28.16598], [81.3732, 28.16784], [81.39604, 28.16063], [81.41733, 28.14702], [81.43527, 28.12978], [81.44824, 28.11141], [81.45821, 28.07728], [81.47346, 28.0664], [81.56192, 28.02599], [81.58218, 28.01328], [81.5951, 27.99488], [81.61505, 27.98124], [81.68895, 27.9632], [81.71039, 27.94752], [81.75013, 27.90967], [81.85565, 27.85094], [81.83609, 27.62305], [81.88026, 27.54745]]]}}, {"type": "Feature", "properties": {"name": "아리아인의 정착지(기원전 500년경)", "name_en": "Aryan settlement c.500 BCE", "period": "기원전 500년경", "kind": "기타", "legend": "아리아인의 정착지 기원전 500년경", "map_title": "인도 문명과 아리아인의 이동", "source": "미래엔 세계사 교과서 1권 18쪽", "volume": 1, "page": 18, "coast_snap": "Natural Earth 10m 해안선에 맞춤", "border_snap": "현대 국경(Natural Earth 10m)에 맞춘 구간 약 368 km"}, "geometry": {"type": "MultiPolygon", "coordinates": [[[[88.14599, 21.64375], [88.13941, 21.63032], [88.12981, 21.62596], [88.09156, 21.63654], [88.06349, 21.63668], [88.05178, 21.6416], [88.04315, 21.65762], [88.04403, 21.68112], [88.08996, 21.8085], [88.11931, 21.85952], [88.14674, 21.86985], [88.16699, 21.76518], [88.16341, 21.70548], [88.13258, 21.68496], [88.1444, 21.65757], [88.14599, 21.64375]]], [[[88.59182, 21.8044], [88.58432, 21.83576], [88.5988, 21.87011], [88.63625, 21.92137], [88.65016, 21.92744], [88.66336, 21.9211], [88.67057, 21.90741], [88.64918, 21.84235], [88.64632, 21.78793], [88.59182, 21.8044]]], [[[88.09426, 21.93788], [88.10573, 21.94757], [88.1189, 21.945], [88.13257, 21.92048], [88.125, 21.88866], [88.10499, 21.86115], [88.0809, 21.84936], [88.07229, 21.85676], [88.07107, 21.87337], [88.07745, 21.90489], [88.09426, 21.93788]]], [[[81.93187, 26.12795], [82.1774, 26.23618], [82.45668, 26.29688], [82.75749, 26.30758], [83.2905, 26.26684], [83.82138, 26.198], [84.34751, 26.10283], [84.86661, 25.98304], [85.37573, 25.84033], [85.70689, 25.73126], [85.87225, 25.67645], [86.37142, 25.48531], [86.81715, 25.29167], [87.08857, 25.16041], [87.35224, 25.02005], [87.59959, 24.87421], [87.78675, 24.7509], [88.02716, 24.67573], [88.02179, 24.6456], [88.05724, 24.63411], [88.06726, 24.61367], [88.08184, 24.59987], [88.08499, 24.59388], [88.08602, 24.53672], [88.09879, 24.52248], [88.10995, 24.50099], [88.13878, 24.49525], [88.4013, 24.36942], [88.4754, 24.31547], [88.49835, 24.31097], [88.5631, 24.30821], [88.61245, 24.29288], [88.63452, 24.29412], [88.6495, 24.31536], [88.66015, 24.33826], [88.6818, 24.33389], [88.71456, 24.31542], [88.73751, 24.2871], [88.74304, 24.24754], [88.74981, 24.22325], [88.73162, 24.18984], [88.69379, 24.17532], [88.68376, 24.16654], [88.67808, 24.15429], [88.68299, 24.12429], [88.6741, 24.08264], [88.67901, 24.07122], [88.69782, 24.05626], [88.70092, 24.04365], [88.725, 24.03838], [88.72547, 24.0289], [88.70159, 23.99528], [88.71436, 23.9644], [88.71715, 23.94314], [88.71415, 23.92516], [88.65312, 23.86978], [88.63395, 23.86614], [88.59359, 23.86692], [88.57762, 23.85516], [88.57437, 23.84563], [88.57752, 23.81852], [88.55271, 23.77498], [88.55251, 23.76542], [88.56119, 23.74101], [88.5401, 23.64995], [88.54155, 23.63877], [88.56636, 23.62874], [88.5617, 23.60202], [88.57142, 23.59233], [88.58155, 23.58833], [88.60925, 23.58879], [88.62423, 23.57386], [88.64764, 23.53508], [88.66449, 23.51831], [88.70464, 23.49518], [88.71942, 23.4681], [88.73193, 23.47263], [88.74371, 23.48932], [88.75684, 23.4988], [88.77017, 23.48883], [88.76789, 23.46728], [88.71927, 23.34829], [88.69503, 23.31261], [88.68594, 23.29331], [88.68661, 23.2716], [88.69658, 23.25235], [88.71002, 23.24122], [88.7757, 23.22163], [88.78619, 23.22153], [88.80954, 23.23605], [88.82267, 23.23796], [88.91807, 23.20858], [88.95424, 23.20742], [88.95998, 23.20269], [88.95982, 23.19445], [88.9547, 23.18381], [88.9191, 23.15386], [88.86479, 23.10027], [88.8513, 23.07513], [88.84872, 23.02384], [88.83941, 22.99537], [88.83879, 22.97581], [88.84277, 22.96457], [88.87218, 22.92677], [88.89347, 22.87964], [88.90515, 22.86643], [88.9331, 22.85812], [88.94452, 22.84801], [88.9468, 22.83452], [88.94514, 22.81509], [88.93688, 22.78233], [88.91496, 22.7544], [88.90814, 22.74078], [88.91057, 22.72259], [88.92251, 22.69371], [88.93, 22.65862], [88.94235, 22.63748], [88.95202, 22.6119], [88.95641, 22.58498], [88.95031, 22.56198], [88.92799, 22.54813], [88.95904, 22.53682], [88.97098, 22.52793], [88.97997, 22.49093], [88.99837, 22.45124], [89.0025, 22.42799], [88.98948, 22.39667], [89.00152, 22.33368], [89.02354, 22.29482], [89.00912, 22.28562], [89.01863, 22.26469], [89.0623, 22.21156], [89.0762, 22.17503], [89.07816, 22.15085], [89.06522, 22.13577], [89.02832, 22.14376], [89.01303, 22.11619], [88.96177, 22.04799], [88.8422, 21.92245], [88.7691, 21.85175], [88.70202, 21.80082], [88.70362, 21.81061], [88.69452, 21.83983], [88.71469, 21.89785], [88.71698, 21.95197], [88.72219, 21.96613], [88.75831, 21.99946], [88.76303, 22.01728], [88.75465, 22.03758], [88.71705, 22.05805], [88.70851, 22.07221], [88.71485, 22.08698], [88.73015, 22.10358], [88.76303, 22.13056], [88.74391, 22.12934], [88.72657, 22.12116], [88.71217, 22.10904], [88.69484, 22.08153], [88.69288, 22.06586], [88.69947, 22.05321], [88.71852, 22.04804], [88.73072, 22.03718], [88.7233, 22.01309], [88.68994, 21.946], [88.67872, 21.93669], [88.667, 21.94501], [88.64259, 21.9409], [88.63088, 21.94547], [88.626, 21.95551], [88.62746, 21.9704], [88.65349, 22.01801], [88.6395, 22.10954], [88.65699, 22.15107], [88.674, 22.16206], [88.68312, 22.18496], [88.67994, 22.20441], [88.66017, 22.20502], [88.65592, 22.18305], [88.63494, 22.14496], [88.63087, 22.1258], [88.61915, 22.10952], [88.62597, 22.04804], [88.62036, 22.02998], [88.60255, 22.00642], [88.59864, 21.9903], [88.59839, 21.92935], [88.56707, 21.85082], [88.56463, 21.83234], [88.56463, 21.76683], [88.60418, 21.77874], [88.62402, 21.77802], [88.63011, 21.75864], [88.51485, 21.69787], [88.5049, 21.74152], [88.51272, 21.76341], [88.53289, 21.79531], [88.53102, 21.82412], [88.49563, 21.8767], [88.51466, 21.91621], [88.51498, 21.9372], [88.49562, 21.95181], [88.49985, 21.93366], [88.48121, 21.9099], [88.47446, 21.89033], [88.47706, 21.87181], [88.49208, 21.83692], [88.49354, 21.80539], [88.47446, 21.80097], [88.45338, 21.74177], [88.45476, 21.70539], [88.46875, 21.67651], [88.38341, 21.64001], [88.38284, 21.67133], [88.39259, 21.69855], [88.35565, 21.68499], [88.3462, 21.68862], [88.33123, 21.71906], [88.32472, 21.70136], [88.3274, 21.69111], [88.34944, 21.66095], [88.34552, 21.63676], [88.34142, 21.62818], [88.30737, 21.62066], [88.29819, 21.76411], [88.28981, 21.78022], [88.27312, 21.79792], [88.26157, 21.79865], [88.26417, 21.77529], [88.29542, 21.67658], [88.29444, 21.64281], [88.2838, 21.61568], [88.23361, 21.60507], [88.22438, 21.61302], [88.20827, 21.60299], [88.18937, 21.64208], [88.18093, 21.68496], [88.20346, 21.72435], [88.21046, 21.74726], [88.20144, 21.77432], [88.20973, 21.78856], [88.20379, 21.80541], [88.15408, 21.88809], [88.15943, 21.90616], [88.14675, 21.95922], [88.15636, 21.99103], [88.22242, 22.07795], [88.21275, 22.10005], [88.19801, 22.16779], [88.16529, 22.185], [88.08132, 22.21736], [88.07732, 22.24042], [88.04347, 22.22477], [88.02703, 22.22786], [88.00905, 22.24043], [87.97268, 22.28319], [87.95069, 22.35619], [87.94044, 22.41303], [87.92799, 22.42422], [87.90659, 22.42475], [87.90659, 22.41861], [87.92285, 22.39777], [87.9358, 22.35517], [87.95281, 22.26244], [87.99195, 22.21589], [88.00847, 22.2049], [88.09547, 22.19123], [88.13258, 22.17914], [88.1608, 22.1567], [88.1735, 22.11689], [88.1643, 22.0898], [88.14063, 22.06013], [88.11094, 22.03473], [88.08472, 22.02071], [88.0486, 22.02074], [88.04314, 22.01728], [88.05078, 21.98501], [88.0324, 21.95718], [87.98364, 21.8542], [87.97046, 21.8365], [87.89918, 21.79483], [87.8929, 21.77433], [87.86719, 21.75081], [87.83371, 21.72918], [87.75571, 21.69172], [87.70378, 21.65551], [87.68385, 21.65015], [87.62135, 21.65062], [87.57593, 21.63897], [87.52546, 21.68755], [87.48434, 21.7465], [87.45607, 21.81221], [87.44332, 21.87182], [87.43656, 21.87762], [87.28871, 21.85787], [86.9169, 21.78854], [86.74263, 21.76353], [86.57181, 21.75201], [86.40294, 21.75463], [86.28658, 21.76499], [86.04969, 21.79686], [85.86608, 21.83703], [85.6791, 21.88409], [85.29795, 22.0119], [84.91252, 22.17636], [84.53036, 22.37371], [84.15795, 22.60118], [83.8009, 22.85725], [83.46706, 23.1392], [83.2495, 23.32882], [82.73355, 23.75129], [82.46168, 23.98117], [82.19914, 24.22078], [81.96042, 24.4678], [81.76028, 24.71987], [81.61362, 24.97485], [81.51941, 25.27658], [81.51464, 25.5462], [81.58909, 25.77999], [81.73208, 25.97508], [81.93187, 26.12795]]]]}}]}