{"type": "FeatureCollection", "features": [{"type": "Feature", "properties": {"name": "진(晉)", "name_en": "Jin", "category": "기타", "kind": "국가", "year": "", "period": "기원전 770–403년", "note": "지도 기호는 나라 위치 표시. 좌표는 도읍 신전(新田, 지금의 허우마)", "coord_source": "실제 위치(도읍)", "map_lon": 112.11781, "map_lat": 37.09826, "legend": "5패", "map_title": "춘추 5패", "source": "미래엔 세계사 교과서 1권 22쪽", "volume": 1, "page": 22}, "geometry": {"type": "Point", "coordinates": [111.65731, 36.01549]}}, {"type": "Feature", "properties": {"name": "제", "name_en": "Qi", "category": "기타", "kind": "국가", "year": "", "period": "기원전 770–403년", "note": "지도 기호는 나라 위치 표시. 좌표는 도읍 임치", "coord_source": "실제 위치(도읍)", "map_lon": 119.04256, "map_lat": 36.09488, "legend": "5패", "map_title": "춘추 5패", "source": "미래엔 세계사 교과서 1권 22쪽", "volume": 1, "page": 22}, "geometry": {"type": "Point", "coordinates": [118.57624, 36.96015]}}, {"type": "Feature", "properties": {"name": "초", "name_en": "Chu", "category": "기타", "kind": "국가", "year": "", "period": "기원전 770–403년", "note": "지도 기호는 나라 위치 표시. 좌표는 도읍 영(郢, 지금의 징저우)", "coord_source": "실제 위치(도읍)", "map_lon": 112.75801, "map_lat": 31.73487, "legend": "5패", "map_title": "춘추 5패", "source": "미래엔 세계사 교과서 1권 22쪽", "volume": 1, "page": 22}, "geometry": {"type": "Point", "coordinates": [112.54435, 30.62927]}}, {"type": "Feature", "properties": {"name": "오", "name_en": "Wu", "category": "기타", "kind": "국가", "year": "", "period": "기원전 770–403년", "note": "지도 기호는 나라 위치 표시. 좌표는 도읍 고소(지금의 쑤저우)", "coord_source": "실제 위치(도읍)", "map_lon": 120.05613, "map_lat": 30.95933, "legend": "5패", "map_title": "춘추 5패", "source": "미래엔 세계사 교과서 1권 22쪽", "volume": 1, "page": 22}, "geometry": {"type": "Point", "coordinates": [120.52157, 31.47966]}}, {"type": "Feature", "properties": {"name": "월", "name_en": "Yue", "category": "기타", "kind": "국가", "year": "", "period": "기원전 770–403년", "note": "지도 기호는 나라 위치 표시. 좌표는 도읍 회계(지금의 사오싱)", "coord_source": "실제 위치(도읍)", "map_lon": 120.07391, "map_lat": 29.147, "legend": "5패", "map_title": "춘추 5패", "source": "미래엔 세계사 교과서 1권 22쪽", "volume": 1, "page": 22}, "geometry": {"type": "Point", "coordinates": [120.32096, 30.07069]}}, {"type": "Feature", "properties": {"name": "호경(시안)", "name_en": "Haojing (Xi'an)", "category": "수도", "year": "", "coord_source": "실제 위치", "map_lon": 108.94, "map_lat": 34.25999, "legend": "호경(시안)", "map_title": "춘추 5패", "source": "미래엔 세계사 교과서 1권 22쪽", "volume": 1, "page": 22}, "geometry": {"type": "Point", "coordinates": [108.77, 34.23]}}, {"type": "Feature", "properties": {"name": "낙읍(뤄양)", "name_en": "Luoyi (Luoyang)", "category": "수도", "year": "", "coord_source": "실제 위치", "map_lon": 112.44999, "map_lat": 34.62001, "legend": "낙읍(뤄양)", "map_title": "춘추 5패", "source": "미래엔 세계사 교과서 1권 22쪽", "volume": 1, "page": 22}, "geometry": {"type": "Point", "coordinates": [112.45, 34.62]}}]}