{"type": "FeatureCollection", "features": [{"type": "Feature", "properties": {"name": "몬테네그로", "name_en": "Montenegro", "period": "2006년 독립", "kind": "국가", "legend": "몬테네그로(2006)", "map_title": "구유고 연방의 분리", "source": "미래엔 세계사 교과서 4권 204쪽", "volume": 4, "page": 204, "geometry_source": "Natural Earth 10m 국가 경계", "group": "몬테네그로", "map_folder": "4권_p204_구유고 연방의 분리"}, "geometry": {"type": "Polygon", "coordinates": [[[18.49782, 42.43116], [18.49285, 42.44237], [18.46774, 42.45338], [18.44428, 42.47792], [18.43715, 42.4934], [18.43642, 42.51076], [18.44201, 42.54301], [18.43736, 42.55921], [18.45896, 42.56973], [18.47053, 42.56906], [18.4818, 42.56368], [18.49213, 42.56477], [18.49585, 42.57086], [18.48665, 42.58983], [18.51725, 42.60298], [18.53843, 42.6183], [18.5496, 42.63892], [18.55001, 42.66807], [18.53967, 42.69546], [18.50216, 42.72745], [18.46743, 42.7692], [18.45389, 42.79315], [18.44459, 42.81708], [18.44366, 42.83447], [18.45348, 42.84566], [18.46598, 42.85281], [18.47332, 42.86255], [18.46764, 42.8817], [18.43405, 42.93689], [18.43353, 42.9542], [18.45275, 42.9934], [18.48304, 43.01464], [18.53895, 43.02389], [18.59838, 43.02446], [18.639, 43.02024], [18.62112, 43.09644], [18.6206, 43.12256], [18.62907, 43.15489], [18.6453, 43.18018], [18.6884, 43.22447], [18.66432, 43.23318], [18.67951, 43.24948], [18.80715, 43.31803], [18.83351, 43.32415], [18.82121, 43.34139], [18.8396, 43.34782], [18.89914, 43.3519], [18.92342, 43.34684], [18.9503, 43.33307], [18.95732, 43.32586], [18.95949, 43.30346], [18.99246, 43.2671], [19.0029, 43.27395], [19.02471, 43.29873], [19.03628, 43.30333], [19.06254, 43.30439], [19.06967, 43.30883], [19.03959, 43.35071], [19.00993, 43.41099], [18.96828, 43.4481], [18.94626, 43.44394], [18.95123, 43.46381], [18.93789, 43.47895], [18.90565, 43.49063], [18.90513, 43.49905], [18.91102, 43.50727], [18.93893, 43.51895], [18.9627, 43.5383], [18.97748, 43.54623], [19.00021, 43.54789], [19.01427, 43.53778], [19.03815, 43.51102], [19.05499, 43.5067], [19.07639, 43.50724], [19.09602, 43.5129], [19.12279, 43.53595], [19.1477, 43.53815], [19.19534, 43.5328], [19.17519, 43.50962], [19.17591, 43.48089], [19.19224, 43.45453], [19.21839, 43.4382], [19.35564, 43.39306], [19.37229, 43.38423], [19.41404, 43.33839], [19.47305, 43.29328], [19.51243, 43.24064], [19.54995, 43.21752], [19.58085, 43.1878], [19.59811, 43.1762], [19.61868, 43.16824], [19.66302, 43.1585], [19.68462, 43.15672], [19.69733, 43.16021], [19.70549, 43.16618], [19.71356, 43.16561], [19.74281, 43.12652], [19.7612, 43.10874], [19.78177, 43.09647], [19.80513, 43.08996], [19.8722, 43.09037], [19.90714, 43.11326], [19.91664, 43.11706], [19.92915, 43.11391], [19.94982, 43.08592], [19.95974, 43.07856], [20.01989, 43.04735], [20.11694, 42.97665], [20.14092, 42.97082], [20.19456, 42.96684], [20.22319, 42.95766], [20.27559, 42.92989], [20.33708, 42.90697], [20.35362, 42.89097], [20.35517, 42.86617], [20.34535, 42.82744], [20.26443, 42.81726], [20.21761, 42.80274], [20.20924, 42.7917], [20.20841, 42.76328], [20.1834, 42.74251], [20.1495, 42.74987], [20.11209, 42.76654], [20.07633, 42.77344], [20.03467, 42.75142], [20.02651, 42.74321], [20.02475, 42.72341], [20.03612, 42.70799], [20.0942, 42.66698], [20.10392, 42.65311], [20.0757, 42.60309], [20.07705, 42.55991], [20.06496, 42.54676], [20.03922, 42.55777], [20.01772, 42.54624], [19.98176, 42.51076], [19.95633, 42.50531], [19.90755, 42.5064], [19.87334, 42.48684], [19.83551, 42.47025], [19.8196, 42.46648], [19.80141, 42.46813], [19.75159, 42.4934], [19.73433, 42.52438], [19.7303, 42.54043], [19.73216, 42.55554], [19.74136, 42.5744], [19.74777, 42.5789], [19.74601, 42.5989], [19.73753, 42.6244], [19.72213, 42.64608], [19.69929, 42.65481], [19.67604, 42.64668], [19.64793, 42.62784], [19.62178, 42.605], [19.60504, 42.58484], [19.58809, 42.53286], [19.57568, 42.52234], [19.54933, 42.50859], [19.54375, 42.4934], [19.51781, 42.45803], [19.50148, 42.44413], [19.48174, 42.43449], [19.4684, 42.41811], [19.41724, 42.37411], [19.40267, 42.35202], [19.4004, 42.32589], [19.30459, 42.2151], [19.27493, 42.19128], [19.27203, 42.18068], [19.28206, 42.16456], [19.29777, 42.15167], [19.35503, 42.12004], [19.37249, 42.10425], [19.37487, 42.09467], [19.35657, 42.0648], [19.35172, 42.04762], [19.35058, 42.02782], [19.3542, 42.0087], [19.37104, 41.98656], [19.36577, 41.96971], [19.34645, 41.96155], [19.35285, 41.9385], [19.34665, 41.92618], [19.34531, 41.91034], [19.36495, 41.889], [19.36508, 41.85236], [19.31023, 41.89452], [19.22022, 41.91885], [19.17026, 41.93797], [19.16228, 41.94794], [19.16033, 41.96898], [19.13795, 41.9853], [19.14356, 41.99307], [19.13917, 42.04243], [19.08253, 42.0812], [19.07472, 42.09565], [19.08383, 42.11009], [19.06397, 42.12018], [19.04868, 42.1402], [19.01059, 42.13955], [19.00213, 42.15021], [18.99985, 42.16108], [18.98162, 42.16706], [18.96803, 42.18871], [18.91334, 42.22223], [18.9017, 42.23749], [18.8947, 42.27049], [18.886, 42.28437], [18.87159, 42.29047], [18.85402, 42.29047], [18.83888, 42.28571], [18.83139, 42.27753], [18.81764, 42.29116], [18.77858, 42.27147], [18.76246, 42.29116], [18.7295, 42.31159], [18.71453, 42.32526], [18.71412, 42.33893], [18.69361, 42.35322], [18.69581, 42.37376], [18.67848, 42.38597], [18.65854, 42.38662], [18.65317, 42.36628], [18.63844, 42.37031], [18.61671, 42.36807], [18.5949, 42.38373], [18.57065, 42.39297], [18.57814, 42.40038], [18.55299, 42.41364], [18.54518, 42.42357], [18.55014, 42.43513], [18.56284, 42.43854], [18.6565, 42.41551], [18.68556, 42.404], [18.70045, 42.39297], [18.70818, 42.40852], [18.70655, 42.42105], [18.68385, 42.45881], [18.68735, 42.4829], [18.65414, 42.45181], [18.60865, 42.44538], [18.50245, 42.45563], [18.50245, 42.44819], [18.52125, 42.43797], [18.51295, 42.409], [18.5298, 42.40038], [18.51027, 42.40526], [18.49643, 42.41633], [18.49782, 42.43116]]]}}]}