{"type": "FeatureCollection", "features": [{"type": "Feature", "properties": {"map_title": "참전국의 사상자 수", "source": "미래엔 세계사 교과서 4권 183쪽", "volume": 4, "page": 183, "legend": "동맹국", "name": "오스트리아·헝가리 제국", "name_en": "Austria-Hungary", "period": "1914–1918", "kind": "국가", "alliance": "동맹국", "soldiers": 9000000, "casualties": 1050000, "coast_snap": "Natural Earth 10m 해안선에 맞춤", "border_snap": "현대 국경(Natural Earth 10m)에 맞춘 구간 약 1270 km"}, "geometry": {"type": "MultiPolygon", "coordinates": [[[[15.86378, 45.25535], [15.87803, 45.22283], [15.84445, 45.44765], [15.84474, 45.47341], [15.83358, 45.50146], [15.84453, 45.51305], [15.87737, 45.51555], [15.88803, 45.52105], [15.88276, 45.551], [15.89197, 45.55474], [15.91811, 45.55252], [15.96799, 45.53376], [16.07554, 45.46591], [16.10136, 45.45471], [16.21761, 45.43587], [16.23946, 45.44028], [16.25365, 45.45539], [16.23289, 45.47784], [16.13267, 45.52844], [15.95914, 45.59653], [15.87895, 45.63921], [15.86184, 45.65056], [15.66605, 45.83167], [15.67608, 45.8417], [15.67546, 45.85596], [15.65944, 45.88883], [15.67556, 45.92516], [15.67422, 45.99316], [15.68197, 46.01352], [15.69365, 46.02577], [15.69799, 46.03621], [15.68393, 46.05114], [15.63153, 46.07057], [15.60383, 46.09099], [15.58988, 46.11352], [15.58998, 46.13868], [15.60435, 46.167], [15.62285, 46.1917], [15.64216, 46.20851], [15.46265, 46.61465], [15.41759, 46.63795], [15.38814, 46.64558], [15.20489, 46.63896], [15.06195, 46.64956], [15.00439, 46.63684], [14.96718, 46.60026], [14.94795, 46.61927], [14.93359, 46.62114], [14.89773, 46.60555], [14.863, 46.60483], [14.85039, 46.60114], [14.83365, 46.58439], [14.78858, 46.50665], [14.76089, 46.49628], [14.73526, 46.49334], [14.72637, 46.49771], [14.70973, 46.49251], [14.68709, 46.47122], [14.67996, 46.45887], [14.66208, 46.4597], [14.6317, 46.44058], [14.59015, 46.43443], [14.57537, 46.41973], [14.55769, 46.38394], [14.54033, 46.37864], [14.5271, 46.38823], [14.51584, 46.40536], [14.50219, 46.41836], [14.46767, 46.41267], [14.45093, 46.41448], [14.42003, 46.42435], [14.40649, 46.43934], [14.39584, 46.44099], [14.36215, 46.43588], [14.28392, 46.43743], [14.28976, 46.66543], [14.29372, 46.7209], [14.28586, 46.74567], [14.22993, 46.78606], [14.20542, 46.79715], [14.18788, 46.79856], [14.27672, 46.84837], [14.27242, 46.86575], [14.32359, 46.8497], [14.27481, 46.86764], [14.28008, 46.86937], [14.32793, 46.8753], [14.50367, 46.88319], [14.53262, 46.89029], [14.60442, 46.95685], [14.2606, 47.12937], [14.32953, 47.21376], [14.18836, 47.22122], [14.18913, 47.28738], [14.34681, 47.37436], [14.10522, 47.43022], [14.09045, 47.51737], [14.38395, 47.60221], [14.40191, 47.67604], [14.11132, 47.72378], [13.86122, 47.74238], [13.70221, 47.7633], [13.34174, 47.82865], [12.99123, 47.84711], [12.92674, 47.77739], [12.92126, 47.76954], [12.91723, 47.75016], [12.89201, 47.72355], [12.90834, 47.71236], [12.96404, 47.70536], [13.00435, 47.71461], [13.01986, 47.71293], [13.04456, 47.69657], [13.06409, 47.67399], [13.07205, 47.65947], [13.07484, 47.64665], [13.07205, 47.62242], [13.05706, 47.59766], [13.04094, 47.58335], [13.03825, 47.58402], [13.03908, 47.56134], [13.04125, 47.5619], [13.02812, 47.54165], [13.02895, 47.51803], [13.03701, 47.50137], [13.03732, 47.49305], [13.00187, 47.46602], [12.99112, 47.46568], [12.96973, 47.47573], [12.94255, 47.47049], [12.93159, 47.47351], [12.8826, 47.49858], [12.82845, 47.53726], [12.80364, 47.54134], [12.77894, 47.55483], [12.77367, 47.5795], [12.78586, 47.60268], [12.81315, 47.61182], [12.79331, 47.62479], [12.76737, 47.63637], [12.75166, 47.64939], [12.76199, 47.66686], [12.74483, 47.66536], [12.68871, 47.67513], [12.65306, 47.67513], [12.6174, 47.66934], [12.59838, 47.66288], [12.55384, 47.63601], [12.51715, 47.62854], [12.50155, 47.40336], [12.41756, 47.36965], [12.34328, 47.34509], [12.26994, 47.32749], [12.20048, 47.32039], [12.13771, 47.32736], [12.10406, 47.33996], [12.07542, 47.35747], [12.04511, 47.38238], [12.04369, 47.60762], [11.93589, 47.61074], [11.85197, 47.59916], [11.8407, 47.59461], [11.83068, 47.57761], [11.82034, 47.57529], [11.76402, 47.58312], [11.68257, 47.58335], [11.62046, 47.58965], [11.58914, 47.57038], [11.5694, 47.52738], [11.55121, 47.51369], [11.52951, 47.50785], [11.48259, 47.50258], [11.43535, 47.50971], [11.41262, 47.50609], [11.34716, 47.73315], [11.46038, 47.81429], [11.49214, 47.84653], [11.53821, 47.90877], [11.58307, 47.94289], [11.53634, 48.05755], [11.50913, 48.09847], [11.48255, 48.12276], [11.43719, 48.13714], [11.33438, 48.14363], [11.28654, 48.1537], [11.21785, 48.20033], [11.19348, 48.20993], [10.94785, 48.2409], [10.98235, 48.30196], [10.8648, 48.3724], [10.55031, 48.25013], [10.29869, 48.34458], [10.29421, 48.42431], [9.9661, 48.49265], [9.83767, 48.70911], [10.02295, 48.79352], [9.87729, 48.96359], [10.01469, 48.92261], [10.14538, 48.97808], [10.34028, 48.91626], [10.61595, 48.75407], [10.67905, 48.65411], [10.91776, 48.78154], [10.91045, 48.90983], [11.42105, 48.84132], [11.52151, 48.69064], [11.98065, 48.72024], [12.21169, 48.84692], [12.84181, 48.83168], [12.84, 48.91377], [13.07198, 48.86428], [13.17959, 48.79097], [13.30219, 48.84734], [13.42539, 48.82298], [13.47906, 48.72061], [13.706, 48.60669], [13.75905, 48.75121], [13.79619, 48.77981], [13.74792, 48.84338], [13.72467, 48.8673], [13.71062, 48.87247], [13.67336, 48.87635], [13.65444, 48.88224], [13.63739, 48.89345], [13.62178, 48.90906], [13.61114, 48.92725], [13.60866, 48.94616], [13.59047, 48.94482], [13.53889, 48.96704], [13.51595, 48.97024], [13.5021, 48.96606], [13.48226, 48.93763], [13.42727, 48.95996], [13.39854, 48.97768], [13.38418, 48.99303], [13.38356, 49.02109], [13.37239, 49.03851], [13.32992, 49.06693], [13.29953, 49.09364], [13.28733, 49.10057], [13.48928, 49.28277], [13.72669, 49.38717], [13.99272, 49.42318], [14.153, 49.51645], [14.19059, 49.68507], [14.45425, 49.62135], [14.56261, 49.73634], [14.5661, 49.88997], [14.74538, 49.80291], [14.56614, 49.89013], [14.34057, 50.08823], [14.19827, 50.07722], [14.07628, 50.20198], [13.91632, 50.27737], [13.71766, 50.43858], [13.46489, 50.60709], [13.44794, 50.59727], [13.42934, 50.59433], [13.40702, 50.6013], [13.38097, 50.62549], [13.36878, 50.62833], [13.16197, 50.82656], [13.07845, 50.93607], [13.21097, 51.11486], [12.90273, 51.25756], [12.74317, 51.50844], [12.83545, 51.48983], [12.97965, 51.38725], [13.14895, 51.54726], [13.51366, 51.60495], [13.69363, 51.56787], [13.78615, 51.66616], [13.94728, 51.67938], [14.12739, 51.77616], [14.20658, 51.76214], [14.58581, 51.80389], [14.58281, 51.82508], [14.59594, 51.84242], [14.6533, 51.87862], [14.67169, 51.89389], [14.68709, 51.9119], [14.69557, 51.93146], [14.69908, 51.99251], [14.72606, 52.02644], [14.73536, 52.05403], [14.7614, 52.07667], [15.12313, 52.04006], [15.20359, 52.05587], [15.06384, 52.14354], [15.11639, 52.20935], [15.37742, 52.13601], [15.48209, 51.98131], [15.60354, 51.94391], [15.65576, 52.00993], [15.84651, 52.00402], [15.84545, 52.12205], [16.1225, 52.09592], [16.14158, 51.99346], [16.3852, 51.88329], [16.68163, 51.83742], [16.94646, 51.67386], [17.22669, 51.74533], [17.35139, 51.63879], [17.08833, 51.49906], [17.33627, 51.3874], [17.49604, 51.2122], [17.619, 51.12321], [17.976, 51.29311], [17.81514, 51.46736], [18.06082, 51.41152], [18.20533, 51.36818], [18.27422, 51.33945], [18.34186, 51.30371], [18.40902, 51.25926], [18.52978, 51.27143], [18.60364, 51.27242], [18.67834, 51.26193], [18.71763, 51.25086], [18.59576, 51.15319], [18.73363, 51.08083], [18.85999, 50.97773], [19.09799, 51.01876], [19.38441, 50.87358], [19.46379, 50.83862], [19.54335, 50.81008], [19.62171, 50.7909], [19.69755, 50.78398], [19.82607, 50.79584], [19.92572, 50.82751], [20.00452, 50.87397], [20.07051, 50.93023], [20.19621, 51.05213], [20.27232, 51.10777], [20.36832, 51.15325], [20.45163, 51.17621], [20.53746, 51.18962], [20.80839, 51.21587], [20.90291, 51.2342], [20.9996, 51.26434], [21.09346, 51.30812], [21.05422, 51.32206], [21.13379, 51.33364], [21.14283, 51.33102], [21.15602, 51.33711], [21.23499, 51.34856], [21.3141, 51.35566], [21.4323, 51.35518], [21.51826, 51.34244], [21.58046, 51.32009], [21.62747, 51.2907], [21.71015, 51.22104], [21.76289, 51.18591], [21.83453, 51.15398], [21.95555, 51.12814], [22.08449, 51.12839], [22.21858, 51.14862], [22.35495, 51.18274], [22.74669, 51.30877], [22.86052, 51.33905], [22.95943, 51.35929], [23.14613, 51.38861], [23.27075, 51.39889], [23.63404, 51.3393], [23.62867, 51.32596], [23.63518, 51.3047], [23.65089, 51.29961], [23.67021, 51.29938], [23.68727, 51.2924], [23.74266, 51.21626], [23.7652, 51.19902], [23.81604, 51.17879], [23.86359, 51.14827], [23.87475, 51.13613], [23.85821, 51.13073], [23.85449, 51.12153], [23.86927, 51.10174], [23.89552, 51.07611], [23.90421, 51.06272], [23.91599, 51.02087], [23.91175, 51.00681], [23.94399, 50.9942], [23.95505, 50.98356], [23.96436, 50.95322], [23.97934, 50.93751], [24.04694, 50.89803], [24.13024, 50.86894], [24.14316, 50.85643], [24.48428, 50.92638], [24.59886, 50.92494], [24.69477, 50.93438], [24.79535, 50.95177], [24.93178, 50.98519], [25.039, 50.96251], [25.23239, 51.05806], [25.38553, 51.09343], [25.56772, 51.11519], [25.64679, 51.0877], [25.758, 51.01873], [25.99566, 50.8064], [26.06202, 50.75827], [26.13825, 50.72675], [26.30134, 50.68438], [26.35337, 50.66042], [26.39341, 50.62215], [26.45481, 50.50032], [26.4753, 50.47886], [26.53357, 50.44115], [26.60863, 50.40747], [26.72858, 50.36894], [26.82033, 50.3504], [27.01316, 50.32102], [27.10057, 50.28884], [27.14395, 50.26241], [27.24689, 50.17101], [27.36841, 49.99319], [27.46992, 49.81515], [27.48221, 49.75475], [27.48007, 49.70133], [27.46682, 49.65265], [27.44576, 49.60649], [27.36865, 49.46093], [27.34933, 49.40276], [27.34213, 49.34074], [27.34936, 49.2798], [27.36693, 49.21965], [27.44137, 49.04074], [27.4601, 48.98061], [27.46921, 48.91974], [27.46764, 48.87784], [27.45351, 48.81801], [27.42875, 48.76093], [27.34718, 48.71282], [27.39927, 48.70796], [27.38935, 48.69253], [27.50383, 48.47236], [27.48089, 48.45141], [27.42022, 48.41715], [27.40347, 48.41149], [27.38983, 48.41501], [27.36141, 48.43281], [27.34219, 48.43611], [27.30601, 48.42366], [27.24648, 48.37374], [27.20855, 48.36062], [27.04804, 48.12223], [27.04742, 48.1165], [27.03688, 48.10735], [27.0343, 48.10177], [27.04174, 48.07727], [27.05921, 48.05805], [27.08318, 48.04366], [27.10933, 48.0335], [27.10933, 48.02609], [27.08897, 48.01981], [27.09579, 48.0056], [27.12148, 48.01319], [27.14375, 47.98684], [27.15718, 47.99196], [27.16876, 47.98307], [27.16979, 47.97379], [27.16287, 47.96501], [27.15098, 47.9578], [27.17827, 47.94413], [27.17827, 47.93793], [27.1607, 47.92173], [26.77588, 47.80723], [26.69356, 47.77392], [26.62006, 47.73168], [26.75559, 47.68199], [26.90384, 47.61791], [26.97336, 47.58072], [27.03488, 47.54034], [27.08481, 47.49699], [27.11951, 47.45091], [27.12885, 47.42637], [27.13319, 47.36858], [27.12585, 47.22005], [27.15495, 47.1183], [27.20783, 47.03243], [27.39814, 46.8034], [27.43836, 46.74533], [27.46795, 46.6866], [27.48242, 46.62778], [27.47734, 46.56951], [27.44819, 46.51242], [27.42484, 46.48765], [27.39803, 46.46856], [27.27396, 46.41597], [27.21456, 46.38101], [27.18956, 46.35461], [27.17192, 46.32428], [27.12552, 46.19188], [27.10719, 46.16283], [27.08112, 46.13817], [26.99731, 46.09758], [26.91463, 46.09092], [26.83271, 46.10994], [26.75121, 46.14638], [26.58798, 46.23844], [26.50546, 46.27755], [26.42176, 46.30107], [26.31204, 46.30868], [26.14336, 46.29305], [26.04769, 46.2885], [25.98549, 46.29415], [25.84542, 46.3237], [25.74925, 46.3311], [25.66303, 46.32238], [25.58292, 46.30192], [25.3399, 46.21366], [25.24473, 46.18953], [25.13574, 46.17513], [25.03228, 46.17008], [24.64227, 46.1684], [24.54382, 46.16371], [24.44222, 46.1537], [24.33603, 46.13642], [24.23893, 46.1125], [24.16126, 46.08407], [24.09719, 46.05152], [23.85826, 45.88592], [23.76734, 45.83382], [23.71822, 45.81852], [23.45839, 45.92622], [23.23724, 45.85723], [23.0974, 45.67683], [23.02721, 45.70661], [22.9283, 45.81736], [22.5819, 45.84797], [22.54828, 45.83293], [22.57906, 45.84684], [22.29438, 45.84038], [22.13881, 45.82405], [22.07215, 45.81178], [22.00865, 45.79436], [21.81383, 45.72679], [21.74842, 45.70923], [21.68323, 45.69919], [21.61845, 45.69973], [21.55429, 45.71387], [21.51578, 45.73386], [21.48142, 45.76313], [21.38646, 45.8738], [21.35165, 45.90667], [21.31304, 45.93], [21.26886, 45.93963], [21.21373, 45.93211], [21.16918, 45.90888], [21.13151, 45.87483], [21.09281, 45.83122], [20.78574, 45.75256], [20.77747, 45.76232], [20.76517, 45.76677], [20.75411, 45.76356], [20.74533, 45.75499], [20.73944, 45.74341], [20.72683, 45.73618], [20.71339, 45.73333], [20.70006, 45.7354], [20.68807, 45.7431], [20.67856, 45.75664], [20.65562, 45.77731], [20.6459, 45.78873], [20.6367, 45.82702], [20.60528, 45.84614], [20.57211, 45.88769], [20.55671, 45.89844], [20.538, 45.90371], [20.49987, 45.90666], [20.48167, 45.9127], [20.42907, 45.94671], [20.37098, 45.96779], [20.35393, 45.97668], [20.33863, 45.9928], [20.32968, 46.01235], [20.06103, 45.9549], [20.01474, 45.94981], [19.94878, 45.91923], [19.90496, 45.87299], [19.87871, 45.81584], [19.86546, 45.75252], [19.851, 45.46281], [19.85619, 45.37939], [19.87378, 45.30738], [19.88869, 45.27656], [19.91122, 45.24743], [19.94402, 45.21862], [19.98976, 45.18885], [20.13044, 45.12101], [20.25706, 45.07302], [20.32211, 45.03682], [20.34499, 45.01222], [20.35974, 44.98095], [20.36513, 44.94127], [20.35999, 44.90829], [20.34596, 44.87774], [20.25724, 44.76251], [20.24088, 44.73107], [20.2324, 44.69679], [20.2328, 44.64595], [20.24204, 44.60705], [20.2723, 44.52938], [20.26662, 44.50562], [20.24488, 44.47747], [20.20225, 44.44171], [20.14697, 44.40531], [20.01089, 44.32934], [19.97985, 44.29991], [19.95836, 44.26085], [19.94788, 44.20761], [19.9498, 44.13561], [19.92498, 44.13368], [19.61144, 44.05452], [19.61888, 44.03571], [19.61041, 44.01928], [19.59336, 44.00558], [19.55222, 43.98341], [19.52855, 43.97721], [19.50406, 43.97566], [19.44711, 43.9798], [19.36464, 43.97329], [19.32588, 43.99659], [19.28733, 44.01302], [19.25208, 44.0075], [19.24351, 44.00202], [19.23803, 43.99251], [19.24289, 43.97282], [19.24072, 43.96574], [19.22935, 43.95768], [19.27544, 43.93326], [19.30593, 43.90474], [19.35947, 43.84221], [19.46168, 43.76214], [19.48174, 43.72922], [19.50571, 43.67364], [19.50737, 43.64718], [19.48174, 43.62891], [19.4775, 43.61698], [19.47688, 43.58868], [19.48174, 43.57812], [19.49176, 43.56861], [19.48959, 43.56445], [19.48173, 43.56083], [19.44391, 43.57186], [19.43182, 43.57114], [19.41931, 43.54926], [19.41073, 43.54075], [19.33931, 43.48236], [19.30457, 43.55184], [19.24984, 43.61436], [19.22919, 43.62184], [19.15687, 43.61057], [19.12961, 43.61521], [19.06485, 43.67294], [19.04351, 43.66833], [18.99626, 43.70409], [18.95468, 43.74342], [18.87279, 43.83781], [18.82643, 43.8735], [18.79934, 43.888], [18.73463, 43.90917], [18.5962, 43.93043], [18.52895, 43.94709], [18.49696, 43.96053], [18.39884, 44.02285], [18.35266, 44.04617], [18.3033, 44.06414], [18.17675, 44.09799], [18.123, 44.12076], [17.94389, 44.22561], [17.87102, 44.25138], [17.78462, 44.2703], [17.74866, 44.28755], [17.73891, 44.29969], [17.73772, 44.31462], [17.7474, 44.33268], [17.76207, 44.34434], [17.79748, 44.35754], [17.85529, 44.35514], [17.92568, 44.33469], [18.03381, 44.29173], [18.14808, 44.26559], [18.21864, 44.2378], [18.24429, 44.21641], [18.28264, 44.14812], [18.32128, 44.1232], [18.37096, 44.11609], [18.42797, 44.12463], [18.46075, 44.13971], [18.47698, 44.16354], [18.47594, 44.18185], [18.4558, 44.21755], [18.40166, 44.26406], [18.16678, 44.41373], [17.92578, 44.5449], [17.80013, 44.62875], [17.64768, 44.69881], [17.54241, 44.77601], [17.51968, 44.78262], [17.44014, 44.78345], [17.41371, 44.79109], [17.39564, 44.80272], [17.36384, 44.84011], [17.34091, 44.85209], [17.28925, 44.84195], [17.07309, 44.84573], [16.89185, 44.81376], [16.84398, 44.8174], [16.78566, 44.83449], [16.74027, 44.86267], [16.71348, 44.89921], [16.70359, 44.96072], [16.781, 45.17997], [16.58703, 45.22086], [16.52894, 45.22225], [16.48192, 45.19952], [16.44916, 45.1481], [16.43551, 45.13285], [16.38921, 45.11683], [16.38177, 45.10758], [16.38404, 45.09544], [16.38198, 45.08371], [16.35697, 45.04862], [16.34064, 45.00594], [16.31624, 45.00123], [16.27935, 45.00718], [16.24121, 45.01896], [16.21299, 45.03146], [16.12153, 45.09616], [16.10406, 45.11254], [16.08277, 45.15161], [16.06747, 45.16959], [16.05497, 45.17642], [16.03306, 45.17972], [16.02437, 45.18432], [16.02923, 45.20504], [16.02045, 45.21393], [15.9975, 45.21853], [15.97456, 45.21538], [15.88048, 45.21721], [15.86776, 45.21176], [15.83516, 45.22016], [15.76365, 45.25932], [15.66782, 45.34237], [15.56549, 45.41768], [15.49448, 45.46122], [15.4746, 45.48314], [15.47, 45.49582], [15.47041, 45.51163], [15.47748, 45.52182], [15.4896, 45.52704], [15.5227, 45.52521], [15.55735, 45.51151], [15.64591, 45.44053], [15.67923, 45.38608], [15.84039, 45.28068], [15.86378, 45.25535]], [[14.7579, 49.7968], [14.75789, 49.79681], [14.74538, 49.80291], [14.7579, 49.7968]]], [[[15.58582, 45.67897], [15.54173, 45.72377], [15.48781, 45.79475], [15.44282, 45.86771], [15.43898, 45.89213], [15.45493, 45.90038], [15.4744, 45.90123], [15.50531, 45.89405], [15.52028, 45.88437], [15.53713, 45.8558], [15.55175, 45.78544], [15.62546, 45.71129], [15.80531, 45.61955], [15.81195, 45.59788], [15.80111, 45.56814], [15.74907, 45.58132], [15.69874, 45.6019], [15.63111, 45.64213], [15.58582, 45.67897]]], [[[15.03889, 45.95019], [15.06584, 45.95246], [15.09625, 45.93897], [15.14945, 45.87351], [15.22848, 45.80966], [15.2427, 45.77963], [15.23789, 45.76082], [15.22768, 45.75437], [15.21389, 45.75619], [15.18057, 45.77672], [15.11522, 45.84064], [15.04778, 45.88859], [15.02449, 45.9142], [15.02137, 45.9275], [15.02648, 45.94133], [15.03889, 45.95019]]], [[[15.39931, 46.04826], [15.41681, 46.06679], [15.42933, 46.06754], [15.44358, 46.06049], [15.46469, 46.03403], [15.46906, 46.00427], [15.46339, 45.98714], [15.45141, 45.97337], [15.44039, 45.96903], [15.42505, 45.97218], [15.40938, 45.98671], [15.39573, 46.01767], [15.39931, 46.04826]]], [[[15.19354, 46.31389], [15.21622, 46.28825], [15.20347, 46.24431], [15.23412, 46.09918], [15.21656, 45.99628], [15.23842, 45.91646], [15.23359, 45.90155], [15.19932, 45.90842], [15.16646, 45.93816], [15.15378, 45.97586], [15.16236, 46.00959], [15.11701, 46.10431], [15.09839, 46.12947], [15.10468, 46.19415], [15.09206, 46.28523], [15.09446, 46.3959], [15.10463, 46.40582], [15.1334, 46.40646], [15.15488, 46.39676], [15.17835, 46.3638], [15.19354, 46.31389]]], [[[15.29109, 46.27887], [15.33303, 46.32696], [15.34402, 46.35176], [15.3197, 46.40951], [15.32296, 46.42428], [15.33469, 46.43454], [15.35198, 46.43961], [15.37225, 46.43875], [15.40446, 46.42117], [15.43318, 46.36045], [15.48317, 46.29271], [15.48542, 46.27094], [15.45819, 46.24083], [15.45653, 46.22637], [15.47537, 46.18421], [15.4752, 46.16647], [15.46586, 46.15371], [15.4358, 46.14793], [15.39209, 46.15975], [15.34576, 46.18386], [15.30686, 46.21536], [15.29362, 46.23238], [15.28569, 46.25737], [15.29109, 46.27887]]], [[[18.21238, 43.94833], [18.25367, 43.94936], [18.34072, 43.92879], [18.40446, 43.90728], [18.4244, 43.88828], [18.41066, 43.87343], [18.37373, 43.86446], [18.3242, 43.86316], [18.27245, 43.87135], [18.22868, 43.89086], [18.20285, 43.92355], [18.20223, 43.93966], [18.21238, 43.94833]]], [[[17.31298, 44.2737], [17.36924, 44.26857], [17.50157, 44.20937], [17.56857, 44.19321], [17.6276, 44.19343], [17.71646, 44.20879], [17.74867, 44.20514], [17.79533, 44.18267], [17.87133, 44.13025], [17.88576, 44.11565], [17.87759, 44.10435], [17.85643, 44.10073], [17.67756, 44.12782], [17.64287, 44.11243], [17.6207, 44.10945], [17.59486, 44.11462], [17.51733, 44.14526], [17.48074, 44.1483], [17.40539, 44.13724], [17.37504, 44.14138], [17.3445, 44.15821], [17.31744, 44.18319], [17.29737, 44.21179], [17.28769, 44.23943], [17.29172, 44.26152], [17.31298, 44.2737]]], [[[17.08287, 44.45795], [17.07083, 44.4373], [17.05081, 44.42455], [17.02483, 44.42043], [16.99642, 44.42345], [16.96938, 44.43227], [16.9479, 44.44572], [16.93652, 44.4628], [16.93976, 44.48257], [16.96125, 44.50364], [16.98125, 44.51194], [17.00508, 44.51431], [17.05267, 44.50356], [17.07093, 44.49167], [17.08192, 44.47625], [17.08287, 44.45795]]], [[[17.76317, 44.5109], [17.82861, 44.49678], [17.84171, 44.48531], [17.83942, 44.46616], [17.82024, 44.45391], [17.79036, 44.45456], [17.73374, 44.46709], [17.68781, 44.47015], [17.62719, 44.4609], [17.54328, 44.43537], [17.49431, 44.42573], [17.43632, 44.42777], [17.39552, 44.43474], [17.27312, 44.47154], [17.22767, 44.49241], [17.21699, 44.50219], [17.21943, 44.50906], [17.17434, 44.5383], [17.15069, 44.56031], [17.13851, 44.58316], [17.13851, 44.59466], [17.14765, 44.60779], [17.16556, 44.61183], [17.21734, 44.60081], [17.37692, 44.53305], [17.47657, 44.50621], [17.57953, 44.49914], [17.70969, 44.51131], [17.76317, 44.5109]]], [[[17.14749, 44.77067], [17.33262, 44.7254], [17.36093, 44.71359], [17.37749, 44.69796], [17.37679, 44.67492], [17.35484, 44.65956], [17.32109, 44.65273], [17.26771, 44.65264], [17.22015, 44.65856], [17.12519, 44.68286], [17.08415, 44.69936], [17.05232, 44.71775], [17.034, 44.73761], [17.03377, 44.75868], [17.0485, 44.77082], [17.07478, 44.77592], [17.14749, 44.77067]]]]}}]}