{"type": "FeatureCollection", "features": [{"type": "Feature", "properties": {"map_title": "참전국의 사상자 수", "source": "미래엔 세계사 교과서 4권 183쪽", "volume": 4, "page": 183, "legend": "연합국", "name": "루마니아", "name_en": "Romania", "period": "1914–1918", "kind": "국가", "alliance": "연합국", "soldiers": 1000000, "casualties": 150000, "coast_snap": "Natural Earth 10m 해안선에 맞춤", "border_snap": "현대 국경(Natural Earth 10m)에 맞춘 구간 약 476 km"}, "geometry": {"type": "MultiPolygon", "coordinates": [[[[29.80745, 45.61434], [29.73111, 45.59142], [29.80144, 45.62189], [29.81479, 45.64106], [29.8567, 45.64912], [30.0755, 45.7923], [30.12571, 45.81136], [29.90773, 45.66628], [29.80745, 45.61434]]], [[[23.46244, 45.64496], [23.44041, 45.68504], [23.57433, 45.78451], [23.62972, 45.76671], [23.64132, 45.76782], [23.71462, 45.82001], [23.76715, 45.83378], [23.85786, 45.88569], [24.04093, 46.01528], [24.09749, 46.05167], [24.16168, 46.08422], [24.23937, 46.11261], [24.33637, 46.13648], [24.44194, 46.15366], [24.64208, 46.16838], [25.03275, 46.17005], [25.13653, 46.17513], [25.24372, 46.1893], [25.34071, 46.21386], [25.58331, 46.30202], [25.66303, 46.32237], [25.74925, 46.33109], [25.84542, 46.32369], [25.98542, 46.29419], [26.04769, 46.28854], [26.14368, 46.29304], [26.28107, 46.30711], [26.34545, 46.30851], [26.42176, 46.30106], [26.50575, 46.27741], [26.58818, 46.23833], [26.75065, 46.1467], [26.83134, 46.11055], [26.91328, 46.09129], [26.99779, 46.098], [27.08151, 46.13863], [27.10719, 46.16292], [27.1252, 46.19138], [27.17193, 46.32428], [27.18953, 46.35453], [27.21439, 46.38071], [27.27367, 46.41574], [27.398, 46.46858], [27.42479, 46.48768], [27.44811, 46.51245], [27.47745, 46.57077], [27.48233, 46.62778], [27.46813, 46.68586], [27.4386, 46.74486], [27.39834, 46.80311], [27.20795, 47.03231], [27.15507, 47.11807], [27.12584, 47.22024], [27.13319, 47.36884], [27.12894, 47.4257], [27.11951, 47.45096], [27.08546, 47.4963], [27.03429, 47.54081], [26.97289, 47.58101], [26.90425, 47.6177], [26.82956, 47.65188], [26.62009, 47.73168], [26.69345, 47.77384], [26.77552, 47.80704], [27.1607, 47.92173], [27.17827, 47.93793], [27.17827, 47.94413], [27.15098, 47.9578], [27.16287, 47.96501], [27.16979, 47.97379], [27.16876, 47.98307], [27.15718, 47.99196], [27.14375, 47.98684], [27.12148, 48.01319], [27.09579, 48.0056], [27.08897, 48.01981], [27.10933, 48.02609], [27.10933, 48.0335], [27.08318, 48.04366], [27.05921, 48.05805], [27.04174, 48.07727], [27.0343, 48.10177], [27.04742, 48.1165], [27.04804, 48.12223], [27.20855, 48.36062], [27.24648, 48.37374], [27.30601, 48.42366], [27.34219, 48.43611], [27.36141, 48.43281], [27.38983, 48.41501], [27.40347, 48.41149], [27.42022, 48.41715], [27.48088, 48.45141], [27.50383, 48.47236], [27.42255, 48.69168], [27.56571, 48.85528], [27.87017, 48.87136], [28.16394, 48.74903], [28.3282, 48.55075], [28.35972, 48.46766], [28.34058, 48.24011], [28.35773, 48.23861], [28.36817, 48.23062], [28.37003, 48.21163], [28.36336, 48.19101], [28.32218, 48.16321], [28.31556, 48.14928], [28.31742, 48.13536], [28.32859, 48.12701], [28.34957, 48.12972], [28.36497, 48.14151], [28.38863, 48.16859], [28.41158, 48.1707], [28.42729, 48.16337], [28.4369, 48.14985], [28.43566, 48.13469], [28.41902, 48.12223], [28.44744, 48.08275], [28.47958, 48.06492], [28.49002, 48.06549], [28.50108, 48.11283], [28.51932, 48.14913], [28.5416, 48.15595], [28.57364, 48.15497], [28.66562, 48.12934], [28.73507, 48.12869], [28.77125, 48.12445], [28.79926, 48.11179], [28.80592, 48.10381], [28.81155, 48.08291], [28.82757, 48.05702], [28.83253, 48.02482], [28.85569, 48.00792], [28.88256, 47.97676], [28.9148, 47.95315], [28.95036, 47.9348], [28.98085, 47.92638], [29.01723, 47.93108], [29.06105, 47.96976], [29.09272, 47.98017], [29.12399, 47.97599], [29.13629, 47.96818], [29.14797, 47.95537], [29.15582, 47.93987], [29.16461, 47.9056], [29.17257, 47.89101], [29.18662, 47.88364], [29.226, 47.87558], [29.23602, 47.87072], [29.23277, 47.85708], [29.18672, 47.81822], [29.17773, 47.8007], [29.17784, 47.78972], [29.18745, 47.78321], [29.22197, 47.77481], [29.23473, 47.7668], [29.23861, 47.756], [29.19696, 47.7175], [29.19148, 47.68626], [29.19241, 47.65092], [29.18207, 47.61322], [29.15618, 47.58278], [29.1305, 47.55963], [29.11743, 47.53333], [29.1304, 47.4932], [29.15561, 47.45], [29.16388, 47.43938], [29.18207, 47.42987], [29.19241, 47.43581], [29.20187, 47.44659], [29.21835, 47.4516], [29.23261, 47.44633], [29.2507, 47.42538], [29.2814, 47.41147], [29.30083, 47.37819], [29.34584, 47.36584], [29.35891, 47.35272], [29.36408, 47.33688], [29.36759, 47.30822], [29.38082, 47.29298], [29.39446, 47.28471], [29.42557, 47.27867], [29.4417, 47.28213], [29.45916, 47.2935], [29.47064, 47.32275], [29.48087, 47.33827], [29.52097, 47.33892], [29.53988, 47.33422], [29.55657, 47.32404], [29.57006, 47.30678], [29.57926, 47.2836], [29.58019, 47.26045], [29.56872, 47.24314], [29.54402, 47.23425], [29.5404, 47.21255], [29.55063, 47.16017], [29.54484, 47.13557], [29.53037, 47.12369], [29.48087, 47.11749], [29.4787, 47.10847], [29.49133, 47.09183], [29.20067, 46.97153], [29.17675, 46.92083], [29.13068, 46.80195], [29.12211, 46.76657], [29.16275, 46.53809], [29.07495, 46.50367], [29.02033, 46.48952], [28.94581, 46.45479], [28.92545, 46.43277], [28.91925, 46.40466], [28.92731, 46.36802], [28.94488, 46.32074], [28.94581, 46.30498], [28.93289, 46.27263], [28.93351, 46.25899], [28.95062, 46.24312], [29.00984, 46.20436], [29.01537, 46.18261], [29.01317, 46.17823], [29.33569, 46.11577], [29.35521, 46.12723], [29.44934, 46.16119], [29.50018, 46.17303], [29.60603, 46.18609], [29.70758, 46.18415], [29.77643, 46.17475], [29.81144, 46.18409], [29.86738, 46.16273], [30.0283, 46.11381], [30.12314, 46.07566], [30.22753, 46.01778], [30.31647, 45.94693], [30.26108, 45.89527], [30.2046, 45.85569], [30.13846, 45.81979], [30.13527, 45.88915], [30.12745, 45.89134], [30.11061, 45.87507], [30.09457, 45.81485], [30.08671, 45.81355], [30.07244, 45.82099], [30.06121, 45.81348], [30.01466, 45.83967], [29.99073, 45.84707], [29.96852, 45.83894], [29.95288, 45.77199], [29.93238, 45.79243], [29.93914, 45.81045], [29.93507, 45.81615], [29.92628, 45.81379], [29.91871, 45.79987], [29.92237, 45.76944], [29.93929, 45.75153], [29.93238, 45.72422], [29.91969, 45.74055], [29.89822, 45.75154], [29.89617, 45.76362], [29.88771, 45.76512], [29.87403, 45.75154], [29.82374, 45.74763], [29.80242, 45.73749], [29.79575, 45.71735], [29.80323, 45.70417], [29.84302, 45.69065], [29.86499, 45.67234], [29.80958, 45.64859], [29.78907, 45.65526], [29.78386, 45.64663], [29.78907, 45.63544], [29.74594, 45.62263], [29.73375, 45.61435], [29.73504, 45.64057], [29.72397, 45.66743], [29.70525, 45.68842], [29.68264, 45.69685], [29.67922, 45.75153], [29.69386, 45.78132], [29.68043, 45.79828], [29.65333, 45.81387], [29.64283, 45.82722], [29.63356, 45.82136], [29.63461, 45.80663], [29.65185, 45.78901], [29.62387, 45.75153], [29.62534, 45.72826], [29.63752, 45.70991], [29.6032, 45.69131], [29.59718, 45.65229], [29.59936, 45.60444], [29.58969, 45.55907], [29.62908, 45.5467], [29.64845, 45.5454], [29.66684, 45.54816], [29.70695, 45.57323], [29.66162, 45.52587], [29.63803, 45.51386], [29.62671, 45.49507], [29.60515, 45.48701], [29.60572, 45.47818], [29.6211, 45.45441], [29.6408, 45.4418], [29.65187, 45.44302], [29.65632, 45.47424], [29.67236, 45.47711], [29.6753, 45.44961], [29.68653, 45.45356], [29.68589, 45.45725], [29.70215, 45.4566], [29.70867, 45.45279], [29.71323, 45.43623], [29.72447, 45.46816], [29.73227, 45.47572], [29.74739, 45.46344], [29.75585, 45.42789], [29.7478, 45.4143], [29.72771, 45.41568], [29.74187, 45.40453], [29.75016, 45.38581], [29.75618, 45.32156], [29.72975, 45.25812], [29.72973, 45.23774], [29.69211, 45.21669], [29.67449, 45.21358], [29.62387, 45.2165], [29.64975, 45.1778], [29.667, 45.16421], [29.69953, 45.1618], [29.67652, 45.1446], [29.6644, 45.11693], [29.65625, 45.02896], [29.63754, 44.98371], [29.63091, 44.93886], [29.62387, 44.9291], [29.63037, 44.90766], [29.60515, 44.88003], [29.61783, 44.86148], [29.61116, 44.84932], [29.58351, 44.84028], [29.56178, 44.82027], [29.542, 44.82783], [29.51058, 44.82046], [29.31621, 44.79881], [29.19207, 44.79287], [29.1561, 44.78441], [29.05584, 44.73518], [29.02638, 44.71467], [29.00073, 44.68892], [28.99391, 44.69636], [28.99488, 44.71113], [28.97496, 44.74493], [29.09816, 44.77538], [29.12062, 44.78657], [29.13868, 44.80402], [29.14471, 44.82665], [29.13884, 44.83918], [29.09637, 44.87507], [29.10375, 44.84029], [29.0879, 44.84272], [29.06032, 44.83236], [29.04861, 44.84716], [29.0442, 44.86523], [29.04177, 44.92568], [29.0521, 44.94464], [29.09881, 44.95698], [29.11061, 44.97004], [29.10174, 44.98029], [29.05828, 45.00096], [28.98325, 45.01227], [28.97283, 45.01097], [28.96021, 44.98771], [28.91684, 44.97968], [28.8694, 44.94334], [28.86354, 44.92231], [28.87662, 44.90485], [28.86354, 44.89155], [28.86647, 44.88264], [28.88152, 44.8697], [28.90405, 44.86273], [28.95238, 44.82665], [28.93971, 44.81688], [28.92498, 44.81306], [28.93873, 44.806], [28.93872, 44.79878], [28.92628, 44.79295], [28.92547, 44.78368], [28.94611, 44.7652], [28.92414, 44.75785], [28.86883, 44.75357], [28.79835, 44.7202], [28.78712, 44.6933], [28.79371, 44.68789], [28.80834, 44.69633], [28.8042, 44.68424], [28.78541, 44.67967], [28.78403, 44.64924], [28.79249, 44.64472], [28.84555, 44.65156], [28.86948, 44.66181], [28.91196, 44.69636], [28.89774, 44.71677], [28.96745, 44.70098], [28.98341, 44.69261], [28.98755, 44.67528], [28.97933, 44.65535], [28.96228, 44.63957], [28.93876, 44.63428], [28.97267, 44.67023], [28.97535, 44.68684], [28.9524, 44.69636], [28.95777, 44.67878], [28.93873, 44.67525], [28.91822, 44.68268], [28.90454, 44.66841], [28.85417, 44.63436], [28.77418, 44.60077], [28.79469, 44.63426], [28.76694, 44.63373], [28.75782, 44.62678], [28.75367, 44.61376], [28.76677, 44.61375], [28.76059, 44.6037], [28.76441, 44.59589], [28.78781, 44.58649], [28.74806, 44.57779], [28.73268, 44.56786], [28.73268, 44.55231], [28.74692, 44.56598], [28.77416, 44.55231], [28.75343, 44.5135], [28.74562, 44.48615], [28.75026, 44.4667], [28.75847, 44.46528], [28.77198, 44.48371], [28.77835, 44.50739], [28.80836, 44.52505], [28.85565, 44.56768], [28.89243, 44.57705], [28.90626, 44.58771], [28.92494, 44.62046], [28.9095, 44.58397], [28.84399, 44.49373], [28.79672, 44.46792], [28.70655, 44.38105], [28.69312, 44.34615], [28.68019, 44.35334], [28.6644, 44.34838], [28.65122, 44.34003], [28.6351, 44.31639], [28.63103, 44.26435], [28.66513, 44.19947], [28.66489, 44.1756], [28.67168, 44.16872], [28.65838, 44.17446], [28.64584, 44.17202], [28.63087, 44.15449], [28.67171, 43.99738], [28.66, 43.9798], [28.63769, 43.91865], [28.60939, 43.8745], [28.58448, 43.80085], [28.58919, 43.79133], [28.57557, 43.70427], [28.55929, 43.71595], [28.54203, 43.73976], [28.43457, 43.73521], [28.22125, 43.76198], [28.01481, 43.83004], [27.98101, 43.84934], [27.93584, 43.9644], [27.91207, 43.99334], [28.13282, 44.15571], [28.13654, 44.20793], [28.13126, 44.31012], [28.14685, 44.39903], [28.18744, 44.48299], [28.18595, 44.49043], [28.11565, 44.51398], [28.06695, 44.53685], [27.9986, 44.58135], [27.93698, 44.6327], [27.7142, 44.85988], [27.65169, 44.9116], [27.5811, 44.95692], [27.48512, 44.99626], [27.3956, 45.00891], [27.31272, 45.00012], [27.23267, 44.97708], [27.06714, 44.91638], [26.97422, 44.89213], [26.86884, 44.88082], [26.82541, 44.88203], [26.74899, 44.89456], [26.6471, 44.92341], [26.57311, 44.93773], [26.28415, 44.95667], [25.8905, 44.96486], [25.51867, 44.98237], [25.37786, 44.97542], [25.10844, 44.94741], [25.07726, 44.95106], [24.88725, 45.00318], [24.78193, 45.02543], [24.68341, 45.03942], [24.58755, 45.04551], [24.48897, 45.04389], [24.38634, 45.03483], [24.04874, 44.97787], [23.98768, 44.97545], [23.95813, 44.97855], [23.8999, 44.99608], [23.84063, 45.02575], [23.80833, 45.05314], [23.80082, 45.0691], [23.80196, 45.08653], [23.81388, 45.10543], [23.88622, 45.14817], [23.90216, 45.17267], [23.90601, 45.19647], [23.90164, 45.22137], [23.89088, 45.24621], [23.85877, 45.29229], [23.82465, 45.33046], [23.73119, 45.41424], [23.66633, 45.46098], [23.64434, 45.47072], [23.63334, 45.47048], [23.6178, 45.44969], [23.38347, 45.58108], [23.45932, 45.63628], [23.46244, 45.64496]]]]}}]}