{"type": "FeatureCollection", "features": [{"type": "Feature", "properties": {"map_title": "참전국의 사상자 수", "source": "미래엔 세계사 교과서 4권 183쪽", "volume": 4, "page": 183, "legend": "연합국", "name": "이탈리아", "name_en": "Italy", "period": "1914–1918", "kind": "국가", "alliance": "연합국", "soldiers": 560000, "casualties": 530000, "coast_snap": "Natural Earth 10m 해안선에 맞춤", "border_snap": "현대 국경(Natural Earth 10m)에 맞춘 구간 약 1092 km"}, "geometry": {"type": "MultiPolygon", "coordinates": [[[[8.88114, 41.02366], [8.9227, 41.03677], [8.94013, 41.06118], [8.95875, 41.07001], [8.99073, 41.09736], [9.00555, 41.12189], [9.02475, 41.12884], [9.10776, 41.13947], [9.13559, 41.16029], [9.14186, 41.15278], [9.15756, 41.16889], [9.16342, 41.18415], [9.16285, 41.22541], [9.17106, 41.24289], [9.23063, 41.26263], [9.23829, 41.24885], [9.25782, 41.24965], [9.26806, 41.23664], [9.26743, 41.20197], [9.27833, 41.19501], [9.27491, 41.21239], [9.27833, 41.22175], [9.28532, 41.22174], [9.2893, 41.20873], [9.28533, 41.19501], [9.31251, 41.20123], [9.33302, 41.18757], [9.33524, 41.21165], [9.35205, 41.20725], [9.38819, 41.18073], [9.38819, 41.18757], [9.42237, 41.18072], [9.42236, 41.17451], [9.4087, 41.1603], [9.42017, 41.15643], [9.44287, 41.13297], [9.43678, 41.11538], [9.44288, 41.09199], [9.46043, 41.12047], [9.47006, 41.12612], [9.45657, 41.14036], [9.46909, 41.14617], [9.50807, 41.14037], [9.52393, 41.14971], [9.53222, 41.14037], [9.52475, 41.13296], [9.54615, 41.12092], [9.55957, 41.12611], [9.5664, 41.11932], [9.56225, 41.09712], [9.5459, 41.07772], [9.53907, 41.09199], [9.52125, 41.03168], [9.51189, 41.01626], [9.53224, 41.01626], [9.52475, 41.0305], [9.54314, 41.03692], [9.5542, 41.03461], [9.55755, 41.02527], [9.55274, 41.00947], [9.55779, 41.00943], [9.55958, 41.01626], [9.57325, 41.00947], [9.58815, 41.02069], [9.61544, 41.01961], [9.66259, 41.00263], [9.65121, 40.99113], [9.60426, 41.00263], [9.58758, 40.9958], [9.57886, 40.96199], [9.56642, 40.94864], [9.57112, 40.93489], [9.55742, 40.93122], [9.51189, 40.93431], [9.51254, 40.92797], [9.50424, 40.92691], [9.51197, 40.91519], [9.53907, 40.92064], [9.57325, 40.9064], [9.59278, 40.9099], [9.62257, 40.92376], [9.64208, 40.92063], [9.63151, 40.90486], [9.61411, 40.8996], [9.61411, 40.89338], [9.65576, 40.87604], [9.66326, 40.85822], [9.68311, 40.86541], [9.69939, 40.85004], [9.72394, 40.84492], [9.681, 40.82978], [9.68978, 40.81079], [9.67449, 40.81391], [9.66179, 40.80903], [9.65789, 40.79987], [9.66879, 40.79035], [9.66977, 40.80146], [9.67579, 40.78864], [9.70394, 40.75942], [9.7142, 40.72724], [9.74446, 40.68048], [9.75652, 40.59516], [9.76157, 40.58735], [9.7819, 40.58197], [9.79225, 40.55695], [9.82641, 40.5296], [9.80875, 40.47077], [9.77809, 40.42723], [9.76172, 40.3907], [9.74935, 40.37727], [9.71241, 40.3664], [9.68311, 40.32421], [9.64552, 40.29609], [9.62615, 40.26309], [9.63111, 40.19619], [9.65463, 40.1446], [9.66505, 40.13158], [9.68758, 40.12085], [9.71022, 40.09634], [9.73226, 40.08393], [9.73023, 40.06836], [9.69337, 39.99291], [9.68727, 39.96117], [9.69662, 39.93378], [9.71566, 39.94012], [9.71698, 39.93153], [9.62929, 39.89453], [9.54155, 39.87411], [9.45035, 39.86718], [9.35858, 39.87412], [9.27138, 39.8944], [9.21783, 39.91492], [9.22122, 40.00638], [9.13224, 40.05649], [9.11172, 40.06095], [9.04791, 40.03506], [9.03254, 40.03621], [9.0135, 40.07483], [8.97373, 40.22411], [8.86116, 40.36189], [8.83394, 40.40566], [8.85093, 40.49085], [8.76704, 40.51298], [8.68529, 40.54512], [8.64717, 40.56598], [8.58065, 40.61512], [8.52789, 40.67317], [8.49094, 40.73794], [8.47887, 40.77207], [8.4694, 40.82806], [8.49941, 40.82457], [8.52052, 40.82697], [8.5984, 40.85297], [8.63429, 40.88158], [8.64123, 40.89657], [8.70916, 40.92063], [8.73419, 40.92126], [8.76441, 40.9138], [8.82252, 40.94733], [8.83961, 40.96162], [8.87535, 41.00811], [8.88795, 41.01626], [8.88114, 41.02366]]], [[[9.74462, 40.86916], [9.73404, 40.85811], [9.71934, 40.86376], [9.71399, 40.87348], [9.73414, 40.87632], [9.74462, 40.86916]]], [[[9.67606, 40.89022], [9.73366, 40.92462], [9.73633, 40.92429], [9.74007, 40.9123], [9.70037, 40.89062], [9.69134, 40.8883], [9.67606, 40.89022]]], [[[9.39438, 41.19507], [9.40821, 41.20742], [9.41748, 41.20042], [9.40781, 41.18513], [9.40235, 41.19021], [9.39552, 41.1896], [9.39438, 41.19507]]], [[[9.47948, 41.22419], [9.47038, 41.17212], [9.44874, 41.18553], [9.44166, 41.18306], [9.43702, 41.18594], [9.44776, 41.20506], [9.44353, 41.21149], [9.44646, 41.2204], [9.46026, 41.24233], [9.47477, 41.23606], [9.47948, 41.22419]]], [[[9.39186, 41.24071], [9.39797, 41.25604], [9.41424, 41.26242], [9.42188, 41.26088], [9.4305, 41.24628], [9.42905, 41.2294], [9.43531, 41.21703], [9.39527, 41.2106], [9.37697, 41.21333], [9.37306, 41.22987], [9.39186, 41.24071]]], [[[9.13748, 41.24087], [9.14162, 41.24643], [9.15837, 41.24216], [9.14674, 41.23002], [9.13748, 41.24087]]], [[[9.3422, 41.22814], [9.3297, 41.23758], [9.33287, 41.25079], [9.3379, 41.25221], [9.35302, 41.24782], [9.35076, 41.23223], [9.3422, 41.22814]]], [[[9.35058, 41.27598], [9.34466, 41.27482], [9.33108, 41.28104], [9.3506, 41.28872], [9.35058, 41.27598]]], [[[9.35825, 41.2969], [9.37679, 41.30779], [9.3789, 41.29585], [9.36475, 41.28792], [9.35825, 41.2969]]], [[[9.35418, 41.29287], [9.33702, 41.2945], [9.33092, 41.30471], [9.33525, 41.30827], [9.35328, 41.29934], [9.35418, 41.29287]]], [[[9.26888, 41.36462], [9.26262, 41.3608], [9.25043, 41.36547], [9.25186, 41.37118], [9.26481, 41.37213], [9.26888, 41.36462]]], [[[8.59156, 42.35114], [8.55213, 42.33896], [8.55958, 42.34638], [8.54909, 42.3771], [8.5521, 42.38669], [8.57049, 42.38178], [8.58628, 42.39296], [8.59864, 42.3876], [8.61844, 42.41942], [8.65089, 42.42328], [8.65952, 42.42988], [8.6614, 42.45189], [8.67677, 42.47248], [8.65709, 42.48005], [8.6675, 42.50971], [8.68044, 42.52105], [8.71656, 42.53071], [8.7108, 42.54011], [8.71632, 42.562], [8.70917, 42.57915], [8.71973, 42.57598], [8.72348, 42.5655], [8.74, 42.57232], [8.77125, 42.55805], [8.78696, 42.562], [8.79884, 42.57176], [8.81284, 42.59959], [8.80546, 42.60642], [8.84303, 42.60806], [8.90651, 42.63246], [8.98495, 42.64486], [9.07823, 42.61471], [9.12133, 42.64428], [9.21557, 42.727], [9.25802, 42.71379], [9.27094, 42.70207], [9.28533, 42.67475], [9.29217, 42.67475], [9.32789, 42.72004], [9.34254, 42.74909], [9.33303, 42.77094], [9.34099, 42.79011], [9.33647, 42.80445], [9.37306, 42.82005], [9.40746, 42.85524], [9.46944, 42.90451], [9.48437, 42.83242], [9.48277, 42.80255], [9.45037, 42.70889], [9.45037, 42.65363], [9.44288, 42.64057], [9.45655, 42.63443], [9.46168, 42.61982], [9.45655, 42.60643], [9.4646, 42.60162], [9.4769, 42.57917], [9.51189, 42.5655], [9.50912, 42.57998], [9.48964, 42.61255], [9.52814, 42.56329], [9.53338, 42.45624], [9.5459, 42.43513], [9.53541, 42.40819], [9.53224, 42.37372], [9.55957, 42.29458], [9.55226, 42.17015], [9.55957, 42.14655], [9.55281, 42.11326], [9.54573, 42.10417], [9.51857, 42.08511], [9.4923, 42.0476], [9.40317, 41.95295], [9.3943, 41.84797], [9.403, 41.77949], [9.40161, 41.70645], [9.37224, 41.6839], [9.36703, 41.67422], [9.38069, 41.67421], [9.37785, 41.65623], [9.37304, 41.64518], [9.36387, 41.64018], [9.34523, 41.64033], [9.34667, 41.61958], [9.31821, 41.62714], [9.29217, 41.62641], [9.29394, 41.61762], [9.27858, 41.59838], [9.29217, 41.59162], [9.34504, 41.60448], [9.35416, 41.5954], [9.35065, 41.5814], [9.32693, 41.56125], [9.29965, 41.55329], [9.28198, 41.53328], [9.26466, 41.53083], [9.26986, 41.51679], [9.26466, 41.50288], [9.2762, 41.49941], [9.27913, 41.49165], [9.26466, 41.47614], [9.27083, 41.46874], [9.22803, 41.45003], [9.2107, 41.44823], [9.2107, 41.44086], [9.22332, 41.42731], [9.2107, 41.40729], [9.25032, 41.42778], [9.23885, 41.39606], [9.22288, 41.37239], [9.20643, 41.36598], [9.19387, 41.36914], [9.16912, 41.38618], [9.09646, 41.40352], [9.10728, 41.42926], [9.12135, 41.43464], [9.06659, 41.46191], [9.07984, 41.47614], [9.07985, 41.48237], [9.03875, 41.46192], [9.03199, 41.46874], [9.03875, 41.47614], [9.01832, 41.46875], [9.00099, 41.48306], [8.95102, 41.49189], [8.93572, 41.48921], [8.90691, 41.50731], [8.88365, 41.51119], [8.87371, 41.52338], [8.83963, 41.53083], [8.85328, 41.53766], [8.85328, 41.54385], [8.83334, 41.55073], [8.80991, 41.55269], [8.79177, 41.56123], [8.7964, 41.58055], [8.79322, 41.58731], [8.77811, 41.59163], [8.80177, 41.63905], [8.81902, 41.63264], [8.87257, 41.65107], [8.88111, 41.65713], [8.88577, 41.67088], [8.9227, 41.69465], [8.78884, 41.71256], [8.77615, 41.7224], [8.78492, 41.7425], [8.7601, 41.74266], [8.71908, 41.73071], [8.69559, 41.72945], [8.70297, 41.7425], [8.68873, 41.74177], [8.65516, 41.74991], [8.6963, 41.7582], [8.71754, 41.77204], [8.72022, 41.79169], [8.70917, 41.79707], [8.70917, 41.8045], [8.75229, 41.8098], [8.78492, 41.82441], [8.77231, 41.8404], [8.75088, 41.84553], [8.79176, 41.85912], [8.78175, 41.87368], [8.77811, 41.8728], [8.80543, 41.90693], [8.79177, 41.91377], [8.78142, 41.92878], [8.76442, 41.93427], [8.74439, 41.93281], [8.68907, 41.91384], [8.62989, 41.90864], [8.61427, 41.9008], [8.60728, 41.91376], [8.61866, 41.93049], [8.61443, 41.94408], [8.5863, 41.96897], [8.63551, 41.97264], [8.65504, 41.9787], [8.66879, 41.99632], [8.65612, 42.00288], [8.66457, 42.01446], [8.68434, 42.02557], [8.74342, 42.04413], [8.74496, 42.05659], [8.72349, 42.0721], [8.69923, 42.10932], [8.68881, 42.11115], [8.6609, 42.10547], [8.64772, 42.12202], [8.62957, 42.13007], [8.58629, 42.1335], [8.59376, 42.14655], [8.57814, 42.1542], [8.55975, 42.15402], [8.59376, 42.16706], [8.59376, 42.17451], [8.56578, 42.17452], [8.56578, 42.18129], [8.57765, 42.18488], [8.5818, 42.19452], [8.57781, 42.20441], [8.56578, 42.20857], [8.57407, 42.21992], [8.54527, 42.23286], [8.54978, 42.24231], [8.58627, 42.24335], [8.61086, 42.25461], [8.65113, 42.2604], [8.68775, 42.27294], [8.68873, 42.28095], [8.63479, 42.30484], [8.62517, 42.31916], [8.60515, 42.31064], [8.59988, 42.32192], [8.63478, 42.33893], [8.6128, 42.35244], [8.59156, 42.35114]]], [[[10.31323, 42.32393], [10.29446, 42.32804], [10.29706, 42.34487], [10.30619, 42.3514], [10.31591, 42.34076], [10.31323, 42.32393]]], [[[10.09538, 42.57698], [10.08578, 42.57247], [10.05861, 42.576], [10.05032, 42.58194], [10.05285, 42.5891], [10.06276, 42.59203], [10.08431, 42.61468], [10.0979, 42.58796], [10.09538, 42.57698]]], [[[10.40691, 42.76899], [10.38884, 42.7635], [10.40794, 42.75728], [10.42494, 42.74099], [10.43066, 42.72212], [10.41554, 42.70891], [10.41098, 42.71796], [10.38137, 42.72257], [10.36427, 42.74982], [10.3379, 42.76484], [10.32504, 42.76484], [10.31373, 42.74301], [10.30454, 42.75975], [10.26539, 42.74459], [10.24537, 42.75727], [10.23489, 42.73588], [10.14723, 42.7373], [10.12513, 42.74304], [10.1068, 42.7574], [10.10142, 42.784], [10.11167, 42.80125], [10.13272, 42.81178], [10.17953, 42.81874], [10.22438, 42.80443], [10.26588, 42.80443], [10.25906, 42.81191], [10.27215, 42.81875], [10.27216, 42.82733], [10.32682, 42.82623], [10.32211, 42.81171], [10.33277, 42.80598], [10.35467, 42.80817], [10.35878, 42.81799], [10.42658, 42.78367], [10.40691, 42.76899]]], [[[9.27211, 47.35657], [9.4278, 47.391], [9.43607, 47.39646], [9.43412, 47.405], [9.34887, 47.48026], [9.55895, 47.71312], [9.61971, 47.96742], [9.82732, 47.95658], [9.87251, 47.82726], [10.02228, 47.75702], [10.38112, 47.81764], [10.51704, 47.65739], [10.52828, 47.65576], [10.64785, 47.67512], [10.65642, 47.68153], [10.65393, 47.68918], [10.57307, 47.74582], [10.65505, 47.82653], [10.65605, 47.83554], [10.4916, 47.89088], [10.54277, 48.01375], [10.712, 48.03611], [10.75641, 47.97095], [10.95686, 47.94561], [10.96789, 47.94755], [10.97162, 47.95795], [10.89987, 48.07172], [10.94782, 48.24075], [11.1936, 48.20983], [11.3087, 48.1405], [11.488, 48.11747], [11.51839, 48.08673], [11.55408, 48.01692], [11.56195, 47.97852], [11.55193, 47.92205], [11.50545, 47.86504], [11.42144, 47.78756], [11.35349, 47.73552], [11.41262, 47.50609], [11.43535, 47.50971], [11.48258, 47.50258], [11.52951, 47.50785], [11.55121, 47.51369], [11.5694, 47.52738], [11.58914, 47.57038], [11.62046, 47.58965], [11.68257, 47.58335], [11.76402, 47.58312], [11.82034, 47.57529], [11.83068, 47.57761], [12.00773, 47.37159], [12.04148, 47.35199], [12.08279, 47.33883], [12.13863, 47.3273], [12.20117, 47.32051], [12.26993, 47.32753], [12.34396, 47.34532], [12.41803, 47.36984], [12.50174, 47.40343], [12.51715, 47.62854], [12.55384, 47.63601], [12.59838, 47.66288], [12.6174, 47.66934], [12.65306, 47.67513], [12.68871, 47.67513], [12.74483, 47.66536], [12.76199, 47.66686], [12.75166, 47.64939], [12.76737, 47.63637], [12.79331, 47.62479], [12.81315, 47.61182], [12.78586, 47.60268], [12.77367, 47.5795], [12.77894, 47.55482], [12.80364, 47.54134], [12.82845, 47.53726], [12.8826, 47.49858], [12.93159, 47.47351], [12.94255, 47.47049], [12.96973, 47.47573], [12.99112, 47.46568], [13.00187, 47.46602], [13.0088, 47.4701], [13.03732, 47.49304], [13.03701, 47.50136], [13.02895, 47.51803], [13.02812, 47.54165], [13.04125, 47.5619], [13.03908, 47.56134], [13.03825, 47.58402], [13.04094, 47.58335], [13.05706, 47.59766], [13.07205, 47.62242], [13.07484, 47.64665], [13.07205, 47.65947], [13.06409, 47.67399], [13.04456, 47.69657], [13.01986, 47.71293], [13.00435, 47.71461], [12.96404, 47.70536], [12.90834, 47.71236], [12.89201, 47.72355], [12.91723, 47.75016], [12.92126, 47.76954], [12.92674, 47.77739], [12.99123, 47.84711], [13.34406, 47.82885], [13.70176, 47.76333], [13.85928, 47.74251], [14.11182, 47.7236], [14.40187, 47.67596], [14.38382, 47.60231], [14.09428, 47.51744], [14.10439, 47.435], [14.11306, 47.42842], [14.34665, 47.37429], [14.19117, 47.28815], [14.18934, 47.22604], [14.19921, 47.22064], [14.32932, 47.21377], [14.26549, 47.13552], [14.26708, 47.12648], [14.6041, 46.95673], [14.5356, 46.89336], [14.52806, 46.93228], [14.49851, 46.96869], [14.41725, 47.01009], [14.34098, 47.03654], [14.28538, 47.04361], [14.21077, 47.01179], [14.18082, 47.00625], [14.12692, 47.0151], [13.9776, 47.05483], [13.938, 47.05946], [13.90063, 47.05847], [13.84743, 47.05138], [13.82693, 47.04059], [13.83095, 47.02784], [13.87162, 46.98076], [13.85075, 46.97026], [13.66677, 46.9621], [13.37259, 46.89025], [13.27889, 46.87453], [13.2743, 46.88431], [13.30099, 46.92736], [13.29682, 46.93465], [13.28461, 46.93675], [13.17362, 46.9096], [13.039, 46.86172], [12.9723, 46.82927], [12.93686, 46.60442], [13.0645, 46.59804], [13.14646, 46.58496], [13.21003, 46.55801], [13.24447, 46.55171], [13.22242, 46.39278], [13.19931, 46.36379], [13.15242, 46.32378], [13.10443, 46.29737], [13.08935, 46.29636], [13.07198, 46.30151], [13.01367, 46.33291], [12.97895, 46.34577], [12.96252, 46.34463], [12.94845, 46.33578], [12.93133, 46.2908], [12.92077, 46.11612], [12.93484, 46.10804], [13.04742, 46.12831], [13.09615, 46.13167], [13.40164, 46.21666], [13.41012, 46.20798], [13.4374, 46.21093], [13.42283, 46.2286], [13.4683, 46.22343], [13.48226, 46.2179], [13.51016, 46.21398], [13.55905, 46.18411], [13.58447, 46.18132], [13.61393, 46.18354], [13.63739, 46.18039], [13.64504, 46.16173], [13.61641, 46.12504], [13.5051, 46.06603], [13.48226, 46.04484], [13.49032, 46.03895], [13.4928, 46.03249], [13.49001, 46.02556], [13.46179, 46.00639], [13.50944, 45.96743], [13.53941, 45.96903], [13.57166, 45.97983], [13.60587, 45.98541], [13.62282, 45.96639], [13.60824, 45.92655], [13.56928, 45.86454], [13.56597, 45.83033], [13.58127, 45.80925], [13.60917, 45.7986], [13.66033, 45.79204], [13.70948, 45.76532], [13.77872, 45.74341], [13.85841, 45.64936], [13.86916, 45.64114], [13.89314, 45.63468], [14.20726, 45.49482], [14.2187, 45.49717], [14.24061, 45.49335], [14.2804, 45.4811], [14.3268, 45.4749], [14.3728, 45.47784], [14.41124, 45.49319], [14.46892, 45.52559], [14.48214, 45.54244], [14.49227, 45.58342], [14.49858, 45.59618], [14.5331, 45.62569], [14.54364, 45.63644], [14.55615, 45.6567], [14.5639, 45.66269], [14.58095, 45.66781], [14.5919, 45.66336], [14.59387, 45.61618], [14.60307, 45.60357], [14.61599, 45.59407], [14.66404, 45.57004], [14.66983, 45.56456], [14.67169, 45.55681], [14.66849, 45.53397], [14.68833, 45.52203], [14.78125, 45.49335], [14.79716, 45.46518], [14.80801, 45.46357], [14.75405, 45.23289], [14.81032, 45.12048], [14.76597, 45.13736], [14.6579, 45.19661], [14.6067, 45.24437], [14.57604, 45.26226], [14.56863, 45.27595], [14.5822, 45.28535], [14.53435, 45.31269], [14.55543, 45.29588], [14.5433, 45.28385], [14.53306, 45.28389], [14.51051, 45.29975], [14.40235, 45.33861], [14.32976, 45.35399], [14.31153, 45.34398], [14.27198, 45.29011], [14.25847, 45.25576], [14.24772, 45.18647], [14.23258, 45.14936], [14.20923, 45.12638], [14.17937, 45.13451], [14.19532, 45.12059], [14.19311, 45.10562], [14.16439, 45.07991], [14.15821, 45.08735], [14.15406, 45.07197], [14.1582, 45.05322], [14.14389, 45.05939], [14.14389, 45.05321], [14.15942, 45.04035], [14.16617, 45.01895], [14.16373, 44.99576], [14.15151, 44.97768], [14.1399, 44.97135], [14.11329, 44.97748], [14.10133, 44.97427], [14.07568, 44.94954], [14.06887, 44.94954], [14.07162, 44.96906], [14.08383, 44.9864], [14.07569, 45.00483], [14.05454, 45.01846], [14.05193, 45.03803], [14.04029, 45.03897], [14.04428, 45.00141], [14.07154, 44.99335], [14.07569, 44.98371], [14.04444, 44.95141], [14.03468, 44.95637], [14.03905, 44.93183], [14.03467, 44.92232], [14.02247, 44.92349], [14.02783, 44.90864], [14.02149, 44.90737], [14.02051, 44.90113], [14.01059, 44.90526], [13.97267, 44.90111], [13.99288, 44.8815], [13.98618, 44.88129], [13.98618, 44.87507], [13.993, 44.87507], [13.99301, 44.86784], [13.97267, 44.84715], [13.97267, 44.82665], [13.98942, 44.82509], [13.99999, 44.81307], [13.96356, 44.81187], [13.93165, 44.8205], [13.92481, 44.81307], [13.91871, 44.82905], [13.89959, 44.82905], [13.89015, 44.83348], [13.88315, 44.82665], [13.90431, 44.81729], [13.90935, 44.80899], [13.90447, 44.79877], [13.91796, 44.77827], [13.90318, 44.77242], [13.89698, 44.81306], [13.84915, 44.82665], [13.85597, 44.84028], [13.84232, 44.84028], [13.84913, 44.84715], [13.8423, 44.85464], [13.81569, 44.8566], [13.78714, 44.87507], [13.79462, 44.88128], [13.80486, 44.87059], [13.81959, 44.86766], [13.83375, 44.87336], [13.8423, 44.88813], [13.81528, 44.88353], [13.80486, 44.8854], [13.79462, 44.89497], [13.80812, 44.91543], [13.79674, 44.92488], [13.7741, 44.96381], [13.73306, 44.99471], [13.66082, 45.06122], [13.64381, 45.0705], [13.62324, 45.07307], [13.63689, 45.09357], [13.61258, 45.11786], [13.63852, 45.13003], [13.72625, 45.13451], [13.6836, 45.14338], [13.60048, 45.13749], [13.59598, 45.14541], [13.59938, 45.17129], [13.58914, 45.17549], [13.59441, 45.18732], [13.58229, 45.19682], [13.5823, 45.20282], [13.59449, 45.21263], [13.58914, 45.2307], [13.59523, 45.2508], [13.57547, 45.26488], [13.58425, 45.27606], [13.60271, 45.27912], [13.60271, 45.28535], [13.58466, 45.29321], [13.57547, 45.30646], [13.60955, 45.32014], [13.56179, 45.32637], [13.54128, 45.34614], [13.54055, 45.35675], [13.55494, 45.36107], [13.55494, 45.36734], [13.54316, 45.37617], [13.51337, 45.43622], [13.52076, 45.44302], [13.51565, 45.44814], [13.52076, 45.45726], [13.50149, 45.4986], [13.5071, 45.5119], [13.51335, 45.5119], [13.56861, 45.49079], [13.58953, 45.48884], [13.59596, 45.51813], [13.57863, 45.52339], [13.56864, 45.53924], [13.58961, 45.53579], [13.75294, 45.55288], [13.74236, 45.56977], [13.71194, 45.5934], [13.73016, 45.61309], [13.78688, 45.61115], [13.80812, 45.61432], [13.79558, 45.61701], [13.77711, 45.63544], [13.7393, 45.64911], [13.75766, 45.65498], [13.75367, 45.67231], [13.72625, 45.70376], [13.62892, 45.77261], [13.57423, 45.78962], [13.55128, 45.79243], [13.53443, 45.78205], [13.52418, 45.76008], [13.52833, 45.74055], [13.5549, 45.7372], [13.5184, 45.72484], [13.50781, 45.71443], [13.46925, 45.70686], [13.42798, 45.68115], [13.4017, 45.67545], [13.37676, 45.68317], [13.40919, 45.69131], [13.43141, 45.70685], [13.42262, 45.72407], [13.38169, 45.73006], [13.3694, 45.74462], [13.35182, 45.74031], [13.2549, 45.75606], [13.2155, 45.7788], [13.16944, 45.76874], [13.14967, 45.75154], [13.13982, 45.75487], [13.13136, 45.76887], [13.11931, 45.77196], [13.11085, 45.76765], [13.10816, 45.7582], [13.11183, 45.74885], [13.12288, 45.74462], [13.12288, 45.73722], [13.1006, 45.73623], [13.08058, 45.72761], [13.06959, 45.71369], [13.07504, 45.69684], [13.09148, 45.6892], [13.11166, 45.69135], [13.14964, 45.70374], [13.13802, 45.6894], [13.10304, 45.66901], [13.08496, 45.64192], [13.06055, 45.63667], [12.9817, 45.63483], [12.94386, 45.62857], [12.78039, 45.5534], [12.61194, 45.49626], [12.51271, 45.47044], [12.4878, 45.45674], [12.45143, 45.45043], [12.41033, 45.43623], [12.4358, 45.47492], [12.43094, 45.48403], [12.44728, 45.48432], [12.45144, 45.49824], [12.45818, 45.49824], [12.46697, 45.48558], [12.47193, 45.48591], [12.47869, 45.49079], [12.46503, 45.50445], [12.49732, 45.50673], [12.5066, 45.49824], [12.49293, 45.49824], [12.49293, 45.49079], [12.51515, 45.49274], [12.52151, 45.51898], [12.53048, 45.52558], [12.56251, 45.53164], [12.58172, 45.55288], [12.53728, 45.53583], [12.51065, 45.5589], [12.5066, 45.57331], [12.45851, 45.54833], [12.4419, 45.53034], [12.45143, 45.51191], [12.43491, 45.51236], [12.41773, 45.52359], [12.40358, 45.51813], [12.39674, 45.53925], [12.38412, 45.52302], [12.39039, 45.51398], [12.424, 45.50446], [12.42397, 45.49822], [12.3934, 45.49165], [12.38056, 45.49479], [12.38307, 45.50446], [12.35043, 45.50487], [12.30958, 45.48892], [12.27272, 45.46361], [12.2527, 45.43623], [12.2527, 45.43], [12.25894, 45.43], [12.2461, 45.41132], [12.24855, 45.40253], [12.25894, 45.39521], [12.2492, 45.38548], [12.24528, 45.36108], [12.22381, 45.35395], [12.23217, 45.34056], [12.21631, 45.31623], [12.20873, 45.30907], [12.18755, 45.30647], [12.16293, 45.31623], [12.15447, 45.31346], [12.1491, 45.29218], [12.15983, 45.2831], [12.16879, 45.26215], [12.18068, 45.25804], [12.19166, 45.26288], [12.19939, 45.2746], [12.19746, 45.29962], [12.21728, 45.29384], [12.22485, 45.25117], [12.21111, 45.24299], [12.22485, 45.23069], [12.22137, 45.21625], [12.23048, 45.20425], [12.24732, 45.19693], [12.26637, 45.1966], [12.25898, 45.20282], [12.30727, 45.23068], [12.29803, 45.2154], [12.32104, 45.17235], [12.32845, 45.10102], [12.3073, 45.10786], [12.3073, 45.12836], [12.29737, 45.10635], [12.29672, 45.08857], [12.30665, 45.07856], [12.32846, 45.0799], [12.32106, 45.09357], [12.341, 45.08124], [12.37623, 45.03897], [12.37623, 45.03217], [12.35515, 45.02464], [12.36883, 45.01097], [12.38356, 45.02643], [12.38657, 45.03876], [12.36885, 45.06559], [12.41341, 45.04287], [12.41033, 45.03217], [12.44458, 45.01096], [12.48618, 44.97651], [12.4992, 44.98371], [12.48609, 44.98371], [12.4861, 44.99114], [12.50261, 44.99143], [12.51701, 44.98746], [12.53385, 44.97004], [12.52312, 44.95002], [12.52701, 44.94335], [12.5127, 44.92232], [12.49903, 44.92145], [12.4873, 44.86225], [12.44459, 44.82052], [12.424, 44.85464], [12.43922, 44.87759], [12.44304, 44.89008], [12.43832, 44.90111], [12.42693, 44.90497], [12.40691, 44.8913], [12.3921, 44.86839], [12.39161, 44.85883], [12.41651, 44.85114], [12.40821, 44.83625], [12.39674, 44.83348], [12.39674, 44.82665], [12.424, 44.82049], [12.41592, 44.80315], [12.39795, 44.79378], [12.37567, 44.79223], [12.30299, 44.84292], [12.29233, 44.84325], [12.26637, 44.82665], [12.26637, 44.8205], [12.28002, 44.8205], [12.25359, 44.75129], [12.24659, 44.71161], [12.2527, 44.6684], [12.28577, 44.60292], [12.28004, 44.53189], [12.2837, 44.48762], [12.31821, 44.36115], [12.34199, 44.32973], [12.35027, 44.28815], [12.36883, 44.25068], [12.38998, 44.22272], [12.41717, 44.19546], [12.45801, 44.1664], [12.47877, 44.13935], [12.54737, 44.09345], [12.57422, 44.08559], [12.63136, 44.0301], [12.6609, 44.00829], [12.7103, 43.9829], [12.75611, 43.97187], [12.80396, 43.96685], [12.86215, 43.93537], [12.92887, 43.91583], [12.94728, 43.89761], [13.25327, 43.70319], [13.38981, 43.64459], [13.39967, 43.63565], [13.44662, 43.62371], [13.4734, 43.61201], [13.50441, 43.63275], [13.51611, 43.63173], [13.52101, 43.62271], [13.54321, 43.61322], [13.57887, 43.5729], [13.59791, 43.56952], [13.61556, 43.56048], [13.62451, 43.54719], [13.61695, 43.53132], [13.76026, 43.26374], [13.78027, 43.23652], [13.79078, 43.19208], [13.83487, 43.1271], [13.8487, 43.09145], [13.86541, 43.00731], [13.94467, 42.79828], [14.00123, 42.69843], [14.06323, 42.62482], [14.07537, 42.59882], [14.22055, 42.47016], [14.28419, 42.42829], [14.38737, 42.37294], [14.42905, 42.32172], [14.56023, 42.22565], [14.59588, 42.20856], [14.65349, 42.19107], [14.69369, 42.18536], [14.70923, 42.17548], [14.71704, 42.16006], [14.7295, 42.09911], [14.74073, 42.08462], [14.78041, 42.07513], [14.83546, 42.04413], [14.8711, 42.03181], [14.95156, 42.02112], [14.99365, 42.01064], [15.04518, 41.96898], [15.06316, 41.96429], [15.12338, 41.93427], [15.16538, 41.9278], [15.28175, 41.92803], [15.40056, 41.90778], [15.44606, 41.90693], [15.61134, 41.92803], [15.77443, 41.92121], [16.02711, 41.94407], [16.14046, 41.9199], [16.1609, 41.89265], [16.17919, 41.89329], [16.17604, 41.87739], [16.19304, 41.80854], [16.19287, 41.79092], [16.18446, 41.77977], [16.14575, 41.74886], [16.10719, 41.73762], [16.06315, 41.70149], [16.02751, 41.67993], [15.9253, 41.64004], [15.90008, 41.61465], [15.89137, 41.57685], [15.89633, 41.53644], [15.91179, 41.50288], [15.9336, 41.47944], [15.96111, 41.45946], [16.02166, 41.4278], [16.08513, 41.41266], [16.11411, 41.39289], [16.30127, 41.32793], [16.4603, 41.26264], [16.52067, 41.25014], [16.59392, 41.20698], [16.83031, 41.14638], [16.85141, 41.13296], [16.85816, 41.13296], [16.85816, 41.14035], [16.86442, 41.14036], [16.88526, 41.12397], [17.05739, 41.08175], [17.2028, 41.02112], [17.2762, 40.98031], [17.31006, 40.95477], [17.34791, 40.9121], [17.37769, 40.90228], [17.4134, 40.8812], [17.47609, 40.83015], [17.51221, 40.82029], [17.54835, 40.80195], [17.63453, 40.78497], [17.74837, 40.74761], [17.84392, 40.69416], [17.92188, 40.683], [17.95557, 40.67057], [17.95493, 40.64692], [17.99195, 40.65313], [18.007, 40.65069], [18.0158, 40.62519], [18.04321, 40.60199], [18.03745, 40.55695], [18.11996, 40.50458], [18.21168, 40.46475], [18.23828, 40.45766], [18.2588, 40.43065], [18.30322, 40.39988], [18.34376, 40.35163], [18.37026, 40.33883], [18.39775, 40.30977], [18.39774, 40.24548], [18.42624, 40.19315], [18.44984, 40.12949], [18.45588, 40.09612], [18.45617, 40.03546], [18.43409, 40.02253], [18.41139, 39.97883], [18.39259, 39.91608], [18.39971, 39.87717], [18.33736, 39.80055], [18.28207, 39.8332], [18.26564, 39.83759], [18.21128, 39.83935], [18.16189, 39.86055], [18.13063, 39.88349], [18.07155, 39.91153], [17.99539, 39.99527], [17.99539, 40.00266], [18.01108, 40.00336], [18.02027, 40.0102], [18.02215, 40.02167], [18.0158, 40.0362], [18.00514, 40.04487], [17.96748, 40.05732], [18.00294, 40.07445], [18.011, 40.09601], [17.99724, 40.12043], [17.92605, 40.17626], [17.91962, 40.19074], [17.917, 40.22687], [17.91114, 40.2403], [17.89969, 40.24909], [17.91277, 40.24909], [17.91277, 40.25532], [17.86313, 40.28563], [17.84767, 40.29003], [17.51175, 40.30376], [17.49391, 40.30745], [17.44044, 40.331], [17.39943, 40.33101], [17.36818, 40.35151], [17.21291, 40.4062], [17.20023, 40.42039], [17.22348, 40.42841], [17.24301, 40.44139], [17.2479, 40.45734], [17.22758, 40.47444], [17.24741, 40.48028], [17.29575, 40.47321], [17.31625, 40.48188], [17.32325, 40.49848], [17.30405, 40.49946], [17.26175, 40.48872], [17.26857, 40.49616], [17.24741, 40.50283], [17.18995, 40.48189], [17.18182, 40.4853], [17.16619, 40.50918], [17.15602, 40.5124], [17.04957, 40.51911], [16.97609, 40.49262], [16.91212, 40.44522], [16.78273, 40.30158], [16.7614, 40.2696], [16.73071, 40.20068], [16.71599, 40.19359], [16.67944, 40.14607], [16.62452, 40.10798], [16.60475, 40.08446], [16.59693, 40.04678], [16.59938, 40.03413], [16.63159, 39.96621], [16.60548, 39.94294], [16.58919, 39.91983], [16.54225, 39.8854], [16.49171, 39.80549], [16.48976, 39.77521], [16.50213, 39.74706], [16.52856, 39.7215], [16.51564, 39.6896], [16.54591, 39.66087], [16.59148, 39.63679], [16.62485, 39.62531], [16.74976, 39.62001], [16.78248, 39.61163], [16.81626, 39.59088], [16.8462, 39.55268], [16.906, 39.52972], [16.95297, 39.49921], [16.99537, 39.49273], [17.01148, 39.48614], [17.05714, 39.44164], [17.08855, 39.42259], [17.1242, 39.409], [17.15868, 39.40619], [17.12224, 39.33832], [17.11492, 39.28278], [17.11769, 39.25601], [17.14567, 39.21068], [17.12224, 39.12104], [17.12452, 39.09089], [17.15846, 39.04047], [17.20636, 39.02948], [17.17661, 39.01211], [17.17237, 39.00519], [17.17236, 38.96052], [17.1277, 38.92878], [17.10402, 38.8991], [17.09498, 38.91913], [17.07057, 38.9228], [17.04225, 38.91625], [17.02199, 38.90596], [16.99635, 38.92951], [16.98129, 38.9372], [16.93507, 38.93871], [16.83855, 38.9182], [16.72779, 38.87885], [16.68776, 38.85586], [16.67074, 38.84065], [16.61061, 38.81656], [16.58562, 38.79784], [16.57439, 38.78506], [16.56372, 38.75675], [16.53883, 38.72333], [16.53484, 38.6999], [16.54907, 38.68992], [16.55885, 38.59602], [16.577, 38.52832], [16.56958, 38.42951], [16.55002, 38.40794], [16.40606, 38.41794], [16.30056, 38.43399], [16.24072, 38.44654], [16.15491, 38.4766], [16.07815, 38.51326], [16.01373, 38.55664], [15.94613, 38.61361], [15.89462, 38.67667], [16.00262, 38.7254], [16.04884, 38.72772], [16.12086, 38.72093], [16.1526, 38.7309], [16.17921, 38.74828], [16.20094, 38.77644], [16.2151, 38.81415], [16.22169, 38.85659], [16.21469, 38.91901], [16.2046, 38.93407], [16.18963, 38.94355], [16.16896, 38.94686], [16.15416, 38.95522], [16.15066, 38.96113], [16.12204, 38.91738], [16.07367, 38.85606], [16.00841, 38.79951], [15.81087, 38.64838], [15.7725, 38.61113], [15.7607, 38.59354], [15.75269, 38.57047], [15.74807, 38.54224], [15.74274, 38.4114], [15.73324, 38.35898], [15.71427, 38.33366], [15.65265, 38.28113], [15.63383, 38.25549], [15.62795, 38.22289], [15.6275, 38.18276], [15.6353, 38.11235], [15.64658, 38.09072], [15.68457, 38.04365], [15.69769, 38.02247], [15.75325, 37.89706], [15.77516, 37.82614], [15.77861, 37.79408], [15.77468, 37.76645], [15.76112, 37.74599], [15.73687, 37.72672], [15.5981, 37.65504], [15.56984, 37.63659], [15.55119, 37.61712], [15.54277, 37.59095], [15.5423, 37.55724], [15.55774, 37.4392], [15.55799, 37.4038], [15.55042, 37.37531], [15.53177, 37.35672], [15.50096, 37.34947], [15.4638, 37.35342], [15.42226, 37.36583], [15.21818, 37.45811], [15.00283, 37.51474], [14.92082, 37.54498], [14.8909, 37.56247], [14.86925, 37.58352], [14.84974, 37.61167], [14.7819, 37.75105], [14.74692, 37.80614], [14.70133, 37.85142], [14.64106, 37.90237], [14.5771, 37.94798], [14.52012, 37.97759], [14.48696, 37.98597], [14.40323, 37.99216], [14.26998, 37.99223], [14.23244, 37.99497], [14.20194, 38.0014], [14.17518, 38.01355], [14.14702, 38.03159], [14.03269, 38.12378], [13.98226, 38.15625], [13.95509, 38.16073], [13.88389, 38.15894], [13.85745, 38.16369], [13.80303, 38.19974], [13.68234, 38.29677], [13.62819, 38.33273], [13.54541, 38.36842], [13.44432, 38.4017], [13.3855, 38.41422], [13.36074, 38.41486], [13.19347, 38.39116], [13.16452, 38.39133], [13.14149, 38.39651], [13.1146, 38.41028], [13.05493, 38.45451], [12.99807, 38.5123], [12.95735, 38.57251], [12.94738, 38.59994], [12.94387, 38.6339], [12.94562, 38.67453], [12.95199, 38.71946], [12.97601, 38.813], [13.01066, 38.89585], [13.03018, 38.92744], [13.07946, 38.97699], [13.15126, 39.02785], [13.228, 39.06534], [13.26323, 39.07499], [13.29374, 39.07642], [13.31431, 39.06693], [13.33008, 39.04644], [13.34252, 39.01848], [13.37476, 38.92525], [13.38901, 38.90272], [13.40764, 38.89025], [13.42614, 38.8891], [13.44799, 38.89478], [13.49664, 38.92034], [13.54346, 38.95454], [13.5784, 38.9851], [13.59445, 39.01379], [13.61792, 39.0895], [13.62675, 39.1037], [13.63843, 39.11303], [13.6886, 39.12811], [13.75202, 39.13573], [13.8152, 39.13625], [13.86468, 39.12965], [13.87591, 39.12322], [13.88529, 39.11196], [13.91563, 39.04948], [13.93457, 39.02904], [13.95218, 39.03084], [13.99954, 39.05265], [14.01724, 39.05477], [14.03997, 39.03546], [14.08042, 38.97608], [14.10265, 38.95727], [14.14297, 38.94567], [14.22271, 38.93498], [14.27395, 38.93393], [14.3155, 38.94116], [14.43934, 39.00078], [14.4826, 39.01238], [14.54535, 39.00452], [14.6947, 38.96186], [14.75903, 38.95056], [14.90926, 38.95637], [15.08243, 38.97351], [15.17689, 38.98782], [15.18932, 38.99284], [15.25848, 39.06241], [15.29165, 39.07061], [15.37417, 39.06876], [15.48143, 39.05346], [15.52471, 39.03895], [15.62623, 38.99673], [15.66865, 38.98718], [15.68494, 38.98843], [15.72109, 38.99959], [15.80574, 39.03949], [15.90105, 39.03594], [15.95243, 39.03931], [15.98706, 39.05116], [16.08006, 39.0918], [16.03611, 39.33626], [16.16293, 39.39038], [16.12198, 39.47545], [16.10599, 39.53016], [16.10099, 39.60279], [16.11489, 39.6746], [16.14922, 39.75635], [16.20237, 39.82913], [16.26491, 39.88965], [16.33908, 39.9493], [16.30592, 40.06811], [16.26563, 40.33997], [16.31126, 40.37698], [16.34177, 40.43285], [16.39418, 40.50532], [16.52253, 40.64874], [16.57243, 40.69592], [16.53779, 40.83972], [16.40145, 40.87782], [16.29581, 40.92515], [16.2329, 40.94641], [16.08864, 41.00556], [15.79083, 41.11273], [15.6586, 41.18092], [15.57068, 41.24526], [15.52061, 41.29588], [15.47671, 41.35327], [15.42855, 41.45934], [15.41439, 41.54028], [15.40846, 41.54641], [15.34065, 41.55053], [15.25172, 41.56391], [15.2443, 41.60044], [15.23504, 41.60682], [15.14075, 41.5982], [15.04072, 41.59792], [14.93388, 41.6134], [14.86192, 41.63171], [14.72465, 41.69346], [14.6572, 41.74673], [14.62921, 41.77693], [14.58935, 41.83352], [14.54022, 41.85061], [14.46494, 41.88677], [14.40018, 41.93235], [14.34407, 41.98712], [14.30102, 42.04021], [14.27204, 42.09193], [14.22364, 42.23215], [14.20738, 42.25304], [14.12825, 42.25838], [14.00409, 42.28069], [13.92164, 42.30696], [13.85677, 42.33299], [13.73952, 42.335], [13.65203, 42.42123], [13.5412, 42.57384], [13.47446, 42.70057], [13.41904, 42.84128], [13.34971, 42.84852], [13.25112, 42.88215], [13.23712, 42.87965], [13.20934, 42.86549], [13.19952, 42.86582], [13.15433, 42.91361], [13.03086, 43.06994], [12.97958, 43.12283], [12.94323, 43.14042], [12.84462, 43.1684], [12.80735, 43.18767], [12.77757, 43.23229], [12.72929, 43.34859], [12.70032, 43.39461], [12.68115, 43.41244], [12.56053, 43.49253], [12.47266, 43.53878], [12.45135, 43.54228], [12.4022, 43.54005], [12.38476, 43.54533], [12.32831, 43.613], [12.20779, 43.78485], [12.14689, 43.85415], [12.12266, 43.87333], [12.05663, 43.91367], [11.98121, 43.95088], [11.90848, 43.9806], [11.86195, 43.9944], [11.79888, 43.99727], [11.72269, 43.9903], [11.65763, 43.95599], [11.63788, 43.95169], [11.6162, 43.95814], [11.58659, 43.97559], [11.56784, 43.99664], [11.57431, 44.01592], [11.66293, 44.07502], [11.67997, 44.09891], [11.66888, 44.12969], [11.62261, 44.18005], [11.4954, 44.2826], [11.41221, 44.33289], [11.37091, 44.34296], [11.27144, 44.3562], [11.23265, 44.37142], [11.23087, 44.3938], [11.26376, 44.45598], [11.26661, 44.47794], [11.2439, 44.50261], [11.19966, 44.53046], [11.14986, 44.55068], [11.11609, 44.55588], [11.09145, 44.54621], [11.01638, 44.49209], [11.00395, 44.49288], [10.99837, 44.52631], [11.00002, 44.56584], [11.04046, 44.7852], [11.03425, 44.83974], [10.99406, 44.90818], [10.92351, 44.99229], [10.84183, 45.03918], [10.81877, 45.05922], [10.80029, 45.12742], [10.7713, 45.37047], [10.75286, 45.43438], [10.72352, 45.47605], [10.68233, 45.52067], [10.58744, 45.5985], [10.55155, 45.60996], [10.47712, 45.62105], [10.36186, 45.64801], [10.31422, 45.65325], [10.29678, 45.6517], [10.28912, 45.64544], [10.30202, 45.59786], [10.30184, 45.5921], [10.29668, 45.59115], [10.2255, 45.61581], [10.00676, 45.72004], [9.67263, 45.84116], [9.65422, 45.83954], [9.62152, 45.81596], [9.60647, 45.81189], [9.59688, 45.81889], [9.58524, 45.84616], [9.57028, 45.86106], [9.38794, 45.91022], [9.0631, 45.89896], [9.05927, 45.88196], [9.03436, 45.84811], [9.00243, 45.82072], [8.97235, 45.82465], [8.93959, 45.83483], [8.9, 45.8264], [8.77925, 45.61151], [8.7189, 45.54297], [8.68777, 45.49107], [8.57716, 45.43203], [8.45608, 45.37931], [8.08791, 45.28814], [7.96492, 45.44142], [8.2038, 45.62774], [8.12547, 45.73978], [8.10975, 45.74318], [7.84932, 45.66662], [7.7322, 45.69404], [7.78007, 45.91813], [7.73201, 45.93038], [7.70628, 45.92573], [7.69398, 45.92867], [7.67372, 45.95032], [7.64303, 45.96634], [7.54112, 45.98412], [7.52438, 45.97807], [7.50371, 45.95673], [7.48273, 45.95487], [7.45296, 45.94588], [7.39384, 45.9157], [7.3618, 45.90784], [7.28667, 45.91343], [7.27354, 45.91027], [7.18937, 46.07283], [7.18515, 46.0904], [7.28084, 46.23078], [7.39681, 46.26287], [7.40264, 46.27453], [7.29394, 46.40325], [7.03873, 46.45592], [6.79444, 46.69928], [7.34092, 46.83024], [7.39184, 46.9818], [6.95625, 47.24523], [6.95222, 47.27004], [6.95862, 47.29055], [6.97743, 47.30373], [6.9919, 47.30595], [7.00648, 47.31936], [7.03655, 47.32952], [7.0443, 47.3405], [7.03386, 47.35065], [7.004, 47.36814], [6.9856, 47.36212], [6.86664, 47.35417], [6.8716, 47.36696], [6.884, 47.38259], [6.89878, 47.39571], [6.92452, 47.406], [6.92607, 47.42486], [6.95232, 47.42884], [6.98343, 47.4438], [6.99097, 47.45222], [6.97578, 47.47796], [6.9733, 47.48909], [7.00079, 47.49767], [7.00978, 47.49925], [7.02797, 47.49294], [7.05392, 47.49038], [7.10373, 47.49628], [7.15365, 47.4864], [7.18083, 47.48826], [7.16264, 47.4599], [7.16833, 47.44357], [7.19003, 47.43473], [7.21938, 47.42848], [7.23034, 47.41902], [7.23809, 47.4168], [7.28264, 47.42889], [7.30909, 47.43266], [7.37855, 47.43065], [7.40635, 47.43824], [7.42609, 47.45576], [7.42929, 47.46511], [7.42764, 47.47075], [7.41441, 47.48403], [7.41431, 47.49018], [7.42599, 47.4925], [7.46743, 47.48191], [7.48583, 47.49578], [7.4756, 47.51173], [7.47694, 47.51488], [7.50112, 47.51731], [7.50544, 47.52376], [7.60975, 47.56475], [7.66142, 47.54625], [7.68344, 47.54426], [7.76674, 47.55596], [7.78555, 47.5632], [7.81966, 47.59534], [7.83371, 47.59048], [7.8982, 47.58785], [7.9043, 47.58356], [7.91216, 47.56056], [8.04228, 47.56056], [8.08724, 47.56738], [8.09695, 47.57185], [8.1139, 47.58785], [8.14377, 47.60007], [8.16206, 47.60376], [8.17902, 47.6158], [8.23296, 47.62195], [8.25105, 47.622], [8.28857, 47.6158], [8.30635, 47.59219], [8.35409, 47.58102], [8.41807, 47.58077], [8.44887, 47.58428], [8.46179, 47.60614], [8.49238, 47.61983], [8.52235, 47.6219], [8.53775, 47.61213], [8.5607, 47.5894], [8.57413, 47.59244], [8.58064, 47.60017], [8.5825, 47.62159], [8.57806, 47.63348], [8.58033, 47.639], [8.59356, 47.64257], [8.59511, 47.63482], [8.60162, 47.6326], [8.60731, 47.65629], [8.56824, 47.66293], [8.51967, 47.65735], [8.47605, 47.6404], [8.45827, 47.63988], [8.41197, 47.66104], [8.3913, 47.66546], [8.39771, 47.67629], [8.39099, 47.69213], [8.39213, 47.69952], [8.40195, 47.70709], [8.43791, 47.72319], [8.44546, 47.74318], [8.46365, 47.76391], [8.4715, 47.76706], [8.53651, 47.77409], [8.5516, 47.77925], [8.5423, 47.79502], [8.55822, 47.80117], [8.58312, 47.80024], [8.60162, 47.7946], [8.60762, 47.76225], [8.61744, 47.75732], [8.62984, 47.7628], [8.63501, 47.7846], [8.6441, 47.79101], [8.65702, 47.78812], [8.68193, 47.75874], [8.71314, 47.75742], [8.71976, 47.74732], [8.70043, 47.7235], [8.71262, 47.70869], [8.71707, 47.69456], [8.76988, 47.69507], [8.76172, 47.70125], [8.77071, 47.72086], [8.79758, 47.72003], [8.83024, 47.70719], [8.85608, 47.69068], [8.83768, 47.68779], [8.83779, 47.68084], [8.85267, 47.67079], [8.88171, 47.65614], [8.9062, 47.65179], [8.94538, 47.6543], [8.98176, 47.66216], [8.99767, 47.67384], [9.01659, 47.6789], [9.1281, 47.67043], [9.1834, 47.67042], [9.19694, 47.65614], [9.23435, 47.65616], [9.27321, 47.65009], [9.40626, 47.59418], [9.24591, 47.39484], [9.26048, 47.36289], [9.27211, 47.35657]], [[16.52427, 39.27243], [16.51732, 39.26479], [16.52107, 39.24135], [16.53497, 39.2346], [16.55514, 39.25483], [16.55775, 39.26358], [16.54973, 39.27017], [16.52427, 39.27243]]], [[[14.32077, 44.50918], [14.29868, 44.49642], [14.28242, 44.52227], [14.29373, 44.52088], [14.30787, 44.51089], [14.32077, 44.50918]]], [[[14.27417, 44.6617], [14.25734, 44.65672], [14.25668, 44.63703], [14.27115, 44.61254], [14.23976, 44.61987], [14.23261, 44.62605], [14.24406, 44.66123], [14.2658, 44.6795], [14.28043, 44.67755], [14.27417, 44.6617]]], [[[13.73546, 44.92393], [13.74789, 44.9251], [13.77404, 44.91509], [13.77769, 44.90251], [13.7588, 44.90066], [13.7561, 44.88992], [13.74734, 44.88761], [13.75009, 44.91315], [13.73546, 44.92393]]], [[[12.37184, 45.42487], [12.38917, 45.43354], [12.40748, 45.43065], [12.43085, 45.41571], [12.41644, 45.42061], [12.37623, 45.42255], [12.32147, 45.34804], [12.32802, 45.37244], [12.37184, 45.42487]]], [[[12.36378, 45.44965], [12.36207, 45.43814], [12.33751, 45.42751], [12.32066, 45.42984], [12.31659, 45.44306], [12.32985, 45.4588], [12.34717, 45.4588], [12.36378, 45.44965]]], [[[12.37518, 45.45379], [12.39731, 45.46003], [12.41409, 45.47308], [12.41839, 45.46874], [12.40878, 45.45661], [12.38536, 45.44571], [12.37518, 45.45379]]], [[[15.49674, 42.11603], [15.48471, 42.10144], [15.47773, 42.10412], [15.48382, 42.11856], [15.49256, 42.1239], [15.49674, 42.11603]]], [[[15.68133, 43.64033], [15.67205, 43.63745], [15.60379, 43.67471], [15.61134, 43.6821], [15.61549, 43.67699], [15.65015, 43.67303], [15.67888, 43.64802], [15.74029, 43.62754], [15.68133, 43.64033]]], [[[15.62794, 43.7982], [15.64096, 43.79784], [15.65006, 43.78913], [15.64861, 43.7829], [15.66601, 43.76647], [15.65984, 43.76395], [15.63112, 43.77144], [15.6089, 43.79381], [15.59963, 43.79415], [15.58091, 43.80875], [15.56749, 43.83201], [15.58627, 43.82294], [15.59473, 43.83144], [15.60483, 43.8242], [15.61004, 43.80911], [15.62794, 43.7982]]], [[[15.39556, 43.77247], [15.30894, 43.80562], [15.28842, 43.82551], [15.24763, 43.84927], [15.22781, 43.87445], [15.24073, 43.88075], [15.26123, 43.86709], [15.26637, 43.857], [15.34217, 43.81201], [15.39556, 43.77247]]], [[[15.29607, 44.00571], [15.34995, 43.9763], [15.38405, 43.97015], [15.3897, 43.94696], [15.39763, 43.9372], [15.42676, 43.92206], [15.44604, 43.88754], [15.40708, 43.89616], [15.39772, 43.90811], [15.35866, 43.91939], [15.34996, 43.92915], [15.35678, 43.93537], [15.30959, 43.95845], [15.29713, 43.9781], [15.26126, 44.01105], [15.29607, 44.00571]]], [[[15.08823, 43.98965], [15.11377, 43.98378], [15.14454, 43.94965], [15.2168, 43.91278], [15.22021, 43.9012], [15.19549, 43.89521], [15.14552, 43.9239], [15.13331, 43.92121], [15.14454, 43.90811], [15.17555, 43.89094], [15.19677, 43.88638], [15.1945, 43.87264], [15.13627, 43.90316], [15.10685, 43.92524], [15.04283, 43.99043], [15.0031, 44.05231], [14.98308, 44.06631], [14.9551, 44.0756], [14.87013, 44.14081], [14.86297, 44.16104], [14.84964, 44.1756], [14.86328, 44.17559], [14.88282, 44.15917], [14.93912, 44.12714], [14.95444, 44.10322], [14.99383, 44.08784], [15.00731, 44.09298], [15.0005, 44.07941], [15.01441, 44.07794], [15.0227, 44.0722], [15.03191, 44.03636], [15.08823, 43.98965]]], [[[15.07758, 44.05309], [15.07075, 44.07579], [15.07294, 44.08074], [15.1001, 44.0685], [15.10849, 44.05402], [15.14722, 44.02561], [15.15941, 43.99896], [15.07758, 44.05309]]], [[[15.2544, 44.01791], [15.22332, 44.05028], [15.20656, 44.04524], [15.19907, 44.05882], [15.18914, 44.04781], [15.12185, 44.09224], [15.08709, 44.12372], [15.06871, 44.13398], [15.07553, 44.14082], [15.06254, 44.1619], [15.22575, 44.06622], [15.24707, 44.04669], [15.2544, 44.01791]]], [[[14.85613, 44.13688], [14.83522, 44.14168], [14.81985, 44.15303], [14.82244, 44.16865], [14.82665, 44.15955], [14.84278, 44.14826], [14.85727, 44.15204], [14.86915, 44.14053], [14.85613, 44.13688]]], [[[14.78971, 44.26692], [14.76596, 44.26504], [14.75993, 44.25985], [14.74856, 44.26167], [14.73814, 44.27212], [14.73961, 44.28017], [14.74969, 44.28022], [14.7532, 44.29099], [14.75977, 44.29205], [14.79166, 44.27252], [14.78971, 44.26692]]], [[[15.06586, 44.32069], [15.08611, 44.30878], [15.0976, 44.3096], [15.11201, 44.30269], [15.12957, 44.28425], [15.11689, 44.28169], [15.11061, 44.29149], [15.08782, 44.29894], [15.06934, 44.28588], [15.04348, 44.28967], [15.03046, 44.29813], [15.0255, 44.31509], [15.03094, 44.32672], [15.06586, 44.32069]]], [[[14.6574, 44.30526], [14.59912, 44.3389], [14.59509, 44.34709], [14.64355, 44.32574], [14.66137, 44.30866], [14.6574, 44.30526]]], [[[14.78289, 44.41892], [14.80327, 44.4053], [14.80501, 44.39574], [14.79672, 44.38129], [14.81119, 44.35005], [14.80103, 44.3431], [14.78491, 44.347], [14.75621, 44.364], [14.76824, 44.38422], [14.76345, 44.41534], [14.78289, 44.41892]]], [[[14.70208, 44.37796], [14.72225, 44.36351], [14.72306, 44.35172], [14.71372, 44.35127], [14.69298, 44.35986], [14.67986, 44.3887], [14.66758, 44.39221], [14.66148, 44.39981], [14.67205, 44.4121], [14.70166, 44.40159], [14.70208, 44.37796]]], [[[14.95494, 44.41351], [14.96086, 44.40011], [14.95411, 44.40778], [14.93337, 44.41072], [14.89315, 44.44166], [14.88837, 44.45622], [14.95494, 44.41351]]], [[[15.01417, 44.51874], [14.92856, 44.55231], [14.91114, 44.55231], [14.91114, 44.54548], [14.96599, 44.52387], [15.04895, 44.43896], [15.06382, 44.3966], [15.04901, 44.39469], [15.02076, 44.43], [14.95883, 44.4667], [14.89749, 44.49092], [14.89749, 44.49705], [14.91863, 44.50454], [14.87763, 44.55134], [14.87696, 44.55976], [14.76149, 44.65864], [14.74368, 44.68049], [14.73367, 44.70318], [14.7414, 44.70146], [14.78016, 44.66929], [14.84522, 44.60053], [14.8838, 44.57966], [14.88015, 44.60919], [14.90406, 44.61], [14.93849, 44.59396], [14.9663, 44.57342], [14.98911, 44.54662], [15.01576, 44.53334], [15.02634, 44.50329], [15.00734, 44.50454], [15.01417, 44.51874]]], [[[14.40406, 44.57966], [14.39697, 44.56917], [14.38657, 44.56563], [14.36306, 44.57344], [14.36307, 44.57966], [14.36988, 44.57966], [14.36477, 44.58722], [14.38258, 44.60326], [14.37599, 44.62303], [14.3493, 44.65554], [14.3358, 44.71676], [14.38111, 44.69864], [14.39747, 44.68561], [14.39039, 44.66218], [14.41, 44.60098], [14.44557, 44.56598], [14.52661, 44.50372], [14.53434, 44.48408], [14.51198, 44.48226], [14.48504, 44.50064], [14.45191, 44.53189], [14.43818, 44.53865], [14.43818, 44.54547], [14.46608, 44.53864], [14.42262, 44.57388], [14.40406, 44.57966]]], [[[14.90156, 44.68997], [14.88381, 44.72362], [14.89519, 44.73615], [14.88384, 44.78855], [14.88137, 44.84377], [14.8988, 44.90555], [14.95434, 44.74837], [15.00398, 44.57464], [14.90156, 44.68997]]], [[[14.7561, 44.83568], [14.74049, 44.82665], [14.74049, 44.8205], [14.82264, 44.7712], [14.85132, 44.7371], [14.85904, 44.71735], [14.84962, 44.70321], [14.77296, 44.76032], [14.74049, 44.77827], [14.74293, 44.76577], [14.75403, 44.75779], [14.72495, 44.76765], [14.69948, 44.76522], [14.65792, 44.79877], [14.68315, 44.79872], [14.70574, 44.79255], [14.69949, 44.81304], [14.71998, 44.79877], [14.72682, 44.79877], [14.70582, 44.82685], [14.69208, 44.83349], [14.68582, 44.84714], [14.72682, 44.84028], [14.72, 44.85463], [14.73902, 44.85341], [14.753, 44.84599], [14.7561, 44.83568]]], [[[14.45192, 44.92231], [14.45922, 44.91543], [14.44996, 44.89802], [14.45192, 44.8509], [14.46655, 44.80484], [14.45192, 44.79877], [14.4729, 44.7652], [14.46607, 44.7298], [14.47218, 44.70795], [14.51391, 44.66218], [14.50856, 44.64533], [14.51498, 44.64216], [14.52751, 44.64788], [14.53434, 44.63426], [14.51335, 44.61885], [14.473, 44.62028], [14.42792, 44.65657], [14.39454, 44.70759], [14.39723, 44.75161], [14.38356, 44.75776], [14.37453, 44.75387], [14.36819, 44.76106], [14.36158, 44.81598], [14.34605, 44.82051], [14.32986, 44.83394], [14.31414, 44.89379], [14.29422, 44.90864], [14.30152, 44.92231], [14.29251, 44.94033], [14.30152, 44.94342], [14.32546, 44.93635], [14.35963, 44.90864], [14.38738, 44.909], [14.39723, 44.9291], [14.39032, 44.96038], [14.40406, 44.94953], [14.41139, 44.95637], [14.39145, 44.96943], [14.37673, 44.98689], [14.34083, 45.05561], [14.27851, 45.11335], [14.2777, 45.128], [14.29944, 45.16217], [14.31366, 45.17242], [14.33188, 45.17584], [14.3562, 45.16925], [14.36409, 45.15762], [14.36305, 45.09357], [14.38771, 45.03905], [14.41765, 44.99799], [14.43084, 44.9903], [14.46606, 44.9837], [14.47348, 44.97142], [14.47093, 44.95369], [14.45192, 44.92231]]], [[[14.76801, 44.9178], [14.76793, 44.92853], [14.77329, 44.93365], [14.80705, 44.92047], [14.82858, 44.90355], [14.83577, 44.88684], [14.7784, 44.90863], [14.76801, 44.9178]]], [[[14.54297, 44.95544], [14.51711, 44.9626], [14.48578, 44.98362], [14.52787, 44.9858], [14.54582, 44.96804], [14.54297, 44.95544]]], [[[14.74, 45.04434], [14.79992, 45.005], [14.81493, 44.97749], [14.78468, 44.96932], [14.76092, 44.97748], [14.74724, 44.97004], [14.74724, 44.96381], [14.76074, 44.95514], [14.75655, 44.94864], [14.7234, 44.94336], [14.70672, 44.94666], [14.65789, 44.97004], [14.62893, 44.97818], [14.6238, 45.00122], [14.62631, 45.03726], [14.62086, 45.0456], [14.60328, 45.03897], [14.60328, 45.03217], [14.61695, 45.02464], [14.59031, 45.0233], [14.51026, 45.03223], [14.48537, 45.03804], [14.46014, 45.0524], [14.42508, 45.08735], [14.44159, 45.09979], [14.46266, 45.10102], [14.46707, 45.12408], [14.47608, 45.12825], [14.51401, 45.12906], [14.53012, 45.13483], [14.52127, 45.14883], [14.53956, 45.1704], [14.53689, 45.20172], [14.54802, 45.21027], [14.54981, 45.22142], [14.54379, 45.23574], [14.53456, 45.2377], [14.54885, 45.24871], [14.56336, 45.24973], [14.59585, 45.23754], [14.5822, 45.23754], [14.62377, 45.17549], [14.59742, 45.16645], [14.61256, 45.15925], [14.64373, 45.15681], [14.66528, 45.1618], [14.6709, 45.14346], [14.65895, 45.10834], [14.66529, 45.08735], [14.67807, 45.07746], [14.69597, 45.07343], [14.74047, 45.07305], [14.74, 45.04434]]], [[[19.27092, 40.51332], [19.27491, 40.50694], [19.29182, 40.49434], [19.27198, 40.4887], [19.26126, 40.50552], [19.26402, 40.51202], [19.27092, 40.51332]]], [[[19.42701, 40.93684], [19.43538, 40.9134], [19.42726, 40.89338], [19.42726, 40.87226], [19.43474, 40.87226], [19.43783, 40.88653], [19.44093, 40.87226], [19.45412, 40.8858], [19.5066, 40.9051], [19.52345, 40.92064], [19.52516, 40.94526], [19.50147, 40.98298], [19.49545, 41.00263], [19.49204, 40.97695], [19.47965, 40.95393], [19.45387, 40.92399], [19.44776, 40.93431], [19.46998, 40.95673], [19.47722, 40.975], [19.47495, 40.99579], [19.44777, 41.00947], [19.44062, 41.02066], [19.45639, 41.10668], [19.44192, 41.14386], [19.46371, 41.15131], [19.46877, 41.18756], [19.50953, 41.23729], [19.51661, 41.25641], [19.51336, 41.27668], [19.50294, 41.29413], [19.48805, 41.30646], [19.43166, 41.31372], [19.41897, 41.32258], [19.41424, 41.3828], [19.41082, 41.39167], [19.39602, 41.40205], [19.39326, 41.41348], [19.40642, 41.40038], [19.42872, 41.40131], [19.44516, 41.41519], [19.44094, 41.44086], [19.48927, 41.46613], [19.50864, 41.48688], [19.51661, 41.51341], [19.51417, 41.52998], [19.46823, 41.55412], [19.44096, 41.58538], [19.52809, 41.57656], [19.5652, 41.58511], [19.57368, 41.6], [19.62812, 41.51034], [19.68079, 41.40623], [19.71951, 41.30128], [19.72954, 41.26412], [19.73655, 41.1884], [19.72606, 41.09592], [19.69249, 41.01626], [19.67073, 40.9828], [19.61785, 40.92175], [19.60901, 40.83572], [19.58083, 40.73666], [19.54719, 40.67676], [19.51045, 40.6285], [19.44456, 40.56937], [19.4157, 40.58348], [19.39161, 40.57831], [19.3864, 40.55076], [19.37924, 40.56615], [19.30439, 40.65314], [19.30935, 40.66502], [19.35157, 40.69416], [19.36052, 40.70978], [19.36884, 40.80215], [19.37779, 40.81296], [19.40675, 40.82075], [19.39326, 40.84492], [19.41424, 40.86884], [19.38121, 40.90827], [19.40496, 40.91816], [19.42458, 40.93963], [19.44089, 40.9486], [19.42701, 40.93684]]], [[[19.14356, 41.99307], [19.13917, 42.04243], [19.08254, 42.08121], [19.07474, 42.09565], [19.07632, 42.09817], [19.15498, 42.05325], [19.21945, 42.00539], [19.27031, 41.94983], [19.30142, 41.89778], [19.22023, 41.91886], [19.17027, 41.93798], [19.1623, 41.94795], [19.16033, 41.96898], [19.13797, 41.9853], [19.14356, 41.99307]]], [[[18.22862, 42.57037], [18.29436, 42.536], [18.32519, 42.51771], [18.23895, 42.55908], [18.22862, 42.57037]]], [[[17.84508, 42.73209], [17.84875, 42.73391], [17.9119, 42.70727], [17.90544, 42.7006], [17.84508, 42.73209]]], [[[17.6482, 42.73851], [17.65894, 42.74298], [17.67937, 42.72988], [17.73047, 42.71344], [17.74884, 42.69458], [17.38592, 42.77094], [17.37379, 42.76001], [17.35378, 42.76668], [17.32376, 42.79083], [17.37379, 42.80263], [17.39232, 42.80169], [17.37159, 42.79084], [17.39332, 42.79116], [17.41245, 42.784], [17.41993, 42.79083], [17.43686, 42.78262], [17.48601, 42.78216], [17.52369, 42.76484], [17.57447, 42.7575], [17.59749, 42.74982], [17.59067, 42.74299], [17.6482, 42.73851]]], [[[16.82082, 42.73608], [16.80984, 42.74982], [16.82228, 42.75511], [16.82407, 42.76406], [16.81886, 42.76936], [16.80301, 42.7635], [16.81024, 42.77533], [16.85816, 42.78399], [16.92107, 42.77715], [16.93392, 42.77093], [16.93636, 42.75552], [16.92464, 42.74141], [16.90544, 42.73177], [16.88495, 42.72941], [16.88217, 42.7364], [16.85817, 42.74299], [16.84766, 42.7336], [16.83432, 42.73095], [16.82082, 42.73608]]], [[[16.51043, 42.75975], [16.48936, 42.7467], [16.48619, 42.75165], [16.50694, 42.77158], [16.51827, 42.77342], [16.53417, 42.76288], [16.52556, 42.75704], [16.51043, 42.75975]]], [[[17.1587, 43.03098], [17.24024, 43.02277], [17.39021, 42.97781], [17.4541, 42.94228], [17.45828, 42.92471], [17.45157, 42.91474], [17.4563, 42.90781], [17.64153, 42.82175], [17.58009, 42.84125], [17.52524, 42.84863], [17.44045, 42.87336], [17.44272, 42.89863], [17.41725, 42.9112], [17.35093, 42.92179], [17.27133, 42.96336], [17.23749, 42.97139], [17.21388, 42.98261], [17.09539, 42.98444], [17.04615, 42.99506], [17.02753, 43.00358], [17.01808, 43.01399], [17.02817, 43.02416], [17.02817, 43.03099], [17.01882, 43.03409], [17.00167, 43.05149], [17.02312, 43.04864], [17.05568, 43.02896], [17.07325, 43.02416], [17.1587, 43.03098]]], [[[17.17433, 42.92202], [17.10743, 42.9143], [17.01531, 42.92862], [16.97291, 42.9267], [16.89869, 42.90584], [16.85141, 42.90071], [16.69142, 42.92821], [16.67286, 42.92674], [16.67261, 42.92179], [16.63846, 42.93476], [16.7068, 42.9621], [16.7068, 42.96955], [16.63171, 42.98261], [16.65269, 42.99236], [16.72047, 42.99005], [16.76856, 42.97223], [16.82407, 42.9621], [16.87867, 42.9621], [16.91554, 42.9745], [17.03207, 42.98261], [17.11109, 42.9643], [17.13183, 42.96955], [17.16432, 42.94147], [17.20019, 42.92178], [17.19337, 42.91431], [17.17433, 42.92202]]], [[[16.02034, 42.98594], [16.01807, 42.95728], [16.00945, 42.961], [15.99295, 42.95231], [16.00279, 42.99261], [16.02034, 42.98594]]], [[[15.73813, 43.01461], [15.72138, 43.01814], [15.72569, 43.02516], [15.75001, 43.03322], [15.76587, 43.03139], [15.76391, 43.02286], [15.73813, 43.01461]]], [[[16.08717, 43.01147], [16.06319, 43.0174], [16.08448, 43.02595], [16.08709, 43.04141], [16.07911, 43.05329], [16.06317, 43.05151], [16.04902, 43.065], [16.09254, 43.08274], [16.13057, 43.08844], [16.1705, 43.08762], [16.19971, 43.0794], [16.19288, 43.07197], [16.21583, 43.07916], [16.2282, 43.07867], [16.24122, 43.07197], [16.24985, 43.0794], [16.25487, 43.06855], [16.21029, 43.03328], [16.12135, 43.01339], [16.08717, 43.01147]]], [[[16.73852, 43.08683], [16.71973, 43.08187], [16.67351, 43.0845], [16.66002, 43.08947], [16.68222, 43.09955], [16.69776, 43.09573], [16.72551, 43.09649], [16.73795, 43.09235], [16.73852, 43.08683]]], [[[16.61612, 43.22354], [16.65951, 43.21596], [16.69311, 43.18866], [16.6936, 43.18401], [16.68629, 43.18183], [16.72771, 43.16462], [16.84816, 43.16234], [16.86443, 43.16884], [16.87843, 43.15884], [16.89674, 43.15477], [16.95875, 43.1524], [17.01856, 43.14085], [17.10942, 43.14377], [17.15494, 43.14035], [17.19332, 43.12727], [16.67018, 43.12549], [16.55983, 43.14298], [16.47535, 43.16649], [16.44517, 43.17081], [16.42726, 43.17988], [16.37161, 43.19551], [16.38039, 43.20196], [16.41529, 43.19847], [16.43979, 43.20977], [16.44606, 43.20234], [16.4603, 43.21595], [16.4603, 43.20978], [16.49643, 43.21807], [16.55494, 43.18793], [16.58326, 43.18867], [16.52055, 43.22898], [16.56275, 43.22898], [16.58326, 43.21597], [16.61612, 43.22354]]], [[[16.83033, 43.34637], [16.85816, 43.32518], [16.88509, 43.32196], [16.89233, 43.3122], [16.87232, 43.288], [16.86443, 43.29169], [16.8459, 43.27333], [16.81285, 43.26776], [16.62827, 43.26375], [16.56398, 43.27009], [16.50075, 43.28426], [16.4219, 43.31758], [16.40582, 43.33268], [16.41944, 43.32518], [16.42628, 43.32518], [16.42678, 43.33148], [16.43979, 43.33271], [16.43492, 43.34642], [16.45346, 43.35318], [16.4263, 43.3941], [16.44703, 43.39483], [16.49391, 43.38231], [16.688, 43.37696], [16.80981, 43.35317], [16.80982, 43.34638], [16.79615, 43.34638], [16.81625, 43.34024], [16.83033, 43.34637]]], [[[16.21323, 43.39411], [16.20047, 43.40705], [16.20559, 43.4129], [16.27702, 43.41192], [16.29792, 43.40374], [16.30275, 43.38727], [16.32984, 43.3897], [16.39143, 43.34638], [16.37598, 43.33345], [16.34895, 43.33863], [16.28175, 43.36937], [16.23227, 43.38447], [16.20706, 43.38728], [16.20641, 43.39181], [16.21323, 43.39411]]], [[[16.1345, 43.45616], [16.14942, 43.459], [16.16536, 43.44973], [16.1704, 43.43607], [16.1648, 43.43302], [16.14812, 43.43537], [16.14144, 43.4294], [16.11501, 43.42944], [16.12165, 43.44792], [16.13754, 43.44973], [16.1345, 43.45616]]], [[[16.21178, 43.49554], [16.2435, 43.49494], [16.25221, 43.49994], [16.24807, 43.50828], [16.26442, 43.51287], [16.31031, 43.50775], [16.37523, 43.49017], [16.37077, 43.48433], [16.33363, 43.48141], [16.28199, 43.48794], [16.24643, 43.48144], [16.21168, 43.48993], [16.21178, 43.49554]]], [[[15.86357, 43.93221], [15.94053, 43.87375], [16.03824, 43.85187], [16.26291, 43.78977], [16.32703, 43.78245], [16.56344, 43.93181], [16.6048, 43.90107], [16.63736, 43.86841], [16.6786, 43.84068], [16.69824, 43.78808], [16.7126, 43.77152], [16.82381, 43.70731], [16.98194, 43.58969], [17.03052, 43.54848], [17.08457, 43.51324], [17.14276, 43.48934], [17.2395, 43.47841], [17.2705, 43.46321], [17.28642, 43.43738], [17.26761, 43.35332], [17.28993, 43.30343], [17.32869, 43.26036], [17.36941, 43.23256], [17.40021, 43.21604], [17.42677, 43.16571], [17.44207, 43.15243], [17.57584, 43.08772], [17.52394, 43.02305], [17.49791, 42.97282], [17.47475, 43.00098], [17.47089, 43.01341], [17.47918, 43.02241], [17.50196, 43.03099], [17.48797, 43.03498], [17.43374, 43.01744], [17.46022, 43.03099], [17.43231, 43.03621], [17.42613, 43.04464], [17.4336, 43.0515], [17.42612, 43.06517], [17.40455, 43.05151], [17.37087, 43.07389], [17.31625, 43.12726], [17.17266, 43.18172], [17.11417, 43.21307], [17.10027, 43.23168], [17.07377, 43.23886], [17.06695, 43.24461], [17.05621, 43.25725], [17.04949, 43.27802], [17.02818, 43.28425], [16.93393, 43.3736], [16.88063, 43.40595], [16.75245, 43.41951], [16.69386, 43.4383], [16.62583, 43.44905], [16.53485, 43.49714], [16.52467, 43.51081], [16.5044, 43.50399], [16.46656, 43.51081], [16.39146, 43.51082], [16.39146, 43.51764], [16.43426, 43.52188], [16.4734, 43.53815], [16.43385, 43.54975], [16.33676, 43.55117], [16.29959, 43.53822], [16.23959, 43.52657], [16.11769, 43.52448], [16.11769, 43.51765], [16.15073, 43.51138], [16.16487, 43.50409], [16.17235, 43.4897], [16.11085, 43.48969], [16.11311, 43.47892], [16.06617, 43.48969], [16.03957, 43.4908], [16.01401, 43.50397], [16.00782, 43.50397], [16.00782, 43.49715], [15.99578, 43.50336], [15.97348, 43.50313], [15.96632, 43.51081], [15.96437, 43.50391], [15.9595, 43.50398], [15.96129, 43.51503], [15.98365, 43.52106], [15.98699, 43.52729], [15.98227, 43.5373], [15.98732, 43.54491], [15.95949, 43.53817], [15.95623, 43.54792], [15.94809, 43.55288], [15.92534, 43.55858], [15.94191, 43.56], [15.94418, 43.56672], [15.9354, 43.57294], [15.91799, 43.57291], [15.91799, 43.57908], [15.93214, 43.58658], [15.918, 43.59333], [15.9253, 43.59956], [15.918, 43.60639], [15.9253, 43.61384], [15.91897, 43.62873], [15.92954, 43.63422], [15.96632, 43.63373], [15.96632, 43.64118], [15.90484, 43.64803], [15.91676, 43.65362], [15.94239, 43.64802], [15.95297, 43.65086], [15.95143, 43.65742], [15.93216, 43.66845], [15.94597, 43.67231], [15.9524, 43.67976], [15.95045, 43.68854], [15.93898, 43.69644], [15.93971, 43.67764], [15.93116, 43.6765], [15.89291, 43.70051], [15.87078, 43.70319], [15.844, 43.72993], [15.79217, 43.75446], [15.77101, 43.75996], [15.70632, 43.76342], [15.69265, 43.77461], [15.68214, 43.79719], [15.63299, 43.81045], [15.61745, 43.8255], [15.6631, 43.81297], [15.67888, 43.81183], [15.67888, 43.81928], [15.66578, 43.81928], [15.63885, 43.83613], [15.57407, 43.85953], [15.54519, 43.87764], [15.51222, 43.91108], [15.47326, 43.91926], [15.4551, 43.92805], [15.43873, 43.94965], [15.35808, 44.0257], [15.33961, 44.03937], [15.31952, 44.04524], [15.27833, 44.0856], [15.23325, 44.12092], [15.21291, 44.13106], [15.20885, 44.13817], [15.21274, 44.14826], [15.14456, 44.19546], [15.16041, 44.2132], [15.15219, 44.2353], [15.13152, 44.25462], [15.11038, 44.26435], [15.13432, 44.27983], [15.16359, 44.26491], [15.17661, 44.24994], [15.1866, 44.25319], [15.4127, 44.13567], [15.54227, 44.0419], [15.69179, 44.0046], [15.78888, 43.97057], [15.86357, 43.93221]]], [[[15.86338, 43.66268], [15.82604, 43.69225], [15.82408, 43.70001], [15.84166, 43.70729], [15.86187, 43.68939], [15.86841, 43.66259], [15.86338, 43.66268]]], [[[15.69696, 43.68143], [15.69469, 43.68547], [15.70379, 43.68907], [15.68313, 43.6997], [15.67329, 43.71386], [15.68921, 43.71572], [15.71355, 43.69196], [15.72631, 43.69], [15.7198, 43.67281], [15.69696, 43.68143]]]]}}]}