{"type": "FeatureCollection", "features": [{"type": "Feature", "properties": {"map_title": "참전국의 사상자 수", "source": "미래엔 세계사 교과서 4권 183쪽", "volume": 4, "page": 183, "legend": "연합국", "name": "러시아", "name_en": "Russia", "period": "1914–1918", "kind": "국가", "alliance": "연합국", "soldiers": 13000000, "casualties": 1700000, "coast_snap": "Natural Earth 10m 해안선에 맞춤", "border_snap": "현대 국경(Natural Earth 10m)에 맞춘 구간 약 874 km"}, "geometry": {"type": "MultiPolygon", "coordinates": [[[[23.93822, 58.13746], [23.95535, 58.15179], [23.98422, 58.15712], [24.01334, 58.1535], [24.02213, 58.12987], [24.00243, 58.10856], [23.97072, 58.09961], [23.94339, 58.11319], [23.93822, 58.13746]]], [[[23.28834, 58.66648], [23.34374, 58.64472], [23.3475, 58.60716], [23.38177, 58.57973], [23.40021, 58.55541], [23.37989, 58.54755], [23.36215, 58.53247], [23.31373, 58.54466], [23.27858, 58.54637], [23.23487, 58.53466], [23.22382, 58.53548], [23.13461, 58.5799], [23.08326, 58.59052], [23.05936, 58.60346], [23.06286, 58.62457], [23.07511, 58.62969], [23.10613, 58.62421], [23.12094, 58.62832], [23.13463, 58.66181], [23.15465, 58.67592], [23.1758, 58.68109], [23.19811, 58.68056], [23.28834, 58.66648]]], [[[22.52687, 59.02635], [22.56506, 59.0356], [22.69422, 59.03676], [22.70134, 59.02497], [22.73666, 59.00507], [22.83716, 59.0086], [22.93408, 58.98403], [22.94962, 58.97068], [22.94955, 58.93618], [23.01513, 58.89179], [23.02174, 58.86408], [23.03905, 58.86102], [23.04052, 58.84077], [23.03352, 58.83032], [23.01906, 58.8291], [22.9568, 58.8474], [22.94223, 58.83423], [22.92921, 58.83999], [22.87957, 58.83271], [22.8672, 58.82005], [22.88275, 58.81742], [22.88683, 58.81203], [22.88671, 58.79048], [22.84538, 58.77653], [22.81666, 58.77596], [22.79007, 58.781], [22.77835, 58.79218], [22.78933, 58.80263], [22.82692, 58.81916], [22.81935, 58.82966], [22.80226, 58.83039], [22.7776, 58.82437], [22.73666, 58.80646], [22.68098, 58.72407], [22.65494, 58.70279], [22.61117, 58.69051], [22.55568, 58.68701], [22.50173, 58.69478], [22.46309, 58.71646], [22.49724, 58.73754], [22.44949, 58.78681], [22.43979, 58.84138], [22.38209, 58.88227], [22.32496, 58.89663], [22.2269, 58.88647], [22.195, 58.88802], [22.05603, 58.92962], [22.13808, 58.93479], [22.18588, 58.95162], [22.46306, 58.97089], [22.44353, 58.97773], [22.44209, 58.98468], [22.4546, 58.9872], [22.48845, 58.98115], [22.48758, 59.01642], [22.50425, 59.02557], [22.52687, 59.02635]]], [[[23.15241, 58.97264], [23.25143, 59.00361], [23.36772, 59.02584], [23.38959, 59.00757], [23.39371, 58.99624], [23.38475, 58.98054], [23.37427, 58.97554], [23.3401, 58.98395], [23.29908, 58.9709], [23.27858, 58.9707], [23.2234, 58.98395], [23.21077, 58.97298], [23.17416, 58.96834], [23.15241, 58.97264]]], [[[23.43629, 59.02558], [23.43278, 59.03458], [23.56681, 59.04548], [23.61443, 59.0113], [23.58416, 59.00634], [23.55983, 58.9914], [23.55297, 58.9709], [23.5433, 58.96987], [23.52564, 58.98395], [23.46097, 58.99251], [23.43484, 59.00382], [23.40841, 59.02557], [23.43629, 59.02558]]], [[[22.89973, 59.4742], [22.91629, 59.44848], [22.92096, 59.42179], [22.91339, 59.39562], [22.86421, 59.35943], [22.83061, 59.34444], [22.80704, 59.34044], [22.77425, 59.33997], [22.69228, 59.34712], [22.60724, 59.36084], [22.54159, 59.37604], [22.51529, 59.38626], [22.48082, 59.40647], [22.44578, 59.43743], [22.4388, 59.44858], [22.43782, 59.45756], [22.44502, 59.46435], [22.45993, 59.47024], [22.579, 59.4954], [22.59001, 59.50116], [22.59887, 59.51625], [22.65293, 59.536], [22.72279, 59.53748], [22.7828, 59.53058], [22.83257, 59.51675], [22.87167, 59.49746], [22.89973, 59.4742]]], [[[25.53614, 59.5493], [25.497, 59.57108], [25.48192, 59.61148], [25.47855, 59.65152], [25.48489, 59.66981], [25.50243, 59.66225], [25.53533, 59.62897], [25.57503, 59.61688], [25.62233, 59.58047], [25.67677, 59.56607], [25.7059, 59.56928], [25.71852, 59.58759], [25.71078, 59.60456], [25.68484, 59.62865], [25.69068, 59.64936], [25.6707, 59.65551], [25.69468, 59.67087], [25.72534, 59.66583], [25.7805, 59.63569], [25.77312, 59.62824], [25.79371, 59.59121], [25.80738, 59.58047], [25.82618, 59.57526], [25.84449, 59.57734], [25.86134, 59.58613], [25.87623, 59.6009], [25.86885, 59.60773], [25.88308, 59.63132], [25.90445, 59.624], [25.94451, 59.59467], [25.96502, 59.59732], [25.96439, 59.6214], [25.98899, 59.63429], [26.03669, 59.62309], [26.07445, 59.60431], [26.08172, 59.58731], [26.09099, 59.58564], [26.28004, 59.58729], [26.3401, 59.5705], [26.40169, 59.56304], [26.45769, 59.54589], [26.49781, 59.53998], [26.53647, 59.54267], [26.56939, 59.55639], [26.59738, 59.49365], [26.60296, 59.45809], [26.59368, 59.3883], [26.57901, 59.35387], [26.55753, 59.31993], [26.49693, 59.25723], [26.45728, 59.2279], [26.38228, 59.18588], [26.26295, 59.20086], [26.13449, 59.22674], [26.01362, 59.22895], [25.86925, 59.21694], [25.78947, 59.18899], [25.67118, 59.15783], [25.60711, 59.14649], [25.50225, 59.13553], [25.38918, 59.17186], [25.29009, 59.21932], [25.24687, 59.24703], [25.17832, 59.30708], [25.15238, 59.33998], [25.12003, 59.41071], [25.04049, 59.41263], [24.97802, 59.40887], [24.88553, 59.3819], [24.72757, 59.31604], [24.68075, 59.2828], [24.6542, 59.27141], [24.62221, 59.27224], [24.60468, 59.278], [24.51855, 59.32221], [24.50159, 59.32668], [24.46609, 59.32767], [24.17951, 59.30028], [23.88335, 59.23981], [23.79241, 59.22677], [23.73845, 59.2256], [23.57448, 59.23598], [23.53258, 59.23619], [23.45113, 59.22967], [23.40352, 59.22066], [23.37976, 59.20418], [23.35001, 59.16995], [23.32313, 59.15299], [23.30482, 59.14936], [23.25586, 59.15082], [23.19249, 59.15927], [23.13049, 59.17244], [23.08578, 59.18791], [23.07339, 59.19716], [23.0767, 59.2043], [23.09292, 59.20974], [23.21475, 59.22401], [23.25927, 59.23299], [23.26242, 59.24128], [23.24618, 59.26545], [23.24524, 59.27483], [23.27198, 59.29156], [23.33234, 59.31957], [23.35764, 59.33869], [23.35748, 59.34967], [23.33862, 59.36301], [23.30418, 59.37896], [23.23904, 59.40231], [23.16489, 59.42439], [23.05128, 59.43961], [23.01913, 59.4506], [23.02552, 59.46866], [23.04667, 59.48834], [23.13887, 59.55254], [23.16, 59.57314], [23.16684, 59.59194], [23.15083, 59.61091], [23.10982, 59.62144], [23.06012, 59.62317], [23.00323, 59.61909], [22.76338, 59.58628], [22.70267, 59.58449], [22.63147, 59.5954], [22.60295, 59.60383], [22.59102, 59.61061], [22.59483, 59.61959], [22.63016, 59.64243], [22.70096, 59.6726], [22.58688, 59.73262], [22.53929, 59.74925], [22.52154, 59.75087], [22.4138, 59.73729], [22.37665, 59.73851], [22.3528, 59.74935], [22.29914, 59.79543], [22.27059, 59.80988], [22.23591, 59.80974], [22.15627, 59.79492], [22.12596, 59.79778], [22.0985, 59.81932], [22.04501, 59.90456], [22.02605, 59.92029], [22.00413, 59.93027], [21.98283, 59.93159], [21.96045, 59.92593], [21.87506, 59.88], [21.85852, 59.87426], [21.84138, 59.87651], [21.83439, 59.89185], [21.84036, 59.90887], [21.85485, 59.9273], [21.90897, 59.98249], [22.90345, 59.8065], [23.55897, 59.70631], [23.87636, 59.66885], [24.77118, 59.58273], [25.40399, 59.50725], [25.40237, 59.51431], [25.4158, 59.52708], [25.44012, 59.53212], [25.53321, 59.53205], [25.54371, 59.53514], [25.53614, 59.5493]]], [[[21.69627, 59.94757], [21.66336, 59.94329], [21.62166, 59.95068], [21.5511, 59.97877], [21.48808, 60.015], [21.45308, 60.04381], [21.44645, 60.05793], [21.44642, 60.06837], [21.79488, 60.00354], [21.72732, 59.96013], [21.69627, 59.94757]]], [[[29.667, 45.16421], [29.69953, 45.1618], [29.67652, 45.1446], [29.6644, 45.11693], [29.65625, 45.02896], [29.63754, 44.98371], [29.63091, 44.93886], [29.62387, 44.9291], [29.63037, 44.90766], [29.60515, 44.88003], [29.61783, 44.86148], [29.61116, 44.84932], [29.58351, 44.84028], [29.56178, 44.82027], [29.54771, 44.82578], [29.5153, 44.87728], [29.50181, 44.90819], [29.48683, 44.97158], [29.48789, 45.02276], [29.63922, 45.19356], [29.64975, 45.1778], [29.667, 45.16421]]], [[[36.88969, 45.20422], [36.94753, 45.14804], [36.97078, 45.11666], [36.9986, 45.06228], [37.01152, 45.05266], [36.94997, 45.06563], [36.8401, 45.10936], [36.79908, 45.11469], [36.74123, 45.10318], [36.70168, 45.10384], [36.64138, 45.12837], [36.59312, 45.16479], [36.57811, 45.1873], [36.57734, 45.19416], [36.5862, 45.20282], [36.70672, 45.20283], [36.72967, 45.20628], [36.78542, 45.23069], [36.82985, 45.2307], [36.84459, 45.23542], [36.88969, 45.20422]]], [[[36.89527, 45.42999], [36.95466, 45.40365], [36.88524, 45.40923], [36.79559, 45.42775], [36.83326, 45.44301], [36.84296, 45.437], [36.89527, 45.42999]]], [[[29.90834, 45.66664], [29.80745, 45.61434], [29.73111, 45.59142], [29.80144, 45.62189], [29.81479, 45.64106], [29.8567, 45.64912], [30.0755, 45.7923], [30.12592, 45.81143], [29.90834, 45.66664]]], [[[33.04509, 46.0379], [33.05745, 46.02521], [33.03974, 46.01219], [32.61942, 46.06001], [32.62702, 46.06593], [32.63933, 46.06], [32.78321, 46.04633], [32.85206, 46.05629], [32.88168, 46.0554], [32.91358, 46.0388], [32.95485, 46.05173], [32.97868, 46.05328], [32.99936, 46.0353], [33.04509, 46.0379]]], [[[31.54901, 46.28242], [31.522, 46.31322], [31.50514, 46.35469], [31.50442, 46.37334], [31.52197, 46.36847], [31.55437, 46.29633], [31.57797, 46.27558], [31.61818, 46.25922], [32.07051, 46.18249], [32.16622, 46.14938], [32.10182, 46.16669], [31.73716, 46.22078], [31.58034, 46.26277], [31.54901, 46.28242]]], [[[22.14865, 58.04893], [22.15379, 58.05569], [22.14423, 58.07577], [22.12338, 58.09502], [22.04427, 58.14927], [22.03012, 58.16628], [22.03083, 58.18261], [22.04676, 58.19476], [22.01686, 58.23387], [21.99383, 58.2447], [21.92847, 58.24517], [21.89651, 58.25073], [21.86768, 58.26478], [21.84329, 58.30215], [21.85565, 58.30686], [21.90821, 58.29873], [21.87332, 58.34161], [21.89454, 58.34649], [21.94459, 58.31875], [21.96339, 58.32661], [21.95495, 58.34406], [21.96804, 58.35455], [21.99049, 58.35786], [22.01124, 58.35395], [21.99008, 58.38695], [21.94597, 58.43228], [21.90113, 58.46841], [21.83242, 58.51095], [21.88859, 58.49815], [21.91627, 58.50117], [21.92849, 58.51837], [21.99561, 58.51251], [22.02096, 58.49906], [22.06422, 58.45669], [22.07358, 58.42691], [22.08937, 58.42219], [22.09848, 58.42609], [22.09311, 58.44953], [22.1039, 58.48744], [22.12652, 58.50448], [22.17189, 58.52155], [22.19429, 58.54571], [22.21556, 58.54417], [22.22885, 58.51057], [22.24334, 58.50483], [22.2732, 58.50202], [22.28836, 58.56932], [22.32162, 58.58463], [22.46306, 58.59292], [22.55031, 58.62957], [22.58318, 58.6345], [22.61264, 58.6057], [22.64812, 58.58674], [22.68214, 58.60032], [22.73634, 58.58808], [22.75799, 58.59292], [22.81137, 58.62294], [22.84637, 58.61343], [22.89967, 58.62026], [22.98975, 58.60174], [23.01881, 58.59081], [23.09103, 58.57096], [23.12582, 58.5351], [23.14829, 58.52155], [23.18865, 58.5104], [23.25557, 58.49992], [23.31804, 58.47266], [23.33324, 58.45637], [23.32495, 58.4423], [23.2614, 58.46589], [23.23764, 58.45637], [23.26173, 58.45161], [23.27798, 58.43652], [23.23488, 58.4399], [23.19607, 58.45637], [23.18189, 58.47468], [23.1565, 58.47752], [23.13036, 58.43953], [23.10865, 58.42903], [23.08424, 58.42963], [23.08674, 58.39497], [23.02198, 58.36324], [22.97755, 58.38166], [22.95485, 58.38105], [22.94752, 58.37263], [22.96947, 58.36017], [22.90267, 58.31184], [22.88807, 58.30791], [23.03221, 58.28314], [23.34137, 58.18028], [23.4204, 58.14519], [23.43613, 58.13186], [23.43, 58.12375], [23.40847, 58.11984], [23.34466, 58.12073], [23.29504, 58.12849], [23.26633, 58.1228], [23.21816, 58.1034], [23.15251, 58.06663], [23.09855, 58.04741], [23.06678, 58.04605], [22.99205, 58.05229], [22.95962, 58.04694], [22.9329, 58.02705], [22.92056, 57.99799], [22.92209, 57.9644], [22.93597, 57.93157], [22.92731, 57.92955], [22.89846, 57.92776], [22.8546, 57.93294], [22.73303, 57.96596], [22.68906, 57.96982], [22.60639, 57.96341], [22.55316, 57.94234], [22.52559, 57.92595], [22.50782, 57.90899], [22.50521, 57.90093], [22.50812, 57.87831], [22.53119, 57.82276], [22.57751, 57.73424], [22.59001, 57.70131], [22.59099, 57.64476], [22.60076, 57.63011], [22.6561, 57.58576], [22.87863, 57.4814], [22.95037, 57.43281], [23.03142, 57.39448], [23.08334, 57.37824], [23.1302, 57.37079], [23.13803, 57.34317], [23.17467, 57.29711], [23.19874, 57.22419], [23.2224, 57.20701], [23.26092, 57.09894], [23.29264, 57.08893], [23.3401, 57.05858], [23.42286, 57.04023], [23.50855, 57.03123], [23.58513, 56.97907], [23.63201, 56.97093], [23.69516, 56.96727], [23.86606, 56.99018], [23.95289, 57.01325], [23.99122, 57.03124], [24.03567, 57.06899], [24.07456, 57.07494], [24.21078, 57.12372], [24.21927, 57.138], [24.23838, 57.14942], [24.27858, 57.16104], [24.27884, 57.17178], [24.2885, 57.17873], [24.31267, 57.1883], [24.37916, 57.23021], [24.40065, 57.25812], [24.40886, 57.29816], [24.40553, 57.34447], [24.38652, 57.44393], [24.48091, 57.42393], [24.545, 57.40433], [24.71559, 57.33539], [24.88435, 57.23918], [24.95379, 57.17919], [25.00168, 57.10887], [24.95613, 57.05578], [24.91953, 57.024], [24.81153, 56.95015], [24.81376, 56.93896], [24.87713, 56.92361], [24.91332, 56.92072], [25.01567, 56.93638], [25.14968, 56.9669], [25.17631, 56.97731], [25.1745, 57.01475], [25.28848, 57.10116], [25.3202, 57.13662], [25.32153, 57.15624], [25.28911, 57.19301], [24.8227, 57.49241], [24.76936, 57.53239], [24.66515, 57.52348], [24.53481, 57.52147], [24.40605, 57.53307], [24.36352, 57.54045], [24.35867, 57.55017], [24.37477, 57.61347], [24.36305, 57.67227], [24.35768, 57.68549], [24.29959, 57.74384], [24.28878, 57.84507], [24.32439, 57.88679], [24.33386, 57.92133], [24.38111, 57.98383], [24.3983, 58.02326], [24.46412, 58.07217], [24.46414, 58.12055], [24.47291, 58.15473], [24.45485, 58.1962], [24.46754, 58.21784], [24.4709, 58.25071], [24.49148, 58.26569], [24.54851, 58.28929], [24.5604, 58.31232], [24.55104, 58.33373], [24.52882, 58.35065], [24.44418, 58.38614], [24.40317, 58.39533], [24.36183, 58.39728], [24.327, 58.38813], [24.31593, 58.37995], [24.29575, 58.35497], [24.28686, 58.31855], [24.24332, 58.28023], [24.21078, 58.2714], [24.15602, 58.27684], [24.13893, 58.26797], [24.12084, 58.24519], [24.11166, 58.24105], [24.09445, 58.24462], [24.05323, 58.27827], [23.98024, 58.31843], [23.91383, 58.33332], [23.85508, 58.33957], [23.83351, 58.35395], [23.82447, 58.35456], [23.80568, 58.34652], [23.77711, 58.35497], [23.75562, 58.34004], [23.74129, 58.34292], [23.71892, 58.39956], [23.68361, 58.42198], [23.67745, 58.43525], [23.68434, 58.49966], [23.67897, 58.52416], [23.66383, 58.5362], [23.63494, 58.5284], [23.62241, 58.52913], [23.58458, 58.54474], [23.57338, 58.55217], [23.56121, 58.58316], [23.54615, 58.5799], [23.51637, 58.55465], [23.50149, 58.56249], [23.49808, 58.57221], [23.51824, 58.60375], [23.49321, 58.6736], [23.50654, 58.70538], [23.5359, 58.70279], [23.54664, 58.70962], [23.53006, 58.72285], [23.53307, 58.74745], [23.58448, 58.73794], [23.69703, 58.75115], [23.75522, 58.73359], [23.8025, 58.7307], [23.80486, 58.74799], [23.78339, 58.75585], [23.77962, 58.76623], [23.78549, 58.77798], [23.79949, 58.78535], [23.81617, 58.78461], [23.87436, 58.77167], [23.81568, 58.79995], [23.78419, 58.80097], [23.75766, 58.78536], [23.73951, 58.798], [23.71909, 58.79906], [23.67652, 58.79219], [23.60336, 58.79483], [23.56031, 58.78583], [23.54233, 58.77532], [23.49387, 58.77703], [23.4295, 58.76486], [23.46658, 58.80072], [23.4857, 58.80963], [23.51881, 58.81265], [23.52613, 58.81977], [23.46365, 58.86417], [23.45509, 58.883], [23.42239, 58.90868], [23.42207, 58.92869], [23.44371, 58.94403], [23.5101, 58.9416], [23.53194, 58.95668], [23.56691, 58.95014], [23.58448, 58.95356], [23.62485, 58.9726], [23.62159, 59.01533], [23.60548, 59.03266], [23.57542, 59.0475], [23.69604, 59.07086], [23.84675, 59.08232], [24.16136, 59.08594], [24.29487, 59.07437], [24.36056, 59.06334], [24.48178, 59.03211], [24.55065, 59.0062], [24.46248, 58.97077], [24.45765, 58.96097], [24.50692, 58.91247], [24.54302, 58.8587], [24.66372, 58.83004], [24.76883, 58.8212], [24.8589, 58.82344], [24.88631, 58.84871], [24.90059, 58.90204], [24.90922, 58.91231], [24.92832, 58.92], [24.96342, 58.91247], [25.05379, 58.87256], [25.22136, 58.84586], [25.24582, 58.84721], [25.28787, 58.86953], [25.51064, 58.86375], [25.59785, 58.86787], [25.61909, 58.87876], [25.60692, 58.93274], [25.63131, 58.93609], [25.71488, 58.89705], [25.74326, 58.89302], [25.76061, 58.90783], [25.7597, 58.95934], [25.76606, 58.96699], [25.77987, 58.96945], [25.81208, 58.95773], [25.86186, 58.90196], [25.89084, 58.88761], [25.90992, 58.89111], [25.93724, 58.92733], [25.95818, 58.93602], [26.0351, 58.92259], [26.17209, 58.88782], [26.3531, 58.89169], [26.57018, 58.82889], [26.72234, 58.83326], [26.79771, 58.81288], [26.9697, 58.75561], [27.0482, 58.73646], [27.15559, 58.72535], [27.52111, 58.70274], [27.85326, 58.64128], [27.90482, 58.6337], [27.9687, 58.63039], [28.04562, 58.6464], [28.1206, 58.67804], [28.15112, 58.70185], [28.1717, 58.73193], [28.16674, 58.7648], [28.09566, 58.83952], [28.07071, 58.8747], [28.07007, 58.88833], [28.09158, 58.89839], [28.16334, 58.90483], [28.23154, 58.89953], [28.25783, 58.886], [28.30331, 58.84007], [28.3245, 58.82701], [28.40205, 58.81188], [28.46099, 58.80983], [28.47597, 58.81427], [28.48397, 58.82636], [28.47616, 58.88963], [28.51491, 58.92014], [28.53547, 58.92222], [28.57178, 58.9156], [28.83544, 58.84209], [28.8986, 58.8365], [28.97761, 58.85011], [29.05429, 58.88122], [29.05337, 58.89346], [29.01639, 58.92686], [29.01614, 58.93867], [29.60832, 58.81569], [29.88648, 58.75383], [30.19441, 58.68444], [30.77301, 58.54552], [31.59428, 58.33208], [31.8886, 58.25068], [32.26875, 58.14266], [33.02497, 57.9161], [33.67035, 57.70914], [34.26069, 57.50936], [34.8171, 57.3167], [35.43574, 57.08765], [36.047, 56.85578], [36.64152, 56.61923], [37.00429, 56.46882], [37.54326, 56.24137], [38.1265, 55.98977], [38.64392, 55.75482], [39.17956, 55.50653], [39.73263, 55.24465], [40.13127, 55.04825], [40.82564, 54.69875], [41.21108, 54.49766], [41.83601, 54.16304], [42.45132, 53.82548], [42.79883, 53.62772], [43.25029, 53.3652], [43.75977, 53.06328], [44.19367, 52.79603], [44.74412, 52.45032], [45.12107, 52.20357], [45.59155, 51.89033], [46.07506, 51.56224], [46.62231, 51.17433], [47.1609, 50.78415], [47.34286, 50.64934], [47.52654, 50.44211], [47.55692, 50.45258], [47.5993, 50.45268], [47.62467, 50.4408], [47.68999, 50.38633], [47.73495, 50.37005], [47.74911, 50.36024], [47.76693, 50.33719], [47.77649, 50.3298], [47.80822, 50.31993], [47.85453, 50.28504], [47.87406, 50.26644], [47.91344, 50.24386], [47.95364, 50.20489], [47.99322, 50.1818], [48.01224, 50.14211], [48.02475, 50.13126], [48.07456, 50.10526], [48.09637, 50.07855], [48.11249, 50.02196], [48.14236, 49.96377], [48.16086, 49.94646], [48.20045, 49.92502], [48.21988, 49.9015], [48.22711, 49.87949], [48.23931, 49.86476], [47.9819, 49.71358], [47.82613, 49.54503], [47.48101, 49.1607], [47.04989, 48.66684], [46.68816, 48.23154], [46.3205, 47.77926], [46.07098, 47.46653], [45.78257, 47.08849], [45.4283, 46.61471], [45.09226, 46.15545], [44.70698, 45.6036], [44.21142, 44.85311], [44.21974, 44.70518], [44.21111, 44.5618], [44.15869, 44.3257], [44.05119, 43.91062], [44.01544, 43.72711], [43.93452, 43.21527], [43.88511, 42.97004], [43.75596, 42.76313], [43.80061, 42.74646], [43.81178, 42.71727], [43.78873, 42.69308], [43.75379, 42.67466], [43.72568, 42.6544], [43.72258, 42.62487], [43.75111, 42.59875], [43.79617, 42.58983], [43.73595, 42.36887], [43.53975, 41.74193], [43.43345, 41.43532], [43.35945, 41.26941], [43.27265, 41.11495], [43.17484, 40.96916], [43.06834, 40.83038], [42.95523, 40.69678], [42.46726, 40.16857], [41.95109, 39.58525], [41.55283, 39.09916], [41.44994, 38.95677], [41.43813, 38.97825], [41.41281, 38.98865], [41.36339, 38.98852], [41.30723, 38.97978], [41.26973, 38.98917], [41.25631, 39.00283], [41.24796, 39.02091], [41.19993, 39.15614], [41.16552, 39.27294], [41.11928, 39.509], [41.09845, 39.55124], [41.06366, 39.67668], [41.03033, 39.70917], [41.05385, 39.7806], [41.06667, 39.8401], [41.06694, 39.87556], [41.05539, 39.89956], [41.03179, 39.91069], [40.89835, 39.93414], [40.82888, 39.97005], [40.81772, 39.96999], [40.78877, 39.92837], [40.71547, 39.78561], [40.66105, 39.71514], [40.64696, 39.70358], [40.62154, 39.69642], [40.58736, 39.71111], [40.44721, 39.83161], [40.38859, 39.87485], [40.28637, 39.92953], [40.25719, 39.96215], [40.23527, 39.99887], [40.02966, 40.00668], [39.92231, 40.00502], [40.00544, 40.03475], [40.05848, 40.06234], [40.06312, 40.07312], [40.0446, 40.08475], [40.04664, 40.08856], [40.16433, 40.15468], [40.25693, 40.26532], [40.32562, 40.32129], [40.33516, 40.33645], [40.34519, 40.37376], [40.34965, 40.42642], [40.34777, 40.45888], [40.33234, 40.50013], [40.33296, 40.58143], [40.31967, 40.58873], [40.22274, 40.56792], [40.12319, 40.5608], [40.04761, 40.56622], [39.99339, 40.60705], [39.94079, 40.66464], [39.91985, 40.69668], [39.89003, 40.76523], [39.81549, 40.83107], [39.77674, 40.87511], [39.74755, 40.9151], [39.69243, 41.00844], [39.72999, 41.01715], [39.75709, 41.00235], [39.79892, 41.00037], [39.85874, 40.96426], [39.89568, 40.95478], [39.91215, 40.96384], [39.97495, 40.98028], [39.99936, 40.98211], [40.05681, 40.94135], [40.0857, 40.92646], [40.12599, 40.92064], [40.14275, 40.9228], [40.23146, 40.94685], [40.25466, 40.95867], [40.30104, 40.96845], [40.46486, 41.05043], [40.49968, 41.03876], [40.52914, 41.03628], [40.55738, 41.04247], [40.62616, 41.08217], [40.67066, 41.08796], [40.69825, 41.09813], [40.75759, 41.15834], [40.82749, 41.19793], [40.85375, 41.19932], [40.89682, 41.18757], [40.92205, 41.19062], [40.96013, 41.21074], [41.02027, 41.2237], [41.04273, 41.23249], [41.12136, 41.28554], [41.19077, 41.29572], [41.28501, 41.35381], [41.34226, 41.37243], [41.39039, 41.37934], [41.40895, 41.39033], [41.42416, 41.40786], [41.43818, 41.45135], [41.50709, 41.49543], [41.58609, 41.60248], [41.61558, 41.63248], [41.67604, 41.66218], [41.69289, 41.69229], [41.73976, 41.7499], [41.74393, 41.77863], [41.76629, 41.80418], [41.77394, 41.8216], [41.77394, 41.90693], [41.75571, 42.00641], [41.68491, 42.09894], [41.66408, 42.11396], [41.64918, 42.21223], [41.5962, 42.34943], [41.55487, 42.38984], [41.50017, 42.64057], [41.48276, 42.68024], [41.45737, 42.71369], [41.42433, 42.7399], [41.38347, 42.75727], [41.30731, 42.76766], [41.27491, 42.7853], [41.22535, 42.80231], [41.20533, 42.80443], [41.1609, 42.79085], [41.15025, 42.79565], [41.10476, 42.84659], [41.0818, 42.90815], [41.02312, 42.98998], [40.99838, 42.98945], [40.95899, 42.9764], [40.93378, 42.98274], [40.90398, 43.01634], [40.88658, 43.02416], [40.85597, 43.06306], [40.78305, 43.08417], [40.68287, 43.09431], [40.59181, 43.08565], [40.57994, 43.08882], [40.52019, 43.12726], [40.47853, 43.13403], [40.39828, 43.16234], [40.36118, 43.16547], [40.33513, 43.14087], [40.32505, 43.14884], [40.30104, 43.18867], [40.26842, 43.21638], [40.2728, 43.24799], [40.25717, 43.27741], [40.21909, 43.31904], [40.13348, 43.34163], [40.10133, 43.36518], [40.08692, 43.37031], [40.04079, 43.37581], [39.96258, 43.39266], [39.93337, 43.40669], [39.91034, 43.42642], [39.86793, 43.49567], [39.84693, 43.51], [39.75653, 43.54532], [39.71828, 43.56778], [39.69077, 43.61384], [39.61892, 43.64461], [39.57407, 43.68895], [39.45755, 43.77091], [39.39137, 43.84536], [39.32936, 43.89623], [39.11611, 44.02372], [39.08816, 44.04524], [39.06121, 44.07612], [39.04477, 44.08812], [39.02273, 44.09302], [39.01158, 44.10029], [38.97828, 44.14826], [38.93735, 44.16352], [38.87372, 44.17342], [38.85591, 44.18435], [38.75831, 44.27363], [38.69689, 44.29231], [38.59506, 44.33194], [38.30983, 44.36617], [38.28842, 44.38516], [38.21706, 44.38731], [38.17775, 44.406], [38.10808, 44.49706], [38.06302, 44.52406], [38.05616, 44.55899], [38.04493, 44.56118], [38.01189, 44.55233], [37.98456, 44.56428], [37.92808, 44.60595], [37.92263, 44.61376], [37.93621, 44.63426], [37.87485, 44.6894], [37.77849, 44.7298], [37.79054, 44.70588], [37.82242, 44.66816], [37.82015, 44.6479], [37.80005, 44.63525], [37.7693, 44.6324], [37.73624, 44.63575], [37.63185, 44.66901], [37.60108, 44.6684], [37.57716, 44.65535], [37.52531, 44.67062], [37.55898, 44.70847], [37.63043, 44.765], [37.67292, 44.78929], [37.76481, 44.82737], [37.76947, 44.83662], [37.76179, 44.84292], [37.68542, 44.85665], [37.59513, 44.88585], [37.51446, 44.92696], [37.44648, 44.97842], [37.39408, 45.03787], [37.37387, 45.07064], [37.35849, 45.10424], [37.33429, 45.19515], [37.2973, 45.27345], [37.31918, 45.27167], [37.30274, 45.28632], [37.29071, 45.28964], [37.27797, 45.32692], [37.34801, 45.32762], [37.37044, 45.3222], [37.38136, 45.30646], [37.39382, 45.31732], [37.43141, 45.32233], [37.51928, 45.36927], [37.50473, 45.33381], [37.54266, 45.34739], [37.58399, 45.34055], [37.60083, 45.33136], [37.60792, 45.31269], [37.58912, 45.30313], [37.56674, 45.29963], [37.59107, 45.28937], [37.60955, 45.29682], [37.6351, 45.33378], [37.65162, 45.31269], [37.71022, 45.30028], [37.72047, 45.29963], [37.73601, 45.30614], [37.73829, 45.3107], [37.6999, 45.33918], [37.7064, 45.35126], [37.72047, 45.357], [37.73756, 45.37474], [37.74773, 45.39399], [37.75807, 45.39521], [37.75807, 45.40204], [37.71707, 45.389], [37.72348, 45.41462], [37.70771, 45.43692], [37.70291, 45.45725], [37.74439, 45.44302], [37.74439, 45.45043], [37.68606, 45.48404], [37.70265, 45.54316], [37.69972, 45.56281], [37.64942, 45.58495], [37.64275, 45.6035], [37.6351, 45.6081], [37.62306, 45.60139], [37.6233, 45.58588], [37.6364, 45.57099], [37.66245, 45.56656], [37.66243, 45.55908], [37.6351, 45.55288], [37.65502, 45.50821], [37.65308, 45.50439], [37.64194, 45.50446], [37.64078, 45.45596], [37.61914, 45.41841], [37.60825, 45.41585], [37.58629, 45.43244], [37.59425, 45.47712], [37.5874, 45.60037], [37.59514, 45.63553], [37.60793, 45.66274], [37.62647, 45.66827], [37.63476, 45.66071], [37.6311, 45.649], [37.61459, 45.64228], [37.64193, 45.63543], [37.67091, 45.60969], [37.67888, 45.61078], [37.68232, 45.62799], [37.70289, 45.62177], [37.70069, 45.63467], [37.67605, 45.64912], [37.66685, 45.66901], [37.76337, 45.72458], [37.82944, 45.75316], [37.8611, 45.8061], [37.87485, 45.84101], [37.90197, 45.95051], [37.91873, 45.9914], [37.94013, 46.02033], [37.97186, 46.04002], [38.03785, 46.05654], [38.09748, 46.05781], [38.04705, 46.03856], [38.03248, 46.02521], [38.05486, 46.03266], [38.06623, 46.03254], [38.07397, 46.02521], [38.07226, 46.01374], [38.05144, 45.99262], [38.04184, 45.96109], [38.04615, 45.9536], [38.07797, 45.95208], [38.08033, 45.94636], [38.07301, 45.90876], [38.01531, 45.85761], [38.00123, 45.83259], [38.0145, 45.81843], [38.03956, 45.81607], [38.06031, 45.82661], [38.0469, 45.84089], [38.04983, 45.85488], [38.07398, 45.88182], [38.0975, 45.95074], [38.1211, 45.97134], [38.1312, 45.99006], [38.13894, 46.03009], [38.16277, 46.06], [38.16214, 46.10195], [38.16775, 46.12062], [38.24879, 46.14154], [38.27197, 46.13568], [38.31959, 46.09345], [38.35449, 46.08245], [38.42742, 46.03828], [38.48178, 46.03266], [38.52589, 46.03879], [38.54998, 46.0312], [38.55991, 46.03266], [38.56674, 46.04328], [38.57602, 46.08735], [38.57081, 46.10468], [38.55681, 46.11518], [38.30007, 46.21866], [38.28534, 46.23213], [38.27125, 46.27416], [38.21707, 46.30591], [38.1229, 46.37751], [38.08766, 46.39643], [38.06788, 46.40144], [37.98064, 46.40034], [37.97495, 46.39427], [37.97779, 46.38215], [38.0187, 46.36848], [37.99537, 46.35445], [37.97073, 46.36197], [37.90505, 46.41104], [37.86297, 46.45478], [37.82734, 46.47651], [37.75514, 46.64594], [37.73074, 46.66267], [37.73074, 46.67011], [37.73536, 46.66962], [37.73783, 46.67622], [37.85222, 46.6225], [37.8816, 46.62913], [37.92465, 46.61555], [37.98227, 46.6175], [38.03679, 46.62946], [38.07032, 46.64594], [38.1037, 46.67597], [38.12331, 46.68646], [38.21388, 46.69619], [38.27174, 46.73235], [38.31365, 46.67634], [38.46225, 46.64696], [38.57545, 46.65379], [38.59164, 46.65925], [38.59816, 46.67792], [38.58579, 46.69587], [38.56674, 46.70995], [38.51344, 46.73249], [38.47055, 46.74348], [38.42799, 46.74486], [38.38933, 46.73159], [38.37819, 46.70818], [38.36819, 46.75544], [38.403, 46.77998], [38.40297, 46.82074], [38.41474, 46.83331], [38.45747, 46.85738], [38.47462, 46.86187], [38.55307, 46.84829], [38.60906, 46.85968], [38.69093, 46.86384], [38.76629, 46.88678], [38.80372, 46.89354], [38.86574, 46.94293], [38.93735, 46.94746], [38.99138, 46.97797], [39.03632, 47.01365], [39.06023, 47.02171], [39.07521, 47.03265], [39.09741, 47.02903], [39.10499, 47.01679], [39.11492, 47.01276], [39.12672, 47.01382], [39.15309, 47.02634], [39.26189, 47.00861], [39.28004, 47.01276], [39.2894, 47.02729], [39.30356, 47.0847], [39.32505, 47.09877], [39.36785, 47.10615], [39.38868, 47.11518], [39.35467, 47.13105], [39.32936, 47.12836], [39.28007, 47.08786], [39.26492, 47.09663], [39.26199, 47.10761], [39.2732, 47.13565], [39.25458, 47.14013], [39.24921, 47.14814], [39.25259, 47.18014], [39.25605, 47.18976], [39.27296, 47.1918], [39.28004, 47.19709], [39.28159, 47.20527], [39.28004, 47.23526], [39.26401, 47.26081], [39.18605, 47.26875], [39.15651, 47.27969], [39.13884, 47.27343], [39.08815, 47.28644], [39.01343, 47.25447], [38.97682, 47.2569], [38.94459, 47.25275], [38.93051, 47.22162], [38.93774, 47.18977], [38.93164, 47.18501], [38.88657, 47.18146], [38.84742, 47.16357], [38.77223, 47.16356], [38.64495, 47.13773], [38.55307, 47.13565], [38.56803, 47.12201], [38.56803, 47.11519], [38.51743, 47.11905], [38.49294, 47.12809], [38.47822, 47.1423], [38.4944, 47.14899], [38.50961, 47.17162], [38.53102, 47.18232], [38.55991, 47.21821], [38.59262, 47.22968], [38.77565, 47.24551], [38.80779, 47.26264], [38.82114, 47.27631], [38.82065, 47.28644], [38.81039, 47.28783], [38.78289, 47.2591], [38.59457, 47.24128], [38.5534, 47.2298], [38.51905, 47.21076], [38.5005, 47.18159], [38.46266, 47.16181], [38.44897, 47.14029], [38.42821, 47.13363], [38.26539, 47.1188], [38.22413, 47.10834], [38.1963, 47.0895], [38.14225, 47.03767], [38.10811, 47.02637], [38.13038, 47.05842], [38.13006, 47.07465], [38.10435, 47.08162], [38.07154, 47.0998], [38.02621, 47.08162], [37.96209, 47.09593], [37.95045, 47.09127], [37.8611, 47.10151], [37.75326, 47.07527], [37.71066, 47.07417], [37.58074, 47.0904], [37.5464, 47.08161], [37.48292, 47.03596], [37.37794, 46.93391], [37.3352, 46.88248], [37.31302, 46.87557], [37.31739, 46.90082], [37.29542, 46.92023], [37.26075, 46.93269], [37.22706, 46.937], [37.20818, 46.93358], [37.16228, 46.90909], [37.02882, 46.87556], [36.9846, 46.85238], [36.93881, 46.8395], [36.88623, 46.80403], [36.85369, 46.80048], [36.86237, 46.77673], [36.8296, 46.73188], [36.81215, 46.68039], [36.7937, 46.65364], [36.76929, 46.63741], [36.74384, 46.64217], [36.74384, 46.64959], [36.77166, 46.64346], [36.79029, 46.67129], [36.8025, 46.72476], [36.75807, 46.75886], [36.69606, 46.77998], [36.67921, 46.77303], [36.63396, 46.77998], [36.61704, 46.77668], [36.59001, 46.75887], [36.5241, 46.75886], [36.48267, 46.74169], [36.43247, 46.73485], [36.40016, 46.72394], [36.3711, 46.70844], [36.30348, 46.65925], [36.28435, 46.63642], [36.27832, 46.60742], [36.27086, 46.60742], [36.26759, 46.62556], [36.2479, 46.61904], [36.24578, 46.61085], [36.24075, 46.61994], [36.24431, 46.63532], [36.23065, 46.64216], [36.21664, 46.65868], [36.18946, 46.66901], [36.13445, 46.66268], [36.06202, 46.67011], [35.92589, 46.65233], [35.90162, 46.65274], [35.77117, 46.60126], [35.74195, 46.58442], [35.62866, 46.49849], [35.49147, 46.44798], [35.44527, 46.40585], [35.38014, 46.36848], [35.28465, 46.25937], [35.26352, 46.24225], [35.20969, 46.17014], [35.18445, 46.14528], [35.16179, 46.12825], [35.1211, 46.11848], [35.09652, 46.1042], [35.06227, 46.09862], [34.99972, 46.0737], [34.98212, 46.07783], [34.98538, 46.08747], [35.01711, 46.11277], [35.05193, 46.12824], [35.04446, 46.14191], [35.14894, 46.16413], [35.20045, 46.18301], [35.29136, 46.29336], [35.32781, 46.31924], [35.34213, 46.33576], [35.34604, 46.36103], [35.31153, 46.33764], [35.29176, 46.33642], [35.2676, 46.35107], [35.25861, 46.3736], [35.26451, 46.3998], [35.28452, 46.4374], [35.25051, 46.44356], [35.21457, 46.46267], [35.19142, 46.49429], [35.18832, 46.51244], [35.16668, 46.49315], [35.174, 46.47333], [35.20198, 46.44049], [35.2137, 46.41181], [35.20947, 46.39643], [35.20149, 46.38533], [35.16782, 46.36103], [35.10812, 46.29753], [35.07503, 46.27107], [35.03076, 46.25179], [34.92653, 46.23506], [34.91388, 46.2383], [34.9048, 46.25568], [34.89357, 46.25178], [34.88216, 46.22175], [34.83888, 46.20767], [34.81227, 46.17666], [34.82423, 46.07795], [34.83862, 46.04734], [34.87436, 45.92609], [34.90521, 45.88831], [34.95818, 45.78954], [35.04444, 45.67007], [35.33221, 45.37124], [35.48072, 45.2978], [35.51783, 45.29548], [35.695, 45.33039], [35.71599, 45.34056], [35.74334, 45.36107], [35.75295, 45.38641], [35.76743, 45.38898], [35.78842, 45.40746], [35.80398, 45.44916], [35.81716, 45.46405], [35.83327, 45.47088], [35.85766, 45.46942], [35.86002, 45.45954], [35.84693, 45.42626], [35.85401, 45.41401], [35.94663, 45.37214], [35.98601, 45.36274], [36.02231, 45.36811], [36.05177, 45.39521], [36.06887, 45.42999], [36.11794, 45.45709], [36.13746, 45.46205], [36.25245, 45.46149], [36.28403, 45.47662], [36.29997, 45.47333], [36.30737, 45.46092], [36.29884, 45.44302], [36.3117, 45.44351], [36.34051, 45.45725], [36.41179, 45.43622], [36.48042, 45.44441], [36.47883, 45.43622], [36.53276, 45.34875], [36.50245, 45.34687], [36.48927, 45.33633], [36.48439, 45.31639], [36.49723, 45.30073], [36.4821, 45.28881], [36.45037, 45.28535], [36.43727, 45.27204], [36.41798, 45.22993], [36.40886, 45.14948], [36.41481, 45.12836], [36.45532, 45.09162], [36.45336, 45.07649], [36.44011, 45.06746], [36.36785, 45.04879], [36.26775, 45.04369], [36.25782, 45.03897], [36.2443, 45.01098], [36.22462, 45.00752], [36.136, 45.02144], [36.07911, 45.04637], [36.07911, 45.03898], [36.04786, 45.04877], [36.0254, 45.0329], [35.99341, 44.998], [35.91684, 45.00141], [35.84799, 44.99243], [35.82782, 44.99922], [35.813, 45.03164], [35.78321, 45.05752], [35.70639, 45.09467], [35.63404, 45.11469], [35.59059, 45.11986], [35.54737, 45.1197], [35.5062, 45.11351], [35.46957, 45.10102], [35.40805, 45.06249], [35.39731, 45.03506], [35.40064, 45.02464], [35.43538, 45.01097], [35.43538, 45.00483], [35.42213, 45.00045], [35.38941, 45.00194], [35.37403, 44.99799], [35.36215, 44.98656], [35.36718, 44.94337], [35.31935, 44.97004], [35.29819, 44.95638], [35.2732, 44.96699], [35.25603, 44.95869], [35.23315, 44.92569], [35.21509, 44.91438], [35.15431, 44.90111], [35.12973, 44.8686], [35.10839, 44.82494], [35.08081, 44.79378], [35.03762, 44.79878], [35.00571, 44.83519], [34.95248, 44.84154], [34.93019, 44.83613], [34.90788, 44.82051], [34.89023, 44.81814], [34.85719, 44.82372], [34.82651, 44.81185], [34.75701, 44.8205], [34.72096, 44.81098], [34.65064, 44.7773], [34.61335, 44.7653], [34.53321, 44.75292], [34.50001, 44.74262], [34.47527, 44.72363], [34.47332, 44.73029], [34.46901, 44.7298], [34.41432, 44.67377], [34.38022, 44.63133], [34.3313, 44.54549], [34.27101, 44.54548], [34.24292, 44.50748], [34.22982, 44.49991], [34.18246, 44.49282], [34.14746, 44.4499], [34.10254, 44.42513], [34.06577, 44.41962], [33.95815, 44.3831], [33.93776, 44.38106], [33.85206, 44.40152], [33.80733, 44.39469], [33.72048, 44.39982], [33.76658, 44.44691], [33.86866, 44.51665], [33.79384, 44.60801], [33.6434, 44.60593], [33.55684, 44.6163], [33.57154, 44.62055], [33.52516, 44.62886], [33.5163, 44.63427], [33.51483, 44.64911], [33.5442, 44.68268], [33.54835, 44.69868], [33.52516, 44.77241], [33.5163, 44.7851], [33.52768, 44.7932], [33.54597, 44.83668], [33.55939, 44.84958], [33.59832, 44.85932], [33.60922, 44.87173], [33.61988, 44.90864], [33.61964, 44.93146], [33.60564, 44.98745], [33.58513, 45.01868], [33.56251, 45.09394], [33.53745, 45.11738], [33.46909, 45.14884], [33.41342, 45.18452], [33.3965, 45.18977], [33.35515, 45.18574], [33.25962, 45.15609], [33.24008, 45.17963], [33.1736, 45.19661], [33.1233, 45.23786], [33.09293, 45.25374], [33.16061, 45.33454], [33.23109, 45.39172], [33.29951, 45.43215], [33.30097, 45.44333], [33.21214, 45.47399], [33.08978, 45.52375], [32.95507, 45.59126], [32.88519, 45.63811], [32.93701, 45.66258], [33.16342, 45.73627], [33.17612, 45.74311], [33.181, 45.75519], [33.15921, 45.7685], [33.16067, 45.77879], [33.1692, 45.7844], [33.19483, 45.76512], [33.23015, 45.75092], [33.26539, 45.75381], [33.33815, 45.78563], [33.37428, 45.79654], [33.41001, 45.8266], [33.4819, 45.85439], [33.50766, 45.84296], [33.53012, 45.84186], [33.55421, 45.84707], [33.57839, 45.86814], [33.61988, 45.88181], [33.6419, 45.87587], [33.65895, 45.85932], [33.69166, 45.86075], [33.69355, 45.91448], [33.70867, 45.90974], [33.77703, 45.92963], [33.73959, 45.94782], [33.68246, 45.95844], [33.65724, 45.95694], [33.63201, 45.94442], [33.6199, 45.95075], [33.64682, 45.97972], [33.63202, 45.98827], [33.63113, 45.99653], [33.64357, 46.01496], [33.62796, 46.06781], [33.64845, 46.09003], [33.64357, 46.10468], [33.61346, 46.14521], [33.59653, 46.15575], [33.57154, 46.14936], [33.53248, 46.12153], [33.53126, 46.10688], [33.55786, 46.09471], [33.55786, 46.08732], [33.50563, 46.08027], [33.49578, 46.06786], [33.51626, 46.04634], [33.48553, 46.05317], [33.42384, 46.0533], [33.38429, 46.08759], [33.35776, 46.10383], [33.33107, 46.10749], [33.3108, 46.08732], [33.30584, 46.09235], [33.29032, 46.09472], [33.31772, 46.1197], [33.31568, 46.13101], [33.29347, 46.13569], [33.21463, 46.12825], [33.22535, 46.15412], [33.23512, 46.22382], [33.21192, 46.20628], [33.17505, 46.15315], [33.12289, 46.1359], [33.10329, 46.13838], [33.02345, 46.16987], [33.03247, 46.14102], [33.01823, 46.12768], [32.89955, 46.11522], [32.88266, 46.12067], [32.84482, 46.12138], [32.78981, 46.13434], [32.76629, 46.13569], [32.71404, 46.12007], [32.58823, 46.1044], [32.54371, 46.08048], [32.50343, 46.07613], [32.30285, 46.11661], [32.28053, 46.12759], [32.26248, 46.12825], [32.24197, 46.17666], [32.26092, 46.18862], [32.2693, 46.20458], [32.23927, 46.19526], [32.21315, 46.19307], [32.12868, 46.20971], [32.11542, 46.21455], [32.07789, 46.2495], [32.05014, 46.26606], [32.01781, 46.25761], [31.96844, 46.27571], [31.88575, 46.32001], [31.88989, 46.28384], [31.88233, 46.27913], [31.81919, 46.2806], [31.78591, 46.2924], [31.77249, 46.30269], [31.76736, 46.31818], [31.77997, 46.33177], [31.79982, 46.34222], [31.83741, 46.34954], [31.89259, 46.34113], [31.96827, 46.35106], [32.02964, 46.38897], [32.06186, 46.39378], [32.05356, 46.40599], [32.00782, 46.44896], [31.99171, 46.45356], [31.9546, 46.451], [31.91066, 46.45589], [31.74855, 46.49994], [31.72641, 46.50088], [31.7107, 46.49543], [31.69028, 46.47858], [31.68652, 46.42993], [31.66358, 46.47211], [31.6412, 46.48226], [31.52468, 46.56402], [31.50835, 46.58756], [31.58155, 46.54523], [31.75636, 46.55426], [31.79021, 46.54726], [31.86183, 46.51927], [31.94711, 46.51926], [32.03346, 46.50629], [32.11197, 46.51239], [32.22152, 46.49542], [32.27613, 46.47089], [32.31756, 46.46434], [32.36101, 46.46686], [32.39967, 46.47834], [32.42701, 46.49885], [32.40839, 46.51728], [32.43574, 46.54315], [32.52476, 46.59271], [32.57097, 46.59642], [32.58839, 46.60431], [32.6338, 46.63312], [32.64552, 46.6496], [32.56739, 46.61849], [32.54371, 46.62173], [32.40902, 46.56893], [32.33579, 46.56217], [32.26931, 46.5876], [32.24822, 46.60741], [32.21126, 46.5877], [32.16993, 46.58076], [32.14633, 46.56026], [32.13211, 46.5703], [32.11793, 46.60688], [32.10109, 46.6149], [32.02281, 46.62914], [31.97997, 46.67685], [31.97071, 46.71288], [31.94026, 46.75909], [31.93622, 46.80036], [31.95477, 46.83144], [31.9817, 46.86034], [32.00245, 46.89545], [32.0075, 46.91523], [32.00668, 46.93049], [31.99594, 46.94038], [31.94606, 46.94669], [31.9359, 46.95482], [31.93922, 46.96796], [31.9769, 47.00934], [31.97096, 47.01634], [31.9437, 47.01895], [31.88114, 47.01504], [31.86526, 47.02636], [31.89324, 47.06843], [31.89682, 47.09272], [31.88234, 47.1186], [31.84556, 47.13403], [31.83058, 47.18675], [31.81674, 47.19709], [31.75766, 47.21621], [31.74855, 47.22846], [31.75213, 47.25584], [31.74171, 47.2591], [31.72055, 47.23188], [31.72682, 47.22053], [31.76173, 47.20051], [31.80616, 47.19269], [31.81625, 47.18085], [31.8156, 47.12263], [31.82, 47.11709], [31.84473, 47.11297], [31.87428, 47.09382], [31.86645, 47.07706], [31.84474, 47.0537], [31.83741, 47.00845], [31.86899, 46.99885], [31.91407, 47.00308], [31.9471, 46.99908], [31.91774, 46.97626], [31.90431, 46.96052], [31.89943, 46.94383], [31.90772, 46.92646], [31.92563, 46.92292], [31.96827, 46.937], [31.97277, 46.91515], [31.96337, 46.88569], [31.94507, 46.85953], [31.92318, 46.84831], [31.89861, 46.84292], [31.87745, 46.82827], [31.86476, 46.80659], [31.86524, 46.77997], [31.90673, 46.73823], [31.89942, 46.694], [31.90852, 46.66275], [31.89209, 46.64363], [31.8584, 46.62914], [31.81471, 46.62304], [31.7715, 46.62752], [31.67408, 46.65323], [31.61443, 46.6496], [31.59718, 46.64322], [31.57854, 46.6173], [31.55682, 46.61491], [31.53452, 46.62718], [31.49302, 46.62874], [31.48505, 46.63228], [31.48098, 46.64643], [31.4909, 46.6634], [31.54615, 46.72761], [31.56023, 46.74909], [31.55984, 46.75885], [31.61818, 46.81346], [31.60613, 46.8264], [31.584, 46.79365], [31.54933, 46.77998], [31.52276, 46.75015], [31.50831, 46.7452], [31.48162, 46.75886], [31.45606, 46.79605], [31.44068, 46.80048], [31.45582, 46.75458], [31.50211, 46.72772], [31.50585, 46.7204], [31.47819, 46.68379], [31.46266, 46.67524], [31.41618, 46.62914], [31.39666, 46.62604], [31.33766, 46.60128], [31.28297, 46.6149], [31.27556, 46.60742], [31.25668, 46.6164], [31.18686, 46.62914], [31.15952, 46.62897], [31.10816, 46.61775], [30.99138, 46.60126], [30.95923, 46.58341], [30.93914, 46.58771], [30.92604, 46.5843], [30.8666, 46.55574], [30.8545, 46.55342], [30.80258, 46.56025], [30.7907, 46.55292], [30.75489, 46.51586], [30.78207, 46.45722], [30.79817, 46.44644], [30.78354, 46.43085], [30.77246, 46.39643], [30.71452, 46.34798], [30.66066, 46.3509], [30.65187, 46.34455], [30.68652, 46.32001], [30.68238, 46.29955], [30.65349, 46.25959], [30.58351, 46.19033], [30.56161, 46.16145], [30.52328, 46.13377], [30.49414, 46.08048], [30.37127, 45.99795], [30.26168, 45.89575], [30.2046, 45.85569], [30.13846, 45.81979], [30.13527, 45.88915], [30.12745, 45.89134], [30.11061, 45.87507], [30.09457, 45.81485], [30.08671, 45.81355], [30.07244, 45.82099], [30.06121, 45.81348], [30.01466, 45.83967], [29.99073, 45.84707], [29.96852, 45.83893], [29.95288, 45.77199], [29.93238, 45.79243], [29.93914, 45.81045], [29.93507, 45.81615], [29.92628, 45.81379], [29.91871, 45.79987], [29.92237, 45.76944], [29.93929, 45.75153], [29.93238, 45.72422], [29.91969, 45.74055], [29.89822, 45.75154], [29.89617, 45.76362], [29.88771, 45.76512], [29.87403, 45.75154], [29.82374, 45.74763], [29.80242, 45.73749], [29.79575, 45.71735], [29.80323, 45.70417], [29.84302, 45.69065], [29.86499, 45.67234], [29.80958, 45.64859], [29.78907, 45.65526], [29.78386, 45.64663], [29.78907, 45.63544], [29.74594, 45.62263], [29.73375, 45.61435], [29.73504, 45.64057], [29.72397, 45.66743], [29.70525, 45.68842], [29.68264, 45.69685], [29.67922, 45.75153], [29.69386, 45.78132], [29.68043, 45.79828], [29.65333, 45.81387], [29.64283, 45.82722], [29.63356, 45.82136], [29.63461, 45.80663], [29.65185, 45.78901], [29.62387, 45.75153], [29.62534, 45.72826], [29.63752, 45.70991], [29.6032, 45.69131], [29.59718, 45.65229], [29.59936, 45.60444], [29.58969, 45.55907], [29.62908, 45.5467], [29.64845, 45.5454], [29.66684, 45.54816], [29.70695, 45.57323], [29.66162, 45.52587], [29.63803, 45.51386], [29.62671, 45.49507], [29.60515, 45.48701], [29.60572, 45.47818], [29.6211, 45.45441], [29.6408, 45.4418], [29.65187, 45.44302], [29.65632, 45.47424], [29.67236, 45.47711], [29.6753, 45.44961], [29.68653, 45.45356], [29.68589, 45.45725], [29.70215, 45.4566], [29.70867, 45.45279], [29.71323, 45.43623], [29.72447, 45.46816], [29.73227, 45.47572], [29.74739, 45.46344], [29.75585, 45.42789], [29.74779, 45.41429], [29.72771, 45.41568], [29.74187, 45.40453], [29.75016, 45.38581], [29.75615, 45.32091], [29.72975, 45.25812], [29.72973, 45.23774], [29.69211, 45.21669], [29.65788, 45.21454], [29.66649, 45.23062], [29.66499, 45.23786], [29.65925, 45.24416], [29.67228, 45.27295], [29.66711, 45.31186], [29.65026, 45.34612], [29.5697, 45.39496], [29.43064, 45.43041], [29.35374, 45.43594], [29.32212, 45.44384], [29.29928, 45.42891], [29.28181, 45.42229], [29.22817, 45.42374], [29.11741, 45.64652], [29.08601, 45.66844], [29.09262, 45.72864], [29.11209, 45.79321], [28.95687, 46.00138], [28.95894, 46.02102], [28.94116, 46.06468], [28.93878, 46.08928], [28.94643, 46.10509], [28.98085, 46.13212], [29.00348, 46.15894], [29.01537, 46.18261], [29.00984, 46.20436], [28.95062, 46.24312], [28.93351, 46.25899], [28.93289, 46.27263], [28.94581, 46.30498], [28.94488, 46.32074], [28.92731, 46.36802], [28.91925, 46.40466], [28.92545, 46.43277], [28.94581, 46.45479], [29.02033, 46.48952], [29.07495, 46.50367], [29.16275, 46.53809], [29.12426, 46.77498], [29.15193, 46.86154], [29.20342, 46.97459], [29.49038, 47.09305], [29.4787, 47.10847], [29.48087, 47.11749], [29.53037, 47.12369], [29.54484, 47.13557], [29.55063, 47.16017], [29.5404, 47.21255], [29.54402, 47.23425], [29.56872, 47.24314], [29.58019, 47.26045], [29.57926, 47.2836], [29.57006, 47.30678], [29.55657, 47.32404], [29.53988, 47.33422], [29.52097, 47.33892], [29.48087, 47.33827], [29.47064, 47.32275], [29.45916, 47.2935], [29.4417, 47.28213], [29.42557, 47.27867], [29.39446, 47.28471], [29.38082, 47.29298], [29.36759, 47.30822], [29.36408, 47.33688], [29.35891, 47.35272], [29.34584, 47.36584], [29.30083, 47.37819], [29.2814, 47.41147], [29.2507, 47.42538], [29.23261, 47.44633], [29.21835, 47.4516], [29.20187, 47.44659], [29.19241, 47.43581], [29.18207, 47.42987], [29.16388, 47.43938], [29.15562, 47.45], [29.1304, 47.4932], [29.11743, 47.53333], [29.1305, 47.55963], [29.15618, 47.58278], [29.18207, 47.61322], [29.19241, 47.65092], [29.19148, 47.68626], [29.19696, 47.7175], [29.23861, 47.756], [29.23473, 47.7668], [29.22197, 47.77481], [29.18745, 47.78321], [29.17784, 47.78972], [29.17773, 47.8007], [29.18672, 47.81822], [29.23277, 47.85708], [29.23602, 47.87072], [29.226, 47.87558], [29.18662, 47.88364], [29.17257, 47.89101], [29.16461, 47.9056], [29.15582, 47.93987], [29.14797, 47.95537], [29.13629, 47.96818], [29.12399, 47.97599], [29.09273, 47.98017], [29.06105, 47.96976], [29.01723, 47.93108], [28.98085, 47.92638], [28.95036, 47.9348], [28.9148, 47.95315], [28.88256, 47.97676], [28.85569, 48.00792], [28.83253, 48.02482], [28.82757, 48.05702], [28.81155, 48.08291], [28.80592, 48.10381], [28.79926, 48.11179], [28.77125, 48.12445], [28.73507, 48.12869], [28.66562, 48.12934], [28.57364, 48.15497], [28.5416, 48.15595], [28.51932, 48.14913], [28.50108, 48.11283], [28.49002, 48.06549], [28.47958, 48.06492], [28.44744, 48.08275], [28.41902, 48.12223], [28.43566, 48.13469], [28.4369, 48.14985], [28.42729, 48.16337], [28.41158, 48.1707], [28.38863, 48.16859], [28.36497, 48.14151], [28.34957, 48.12972], [28.32859, 48.12701], [28.31742, 48.13536], [28.31556, 48.14928], [28.32218, 48.16321], [28.36336, 48.19101], [28.37003, 48.21163], [28.36817, 48.23062], [28.35773, 48.23861], [28.34058, 48.24011], [28.35967, 48.46753], [28.32831, 48.55037], [28.16212, 48.74975], [27.87091, 48.87081], [27.56898, 48.85509], [27.29324, 48.54287], [27.42211, 48.74793], [27.45057, 48.8071], [27.46752, 48.87724], [27.46917, 48.92028], [27.45999, 48.98106], [27.44128, 49.04102], [27.36692, 49.21982], [27.34937, 49.28004], [27.34219, 49.34072], [27.34933, 49.40244], [27.36863, 49.46072], [27.46696, 49.65315], [27.48003, 49.70133], [27.48216, 49.75475], [27.46452, 49.83451], [27.4288, 49.91246], [27.37871, 49.99929], [27.28281, 50.13062], [27.22228, 50.19614], [27.15781, 50.25218], [27.10056, 50.2888], [27.05613, 50.30812], [26.96863, 50.33006], [26.82063, 50.35035], [26.72863, 50.36895], [26.60868, 50.40746], [26.53363, 50.44115], [26.47537, 50.47885], [26.45486, 50.50031], [26.39335, 50.62213], [26.35427, 50.65975], [26.27561, 50.69268], [26.12549, 50.73077], [26.06208, 50.75827], [25.99547, 50.80661], [25.75754, 51.01907], [25.64747, 51.08737], [25.56759, 51.11511], [25.31497, 51.09807], [25.23249, 51.05811], [25.06286, 51.00228], [25.05982, 50.99043], [25.08055, 50.98306], [25.039, 50.96252], [24.9311, 50.9846], [24.7957, 50.95186], [24.69516, 50.93445], [24.59933, 50.92499], [24.48424, 50.9264], [24.14316, 50.85643], [24.13024, 50.86894], [24.04694, 50.89803], [23.97934, 50.93751], [23.96436, 50.95322], [23.95505, 50.98356], [23.94399, 50.9942], [23.91175, 51.00681], [23.91599, 51.02087], [23.9042, 51.06272], [23.89552, 51.07611], [23.86927, 51.10174], [23.85449, 51.12153], [23.85821, 51.13073], [23.87475, 51.13613], [23.86359, 51.14827], [23.81604, 51.17879], [23.7652, 51.19902], [23.74266, 51.21626], [23.68727, 51.2924], [23.67021, 51.29938], [23.65089, 51.29961], [23.63518, 51.3047], [23.62867, 51.32596], [23.63404, 51.3393], [23.26982, 51.39879], [23.14534, 51.38849], [22.9599, 51.35936], [22.8599, 51.33888], [22.70041, 51.29531], [22.35462, 51.18268], [22.21898, 51.14874], [22.08399, 51.1284], [21.95554, 51.12815], [21.83459, 51.15399], [21.7627, 51.18607], [21.70995, 51.22125], [21.62814, 51.29016], [21.58184, 51.31924], [21.51628, 51.34274], [21.43232, 51.35511], [21.3141, 51.35564], [21.23445, 51.34848], [21.00455, 51.31602], [20.93271, 51.31352], [20.86427, 51.32135], [20.80054, 51.34309], [20.74187, 51.3822], [20.70637, 51.4215], [20.68237, 51.46429], [20.63583, 51.6002], [20.61399, 51.64429], [20.58036, 51.68737], [20.53306, 51.72581], [20.46208, 51.76654], [20.28179, 51.84199], [20.2353, 51.86677], [20.19506, 51.89978], [20.16142, 51.94582], [20.09273, 52.12178], [20.06839, 52.16677], [20.03813, 52.2071], [19.99896, 52.2452], [19.94708, 52.28382], [19.73906, 52.40025], [19.63346, 52.4675], [19.53806, 52.54074], [19.45218, 52.61764], [19.39433, 52.67598], [19.3042, 52.79897], [19.26419, 52.84344], [19.08253, 52.99967], [19.01804, 53.0697], [19.00377, 53.09171], [19.01117, 53.10037], [19.04737, 53.10413], [19.07741, 53.11454], [19.22624, 53.1931], [19.38952, 53.28747], [19.48602, 53.3119], [19.62916, 53.37681], [19.99344, 53.48417], [20.14936, 53.51519], [20.26646, 53.56811], [20.40997, 53.62478], [20.52036, 53.65911], [20.59069, 53.69381], [20.7489, 53.72682], [20.86506, 53.75591], [20.95439, 53.77022], [21.52946, 53.8062], [21.68708, 53.82249], [21.83302, 53.84995], [21.96601, 53.88838], [22.12238, 53.88654], [22.4516, 53.85707], [22.55977, 53.85186], [22.66478, 53.85459], [22.84741, 53.8833], [22.96646, 53.89665], [23.29755, 53.88462], [23.53893, 53.88865], [23.58962, 53.90912], [23.62712, 53.89821], [23.64262, 53.89898], [23.69192, 53.91149], [23.75445, 53.91676], [23.78721, 53.92792], [23.81212, 53.92084], [23.82834, 53.92007], [23.90472, 53.94606], [23.91981, 53.94777], [23.96487, 53.93273], [23.98131, 53.9304], [24.04539, 53.93087], [24.07494, 53.93573], [24.13675, 53.95542], [24.16962, 53.95893], [24.20114, 53.95247], [24.22915, 53.93237], [24.24641, 53.90364], [24.25705, 53.89402], [24.37787, 53.88684], [24.41404, 53.89769], [24.52866, 53.95836], [24.5791, 53.97562], [24.64297, 53.98301], [24.67057, 53.99428], [24.6779, 53.99231], [24.69082, 53.97283], [24.7056, 53.9642], [24.7239, 53.96343], [24.7887, 53.96968], [24.80637, 53.97531], [24.81939, 53.99257], [24.82136, 54.01991], [24.81247, 54.03892], [24.78715, 54.07763], [24.7825, 54.09287], [24.78425, 54.09623], [24.79056, 54.0966], [24.79945, 54.10321], [24.81815, 54.11013], [24.81753, 54.12822], [24.82156, 54.13453], [24.85598, 54.14672], [24.70587, 54.36223], [24.70929, 54.37879], [24.71238, 54.44558], [24.6981, 54.54944], [24.64911, 54.68761], [24.62646, 54.85299], [24.65628, 54.98157], [24.68819, 55.02165], [24.69499, 55.06535], [24.72212, 55.08808], [24.72977, 55.10238], [24.74226, 55.18962], [24.72989, 55.22036], [24.67046, 55.2618], [24.66279, 55.2729], [24.38705, 55.29626], [24.33722, 55.31484], [24.2291, 55.33874], [24.10693, 55.3505], [23.99896, 55.35139], [23.94088, 55.36433], [23.85187, 55.41593], [23.63683, 55.56552], [23.46568, 55.66478], [23.2721, 55.77616], [23.06122, 55.87247], [22.94391, 55.91417], [22.81967, 55.94902], [22.68873, 55.97516], [22.55868, 55.98674], [22.30898, 55.99199], [22.24691, 55.99868], [22.12816, 56.02646], [22.04856, 56.06552], [21.98217, 56.11795], [21.79278, 56.33858], [21.6845, 56.3101], [21.59603, 56.30788], [21.55892, 56.29729], [21.34524, 56.48944], [21.25188, 56.50018], [21.13458, 56.52753], [21.08001, 56.54578], [21.00553, 56.57858], [21.05836, 56.68867], [21.0652, 56.77432], [21.05277, 56.82892], [21.06521, 56.84633], [21.14723, 56.87641], [21.15676, 56.88556], [21.22291, 56.9077], [21.28749, 56.95533], [21.36012, 56.98969], [21.3825, 57.00894], [21.40162, 57.0375], [21.41358, 57.07319], [21.41481, 57.11384], [21.40108, 57.15131], [21.41481, 57.18488], [21.41477, 57.27059], [21.44161, 57.31329], [21.54566, 57.32424], [21.61051, 57.32616], [21.74057, 57.31948], [21.86497, 57.29918], [21.97895, 57.2663], [22.03939, 57.24161], [22.05604, 57.24145], [22.10713, 57.26816], [22.08941, 57.33426], [22.09387, 57.4044], [22.12366, 57.47265], [22.17775, 57.53635], [22.25415, 57.59303], [22.34998, 57.64049], [22.41789, 57.66263], [22.40108, 57.67104], [22.38001, 57.68722], [22.37695, 57.69299], [22.38081, 57.71213], [22.40909, 57.78145], [22.41317, 57.80701], [22.41011, 57.83266], [22.39773, 57.85749], [22.37374, 57.88059], [22.32468, 57.90619], [22.13059, 57.9656], [22.06195, 57.99689], [22.03606, 58.01661], [22.03525, 58.02326], [22.04626, 58.02817], [22.13387, 58.04353], [22.14865, 58.04893]], [[38.75298, 45.69163], [38.74009, 45.69582], [38.65674, 45.67926], [38.52563, 45.67085], [38.49421, 45.63385], [38.43472, 45.58025], [38.33467, 45.5206], [38.33506, 45.51142], [38.34547, 45.50725], [38.46475, 45.51266], [38.56818, 45.50564], [38.60314, 45.51455], [38.66884, 45.55302], [38.72372, 45.60826], [38.7535, 45.66597], [38.75298, 45.69163]], [[33.99485, 45.29045], [34.20344, 45.37797], [34.28419, 45.4029], [34.38086, 45.39757], [34.44911, 45.41269], [34.60802, 45.46368], [34.61549, 45.47136], [34.50082, 45.62613], [34.44445, 45.72314], [34.39019, 45.76526], [34.34349, 45.77997], [34.3129, 45.77268], [34.24214, 45.74144], [34.21173, 45.73689], [34.06432, 45.61305], [33.99088, 45.56828], [33.94974, 45.54964], [33.90572, 45.53365], [33.81398, 45.51124], [33.69618, 45.4985], [33.69046, 45.49185], [33.69423, 45.48455], [33.88486, 45.38048], [33.94372, 45.33415], [33.98504, 45.2937], [33.99485, 45.29045]]]]}}]}