{"type": "FeatureCollection", "features": [{"type": "Feature", "properties": {"map_title": "참전국의 사상자 수", "source": "미래엔 세계사 교과서 4권 183쪽", "volume": 4, "page": 183, "legend": "동맹국", "name": "오스만 제국", "name_en": "Ottoman Empire", "period": "1914–1918", "kind": "국가", "alliance": "동맹국", "soldiers": 2850000, "casualties": 320000, "coast_snap": "Natural Earth 10m 해안선에 맞춤", "border_snap": "현대 국경(Natural Earth 10m)에 맞춘 구간 약 434 km"}, "geometry": {"type": "MultiPolygon", "coordinates": [[[[27.08816, 36.84207], [27.08107, 36.84933], [27.16424, 36.89117], [27.28093, 36.90789], [27.29152, 36.89183], [27.34099, 36.88189], [27.35579, 36.86323], [27.3231, 36.84863], [27.2142, 36.82388], [27.19077, 36.81232], [27.12989, 36.76082], [27.11897, 36.7595], [27.08816, 36.84207]]], [[[27.10867, 36.95372], [27.13421, 36.95864], [27.14438, 36.95376], [27.15195, 36.95888], [27.16293, 36.95697], [27.16748, 36.94859], [27.16179, 36.93716], [27.17511, 36.92252], [27.13267, 36.92508], [27.10899, 36.94872], [27.10867, 36.95372]]], [[[27.03688, 36.97846], [27.04126, 36.96685], [27.03387, 36.95262], [27.04127, 36.95262], [27.04127, 36.95942], [27.04752, 36.95941], [27.04037, 36.94506], [26.99342, 36.95262], [26.98787, 36.94493], [26.94569, 37.0144], [26.95387, 37.0279], [26.95192, 37.03514], [26.94361, 37.04072], [26.92673, 37.03584], [26.88632, 37.078], [26.88982, 37.08978], [26.90162, 37.0773], [26.986, 37.04881], [26.98599, 37.04198], [26.97291, 37.04198], [26.98219, 37.02875], [27.00586, 37.01618], [27.00709, 37.00043], [27.02394, 37.01267], [27.04126, 37.00787], [27.04427, 36.99624], [27.03688, 36.97846]]], [[[27.08457, 37.0641], [27.10189, 37.06075], [27.1092, 37.05784], [27.10637, 37.05391], [27.08831, 37.05399], [27.07791, 37.05724], [27.08457, 37.0641]]], [[[26.84977, 37.18731], [26.85286, 37.18179], [26.84409, 37.16201], [26.86426, 37.1533], [26.87184, 37.1341], [26.88688, 37.1166], [26.88688, 37.1057], [26.8755, 37.1037], [26.86988, 37.09806], [26.84453, 37.13316], [26.81396, 37.19679], [26.84977, 37.18731]]], [[[27.09221, 37.28766], [27.10579, 37.27867], [27.10181, 37.27429], [27.09287, 37.27213], [27.08238, 37.27811], [27.08766, 37.30202], [27.10334, 37.2995], [27.09221, 37.28766]]], [[[26.98617, 37.47332], [27.00765, 37.45693], [27.00724, 37.45165], [26.98829, 37.45881], [26.97429, 37.44641], [26.96461, 37.45409], [26.95834, 37.44393], [26.95005, 37.44718], [26.94296, 37.46263], [26.92695, 37.47419], [26.98617, 37.47332]]], [[[27.16357, 37.59435], [27.15919, 37.58885], [27.18439, 37.55872], [27.1683, 37.57022], [27.16929, 37.56478], [27.14952, 37.59666], [27.15944, 37.59898], [27.16357, 37.59435]]], [[[26.64389, 37.77241], [26.65806, 37.79278], [26.77152, 37.81406], [26.80641, 37.81451], [26.84205, 37.80914], [26.88185, 37.78539], [26.91694, 37.77768], [26.96607, 37.74775], [26.9699, 37.75878], [26.94511, 37.78871], [26.97364, 37.78449], [26.99341, 37.79611], [26.99399, 37.784], [27.02101, 37.77717], [27.06784, 37.77439], [27.03386, 37.76138], [27.03224, 37.75316], [27.04754, 37.72724], [27.05877, 37.73378], [27.06526, 37.72907], [27.0612, 37.70674], [27.03696, 37.71288], [27.00172, 37.70677], [26.91, 37.67805], [26.86931, 37.64469], [26.79738, 37.64469], [26.78746, 37.64721], [26.76092, 37.68968], [26.75099, 37.69668], [26.72731, 37.70157], [26.70826, 37.71357], [26.68119, 37.70757], [26.62378, 37.76694], [26.64389, 37.77241]]], [[[26.36092, 38.4444], [26.354, 38.42622], [26.32912, 38.422], [26.32538, 38.4413], [26.35539, 38.45314], [26.36092, 38.4444]]], [[[26.14437, 38.49291], [26.12192, 38.48754], [26.12973, 38.47846], [26.14241, 38.47394], [26.1364, 38.46772], [26.15405, 38.46726], [26.15454, 38.46089], [26.14243, 38.4466], [26.13933, 38.41889], [26.14991, 38.34357], [26.16357, 38.30265], [26.15094, 38.30122], [26.12692, 38.31367], [26.05623, 38.36423], [25.99235, 38.43349], [25.95387, 38.50048], [25.9269, 38.5931], [25.99537, 38.60422], [26.06396, 38.59002], [26.10825, 38.54279], [26.11541, 38.55516], [26.12192, 38.55646], [26.12135, 38.56232], [26.11575, 38.5633], [26.13071, 38.56719], [26.14377, 38.56424], [26.16357, 38.54279], [26.15089, 38.53042], [26.14437, 38.49291]]], [[[26.69826, 38.47713], [26.69289, 38.48286], [26.70216, 38.54278], [26.72241, 38.53274], [26.72997, 38.52086], [26.73121, 38.49486], [26.74544, 38.4833], [26.74756, 38.47586], [26.74381, 38.46374], [26.73162, 38.45837], [26.72169, 38.46926], [26.69826, 38.47713]]], [[[26.27491, 38.51199], [26.27914, 38.51519], [26.29313, 38.49336], [26.28322, 38.49369], [26.27491, 38.51199]]], [[[26.21469, 38.53319], [26.23056, 38.53346], [26.24122, 38.52639], [26.26807, 38.52048], [26.26995, 38.51305], [26.25245, 38.50203], [26.24806, 38.50938], [26.23626, 38.50671], [26.20388, 38.5147], [26.18506, 38.54214], [26.20768, 38.53965], [26.21469, 38.53319]]], [[[26.36214, 39.37884], [26.35475, 39.35651], [26.37338, 39.34691], [26.40023, 39.34124], [26.41747, 39.33047], [26.37965, 39.28266], [26.38217, 39.27709], [26.42416, 39.2451], [26.46631, 39.22923], [26.50473, 39.185], [26.5397, 39.16596], [26.52662, 39.15913], [26.53077, 39.15062], [26.54712, 39.13532], [26.55055, 39.11921], [26.56762, 39.11814], [26.56625, 39.09797], [26.57944, 39.07534], [26.6123, 39.04926], [26.61002, 39.02294], [26.59742, 39.01196], [26.56764, 39.02196], [26.55144, 39.01504], [26.5394, 39.01935], [26.5193, 39.03628], [26.52662, 39.04247], [26.51612, 39.05264], [26.52662, 39.08344], [26.51516, 39.09102], [26.50587, 39.1092], [26.48927, 39.11367], [26.45493, 39.1114], [26.43702, 39.1035], [26.45297, 39.08641], [26.49194, 39.06293], [26.52882, 39.02106], [26.54713, 39.00898], [26.54711, 38.98787], [26.48905, 38.97254], [26.42416, 38.96736], [26.37517, 38.97891], [26.33912, 38.98294], [26.27638, 39.01065], [26.21713, 39.0207], [26.15556, 39.0249], [26.11557, 39.06672], [26.10426, 39.07465], [26.08791, 39.07722], [26.08792, 39.08345], [26.10917, 39.09266], [26.12192, 39.09089], [26.16017, 39.09772], [26.18089, 39.12141], [26.19142, 39.12758], [26.2256, 39.13182], [26.29347, 39.17715], [26.29021, 39.18675], [26.26979, 39.20075], [26.23764, 39.20686], [26.18735, 39.20205], [26.16017, 39.18334], [26.14526, 39.15568], [26.09742, 39.10566], [26.08277, 39.09516], [26.06397, 39.0909], [26.00241, 39.10495], [26.00025, 39.156], [26.00486, 39.1925], [26.02769, 39.26215], [26.04892, 39.29983], [26.05372, 39.2895], [26.06056, 39.2895], [26.0731, 39.3032], [26.09379, 39.31042], [26.16277, 39.32363], [26.17254, 39.3354], [26.1636, 39.37884], [26.34274, 39.383], [26.36214, 39.37884]]], [[[33.10532, 28.32563], [33.11971, 28.30894], [33.12648, 28.2875], [33.20052, 28.21136], [33.21217, 28.18993], [33.24194, 28.17486], [33.24936, 28.14289], [33.28321, 28.13238], [33.31642, 28.09638], [33.33813, 28.08543], [33.33611, 28.05679], [33.3436, 28.0506], [33.36605, 28.05067], [33.37468, 28.03587], [33.44192, 28.0164], [33.51253, 27.95905], [33.53541, 27.91641], [33.55428, 27.89661], [33.57616, 27.85049], [33.59204, 27.79126], [33.57155, 27.79126], [33.56007, 27.81342], [33.48894, 27.84589], [33.48219, 27.84589], [33.47348, 27.82319], [33.48219, 27.80492], [33.51172, 27.77509], [33.52272, 27.7519], [33.55144, 27.76161], [33.55786, 27.75991], [33.55249, 27.73188], [33.53679, 27.70808], [33.55047, 27.69505], [33.57495, 27.68137], [33.59204, 27.65347], [33.59204, 27.64665], [33.55787, 27.68138], [33.55047, 27.68138], [33.55786, 27.65966], [33.55048, 27.65966], [33.5442, 27.67918], [33.52654, 27.67756], [33.50717, 27.66372], [33.49635, 27.64663], [33.5197, 27.6358], [33.54085, 27.60903], [33.06699, 27.91514], [33.00757, 27.9618], [32.95949, 28.01773], [32.9245, 28.08088], [32.90394, 28.14888], [32.86909, 28.57885], [32.92707, 28.55167], [32.96342, 28.51787], [32.97291, 28.49982], [33.00293, 28.48948], [33.01303, 28.46304], [33.04176, 28.41413], [33.05078, 28.40692], [33.04957, 28.40135], [33.04322, 28.40078], [33.08757, 28.36859], [33.10654, 28.3473], [33.10532, 28.32563]]], [[[32.55397, 35.17803], [32.57472, 35.1706], [32.6194, 35.18487], [32.6504, 35.18805], [32.74557, 35.178], [32.77637, 35.17083], [32.82838, 35.14859], [32.86524, 35.15697], [32.89259, 35.17504], [32.91472, 35.20083], [32.92937, 35.23298], [32.93605, 35.33662], [32.93214, 35.36628], [32.92044, 35.39776], [32.94434, 35.39451], [32.98536, 35.37458], [33.0698, 35.35872], [33.14033, 35.36213], [33.26218, 35.34938], [33.28061, 35.34248], [33.4275, 35.32892], [33.66033, 35.35932], [33.78351, 35.41671], [33.83465, 35.40998], [34.03562, 35.47138], [34.0763, 35.49431], [34.13119, 35.51135], [34.18166, 35.55417], [34.31967, 35.58617], [34.36182, 35.60844], [34.54407, 35.67832], [34.59249, 35.69195], [34.57887, 35.67837], [34.57275, 35.64355], [34.54233, 35.63727], [34.44142, 35.58364], [34.3523, 35.5207], [34.13771, 35.41511], [34.10906, 35.39427], [34.08546, 35.36986], [34.05868, 35.32398], [34.04379, 35.31526], [34.02004, 35.31437], [33.97136, 35.32128], [33.95167, 35.31151], [33.91212, 35.26], [33.89991, 35.16445], [33.95362, 35.12262], [33.97501, 35.09136], [33.92269, 35.0634], [33.84324, 35.03585], [33.75934, 35.02161], [33.67555, 35.01969], [33.62909, 34.99265], [33.5258, 34.95147], [33.44418, 34.93436], [33.35309, 34.93055], [33.30576, 34.91769], [33.22594, 34.90604], [33.14488, 34.90666], [33.04472, 34.92415], [32.94263, 34.90041], [32.78597, 34.8824], [32.58202, 34.87774], [32.45183, 34.88713], [32.32299, 34.90715], [32.33139, 34.92422], [32.3122, 34.95027], [32.30592, 35.00141], [32.2761, 35.04795], [32.27175, 35.07282], [32.27512, 35.09084], [32.28641, 35.09703], [32.35336, 35.04792], [32.37233, 35.04149], [32.41383, 35.04304], [32.44996, 35.05882], [32.47967, 35.08295], [32.50196, 35.1092], [32.52761, 35.15704], [32.55397, 35.17803]]], [[[29.73975, 36.1224], [29.75067, 36.13881], [29.76408, 36.13569], [29.74708, 36.12548], [29.73975, 36.1224]]], [[[29.56974, 36.15108], [29.57984, 36.16203], [29.59529, 36.16668], [29.59327, 36.15217], [29.60213, 36.14781], [29.60302, 36.14163], [29.58554, 36.13414], [29.57753, 36.12531], [29.55919, 36.12105], [29.56974, 36.15108]]], [[[29.49399, 36.16107], [29.50845, 36.15469], [29.49903, 36.1497], [29.48538, 36.1553], [29.49399, 36.16107]]], [[[29.91194, 36.19948], [29.88461, 36.17309], [29.84279, 36.16715], [29.83969, 36.17056], [29.91194, 36.19948]]], [[[28.23633, 36.37304], [28.21119, 36.35765], [28.20508, 36.32266], [28.17547, 36.29043], [28.17021, 36.27007], [28.12435, 36.26509], [28.01134, 36.26629], [27.93239, 36.27879], [27.85942, 36.30186], [27.89968, 36.34015], [27.95924, 36.35676], [28.11842, 36.42767], [28.18393, 36.42446], [28.21417, 36.45549], [28.22263, 36.45585], [28.23974, 36.43866], [28.23974, 36.43253], [28.22584, 36.41796], [28.23633, 36.37304]]], [[[27.8286, 36.61298], [27.8357, 36.60252], [27.86987, 36.62425], [27.8767, 36.61685], [27.86305, 36.60253], [27.87321, 36.60545], [27.87062, 36.57779], [27.8767, 36.5616], [27.86305, 36.55536], [27.87208, 36.55036], [27.8767, 36.54109], [27.8545, 36.53051], [27.82831, 36.52803], [27.82831, 36.53424], [27.84938, 36.54792], [27.7925, 36.56697], [27.80787, 36.57587], [27.76004, 36.57588], [27.78696, 36.60627], [27.78786, 36.61684], [27.80152, 36.62424], [27.80152, 36.61685], [27.81814, 36.63401], [27.84174, 36.64462], [27.861, 36.6467], [27.86303, 36.63788], [27.82228, 36.62376], [27.81528, 36.61001], [27.8286, 36.61298]]], [[[28.90854, 36.6671], [28.91588, 36.68273], [28.93839, 36.67605], [28.91537, 36.65552], [28.90854, 36.6671]]], [[[27.44231, 36.97936], [27.42353, 36.99177], [27.43092, 36.99676], [27.4808, 36.97875], [27.49064, 36.97284], [27.49023, 36.96602], [27.47688, 36.95822], [27.44582, 36.97], [27.44231, 36.97936]]], [[[27.6351, 40.46678], [27.65679, 40.45765], [27.65657, 40.44946], [27.64568, 40.44783], [27.63152, 40.45376], [27.59637, 40.45801], [27.58206, 40.46553], [27.57994, 40.47654], [27.6071, 40.50526], [27.64046, 40.49412], [27.6351, 40.46678]]], [[[28.54184, 40.55199], [28.53157, 40.51468], [28.51906, 40.51021], [28.51614, 40.51785], [28.52272, 40.54499], [28.5191, 40.56125], [28.542, 40.56439], [28.54834, 40.55614], [28.54184, 40.55199]]], [[[27.7142, 40.6147], [27.65756, 40.60541], [27.62451, 40.58309], [27.60475, 40.57682], [27.55207, 40.59095], [27.53599, 40.602], [27.53891, 40.62336], [27.52639, 40.63911], [27.54591, 40.66033], [27.55151, 40.65769], [27.55454, 40.64692], [27.60555, 40.66328], [27.63135, 40.66347], [27.65756, 40.65314], [27.67335, 40.65643], [27.7024, 40.65301], [27.72778, 40.64264], [27.73266, 40.62519], [27.7142, 40.6147]]], [[[29.12988, 40.8705], [29.11784, 40.83261], [29.10452, 40.83943], [29.10531, 40.85412], [29.11476, 40.86806], [29.12988, 40.8705]]], [[[28.77019, 40.97931], [28.62526, 40.96842], [28.59524, 40.97798], [28.60353, 41.00947], [28.59531, 41.01606], [28.57553, 41.02367], [28.58253, 41.04637], [28.57244, 41.06647], [28.55193, 41.08051], [28.52784, 41.08515], [28.53289, 41.07062], [28.55454, 41.05366], [28.56251, 41.03677], [28.5602, 41.01204], [28.55355, 40.99836], [28.54135, 40.98958], [28.51247, 40.99267], [28.4607, 41.03286], [28.43531, 41.04291], [28.4022, 41.04732], [28.33277, 41.06656], [28.26401, 41.07088], [28.23666, 41.08515], [28.18165, 41.07772], [28.16529, 41.08515], [28.01303, 41.04072], [27.98658, 41.02367], [27.96437, 40.99628], [27.95922, 40.97529], [27.94125, 40.97111], [27.86069, 40.97847], [27.81528, 41.00263], [27.77613, 41.01097], [27.75697, 41.01181], [27.7378, 41.01264], [27.52418, 40.9892], [27.49123, 40.97226], [27.47169, 40.94184], [27.44653, 40.86172], [27.4248, 40.83129], [27.33082, 40.76097], [27.28792, 40.70357], [27.19825, 40.65314], [27.17774, 40.63265], [27.14283, 40.62739], [27.11524, 40.61373], [27.04754, 40.61221], [26.98975, 40.5638], [26.91163, 40.55073], [26.82105, 40.50313], [26.75945, 40.49616], [26.68336, 40.45547], [26.67432, 40.42569], [26.66382, 40.41357], [26.63152, 40.40005], [26.62485, 40.39248], [26.6167, 40.35953], [26.60133, 40.34596], [26.53995, 40.30382], [26.51043, 40.29816], [26.49724, 40.28994], [26.42682, 40.23048], [26.38019, 40.21143], [26.35914, 40.20816], [26.34555, 40.19977], [26.34881, 40.18134], [26.36134, 40.16258], [26.3758, 40.15351], [26.32771, 40.11857], [26.27312, 40.0926], [26.24292, 40.0708], [26.20282, 40.05748], [26.19261, 40.09873], [26.21471, 40.14606], [26.25978, 40.19448], [26.27198, 40.23041], [26.26694, 40.25776], [26.2479, 40.27912], [26.21813, 40.29686], [26.23178, 40.31013], [26.22739, 40.31533], [26.21328, 40.31875], [26.2191, 40.33144], [26.25043, 40.34959], [26.30145, 40.36468], [26.32114, 40.36518], [26.33612, 40.38531], [26.38575, 40.40986], [26.4328, 40.43983], [26.49171, 40.45653], [26.53625, 40.48567], [26.56483, 40.49959], [26.59528, 40.51031], [26.6229, 40.51532], [26.66977, 40.51081], [26.68377, 40.51533], [26.73276, 40.56377], [26.7562, 40.55484], [26.78826, 40.56293], [26.81666, 40.58096], [26.82895, 40.602], [26.79037, 40.66059], [26.7142, 40.65131], [26.6775, 40.63948], [26.60922, 40.63947], [26.58204, 40.633], [26.50563, 40.59859], [26.47706, 40.6131], [26.44467, 40.61904], [26.39975, 40.60416], [26.37306, 40.61445], [26.30308, 40.60126], [26.30522, 40.60409], [26.28659, 40.60124], [26.28533, 40.61614], [26.11229, 40.74697], [26.13451, 40.76713], [26.14298, 40.79379], [26.15828, 40.81219], [26.21202, 40.84743], [26.2051, 40.85839], [26.20582, 40.865], [26.21864, 40.87198], [26.21254, 40.87311], [26.21192, 40.87947], [26.22525, 40.8836], [26.22618, 40.89931], [26.23238, 40.88567], [26.2392, 40.88567], [26.25223, 40.90055], [26.26039, 40.92045], [26.26649, 40.92045], [26.27517, 40.91027], [26.2822, 40.90722], [26.30401, 40.90903], [26.30328, 40.91549], [26.2944, 40.92665], [26.30649, 40.936], [26.33501, 40.94624], [26.35909, 40.96468], [26.33605, 40.98189], [26.33315, 40.99073], [26.33594, 40.99714], [26.35961, 41.00241], [26.36809, 41.00773], [26.37501, 41.01946], [26.69136, 41.01195], [26.75917, 41.01998], [26.84879, 41.01802], [26.93823, 41.00453], [26.98684, 41.04701], [27.02517, 41.06614], [27.04638, 41.10303], [27.08799, 41.16387], [27.14306, 41.2193], [27.21108, 41.26549], [27.25243, 41.26627], [27.24046, 41.27358], [27.21401, 41.26795], [27.1712, 41.24827], [27.11162, 41.23294], [27.08751, 41.23163], [27.04398, 41.24381], [27.02106, 41.24332], [26.99514, 41.23117], [26.92492, 41.18025], [26.89608, 41.1709], [26.82846, 41.15922], [26.74, 41.1085], [26.70377, 41.09247], [26.65961, 41.09529], [26.37418, 41.03114], [26.34762, 41.04096], [26.32509, 41.07408], [26.3224, 41.08855], [26.33946, 41.11449], [26.31734, 41.1223], [26.31734, 41.13046], [26.33605, 41.15258], [26.32416, 41.16989], [26.32106, 41.18762], [26.3255, 41.207], [26.33605, 41.22891], [26.32054, 41.24622], [26.3317, 41.25412], [26.39506, 41.25898], [26.41211, 41.2657], [26.43847, 41.28358], [26.46637, 41.29717], [26.47878, 41.30962], [26.48932, 41.31087], [26.54017, 41.35179], [26.55061, 41.34177], [26.56962, 41.3336], [26.59112, 41.32931], [26.60972, 41.33071], [26.62264, 41.34037], [26.63174, 41.35753], [26.6366, 41.37846], [26.63639, 41.39959], [26.61592, 41.46853], [26.60611, 41.52305], [26.59546, 41.53741], [26.60166, 41.54734], [26.59784, 41.57328], [26.60228, 41.58516], [26.59629, 41.59754], [26.59546, 41.61245], [26.53955, 41.83799], [26.54782, 41.85628], [26.5598, 41.90734], [26.54472, 41.91643], [26.54296, 41.92036], [26.54709, 41.9269], [26.58947, 41.95876], [26.60569, 41.96741], [26.62357, 41.96904], [26.71757, 41.95731], [26.73674, 41.95896], [26.76858, 41.98077], [26.78057, 41.98343], [26.80842, 41.96788], [26.81943, 41.96566], [26.86077, 41.9879], [26.89033, 41.98542], [26.90108, 41.99348], [26.91146, 41.99679], [26.9389, 41.99622], [26.96717, 42.0285], [27.0004, 42.04281], [27.02262, 42.07389], [27.04655, 42.08294], [27.00527, 42.32038], [27.00486, 42.4071], [26.86386, 42.59027], [26.9138, 42.70465], [27.05804, 42.76092], [27.14264, 42.89166], [27.27425, 42.87913], [27.31913, 42.90814], [27.39624, 42.97761], [27.39326, 43.04748], [27.41634, 43.15063], [27.48116, 43.17102], [27.52761, 43.18065], [27.62387, 43.18965], [27.71948, 43.18473], [27.76661, 43.17709], [27.85664, 43.15184], [27.92773, 43.1195], [27.91137, 43.06518], [27.88771, 43.04214], [27.88356, 43.03099], [27.90397, 42.94229], [27.89845, 42.87466], [27.90397, 42.85969], [27.88396, 42.84838], [27.88356, 42.83194], [27.89714, 42.784], [27.89225, 42.71053], [27.84108, 42.70833], [27.78736, 42.71515], [27.73268, 42.7145], [27.719, 42.69457], [27.71697, 42.67451], [27.73947, 42.66108], [27.64674, 42.64057], [27.62843, 42.62897], [27.63038, 42.60273], [27.65013, 42.55807], [27.63404, 42.56371], [27.54086, 42.5655], [27.51148, 42.55305], [27.48015, 42.48291], [27.46225, 42.48957], [27.45289, 42.48013], [27.45338, 42.46524], [27.46567, 42.45563], [27.46111, 42.44355], [27.46567, 42.42829], [27.47267, 42.46185], [27.50392, 42.43732], [27.51417, 42.43513], [27.54444, 42.46001], [27.56202, 42.44819], [27.57106, 42.45847], [27.59555, 42.44819], [27.62941, 42.45864], [27.64331, 42.45563], [27.63648, 42.44819], [27.65219, 42.41852], [27.66774, 42.41608], [27.69165, 42.42827], [27.69907, 42.41389], [27.71899, 42.41469], [27.71899, 42.40722], [27.69801, 42.40038], [27.70541, 42.39061], [27.71898, 42.3867], [27.70948, 42.37678], [27.70834, 42.3631], [27.72584, 42.33893], [27.74041, 42.3343], [27.78043, 42.33892], [27.77442, 42.32172], [27.78783, 42.31098], [27.76295, 42.2956], [27.75115, 42.27705], [27.75587, 42.25849], [27.78043, 42.24335], [27.77369, 42.23591], [27.80973, 42.2184], [27.83139, 42.19501], [27.85619, 42.1813], [27.84938, 42.16706], [27.87925, 42.15409], [27.90398, 42.11982], [27.95776, 42.0943], [27.97267, 42.07538], [27.98657, 42.07208], [27.98243, 42.0611], [27.98732, 42.05174], [28.00699, 42.0379], [28.00755, 42.03288], [28.00017, 42.03046], [28.01904, 42.00845], [28.02034, 41.99458], [28.01384, 41.98265], [28.03094, 41.91376], [28.04655, 41.89712], [28.04492, 41.89021], [28.03582, 41.8859], [28.00701, 41.8933], [27.97755, 41.88736], [27.96909, 41.87376], [27.96608, 41.84894], [27.97202, 41.82225], [28.02124, 41.77041], [28.04021, 41.72541], [28.07845, 41.69196], [28.08959, 41.6708], [28.08708, 41.66707], [28.07667, 41.66681], [28.07594, 41.66055], [28.09718, 41.6267], [28.11329, 41.61156], [28.14185, 41.59894], [28.17774, 41.55817], [28.23276, 41.51899], [28.38429, 41.44745], [28.60094, 41.37747], [28.90846, 41.26655], [29.00715, 41.24973], [29.02426, 41.24283], [29.04518, 41.2564], [29.06869, 41.25372], [29.09391, 41.2464], [29.10921, 41.23529], [29.09986, 41.2104], [29.08676, 41.19188], [29.06935, 41.17471], [29.04078, 41.16429], [29.07065, 41.13019], [29.04217, 41.06635], [29.03151, 41.05386], [29.00554, 41.0445], [28.98951, 41.03107], [28.99235, 41.00821], [28.98649, 41.00264], [28.96047, 41.00301], [28.94614, 41.00947], [28.92839, 40.99581], [28.89926, 40.98429], [28.84995, 40.97529], [28.83374, 40.96395], [28.82203, 40.96163], [28.78599, 40.96565], [28.77019, 40.97931]]], [[[36.89975, 25.36104], [36.87868, 25.37373], [36.79868, 25.44742], [36.79511, 25.45328], [36.79721, 25.4645], [36.77615, 25.48917], [36.77655, 25.4964], [36.79689, 25.48656], [36.82374, 25.45987], [36.87713, 25.43696], [36.90664, 25.43151], [36.92024, 25.41958], [36.89942, 25.41885], [36.89633, 25.40595], [36.90431, 25.39411], [36.91627, 25.39688], [36.94215, 25.41835], [36.95834, 25.419], [36.96142, 25.4145], [36.9354, 25.39997], [36.9148, 25.37092], [36.89975, 25.36104]]], [[[37.00026, 25.42919], [36.97829, 25.42696], [36.96656, 25.44896], [36.95753, 25.44896], [36.94655, 25.4419], [36.94436, 25.4488], [36.95176, 25.46733], [36.96144, 25.47776], [36.98747, 25.47601], [36.99907, 25.46955], [37.00896, 25.44986], [37.01539, 25.45059], [37.01759, 25.4577], [37.02687, 25.41962], [37.04231, 25.40738], [37.02809, 25.40933], [37.03125, 25.39876], [37.02329, 25.39986], [37.0036, 25.41153], [37.00026, 25.42919]]], [[[36.76539, 25.52424], [36.74253, 25.52921], [36.74293, 25.53588], [36.73439, 25.54662], [36.71925, 25.55565], [36.70135, 25.55467], [36.68117, 25.54415], [36.68141, 25.55345], [36.69125, 25.56721], [36.7068, 25.57122], [36.72585, 25.56502], [36.77507, 25.53538], [36.78582, 25.51602], [36.83874, 25.4901], [36.87437, 25.46343], [36.8833, 25.45433], [36.87915, 25.44335], [36.83481, 25.46674], [36.82545, 25.48412], [36.80063, 25.48847], [36.77133, 25.50708], [36.76539, 25.52424]]], [[[36.86605, 25.54589], [36.84937, 25.53304], [36.82701, 25.54719], [36.82896, 25.56134], [36.84113, 25.56988], [36.85564, 25.56829], [36.86654, 25.55752], [36.86605, 25.54589]]], [[[36.92776, 25.59289], [36.92578, 25.57657], [36.91391, 25.5788], [36.92757, 25.52851], [36.92319, 25.51946], [36.90074, 25.5493], [36.89821, 25.59544], [36.91416, 25.60655], [36.92302, 25.60284], [36.92776, 25.59289]]], [[[36.65944, 25.58209], [36.68291, 25.57245], [36.67604, 25.55475], [36.66765, 25.54976], [36.56772, 25.59846], [36.54607, 25.60322], [36.53939, 25.58919], [36.5293, 25.59397], [36.49774, 25.62397], [36.49148, 25.64509], [36.49969, 25.66254], [36.54362, 25.70285], [36.54525, 25.69648], [36.53948, 25.68512], [36.52263, 25.66218], [36.53102, 25.6446], [36.57032, 25.62445], [36.60939, 25.59154], [36.63111, 25.59242], [36.63795, 25.57461], [36.65594, 25.57184], [36.65479, 25.57804], [36.65944, 25.58209]]], [[[36.60563, 25.70112], [36.59555, 25.69661], [36.58302, 25.69869], [36.55178, 25.7198], [36.54429, 25.73135], [36.54006, 25.76048], [36.54257, 25.80213], [36.55845, 25.83636], [36.59079, 25.86052], [36.56658, 25.83299], [36.55543, 25.79633], [36.56414, 25.7788], [36.58326, 25.76227], [36.59782, 25.75836], [36.58872, 25.73851], [36.58668, 25.71979], [36.59604, 25.70889], [36.61108, 25.70946], [36.60563, 25.70112]]], [[[35.77453, 27.11008], [35.7848, 27.07922], [35.75075, 27.11262], [35.74807, 27.13596], [35.75456, 27.13657], [35.77453, 27.11008]]], [[[33.9245, 27.50142], [33.9136, 27.52371], [33.9258, 27.53432], [33.96412, 27.53411], [33.99391, 27.51431], [34.02848, 27.50201], [34.03842, 27.46662], [34.05127, 27.45482], [34.05127, 27.44865], [34.0311, 27.45149], [34.00709, 27.47606], [33.97633, 27.48724], [33.95631, 27.50438], [33.93358, 27.49483], [33.9245, 27.50142]]], [[[34.68178, 27.95869], [34.73187, 27.95713], [34.73215, 27.91895], [34.70493, 27.90846], [34.68105, 27.91518], [34.6618, 27.93022], [34.68178, 27.95869]]], [[[34.58522, 27.95506], [34.62044, 27.9278], [34.62044, 27.92037], [34.5475, 27.91965], [34.51809, 27.93042], [34.49636, 27.95515], [34.49781, 27.96874], [34.48953, 27.99604], [34.4942, 28.00164], [34.49635, 27.99604], [34.5049, 28.00991], [34.51734, 28.01654], [34.53483, 28.00824], [34.54418, 27.99605], [34.50685, 27.98623], [34.50318, 27.97557], [34.51189, 27.96747], [34.52882, 27.96589], [34.57487, 27.9721], [34.58522, 27.95506]]], [[[33.43814, 31.1684], [33.47584, 31.1418], [33.43691, 31.16122], [33.43814, 31.1684]]], [[[27.01336, 40.39248], [27.09637, 40.45229], [27.14308, 40.45391], [27.21534, 40.4477], [27.23797, 40.45204], [27.2715, 40.46783], [27.28695, 40.4682], [27.30354, 40.45824], [27.32861, 40.41356], [27.31492, 40.40616], [27.30323, 40.41096], [27.29444, 40.40616], [27.33758, 40.37031], [27.39291, 40.34211], [27.45232, 40.32201], [27.52328, 40.30878], [27.55128, 40.30882], [27.59702, 40.32831], [27.61297, 40.33099], [27.688, 40.31379], [27.71225, 40.32419], [27.73259, 40.31729], [27.76271, 40.31537], [27.78981, 40.32046], [27.81325, 40.3471], [27.86736, 40.36888], [27.88356, 40.3863], [27.86525, 40.38679], [27.81528, 40.39989], [27.79177, 40.3929], [27.78582, 40.41291], [27.76765, 40.42025], [27.75637, 40.43261], [27.75017, 40.45759], [27.72585, 40.46138], [27.68442, 40.49597], [27.68427, 40.50234], [27.70607, 40.51191], [27.72243, 40.52626], [27.73316, 40.53057], [27.75017, 40.52473], [27.76002, 40.53704], [27.78045, 40.51533], [27.7894, 40.51423], [27.79519, 40.52089], [27.8047, 40.52276], [27.9699, 40.50299], [28.01416, 40.49115], [28.03442, 40.47443], [28.01677, 40.45108], [27.92994, 40.41694], [27.90398, 40.39989], [27.90846, 40.37421], [27.94467, 40.36603], [28.02752, 40.37202], [28.11199, 40.39605], [28.34769, 40.40403], [28.4004, 40.39741], [28.48677, 40.39988], [28.46754, 40.39435], [28.45883, 40.37946], [28.49949, 40.39109], [28.54542, 40.39129], [28.59278, 40.38189], [28.63771, 40.36518], [28.64381, 40.37123], [28.65805, 40.36518], [28.6854, 40.37945], [28.74187, 40.38642], [28.77199, 40.40252], [28.88404, 40.38629], [28.93873, 40.36518], [29.05161, 40.36734], [29.06568, 40.37572], [29.09011, 40.42722], [29.11899, 40.42365], [29.15154, 40.43407], [29.13356, 40.45075], [29.0879, 40.47748], [29.06568, 40.48188], [29.011, 40.48188], [28.96949, 40.46138], [28.91668, 40.47091], [28.82846, 40.51301], [28.7742, 40.52278], [28.79266, 40.55328], [28.82684, 40.57061], [28.89772, 40.59174], [28.92774, 40.60643], [28.97007, 40.63946], [28.98634, 40.64475], [29.28159, 40.66592], [29.32325, 40.67674], [29.39185, 40.70782], [29.41684, 40.68675], [29.46144, 40.70417], [29.47007, 40.71893], [29.47927, 40.72406], [29.50087, 40.72886], [29.52751, 40.7215], [29.54223, 40.70966], [29.54884, 40.69098], [29.55991, 40.69107], [29.75352, 40.72456], [29.8672, 40.7289], [29.90358, 40.71625], [29.92416, 40.71646], [29.9393, 40.73505], [29.92921, 40.75804], [29.89015, 40.7635], [29.7754, 40.74873], [29.73756, 40.76984], [29.66619, 40.78351], [29.42872, 40.77607], [29.37778, 40.75655], [29.35695, 40.76241], [29.33953, 40.78758], [29.32914, 40.79035], [29.34344, 40.7978], [29.33953, 40.80781], [29.31544, 40.82445], [29.31105, 40.8182], [29.30177, 40.82445], [29.2932, 40.8186], [29.25458, 40.81079], [29.25458, 40.81703], [29.27076, 40.82185], [29.2746, 40.83876], [29.28826, 40.83128], [29.28842, 40.83779], [29.29493, 40.83877], [29.26393, 40.86978], [29.24098, 40.88255], [29.22047, 40.87972], [29.20135, 40.89395], [29.14479, 40.91414], [29.08318, 40.95966], [29.0281, 40.98213], [29.03484, 40.98957], [29.0233, 40.99336], [29.00758, 41.0305], [29.02605, 41.03828], [29.06235, 41.07632], [29.09059, 41.14094], [29.06926, 41.15297], [29.09262, 41.18037], [29.12984, 41.21171], [29.16969, 41.23309], [29.20623, 41.22919], [29.21616, 41.2394], [29.23207, 41.24067], [29.41974, 41.21428], [29.61883, 41.1789], [29.88461, 41.14899], [30.13689, 41.14378], [30.16521, 41.14663], [30.21705, 41.16714], [30.24049, 41.19231], [30.2483, 41.18757], [30.27126, 41.21116], [30.28248, 41.21551], [30.29558, 41.20742], [30.33668, 41.20082], [30.36996, 41.18134], [30.69895, 41.12158], [30.74806, 41.09199], [30.83326, 41.0799], [31.09059, 41.08515], [31.12477, 41.09812], [31.16944, 41.09199], [31.21046, 41.09812], [31.23121, 41.09199], [31.23878, 41.09369], [31.24888, 41.10565], [31.29021, 41.11786], [31.32358, 41.13386], [31.39275, 41.18842], [31.40105, 41.20209], [31.40801, 41.24817], [31.41961, 41.28034], [31.39608, 41.29569], [31.39285, 41.30365], [31.40358, 41.31647], [31.42514, 41.32257], [31.47104, 41.32477], [31.49831, 41.35203], [31.65895, 41.39793], [31.87194, 41.50471], [31.99334, 41.54951], [32.03941, 41.57558], [32.13412, 41.59943], [32.16188, 41.61201], [32.17841, 41.6369], [32.24342, 41.69294], [32.26337, 41.72015], [32.29705, 41.72735], [32.35182, 41.72944], [32.3537, 41.73574], [32.37232, 41.7425], [32.38258, 41.75608], [32.39967, 41.7425], [32.41725, 41.74893], [32.45429, 41.77724], [32.53506, 41.81082], [32.56283, 41.81687], [32.57781, 41.81135], [32.58938, 41.82696], [32.61257, 41.83953], [32.63966, 41.84389], [32.6631, 41.83495], [32.67921, 41.83633], [32.75538, 41.85911], [32.79851, 41.85969], [32.82749, 41.86469], [32.84457, 41.87278], [32.85564, 41.86831], [32.92612, 41.88182], [32.96192, 41.89411], [33.00807, 41.9173], [33.16554, 41.95698], [33.32448, 42.01902], [33.36085, 42.02064], [33.43434, 42.01065], [33.54054, 42.01064], [33.61346, 41.99372], [33.82716, 41.97769], [33.84522, 41.98264], [33.88204, 41.97496], [33.89747, 41.91899], [33.90069, 41.88329], [33.89921, 41.84797], [33.8846, 41.77327], [34.01914, 41.71991], [34.15009, 41.67952], [34.24762, 41.66251], [34.43304, 41.64101], [34.49368, 41.63072], [34.51389, 41.62728], [34.5158, 41.6198], [34.52454, 41.61589], [34.87021, 41.61341], [34.91416, 41.58252], [34.96125, 41.52373], [34.97226, 41.39796], [34.9995, 41.34852], [35.05493, 41.27143], [35.11707, 41.20706], [35.1738, 41.16538], [35.24864, 41.11966], [35.36872, 41.06193], [35.41903, 41.04543], [35.4845, 41.03366], [35.56143, 41.03204], [35.64145, 41.03586], [35.76895, 41.07585], [35.82046, 41.07521], [35.85369, 41.06627], [35.97532, 41.01685], [36.11666, 40.94551], [36.148, 40.91815], [36.1941, 40.85261], [36.22529, 40.82579], [36.50173, 40.70644], [36.68234, 40.58183], [36.69962, 40.57384], [36.71851, 40.57149], [36.73546, 40.57634], [36.79075, 40.62087], [36.81898, 40.63264], [36.87388, 40.62219], [36.91704, 40.60602], [36.95416, 40.58672], [36.98396, 40.56294], [37.04914, 40.48051], [37.08592, 40.41401], [37.08412, 40.36978], [37.08935, 40.35572], [37.13898, 40.32313], [37.23935, 40.27762], [37.32342, 40.19532], [37.36268, 40.1694], [37.37897, 40.16557], [37.4542, 40.16612], [37.83607, 40.18635], [37.875, 40.17377], [37.90373, 40.1563], [37.90332, 40.14874], [37.88658, 40.12788], [37.88714, 40.11803], [37.94215, 40.06825], [37.99703, 40.03789], [38.16301, 39.99261], [38.18002, 39.99458], [38.19165, 40.00204], [38.22633, 40.03871], [38.24663, 40.04213], [38.27699, 40.03516], [38.55505, 39.91774], [38.61011, 39.88698], [38.70248, 39.86111], [38.79969, 39.81841], [38.84956, 39.80677], [38.88664, 39.80797], [38.98767, 39.82336], [39.12838, 39.81366], [39.28687, 39.7725], [39.35936, 39.81504], [39.40348, 39.83468], [39.53165, 39.85402], [39.61105, 39.87598], [39.84152, 39.98238], [39.92222, 40.00501], [40.02958, 40.00668], [40.23748, 39.99979], [40.25723, 39.96217], [40.28653, 39.92963], [40.3598, 39.89295], [40.40182, 39.86568], [40.57725, 39.71887], [40.59886, 39.70377], [40.62294, 39.69591], [40.64621, 39.7033], [40.66102, 39.71504], [40.72011, 39.79239], [40.78889, 39.92861], [40.81887, 39.97527], [40.89843, 39.93426], [41.03614, 39.90896], [41.05621, 39.89925], [41.06282, 39.88988], [41.06791, 39.85543], [41.06367, 39.82218], [41.03057, 39.70751], [41.06371, 39.6767], [41.09823, 39.55201], [41.1193, 39.50901], [41.15433, 39.31888], [41.17334, 39.24348], [41.2516, 39.01178], [41.2627, 38.99121], [41.29564, 38.97981], [41.38136, 38.98965], [41.42212, 38.98706], [41.43831, 38.97902], [41.45228, 38.94885], [41.47185, 38.84413], [41.48215, 38.75256], [41.47847, 38.73819], [41.46171, 38.71533], [41.38482, 38.66652], [41.37623, 38.65376], [41.37663, 38.64537], [41.40988, 38.60047], [41.50975, 38.50995], [41.55646, 38.44784], [41.59681, 38.38164], [41.64439, 38.32224], [41.63105, 38.25519], [41.60698, 38.19048], [41.59607, 38.11087], [41.55745, 37.97012], [41.53361, 37.62135], [41.5135, 37.51099], [41.51932, 37.49247], [41.53977, 37.46214], [41.74745, 37.21515], [41.55678, 36.79246], [41.60646, 36.55794], [41.41487, 36.52738], [41.38541, 36.51638], [41.36536, 36.49416], [41.27699, 36.35479], [41.26883, 36.32797], [41.23658, 36.07702], [41.23669, 36.06033], [41.24061, 36.04302], [41.26625, 35.99429], [41.34366, 35.85766], [41.35451, 35.82557], [41.35926, 35.79275], [41.36113, 35.73198], [41.07839, 35.70886], [40.82753, 35.13324], [40.5734, 34.53996], [40.69047, 34.3315], [40.15944, 34.06544], [40.28789, 33.86106], [39.83466, 32.75596], [39.52019, 31.95953], [39.19241, 31.11107], [38.83922, 30.153], [38.71501, 29.8105], [38.60816, 29.50353], [38.1882, 28.27439], [37.7387, 26.86514], [37.38217, 25.67073], [37.43706, 25.5823], [37.45175, 25.54915], [37.46717, 25.49593], [37.55471, 25.39994], [37.60334, 25.32117], [37.58697, 25.28165], [37.54818, 25.22047], [37.49744, 25.16768], [37.43607, 25.12464], [37.36624, 25.09318], [37.29196, 25.07497], [37.25346, 25.07089], [37.25603, 25.1341], [37.2422, 25.17528], [37.21168, 25.21426], [37.18003, 25.23909], [37.17066, 25.2578], [37.1422, 25.27992], [37.10532, 25.32217], [37.09328, 25.34447], [37.08644, 25.38544], [37.05984, 25.41962], [37.0774, 25.43106], [37.06267, 25.45368], [37.01813, 25.49488], [36.99448, 25.54995], [36.9704, 25.57047], [36.96998, 25.58857], [36.93629, 25.64615], [36.88161, 25.67284], [36.8423, 25.7298], [36.81739, 25.75796], [36.79566, 25.75947], [36.79371, 25.74828], [36.80395, 25.7268], [36.79225, 25.72062], [36.72517, 25.75376], [36.70216, 25.78023], [36.69489, 25.79534], [36.69386, 25.8229], [36.67564, 25.83052], [36.66343, 25.85566], [36.66213, 25.87886], [36.67165, 25.90143], [36.70582, 25.94375], [36.70948, 25.97114], [36.70558, 25.99933], [36.69606, 26.02228], [36.67237, 26.04523], [36.64064, 26.06021], [36.57252, 26.07071], [36.53664, 26.08243], [36.51271, 26.11099], [36.44923, 26.24689], [36.38283, 26.33454], [36.30893, 26.49824], [36.22983, 26.62556], [36.18214, 26.68024], [36.12443, 26.72657], [36.09768, 26.75398], [36.08188, 26.79727], [36.05178, 26.84468], [36.03199, 26.90681], [36.01393, 26.90234], [36.00026, 26.91353], [35.97674, 26.94774], [35.91188, 26.99959], [35.83172, 27.09272], [35.79983, 27.1501], [35.80073, 27.16793], [35.81284, 27.19107], [35.80795, 27.20307], [35.78403, 27.2355], [35.69996, 27.32477], [35.6404, 27.36348], [35.58985, 27.4289], [35.55959, 27.45564], [35.51052, 27.54418], [35.5062, 27.60053], [35.50026, 27.61933], [35.45901, 27.66341], [35.44089, 27.69007], [35.41505, 27.75137], [35.39438, 27.777], [35.36453, 27.78984], [35.35149, 27.80121], [35.33678, 27.83369], [35.33237, 27.86221], [35.27102, 27.92781], [35.25522, 27.95279], [35.18149, 28.00292], [35.18149, 27.99605], [35.17466, 27.99605], [35.1636, 28.00934], [35.17653, 28.01947], [35.21632, 28.03766], [35.2269, 28.03315], [35.21632, 28.05439], [35.17465, 28.06501], [35.16782, 28.06501], [35.16781, 28.05818], [35.1618, 28.05818], [35.14479, 28.0764], [35.11037, 28.07894], [35.05193, 28.11957], [35.042, 28.11303], [35.0197, 28.11347], [35.03074, 28.09913], [34.9979, 28.1142], [34.93727, 28.09125], [34.92774, 28.07861], [34.92092, 28.07861], [34.92091, 28.08543], [34.90089, 28.08227], [34.8602, 28.08539], [34.84645, 28.07121], [34.83889, 28.07861], [34.83889, 28.08544], [34.84645, 28.08544], [34.84262, 28.09984], [34.86622, 28.11278], [34.83676, 28.11628], [34.82537, 28.11278], [34.82537, 28.1059], [34.83277, 28.1059], [34.83277, 28.09911], [34.8143, 28.08893], [34.80486, 28.07121], [34.79178, 28.0786], [34.80161, 28.0904], [34.8191, 28.09911], [34.8191, 28.11278], [34.79371, 28.11107], [34.78647, 28.10472], [34.78444, 28.09293], [34.77735, 28.09618], [34.77077, 28.09294], [34.77076, 28.1059], [34.76499, 28.1059], [34.76499, 28.09911], [34.75702, 28.09912], [34.74732, 28.11201], [34.73658, 28.10592], [34.7274, 28.11214], [34.70924, 28.14008], [34.69499, 28.12647], [34.68198, 28.13516], [34.67456, 28.11279], [34.64715, 28.09911], [34.64715, 28.09292], [34.66829, 28.07859], [34.66829, 28.0712], [34.65528, 28.06502], [34.64715, 28.07119], [34.64143, 28.0417], [34.63517, 28.03346], [34.61306, 28.03023], [34.62045, 28.03767], [34.61306, 28.04451], [34.60874, 28.05853], [34.60621, 28.09602], [34.59889, 28.10326], [34.57441, 28.09408], [34.57887, 28.1059], [34.57278, 28.11278], [34.58742, 28.13182], [34.62672, 28.16055], [34.62047, 28.16739], [34.62713, 28.17666], [34.64031, 28.18105], [34.64031, 28.17642], [34.63347, 28.17487], [34.6517, 28.16779], [34.65772, 28.17056], [34.6609, 28.18106], [34.65528, 28.18106], [34.65528, 28.18789], [34.64814, 28.19424], [34.6496, 28.20087], [34.6683, 28.20897], [34.6649, 28.22451], [34.67458, 28.27045], [34.68873, 28.26362], [34.68873, 28.27729], [34.68043, 28.27167], [34.67458, 28.27725], [34.69467, 28.29442], [34.71502, 28.32746], [34.73048, 28.36359], [34.74107, 28.41059], [34.76059, 28.43659], [34.775, 28.48317], [34.80378, 28.52713], [34.79343, 28.61943], [34.77848, 28.6645], [34.79696, 28.72599], [34.82537, 28.78437], [34.82537, 28.7906], [34.81912, 28.7906], [34.83611, 28.81647], [34.83855, 28.82856], [34.83277, 28.84561], [34.84409, 28.87641], [34.84197, 28.88964], [34.82538, 28.89424], [34.82538, 28.90037], [34.8401, 28.92243], [34.85629, 28.96381], [34.86378, 29.00625], [34.85256, 29.0314], [34.85256, 29.04507], [34.87355, 29.08527], [34.89351, 29.17451], [34.90935, 29.21015], [34.90937, 29.23065], [34.94207, 29.25047], [34.93269, 29.28949], [34.93638, 29.30385], [34.94809, 29.29829], [34.95069, 29.30573], [34.95558, 29.30512], [34.94533, 29.3369], [34.9494, 29.3517], [34.96241, 29.35977], [34.96901, 29.45083], [34.9761, 29.47703], [34.99781, 29.51797], [34.99684, 29.53388], [34.97608, 29.55215], [34.96241, 29.55216], [34.96022, 29.55952], [34.95558, 29.55899], [34.95121, 29.54545], [34.91977, 29.50739], [34.91081, 29.48995], [34.88673, 29.49006], [34.85971, 29.47215], [34.83814, 29.43294], [34.82537, 29.42862], [34.83326, 29.42617], [34.83276, 29.42114], [34.81764, 29.41218], [34.8152, 29.4064], [34.81908, 29.40071], [34.80519, 29.39643], [34.81225, 29.38764], [34.77759, 29.3461], [34.75701, 29.33307], [34.7451, 29.31598], [34.73658, 29.31126], [34.74528, 29.29133], [34.72901, 29.25047], [34.729, 29.19892], [34.72363, 29.18668], [34.695, 29.1645], [34.68999, 29.13417], [34.67457, 29.10651], [34.67457, 29.03441], [34.68652, 29.01243], [34.68577, 28.98888], [34.64674, 28.96743], [34.64031, 28.9488], [34.64599, 28.92235], [34.64713, 28.86287], [34.62045, 28.84585], [34.62631, 28.80263], [34.62045, 28.79059], [34.63346, 28.7707], [34.62281, 28.75983], [34.62451, 28.73599], [34.61524, 28.72419], [34.60767, 28.70149], [34.58424, 28.67235], [34.57031, 28.62617], [34.53012, 28.5727], [34.51631, 28.53878], [34.51059, 28.53799], [34.5236, 28.50731], [34.51156, 28.48779], [34.46901, 28.45539], [34.47526, 28.44795], [34.46168, 28.44204], [34.45428, 28.4289], [34.44116, 28.37348], [34.42742, 28.35611], [34.40691, 28.30801], [34.41066, 28.27814], [34.42057, 28.25617], [34.41293, 28.23314], [34.45532, 28.17487], [34.43872, 28.10985], [34.42675, 28.08154], [34.44401, 28.05354], [34.42742, 27.98306], [34.43488, 27.97558], [34.40073, 27.96874], [34.38998, 27.94527], [34.37696, 27.93818], [34.37085, 27.92366], [34.33131, 27.91413], [34.3387, 27.90669], [34.32096, 27.86128], [34.31128, 27.85205], [34.30446, 27.85205], [34.28639, 27.86441], [34.27947, 27.85834], [34.27271, 27.83617], [34.26352, 27.82477], [34.27172, 27.81245], [34.25929, 27.80184], [34.2393, 27.79409], [34.21412, 27.79149], [34.2212, 27.76984], [34.25732, 27.76951], [34.25732, 27.76334], [34.24985, 27.76333], [34.24985, 27.7565], [34.2635, 27.73604], [34.24985, 27.74283], [34.25123, 27.73725], [34.25733, 27.73603], [34.25732, 27.72859], [34.24986, 27.72859], [34.22755, 27.7582], [34.18979, 27.78677], [34.07846, 27.8007], [34.05467, 27.8144], [33.98756, 27.88666], [33.97381, 27.88924], [33.91676, 27.93574], [33.90398, 27.9418], [33.89088, 27.94253], [33.87941, 27.93465], [33.86557, 27.96133], [33.8589, 27.95516], [33.80422, 27.99605], [33.79371, 28.01313], [33.76337, 28.024], [33.76393, 28.04902], [33.71601, 28.07527], [33.7155, 28.09292], [33.68448, 28.12417], [33.67264, 28.14579], [33.67457, 28.16055], [33.66033, 28.17487], [33.65406, 28.17487], [33.65406, 28.1674], [33.64666, 28.1674], [33.63478, 28.18131], [33.61818, 28.2333], [33.6128, 28.24063], [33.60565, 28.23629], [33.56471, 28.29711], [33.43394, 28.36641], [33.40016, 28.41446], [33.369, 28.44233], [33.36915, 28.44794], [33.30519, 28.48974], [33.29478, 28.49942], [33.27882, 28.52753], [33.25621, 28.54414], [33.26246, 28.55158], [33.26246, 28.54414], [33.26979, 28.54413], [33.26295, 28.57705], [33.2461, 28.5795], [33.23764, 28.56611], [33.2562, 28.55158], [33.23928, 28.55677], [33.2287, 28.56941], [33.22321, 28.58765], [33.21901, 28.628], [33.19485, 28.67512], [33.22828, 28.76386], [33.21015, 28.78507], [33.20476, 28.80516], [33.18101, 28.81851], [33.17459, 28.83698], [33.16733, 28.90016], [33.17758, 28.91836], [33.16587, 28.97606], [33.17791, 28.98957], [33.17075, 29.00308], [33.15919, 29.01411], [33.1531, 29.01338], [33.14503, 29.03172], [33.13648, 29.03461], [33.12648, 29.03141], [33.11606, 29.04312], [33.07863, 29.06489], [33.06121, 29.10139], [33.04022, 29.11812], [33.02345, 29.14061], [33.00913, 29.14741], [33.00294, 29.16112], [32.95786, 29.20209], [32.91952, 29.21768], [32.88575, 29.24292], [32.86801, 29.29763], [32.90269, 29.34967], [32.92804, 29.37781], [32.98649, 29.42599], [33.01967, 29.44621], [33.05543, 29.46367], [33.13054, 29.4885], [33.17056, 29.49609], [33.22994, 29.49999], [33.39698, 29.70121], [33.42142, 29.73601], [33.44769, 29.79013], [33.62469, 30.2031], [33.65344, 30.28584], [33.78354, 30.72816], [33.79035, 30.76688], [33.77961, 30.77382], [33.67527, 30.75725], [33.55532, 30.75529], [33.50815, 30.799], [33.46416, 30.85918], [33.43494, 30.92478], [33.42597, 30.95933], [33.41998, 31.0303], [33.43525, 31.14981], [33.44093, 31.15119], [33.49952, 31.12808], [33.57252, 31.12156], [33.59205, 31.11441], [33.59206, 31.12127], [33.61476, 31.11538], [33.64796, 31.11726], [33.85434, 31.16348], [34.04705, 31.22919], [34.22267, 31.32665], [34.28142, 31.3767], [34.30162, 31.40769], [34.3484, 31.43765], [34.36818, 31.46816], [34.44337, 31.53457], [34.47877, 31.57827], [34.48952, 31.6004], [34.51393, 31.62714], [34.60963, 31.76553], [34.69313, 31.92631], [34.71193, 31.95161], [34.74334, 32.03986], [34.74335, 32.06036], [34.75701, 32.0666], [34.83766, 32.28071], [34.9041, 32.56042], [34.90984, 32.57026], [34.92091, 32.62824], [34.91914, 32.64297], [34.94207, 32.72451], [34.9476, 32.81435], [34.95559, 32.83437], [34.97047, 32.84137], [35.00343, 32.82754], [35.02768, 32.82661], [35.06707, 32.86685], [35.0796, 32.90583], [35.07781, 32.91787], [35.06545, 32.92309], [35.07154, 32.93793], [35.07843, 32.99857], [35.0962, 33.05036], [35.09215, 33.06769], [35.10646, 33.08076], [35.09964, 33.08759], [35.10524, 33.08902], [35.10646, 33.09504], [35.10046, 33.09567], [35.09963, 33.10126], [35.12532, 33.13237], [35.14763, 33.14033], [35.16782, 33.17015], [35.16181, 33.17694], [35.17107, 33.17658], [35.17465, 33.17015], [35.20476, 33.2248], [35.20916, 33.25462], [35.18834, 33.28001], [35.20973, 33.2934], [35.22478, 33.312], [35.24366, 33.3557], [35.25051, 33.40973], [35.27508, 33.44497], [35.27102, 33.4575], [35.32301, 33.49091], [35.34913, 33.51386], [35.36258, 33.55657], [35.40065, 33.64313], [35.3944, 33.64997], [35.40992, 33.66128], [35.42165, 33.70233], [35.43849, 33.71137], [35.43795, 33.7236], [35.47731, 33.8039], [35.48325, 33.87246], [35.47048, 33.90208], [35.47585, 33.90997], [35.48658, 33.91298], [35.51735, 33.90253], [35.57203, 33.90998], [35.59311, 33.94477], [35.59197, 33.95043], [35.58572, 33.95092], [35.6134, 33.99296], [35.63673, 33.99531], [35.64088, 33.99942], [35.64039, 34.00853], [35.62722, 34.01985], [35.62698, 34.04426], [35.64332, 34.08808], [35.64772, 34.11913], [35.63033, 34.15304], [35.62722, 34.20112], [35.64772, 34.22215], [35.65296, 34.28459], [35.66512, 34.31114], [35.68873, 34.3283], [35.70582, 34.3166], [35.75075, 34.38979], [35.80616, 34.41498], [35.82358, 34.43452], [35.80544, 34.45869], [35.80544, 34.4649], [35.82398, 34.46084], [35.90333, 34.47797], [35.98317, 34.53864], [35.98878, 34.55272], [35.98683, 34.6208], [35.93118, 34.74096], [35.92897, 34.79072], [35.90847, 34.82177], [35.86689, 34.92422], [35.8729, 34.92691], [35.88136, 34.94497], [35.87356, 34.95832], [35.87892, 34.97016], [35.87356, 34.97883], [35.89536, 35.00678], [35.90056, 35.02192], [35.88788, 35.06135], [35.88788, 35.1092], [35.9411, 35.18037], [35.96241, 35.19794], [35.9533, 35.2248], [35.91531, 35.28791], [35.92897, 35.32148], [35.91671, 35.40306], [35.91896, 35.41767], [35.86061, 35.47907], [35.8301, 35.49348], [35.81837, 35.50894], [35.78126, 35.49959], [35.77053, 35.50422], [35.77809, 35.54116], [35.73709, 35.56168], [35.74334, 35.5821], [35.72341, 35.57593], [35.72341, 35.58209], [35.76336, 35.59829], [35.77849, 35.61274], [35.78435, 35.63056], [35.77118, 35.66779], [35.77663, 35.67511], [35.80006, 35.68146], [35.84034, 35.74746], [35.83595, 35.78998], [35.81186, 35.8354], [35.79862, 35.84967], [35.84685, 35.84724], [35.87086, 35.85179], [35.88103, 35.86668], [35.88528, 35.88597], [35.96608, 35.99363], [35.97674, 36.00096], [35.97543, 36.0185], [35.94842, 36.08784], [35.85234, 36.21336], [35.84099, 36.24453], [35.79861, 36.28169], [35.78738, 36.30427], [35.78876, 36.32025], [35.82448, 36.36106], [35.85678, 36.36978], [35.87356, 36.39769], [35.90846, 36.41816], [35.91872, 36.44818], [35.9424, 36.46433], [35.99024, 36.47964], [36.04494, 36.53765], [36.05543, 36.53828], [36.18914, 36.60399], [36.21616, 36.65778], [36.21559, 36.67048], [36.20246, 36.69963], [36.20248, 36.76919], [36.18898, 36.80174], [36.12989, 36.86929], [36.09547, 36.89712], [36.0586, 36.91844], [36.02027, 36.92634], [35.98504, 36.9156], [35.95086, 36.89102], [35.8938, 36.83491], [35.85385, 36.81582], [35.80543, 36.7751], [35.7671, 36.76774], [35.68409, 36.76464], [35.64772, 36.75397], [35.62452, 36.72602], [35.61355, 36.71988], [35.61818, 36.73164], [35.6067, 36.74038], [35.57301, 36.70067], [35.57944, 36.68513], [35.59448, 36.70172], [35.61687, 36.69623], [35.6198, 36.71239], [35.62916, 36.70824], [35.63404, 36.69937], [35.64047, 36.71337], [35.63404, 36.72671], [35.6481, 36.73321], [35.66481, 36.71239], [35.69606, 36.72393], [35.70913, 36.71987], [35.65016, 36.69782], [35.62257, 36.68073], [35.6067, 36.65778], [35.60865, 36.64688], [35.62208, 36.65424], [35.66676, 36.69611], [35.69554, 36.7062], [35.65797, 36.6752], [35.63315, 36.63093], [35.63134, 36.60717], [35.62376, 36.60265], [35.59855, 36.59144], [35.55714, 36.58748], [35.54467, 36.58952], [35.50367, 36.61685], [35.49, 36.61392], [35.47869, 36.59854], [35.53095, 36.58273], [35.44549, 36.59634], [35.41326, 36.58369], [35.40446, 36.57193], [35.37403, 36.56159], [35.34603, 36.5411], [35.33579, 36.54561], [35.32016, 36.56468], [35.29449, 36.57259], [34.98227, 36.72077], [34.94646, 36.72797], [34.90042, 36.71989], [34.90789, 36.74038], [34.89357, 36.74601], [34.85255, 36.78132], [34.77076, 36.81607], [34.76498, 36.80859], [34.73585, 36.82168], [34.69288, 36.81387], [34.62672, 36.78877], [34.58513, 36.78132], [34.5547, 36.76765], [34.53405, 36.74053], [34.50318, 36.72671], [34.41521, 36.66292], [34.30746, 36.60859], [34.27622, 36.58698], [34.19044, 36.49852], [34.17773, 36.47338], [34.14747, 36.45917], [34.11198, 36.4296], [34.07732, 36.41389], [34.07788, 36.32885], [34.05779, 36.31591], [33.99977, 36.30292], [33.98927, 36.28168], [33.99828, 36.28602], [33.99585, 36.27953], [33.96876, 36.24689], [33.95899, 36.21358], [33.94143, 36.21338], [33.95094, 36.2377], [33.94597, 36.2652], [33.93092, 36.29047], [33.8711, 36.31489], [33.85548, 36.30492], [33.82788, 36.27172], [33.81105, 36.2674], [33.8247, 36.25992], [33.79907, 36.23067], [33.74285, 36.21337], [33.70525, 36.18171], [33.68825, 36.13705], [33.66034, 36.17488], [33.65659, 36.18867], [33.64723, 36.19257], [33.61988, 36.18545], [33.55225, 36.12752], [33.53056, 36.13081], [33.5442, 36.13703], [33.5442, 36.14448], [33.45826, 36.15815], [33.4367, 36.15469], [33.38649, 36.13704], [33.32683, 36.15009], [33.30835, 36.13224], [33.24195, 36.1308], [33.21214, 36.12407], [33.18898, 36.12573], [33.15691, 36.13703], [33.13404, 36.13178], [33.11197, 36.10323], [33.08773, 36.08284], [33.07114, 36.08926], [33.02687, 36.08927], [32.94093, 36.1035], [32.86524, 36.07185], [32.85669, 36.06099], [32.80343, 36.02718], [32.76059, 36.02949], [32.67038, 36.04681], [32.63205, 36.06211], [32.56788, 36.0961], [32.51314, 36.10315], [32.43727, 36.13867], [32.41961, 36.15949], [32.3655, 36.17797], [32.3187, 36.22858], [32.31032, 36.22949], [32.2873, 36.24483], [32.27613, 36.28783], [32.2527, 36.31533], [32.19216, 36.35839], [32.17433, 36.40241], [32.14845, 36.43366], [32.1321, 36.43867], [32.10206, 36.48615], [32.08717, 36.49332], [32.01881, 36.54654], [31.98781, 36.54996], [31.96827, 36.56159], [31.90798, 36.56266], [31.88803, 36.58112], [31.86248, 36.58869], [31.83465, 36.59235], [31.81675, 36.58952], [31.80738, 36.59683], [31.76906, 36.61002], [31.73658, 36.64228], [31.70323, 36.6437], [31.62762, 36.67085], [31.5962, 36.69571], [31.40756, 36.76341], [31.3786, 36.76766], [31.37631, 36.79194], [31.34083, 36.80858], [30.93971, 36.857], [30.77589, 36.84957], [30.74784, 36.85576], [30.68653, 36.89118], [30.62859, 36.85957], [30.60174, 36.83812], [30.56984, 36.78132], [30.56577, 36.70018], [30.57666, 36.6789], [30.56267, 36.66254], [30.55616, 36.63788], [30.55787, 36.61962], [30.57667, 36.5895], [30.58349, 36.59633], [30.58105, 36.57518], [30.56723, 36.53986], [30.56982, 36.52803], [30.52084, 36.48973], [30.50879, 36.4543], [30.48699, 36.42695], [30.48795, 36.41816], [30.47462, 36.4016], [30.47633, 36.38422], [30.48715, 36.37027], [30.50162, 36.36359], [30.49415, 36.34931], [30.51985, 36.34186], [30.47877, 36.30858], [30.46681, 36.28783], [30.4782, 36.2923], [30.48794, 36.28782], [30.45167, 36.26179], [30.44075, 36.23933], [30.42726, 36.22627], [30.39862, 36.20598], [30.4004, 36.24811], [30.39601, 36.26553], [30.38429, 36.27424], [30.36053, 36.26863], [30.25457, 36.3083], [30.23374, 36.3089], [30.17734, 36.30122], [30.15854, 36.29865], [30.14926, 36.28986], [30.14469, 36.25435], [30.13844, 36.25435], [30.13103, 36.27424], [30.12476, 36.24691], [30.11061, 36.25434], [30.1106, 36.24007], [30.07301, 36.2469], [30.04819, 36.25877], [30.03484, 36.25434], [30.05592, 36.25434], [30.05589, 36.24689], [29.98845, 36.21777], [29.9734, 36.21963], [29.961, 36.21387], [29.91652, 36.21906], [29.88136, 36.19843], [29.83009, 36.18545], [29.83758, 36.18285], [29.83692, 36.17796], [29.80258, 36.17182], [29.80258, 36.16498], [29.82307, 36.16498], [29.7955, 36.14536], [29.77978, 36.13944], [29.76173, 36.13703], [29.76173, 36.14448], [29.7754, 36.15815], [29.76238, 36.15656], [29.75489, 36.1507], [29.74342, 36.16096], [29.71925, 36.16266], [29.70704, 36.15815], [29.69995, 36.14615], [29.6893, 36.14448], [29.67238, 36.12338], [29.66822, 36.14378], [29.63397, 36.15706], [29.62397, 36.17776], [29.63738, 36.17243], [29.64324, 36.17792], [29.6421, 36.18696], [29.63453, 36.19164], [29.58352, 36.18546], [29.58352, 36.19163], [29.59254, 36.19579], [29.62387, 36.19912], [29.60222, 36.20702], [29.5215, 36.20598], [29.49474, 36.21096], [29.43214, 36.24006], [29.42042, 36.23063], [29.41163, 36.2674], [29.40578, 36.26017], [29.39186, 36.2674], [29.3816, 36.2639], [29.3571, 36.23567], [29.34963, 36.23262], [29.34084, 36.23738], [29.32936, 36.2541], [29.32228, 36.24691], [29.25687, 36.29688], [29.23463, 36.32429], [29.17499, 36.33984], [29.15846, 36.35676], [29.14471, 36.34933], [29.14081, 36.36245], [29.1447, 36.37718], [29.11689, 36.37719], [29.12428, 36.38345], [29.1128, 36.38939], [29.09638, 36.39095], [29.10907, 36.40647], [29.13038, 36.41136], [29.12429, 36.41815], [29.13014, 36.43651], [29.1242, 36.4536], [29.11134, 36.46678], [29.09638, 36.47346], [29.09657, 36.47978], [29.12428, 36.49331], [29.11492, 36.55268], [29.09637, 36.54793], [29.08432, 36.56025], [29.03639, 36.54533], [29.01447, 36.54792], [29.03273, 36.55182], [29.03688, 36.56147], [29.02053, 36.5895], [29.04176, 36.62424], [29.05584, 36.61424], [29.08091, 36.63861], [29.09637, 36.6441], [29.09059, 36.6271], [29.09881, 36.6236], [29.11061, 36.62637], [29.11687, 36.63422], [29.10922, 36.652], [29.09636, 36.66523], [29.03419, 36.70099], [28.95632, 36.72753], [28.93898, 36.75129], [28.89088, 36.71239], [28.8977, 36.69938], [28.86354, 36.69257], [28.86246, 36.66792], [28.84995, 36.66523], [28.86352, 36.65094], [28.85678, 36.64411], [28.87037, 36.63052], [28.87664, 36.63052], [28.88803, 36.64842], [28.89015, 36.65762], [28.88405, 36.67143], [28.9017, 36.65827], [28.89534, 36.64143], [28.86354, 36.61685], [28.86962, 36.60664], [28.85848, 36.60129], [28.82888, 36.60254], [28.81863, 36.61173], [28.81863, 36.62079], [28.82717, 36.62774], [28.84254, 36.63052], [28.84254, 36.63788], [28.80502, 36.65526], [28.78786, 36.65096], [28.78273, 36.67739], [28.74635, 36.6977], [28.70167, 36.70506], [28.6649, 36.69258], [28.65992, 36.711], [28.64918, 36.71833], [28.63592, 36.7145], [28.62338, 36.69938], [28.60354, 36.73355], [28.61256, 36.74714], [28.61671, 36.76699], [28.61411, 36.78535], [28.60353, 36.79499], [28.60304, 36.79963], [28.61036, 36.80174], [28.60621, 36.81013], [28.61036, 36.81607], [28.60353, 36.81607], [28.59669, 36.795], [28.57586, 36.81952], [28.54615, 36.82343], [28.52442, 36.8133], [28.52783, 36.78879], [28.51775, 36.79564], [28.48685, 36.80175], [28.5005, 36.80858], [28.5005, 36.81607], [28.46389, 36.81876], [28.45608, 36.82852], [28.45266, 36.84955], [28.46632, 36.85334], [28.452, 36.88361], [28.44744, 36.88304], [28.4362, 36.86474], [28.37672, 36.85444], [28.39064, 36.83592], [28.41472, 36.83709], [28.4248, 36.82909], [28.396, 36.78951], [28.37697, 36.78878], [28.31495, 36.81607], [28.30877, 36.81607], [28.31493, 36.795], [28.27818, 36.79646], [28.27395, 36.80516], [28.27834, 36.81415], [28.31495, 36.82225], [28.31495, 36.82909], [28.27312, 36.852], [28.25717, 36.84618], [28.24318, 36.82978], [28.23666, 36.81322], [28.23951, 36.79881], [28.25341, 36.78876], [28.24887, 36.76683], [28.28857, 36.74257], [28.29508, 36.7199], [28.26726, 36.7309], [28.2531, 36.72785], [28.24658, 36.7124], [28.23357, 36.71988], [28.22543, 36.7062], [28.23356, 36.69937], [28.1819, 36.68464], [28.16228, 36.67268], [28.1115, 36.60419], [28.08814, 36.58907], [28.0617, 36.59634], [28.05502, 36.58658], [28.04184, 36.58271], [28.04801, 36.56904], [28.0359, 36.56477], [28.01832, 36.56704], [28.01384, 36.57587], [28.00366, 36.56193], [27.9909, 36.55977], [27.97797, 36.56563], [27.96609, 36.57587], [27.97291, 36.5895], [27.95926, 36.60252], [28.03443, 36.60252], [28.05397, 36.6096], [28.08961, 36.64411], [28.07594, 36.65778], [28.04804, 36.63791], [28.06121, 36.66474], [28.05795, 36.67666], [28.03793, 36.69062], [28.02963, 36.67037], [28.00017, 36.6789], [27.98016, 36.67586], [27.97023, 36.67984], [27.96609, 36.68878], [28.00701, 36.69937], [28.00019, 36.70619], [28.02752, 36.7062], [28.04185, 36.71987], [28.07976, 36.72207], [28.08959, 36.7267], [28.08595, 36.7106], [28.1006, 36.70962], [28.11638, 36.71882], [28.11687, 36.73355], [28.10743, 36.7392], [28.08768, 36.74087], [28.08222, 36.74714], [28.08417, 36.75372], [28.11004, 36.77508], [28.13054, 36.75397], [28.11842, 36.8006], [28.09498, 36.80142], [28.06909, 36.7751], [28.04721, 36.76334], [28.03932, 36.76448], [28.03443, 36.77509], [28.0197, 36.76314], [27.96607, 36.74715], [27.95925, 36.74715], [27.95411, 36.75959], [27.91766, 36.7404], [27.91245, 36.75414], [27.89031, 36.7404], [27.87037, 36.75259], [27.86304, 36.74039], [27.85649, 36.74038], [27.82618, 36.75747], [27.80649, 36.76081], [27.78785, 36.75399], [27.78785, 36.76081], [27.77605, 36.75594], [27.7361, 36.76081], [27.71941, 36.75625], [27.69848, 36.73421], [27.68426, 36.72671], [27.68685, 36.71113], [27.67311, 36.67963], [27.67114, 36.6578], [27.61988, 36.67646], [27.60304, 36.6789], [27.55975, 36.67464], [27.55454, 36.68513], [27.48634, 36.66523], [27.47267, 36.65096], [27.44842, 36.66523], [27.41578, 36.66901], [27.40432, 36.66524], [27.40203, 36.67748], [27.39405, 36.68415], [27.38299, 36.68476], [27.3703, 36.67892], [27.36915, 36.68447], [27.36283, 36.68513], [27.36866, 36.69741], [27.35582, 36.70621], [27.35582, 36.71237], [27.38478, 36.70502], [27.41432, 36.7093], [27.42311, 36.71967], [27.42727, 36.73566], [27.44985, 36.75403], [27.48317, 36.75397], [27.55665, 36.76267], [27.59246, 36.76081], [27.6115, 36.76533], [27.62339, 36.80174], [27.64535, 36.80645], [27.69117, 36.78433], [27.70541, 36.78875], [27.7212, 36.78168], [27.74822, 36.7844], [27.76002, 36.78132], [27.79909, 36.80662], [27.88649, 36.80882], [27.89714, 36.81231], [27.90366, 36.80581], [27.93995, 36.79564], [27.99443, 36.79834], [28.0105, 36.79433], [28.02752, 36.78132], [28.03077, 36.79173], [28.05543, 36.80858], [28.04908, 36.82062], [28.03956, 36.82665], [28.00703, 36.8291], [28.01386, 36.83592], [28.02329, 36.83324], [28.02459, 36.8391], [28.00704, 36.85699], [28.02125, 36.86321], [28.02866, 36.86018], [28.05543, 36.87067], [28.05543, 36.8769], [28.02127, 36.91159], [28.03443, 36.9042], [28.04184, 36.91161], [28.02754, 36.92592], [28.0617, 36.92593], [28.0617, 36.93212], [28.04184, 36.93212], [28.04185, 36.9389], [28.06567, 36.93923], [28.08221, 36.93212], [28.09352, 36.93788], [28.10328, 36.93212], [28.12013, 36.93768], [28.14194, 36.9287], [28.15724, 36.93212], [28.16529, 36.91161], [28.16814, 36.93342], [28.15724, 36.93891], [28.15725, 36.94578], [28.17449, 36.94598], [28.18523, 36.93891], [28.21241, 36.97309], [28.21241, 36.98054], [28.19892, 36.98054], [28.21242, 37.00042], [28.22853, 36.99055], [28.24464, 36.98819], [28.2531, 36.99372], [28.24661, 37.00787], [28.3296, 37.03046], [28.32936, 37.03677], [28.31495, 37.04881], [28.3047, 37.05085], [28.17433, 37.03515], [28.12623, 37.03588], [28.10727, 37.03213], [28.11002, 37.01412], [28.09295, 37.02143], [27.98658, 37.03514], [27.95183, 37.02148], [27.91139, 37.02774], [27.88624, 37.02619], [27.8047, 37.0046], [27.78785, 37.00788], [27.78044, 36.99361], [27.76287, 36.9973], [27.73952, 36.99361], [27.71974, 37.00519], [27.68767, 37.00544], [27.65577, 36.99653], [27.63648, 36.98055], [27.59034, 36.99828], [27.56715, 36.99665], [27.56201, 36.97311], [27.52833, 36.99128], [27.47267, 36.9936], [27.43849, 37.02774], [27.42351, 37.02717], [27.40805, 37.01684], [27.40431, 37.02774], [27.39682, 37.02774], [27.38331, 36.99362], [27.37893, 37.00072], [27.38331, 37.00788], [27.37649, 37.01412], [27.38168, 37.01895], [27.37648, 37.02774], [27.32862, 37.01411], [27.33268, 36.99706], [27.3265, 36.986], [27.30063, 36.97309], [27.30809, 36.95943], [27.28696, 36.95943], [27.28094, 36.96686], [27.2632, 36.96338], [27.25271, 36.97834], [27.2461, 37.01777], [27.22878, 37.06183], [27.23912, 37.08294], [27.26417, 37.08902], [27.29444, 37.1103], [27.27906, 37.11758], [27.26043, 37.11031], [27.25296, 37.12395], [27.26043, 37.11774], [27.27166, 37.12884], [27.30299, 37.11957], [27.32179, 37.12397], [27.3218, 37.15866], [27.3396, 37.15053], [27.3423, 37.13011], [27.34897, 37.13011], [27.36159, 37.14862], [27.36931, 37.15069], [27.37648, 37.14444], [27.3833, 37.15182], [27.38657, 37.13007], [27.4043, 37.1301], [27.42547, 37.11962], [27.43846, 37.12395], [27.431, 37.11774], [27.44557, 37.09699], [27.45981, 37.0895], [27.47511, 37.09252], [27.54152, 37.12595], [27.56512, 37.12564], [27.57553, 37.13011], [27.57553, 37.1376], [27.55454, 37.13011], [27.54721, 37.16181], [27.53956, 37.17829], [27.52786, 37.18538], [27.52786, 37.19281], [27.57472, 37.20115], [27.58766, 37.1988], [27.57553, 37.17853], [27.59474, 37.18594], [27.60987, 37.19965], [27.59425, 37.20429], [27.58857, 37.2111], [27.58936, 37.2305], [27.60987, 37.24746], [27.61598, 37.27473], [27.59441, 37.28384], [27.58936, 37.27474], [27.55323, 37.27293], [27.54306, 37.24965], [27.53052, 37.23632], [27.51466, 37.22933], [27.50004, 37.23384], [27.51775, 37.246], [27.51987, 37.2591], [27.5088, 37.26805], [27.48634, 37.26789], [27.46364, 37.25204], [27.45885, 37.258], [27.46145, 37.26752], [27.48634, 37.29523], [27.49138, 37.32734], [27.48015, 37.34369], [27.47267, 37.34369], [27.46852, 37.31563], [27.44613, 37.30562], [27.41831, 37.30949], [27.39683, 37.32315], [27.3887, 37.34528], [27.39675, 37.36562], [27.41522, 37.38165], [27.43849, 37.39081], [27.42652, 37.40595], [27.40724, 37.41275], [27.38657, 37.41205], [27.37029, 37.4051], [27.35644, 37.37914], [27.3462, 37.3706], [27.32179, 37.37092], [27.32179, 37.36351], [27.33642, 37.3557], [27.33033, 37.35164], [27.2715, 37.34858], [27.24611, 37.33618], [27.2317, 37.34809], [27.21877, 37.34371], [27.21193, 37.35733], [27.20135, 37.35229], [27.19079, 37.35733], [27.20753, 37.37641], [27.2051, 37.39826], [27.22625, 37.4051], [27.21748, 37.4313], [27.2225, 37.47675], [27.20509, 37.47274], [27.19264, 37.47866], [27.17777, 37.46657], [27.19044, 37.51268], [27.1846, 37.52802], [27.18824, 37.53449], [27.18044, 37.54458], [27.18458, 37.55589], [27.20037, 37.54755], [27.20932, 37.5633], [27.20851, 37.59687], [27.13624, 37.63105], [27.04885, 37.65015], [27.0115, 37.66572], [27.02102, 37.68632], [27.03834, 37.69012], [27.12721, 37.68854], [27.21315, 37.71345], [27.24952, 37.74433], [27.2566, 37.75951], [27.26157, 37.80353], [27.26043, 37.81598], [27.23717, 37.84545], [27.23908, 37.8642], [27.26043, 37.88422], [27.26539, 37.90168], [27.26044, 37.91901], [27.27475, 37.92902], [27.26629, 37.95136], [27.23911, 37.98794], [27.21372, 37.98094], [27.14084, 37.98612], [27.11639, 37.99409], [27.1019, 38.01268], [27.07017, 38.02001], [27.06471, 38.04059], [27.05592, 38.04572], [27.02703, 38.0494], [26.97543, 38.06525], [26.94923, 38.06737], [26.8934, 38.05622], [26.88151, 38.03841], [26.87306, 38.03511], [26.86493, 38.04036], [26.84207, 38.07608], [26.84645, 38.10342], [26.83522, 38.13129], [26.79363, 38.17227], [26.77606, 38.16524], [26.77151, 38.17748], [26.77369, 38.20702], [26.76026, 38.21674], [26.70826, 38.20703], [26.63592, 38.2036], [26.62288, 38.13875], [26.60922, 38.14496], [26.61214, 38.11787], [26.6071, 38.10831], [26.59498, 38.10396], [26.56764, 38.14496], [26.56715, 38.12398], [26.5569, 38.12231], [26.52378, 38.14741], [26.51551, 38.16552], [26.5193, 38.17967], [26.49171, 38.17403], [26.44223, 38.21198], [26.41749, 38.22065], [26.42415, 38.20019], [26.4175, 38.20019], [26.39016, 38.22383], [26.39487, 38.25165], [26.39015, 38.26166], [26.38331, 38.26166], [26.37501, 38.23481], [26.35401, 38.22827], [26.32863, 38.23506], [26.28663, 38.26105], [26.23464, 38.27384], [26.23879, 38.29579], [26.26539, 38.28669], [26.28591, 38.31866], [26.30763, 38.32307], [26.30763, 38.33051], [26.28892, 38.34065], [26.28616, 38.35895], [26.29412, 38.36984], [26.30763, 38.35786], [26.31175, 38.37111], [26.32113, 38.37765], [26.32592, 38.35493], [26.3143, 38.33674], [26.34636, 38.3288], [26.35613, 38.31688], [26.38502, 38.31843], [26.39186, 38.32502], [26.38332, 38.34355], [26.39894, 38.33552], [26.41749, 38.33674], [26.47592, 38.36689], [26.47706, 38.38687], [26.46803, 38.40762], [26.45152, 38.41869], [26.45152, 38.42608], [26.47689, 38.41668], [26.48911, 38.40619], [26.49789, 38.40729], [26.51303, 38.43293], [26.44077, 38.4728], [26.42205, 38.46971], [26.41423, 38.45629], [26.40723, 38.45345], [26.38788, 38.45426], [26.40382, 38.48754], [26.39991, 38.49958], [26.36974, 38.53524], [26.37582, 38.52855], [26.3592, 38.57674], [26.349, 38.63569], [26.3563, 38.66168], [26.41378, 38.67933], [26.46558, 38.67266], [26.50532, 38.65285], [26.55569, 38.60558], [26.5608, 38.59003], [26.584, 38.56094], [26.63037, 38.51923], [26.64331, 38.46772], [26.62916, 38.46089], [26.61085, 38.46841], [26.58815, 38.46088], [26.60523, 38.45358], [26.60498, 38.44477], [26.58815, 38.41869], [26.61182, 38.41624], [26.62207, 38.40533], [26.65707, 38.3288], [26.67311, 38.3072], [26.69459, 38.31318], [26.69996, 38.32575], [26.67751, 38.34358], [26.67068, 38.38516], [26.68714, 38.41956], [26.70241, 38.43015], [26.71909, 38.42609], [26.71909, 38.43291], [26.72535, 38.43292], [26.74807, 38.40492], [26.76686, 38.36408], [26.78736, 38.37151], [26.7951, 38.35863], [26.84547, 38.37152], [26.92457, 38.37767], [26.98976, 38.39887], [27.01336, 38.41249], [27.04249, 38.40762], [27.06121, 38.41249], [27.08863, 38.40225], [27.11183, 38.41401], [27.13544, 38.43365], [27.16424, 38.4466], [27.16424, 38.45344], [27.15447, 38.45942], [27.14309, 38.45345], [27.13624, 38.46088], [27.11695, 38.45394], [27.08334, 38.45673], [27.07472, 38.45345], [27.04908, 38.4632], [27.02231, 38.46247], [26.93542, 38.43489], [26.94508, 38.4466], [26.92792, 38.45605], [26.89763, 38.4947], [26.84906, 38.51254], [26.82693, 38.5262], [26.81476, 38.54274], [26.8742, 38.50747], [26.88982, 38.50804], [26.88982, 38.51488], [26.87778, 38.52635], [26.83523, 38.54901], [26.84889, 38.5974], [26.83424, 38.60822], [26.81373, 38.59765], [26.79365, 38.59741], [26.80104, 38.61172], [26.77931, 38.61774], [26.7532, 38.61792], [26.75945, 38.63841], [26.74643, 38.63867], [26.71911, 38.65266], [26.73366, 38.66363], [26.75318, 38.66633], [26.73306, 38.68983], [26.7191, 38.72093], [26.73756, 38.73077], [26.78891, 38.73941], [26.81821, 38.75543], [26.83058, 38.74726], [26.85157, 38.74566], [26.88852, 38.73404], [26.90349, 38.73457], [26.89724, 38.74827], [26.92303, 38.76214], [26.93141, 38.75507], [26.93507, 38.77045], [26.93141, 38.78925], [26.92458, 38.78173], [26.89725, 38.81655], [26.93766, 38.83021], [26.94386, 38.80874], [26.96078, 38.80614], [26.97145, 38.81916], [26.95877, 38.84446], [26.9909, 38.85505], [27.01336, 38.87115], [27.03354, 38.8605], [27.05502, 38.87108], [27.06267, 38.88687], [27.04129, 38.89168], [27.05787, 38.91852], [27.05779, 38.92976], [27.04127, 38.94009], [27.01286, 38.92207], [26.98288, 38.91963], [26.96241, 38.94009], [26.93426, 38.9309], [26.92457, 38.94009], [26.86622, 38.91341], [26.85565, 38.91756], [26.8401, 38.93586], [26.8065, 38.95015], [26.79722, 38.97313], [26.79915, 38.99815], [26.81471, 39.01512], [26.81471, 39.02196], [26.79366, 39.02197], [26.82881, 39.04717], [26.87306, 39.06293], [26.88315, 39.0716], [26.87525, 39.09089], [26.82374, 39.14908], [26.77097, 39.1732], [26.73782, 39.19721], [26.73902, 39.20759], [26.71876, 39.26288], [26.70143, 39.26899], [26.62908, 39.26839], [26.60924, 39.27522], [26.61931, 39.28315], [26.63259, 39.31341], [26.64552, 39.31756], [26.65478, 39.31321], [26.65382, 39.30646], [26.63592, 39.30317], [26.63592, 39.29694], [26.65602, 39.29426], [26.67066, 39.28266], [26.66481, 39.29808], [26.67026, 39.30598], [26.69117, 39.31623], [26.70901, 39.33705], [26.81471, 39.39936], [26.80105, 39.4062], [26.80105, 39.43353], [26.85084, 39.43976], [26.86305, 39.44717], [26.85208, 39.46182], [26.86773, 39.47138], [26.92986, 39.48774], [26.94508, 39.53962], [26.93767, 39.57477], [26.92221, 39.58218], [26.8934, 39.58438], [26.83286, 39.55684], [26.80787, 39.5707], [26.4568, 39.52119], [26.36215, 39.48136], [26.3108, 39.48685], [26.37504, 39.50461], [26.40484, 39.59572], [26.44834, 39.66459], [26.44497, 39.74905], [26.45839, 39.81259], [26.45359, 39.81845], [26.37032, 39.85845], [26.30421, 39.90673], [26.25107, 39.96429], [26.2275, 40.00105], [26.25115, 39.99486], [26.3003, 40.01439], [26.3532, 40.05215], [26.365, 40.07176], [26.36941, 40.10293], [26.38901, 40.10517], [26.39959, 40.12084], [26.403, 40.1579], [26.39635, 40.17276], [26.40798, 40.19366], [26.44142, 40.1966], [26.50074, 40.21296], [26.51938, 40.22516], [26.56366, 40.27016], [26.60614, 40.28976], [26.71442, 40.39043], [26.73561, 40.40354], [26.77713, 40.40548], [26.86305, 40.39989], [26.89723, 40.40614], [26.93442, 40.39248], [26.99147, 40.38862], [27.01336, 40.39248]], [[26.99709, 39.93679], [27.0918, 39.91838], [27.15681, 39.95035], [27.17634, 39.97061], [27.17956, 39.99065], [27.16927, 40.00501], [27.14922, 40.01465], [27.12124, 40.01828], [27.0917, 40.01496], [27.04808, 39.99746], [26.98957, 39.94734], [26.99709, 39.93679]]]]}}]}