{"type": "FeatureCollection", "features": [{"type": "Feature", "properties": {"map_title": "참전국의 사상자 수", "source": "미래엔 세계사 교과서 4권 183쪽", "volume": 4, "page": 183, "legend": "연합국", "name": "벨기에", "name_en": "Belgium", "period": "1914–1918", "kind": "국가", "alliance": "연합국", "soldiers": 380000, "casualties": 40000, "coast_snap": "Natural Earth 10m 해안선에 맞춤", "border_snap": "현대 국경(Natural Earth 10m)에 맞춘 구간 약 246 km"}, "geometry": {"type": "MultiPolygon", "coordinates": [[[[3.88559, 51.66836], [3.83059, 51.68587], [3.80926, 51.69953], [3.79591, 51.70014], [3.76538, 51.67842], [3.72055, 51.67683], [3.70005, 51.68062], [3.68671, 51.6927], [3.68948, 51.72504], [3.72585, 51.73972], [3.81422, 51.74822], [3.84376, 51.74282], [3.96175, 51.73809], [4.03663, 51.68586], [4.07837, 51.67861], [4.09734, 51.67023], [4.09938, 51.65412], [4.07259, 51.63692], [3.97804, 51.62328], [3.9234, 51.6324], [3.90156, 51.642], [3.88559, 51.66836]]], [[[3.60467, 51.39106], [3.70215, 51.37359], [3.73422, 51.35578], [3.75554, 51.35008], [3.79591, 51.35007], [3.83399, 51.34325], [3.85816, 51.34544], [3.95582, 51.37177], [3.96925, 51.38166], [3.97464, 51.40159], [3.98415, 51.41046], [4.0057, 51.4098], [4.04345, 51.3985], [4.07016, 51.37055], [4.10547, 51.36611], [4.12192, 51.35936], [4.1565, 51.35757], [4.18003, 51.37742], [4.19955, 51.37603], [4.22217, 51.36773], [4.24106, 51.35659], [4.25611, 51.32844], [4.30299, 51.29609], [4.30812, 51.28364], [4.29672, 51.26756], [4.31642, 51.27684], [4.33082, 51.29609], [4.28932, 51.30915], [4.28305, 51.35008], [4.25696, 51.37269], [4.24899, 51.38442], [4.24488, 51.4145], [4.23471, 51.41901], [4.22298, 51.4095], [4.20102, 51.40535], [4.1111, 51.40698], [4.07017, 51.41902], [4.01515, 51.44892], [3.95704, 51.4558], [3.94313, 51.45038], [3.9021, 51.40494], [3.82716, 51.39107], [3.78907, 51.41218], [3.72878, 51.43082], [3.68971, 51.45429], [3.674, 51.45539], [3.63258, 51.44572], [3.61004, 51.44506], [3.53542, 51.45922], [3.4948, 51.50092], [3.46174, 51.51917], [3.45104, 51.52974], [3.44705, 51.54596], [3.45754, 51.55507], [3.5604, 51.59462], [3.82857, 51.61272], [3.85074, 51.61082], [3.88216, 51.59609], [3.90575, 51.56925], [3.87159, 51.55557], [3.87159, 51.54938], [3.96729, 51.54311], [4.01587, 51.53082], [4.05713, 51.50836], [4.09002, 51.45824], [4.10483, 51.4457], [4.12875, 51.44135], [4.18083, 51.44586], [4.20045, 51.43952], [4.28321, 51.4477], [4.29672, 51.47053], [4.28859, 51.49213], [4.26775, 51.50829], [4.23976, 51.5185], [4.19468, 51.5236], [4.15333, 51.53506], [4.09132, 51.53507], [4.06695, 51.54418], [3.98816, 51.59027], [4.06811, 51.61065], [4.15724, 51.6079], [4.18336, 51.60293], [4.20729, 51.59028], [4.20265, 51.60912], [4.18995, 51.61668], [4.136, 51.62043], [4.11802, 51.63069], [4.11295, 51.63946], [4.11264, 51.6708], [4.14256, 51.68406], [4.17693, 51.68586], [4.14112, 51.70393], [4.07155, 51.7172], [4.05716, 51.7303], [4.05079, 51.7635], [4.03395, 51.78425], [3.98146, 51.81], [3.96228, 51.80116], [3.87194, 51.78827], [3.86233, 51.81606], [3.89138, 51.82826], [3.95411, 51.84016], [3.96267, 51.84735], [4.01531, 51.84362], [4.04762, 51.83369], [4.07765, 51.84357], [4.03199, 51.88224], [4.03201, 51.89606], [4.04347, 51.90868], [4.01004, 51.98013], [4.01543, 51.98742], [4.02248, 51.99436], [4.06902, 51.98794], [4.10768, 51.99189], [4.14186, 52.0056], [4.28468, 52.11294], [4.40691, 52.22346], [4.50815, 52.33637], [4.56861, 52.44526], [4.57734, 52.48094], [4.59693, 52.50658], [4.6394, 52.70085], [4.66946, 52.79657], [4.71168, 52.8631], [4.73391, 52.95889], [4.74546, 52.96759], [4.80698, 52.96182], [4.8169, 52.96758], [4.82437, 52.96015], [4.80942, 52.92959], [4.83277, 52.91132], [4.87379, 52.90396], [4.9131, 52.90558], [4.97829, 52.93569], [5.03891, 52.94351], [5.07814, 52.95401], [5.15438, 52.99535], [5.25722, 52.93915], [5.32527, 52.88061], [5.41167, 52.75354], [5.43836, 52.66918], [5.37243, 52.64198], [5.21595, 52.59637], [5.20306, 52.54583], [5.21837, 52.54078], [5.3089, 52.55378], [5.39718, 52.48677], [5.45105, 52.47661], [5.58369, 52.43399], [5.60604, 52.40766], [5.62442, 52.34648], [5.71596, 52.28344], [5.7435, 52.19143], [5.74571, 52.10488], [5.83732, 52.06134], [6.09299, 51.88531], [6.14271, 51.85518], [6.15614, 51.84206], [6.084, 51.85366], [6.04328, 51.84686], [6.00824, 51.83257], [5.94809, 51.82296], [5.93145, 51.81565], [5.92804, 51.80674], [5.95078, 51.79591], [5.96411, 51.77656], [5.96235, 51.75635], [5.94013, 51.74263], [5.93931, 51.73188], [5.97827, 51.72979], [6.02199, 51.70951], [6.00855, 51.68119], [6.01782, 51.67384], [5.73352, 51.52984], [5.70508, 51.5066], [5.68317, 51.47932], [5.49323, 51.28654], [5.5167, 51.27723], [5.5352, 51.26204], [5.54233, 51.24266], [5.54553, 51.21992], [5.56837, 51.20765], [5.62501, 51.1969], [5.65901, 51.17907], [5.73084, 51.18375], [5.74717, 51.1776], [5.76805, 51.15946], [5.78138, 51.15241], [5.81208, 51.15732], [5.82913, 51.15646], [5.8405, 51.13892], [5.82645, 51.13016], [5.82324, 51.11874], [5.84598, 51.10339], [5.82665, 51.09691], [5.80495, 51.09662], [5.81177, 51.08231], [5.79885, 51.06148], [5.7913, 51.055], [5.77963, 51.0613], [5.77146, 51.05813], [5.76402, 51.03518], [5.77756, 51.02355], [5.76175, 50.99916], [5.72237, 50.95942], [5.74469, 50.96325], [5.76402, 50.95942], [5.72237, 50.91167], [5.69446, 50.90366], [5.62232, 50.85266], [5.22327, 50.98339], [5.08897, 51.03483], [5.04224, 51.07175], [4.98587, 51.13913], [4.96193, 51.1589], [4.92946, 51.17587], [4.88654, 51.18673], [4.87381, 51.182], [4.80688, 51.09177], [4.74039, 51.03563], [4.65401, 50.98494], [4.56368, 50.9496], [4.52176, 50.93759], [4.34786, 50.94592], [4.24187, 50.96346], [4.19039, 50.97722], [4.12007, 51.00414], [3.94945, 51.21078], [3.92703, 51.20625], [3.80869, 51.20532], [3.79628, 51.20876], [3.7814, 51.21987], [3.7814, 51.24142], [3.77623, 51.25452], [3.75732, 51.26232], [3.63505, 51.28783], [3.60953, 51.29044], [3.51434, 51.28103], [3.50338, 51.27395], [3.50152, 51.2624], [3.50411, 51.24974], [3.50121, 51.24028], [3.45388, 51.23563], [3.42194, 51.23798], [3.39166, 51.24677], [3.36737, 51.26349], [3.35321, 51.2886], [3.35393, 51.31191], [3.22122, 51.33266], [3.20864, 51.34671], [3.54135, 51.41672], [3.60467, 51.39106]]], [[[1.77115, 52.48591], [1.75441, 52.46735], [1.71684, 52.37847], [1.71356, 52.47015], [1.74361, 52.63332], [1.74757, 52.53278], [1.77115, 52.48591]]], [[[4.86523, 53.05021], [4.81813, 53.02676], [4.79565, 53.00032], [4.76197, 52.99434], [4.72667, 53.00327], [4.70771, 53.02847], [4.71381, 53.05436], [4.7269, 53.05918], [4.78574, 53.06239], [4.87575, 53.06], [4.86523, 53.05021]]]]}}]}