{"type": "FeatureCollection", "features": [{"type": "Feature", "properties": {"map_title": "참전국의 사상자 수", "source": "미래엔 세계사 교과서 4권 183쪽", "volume": 4, "page": 183, "legend": "병사 수/사상자 수(추정 수치)", "name": "벨기에", "name_en": "Belgium", "category": "기타", "year": "1914–1918", "coord_source": "지도 판독", "map_lon": 2.48229, "map_lat": 52.59156, "soldiers": 380000, "casualties": 40000, "note": "나라 이름 글자 위치에 표시한 통계"}, "geometry": {"type": "Point", "coordinates": [2.48229, 52.59156]}}, {"type": "Feature", "properties": {"map_title": "참전국의 사상자 수", "source": "미래엔 세계사 교과서 4권 183쪽", "volume": 4, "page": 183, "legend": "병사 수/사상자 수(추정 수치)", "name": "영국", "name_en": "United Kingdom", "category": "기타", "year": "1914–1918", "coord_source": "지도 판독", "map_lon": -2.19925, "map_lat": 54.30341, "soldiers": 9500000, "casualties": 1000000, "note": "나라 이름 글자 위치에 표시한 통계"}, "geometry": {"type": "Point", "coordinates": [-2.19925, 54.30341]}}, {"type": "Feature", "properties": {"map_title": "참전국의 사상자 수", "source": "미래엔 세계사 교과서 4권 183쪽", "volume": 4, "page": 183, "legend": "병사 수/사상자 수(추정 수치)", "name": "프랑스", "name_en": "France", "category": "기타", "year": "1914–1918", "coord_source": "지도 판독", "map_lon": 0.56186, "map_lat": 48.84602, "soldiers": 8200000, "casualties": 1500000, "note": "나라 이름 글자 위치에 표시한 통계"}, "geometry": {"type": "Point", "coordinates": [0.56186, 48.84602]}}, {"type": "Feature", "properties": {"map_title": "참전국의 사상자 수", "source": "미래엔 세계사 교과서 4권 183쪽", "volume": 4, "page": 183, "legend": "병사 수/사상자 수(추정 수치)", "name": "독일", "name_en": "Germany", "category": "기타", "year": "1914–1918", "coord_source": "지도 판독", "map_lon": 13.42997, "map_lat": 53.87562, "soldiers": 13250000, "casualties": 1950000, "note": "나라 이름 글자 위치에 표시한 통계"}, "geometry": {"type": "Point", "coordinates": [13.42997, 53.87562]}}, {"type": "Feature", "properties": {"map_title": "참전국의 사상자 수", "source": "미래엔 세계사 교과서 4권 183쪽", "volume": 4, "page": 183, "legend": "병사 수/사상자 수(추정 수치)", "name": "오스트리아·헝가리 제국", "name_en": "Austria-Hungary", "category": "기타", "year": "1914–1918", "coord_source": "지도 판독", "map_lon": 19.44824, "map_lat": 48.80478, "soldiers": 9000000, "casualties": 1050000, "note": "나라 이름 글자 위치에 표시한 통계"}, "geometry": {"type": "Point", "coordinates": [19.44824, 48.80478]}}, {"type": "Feature", "properties": {"map_title": "참전국의 사상자 수", "source": "미래엔 세계사 교과서 4권 183쪽", "volume": 4, "page": 183, "legend": "병사 수/사상자 수(추정 수치)", "name": "러시아", "name_en": "Russia", "category": "기타", "year": "1914–1918", "coord_source": "지도 판독", "map_lon": 33.99338, "map_lat": 50.09563, "soldiers": 13000000, "casualties": 1700000, "note": "나라 이름 글자 위치에 표시한 통계"}, "geometry": {"type": "Point", "coordinates": [33.99338, 50.09563]}}, {"type": "Feature", "properties": {"map_title": "참전국의 사상자 수", "source": "미래엔 세계사 교과서 4권 183쪽", "volume": 4, "page": 183, "legend": "병사 수/사상자 수(추정 수치)", "name": "세르비아", "name_en": "Serbia", "category": "기타", "year": "1914–1918", "coord_source": "지도 판독", "map_lon": 20.53981, "map_lat": 44.07081, "soldiers": 1000000, "casualties": 320000, "note": "나라 이름 글자 위치에 표시한 통계"}, "geometry": {"type": "Point", "coordinates": [20.53981, 44.07081]}}, {"type": "Feature", "properties": {"map_title": "참전국의 사상자 수", "source": "미래엔 세계사 교과서 4권 183쪽", "volume": 4, "page": 183, "legend": "병사 수/사상자 수(추정 수치)", "name": "이탈리아", "name_en": "Italy", "category": "기타", "year": "1914–1918", "coord_source": "지도 판독", "map_lon": 11.3386, "map_lat": 46.09994, "soldiers": 560000, "casualties": 530000, "note": "나라 이름 글자 위치에 표시한 통계"}, "geometry": {"type": "Point", "coordinates": [11.3386, 46.09994]}}, {"type": "Feature", "properties": {"map_title": "참전국의 사상자 수", "source": "미래엔 세계사 교과서 4권 183쪽", "volume": 4, "page": 183, "legend": "병사 수/사상자 수(추정 수치)", "name": "포르투갈", "name_en": "Portugal", "category": "기타", "year": "1914–1918", "coord_source": "지도 판독", "map_lon": -6.60906, "map_lat": 39.36455, "soldiers": 100000, "casualties": 7200, "note": "나라 이름 글자 위치에 표시한 통계"}, "geometry": {"type": "Point", "coordinates": [-6.60906, 39.36455]}}, {"type": "Feature", "properties": {"map_title": "참전국의 사상자 수", "source": "미래엔 세계사 교과서 4권 183쪽", "volume": 4, "page": 183, "legend": "병사 수/사상자 수(추정 수치)", "name": "그리스", "name_en": "Greece", "category": "기타", "year": "1914–1918", "coord_source": "지도 판독", "map_lon": 22.68399, "map_lat": 39.95285, "soldiers": 200000, "casualties": 5000, "note": "나라 이름 글자 위치에 표시한 통계"}, "geometry": {"type": "Point", "coordinates": [22.68399, 39.95285]}}, {"type": "Feature", "properties": {"map_title": "참전국의 사상자 수", "source": "미래엔 세계사 교과서 4권 183쪽", "volume": 4, "page": 183, "legend": "병사 수/사상자 수(추정 수치)", "name": "루마니아", "name_en": "Romania", "category": "기타", "year": "1914–1918", "coord_source": "지도 판독", "map_lon": 29.66808, "map_lat": 45.86129, "soldiers": 1000000, "casualties": 150000, "note": "나라 이름 글자 위치에 표시한 통계"}, "geometry": {"type": "Point", "coordinates": [29.66808, 45.86129]}}, {"type": "Feature", "properties": {"map_title": "참전국의 사상자 수", "source": "미래엔 세계사 교과서 4권 183쪽", "volume": 4, "page": 183, "legend": "병사 수/사상자 수(추정 수치)", "name": "불가리아", "name_en": "Bulgaria", "category": "기타", "year": "1914–1918", "coord_source": "지도 판독", "map_lon": 27.32026, "map_lat": 43.52812, "soldiers": 950000, "casualties": 40000, "note": "나라 이름 글자 위치에 표시한 통계"}, "geometry": {"type": "Point", "coordinates": [27.32026, 43.52812]}}, {"type": "Feature", "properties": {"map_title": "참전국의 사상자 수", "source": "미래엔 세계사 교과서 4권 183쪽", "volume": 4, "page": 183, "legend": "병사 수/사상자 수(추정 수치)", "name": "오스만 제국", "name_en": "Ottoman Empire", "category": "기타", "year": "1914–1918", "coord_source": "지도 판독", "map_lon": 32.0248, "map_lat": 38.0805, "soldiers": 2850000, "casualties": 320000, "note": "나라 이름 글자 위치에 표시한 통계"}, "geometry": {"type": "Point", "coordinates": [32.0248, 38.0805]}}, {"type": "Feature", "properties": {"map_title": "참전국의 사상자 수", "source": "미래엔 세계사 교과서 4권 183쪽", "volume": 4, "page": 183, "legend": "병사 수/사상자 수(추정 수치)", "name": "미국", "name_en": "United States", "category": "기타", "year": "1914–1918", "coord_source": "실제 위치", "map_lon": null, "map_lat": null, "soldiers": 3800000, "casualties": 110000, "note": "지도 밖 상자에 표시 — 수도 위치에 둠"}, "geometry": {"type": "Point", "coordinates": [-77.04, 38.9]}}, {"type": "Feature", "properties": {"map_title": "참전국의 사상자 수", "source": "미래엔 세계사 교과서 4권 183쪽", "volume": 4, "page": 183, "legend": "병사 수/사상자 수(추정 수치)", "name": "일본", "name_en": "Japan", "category": "기타", "year": "1914–1918", "coord_source": "실제 위치", "map_lon": null, "map_lat": null, "soldiers": 800000, "casualties": 2000, "note": "지도 밖 상자에 표시 — 수도 위치에 둠"}, "geometry": {"type": "Point", "coordinates": [139.69, 35.69]}}]}