{"type": "FeatureCollection", "features": [{"type": "Feature", "properties": {"name": "미국 세력 범위 경계", "category": "경계선", "period": "1914년경", "legend": "미국령 (굵은 테두리)", "map_title": "제국주의 열강의 아시아·태평양 분할(1914년경)", "source": "미래엔 세계사 교과서 3권 157쪽", "volume": 3, "page": 157}, "geometry": {"type": "LineString", "coordinates": [[203.29362, 4.58166], [206.00876, 8.03556], [206.01977, 9.88059], [206.05595, 14.26868], [206.06426, 16.43146], [206.06082, 17.50244], [206.05412, 18.21186], [206.02456, 19.95942], [206.00549, 21.32708], [203.56289, 23.36015], [203.02068, 23.81764], [201.66233, 24.97355], [201.1188, 25.43015], [200.57483, 25.88056], [199.75735, 26.54497], [199.21126, 26.98132], [198.66444, 27.41309], [198.11707, 27.84081], [197.29544, 28.47568], [195.92606, 29.51837], [194.28542, 30.74809], [191.74869, 30.64734], [185.9635, 30.3991], [183.09829, 30.28194], [180.26127, 30.17772], [177.80403, 30.10029], [176.06276, 30.05382], [174.67727, 30.0222], [173.29756, 29.9956], [171.92263, 29.97401], [170.20894, 29.95398], [168.84049, 29.94343], [167.13106, 29.93695], [165.76302, 29.93705], [163.31285, 28.38319], [160.87787, 26.83343], [158.71549, 25.45134], [157.08824, 24.40542], [155.45132, 23.3455], [154.07678, 22.44759], [152.96863, 21.71768], [152.08914, 21.12258], [154.46529, 20.36912], [156.15931, 19.82535], [158.18433, 19.16541], [159.86105, 18.60987], [161.52326, 18.04974], [163.16591, 17.48504], [164.46213, 17.0297], [165.73912, 16.57072], [166.99392, 16.10755], [167.91894, 15.7571], [168.82943, 15.40387], [169.72531, 15.04787], [170.31475, 14.8091], [171.18837, 14.44915], [173.76373, 13.3656], [174.62307, 13.00798], [175.49242, 12.65492], [176.37715, 12.30791], [176.28233, 8.23681], [176.26966, 7.49592], [176.26249, 6.75683], [176.26369, 6.02077], [176.27674, 5.28916], [176.28891, 4.92551], [176.30544, 4.56355], [176.33716, 4.34151], [176.99241, 4.33142], [178.00514, 4.32482], [179.04737, 4.32584], [180.47371, 4.33522], [188.3559, 4.4255], [197.94999, 4.52103], [203.22961, 4.58777]]}}, {"type": "Feature", "properties": {"name": "독일 세력 범위 경계", "category": "경계선", "period": "1914년경", "legend": "독일령 (굵은 테두리)", "map_title": "제국주의 열강의 아시아·태평양 분할(1914년경)", "source": "미래엔 세계사 교과서 3권 157쪽", "volume": 3, "page": 157}, "geometry": {"type": "MultiLineString", "coordinates": [[[152.08681, 19.83641], [150.58695, 19.89747], [147.96256, 19.98909], [147.21238, 20.01886], [146.47025, 20.07496], [145.34593, 20.16942], [145.38705, 19.46057], [145.4028, 19.1063], [145.41358, 18.75107], [145.41831, 18.39457], [145.41734, 17.032], [145.42019, 16.73427], [145.42978, 16.48556], [145.45081, 16.31536], [145.46708, 16.08029], [145.47696, 15.35571], [145.87895, 15.35163], [146.28165, 15.33209], [147.49304, 15.23699], [147.47964, 13.76479], [147.4791, 12.24555], [146.74347, 12.23196], [146.01026, 12.21237], [144.91625, 12.17362], [144.19061, 12.14136], [143.46719, 12.10326], [142.38474, 12.03618], [140.22434, 11.88301], [137.31717, 10.30564], [136.34926, 9.78541], [135.3824, 9.27069], [134.41685, 8.76303], [133.77397, 8.42919], [132.81091, 7.9361], [132.1696, 7.61276], [132.13455, 4.97189], [132.11376, 3.10687], [132.76043, 2.78528], [133.40209, 2.47128], [134.04365, 2.16693], [134.36652, 2.01944], [134.69187, 1.8756], [135.02017, 1.73549], [135.35144, 1.59878], [136.35664, 1.19883], [137.02604, 0.92588], [137.35783, 0.78322], [137.68704, 0.63505], [138.01356, 0.48069], [138.39922, 0.45696], [139.55872, 0.37259], [139.94899, 0.34844], [140.34203, 0.33016], [140.73789, 0.31889], [141.13629, 0.31458], [141.06508, -1.49832], [141.04552, -2.18771], [141.04037, -2.51341]], [[149.50512, -8.92967], [149.92682, -8.99297], [150.33897, -9.03034], [150.74036, -9.0211], [151.13937, -8.98887], [151.9087, -8.90086], [152.25734, -8.8641], [152.54839, -8.85334], [152.77171, -8.87711], [152.99093, -8.90866], [153.26715, -8.92407], [153.59121, -8.92621], [154.6731, -8.91758], [155.0491, -8.91831], [155.42664, -8.92408], [155.80237, -8.93707], [155.99304, -8.6307], [156.17507, -8.32873], [156.33991, -8.03625], [156.47689, -7.76048], [156.72843, -7.22718], [156.86919, -6.95685], [157.02194, -6.68187], [157.34665, -6.11982], [157.68518, -5.54296], [158.21994, -4.64905], [158.79167, -3.72209], [159.3969, -2.76795], [160.02692, -1.79426], [161.75384, 0.84707], [162.55604, 0.80701], [163.76528, 0.75811], [164.9784, 0.72089], [166.18924, 0.69169], [168.03163, 1.38509], [169.7796, 2.04867], [171.05638, 2.53842], [172.14318, 2.96263], [172.68917, 3.18484], [172.76181, 3.22112], [172.89751, 3.30214], [173.02209, 3.36246], [173.19503, 3.43848], [173.85307, 3.71265], [174.90808, 4.13681], [174.89113, 4.48771], [174.87985, 4.84075], [174.87329, 5.19559], [174.87054, 5.55188], [174.87334, 6.26765], [174.8895, 7.3458], [174.94053, 9.86369], [174.96593, 11.29677], [174.4054, 11.54026], [173.85055, 11.7863], [171.36114, 12.90596], [170.51308, 13.27732], [169.64863, 13.64549], [168.76612, 14.00999], [167.8653, 14.3707], [166.94685, 14.72784], [165.69715, 15.19908], [164.42234, 15.66553], [162.79971, 16.24322], [161.1517, 16.81603], [159.48483, 17.38442], [157.4674, 18.06015], [155.77728, 18.61658], [154.08326, 19.16501], [152.04996, 19.81045]]]}}, {"type": "Feature", "properties": {"name": "뉴헤브리디스 제도 범위 경계", "category": "경계선", "period": "1914년경", "legend": "영국령과 그 영향권 (굵은 테두리)", "map_title": "제국주의 열강의 아시아·태평양 분할(1914년경)", "source": "미래엔 세계사 교과서 3권 157쪽", "volume": 3, "page": 157}, "geometry": {"type": "LineString", "coordinates": [[165.88732, -19.31218], [166.11657, -19.55331], [166.34229, -19.7841], [166.56775, -19.99825], [166.80297, -20.18363], [167.05973, -20.33156], [167.60955, -20.59568], [167.89894, -20.74787], [168.19596, -20.92194], [168.49411, -21.11224], [168.7882, -21.31171], [169.07691, -21.5166], [169.36091, -21.72545], [169.64114, -21.93756], [169.91834, -22.15247], [170.46563, -22.58924], [171.92967, -22.84225], [173.03923, -23.03043], [172.99894, -22.0483], [172.92805, -20.7528], [172.72921, -17.49328], [172.59512, -15.47755], [170.77844, -15.4689], [169.34938, -15.45367], [168.3022, -15.43216], [167.61866, -15.41072], [166.94725, -15.38473], [166.60309, -15.39038], [165.90518, -15.4129], [165.5564, -15.42056], [165.60676, -15.79237], [165.65072, -16.17332], [165.68872, -16.56249], [165.75128, -17.35629], [165.82969, -18.54787], [165.85683, -18.93507], [165.88732, -19.31218]]}}, {"type": "Feature", "properties": {"name": "뉴칼레도니아 제도 범위 경계", "category": "경계선", "period": "1914년경", "legend": "프랑스령 (굵은 테두리)", "map_title": "제국주의 열강의 아시아·태평양 분할(1914년경)", "source": "미래엔 세계사 교과서 3권 157쪽", "volume": 3, "page": 157}, "geometry": {"type": "LineString", "coordinates": [[165.12023, -19.69864], [164.89504, -19.91781], [164.6618, -20.13355], [164.41699, -20.3495], [164.15647, -20.56849], [163.8797, -20.79179], [163.59077, -21.01916], [164.349, -21.66153], [164.83656, -22.066], [165.79674, -22.85326], [166.28018, -23.26241], [166.52338, -23.4742], [167.01096, -23.9112], [167.25464, -24.13528], [167.7408, -24.5918], [168.76799, -23.70494], [169.51453, -23.06628], [168.92832, -22.57306], [168.63208, -22.33011], [168.33267, -22.08985], [167.73112, -21.62288], [167.42206, -21.3964], [167.13549, -21.21284], [166.63939, -20.93929], [166.40117, -20.79132], [166.14442, -20.61628], [165.88614, -20.41293], [165.63111, -20.18805], [165.37675, -19.94835], [165.12023, -19.69864]]}}, {"type": "Feature", "properties": {"name": "사모아 제도 경계", "category": "경계선", "period": "1914년경", "legend": "독일령 (굵은 테두리)", "map_title": "제국주의 열강의 아시아·태평양 분할(1914년경)", "source": "미래엔 세계사 교과서 3권 157쪽", "volume": 3, "page": 157}, "geometry": {"type": "LineString", "coordinates": [[-171.66697, -16.88866], [-171.77954, -15.36392], [-171.87605, -14.21629], [-171.48123, -14.32876], [-171.08688, -14.44575], [-170.69348, -14.55354], [-170.30152, -14.64022], [-169.91071, -14.70961], [-169.52061, -14.76806], [-169.13101, -14.81869], [-168.74177, -14.86322], [-168.35279, -14.90276], [-168.62643, -15.08439], [-168.90044, -15.2611], [-169.17492, -15.43221], [-169.44996, -15.59742], [-169.72562, -15.75721], [-170.83339, -16.3813], [-171.11113, -16.54468], [-171.38902, -16.71371], [-171.66697, -16.88866]]}}, {"type": "Feature", "properties": {"name": "투투일라 제도 경계", "category": "경계선", "period": "1914년경", "legend": "미국령 (굵은 테두리)", "map_title": "제국주의 열강의 아시아·태평양 분할(1914년경)", "source": "미래엔 세계사 교과서 3권 157쪽", "volume": 3, "page": 157}, "geometry": {"type": "LineString", "coordinates": [[-167.0362, -15.67809], [-166.97681, -16.67132], [-166.90903, -17.98198], [-167.65753, -17.94388], [-168.40682, -17.89406], [-169.15713, -17.83225], [-170.28486, -17.72135], [-168.92515, -16.89838], [-168.38374, -16.56468], [-167.84384, -16.21971], [-167.57438, -16.04235], [-167.0362, -15.67809]]}}, {"type": "Feature", "properties": {"name": "영국 세력 범위 경계(길버트·피닉스·크리스마스·쿡 제도)", "category": "경계선", "period": "1914년경", "legend": "영국령과 그 영향권 (굵은 테두리)", "map_title": "제국주의 열강의 아시아·태평양 분할(1914년경)", "source": "미래엔 세계사 교과서 3권 157쪽", "volume": 3, "page": 157}, "geometry": {"type": "MultiLineString", "coordinates": [[[175.82391, 2.97491], [175.72027, 2.9336]], [[175.72027, 2.9336], [174.8987, 2.60288], [174.16873, 2.30165], [173.58618, 2.04925], [173.17377, 1.85639], [172.88668, 1.72772], [172.50113, 1.56682], [172.01861, 1.37237], [171.167, 1.03612], [169.87788, 0.53435], [166.26729, -0.85347], [165.15689, -0.83384], [164.04424, -0.80771], [163.3045, -0.78434], [162.56785, -0.75493], [161.45155, -2.42472], [160.79645, -3.41957], [160.37273, -4.0771], [160.16615, -4.40359], [159.76604, -5.05089], [159.38679, -5.68879], [159.20631, -6.0033], [159.03259, -6.31421], [158.86605, -6.62085], [158.55526, -7.2179], [158.13525, -8.05719], [157.99976, -8.31994], [157.86158, -8.57678], [157.71778, -8.83161], [157.56616, -9.08853], [157.406, -9.3504], [156.71212, -10.45395], [156.35991, -10.42553], [155.99985, -10.40251], [155.63368, -10.38501], [155.26378, -10.37257], [154.89299, -10.36424], [153.47258, -10.34409], [152.53757, -10.31689], [152.22052, -10.31574], [151.88051, -10.32402], [151.12604, -10.35857]], [[224.18631, -26.76225], [218.86602, -26.95097], [216.38349, -27.0335], [214.25597, -27.10003], [212.12893, -27.16157], [210.35684, -27.20815], [208.58521, -27.24959], [207.16825, -27.27842], [205.99029, -26.51843], [204.81077, -25.75202], [202.74197, -24.39339], [202.70191, -23.10938], [202.65581, -21.81441], [202.61717, -20.8356], [202.56015, -19.51967], [202.51325, -18.52399], [202.44533, -17.18388], [202.37155, -15.82856], [202.29243, -14.45748], [203.37104, -14.41916], [204.80932, -14.36209], [207.326, -14.24906], [208.63872, -12.59278], [210.17704, -10.63518], [211.7229, -8.65555], [213.72019, -6.08635], [212.26056, -3.55688], [210.98097, -1.32423], [209.70224, 0.92232], [208.42785, 3.17807], [204.72503, 3.11883], [201.73054, 3.07696], [198.70595, 3.04257], [196.03671, 3.01947], [187.20336, 2.9671], [180.83896, 2.91211], [179.40645, 2.90281], [178.3585, 2.90054], [177.33867, 2.90465], [176.3535, 2.91791], [175.72027, 2.9336]], [[175.72027, 2.9336], [175.66984, 2.93517]]]}}, {"type": "Feature", "properties": {"name": "미국 세력 범위 경계(동쪽, 지도 밖으로 이어짐)", "category": "경계선", "period": "1914년경", "legend": "미국령 (굵은 테두리)", "map_title": "제국주의 열강의 아시아·태평양 분할(1914년경)", "source": "미래엔 세계사 교과서 3권 157쪽", "volume": 3, "page": 157}, "geometry": {"type": "MultiLineString", "coordinates": [[[-145.10091, -6.7297], [-145.10103, -6.72987]], [[-145.10103, -6.72987], [-147.05897, -9.35207], [-148.79153, -11.65848], [-150.30095, -13.65133], [-151.80488, -15.61504], [-154.10527, -15.72101], [-156.02213, -15.79939], [-155.91932, -17.83572], [-155.82841, -19.83954], [-155.75014, -21.8133], [-155.68461, -23.75954], [-154.13436, -24.77504], [-152.27869, -25.97918], [-150.84996, -25.94659], [-149.06355, -25.90041], [-147.27666, -25.84913], [-145.48936, -25.79367], [-141.19874, -25.64792], [-135.83482, -25.45033]], [[-111.95139, -5.92386], [-119.74619, -6.08925], [-127.20439, -6.2629], [-133.97535, -6.43379], [-145.10103, -6.72987]], [[-145.10103, -6.72987], [-145.10105, -6.72987]]]}}, {"type": "Feature", "properties": {"name": "국경·내부 경계(점선)", "category": "경계선", "period": "1914년경", "legend": "(지도 회색 점선)", "map_title": "제국주의 열강의 아시아·태평양 분할(1914년경)", "source": "미래엔 세계사 교과서 3권 157쪽", "volume": 3, "page": 157}, "geometry": {"type": "MultiLineString", "coordinates": [[[58.28078, 35.09901], [59.03276, 35.26918], [59.72583, 36.05506], [61.19258, 36.02247], [62.41869, 35.59667], [63.38951, 35.13337], [63.67106, 34.77145], [64.48775, 34.96015], [64.3728, 33.96593]], [[64.3728, 33.96593], [64.30549, 33.38625], [63.73881, 32.41016], [63.80605, 31.4535], [64.01115, 30.01485], [64.63975, 29.89408], [64.71303, 29.45669], [64.02974, 28.56728], [64.35712, 28.0136], [64.67995, 27.45915], [65.44344, 27.2445], [65.51898, 26.30513], [65.74979, 25.9478], [65.21564, 25.6186], [64.67245, 25.29209], [64.45217, 24.66974], [64.22351, 24.04684]], [[64.0299, 28.56742], [65.3371, 28.22145], [66.04147, 28.35328], [66.73449, 28.48901], [68.30493, 28.98917], [68.38532, 29.71644], [68.89194, 30.05591], [69.40056, 30.3913], [69.52219, 30.70476], [70.36101, 30.70162], [70.78009, 31.10228], [70.76514, 31.45988], [71.09795, 32.07857], [71.62232, 32.39449], [71.37253, 33.02459], [72.3505, 33.13678], [72.37706, 33.5124], [72.84284, 34.37214], [72.74543, 35.16879], [73.02625, 35.18522], [73.66207, 35.62965], [74.88862, 35.68956], [75.47759, 35.91879], [75.51077, 35.97038]], [[75.51077, 35.97038], [75.65256, 36.19041]], [[75.65256, 36.19041], [75.44078, 36.32353], [74.80878, 36.11382], [74.22823, 36.26932], [73.60844, 35.96388], [72.99252, 35.65511], [72.81715, 37.02864], [72.38642, 37.0859], [71.86287, 36.62917], [71.7564, 36.25604], [71.14803, 36.15597], [71.09187, 35.88614], [70.83487, 35.91018], [70.00479, 35.54345], [69.80839, 35.78955]], [[69.80839, 35.78955], [69.80171, 35.79791], [68.83696, 35.90094]], [[68.83696, 35.90094], [68.17815, 35.9705], [67.45489, 35.56303], [67.08996, 34.84306], [65.97776, 34.33298], [65.96887, 33.94841], [65.3557, 33.64353], [64.42659, 33.95328], [64.3728, 33.96593]], [[64.3728, 33.96593], [64.3264, 33.97684]], [[80.4714, 30.09094], [80.45901, 30.07897]], [[80.45901, 30.07897], [79.93531, 29.57128], [79.60983, 28.7297], [81.1667, 27.78149], [82.42924, 27.38703], [83.82686, 27.33174], [84.34044, 26.82177], [85.22724, 26.74736], [87.12613, 26.29967], [87.41086, 26.76092], [87.08234, 27.33521], [87.19097, 27.78572]], [[87.19097, 27.78572], [87.19746, 27.81201]], [[88.67164, 21.83786], [88.55674, 22.22705], [88.44629, 22.62219], [88.34077, 23.02025], [88.24122, 23.41834], [88.11215, 23.85092], [87.99156, 24.28096], [87.25932, 24.87124], [88.01092, 25.34545], [87.25285, 25.90461], [87.5079, 26.51648], [88.63022, 26.04059], [88.70053, 26.1566], [89.03271, 25.48527], [90.14101, 25.34454], [90.88858, 25.2377], [91.2633, 25.17952], [91.40427, 24.85169], [90.84723, 24.38368], [90.56956, 24.14529], [90.84149, 23.71751], [91.13934, 23.28104], [91.38133, 23.78532], [91.95286, 22.80381], [92.12874, 22.46768], [92.27455, 22.12726]], [[92.27455, 22.12726], [92.30775, 22.03823]], [[96.31416, 27.73173], [96.32952, 27.74857]], [[96.32952, 27.74857], [96.56852, 28.00976], [97.5153, 27.13422], [97.73727, 27.12625], [97.8136, 25.74624], [97.12684, 24.98105], [96.67438, 24.47007], [96.98329, 23.74781], [98.0672, 23.70328], [98.07805, 22.91685], [98.68057, 22.70324], [98.58353, 21.79285], [99.34667, 21.66143], [99.53827, 21.26814], [100.50115, 21.2476], [100.51129, 21.23708]], [[100.51129, 21.23708], [100.75686, 20.98482], [101.30814, 20.9207], [101.03902, 21.92822], [101.65944, 22.09883], [101.75648, 22.16156]], [[101.75648, 22.16156], [102.14339, 22.41323], [102.72644, 22.12571], [103.28596, 22.44063], [103.67928, 22.27463], [104.21114, 22.38841], [104.73305, 22.50624], [104.83741, 22.89598], [105.18786, 23.0018], [106.51783, 22.62129], [106.64772, 21.68879], [107.31441, 21.52591], [107.65772, 21.43727], [107.80698, 21.30307]], [[100.55122, 21.27612], [100.51129, 21.23708]], [[100.51129, 21.23708], [99.94038, 20.67787], [99.36999, 20.11288]], [[99.36999, 20.11288], [98.35897, 19.58582], [97.57643, 19.47565], [97.20015, 19.42745], [97.02906, 19.05776], [96.87464, 18.69054], [96.74104, 18.32758], [97.13409, 17.72246], [97.37233, 17.42016], [97.62233, 17.13355], [97.87529, 16.85389], [98.12345, 16.57105], [98.36482, 16.277], [97.97705, 15.3764], [98.00843, 15.01186], [98.26013, 14.6276], [98.52472, 14.24397], [98.80401, 13.86706], [98.82178, 13.27791], [98.97045, 12.95974], [99.30455, 12.34294], [99.45766, 12.03889], [99.26128, 11.7608], [99.08825, 11.47065], [98.93253, 11.16893], [98.78848, 10.8566], [98.62442, 10.01035], [98.56555, 9.94061]], [[99.2989, 20.14068], [99.36999, 20.11288]], [[99.36999, 20.11288], [99.85913, 19.92656], [99.91326, 19.41506], [100.5968, 19.2205], [100.55552, 18.2097], [100.53394, 17.52848], [100.82575, 17.21483], [101.40282, 17.82429], [101.69725, 18.12932], [102.53523, 17.78812], [102.9394, 18.10267], [103.34428, 18.41222], [103.69093, 18.20827], [104.02803, 18.00006], [104.354, 17.78422], [104.6681, 17.55778], [104.87245, 16.44939], [105.32972, 15.82986], [105.56387, 15.51976], [105.3391, 15.15398], [104.86758, 14.40829]], [[104.86758, 14.40829], [104.8637, 14.40226], [104.09879, 14.31643], [102.9785, 14.20478], [102.59051, 13.85716], [102.212, 13.52898], [102.43104, 12.83708], [102.55941, 12.4819], [102.71473, 12.11523], [102.63072, 12.03725]], [[101.72076, 22.19118], [101.75648, 22.16156]], [[101.75648, 22.16156], [102.44375, 21.60076], [102.75136, 21.50613], [102.79471, 21.01174], [103.52897, 20.55254], [104.12345, 20.82893], [105.04464, 20.02946], [104.76614, 19.58396], [104.27426, 19.51166], [104.04328, 19.35186], [104.767, 18.96549], [105.11166, 18.77257], [105.43782, 18.56626], [105.65543, 18.2645], [105.85765, 17.94072], [106.24972, 17.26688], [106.45678, 16.92926], [106.68328, 16.59919], [107.07517, 16.30945], [107.50649, 16.04548], [107.20373, 15.80972], [107.83942, 15.53122], [107.83281, 15.14821], [107.79147, 14.73872]], [[107.79147, 14.73872], [107.72489, 14.25138], [107.65188, 13.75656], [107.60551, 13.273], [107.5639, 12.7947], [107.52952, 12.32644], [106.10541, 11.6874], [105.738, 11.51837], [105.88537, 11.1626], [106.04273, 10.82467], [105.61832, 10.95801], [105.25372, 10.79297], [104.92035, 10.63126], [104.63101, 10.48127], [104.3838, 10.34381], [104.34578, 10.20701]], [[104.79837, 14.43884], [104.86758, 14.40829]], [[104.86758, 14.40829], [105.82688, 13.99179], [106.3086, 13.92548], [106.33399, 14.42822], [106.88011, 14.47516], [107.79147, 14.73872]], [[107.79147, 14.73872], [107.84656, 14.75419]], [[101.91365, 6.37624], [101.80817, 5.93551], [100.82298, 5.7031], [100.81741, 6.13703], [100.57254, 6.4024], [100.38248, 6.69271], [100.00101, 6.70297], [99.8737, 6.67282]], [[109.53548, 2.02985], [109.75597, 1.78797], [109.9541, 1.55948], [110.14496, 1.32171], [110.32806, 1.06858], [110.88468, 1.17783], [111.69818, 1.32487], [111.93327, 1.74026], [112.27532, 1.80012], [112.63674, 1.85833], [112.98778, 1.74323], [113.35899, 1.60989], [113.77271, 1.67487], [114.1982, 1.72638], [114.46879, 2.16783], [114.7546, 2.58861], [114.96378, 2.91037], [115.17388, 3.225], [115.36808, 3.61322], [115.55204, 4.00052], [115.72442, 4.38342], [116.1977, 4.37408], [117.14812, 4.33087], [117.77961, 3.94108], [117.87242, 3.87848]], [[114.38616, 4.49657], [114.62047, 4.21921], [114.90827, 4.42857], [114.95375, 4.76753], [115.19467, 4.59722], [115.38947, 5.00687]], [[141.05167, -2.48105], [141.06329, -3.17054], [141.06552, -3.52676], [141.06337, -5.05361], [141.08102, -6.23055], [140.96194, -6.72417], [141.12202, -7.05551], [141.12638, -7.45972], [141.12612, -8.24172], [141.14234, -9.00336]], [[59.99814, 38.87527], [60.09993, 41.9139], [60.41177, 42.40514], [62.2837, 42.97176], [62.55979, 43.03894], [64.38969, 42.07962], [65.07597, 41.16764], [67.10951, 41.33717], [67.71096, 41.45838], [68.26186, 41.04461], [68.41883, 40.78629], [68.56131, 40.07988], [69.06123, 39.29967], [70.24165, 39.30646], [70.55553, 38.99528], [71.09826, 39.38331], [71.7945, 39.93701], [72.2609, 40.30287], [72.63183, 40.36708]], [[72.63183, 40.36708], [72.64463, 40.36928], [72.86946, 40.86016], [73.46324, 41.09177], [74.74582, 40.74807], [74.75986, 40.98286], [75.40898, 41.44361], [76.6489, 41.06247], [76.78224, 41.28305], [78.0338, 41.22817], [79.61311, 41.15218], [79.95904, 40.91123], [80.56828, 40.67415]], [[80.56828, 40.67415], [80.60075, 40.6615], [80.21616, 40.39154], [79.34325, 39.96007], [78.76471, 39.6699], [77.64495, 39.52369], [77.06639, 39.00262], [76.66981, 38.88535], [76.5689, 39.15036], [75.62825, 38.84855], [74.98999, 38.52641], [75.02061, 38.24336], [74.76535, 38.05343]], [[74.76535, 38.05343], [74.74235, 38.03626], [75.00951, 37.34057], [75.64965, 37.23183], [75.69318, 36.67329], [75.94675, 36.27329], [75.65256, 36.19041]], [[75.65256, 36.19041], [75.57786, 36.16925]], [[68.8335, 35.88034], [68.83696, 35.90094]], [[68.83696, 35.90094], [68.92579, 36.42731], [67.39082, 37.12311], [65.57653, 37.98766], [64.63767, 39.12241], [63.63892, 39.18363], [63.61188, 39.51665], [63.11602, 39.97429], [62.21356, 40.34654], [62.20798, 39.92175], [61.83936, 40.05287], [60.91985, 39.38977], [61.08334, 38.90806], [59.69274, 38.85759], [58.44003, 39.83122], [57.8561, 39.58621], [57.81976, 39.47811], [57.12603, 39.12846]], [[75.45356, 35.975], [75.51077, 35.97038]], [[75.51077, 35.97038], [75.92186, 35.93674], [76.28691, 35.70463], [76.54424, 35.13209], [77.09586, 34.87313], [77.91251, 34.60296]], [[77.91251, 34.60296], [77.97425, 34.58243]], [[92.21696, 20.77327], [92.08735, 21.06484], [92.00632, 21.39285], [92.24501, 21.54157], [92.25772, 22.13592], [92.27455, 22.12726]], [[92.27455, 22.12726], [92.55085, 21.98424], [92.52867, 22.34191], [92.49109, 22.69773], [92.51179, 23.35539], [92.52752, 23.68061], [92.54907, 24.00381], [93.37776, 23.86067], [93.47359, 24.16865], [93.57399, 24.47573], [93.78727, 25.08751], [93.87793, 25.45896], [94.07044, 26.19805], [95.30719, 26.78384], [96.09338, 26.72222], [96.11264, 27.33044], [96.41018, 27.6206], [96.32952, 27.74857]], [[96.32952, 27.74857], [96.187, 27.97771], [95.34126, 28.19862], [95.11859, 28.87182], [94.14865, 28.68114], [93.23639, 28.83091], [92.2557, 28.1928], [91.60995, 27.7663], [90.54509, 27.58286]], [[90.54509, 27.58286], [90.49772, 27.57446]], [[79.16788, 32.59234], [79.19732, 32.56454], [79.208, 32.05524], [78.8418, 31.79383], [78.4704, 32.10861], [78.18176, 31.95506], [78.55002, 30.93257], [78.90743, 31.04437], [80.45901, 30.07897]], [[80.45901, 30.07897], [80.67132, 29.94731], [81.04319, 30.16621], [82.93305, 29.056], [83.37725, 29.00837], [83.72041, 28.60375], [84.31674, 28.41952], [85.97841, 27.8891], [87.12211, 27.76871], [87.19097, 27.78572]], [[87.19097, 27.78572], [87.83407, 27.9428], [87.98632, 27.25858]], [[87.98632, 27.25858], [88.03887, 27.03152], [89.29049, 26.74396], [89.62492, 26.82818], [90.71072, 26.81087], [91.07438, 26.80191], [91.17276, 26.79232], [90.54509, 27.58286]], [[90.54509, 27.58286], [90.34767, 27.8299], [89.27427, 28.10109], [88.8073, 28.10927], [88.25784, 27.54403], [87.98632, 27.25858]], [[87.98632, 27.25858], [87.95575, 27.22617]], [[75.10542, 32.14545], [74.95154, 32.27858], [74.78176, 32.87826], [74.65526, 33.74602], [75.32761, 33.94153], [76.39984, 33.77546], [76.97911, 34.02221], [77.91251, 34.60296]], [[77.91251, 34.60296], [78.02323, 34.67109], [78.08144, 34.6997], [78.1543, 34.74852], [78.37067, 34.00732], [78.99623, 33.62943], [78.97754, 33.37698], [78.92467, 33.31504], [78.85554, 33.2757], [78.82915, 32.9169], [79.16769, 32.59225]], [[68.95906, 23.64862], [69.24319, 23.89314], [69.5313, 24.13235], [69.82201, 24.36791], [70.50474, 24.43286], [71.2039, 24.48593], [71.49202, 24.77485], [71.16818, 25.78052], [70.49903, 26.742], [71.29764, 27.84735], [71.86583, 27.59177], [72.54683, 27.85159], [73.13235, 28.62389], [73.91198, 29.64427], [74.46991, 30.14035], [75.02997, 30.6329], [75.12076, 31.42094], [75.67111, 31.65495], [75.10555, 32.14546]], [[74.80949, 38.05964], [74.76535, 38.05343]], [[74.76535, 38.05343], [73.9931, 37.94283], [73.4423, 37.8109], [72.80266, 38.07974], [72.46629, 37.94199], [71.15041, 38.03434], [71.26692, 38.44925], [72.27172, 38.57786], [72.26206, 38.59697]], [[72.26206, 38.59697], [72.15312, 38.81185], [72.20686, 39.23266], [71.60519, 38.99261], [71.34663, 39.09926], [71.36279, 38.74004], [70.89282, 38.47346], [70.50949, 37.93638], [70.05794, 38.00115], [69.68785, 37.70344], [70.16437, 37.45993], [70.15383, 37.21514], [70.35382, 36.61648], [69.80839, 35.78955]], [[69.80839, 35.78955], [69.78232, 35.74962]], [[72.15449, 38.58994], [72.26206, 38.59697]], [[72.26206, 38.59697], [73.16176, 38.65387], [73.80678, 38.93709], [74.40075, 39.18654], [73.57539, 39.52066], [73.20619, 39.72718], [72.5478, 39.45744], [72.44479, 39.69125], [72.02286, 39.81861], [72.64304, 40.321], [72.63183, 40.36708]], [[72.63183, 40.36708], [72.61807, 40.42359]], [[87.61038, 46.92462], [87.54204, 46.91356]], [[87.54204, 46.91356], [86.906, 46.80997], [86.8277, 46.42716], [86.03298, 46.16442], [85.74811, 45.66843], [85.77569, 45.03074], [84.94857, 44.77665], [84.90686, 44.94315], [83.49108, 45.12757], [82.61011, 43.6896], [82.9354, 43.52354], [82.82434, 43.21174], [82.37117, 43.30572], [82.0297, 43.45786], [80.39421, 43.09274], [80.83573, 42.92942], [81.11004, 41.64198], [81.12801, 41.42651], [80.8467, 41.3924], [80.56828, 40.67415]], [[80.56828, 40.67415], [80.54981, 40.62636]], [[115.67016, 47.07756], [115.64595, 47.04131]], [[115.64595, 47.04131], [114.84012, 45.82647], [114.58615, 45.62312], [115.09138, 45.23275], [115.84156, 45.27342], [116.46754, 45.12286], [117.08121, 45.39549], [118.69295, 44.58976], [118.83877, 44.15698], [118.5321, 44.03045], [117.81788, 44.35075], [116.27133, 44.06754], [115.29365, 43.82172], [115.09575, 43.597], [114.87381, 43.3211], [113.49733, 43.25074], [112.58049, 42.74768], [112.00156, 42.86668], [111.05463, 43.04615], [110.63134, 42.50127], [111.10109, 41.90537], [110.16099, 41.4831], [109.21702, 41.05244], [108.72516, 40.78728], [106.65789, 40.75197], [104.35768, 40.15374], [103.63673, 40.19611], [101.45795, 40.69752], [99.74844, 41.06155], [98.19661, 40.8625], [95.62749, 41.12081], [94.92478, 42.21151], [94.83381, 42.50066], [94.40393, 42.61948], [92.87795, 43.08984], [91.13048, 43.29254], [90.35182, 43.6167], [90.52832, 44.08739], [90.71705, 44.74117], [89.91052, 45.7262], [89.12775, 45.78334], [88.0419, 46.37186], [87.82886, 46.82583]], [[87.82886, 46.82583], [87.54204, 46.91356]], [[87.54204, 46.91356], [87.04376, 47.06301], [86.89862, 47.42541], [86.54807, 47.2265], [85.49477, 47.27744], [85.19217, 47.76305], [84.7131, 48.10244], [83.54466, 48.40017], [82.33621, 48.33608], [81.98385, 48.72577], [81.48901, 48.66621], [80.87731, 48.26686], [79.92317, 49.51628], [79.12656, 50.54362], [78.05233, 51.22374], [78.34552, 51.52132], [77.09437, 51.10371], [76.41608, 50.93551], [76.07913, 50.66827], [75.71372, 50.71336], [75.22508, 50.59782], [75.23217, 50.73902], [75.6119, 50.99046], [75.6208, 51.16544], [74.72309, 51.14754], [74.64761, 51.0052], [74.31066, 51.15568], [73.36678, 51.09964], [73.32786, 51.75885], [72.912, 52.21609], [72.38063, 52.11744], [71.74698, 52.31144], [71.02679, 52.06824], [70.74269, 51.87158], [68.44667, 51.49682], [68.27408, 51.10542], [67.93621, 51.23608], [65.91884, 50.76869], [64.68939, 50.87198], [64.56499, 50.47583], [64.69668, 50.21154], [65.37205, 49.9667], [64.78061, 49.92886], [64.31666, 49.53512], [64.58365, 49.29137], [64.2845, 49.1538], [63.71174, 48.89793], [64.09344, 48.65629], [64.94475, 48.26714], [64.89094, 47.8622], [63.95731, 47.6419], [63.75876, 47.87406], [63.34226, 47.48709], [63.14117, 47.6094], [62.39884, 48.02273], [61.76112, 47.99751], [61.50709, 47.78462], [61.12502, 48.11898], [60.39129, 47.79536], [59.95352, 47.51737], [59.04204, 47.81487], [59.10537, 47.36966], [58.83188, 47.35841], [58.83565, 47.65669], [58.10455, 47.944], [57.99358, 48.18167], [57.16645, 48.16635], [56.96261, 48.43528], [56.4535, 48.19306], [56.22413, 48.20254], [56.06402, 48.30884], [55.5328, 48.23162], [54.65184, 47.82378], [54.34823, 47.56923], [53.92802, 47.15744], [54.10798, 46.59856], [53.57487, 46.57649], [52.72144, 46.93998], [52.53279, 46.64713], [52.13248, 46.1558], [52.38512, 45.82161], [52.12643, 45.56185], [51.91397, 45.12721], [52.39446, 44.5881], [52.46411, 44.41593], [53.23075, 44.60411], [53.69023, 44.15805], [53.93909, 43.65986], [53.66104, 43.60685], [54.09765, 43.23419], [54.14851, 43.13567]], [[123.45079, 38.20446], [123.97032, 38.56963], [124.60164, 38.70804], [125.2327, 38.85833], [125.42354, 39.03122], [125.80672, 39.38825], [126.46712, 39.23237], [127.12221, 39.10511], [127.25164, 39.45504], [127.84281, 39.55944], [128.77432, 40.01361], [129.11987, 40.35201], [129.46772, 40.22038], [129.53876, 40.12005]], [[129.53876, 40.12005], [129.77575, 39.78761]], [[87.78323, 46.80052], [87.82886, 46.82583]], [[87.82886, 46.82583], [88.35661, 47.11752], [89.3159, 47.24265], [89.68003, 47.61967], [90.57798, 47.8318], [90.73368, 48.02726], [92.28275, 48.37541], [92.7721, 48.26423], [93.93502, 48.16506], [94.40215, 47.53293], [96.60774, 47.36472], [97.71767, 47.99545], [97.38914, 48.67675], [97.80608, 49.00644], [98.55107, 49.40089], [101.49485, 48.71799], [101.72931, 47.89864], [103.36158, 47.62017], [104.54472, 47.81123], [106.57316, 47.34171], [107.16512, 47.32841], [107.16502, 47.07859], [107.81114, 46.79711], [109.93178, 46.70885], [111.97253, 46.84559], [112.56184, 47.23249], [113.64437, 47.42457], [114.21515, 47.20911], [115.4321, 47.12768], [115.64595, 47.04131]], [[115.64595, 47.04131], [116.44943, 46.71575], [116.89166, 46.67863], [118.02045, 47.15795], [118.17137, 47.41656], [119.44218, 48.66925], [119.43636, 49.05698], [118.73434, 49.27911], [119.58082, 49.84347], [122.76476, 49.88707], [123.73271, 49.41159], [124.094, 49.48873], [124.8579, 49.00037], [126.0182, 47.19346], [126.5666, 46.29899], [127.95423, 46.14973], [129.33795, 45.43947], [129.76491, 44.54396], [130.66033, 44.44296], [131.43373, 44.71829], [132.29119, 44.86559], [133.27477, 45.18284], [133.34387, 44.79641], [133.43583, 44.4685], [132.92516, 44.17051], [132.39375, 43.20933], [131.86636, 42.24558], [130.75779, 42.38164], [129.84034, 41.89427], [130.15489, 40.95934], [130.17024, 40.69905], [129.53876, 40.12005]], [[129.53876, 40.12005], [129.52631, 40.1086]], [[125.0774, -8.77867], [125.20408, -9.02568], [125.41473, -8.88195], [125.51975, -9.06903], [125.31866, -9.22988], [125.48755, -9.49576]], [[123.98631, -9.40448], [124.44782, -9.57954], [124.46914, -9.0761]]]}}]}