{"type": "FeatureCollection", "features": [{"type": "Feature", "properties": {"name": "베트남", "name_en": "Vietnam (French Indochina)", "period": "1914년경", "kind": "식민지", "legend": "베트남", "map_title": "제국주의 열강의 아시아·태평양 분할(1914년경)", "source": "미래엔 세계사 교과서 3권 157쪽", "volume": 3, "page": 157, "note": "프랑스령 · 프랑스령 인도차이나 전체에서 라오스·캄보디아를 뺀 부분", "coast_snap": "Natural Earth 10m 해안선에 맞춤", "border_snap": "현대 국경(Natural Earth 10m)에 맞춘 구간 약 3026 km"}, "geometry": {"type": "MultiPolygon", "coordinates": [[[[104.84213, 8.43236], [104.84334, 8.42301], [104.83156, 8.41683], [104.82294, 8.42536], [104.84336, 8.44919], [104.84798, 8.44936], [104.84831, 8.43795], [104.84213, 8.43236]]], [[[106.22656, 9.56518], [106.20705, 9.56291], [106.19662, 9.57168], [106.12599, 9.67243], [106.11769, 9.71092], [106.08718, 9.75461], [106.09344, 9.76088], [106.15545, 9.67894], [106.2234, 9.60847], [106.27931, 9.59569], [106.29199, 9.58641], [106.29069, 9.56143], [106.28443, 9.54369], [106.27003, 9.5345], [106.24416, 9.53499], [106.2492, 9.56013], [106.23414, 9.58137], [106.19703, 9.61005], [106.18963, 9.60383], [106.22656, 9.56518]]], [[[104.66154, 9.80959], [104.65463, 9.79585], [104.64137, 9.79085], [104.60982, 9.79873], [104.64015, 9.822], [104.66154, 9.80959]]], [[[106.46852, 9.89029], [106.42239, 9.93281], [106.42238, 9.93902], [106.44288, 9.93281], [106.48601, 9.90266], [106.53102, 9.85798], [106.54411, 9.83804], [106.53565, 9.82918], [106.52119, 9.83761], [106.49684, 9.87523], [106.46852, 9.89029]]], [[[104.00306, 10.27532], [104.01518, 10.34401], [104.03607, 10.41877], [104.08203, 10.37099], [104.08546, 10.35373], [104.08546, 10.24833], [104.04664, 10.15107], [104.03424, 10.09934], [104.01031, 10.1707], [104.00207, 10.23983], [104.00306, 10.27532]]], [[[106.75554, 10.25755], [106.75875, 10.24459], [106.75226, 10.23598], [106.72413, 10.22652], [106.70932, 10.2436], [106.68995, 10.25178], [106.55959, 10.27539], [106.51175, 10.29589], [106.52711, 10.2971], [106.56088, 10.28286], [106.5879, 10.27692], [106.70281, 10.27558], [106.74684, 10.26317], [106.75554, 10.25755]]], [[[106.88795, 10.48086], [106.88795, 10.46662], [106.87941, 10.49004], [106.88836, 10.50486], [106.9275, 10.52117], [106.94809, 10.50702], [106.94337, 10.47663], [106.92205, 10.42561], [106.92945, 10.42561], [106.93648, 10.43916], [106.96871, 10.41658], [106.97729, 10.40518], [106.92848, 10.3935], [106.90854, 10.38471], [106.89527, 10.37101], [106.88796, 10.37101], [106.88795, 10.38923], [106.87428, 10.4256], [106.87697, 10.44383], [106.89234, 10.46528], [106.89527, 10.48086], [106.88795, 10.48086]]], [[[104.29771, 10.48087], [104.29251, 10.49183], [104.31494, 10.48164], [104.30616, 10.4786], [104.29771, 10.48087]]], [[[106.75196, 10.66584], [106.78419, 10.66291], [106.80812, 10.63361], [106.8353, 10.62604], [106.84783, 10.61384], [106.85377, 10.59838], [106.85377, 10.58393], [106.84205, 10.57075], [106.8401, 10.55939], [106.85353, 10.53901], [106.86769, 10.52896], [106.87182, 10.51521], [106.86442, 10.503], [106.8401, 10.50137], [106.8401, 10.49453], [106.85597, 10.4938], [106.86396, 10.48694], [106.87428, 10.46039], [106.83229, 10.4724], [106.81959, 10.46662], [106.82667, 10.46381], [106.83326, 10.46662], [106.84864, 10.45254], [106.85963, 10.43179], [106.85889, 10.41308], [106.84031, 10.40526], [106.81642, 10.41471], [106.79168, 10.43717], [106.77069, 10.46431], [106.75882, 10.48774], [106.75474, 10.51537], [106.7588, 10.54296], [106.75196, 10.56656], [106.77858, 10.57648], [106.7859, 10.60139], [106.77882, 10.62446], [106.75196, 10.66584]]], [[[104.10479, 10.55877], [104.11699, 10.5714], [104.14377, 10.55927], [104.13014, 10.56281], [104.10479, 10.55877]]], [[[106.93019, 10.59007], [106.92205, 10.58023], [106.9297, 10.54906], [106.92205, 10.54297], [106.91676, 10.54629], [106.90211, 10.57648], [106.89527, 10.57648], [106.90894, 10.53238], [106.90309, 10.52188], [106.88991, 10.52547], [106.86744, 10.54296], [106.85377, 10.56281], [106.85597, 10.57176], [106.86524, 10.57978], [106.87127, 10.60765], [106.86793, 10.61713], [106.85377, 10.6249], [106.85377, 10.63105], [106.88795, 10.63447], [106.88966, 10.62727], [106.92945, 10.59756], [106.93019, 10.59007]]], [[[103.04909, 22.45682], [103.04418, 22.48648], [103.05829, 22.49548], [103.09126, 22.50509], [103.142, 22.5378], [103.14572, 22.54555], [103.14469, 22.55578], [103.1326, 22.56979], [103.13002, 22.57795], [103.14174, 22.60704], [103.16846, 22.62648], [103.22841, 22.65583], [103.24489, 22.66869], [103.25249, 22.67856], [103.26995, 22.72326], [103.30964, 22.78794], [103.32158, 22.79039], [103.35708, 22.77603], [103.36876, 22.76714], [103.38752, 22.74518], [103.40173, 22.73784], [103.40431, 22.6888], [103.44752, 22.61826], [103.47315, 22.59164], [103.48544, 22.5841], [103.50364, 22.58141], [103.51428, 22.58736], [103.55092, 22.64079], [103.54456, 22.69102], [103.54715, 22.70068], [103.56833, 22.72497], [103.59004, 22.76802], [103.64693, 22.79905], [103.65851, 22.79321], [103.72641, 22.71629], [103.79421, 22.65944], [103.83633, 22.60276], [103.84418, 22.59929], [103.86682, 22.57542], [103.89462, 22.56922], [103.91705, 22.53325], [103.94072, 22.52467], [103.95952, 22.5071], [103.97399, 22.51527], [103.98536, 22.52715], [103.98557, 22.57025], [104.00748, 22.63025], [104.01394, 22.69102], [104.02381, 22.71918], [104.05404, 22.75375], [104.07332, 22.78267], [104.08686, 22.79156], [104.1282, 22.79683], [104.21326, 22.82502], [104.24116, 22.8244], [104.2331, 22.80481], [104.22876, 22.78344], [104.22969, 22.76194], [104.23682, 22.74208], [104.24948, 22.72833], [104.34017, 22.68637], [104.35547, 22.68864], [104.449, 22.74518], [104.46864, 22.76486], [104.53334, 22.8144], [104.55355, 22.83605], [104.56238, 22.8344], [104.56124, 22.8244], [104.56466, 22.81995], [104.57923, 22.80887], [104.58843, 22.80685], [104.60982, 22.823], [104.62904, 22.82078], [104.66274, 22.81093], [104.6832, 22.81217], [104.70077, 22.81825], [104.72821, 22.8391], [104.7742, 22.89623], [104.82361, 22.92413], [104.82795, 22.93416], [104.82702, 22.95428], [104.79792, 23.08557], [104.81146, 23.09619], [104.8359, 23.09975], [104.86128, 23.1196], [104.87006, 23.16355], [104.88086, 23.17171], [104.89477, 23.17034], [104.92102, 23.15577], [104.93507, 23.15427], [104.98143, 23.19037], [105.06106, 23.23246], [105.1424, 23.25375], [105.15036, 23.26476], [105.15563, 23.26685], [105.18958, 23.2522], [105.2009, 23.25401], [105.21754, 23.26535], [105.22766, 23.30065], [105.23593, 23.31979], [105.24554, 23.33018], [105.28006, 23.35878], [105.29366, 23.36628], [105.31216, 23.36581], [105.32006, 23.35434], [105.33226, 23.31796], [105.34404, 23.30419], [105.35965, 23.29155], [105.38951, 23.27543], [105.41448, 23.27848], [105.4259, 23.27321], [105.46434, 23.206], [105.47385, 23.1945], [105.51716, 23.16773], [105.52827, 23.15551], [105.53483, 23.13626], [105.53529, 23.0941], [105.53969, 23.07547], [105.55157, 23.05968], [105.56599, 23.0541], [105.63684, 23.05133], [105.66495, 23.04337], [105.69032, 23.04397], [105.71968, 23.0196], [105.75471, 23.00568], [105.83569, 22.91723], [105.85388, 22.90465], [105.86225, 22.90775], [105.87011, 22.9231], [105.876, 22.92827], [105.88664, 22.92976], [105.9132, 22.92439], [105.96121, 22.9324], [105.97398, 22.93989], [105.99, 22.97062], [105.99924, 22.97537], [106.07759, 22.98103], [106.1321, 22.97501], [106.17004, 22.96601], [106.20238, 22.947], [106.223, 22.91237], [106.22709, 22.87556], [106.23401, 22.86385], [106.2554, 22.85465], [106.27659, 22.85104], [106.31566, 22.8538], [106.45798, 22.88897], [106.47374, 22.89711], [106.47798, 22.91961], [106.48779, 22.92542], [106.56696, 22.90377], [106.58169, 22.89527], [106.59916, 22.86499], [106.61037, 22.85287], [106.63275, 22.84961], [106.63988, 22.85339], [106.64794, 22.86698], [106.65683, 22.86998], [106.66747, 22.86752], [106.68515, 22.84822], [106.71491, 22.8261], [106.73036, 22.79763], [106.78984, 22.79719], [106.79873, 22.78437], [106.7915, 22.77212], [106.75848, 22.75422], [106.74664, 22.74435], [106.73956, 22.72678], [106.73553, 22.69541], [106.6977, 22.63087], [106.68019, 22.57945], [106.66789, 22.56911], [106.64634, 22.5688], [106.63006, 22.58012], [106.60763, 22.60999], [106.588, 22.60777], [106.57714, 22.59531], [106.56877, 22.57459], [106.54588, 22.47253], [106.53032, 22.44928], [106.52691, 22.43827], [106.53451, 22.39755], [106.53652, 22.36055], [106.5418, 22.3451], [106.55534, 22.33197], [106.57745, 22.32458], [106.6173, 22.32277], [106.63378, 22.30944], [106.66293, 22.2233], [106.66055, 22.21343], [106.63967, 22.19089], [106.64236, 22.17612], [106.66132, 22.14356], [106.65869, 22.11193], [106.67218, 22.0925], [106.673, 22.0661], [106.66789, 22.04269], [106.6482, 21.99551], [106.64959, 21.97757], [106.65895, 21.96279], [106.6746, 21.96218], [106.68975, 21.97287], [106.72235, 22.00698], [106.72876, 22.00832], [106.74256, 22.00388], [106.76101, 21.98507], [106.78152, 21.97504], [106.84054, 21.97359], [106.86477, 21.96807], [106.87687, 21.95732], [106.89883, 21.92776], [106.92038, 21.91696], [106.93774, 21.92001], [106.97123, 21.93582], [106.9919, 21.93536], [107.00936, 21.92745], [107.02022, 21.91293], [107.02115, 21.89226], [107.01184, 21.87557], [106.98714, 21.84482], [106.98911, 21.82425], [107.0029, 21.81056], [107.06585, 21.79583], [107.09484, 21.77898], [107.17235, 21.71506], [107.21214, 21.70524], [107.24387, 21.71516], [107.27266, 21.71831], [107.3032, 21.6887], [107.32966, 21.61605], [107.34816, 21.59935], [107.38288, 21.61889], [107.40996, 21.6454], [107.42603, 21.65206], [107.44593, 21.64695], [107.45704, 21.6315], [107.46102, 21.59636], [107.50132, 21.58153], [107.50985, 21.58179], [107.51827, 21.58737], [107.52654, 21.60328], [107.53305, 21.60866], [107.55098, 21.61083], [107.6132, 21.60561], [107.67186, 21.61765], [107.69025, 21.62473], [107.72942, 21.65196], [107.74482, 21.65754], [107.7779, 21.65599], [107.81164, 21.64783], [107.83236, 21.63935], [107.85546, 21.60034], [107.89613, 21.56943], [107.93096, 21.53424], [107.94419, 21.53078], [107.9665, 21.50938], [108.00685, 21.53756], [108.02735, 21.52334], [108.03951, 21.52046], [108.01865, 21.51895], [108.01124, 21.50654], [108.01368, 21.49242], [108.02223, 21.48566], [108.06105, 21.49615], [108.08057, 21.4931], [108.08057, 21.48567], [108.04322, 21.48163], [108.01661, 21.47036], [107.97071, 21.43164], [107.96389, 21.43164], [107.96536, 21.44736], [107.99122, 21.48013], [107.99122, 21.48566], [107.96998, 21.47577], [107.9297, 21.44263], [107.91604, 21.4584], [107.91628, 21.46824], [107.9297, 21.48286], [107.91871, 21.51752], [107.89674, 21.53156], [107.88193, 21.53408], [107.88265, 21.52253], [107.87485, 21.51362], [107.86841, 21.51364], [107.8628, 21.53022], [107.85597, 21.52094], [107.8479, 21.49312], [107.83595, 21.48836], [107.82887, 21.49494], [107.82667, 21.52668], [107.813, 21.52045], [107.82056, 21.49312], [107.81301, 21.49312], [107.8069, 21.50678], [107.80006, 21.49935], [107.79624, 21.51948], [107.78346, 21.52432], [107.75221, 21.51362], [107.75221, 21.50678], [107.78013, 21.50315], [107.78858, 21.49445], [107.79256, 21.48014], [107.7789, 21.48566], [107.78637, 21.45841], [107.77564, 21.45856], [107.76181, 21.45075], [107.75856, 21.44473], [107.76521, 21.43854], [107.74854, 21.41121], [107.72145, 21.41087], [107.71151, 21.39892], [107.69833, 21.39839], [107.68418, 21.40327], [107.67652, 21.4112], [107.66904, 21.4112], [107.66285, 21.40375], [107.66943, 21.38544], [107.66342, 21.37809], [107.65024, 21.37686], [107.63502, 21.38325], [107.64233, 21.36279], [107.6312, 21.35448], [107.64232, 21.34228], [107.62135, 21.33552], [107.62874, 21.3287], [107.60817, 21.33552], [107.59929, 21.29899], [107.59058, 21.2939], [107.5623, 21.29803], [107.55423, 21.30436], [107.53517, 21.34536], [107.52231, 21.34854], [107.52882, 21.32323], [107.52516, 21.30756], [107.53743, 21.30195], [107.52662, 21.29877], [107.47238, 21.30365], [107.46169, 21.30928], [107.4568, 21.31834], [107.41529, 21.32868], [107.40903, 21.31501], [107.44312, 21.29389], [107.44311, 21.28766], [107.42359, 21.27962], [107.39161, 21.28042], [107.36744, 21.27338], [107.37329, 21.25898], [107.36061, 21.23924], [107.35888, 21.20307], [107.35434, 21.19147], [107.3707, 21.18163], [107.38843, 21.18462], [107.37556, 21.11638], [107.36061, 21.10212], [107.36744, 21.08788], [107.35434, 21.08222], [107.36435, 21.04035], [107.37427, 21.03383], [107.37427, 21.02758], [107.35751, 21.01512], [107.33383, 21.00585], [107.29233, 21.00462], [107.27955, 20.99971], [107.26645, 21.0043], [107.24529, 21.00308], [107.21119, 20.99226], [107.23111, 20.98603], [107.23112, 20.9792], [107.21485, 20.97525], [107.19337, 20.9527], [107.19702, 20.93766], [107.1609, 20.93245], [107.14918, 20.93765], [107.14918, 20.93083], [107.1338, 20.94481], [107.08497, 20.95141], [107.06609, 20.95873], [107.06609, 20.96491], [107.09522, 21.00047], [107.14918, 21.03384], [107.14918, 21.04059], [107.11118, 21.03311], [107.10133, 21.02757], [107.09246, 21.00825], [107.08377, 21.00585], [107.07977, 21.00912], [107.08717, 21.02757], [107.08033, 21.03384], [107.07228, 21.01708], [107.06324, 21.00936], [107.05763, 21.01386], [107.05982, 21.03384], [107.05299, 21.03384], [107.0525, 21.01366], [107.04615, 20.99972], [107.04461, 21.02509], [107.03793, 21.03217], [107.02564, 21.03384], [107.02564, 21.02757], [107.03932, 21.01337], [107.02564, 21.01337], [107.03931, 20.99971], [107.01564, 21.00434], [106.99781, 21.02017], [106.99545, 21.00642], [107.02082, 20.98642], [107.02564, 20.97236], [107.01678, 20.95767], [107.00098, 20.95108], [106.94695, 20.95429], [106.91898, 20.96591], [106.88461, 20.99323], [106.87338, 20.99714], [106.86744, 20.98603], [106.86354, 20.9916], [106.85377, 20.99225], [106.88282, 20.96052], [106.92205, 20.93765], [106.93238, 20.91519], [106.94311, 20.9103], [106.94311, 20.90352], [106.90171, 20.90787], [106.8816, 20.93765], [106.87428, 20.93765], [106.87843, 20.92121], [106.88795, 20.91031], [106.86793, 20.88273], [106.85988, 20.8894], [106.85222, 20.90998], [106.83327, 20.92397], [106.83668, 20.92914], [106.83326, 20.93765], [106.806, 20.93207], [106.78326, 20.94255], [106.77247, 20.95742], [106.78883, 20.9649], [106.8169, 20.96947], [106.82065, 20.97602], [106.81959, 20.98603], [106.80243, 20.99519], [106.79869, 21.00194], [106.81218, 21.01337], [106.79811, 21.02481], [106.77858, 21.02757], [106.78518, 21.01339], [106.76238, 21.01533], [106.7308, 21.02985], [106.7103, 21.02017], [106.7103, 21.01337], [106.71777, 21.01337], [106.71777, 21.00586], [106.6587, 21.02485], [106.6421, 21.02017], [106.68295, 21.00585], [106.68294, 20.99972], [106.65577, 21.00584], [106.67628, 20.95873], [106.6867, 20.9527], [106.71192, 20.95156], [106.75514, 20.93854], [106.75668, 20.9079], [106.74448, 20.883], [106.73829, 20.883], [106.71778, 20.90351], [106.69996, 20.88276], [106.70753, 20.87075], [106.74448, 20.84886], [106.75294, 20.82575], [106.74919, 20.80435], [106.73657, 20.795], [106.71778, 20.80785], [106.72462, 20.79002], [106.75563, 20.75121], [106.77247, 20.73896], [106.7787, 20.74622], [106.78882, 20.73053], [106.8059, 20.67758], [106.78504, 20.69242], [106.7671, 20.71345], [106.74146, 20.698], [106.71697, 20.69132], [106.66261, 20.69798], [106.66261, 20.69115], [106.70288, 20.67157], [106.70312, 20.65966], [106.66998, 20.63661], [106.63754, 20.62809], [106.62094, 20.62979], [106.61232, 20.63548], [106.59816, 20.6551], [106.58676, 20.66328], [106.59938, 20.63841], [106.61427, 20.6223], [106.62719, 20.61662], [106.62487, 20.59485], [106.60475, 20.58442], [106.58252, 20.56518], [106.51857, 20.54096], [106.53614, 20.53164], [106.55063, 20.53242], [106.57991, 20.54718], [106.57991, 20.54096], [106.56772, 20.52489], [106.58447, 20.49604], [106.57992, 20.47827], [106.53696, 20.46206], [106.51857, 20.43732], [106.5617, 20.45506], [106.58423, 20.45782], [106.59424, 20.44818], [106.59058, 20.40473], [106.58415, 20.38183], [106.57309, 20.36848], [106.56642, 20.38272], [106.56568, 20.37645], [106.55958, 20.37592], [106.57764, 20.35895], [106.59258, 20.27541], [106.58164, 20.26419], [106.53696, 20.30915], [106.52166, 20.31346], [106.49806, 20.30825], [106.50489, 20.29743], [106.51295, 20.29442], [106.52052, 20.29841], [106.52475, 20.30825], [106.54851, 20.29145], [106.57231, 20.24668], [106.5696, 20.232], [106.55427, 20.22466], [106.54103, 20.22607], [106.50491, 20.21703], [106.39503, 20.20458], [106.39503, 20.21198], [106.40187, 20.21198], [106.40187, 20.21821], [106.38071, 20.21198], [106.38071, 20.20458], [106.38794, 20.1975], [106.3602, 20.18407], [106.34033, 20.14998], [106.3055, 20.1086], [106.2837, 20.09463], [106.25928, 20.06127], [106.23618, 20.048], [106.21192, 20.0212], [106.19704, 20.01278], [106.2107, 20.04011], [106.2033, 20.04751], [106.17603, 19.99234], [106.16089, 19.98408], [106.12403, 19.975], [106.10711, 19.96501], [106.10141, 19.97997], [106.11451, 20.03327], [106.10711, 20.03327], [106.0835, 19.96501], [106.05294, 19.97717], [106.03191, 19.99917], [106.02516, 19.99917], [106.00849, 19.97365], [105.95558, 19.92548], [105.94947, 19.90082], [105.95679, 19.87564], [105.9358, 19.84829], [105.92888, 19.79367], [105.91529, 19.80732], [105.90874, 19.79672], [105.86744, 19.77318], [105.87371, 19.76569], [105.92887, 19.78001], [105.92334, 19.76679], [105.90545, 19.7438], [105.90161, 19.72822], [105.89527, 19.72135], [105.86695, 19.7211], [105.85596, 19.69164], [105.82594, 19.64224], [105.82389, 19.59895], [105.81902, 19.58762], [105.81756, 19.61001], [105.80388, 19.61302], [105.79086, 19.60346], [105.79176, 19.58759], [105.80543, 19.60871], [105.81471, 19.57441], [105.81901, 19.57392], [105.81934, 19.53669], [105.80812, 19.46076], [105.81274, 19.42318], [105.7986, 19.43057], [105.78491, 19.40327], [105.77125, 19.40949], [105.77125, 19.40327], [105.78256, 19.39436], [105.79176, 19.35489], [105.81006, 19.32148], [105.81274, 19.30704], [105.79176, 19.32071], [105.7986, 19.29963], [105.81079, 19.29963], [105.80876, 19.28018], [105.79753, 19.26733], [105.78102, 19.26488], [105.7723, 19.236], [105.74578, 19.23725], [105.74342, 19.23192], [105.73121, 19.17023], [105.72983, 19.13386], [105.73706, 19.10847], [105.702, 19.09048], [105.69556, 19.08114], [105.6683, 19.08954], [105.64381, 19.06538], [105.62485, 19.02847], [105.61329, 18.98554], [105.63478, 18.90982], [105.66993, 18.87495], [105.69451, 18.86078], [105.71663, 18.85455], [105.71663, 18.84834], [105.70289, 18.83413], [105.69288, 18.84955], [105.67506, 18.85456], [105.68873, 18.82665], [105.72006, 18.82355], [105.75206, 18.78607], [105.75757, 18.77204], [105.74269, 18.73078], [105.75611, 18.71597], [105.75766, 18.69697], [105.75074, 18.66279], [105.77003, 18.67158], [105.76443, 18.75896], [105.78345, 18.74725], [105.79086, 18.68968], [105.82594, 18.5939], [105.87924, 18.51093], [105.91529, 18.47309], [105.94946, 18.47101], [105.95883, 18.43256], [105.97731, 18.40209], [106.00782, 18.37871], [106.04575, 18.33226], [106.09797, 18.29017], [106.11011, 18.27553], [106.11215, 18.26288], [106.09344, 18.25873], [106.10328, 18.25153], [106.16578, 18.26556], [106.18116, 18.2597], [106.23365, 18.22085], [106.27083, 18.20408], [106.29884, 18.16934], [106.34603, 18.13271], [106.354, 18.11469], [106.33692, 18.12067], [106.32407, 18.11807], [106.30633, 18.10049], [106.31935, 18.09422], [106.34033, 18.10049], [106.33448, 18.08861], [106.34669, 18.05947], [106.34986, 18.08364], [106.3602, 18.10049], [106.37078, 18.10561], [106.38412, 18.09984], [106.39503, 18.10049], [106.42238, 18.12835], [106.43481, 18.12351], [106.42237, 18.09422], [106.42774, 18.0729], [106.43898, 18.05199], [106.52474, 17.94961], [106.52474, 17.94343], [106.48439, 17.91547], [106.45527, 17.88196], [106.43605, 17.88198], [106.43605, 17.8745], [106.44703, 17.87214], [106.45101, 17.86571], [106.44288, 17.84658], [106.46063, 17.79963], [106.47006, 17.7482], [106.49805, 17.71064], [106.48951, 17.70258], [106.47853, 17.70352], [106.44874, 17.71601], [106.43556, 17.73945], [106.41066, 17.74702], [106.37452, 17.76529], [106.30665, 17.77192], [106.292, 17.77827], [106.28517, 17.77212], [106.32276, 17.75349], [106.42921, 17.73115], [106.42921, 17.7237], [106.4026, 17.73151], [106.38307, 17.71918], [106.37965, 17.6988], [106.4087, 17.68277], [106.39503, 17.70319], [106.41749, 17.71296], [106.44996, 17.70865], [106.48227, 17.69644], [106.5044, 17.68276], [106.53907, 17.62751], [106.56604, 17.59787], [106.61463, 17.51891], [106.63461, 17.4704], [106.6582, 17.45376], [106.76393, 17.33552], [107.11182, 17.08828], [107.1272, 17.05976], [107.12127, 17.01854], [107.13271, 17.00965], [107.18653, 16.93439], [107.20068, 16.92625], [107.20386, 16.91926], [107.18653, 16.90656], [107.18336, 16.89814], [107.14178, 16.87458], [107.14178, 16.86774], [107.16725, 16.86762], [107.1902, 16.87458], [107.18946, 16.89232], [107.21648, 16.90793], [107.23455, 16.88764], [107.24947, 16.87987], [107.37867, 16.77338], [107.49799, 16.68888], [107.60467, 16.59569], [107.63525, 16.58722], [107.63525, 16.57979], [107.59604, 16.59052], [107.47364, 16.65314], [107.44337, 16.64802], [107.51979, 16.60643], [107.55494, 16.59662], [107.56398, 16.58271], [107.58619, 16.58169], [107.59425, 16.58723], [107.6111, 16.56928], [107.63525, 16.55927], [107.63526, 16.55182], [107.61459, 16.55927], [107.60841, 16.54499], [107.66307, 16.55181], [107.6526, 16.53872], [107.64894, 16.52143], [107.65259, 16.52244], [107.65983, 16.51312], [107.66529, 16.50186], [107.6631, 16.49722], [107.67286, 16.49726], [107.6867, 16.51459], [107.69711, 16.52007], [107.71144, 16.49722], [107.75862, 16.46325], [107.78175, 16.42756], [107.79997, 16.41571], [107.82162, 16.38752], [107.84114, 16.37978], [107.82692, 16.3737], [107.79656, 16.38736], [107.79444, 16.37922], [107.81227, 16.31318], [107.84816, 16.29169], [107.86403, 16.29779], [107.87256, 16.29588], [107.88217, 16.27806], [107.89137, 16.28415], [107.8965, 16.27806], [107.93751, 16.31208], [107.92995, 16.35321], [107.94516, 16.35683], [107.99041, 16.32477], [108.01197, 16.31904], [108.02052, 16.32518], [108.03102, 16.34271], [108.04297, 16.34637], [108.05348, 16.30541], [108.09447, 16.23653], [108.06593, 16.25723], [108.05201, 16.26211], [108.04607, 16.24738], [108.05397, 16.23599], [108.09067, 16.22687], [108.10816, 16.23028], [108.15122, 16.21699], [108.20433, 16.21669], [108.18921, 16.19848], [108.15447, 16.17084], [108.14226, 16.14838], [108.14283, 16.11937], [108.15992, 16.10375], [108.18197, 16.09137], [108.19752, 16.07201], [108.22076, 16.0915], [108.22829, 16.08973], [108.23854, 16.05219], [108.23332, 16.0373], [108.22291, 16.02289], [108.19752, 16.00373], [108.24985, 16.02326], [108.25896, 16.01056], [108.2492, 16.06192], [108.24195, 16.07575], [108.24732, 16.12324], [108.22488, 16.12727], [108.22487, 16.13471], [108.23862, 16.14672], [108.24538, 16.162], [108.25416, 16.15664], [108.25897, 16.162], [108.26579, 16.162], [108.28631, 16.14452], [108.31739, 16.13471], [108.33139, 16.15533], [108.34838, 16.13471], [108.31764, 16.11176], [108.31421, 16.09994], [108.30494, 16.10716], [108.27955, 16.10205], [108.2658, 16.10741], [108.25856, 16.07099], [108.26531, 16.03156], [108.27914, 15.99567], [108.30592, 15.95523], [108.35865, 15.91543], [108.38818, 15.89838], [108.39617, 15.88085], [108.38526, 15.87889], [108.37517, 15.86945], [108.3825, 15.86717], [108.40266, 15.88238], [108.40991, 15.88084], [108.42408, 15.80573], [108.45533, 15.74702], [108.61866, 15.52924], [108.64625, 15.51386], [108.68343, 15.51776], [108.67449, 15.48941], [108.66776, 15.48268], [108.65626, 15.49665], [108.6294, 15.48652], [108.62094, 15.47476], [108.62892, 15.45571], [108.65252, 15.43879], [108.66847, 15.44782], [108.69092, 15.49041], [108.6971, 15.49041], [108.70395, 15.44514], [108.7435, 15.40729], [108.77295, 15.38678], [108.77361, 15.35126], [108.7798, 15.33959], [108.77296, 15.32534], [108.7798, 15.32534], [108.78712, 15.34584], [108.8213, 15.34585], [108.8213, 15.35269], [108.79624, 15.35639], [108.78858, 15.37417], [108.79559, 15.39508], [108.81446, 15.4079], [108.81446, 15.41474], [108.80017, 15.429], [108.81471, 15.42357], [108.82748, 15.42901], [108.83904, 15.37434], [108.88281, 15.33616], [108.88103, 15.29914], [108.88657, 15.2862], [108.92433, 15.25641], [108.95166, 15.25023], [108.93295, 15.22721], [108.91977, 15.22211], [108.90333, 15.22289], [108.90333, 15.21548], [108.91961, 15.21524], [108.92431, 15.20183], [108.91, 15.2093], [108.89772, 15.154], [108.8816, 15.16063], [108.86818, 15.15965], [108.86248, 15.15249], [108.8698, 15.14037], [108.88412, 15.14395], [108.89226, 15.14134], [108.89747, 15.13321], [108.89772, 15.11986], [108.90333, 15.11986], [108.91, 15.14661], [108.9192, 15.05781], [108.94264, 14.97956], [109.00561, 14.83878], [108.98552, 14.83662], [108.99024, 14.83063], [109.01245, 14.82196], [109.03696, 14.78364], [109.08081, 14.72947], [109.08604, 14.7155], [109.09505, 14.66744], [109.08668, 14.67133], [109.07643, 14.68561], [109.0818, 14.60639], [109.08821, 14.58926], [109.0861, 14.58528], [109.07667, 14.58568], [109.06105, 14.56371], [109.06707, 14.55073], [109.07447, 14.5786], [109.10816, 14.48872], [109.12573, 14.46539], [109.13021, 14.4516], [109.12916, 14.39741], [109.13648, 14.36685], [109.14967, 14.33845], [109.19059, 14.29124], [109.20117, 14.23603], [109.19093, 14.22053], [109.20525, 14.1861], [109.239, 14.13301], [109.22022, 14.13524], [109.19752, 14.16779], [109.17449, 14.17206], [109.17262, 14.15656], [109.18409, 14.1363], [109.21507, 14.11959], [109.22542, 14.10398], [109.25268, 14.03262], [109.26637, 13.92072], [109.27516, 13.90672], [109.3016, 13.8858], [109.30737, 13.87637], [109.30047, 13.7978], [109.30396, 13.75927], [109.29574, 13.75561], [109.26979, 13.75561], [109.26743, 13.7663], [109.2732, 13.82453], [109.25148, 13.89094], [109.23902, 13.87979], [109.23218, 13.83198], [109.22071, 13.80614], [109.23218, 13.81085], [109.23951, 13.78766], [109.2461, 13.77961], [109.25896, 13.77733], [109.22625, 13.7436], [109.22478, 13.72211], [109.23897, 13.69158], [109.24138, 13.64403], [109.24757, 13.62271], [109.25717, 13.60562], [109.28248, 13.58515], [109.30046, 13.5781], [109.30381, 13.56901], [109.30347, 13.56221], [109.29831, 13.55864], [109.28679, 13.5576], [109.29419, 13.53037], [109.26344, 13.57705], [109.25294, 13.60163], [109.22608, 13.6319], [109.21852, 13.64696], [109.21119, 13.64696], [109.21013, 13.6308], [109.23219, 13.61225], [109.24529, 13.57123], [109.26743, 13.55467], [109.26246, 13.54393], [109.25896, 13.54462], [109.28679, 13.50922], [109.2942, 13.50922], [109.3142, 13.52288], [109.30226, 13.50153], [109.30372, 13.47988], [109.31218, 13.47163], [109.32325, 13.46979], [109.33464, 13.47572], [109.33968, 13.46548], [109.33131, 13.45209], [109.33464, 13.44091], [109.32505, 13.42247], [109.30739, 13.40682], [109.29916, 13.41747], [109.27752, 13.42163], [109.27322, 13.43106], [109.27809, 13.43793], [109.29819, 13.44843], [109.30047, 13.46137], [109.26254, 13.48932], [109.24513, 13.48518], [109.23219, 13.46137], [109.23755, 13.45319], [109.23463, 13.43708], [109.24528, 13.42723], [109.23756, 13.42007], [109.23219, 13.39313], [109.24935, 13.3847], [109.26637, 13.3618], [109.28004, 13.35277], [109.29103, 13.3631], [109.29932, 13.36468], [109.30737, 13.35277], [109.30567, 13.3339], [109.28679, 13.33104], [109.29427, 13.31464], [109.2942, 13.29757], [109.2732, 13.31061], [109.26856, 13.30183], [109.25896, 13.29755], [109.27263, 13.26325], [109.2942, 13.2355], [109.2928, 13.26702], [109.29624, 13.27887], [109.30738, 13.28388], [109.30372, 13.30317], [109.30811, 13.30363], [109.31811, 13.28888], [109.32104, 13.25902], [109.30738, 13.22866], [109.31421, 13.19794], [109.30421, 13.15062], [109.30738, 13.13304], [109.3313, 13.09376], [109.32838, 13.08466], [109.34945, 13.06826], [109.37013, 13.03181], [109.45826, 12.92405], [109.46501, 12.91331], [109.46726, 12.89791], [109.45817, 12.85188], [109.43093, 12.84513], [109.4284, 12.85212], [109.45004, 12.87324], [109.43824, 12.87861], [109.41725, 12.86494], [109.40349, 12.83821], [109.3777, 12.83242], [109.36883, 12.82461], [109.37549, 12.81635], [109.37623, 12.77619], [109.42075, 12.69131], [109.43621, 12.67422], [109.45134, 12.67376], [109.47241, 12.6564], [109.46997, 12.64864], [109.45135, 12.63898], [109.45133, 12.57075], [109.44013, 12.56476], [109.42995, 12.57588], [109.41725, 12.60546], [109.40512, 12.61799], [109.40351, 12.62881], [109.42408, 12.64643], [109.42408, 12.65265], [109.40349, 12.68744], [109.396, 12.67309], [109.37623, 12.67377], [109.38151, 12.6564], [109.37622, 12.63899], [109.36354, 12.65624], [109.34207, 12.66011], [109.36257, 12.69049], [109.38559, 12.70246], [109.3899, 12.71162], [109.3864, 12.72753], [109.36257, 12.76252], [109.36256, 12.79291], [109.3589, 12.79731], [109.34783, 12.79483], [109.33838, 12.7731], [109.30397, 12.75088], [109.25553, 12.69926], [109.23357, 12.68708], [109.20493, 12.64643], [109.20801, 12.59805], [109.20045, 12.59125], [109.20493, 12.55024], [109.2116, 12.54804], [109.21119, 12.5434], [109.21852, 12.5434], [109.22788, 12.57452], [109.23902, 12.57758], [109.23902, 12.58373], [109.2322, 12.58373], [109.2322, 12.59124], [109.24902, 12.58551], [109.24707, 12.57197], [109.23219, 12.54035], [109.23715, 12.52228], [109.24936, 12.50951], [109.29834, 12.47796], [109.30355, 12.46963], [109.29347, 12.44904], [109.29851, 12.43081], [109.3365, 12.41027], [109.34594, 12.39631], [109.33465, 12.38573], [109.34189, 12.37874], [109.33465, 12.37215], [109.32252, 12.38605], [109.30908, 12.36006], [109.29737, 12.35103], [109.28226, 12.3561], [109.25896, 12.39256], [109.2155, 12.44017], [109.18507, 12.45893], [109.1565, 12.45466], [109.17016, 12.43355], [109.14967, 12.44037], [109.15463, 12.42691], [109.17693, 12.3994], [109.19642, 12.40259], [109.20654, 12.38715], [109.21412, 12.33291], [109.22926, 12.31371], [109.24202, 12.3054], [109.24219, 12.29658], [109.23634, 12.2911], [109.21852, 12.29637], [109.20492, 12.26289], [109.17693, 12.27652], [109.18246, 12.26781], [109.21118, 12.2486], [109.20484, 12.23339], [109.22476, 12.20085], [109.1985, 12.20795], [109.18824, 12.20576], [109.18434, 12.194], [109.1906, 12.20083], [109.20436, 12.19379], [109.20964, 12.18602], [109.2142, 12.1586], [109.22681, 12.13789], [109.21119, 12.11823], [109.20997, 12.10969], [109.21388, 12.0681], [109.22055, 12.05061], [109.2492, 11.99738], [109.28678, 11.96743], [109.28345, 11.94014], [109.26637, 11.92646], [109.26588, 11.9099], [109.27084, 11.89501], [109.28077, 11.88394], [109.29419, 11.87864], [109.29419, 11.87125], [109.27784, 11.86483], [109.26165, 11.8657], [109.24758, 11.87296], [109.23902, 11.88544], [109.22479, 11.87866], [109.21657, 11.90884], [109.22267, 11.98164], [109.21119, 12.01582], [109.21852, 12.01582], [109.19581, 12.0749], [109.18621, 12.11774], [109.17677, 12.12946], [109.16334, 12.11201], [109.18214, 12.08104], [109.17693, 12.05305], [109.18238, 12.04287], [109.20582, 12.02163], [109.21119, 12.0056], [109.20818, 11.97663], [109.19873, 11.94815], [109.18181, 11.9217], [109.1565, 11.89912], [109.13722, 11.89606], [109.12582, 11.86359], [109.1316, 11.83002], [109.16334, 11.82404], [109.19777, 11.86928], [109.20491, 11.8681], [109.19288, 11.82754], [109.20492, 11.81037], [109.20362, 11.78457], [109.24292, 11.73566], [109.23219, 11.7142], [109.22478, 11.72163], [109.21778, 11.7141], [109.20899, 11.69368], [109.19125, 11.67194], [109.18432, 11.6385], [109.16041, 11.61644], [109.15397, 11.59681], [109.13599, 11.57023], [109.12917, 11.57023], [109.1172, 11.58027], [109.06707, 11.58382], [109.05567, 11.59665], [109.04347, 11.63849], [109.02027, 11.6328], [109.02174, 11.62031], [109.04038, 11.60151], [109.03403, 11.55956], [109.04036, 11.54288], [109.01246, 11.54287], [109.02783, 11.51748], [109.02833, 11.47459], [109.0193, 11.40632], [109.02246, 11.36762], [109.01807, 11.35591], [109.00579, 11.34382], [108.98048, 11.32357], [108.95167, 11.31014], [108.93336, 11.31119], [108.87387, 11.33389], [108.83806, 11.33076], [108.8213, 11.32372], [108.77516, 11.28848], [108.75782, 11.2578], [108.74554, 11.20692], [108.73804, 11.18969], [108.72934, 11.18155], [108.70053, 11.17916], [108.65626, 11.19282], [108.61524, 11.17916], [108.5774, 11.17915], [108.55941, 11.16243], [108.53126, 11.15327], [108.50034, 11.12084], [108.49171, 11.10468], [108.48193, 11.06404], [108.47249, 11.05334], [108.43914, 11.0467], [108.40357, 11.02897], [108.36883, 11.02277], [108.34497, 10.95381], [108.32521, 10.95156], [108.31544, 10.94432], [108.30005, 10.91284], [108.29372, 10.91284], [108.28533, 10.94334], [108.25864, 10.95181], [108.13502, 10.92768], [108.10646, 10.91816], [108.08911, 10.89204], [108.06568, 10.86799], [108.04298, 10.81391], [108.0354, 10.77278], [107.9983, 10.69938], [107.91944, 10.7211], [107.88234, 10.71699], [107.8239, 10.69237], [107.7685, 10.65031], [107.73129, 10.63788], [107.66627, 10.60375], [107.62135, 10.5926], [107.58058, 10.57026], [107.5442, 10.5362], [107.53052, 10.51293], [107.51116, 10.50155], [107.42985, 10.46854], [107.38461, 10.46284], [107.34498, 10.45044], [107.33416, 10.45356], [107.29664, 10.41572], [107.27198, 10.3785], [107.25441, 10.3789], [107.21632, 10.40156], [107.19021, 10.40519], [107.195, 10.41405], [107.21168, 10.41938], [107.21754, 10.42561], [107.21697, 10.43448], [107.20541, 10.45067], [107.17596, 10.47744], [107.14178, 10.48086], [107.14176, 10.46663], [107.13574, 10.46662], [107.12273, 10.48021], [107.10279, 10.48994], [107.0818, 10.4916], [107.06609, 10.48087], [107.05983, 10.48087], [107.06324, 10.49506], [107.05982, 10.5082], [107.05047, 10.48847], [107.03192, 10.47408], [107.02564, 10.50137], [107.011, 10.49413], [106.99781, 10.48087], [106.99147, 10.48087], [106.9944, 10.49665], [107.02564, 10.51504], [107.03272, 10.52595], [107.03191, 10.60749], [107.0114, 10.63788], [107.02564, 10.63105], [107.02369, 10.65632], [107.01319, 10.67268], [106.98414, 10.69937], [106.97975, 10.68476], [107.0114, 10.65526], [107.00262, 10.63044], [107.00245, 10.61709], [107.02508, 10.60391], [107.02272, 10.58759], [107.0114, 10.56281], [107.02687, 10.54418], [107.02564, 10.53547], [107.01904, 10.53389], [106.99781, 10.54914], [107.00514, 10.55598], [106.99147, 10.57026], [106.99822, 10.59724], [106.99781, 10.6249], [106.99147, 10.62491], [106.98487, 10.59683], [106.98414, 10.56688], [106.99195, 10.54011], [107.01139, 10.52187], [106.9944, 10.51288], [106.97217, 10.47428], [106.96363, 10.46663], [106.95721, 10.47168], [106.96363, 10.50137], [106.95932, 10.51187], [106.94313, 10.52928], [106.93776, 10.54873], [106.94313, 10.60065], [106.8816, 10.65217], [106.84864, 10.63556], [106.82862, 10.63028], [106.81422, 10.65217], [106.78582, 10.68012], [106.77247, 10.68635], [106.74757, 10.67365], [106.73683, 10.65815], [106.7588, 10.6413], [106.77247, 10.60375], [106.76905, 10.59227], [106.75196, 10.57648], [106.7334, 10.52246], [106.6886, 10.50366], [106.67237, 10.50422], [106.66261, 10.52188], [106.65577, 10.52188], [106.65919, 10.50707], [106.6687, 10.49454], [106.6465, 10.48664], [106.63803, 10.47899], [106.63038, 10.45869], [106.59425, 10.43928], [106.59213, 10.4687], [106.57993, 10.48774], [106.58188, 10.45279], [106.58676, 10.43871], [106.59742, 10.43305], [106.61541, 10.43659], [106.63006, 10.44579], [106.64894, 10.47407], [106.65575, 10.47407], [106.66293, 10.44391], [106.67018, 10.43256], [106.68979, 10.43305], [106.71364, 10.46808], [106.72413, 10.47405], [106.74105, 10.46799], [106.78809, 10.39313], [106.79541, 10.30683], [106.79077, 10.28486], [106.77556, 10.27539], [106.70411, 10.28905], [106.59832, 10.28852], [106.52524, 10.30256], [106.48731, 10.30278], [106.43767, 10.32185], [106.42237, 10.31696], [106.48032, 10.28083], [106.72064, 10.19977], [106.76515, 10.16767], [106.78584, 10.16488], [106.79761, 10.15721], [106.79712, 10.1254], [106.79126, 10.11018], [106.73706, 10.05415], [106.72087, 10.04492], [106.70413, 10.0489], [106.70924, 10.05663], [106.70834, 10.07526], [106.70411, 10.08365], [106.69663, 10.08365], [106.69205, 10.06642], [106.67677, 10.04922], [106.66871, 10.03242], [106.68408, 10.01203], [106.66424, 10.00609], [106.64893, 9.97436], [106.60743, 9.97485], [106.59108, 9.98079], [106.54786, 10.01537], [106.49806, 10.03584], [106.4691, 10.05884], [106.44321, 10.08979], [106.35987, 10.22069], [106.33123, 10.2495], [106.292, 10.2617], [106.3379, 10.22809], [106.34938, 10.21483], [106.35816, 10.17658], [106.3685, 10.15591], [106.46168, 10.03571], [106.48439, 10.01533], [106.56153, 9.97914], [106.61427, 9.93903], [106.67058, 9.90941], [106.68637, 9.90545], [106.69629, 9.89655], [106.6932, 9.87641], [106.68256, 9.85532], [106.66871, 9.84286], [106.67644, 9.86677], [106.66871, 9.88373], [106.66261, 9.88373], [106.65789, 9.84862], [106.63786, 9.82601], [106.61134, 9.81705], [106.58677, 9.82295], [106.56333, 9.84179], [106.5044, 9.90546], [106.39503, 9.97436], [106.14487, 10.22858], [106.12135, 10.24067], [106.11329, 10.23428], [106.13502, 10.22016], [106.15789, 10.19538], [106.16601, 10.18109], [106.17286, 10.14753], [106.19337, 10.12027], [106.28345, 10.05045], [106.31251, 10.00796], [106.36931, 9.95693], [106.38893, 9.93281], [106.47587, 9.86168], [106.50112, 9.83382], [106.51856, 9.80182], [106.52752, 9.76219], [106.53785, 9.75117], [106.563, 9.74721], [106.57495, 9.73907], [106.58057, 9.69999], [106.57552, 9.64863], [106.56315, 9.61433], [106.54371, 9.58503], [106.51839, 9.56279], [106.48511, 9.54716], [106.46437, 9.55476], [106.43946, 9.54118], [106.39821, 9.54207], [106.38503, 9.5483], [106.33717, 9.5847], [106.25019, 9.63131], [106.06494, 9.80405], [105.97047, 9.92084], [105.93287, 9.95539], [105.90406, 9.97647], [105.86948, 9.98535], [105.83806, 10.00503], [105.81902, 10.00796], [105.83839, 9.97944], [106.0735, 9.74795], [106.09295, 9.69294], [106.20362, 9.52684], [106.21069, 9.47004], [106.20581, 9.45735], [106.1692, 9.4182], [106.19458, 9.39899], [106.19563, 9.37886], [105.88366, 9.36968], [105.81307, 9.37917], [105.74568, 9.40217], [105.68444, 9.43754], [105.65653, 9.45964], [105.63063, 9.48468], [105.59181, 9.53461], [105.71318, 9.58464], [105.71217, 9.59469], [105.66223, 9.64384], [105.65102, 9.64508], [105.62951, 9.62871], [105.58319, 9.57838], [105.54244, 9.51967], [105.52195, 9.47875], [105.6055, 9.41897], [105.65373, 9.3662], [105.69022, 9.30583], [105.70393, 9.27307], [105.72213, 9.19701], [105.53875, 9.12934], [105.51417, 9.10859], [105.47022, 9.06196], [105.44361, 9.04149], [105.43295, 9.02831], [105.42618, 9.00816], [105.40821, 9.00056], [105.4081, 8.97983], [105.3341, 8.83993], [105.31493, 8.81202], [105.29318, 8.78786], [105.25881, 8.76048], [105.21675, 8.75451], [105.18403, 8.74088], [105.15441, 8.70586], [105.12635, 8.66015], [105.10147, 8.63428], [104.85621, 8.56559], [104.83278, 8.56917], [104.81479, 8.58112], [104.75199, 8.59085], [104.72292, 8.6027], [104.72024, 8.61375], [104.7593, 8.61562], [104.83513, 8.66047], [104.83904, 8.67097], [104.83416, 8.68098], [104.81953, 8.69086], [104.83278, 8.69887], [104.91163, 8.68521], [104.94239, 8.69644], [104.95639, 8.70742], [104.96314, 8.71939], [104.90748, 8.69961], [104.87615, 8.69921], [104.85319, 8.71277], [104.84841, 8.72358], [104.8528, 8.72918], [104.91212, 8.73534], [104.92897, 8.7473], [104.91913, 8.77046], [104.9163, 8.79024], [104.92156, 8.80931], [104.85792, 8.78145], [104.81666, 8.77132], [104.79168, 8.78407], [104.77461, 8.81787], [104.81172, 8.93705], [104.80708, 9.04542], [104.81104, 9.13244], [104.8191, 9.19294], [104.83562, 9.55612], [104.85657, 9.73804], [104.8928, 9.85108], [104.93943, 9.84957], [104.96998, 9.85366], [104.97691, 9.87124], [104.99334, 9.88812], [105.05507, 9.93351], [105.07667, 9.94341], [105.08667, 9.93593], [105.11329, 9.85708], [105.10711, 9.9086], [105.10711, 9.9527], [105.10043, 9.97411], [105.08766, 9.99673], [105.04265, 10.05508], [105.00327, 10.09211], [104.98365, 10.10346], [104.96388, 10.10586], [104.92433, 10.09627], [104.90086, 10.09743], [104.86891, 10.11612], [104.80486, 10.2071], [104.77198, 10.22663], [104.73854, 10.23139], [104.70737, 10.22232], [104.68133, 10.19969], [104.67562, 10.17488], [104.65838, 10.16804], [104.65088, 10.14449], [104.61305, 10.14449], [104.60769, 10.15351], [104.61354, 10.16738], [104.61305, 10.17919], [104.59261, 10.21006], [104.58888, 10.26089], [104.57936, 10.27485], [104.55152, 10.29588], [104.54541, 10.28222], [104.53737, 10.28222], [104.5359, 10.30956], [104.50377, 10.35737], [104.49911, 10.37039], [104.51743, 10.37849], [104.52508, 10.38984], [104.53053, 10.40908], [104.52491, 10.41942], [104.51743, 10.41942], [104.49918, 10.392], [104.48585, 10.3833], [104.46957, 10.37849], [104.45363, 10.37984], [104.45582, 10.40717], [104.45136, 10.41966], [104.46957, 10.41577], [104.48373, 10.41805], [104.49427, 10.42774], [104.55401, 10.51833], [104.56683, 10.52807], [104.58254, 10.53153], [104.62553, 10.53336], [104.77384, 10.51533], [104.8188, 10.51719], [104.85441, 10.53132], [104.87854, 10.55597], [104.91973, 10.61801], [104.93135, 10.6307], [104.94432, 10.64163], [105.04246, 10.69082], [105.06674, 10.71395], [105.06623, 10.74643], [105.03047, 10.81164], [105.01481, 10.84921], [105.0114, 10.88383], [105.01786, 10.89959], [105.02907, 10.91409], [105.05579, 10.93546], [105.07791, 10.9469], [105.08375, 10.94262], [105.08607, 10.92951], [105.09754, 10.91435], [105.2533, 10.88352], [105.30301, 10.84402], [105.31789, 10.83885], [105.3275, 10.84828], [105.35727, 10.90797], [105.39789, 10.95458], [105.4105, 10.963], [105.47385, 10.94091], [105.63219, 10.97396], [105.65492, 10.98429], [105.6973, 11.01023], [105.72614, 11.01837], [105.7529, 11.01561], [105.7697, 10.99646], [105.78742, 10.96597], [105.82143, 10.91967], [105.84752, 10.85541], [105.86101, 10.83931], [105.87868, 10.82807], [105.89936, 10.82838], [105.90866, 10.83838], [105.92984, 10.88006], [105.93134, 10.89636], [105.96467, 10.8696], [105.99258, 10.83782], [106.0179, 10.81981], [106.0457, 10.80585], [106.07221, 10.79686], [106.12885, 10.79136], [106.15505, 10.78485], [106.17732, 10.76686], [106.15159, 10.86298], [106.12694, 10.909], [106.12182, 10.92523], [106.12466, 10.95318], [106.12249, 10.95551], [106.13143, 10.96928], [106.18084, 10.97026], [106.18786, 10.97631], [106.17665, 10.9962], [106.16032, 11.05351], [106.14874, 11.07072], [106.13086, 11.08423], [106.1135, 11.08692], [106.0981, 11.0779], [106.08663, 11.05633], [106.0765, 11.07703], [106.06307, 11.09333], [106.02813, 11.12266], [106.01315, 11.13927], [105.98876, 11.17697], [105.97398, 11.19038], [105.92044, 11.20332], [105.89987, 11.21859], [105.88943, 11.24624], [105.88675, 11.26794], [105.87352, 11.2759], [105.85719, 11.27996], [105.84442, 11.28988], [105.84344, 11.30409], [105.87383, 11.42824], [105.87217, 11.44346], [105.85667, 11.49628], [105.85884, 11.52232], [105.85321, 11.54687], [105.84215, 11.55496], [105.81554, 11.55976], [105.80334, 11.56622], [105.79042, 11.58741], [105.79342, 11.6073], [105.80489, 11.62492], [105.84086, 11.65815], [105.85791, 11.66156], [105.9055, 11.6443], [105.93408, 11.64286], [105.94617, 11.65707], [105.95527, 11.678], [105.98307, 11.70668], [105.98876, 11.71898], [105.99211, 11.74631], [106.01542, 11.7705], [106.06121, 11.7629], [106.11319, 11.74709], [106.15464, 11.74631], [106.22362, 11.72497], [106.24321, 11.71458], [106.26512, 11.68399], [106.27411, 11.67681], [106.28734, 11.67459], [106.35431, 11.69014], [106.37808, 11.68384], [106.41281, 11.66177], [106.42583, 11.66208], [106.43503, 11.67727], [106.42609, 11.70048], [106.39886, 11.74631], [106.39777, 11.76213], [106.41829, 11.80342], [106.42139, 11.83757], [106.43875, 11.86372], [106.43312, 11.88837], [106.40351, 11.94289], [106.394, 11.96981], [106.41746, 11.97586], [106.44206, 11.97488], [106.45105, 11.96847], [106.46051, 11.95292], [106.47374, 11.95209], [106.50454, 11.97338], [106.55244, 11.97281], [106.63859, 11.96113], [106.63063, 11.97617], [106.6805, 11.96506], [106.70158, 11.9708], [106.72111, 11.99638], [106.73279, 12.02888], [106.74922, 12.05234], [106.77196, 12.06583], [106.80297, 12.06846], [106.8793, 12.06273], [106.9163, 12.06691], [106.9534, 12.08107], [106.97769, 12.09725], [107.046, 12.16437], [107.07758, 12.20277], [107.11623, 12.23212], [107.12295, 12.24623], [107.15251, 12.27703], [107.21188, 12.30571], [107.27617, 12.3254], [107.3202, 12.32922], [107.34381, 12.31512], [107.37379, 12.26943], [107.39301, 12.25285], [107.41585, 12.25408], [107.44965, 12.29904], [107.47378, 12.31537], [107.49957, 12.32581], [107.5143, 12.34385], [107.52727, 12.39113], [107.55667, 12.47268], [107.55677, 12.49609], [107.54964, 12.50921], [107.55176, 12.52006], [107.56344, 12.54363], [107.56695, 12.57391], [107.56509, 12.60642], [107.54008, 12.71669], [107.53595, 12.79963], [107.52236, 12.82749], [107.4943, 12.85875], [107.48737, 12.87056], [107.47962, 12.91588], [107.46608, 12.95218], [107.46784, 12.96303], [107.48138, 12.98226], [107.48107, 12.98877], [107.47859, 12.99608], [107.46298, 13.00732], [107.4604, 13.02161], [107.60695, 13.36975], [107.61052, 13.40037], [107.60432, 13.49853], [107.59692, 13.53507], [107.5143, 13.69255], [107.44324, 13.78348], [107.43818, 13.79849], [107.43854, 13.80895], [107.44624, 13.83939], [107.43538, 13.8697], [107.44805, 13.90931], [107.44515, 13.92664], [107.43104, 13.956], [107.43073, 13.98447], [107.42448, 13.99406], [107.40903, 13.99992], [107.37156, 13.99628], [107.35456, 14.0024], [107.34314, 14.02062], [107.34686, 14.06167], [107.34475, 14.08131], [107.32418, 14.10808], [107.31994, 14.11984], [107.32475, 14.14387], [107.35859, 14.23862], [107.36376, 14.28324], [107.34991, 14.32156], [107.35177, 14.34197], [107.37942, 14.39545], [107.38691, 14.42191], [107.39487, 14.42909], [107.40779, 14.43305], [107.42381, 14.41897], [107.44314, 14.42367], [107.45574, 14.43388], [107.46474, 14.44904], [107.47673, 14.47524], [107.48572, 14.50953], [107.50525, 14.54103], [107.50401, 14.60211], [107.52727, 14.65283], [107.53243, 14.67794], [107.55817, 14.88672], [107.48949, 14.9403], [107.46195, 14.95681], [107.45394, 14.96787], [107.44991, 14.9811], [107.4514, 14.99593], [107.44469, 15.01182], [107.44557, 15.02539], [107.45507, 15.03412], [107.47378, 15.03575], [107.519, 15.04885], [107.57801, 15.04725], [107.58907, 15.05818], [107.59, 15.0689], [107.5808, 15.08694], [107.58049, 15.09675], [107.58499, 15.1043], [107.6054, 15.1206], [107.61579, 15.13551], [107.62726, 15.19652], [107.63672, 15.20507], [107.64747, 15.19765], [107.65398, 15.19956], [107.66436, 15.25315], [107.66411, 15.26855], [107.65759, 15.28243], [107.64307, 15.29785], [107.59848, 15.33062], [107.58659, 15.34335], [107.57987, 15.36123], [107.5777, 15.39963], [107.57315, 15.41123], [107.55558, 15.41575], [107.51264, 15.40942], [107.49393, 15.42004], [107.48964, 15.43792], [107.48748, 15.48141], [107.47378, 15.48826], [107.46081, 15.48438], [107.44789, 15.50812], [107.44298, 15.50921], [107.43213, 15.50389], [107.40505, 15.50859], [107.38164, 15.48854], [107.36934, 15.49606], [107.31643, 15.58874], [107.30356, 15.59975], [107.26542, 15.61866], [107.24873, 15.63109], [107.23912, 15.64512], [107.22568, 15.71682], [107.2153, 15.72752], [107.16026, 15.75873], [107.14879, 15.77346], [107.15018, 15.79428], [107.17525, 15.84854], [107.18625, 15.8594], [107.1986, 15.86208], [107.21809, 15.8548], [107.23566, 15.85552], [107.30506, 15.89913], [107.32294, 15.90585], [107.36107, 15.91231], [107.37554, 15.91908], [107.39063, 15.93582], [107.41802, 15.98357], [107.44474, 16.00998], [107.44355, 16.01892], [107.43213, 16.0383], [107.43564, 16.06884], [107.43104, 16.0737], [107.41151, 16.07308], [107.35591, 16.05928], [107.32686, 16.05608], [107.29896, 16.06419], [107.27591, 16.08403], [107.23881, 16.12982], [107.21282, 16.14666], [107.16966, 16.1569], [107.14202, 16.177], [107.1275, 16.20098], [107.11685, 16.25462], [107.10827, 16.26748], [107.0891, 16.28107], [107.05339, 16.29523], [107.01432, 16.29942], [106.9673, 16.29988], [106.95655, 16.30707], [106.94601, 16.34614], [106.89774, 16.37854], [106.88844, 16.39089], [106.8763, 16.41802], [106.85987, 16.41182], [106.85588, 16.41466], [106.85589, 16.42034], [106.8626, 16.43057], [106.86684, 16.46385], [106.86405, 16.50406], [106.84669, 16.53005], [106.82286, 16.53098], [106.80142, 16.4961], [106.79734, 16.47946], [106.75915, 16.45248], [106.7546, 16.44427], [106.75253, 16.42902], [106.7424, 16.42153], [106.72571, 16.41714], [106.72256, 16.42163], [106.72266, 16.43249], [106.6929, 16.42789], [106.67068, 16.44442], [106.65517, 16.47083], [106.64117, 16.51036], [106.63967, 16.52178], [106.64432, 16.57532], [106.64019, 16.58664], [106.5914, 16.60245], [106.57244, 16.61356], [106.54975, 16.6378], [106.54066, 16.65914], [106.53508, 16.68353], [106.53342, 16.97266], [106.52454, 16.98925], [106.49684, 16.96393], [106.4372, 16.98046], [106.41137, 16.99571], [106.38713, 17.04718], [106.39493, 17.068], [106.38465, 17.08537], [106.33654, 17.12857], [106.30636, 17.17652], [106.30083, 17.19156], [106.30166, 17.202], [106.30977, 17.21792], [106.31054, 17.22711], [106.28796, 17.25378], [106.28455, 17.28479], [106.27261, 17.28985], [106.25995, 17.28923], [106.24791, 17.26623], [106.22182, 17.24489], [106.2073, 17.24629], [106.18544, 17.2574], [106.0193, 17.3945], [105.91114, 17.51681], [105.84602, 17.598], [105.81988, 17.62156], [105.78742, 17.64208], [105.73528, 17.66404], [105.72309, 17.6735], [105.71384, 17.68946], [105.70123, 17.7276], [105.66981, 17.77308], [105.64397, 17.8201], [105.60521, 17.85426], [105.59415, 17.88811], [105.60604, 17.96412], [105.58981, 17.99575], [105.56614, 18.00826], [105.55932, 18.01534], [105.55188, 18.04794], [105.54651, 18.05895], [105.5125, 18.08282], [105.49607, 18.11815], [105.47602, 18.12732], [105.48088, 18.14481], [105.47282, 18.17199], [105.46672, 18.18096], [105.45142, 18.19272], [105.43137, 18.20054], [105.41003, 18.20189], [105.392, 18.19421], [105.3861, 18.18494], [105.37747, 18.15569], [105.36833, 18.14995], [105.36554, 18.15104], [105.35592, 18.15874], [105.32187, 18.17008], [105.30559, 18.18106], [105.29505, 18.19561], [105.29438, 18.20695], [105.30084, 18.23093], [105.29929, 18.24204], [105.29252, 18.25274], [105.24648, 18.24638], [105.23593, 18.24946], [105.21474, 18.27785], [105.16617, 18.30679], [105.15666, 18.31984], [105.15599, 18.34064], [105.16224, 18.35389], [105.16286, 18.36601], [105.09077, 18.42652], [105.07997, 18.45435], [105.08524, 18.49577], [105.10049, 18.55117], [105.11361, 18.58083], [105.12814, 18.59892], [105.16209, 18.59819], [105.16948, 18.61486], [105.16948, 18.63057], [105.16286, 18.63899], [105.14111, 18.65307], [105.11268, 18.69834], [105.10028, 18.70206], [105.06457, 18.69664], [105.04034, 18.70501], [104.99016, 18.73302], [104.97383, 18.73607], [104.95688, 18.73167], [104.93724, 18.73116], [104.91973, 18.73558], [104.90923, 18.74568], [104.89936, 18.77061], [104.87291, 18.77798], [104.81539, 18.77366], [104.80164, 18.77513], [104.76289, 18.78645], [104.71028, 18.79609], [104.68558, 18.82477], [104.6462, 18.83255], [104.58967, 18.87911], [104.55608, 18.89647], [104.5443, 18.90681], [104.50988, 18.95636], [104.49768, 18.96799], [104.48094, 18.97771], [104.46213, 18.98241], [104.43107, 18.97933], [104.41324, 18.98311], [104.40074, 18.99228], [104.37201, 19.03357], [104.35516, 19.04788], [104.30286, 19.06866], [104.25992, 19.10406], [104.23956, 19.10889], [104.21062, 19.10075], [104.20184, 19.10917], [104.19812, 19.14695], [104.14773, 19.18289], [104.03673, 19.23025], [104.01616, 19.23487], [103.99518, 19.23384], [103.97275, 19.22529], [103.91095, 19.26301], [103.89266, 19.29389], [103.85855, 19.29533], [103.84842, 19.29991], [103.85674, 19.31719], [103.87002, 19.32688], [103.90588, 19.34179], [103.92128, 19.35277], [103.94102, 19.38135], [103.95281, 19.39096], [103.97399, 19.39567], [104.0204, 19.41499], [104.03513, 19.41667], [104.03828, 19.41293], [104.04655, 19.4275], [104.05404, 19.46057], [104.0605, 19.47129], [104.08996, 19.48367], [104.09414, 19.49553], [104.08252, 19.5093], [104.07797, 19.54289], [104.07156, 19.55914], [104.02893, 19.58604], [104.01735, 19.60041], [103.99766, 19.65252], [103.99518, 19.6649], [104.00097, 19.68074], [104.01027, 19.68456], [104.02174, 19.68144], [104.0697, 19.65803], [104.08872, 19.6519], [104.10923, 19.65487], [104.11719, 19.661], [104.12448, 19.67591], [104.13631, 19.68746], [104.15817, 19.68774], [104.22897, 19.70601], [104.24214, 19.69518], [104.27702, 19.68389], [104.29527, 19.65487], [104.34188, 19.68301], [104.36002, 19.68746], [104.38007, 19.68528], [104.39175, 19.67684], [104.41541, 19.65082], [104.50585, 19.60281], [104.5228, 19.59937], [104.54616, 19.60193], [104.57923, 19.61803], [104.60496, 19.60648], [104.61426, 19.60743], [104.62305, 19.61808], [104.65478, 19.69797], [104.67597, 19.72469], [104.69168, 19.73546], [104.73674, 19.74567], [104.76072, 19.76652], [104.78521, 19.77693], [104.805, 19.79089], [104.81508, 19.82241], [104.81663, 19.84809], [104.80924, 19.85367], [104.79028, 19.85967], [104.76072, 19.86145], [104.75555, 19.86701], [104.7618, 19.88551], [104.78066, 19.90809], [104.83534, 19.93889], [104.85792, 19.95522], [104.87384, 19.98266], [104.8929, 19.9855], [104.92246, 19.98224], [104.93569, 19.98416], [104.94949, 19.9955], [104.95321, 20.00927], [104.94396, 20.0671], [104.96117, 20.07211], [104.96442, 20.07609], [104.95688, 20.0918], [104.91838, 20.11572], [104.90489, 20.13464], [104.90345, 20.15709], [104.90898, 20.16781], [104.90799, 20.17533], [104.81916, 20.22099], [104.7788, 20.21902], [104.73359, 20.20476], [104.69085, 20.19655], [104.65705, 20.21269], [104.65302, 20.22579], [104.65354, 20.26646], [104.65736, 20.27962], [104.66584, 20.28571], [104.68186, 20.28747], [104.68863, 20.30104], [104.68465, 20.33305], [104.68093, 20.34098], [104.66641, 20.35178], [104.62842, 20.36581], [104.6123, 20.37674], [104.58936, 20.40682], [104.57551, 20.41405], [104.43236, 20.41106], [104.39154, 20.42067], [104.35981, 20.43973], [104.36642, 20.45849], [104.42379, 20.49544], [104.44497, 20.53461], [104.46968, 20.51616], [104.49582, 20.51193], [104.52073, 20.51927], [104.54264, 20.5357], [104.60724, 20.61905], [104.6152, 20.64649], [104.60073, 20.66055], [104.54388, 20.67874], [104.49231, 20.7021], [104.47567, 20.71822], [104.46616, 20.74964], [104.45262, 20.76359], [104.40932, 20.76519], [104.38906, 20.77098], [104.38167, 20.77837], [104.36798, 20.80312], [104.33635, 20.81904], [104.32322, 20.83387], [104.3072, 20.86462], [104.29527, 20.87981], [104.27894, 20.89154], [104.26002, 20.89893], [104.22106, 20.89201], [104.20711, 20.91764], [104.19388, 20.92989], [104.1654, 20.93976], [104.12262, 20.94317], [104.09228, 20.9612], [104.05668, 20.95882], [104.01058, 20.90808], [103.95219, 20.90028], [103.8586, 20.86958], [103.82682, 20.84767], [103.79643, 20.84953], [103.78532, 20.84596], [103.77556, 20.8349], [103.75675, 20.79599], [103.75303, 20.77987], [103.75861, 20.74974], [103.75458, 20.74292], [103.73437, 20.73093], [103.70724, 20.72184], [103.70238, 20.70871], [103.70362, 20.69925], [103.71375, 20.67982], [103.71427, 20.67171], [103.68543, 20.65766], [103.66538, 20.65827], [103.63603, 20.68282], [103.59738, 20.72235], [103.57795, 20.7329], [103.50596, 20.74597], [103.48937, 20.75248], [103.47087, 20.77088], [103.45258, 20.80431], [103.44044, 20.81573], [103.42659, 20.82069], [103.41124, 20.8056], [103.39088, 20.79475], [103.35832, 20.78772], [103.31982, 20.79785], [103.26339, 20.82638], [103.24711, 20.83072], [103.20691, 20.82457], [103.17523, 20.84121], [103.13637, 20.85046], [103.11529, 20.86839], [103.08671, 20.90198], [103.06821, 20.93128], [103.01452, 21.04053], [102.99917, 21.05737], [102.97411, 21.06766], [102.95948, 21.06579], [102.95158, 21.069], [102.94682, 21.07587], [102.9353, 21.10238], [102.92563, 21.14166], [102.91442, 21.1584], [102.90419, 21.16419], [102.8891, 21.16641], [102.883, 21.17644], [102.883, 21.1861], [102.89298, 21.21509], [102.88786, 21.22692], [102.86512, 21.2462], [102.85019, 21.25168], [102.80916, 21.25059], [102.8013, 21.25483], [102.81277, 21.2739], [102.82916, 21.28589], [102.863, 21.29379], [102.8752, 21.30532], [102.87882, 21.32216], [102.87964, 21.3679], [102.88383, 21.38836], [102.9168, 21.43864], [102.91804, 21.45011], [102.90419, 21.4527], [102.84967, 21.42541], [102.89499, 21.49528], [102.91659, 21.51357], [102.95411, 21.55729], [102.97411, 21.57532], [102.97493, 21.5839], [102.96413, 21.6086], [102.96083, 21.63284], [102.96176, 21.70152], [102.95602, 21.72395], [102.9478, 21.73712], [102.94264, 21.73898], [102.8645, 21.70565], [102.84719, 21.70446], [102.83515, 21.71645], [102.83189, 21.73578], [102.83494, 21.77562], [102.82647, 21.82131], [102.80673, 21.83608], [102.78916, 21.82032], [102.78668, 21.73991], [102.77469, 21.70788], [102.75216, 21.6809], [102.72115, 21.66168], [102.65066, 21.6578], [102.63682, 21.68364], [102.63191, 21.70627], [102.62979, 21.72911], [102.63459, 21.78777], [102.62514, 21.82864], [102.59103, 21.90135], [102.56023, 21.92543], [102.51589, 21.93918], [102.47806, 21.95758], [102.46639, 21.99535], [102.48287, 22.0214], [102.91959, 22.46922], [102.95654, 22.45971], [102.98909, 22.4376], [103.00894, 22.43031], [103.02904, 22.43016], [103.04506, 22.44054], [103.04909, 22.45682]]], [[[105.93194, 19.38224], [105.94035, 19.3773], [105.94149, 19.37169], [105.93506, 19.36055], [105.92905, 19.35909], [105.92051, 19.37628], [105.93194, 19.38224]]], [[[106.78672, 20.80733], [106.7658, 20.82498], [106.76148, 20.8417], [106.76612, 20.84605], [106.79807, 20.81849], [106.81242, 20.8185], [106.81494, 20.81428], [106.80705, 20.80798], [106.78672, 20.80733]]], [[[106.89316, 20.86339], [106.89179, 20.87309], [106.90039, 20.86432], [106.90275, 20.84748], [106.89706, 20.84776], [106.89796, 20.84065], [106.88152, 20.84715], [106.88137, 20.85293], [106.88803, 20.85313], [106.8891, 20.86513], [106.89316, 20.86339]]], [[[106.77068, 20.85859], [106.76564, 20.87678], [106.78542, 20.93081], [106.82456, 20.91519], [106.83595, 20.90241], [106.84555, 20.86603], [106.88159, 20.82151], [106.88647, 20.79613], [106.87354, 20.78955], [106.84751, 20.79732], [106.82252, 20.8535], [106.81959, 20.87678], [106.81267, 20.85932], [106.81958, 20.84204], [106.77068, 20.85859]]], [[[106.73292, 20.88178], [106.75327, 20.87128], [106.76498, 20.84776], [106.75384, 20.85086], [106.74903, 20.86233], [106.73707, 20.86327], [106.72552, 20.87478], [106.73292, 20.88178]]], [[[106.93222, 20.93903], [106.93686, 20.95205], [106.95507, 20.93924], [106.94866, 20.93193], [106.93222, 20.93903]]], [[[106.76008, 20.94701], [106.70232, 20.95494], [106.69329, 20.96068], [106.68564, 20.97419], [106.68687, 20.98187], [106.69255, 20.98524], [106.70989, 20.97285], [106.72698, 20.96866], [106.73308, 20.9724], [106.72829, 20.98721], [106.73905, 20.99613], [106.74447, 20.99513], [106.76278, 20.97907], [106.76383, 20.97268], [106.7575, 20.97297], [106.76376, 20.96894], [106.76466, 20.9527], [106.76008, 20.94701]]], [[[101.67367, 21.93138], [101.63812, 21.94088], [101.61631, 21.95365], [101.6068, 21.9676], [101.60039, 22.0075], [101.59218, 22.02811], [101.56494, 22.06951], [101.55543, 22.09033], [101.55502, 22.1124], [101.56696, 22.14935], [101.56153, 22.17611], [101.51823, 22.2282], [101.51575, 22.24536], [101.54065, 22.27146], [101.55099, 22.27668], [101.58799, 22.27136], [101.60122, 22.27699], [101.61987, 22.32644], [101.6237, 22.34665], [101.6437, 22.36468], [101.64509, 22.42421], [101.65455, 22.44612], [101.66866, 22.4623], [101.68912, 22.47889], [101.71315, 22.49155], [101.75506, 22.49553], [101.78488, 22.47222], [101.8178, 22.40633], [101.8426, 22.38334], [101.86792, 22.37884], [101.87728, 22.39186], [101.88151, 22.41217], [101.89164, 22.42969], [101.90937, 22.43589], [101.95288, 22.43687], [101.97422, 22.44514], [102.01458, 22.44607], [102.08553, 22.42912], [102.09535, 22.42313], [102.10366, 22.40205], [102.13045, 22.41929], [102.31828, 22.32702], [102.27432, 22.20576], [102.28645, 22.20004], [102.34594, 22.1458], [101.75108, 21.81614], [101.72126, 21.84435], [101.70871, 21.86957], [101.68586, 21.89861], [101.68059, 21.92264], [101.67367, 21.93138]]], [[[107.20265, 10.43806], [107.21119, 10.4256], [107.1902, 10.43305], [107.18776, 10.42064], [107.17311, 10.41112], [107.16585, 10.39111], [107.13551, 10.37849], [107.12159, 10.36591], [107.10058, 10.33516], [107.08717, 10.32321], [107.07375, 10.37263], [107.07937, 10.39101], [107.11988, 10.40131], [107.14967, 10.41657], [107.15602, 10.42251], [107.16414, 10.45712], [107.17205, 10.46459], [107.20265, 10.43806]]], [[[107.14404, 20.76564], [107.14681, 20.74059], [107.13722, 20.73828], [107.13, 20.74852], [107.14404, 20.76564]]], [[[107.47586, 20.76211], [107.49478, 20.77673], [107.49113, 20.76273], [107.48186, 20.75561], [107.47586, 20.76211]]], [[[107.129, 20.76854], [107.11983, 20.78348], [107.11655, 20.80429], [107.1255, 20.80101], [107.129, 20.80507], [107.13775, 20.79207], [107.13893, 20.78568], [107.129, 20.76854]]], [[[107.41061, 20.80591], [107.4209, 20.78364], [107.4139, 20.76831], [107.40391, 20.77794], [107.40196, 20.78889], [107.40552, 20.80325], [107.41061, 20.80591]]], [[[107.04298, 20.83137], [107.07097, 20.8203], [107.08715, 20.82152], [107.10765, 20.80046], [107.08033, 20.80785], [107.08033, 20.80044], [107.09398, 20.78743], [107.08221, 20.78937], [107.06609, 20.81411], [107.06284, 20.79829], [107.0735, 20.78742], [107.07349, 20.78059], [107.05047, 20.77595], [107.03191, 20.78742], [107.03688, 20.76626], [107.06738, 20.74973], [107.07348, 20.73217], [107.06609, 20.73217], [107.06609, 20.73896], [107.05982, 20.73896], [107.04616, 20.70429], [107.04615, 20.72598], [107.03191, 20.71851], [107.03191, 20.72598], [107.02565, 20.7185], [107.01825, 20.72598], [107.01824, 20.73216], [107.03932, 20.73216], [107.03932, 20.73896], [107.03191, 20.74641], [107.02564, 20.74641], [107.02564, 20.73896], [107.01824, 20.73896], [107.00514, 20.75324], [106.99781, 20.75324], [107.00494, 20.73229], [106.98513, 20.74528], [106.94996, 20.78742], [106.92108, 20.8046], [106.91007, 20.81837], [106.91285, 20.8369], [106.941, 20.84756], [106.94679, 20.85554], [106.9481, 20.87026], [106.9573, 20.87672], [106.94996, 20.86933], [106.96363, 20.85611], [106.99447, 20.85174], [107.00514, 20.84203], [107.0114, 20.84203], [107.01247, 20.85878], [107.02272, 20.86224], [107.04614, 20.84886], [107.04298, 20.83137]]], [[[107.36891, 20.8072], [107.36085, 20.8059], [107.35028, 20.81095], [107.34215, 20.82844], [107.34109, 20.84259], [107.38119, 20.81891], [107.38355, 20.79931], [107.38022, 20.79757], [107.36891, 20.8072]]], [[[107.09767, 20.83804], [107.09018, 20.83572], [107.08752, 20.84501], [107.10189, 20.8565], [107.10222, 20.84532], [107.11263, 20.82702], [107.10671, 20.82747], [107.09767, 20.83804]]], [[[107.28989, 20.84776], [107.29939, 20.84406], [107.27337, 20.83166], [107.27988, 20.84158], [107.27118, 20.83942], [107.28517, 20.84654], [107.28257, 20.85045], [107.28672, 20.85532], [107.28989, 20.84776]]], [[[107.39518, 20.87857], [107.38786, 20.86498], [107.36748, 20.85843], [107.3544, 20.86457], [107.34352, 20.87735], [107.33546, 20.87694], [107.33383, 20.88825], [107.38217, 20.88788], [107.39233, 20.88468], [107.39518, 20.87857]]], [[[107.21004, 20.86515], [107.18883, 20.87971], [107.19549, 20.88405], [107.21004, 20.87571], [107.21004, 20.86515]]], [[[107.32438, 20.87033], [107.30864, 20.88412], [107.29575, 20.90671], [107.3143, 20.88951], [107.32438, 20.87033]]], [[[107.51612, 20.89566], [107.54957, 20.95612], [107.55323, 20.97234], [107.55936, 20.95849], [107.54517, 20.91914], [107.49781, 20.85318], [107.48462, 20.82173], [107.47722, 20.81453], [107.46389, 20.81412], [107.48024, 20.84951], [107.48194, 20.86538], [107.47072, 20.87678], [107.47072, 20.88299], [107.50563, 20.8874], [107.51612, 20.89566]]], [[[107.32634, 20.88084], [107.31479, 20.89252], [107.30974, 20.90522], [107.31527, 20.91135], [107.32634, 20.88084]]], [[[106.99723, 20.93692], [106.99106, 20.91699], [106.97724, 20.93138], [106.99723, 20.93692]]], [[[107.44809, 20.96412], [107.45426, 20.96002], [107.44475, 20.94131], [107.42042, 20.91743], [107.38185, 20.9031], [107.35328, 20.90144], [107.35078, 20.90472], [107.41391, 20.92239], [107.42596, 20.94594], [107.44809, 20.96412]]], [[[107.31805, 20.9344], [107.31611, 20.93992], [107.33944, 20.94346], [107.34791, 20.93431], [107.35149, 20.94001], [107.36451, 20.94306], [107.37632, 20.95562], [107.38079, 20.9527], [107.3903, 20.95937], [107.38688, 20.94754], [107.36678, 20.92932], [107.35474, 20.9248], [107.32659, 20.92911], [107.31805, 20.9344]]], [[[107.03126, 20.97435], [107.05119, 20.97658], [107.06218, 20.95812], [107.03809, 20.94755], [107.01938, 20.95421], [107.03126, 20.97435]]], [[[107.39503, 20.89728], [107.39503, 20.90351], [107.45118, 20.93], [107.48838, 20.96143], [107.49245, 20.99144], [107.50474, 21.02015], [107.51979, 21.01337], [107.53272, 21.04058], [107.53272, 21.02017], [107.55205, 21.03812], [107.55835, 21.03473], [107.52882, 20.95091], [107.51172, 20.92399], [107.48163, 20.91258], [107.39503, 20.89728]]], [[[107.52662, 21.20799], [107.53272, 21.19892], [107.6062, 21.21743], [107.59048, 21.1932], [107.55738, 21.17178], [107.54712, 21.15674], [107.52418, 21.15998], [107.47071, 21.0959], [107.42286, 21.07477], [107.38868, 21.04753], [107.3729, 21.05956], [107.37965, 21.08194], [107.40214, 21.12571], [107.41832, 21.19667], [107.42508, 21.19674], [107.43531, 21.18928], [107.44103, 21.20311], [107.45021, 21.20515], [107.4458, 21.21228], [107.44652, 21.25287], [107.45533, 21.2757], [107.47136, 21.27447], [107.50473, 21.23924], [107.52319, 21.23085], [107.52662, 21.20799]]], [[[109.2732, 12.22126], [109.27321, 12.23553], [109.33607, 12.21805], [109.34888, 12.20083], [109.32838, 12.18717], [109.31658, 12.1975], [109.30047, 12.194], [109.30737, 12.18717], [109.28761, 12.18896], [109.26911, 12.19883], [109.2453, 12.22126], [109.2453, 12.22808], [109.2732, 12.22126]]], [[[109.38377, 12.56319], [109.34743, 12.58821], [109.33546, 12.60326], [109.31204, 12.61433], [109.32033, 12.62799], [109.3462, 12.63104], [109.38293, 12.62379], [109.40503, 12.57079], [109.40023, 12.55794], [109.38377, 12.56319]]], [[[109.34345, 13.63226], [109.36247, 13.61652], [109.36297, 13.60644], [109.35174, 13.611], [109.34345, 13.63226]]], [[[109.11862, 15.37073], [109.09735, 15.37947], [109.10466, 15.38977], [109.12981, 15.39019], [109.14047, 15.38568], [109.1442, 15.3789], [109.1307, 15.37162], [109.11862, 15.37073]]], [[[108.5128, 15.9425], [108.50587, 15.95572], [108.49237, 15.95878], [108.48822, 15.96394], [108.50847, 15.9758], [108.53874, 15.95351], [108.54045, 15.92057], [108.5128, 15.9425]]], [[[107.75824, 21.01647], [107.7928, 20.99225], [107.79281, 20.98604], [107.77296, 20.99225], [107.77799, 20.9726], [107.77075, 20.95723], [107.73831, 20.93767], [107.75717, 20.97102], [107.7588, 20.98261], [107.73765, 21.00324], [107.74513, 21.02016], [107.75824, 21.01647]]], [[[107.81659, 21.00584], [107.8256, 21.02478], [107.84236, 21.03555], [107.85628, 21.03326], [107.85278, 21.01993], [107.8274, 20.98909], [107.81773, 20.98828], [107.81659, 21.00584]]], [[[107.63208, 21.11884], [107.63184, 21.11197], [107.59596, 21.03913], [107.57959, 20.98315], [107.55944, 20.98603], [107.57008, 20.98994], [107.5669, 21.01675], [107.57008, 21.02668], [107.58416, 21.0397], [107.59425, 21.08906], [107.62806, 21.12006], [107.63208, 21.11884]]], [[[107.5616, 21.07307], [107.5359, 21.05691], [107.53473, 21.0521], [107.49694, 21.03905], [107.5302, 21.0707], [107.535, 21.06611], [107.53777, 21.06855], [107.53022, 21.081], [107.55316, 21.11375], [107.56731, 21.11192], [107.58178, 21.11758], [107.58112, 21.10226], [107.5727, 21.08417], [107.56243, 21.0795], [107.5616, 21.07307]]], [[[107.58349, 21.13746], [107.58168, 21.12927], [107.56593, 21.11685], [107.55919, 21.1229], [107.56707, 21.13494], [107.58349, 21.13746]]], [[[107.67399, 21.20582], [107.67945, 21.2109], [107.66389, 21.14542], [107.6583, 21.13945], [107.67399, 21.20582]]], [[[107.96857, 21.24424], [107.98096, 21.24221], [107.97966, 21.22945], [107.96185, 21.22888], [107.95364, 21.23363], [107.95461, 21.23956], [107.96857, 21.24424]]], [[[107.61524, 21.23299], [107.59948, 21.23778], [107.63802, 21.2586], [107.63851, 21.24918], [107.61524, 21.23299]]], [[[107.55746, 21.2722], [107.57254, 21.27316], [107.58789, 21.2615], [107.56105, 21.2522], [107.55535, 21.25735], [107.54209, 21.25904], [107.54412, 21.26561], [107.55746, 21.2722]]], [[[107.53244, 21.264], [107.52525, 21.27473], [107.53313, 21.28539], [107.55705, 21.28154], [107.55388, 21.27554], [107.53244, 21.264]]], [[[107.67645, 21.28749], [107.70052, 21.29673], [107.69987, 21.29178], [107.66025, 21.26685], [107.67645, 21.28749]]], [[[107.75938, 21.29083], [107.79102, 21.29612], [107.79695, 21.29304], [107.77263, 21.28942], [107.75985, 21.28133], [107.7541, 21.28372], [107.75938, 21.29083]]], [[[107.8182, 21.35407], [107.81706, 21.34855], [107.71148, 21.30759], [107.72585, 21.32347], [107.78395, 21.35634], [107.80031, 21.36244], [107.81351, 21.36048], [107.8182, 21.35407]]], [[[107.82693, 21.37028], [107.82693, 21.3764], [107.86893, 21.39011], [107.99829, 21.40374], [107.9981, 21.39741], [107.94441, 21.36819], [107.93621, 21.37641], [107.92994, 21.37641], [107.84117, 21.34855], [107.84816, 21.37027], [107.85499, 21.35594], [107.87281, 21.37421], [107.85222, 21.37531], [107.82693, 21.37028]]], [[[108.02852, 21.55269], [108.05693, 21.57251], [108.07698, 21.54548], [108.07105, 21.53658], [108.0569, 21.53605], [108.02852, 21.55269]]]]}}]}