{"type": "FeatureCollection", "features": [{"type": "Feature", "properties": {"name": "미얀마", "name_en": "Burma", "period": "1914년경", "kind": "식민지", "legend": "미얀마", "map_title": "제국주의 열강의 아시아·태평양 분할(1914년경)", "source": "미래엔 세계사 교과서 3권 157쪽", "volume": 3, "page": 157, "note": "영국령", "coast_snap": "Natural Earth 10m 해안선에 맞춤", "border_snap": "현대 국경(Natural Earth 10m)에 맞춘 구간 약 2388 km"}, "geometry": {"type": "MultiPolygon", "coordinates": [[[[98.29411, 10.01911], [98.28825, 10.00797], [98.26922, 10.00259], [98.24405, 9.96027], [98.21208, 9.94368], [98.21814, 10.03961], [98.23464, 10.05417], [98.25441, 10.06268], [98.27516, 10.05565], [98.28248, 10.05938], [98.29565, 10.05564], [98.29565, 10.04891], [98.28004, 10.05101], [98.27394, 10.04804], [98.27516, 10.03583], [98.29411, 10.01911]]], [[[98.28297, 10.75654], [98.28533, 10.74506], [98.29564, 10.73469], [98.28924, 10.73359], [98.27661, 10.70515], [98.26294, 10.69555], [98.27989, 10.78401], [98.29565, 10.78192], [98.28297, 10.75654]]], [[[98.25082, 12.56021], [98.25685, 12.57419], [98.28987, 12.52631], [98.28288, 12.50386], [98.26051, 12.49528], [98.23683, 12.5061], [98.23025, 12.517], [98.23366, 12.55365], [98.25082, 12.56021]]], [[[97.93815, 13.85179], [97.92848, 13.82111], [97.92505, 13.78361], [97.91774, 13.78361], [97.91436, 13.82866], [97.91872, 13.85325], [97.93189, 13.85927], [97.93815, 13.85179]]], [[[97.81112, 14.1549], [97.78907, 14.13497], [97.77964, 14.14741], [97.77916, 14.15512], [97.78777, 14.16498], [97.7925, 14.18198], [97.82178, 14.18975], [97.81112, 14.1549]]], [[[97.77857, 14.3903], [97.76728, 14.40136], [97.77355, 14.41533], [97.78597, 14.41458], [97.77857, 14.3903]]], [[[97.6509, 15.5922], [97.67163, 15.54999], [97.67232, 15.53309], [97.6644, 15.50413], [97.65746, 15.52413], [97.6509, 15.5922]]], [[[95.04208, 15.71268], [95.0263, 15.71435], [95.02216, 15.72772], [95.0525, 15.75066], [95.06583, 15.73635], [95.059, 15.71952], [95.04208, 15.71268]]], [[[94.84156, 15.87743], [94.80371, 15.79659], [94.77784, 15.79158], [94.74817, 15.79939], [94.72487, 15.81196], [94.72487, 15.81879], [94.7448, 15.83271], [94.75929, 15.85224], [94.78015, 15.8941], [94.80682, 15.93109], [94.82326, 15.94577], [94.84156, 15.87743]]], [[[94.41016, 15.83927], [94.40269, 15.83927], [94.40269, 15.84674], [94.41725, 15.87177], [94.40919, 15.90746], [94.38235, 15.96963], [94.38967, 16.00092], [94.41725, 16.01845], [94.45297, 16.03388], [94.48536, 16.05899], [94.51882, 16.12042], [94.54933, 16.14899], [94.61159, 16.22174], [94.64283, 16.2455], [94.66212, 16.22187], [94.66747, 16.17214], [94.65451, 16.12174], [94.62964, 16.07519], [94.57941, 16.0131], [94.55377, 15.99764], [94.49903, 15.98017], [94.47804, 15.96613], [94.47835, 15.94233], [94.43678, 15.9007], [94.44092, 15.8854], [94.43321, 15.8698], [94.41016, 15.83927]]], [[[97.45928, 16.30137], [97.46926, 16.3327], [97.48276, 16.34203], [97.48487, 16.36392], [97.47267, 16.40843], [97.45472, 16.43711], [97.45217, 16.44941], [97.46616, 16.46703], [97.45966, 16.47736], [97.46999, 16.49046], [97.48602, 16.50095], [97.52052, 16.51088], [97.56186, 16.49238], [97.60628, 16.48354], [97.61061, 16.44623], [97.58937, 16.41527], [97.58936, 16.34016], [97.57179, 16.31208], [97.56886, 16.29857], [97.56635, 16.25372], [97.57135, 16.2227], [97.54746, 16.19994], [97.51687, 16.20983], [97.51051, 16.25422], [97.49928, 16.26952], [97.45928, 16.30137]]], [[[93.74683, 18.70881], [93.72635, 18.68612], [93.62935, 18.83278], [93.58906, 18.88637], [93.59986, 18.89045], [93.6111, 18.90525], [93.62175, 18.91033], [93.66334, 18.8732], [93.70753, 18.86823], [93.74244, 18.87229], [93.74951, 18.86518], [93.75163, 18.84089], [93.74537, 18.79999], [93.759, 18.75579], [93.75606, 18.7317], [93.74683, 18.70881]]], [[[92.55661, 24.00773], [92.86206, 23.95534], [93.30297, 23.99528], [93.30297, 24.04114], [93.30968, 24.06398], [93.32219, 24.08006], [93.34854, 24.08889], [93.55732, 24.46572], [93.77578, 25.09419], [93.86653, 25.46598], [94.05898, 26.2049], [94.5878, 26.45696], [95.04064, 26.47559], [95.05438, 26.49492], [95.06989, 26.50624], [95.09924, 26.53611], [95.10957, 26.5513], [95.11619, 26.56934], [95.11908, 26.60422], [95.13262, 26.62081], [95.17324, 26.63383], [95.19556, 26.66075], [95.20486, 26.66757], [95.22326, 26.67036], [95.23908, 26.64964], [95.26057, 26.64762], [95.31597, 26.66907], [95.39266, 26.69176], [95.41064, 26.70163], [95.43999, 26.73537], [95.46273, 26.77718], [95.48981, 26.81072], [95.53136, 26.82028], [95.57476, 26.81614], [95.5913, 26.82374], [95.61332, 26.86792], [95.62427, 26.88074], [95.63998, 26.88642], [95.68608, 26.89128], [95.6993, 26.89619], [95.73496, 26.9473], [95.77796, 26.99515], [95.80493, 27.00476], [95.86147, 27.01422], [95.88886, 27.02703], [95.91645, 27.05137], [95.93836, 27.0799], [95.97484, 27.14289], [96.01319, 27.1908], [96.07417, 27.22986], [96.14259, 27.25751], [96.40779, 27.29818], [96.47466, 27.29539], [96.49006, 27.29074], [96.51094, 27.29249], [96.54732, 27.30645], [96.56747, 27.32831], [96.57605, 27.34541], [96.5869, 27.35358], [96.31801, 27.75506], [96.55683, 28.01601], [96.61276, 27.96478], [96.89975, 27.64948], [96.88352, 27.63632], [96.87019, 27.61909], [96.86213, 27.5993], [96.86203, 27.57837], [96.87732, 27.55307], [96.88848, 27.50719], [96.89024, 27.49248], [96.87701, 27.46308], [96.88135, 27.44411], [96.90512, 27.40841], [97.0679, 27.2171], [97.0955, 27.19126], [97.10129, 27.1833], [97.10439, 27.15602], [97.1293, 27.13788], [97.13477, 27.12734], [97.59494, 27.13844], [97.72591, 27.13255], [97.79482, 25.87855], [98.14009, 25.61146], [98.13936, 25.55022], [98.1342, 25.53462], [98.09978, 25.50005], [98.10474, 25.46697], [98.11198, 25.44847], [98.11208, 25.39623], [98.10836, 25.38889], [98.08996, 25.38594], [98.0757, 25.37608], [98.06257, 25.35432], [98.0449, 25.31194], [98.03353, 25.3013], [97.97627, 25.27226], [97.9308, 25.21851], [97.90992, 25.20756], [97.88894, 25.20565], [97.87881, 25.21355], [97.86031, 25.24409], [97.82362, 25.26161], [97.80099, 25.23763], [97.77701, 25.15862], [97.75406, 25.11356], [97.73753, 25.09051], [97.72161, 25.07927], [97.70363, 25.07392], [97.6996, 25.06501], [97.25497, 25.14399], [96.66435, 24.47742], [96.96965, 23.75922], [96.97797, 23.75429], [97.11265, 23.74909], [97.51646, 23.94283], [97.53299, 23.92371], [97.57268, 23.90756], [97.60989, 23.88314], [97.6197, 23.86599], [97.62467, 23.84671], [97.63707, 23.86356], [97.69681, 23.88712], [97.74817, 23.93407], [97.76781, 23.94647], [97.81783, 23.95815], [98.05676, 23.60284], [98.0671, 22.92527], [98.66821, 22.70969], [98.57198, 21.80754], [98.57554, 21.79962], [99.33392, 21.66766], [99.52345, 21.27989], [99.52912, 21.2751], [99.74005, 21.2708], [100.09728, 21.5083], [100.10777, 21.49554], [100.12834, 21.48236], [100.1625, 21.43637], [100.18714, 21.42789], [100.24409, 21.46453], [100.28952, 21.48313], [100.32652, 21.52427], [100.34197, 21.53037], [100.36326, 21.53176], [100.38367, 21.52783], [100.4293, 21.49538], [100.43426, 21.47838], [100.44346, 21.4635], [100.45669, 21.45502], [100.46426, 21.4558], [100.69942, 21.19779], [100.68939, 21.15933], [100.63756, 21.06967], [100.62552, 21.05412], [100.60676, 21.04394], [100.56185, 21.0351], [100.54345, 21.0274], [100.55725, 20.992], [100.52924, 20.96844], [100.5157, 20.88648], [100.5342, 20.87392], [100.62309, 20.88855], [100.65213, 20.88276], [100.65213, 20.87661], [100.6266, 20.85351], [100.5989, 20.83346], [100.56903, 20.8178], [100.53668, 20.80767], [100.51338, 20.807], [100.47085, 20.81827], [100.38367, 20.8317], [100.36481, 20.82819], [100.35112, 20.81532], [100.32967, 20.78602], [100.29019, 20.77501], [100.27453, 20.76199], [100.24874, 20.73197], [100.22161, 20.70959], [100.21133, 20.69739], [100.20234, 20.66794], [100.18017, 20.63817], [100.17293, 20.6221], [99.93714, 20.44501], [99.87791, 20.43514], [99.85569, 20.42806], [99.83771, 20.41684], [99.82634, 20.40139], [99.80402, 20.34899], [99.78717, 20.33408], [99.7696, 20.32842], [99.72908, 20.32853], [99.70842, 20.32501], [99.67126, 20.31013], [99.65193, 20.30682], [99.64222, 20.30884], [99.61803, 20.32238], [99.57969, 20.32124], [99.5029, 20.34522], [99.45412, 20.3771], [99.43996, 20.38217], [99.42063, 20.37555], [99.42962, 20.35868], [99.46641, 20.32217], [99.47499, 20.30372], [99.48626, 20.24548], [99.51892, 20.21218], [99.52584, 20.19618], [99.52057, 20.17097], [99.51034, 20.15381], [99.4875, 20.14125], [99.4414, 20.10162], [99.3212, 20.06627], [99.29567, 20.0625], [99.27532, 20.07219], [99.23645, 20.10273], [99.17775, 20.1218], [99.15842, 20.12355], [99.1175, 20.11779], [99.07347, 20.10123], [99.03647, 20.07516], [99.01683, 20.041], [99.00587, 19.97235], [99.01352, 19.93496], [99.00143, 19.91788], [98.99936, 19.90773], [99.00877, 19.84592], [99.00091, 19.82101], [98.98768, 19.79936], [98.97383, 19.78807], [98.93508, 19.77347], [98.89932, 19.74862], [98.88371, 19.74546], [98.86449, 19.77321], [98.85188, 19.78404], [98.83792, 19.79344], [98.80785, 19.80654], [98.74925, 19.7635], [98.73013, 19.7573], [98.64135, 19.74495], [98.62378, 19.7375], [98.59835, 19.70908], [98.5907, 19.7041], [98.54833, 19.69265], [98.538, 19.68389], [98.53655, 19.6771], [98.53262, 19.67585], [98.51546, 19.68337], [98.4888, 19.7067], [98.47454, 19.70531], [98.4396, 19.68774], [98.39444, 19.68635], [98.34762, 19.69063], [98.30731, 19.68999], [98.26277, 19.66986], [98.23755, 19.66469], [98.21915, 19.67699], [98.21667, 19.68746], [98.21791, 19.70797], [98.21326, 19.71776], [98.17202, 19.73156], [98.13223, 19.76606], [98.11136, 19.77714], [98.08593, 19.77316], [98.07291, 19.77729], [98.04562, 19.80763], [98.02454, 19.80298], [98.01792, 19.78939], [98.00459, 19.72391], [98.00562, 19.70565], [98.01389, 19.66945], [98.01358, 19.65175], [98.00831, 19.63911], [97.97948, 19.63333], [97.94806, 19.60242], [97.88584, 19.57281], [97.84863, 19.56764], [97.83985, 19.55532], [97.84098, 19.51716], [97.84874, 19.49398], [97.84212, 19.47938], [97.83354, 19.46871], [97.80037, 19.44078], [97.76709, 19.39753], [97.33891, 19.45301], [97.18876, 19.43329], [97.01727, 19.06486], [96.86329, 18.69776], [96.73119, 18.33703], [97.12268, 17.72937], [97.36069, 17.42641], [97.61059, 17.13939], [98.02865, 16.67102], [98.45666, 16.72322], [98.48632, 16.701], [98.49841, 16.6624], [98.51226, 16.64328], [98.54709, 16.62012], [98.56156, 16.60173], [98.56776, 16.5825], [98.56425, 16.55196], [98.63163, 16.46313], [98.6398, 16.44499], [98.63825, 16.43445], [98.62822, 16.41357], [98.62946, 16.40267], [98.64238, 16.37363], [98.65695, 16.30164], [98.66326, 16.28666], [98.68238, 16.27348], [98.6984, 16.28495], [98.72827, 16.32825], [98.78863, 16.37456], [98.80206, 16.39828], [98.81043, 16.43962], [98.8187, 16.45564], [98.83958, 16.47243], [98.8434, 16.43838], [98.86211, 16.42065], [98.88526, 16.40618], [98.90252, 16.38164], [98.90335, 16.36345], [98.88371, 16.25875], [98.84309, 16.20873], [98.83668, 16.18904], [98.83544, 16.14455], [98.83079, 16.13561], [98.80723, 16.11054], [98.79844, 16.10444], [98.78304, 16.10243], [98.77033, 16.11385], [98.75845, 16.11917], [98.69716, 16.12687], [98.67959, 16.12615], [98.65871, 16.11628], [98.64414, 16.07964], [98.63019, 16.06], [98.61913, 16.05101], [98.61158, 16.04693], [98.59008, 16.04579], [98.55588, 16.05551], [98.54699, 16.0475], [98.55009, 16.03422], [98.57696, 15.99691], [98.58378, 15.97696], [98.56859, 15.92017], [98.56931, 15.89614], [98.57665, 15.85418], [98.57438, 15.83599], [98.54306, 15.73537], [98.54027, 15.71196], [98.11971, 15.73946], [98.0844, 15.65698], [98.28302, 15.28997], [98.24768, 15.24093], [98.2329, 15.2268], [98.21543, 15.21886], [98.17719, 15.2206], [98.17791, 15.20879], [98.19073, 15.17918], [98.18577, 15.16078], [98.165, 15.1258], [98.16045, 15.10637], [98.1681, 15.0827], [98.199, 15.05138], [98.20437, 15.02958], [98.19135, 15.00115], [98.19114, 14.98813], [98.21491, 14.94317], [98.22163, 14.92126], [98.22215, 14.86426], [98.2391, 14.84401], [98.23538, 14.82455], [98.24334, 14.80512], [98.29749, 14.72125], [98.41821, 14.60756], [98.43134, 14.58784], [98.44549, 14.54203], [98.45283, 14.52806], [98.47815, 14.5165], [98.54771, 14.37768], [98.60145, 14.31365], [98.61448, 14.30515], [98.64424, 14.29567], [98.67039, 14.26792], [98.70698, 14.26998], [98.73106, 14.2235], [98.75369, 14.20012], [98.87234, 14.11247], [98.91771, 14.09638], [98.93528, 14.08539], [98.94531, 14.06914], [98.95296, 14.02803], [98.98479, 13.99059], [99.00711, 13.94964], [99.01621, 13.93794], [99.04763, 13.91499], [99.06106, 13.88802], [99.08029, 13.88156], [99.09, 13.87011], [99.09217, 13.86357], [99.0898, 13.82665], [99.10116, 13.77882], [99.10881, 13.7627], [99.14127, 13.73211], [99.15253, 13.71487], [99.14953, 13.66599], [99.15202, 13.58196], [99.18788, 13.42714], [99.18881, 13.40792], [99.18364, 13.35797], [99.18695, 13.32914], [99.17279, 13.30092], [99.17341, 13.28743], [99.19015, 13.2295], [99.18726, 13.21224], [99.17279, 13.19951], [99.1332, 13.19517], [99.11408, 13.18808], [99.1021, 13.17134], [99.1053, 13.12961], [99.10251, 13.1044], [99.08835, 13.05835], [99.09321, 13.03833], [99.15108, 12.99479], [99.16483, 12.97551], [99.16731, 12.95601], [99.15418, 12.9266], [99.15315, 12.91355], [99.16845, 12.8741], [99.17527, 12.83343], [99.21072, 12.79227], [99.21444, 12.77168], [99.21413, 12.73465], [99.22446, 12.71747], [99.23346, 12.71313], [99.2563, 12.70946], [99.26674, 12.70284], [99.27686, 12.66559], [99.30973, 12.65349], [99.3334, 12.62543], [99.39376, 12.58978], [99.40326, 12.57593], [99.4073, 12.55148], [99.4042, 12.50813], [99.38704, 12.46591], [99.39128, 12.44534], [99.41401, 12.40524], [99.42063, 12.38338], [99.42673, 12.30866], [99.4322, 12.29641], [99.45442, 12.26726], [99.45711, 12.25641], [99.45556, 12.22758], [99.47375, 12.18727], [99.472, 12.17362], [99.45412, 12.15688], [99.44884, 12.14722], [99.45226, 12.12939], [99.46631, 12.12603], [99.52264, 12.14422], [99.53287, 12.14453], [99.54166, 12.14066], [99.54579, 12.13187], [99.52171, 12.05368], [99.5184, 12.02593], [99.53432, 12.01157], [99.55333, 12.00552], [99.56698, 11.99333], [99.574, 11.97632], [99.57287, 11.95591], [99.55736, 11.9156], [99.55406, 11.89504], [99.5614, 11.87292], [99.59178, 11.84228], [99.611, 11.83018], [99.62796, 11.82538], [99.63002, 11.81577], [99.61535, 11.74941], [99.60687, 11.72569], [99.54258, 11.64048], [99.5307, 11.63092], [99.4661, 11.62394], [99.44977, 11.61376], [99.44058, 11.59728], [99.44109, 11.53341], [99.43737, 11.51669], [99.42817, 11.4969], [99.41587, 11.48023], [99.38704, 11.45155], [99.37763, 11.43551], [99.3705, 11.39334], [99.3643, 11.37672], [99.32637, 11.33623], [99.31573, 11.32081], [99.30053, 11.28063], [99.28844, 11.25831], [99.25619, 11.21999], [99.24328, 11.19766], [99.21299, 11.10826], [99.20617, 11.10002], [99.17506, 11.08744], [99.15171, 11.04767], [99.1331, 11.03339], [99.09321, 11.01297], [99.07688, 10.99651], [99.06365, 10.95742], [99.05507, 10.94525], [99.04525, 10.94551], [99.00556, 10.95882], [98.99233, 10.94796], [98.98262, 10.92895], [98.97962, 10.90766], [98.98975, 10.87515], [98.98985, 10.86045], [98.98613, 10.84032], [98.97445, 10.8242], [98.93404, 10.80771], [98.9233, 10.8081], [98.90542, 10.81441], [98.89208, 10.80852], [98.88361, 10.79919], [98.87534, 10.77862], [98.86821, 10.76989], [98.83007, 10.76356], [98.81095, 10.74663], [98.76672, 10.68875], [98.75679, 10.66607], [98.7479, 10.62313], [98.75152, 10.61036], [98.77075, 10.59398], [98.77726, 10.58323], [98.79131, 10.52042], [98.79038, 10.50027], [98.77653, 10.4621], [98.7664, 10.4112], [98.74741, 10.35053], [98.73504, 10.34308], [98.71892, 10.31257], [98.70281, 10.26276], [98.69595, 10.22352], [98.64422, 10.15502], [98.58985, 10.04206], [98.56055, 10.00215], [98.54314, 9.98747], [98.52102, 10.029], [98.51393, 10.14692], [98.49367, 10.17919], [98.48962, 10.19768], [98.51222, 10.26142], [98.51711, 10.30744], [98.52849, 10.34325], [98.52849, 10.3642], [98.51222, 10.4228], [98.49416, 10.45246], [98.49343, 10.47272], [98.5005, 10.51504], [98.49545, 10.55687], [98.4634, 10.63004], [98.45933, 10.7154], [98.46376, 10.72952], [98.47657, 10.73467], [98.4983, 10.73158], [98.51099, 10.72288], [98.52849, 10.6931], [98.53875, 10.70441], [98.53834, 10.7187], [98.52102, 10.74095], [98.53257, 10.74676], [98.54371, 10.74505], [98.56324, 10.72728], [98.5775, 10.7706], [98.59986, 10.80549], [98.60271, 10.81949], [98.5967, 10.83713], [98.61598, 10.83845], [98.63087, 10.85082], [98.58644, 10.86104], [98.57888, 10.87519], [98.58156, 10.88202], [98.61378, 10.89029], [98.63405, 10.91372], [98.64796, 10.91908], [98.67311, 10.90546], [98.68954, 10.91346], [98.70363, 10.91615], [98.70655, 10.91283], [98.71241, 10.92438], [98.71762, 10.96068], [98.71275, 10.97431], [98.72022, 10.98054], [98.69289, 11.00845], [98.69533, 11.02008], [98.71648, 11.03238], [98.72242, 11.04487], [98.70655, 11.09785], [98.68881, 11.09249], [98.67646, 11.10045], [98.65823, 11.13198], [98.70265, 11.14362], [98.72413, 11.15619], [98.73316, 11.17601], [98.73318, 11.2071], [98.751, 11.25706], [98.75929, 11.26895], [98.74636, 11.28605], [98.72201, 11.34983], [98.72138, 11.36725], [98.72706, 11.3852], [98.70265, 11.37907], [98.69802, 11.38801], [98.71535, 11.44317], [98.73569, 11.45013], [98.77491, 11.45352], [98.76565, 11.46744], [98.76344, 11.50625], [98.7544, 11.52241], [98.74529, 11.52485], [98.72885, 11.51766], [98.72024, 11.52241], [98.718, 11.53168], [98.72576, 11.54841], [98.72024, 11.55711], [98.73357, 11.57343], [98.73634, 11.58877], [98.73567, 11.64228], [98.74156, 11.66502], [98.75221, 11.6817], [98.76808, 11.68008], [98.78028, 11.6865], [98.80592, 11.67324], [98.81715, 11.6774], [98.81814, 11.69867], [98.82261, 11.70794], [98.85434, 11.70709], [98.89161, 11.69367], [98.87672, 11.72264], [98.80495, 11.73653], [98.78298, 11.75512], [98.79029, 11.77969], [98.81202, 11.80264], [98.82569, 11.82587], [98.80893, 11.8513], [98.81609, 11.83381], [98.81023, 11.82201], [98.79127, 11.80248], [98.76809, 11.76197], [98.74415, 11.76252], [98.72364, 11.74145], [98.71217, 11.73652], [98.70313, 11.69746], [98.68434, 11.68282], [98.67397, 11.68536], [98.64741, 11.70068], [98.61037, 11.73127], [98.60329, 11.75361], [98.60589, 11.76897], [98.61788, 11.78927], [98.63209, 11.79287], [98.63087, 11.80362], [98.60355, 11.80363], [98.62404, 11.83026], [98.65138, 11.83027], [98.66799, 11.86359], [98.68092, 11.87735], [98.70655, 11.87865], [98.6941, 11.89289], [98.67311, 11.89208], [98.63087, 11.87866], [98.54902, 11.87866], [98.55812, 11.89911], [98.57793, 11.90661], [98.62745, 11.90595], [98.66407, 11.92036], [98.67921, 11.93281], [98.69094, 11.95432], [98.72022, 11.9643], [98.72145, 11.99779], [98.70315, 12.04808], [98.71274, 12.06363], [98.66505, 12.06026], [98.63381, 12.09032], [98.64096, 12.11367], [98.62966, 12.13199], [98.63088, 12.14618], [98.67311, 12.15917], [98.67311, 12.16665], [98.65823, 12.16665], [98.66766, 12.17767], [98.70973, 12.20425], [98.71372, 12.21577], [98.7033, 12.23778], [98.6963, 12.24177], [98.66293, 12.2368], [98.59669, 12.19401], [98.56325, 12.20768], [98.54714, 12.22346], [98.53908, 12.24177], [98.54033, 12.26116], [98.55202, 12.2796], [98.56818, 12.29079], [98.67677, 12.31525], [98.69776, 12.32795], [98.70655, 12.34789], [98.69996, 12.36396], [98.65138, 12.38574], [98.6268, 12.40957], [98.60744, 12.41829], [98.60517, 12.42894], [98.61623, 12.48574], [98.62868, 12.49217], [98.70143, 12.49873], [98.70973, 12.5124], [98.67311, 12.52973], [98.63999, 12.5319], [98.63088, 12.53727], [98.62307, 12.55817], [98.65139, 12.62225], [98.65464, 12.62571], [98.67311, 12.62539], [98.66506, 12.64643], [98.66767, 12.67479], [98.69117, 12.71044], [98.69288, 12.72529], [98.6893, 12.7281], [98.66163, 12.72159], [98.64845, 12.72334], [98.64179, 12.7281], [98.64457, 12.74202], [98.67302, 12.74681], [98.67872, 12.75629], [98.67018, 12.76093], [98.6277, 12.75626], [98.61786, 12.76627], [98.61745, 12.77739], [98.64178, 12.78242], [98.65138, 12.79731], [98.63429, 12.87861], [98.58987, 12.91959], [98.60024, 12.94182], [98.61402, 12.95429], [98.5838, 13.02691], [98.58045, 13.06562], [98.58205, 13.07705], [98.58985, 13.08466], [98.58335, 13.11396], [98.57846, 13.18675], [98.56593, 13.20136], [98.50051, 13.24918], [98.48992, 13.29784], [98.47989, 13.28408], [98.47284, 13.30293], [98.47316, 13.3249], [98.46046, 13.35598], [98.46015, 13.36934], [98.47316, 13.37946], [98.47316, 13.41303], [98.459, 13.39997], [98.45282, 13.3795], [98.45379, 13.39639], [98.44532, 13.4243], [98.41864, 13.45458], [98.41946, 13.46222], [98.43165, 13.47875], [98.42644, 13.49006], [98.39405, 13.54279], [98.38396, 13.55191], [98.3572, 13.56388], [98.3611, 13.57616], [98.35662, 13.58487], [98.33612, 13.59858], [98.33644, 13.61982], [98.29885, 13.67105], [98.28828, 13.69475], [98.29566, 13.68797], [98.30201, 13.701], [98.2767, 13.70718], [98.25734, 13.70638], [98.24481, 13.71406], [98.2405, 13.74604], [98.25416, 13.7978], [98.24782, 13.83739], [98.25416, 13.85179], [98.23366, 13.91731], [98.23365, 13.96166], [98.22723, 13.98896], [98.23365, 14.00263], [98.20851, 14.02987], [98.19215, 14.06468], [98.1858, 14.06468], [98.17897, 14.01972], [98.19946, 13.99274], [98.19826, 13.96514], [98.18238, 13.93781], [98.18019, 13.92504], [98.19947, 13.86921], [98.188, 13.81513], [98.17945, 13.73241], [98.19604, 13.66836], [98.19328, 13.65133], [98.17156, 13.60602], [98.16847, 13.5843], [98.17156, 13.56387], [98.18685, 13.54385], [98.17896, 13.53711], [98.17108, 13.53784], [98.15105, 13.5576], [98.1443, 13.53714], [98.14137, 13.57323], [98.12974, 13.58235], [98.15105, 13.60602], [98.13748, 13.62653], [98.15187, 13.63036], [98.15846, 13.64232], [98.15805, 13.65819], [98.15107, 13.67372], [98.16765, 13.67316], [98.16879, 13.68081], [98.16041, 13.69025], [98.14763, 13.69477], [98.12379, 13.69352], [98.1033, 13.701], [98.11695, 13.72895], [98.09206, 13.7397], [98.08279, 13.76997], [98.08889, 13.7951], [98.11012, 13.79035], [98.10329, 13.87617], [98.11085, 13.90217], [98.08563, 13.91778], [98.08239, 13.92425], [98.06171, 14.01008], [98.06627, 14.0327], [98.09645, 14.07835], [98.09743, 14.09219], [98.10768, 14.11001], [98.10857, 14.13264], [98.09646, 14.16779], [98.11012, 14.16779], [98.10108, 14.19184], [98.09522, 14.19379], [98.08961, 14.1814], [98.04191, 14.24267], [98.01482, 14.29951], [97.99351, 14.33052], [97.98596, 14.35289], [97.97976, 14.39741], [97.9826, 14.41925], [98.00026, 14.46874], [97.97644, 14.44377], [97.96608, 14.44832], [97.95183, 14.50292], [97.92141, 14.55769], [97.91364, 14.58653], [97.92506, 14.61278], [97.90009, 14.63033], [97.88562, 14.65575], [97.88552, 14.68406], [97.90407, 14.70896], [97.94312, 14.72019], [97.96851, 14.69651], [97.99244, 14.66372], [98.0276, 14.64753], [97.99244, 14.6931], [97.9822, 14.71527], [98.00026, 14.72207], [97.97105, 14.73591], [97.96472, 14.74687], [97.97291, 14.76362], [97.95883, 14.77851], [97.94988, 14.7989], [97.93816, 14.78474], [97.94556, 14.76362], [97.93116, 14.7522], [97.91717, 14.75862], [97.90675, 14.77595], [97.90406, 14.79776], [97.89723, 14.79776], [97.89454, 14.77969], [97.90218, 14.7377], [97.8755, 14.71675], [97.86305, 14.71582], [97.85036, 14.72363], [97.8425, 14.7365], [97.81512, 14.85082], [97.79478, 14.88032], [97.8025, 14.90095], [97.80446, 14.93598], [97.81593, 14.95881], [97.81284, 14.98334], [97.80437, 14.99868], [97.77428, 15.01749], [97.78745, 15.0307], [97.80836, 15.03116], [97.79478, 15.0585], [97.80681, 15.07526], [97.81023, 15.09512], [97.80718, 15.17514], [97.81089, 15.19114], [97.82276, 15.2093], [97.78029, 15.2115], [97.76939, 15.22334], [97.74318, 15.26684], [97.74204, 15.31794], [97.73829, 15.32901], [97.72642, 15.33959], [97.73407, 15.35529], [97.7505, 15.36009], [97.76076, 15.39421], [97.76694, 15.38935], [97.79477, 15.4079], [97.78681, 15.4196], [97.76141, 15.49055], [97.7619, 15.50389], [97.77426, 15.5314], [97.74294, 15.60448], [97.74732, 15.61774], [97.74026, 15.64126], [97.74448, 15.6507], [97.74366, 15.66486], [97.72561, 15.70132], [97.7339, 15.7263], [97.71291, 15.75731], [97.72641, 15.77782], [97.72706, 15.84321], [97.72136, 15.85619], [97.70608, 15.86035], [97.71225, 15.88768], [97.69142, 15.9123], [97.63723, 15.94917], [97.60971, 15.98387], [97.57584, 16.01722], [97.56887, 16.06241], [97.5718, 16.08002], [97.60084, 16.09247], [97.61964, 16.12543], [97.63896, 16.23808], [97.65089, 16.27131], [97.62653, 16.35143], [97.62307, 16.3943], [97.62665, 16.43757], [97.63723, 16.47736], [97.65188, 16.50722], [97.67384, 16.53343], [97.70312, 16.55206], [97.74024, 16.55927], [97.7295, 16.5725], [97.7129, 16.57978], [97.65284, 16.53987], [97.63038, 16.53198], [97.54835, 16.53815], [97.49985, 16.53197], [97.47633, 16.51831], [97.45216, 16.52456], [97.42311, 16.52342], [97.4026, 16.51691], [97.3703, 16.48357], [97.32983, 16.67985], [97.31098, 16.65242], [97.28584, 16.65893], [97.25546, 16.69788], [97.24028, 16.7319], [97.23018, 16.76914], [97.23022, 16.79664], [97.2448, 16.81745], [97.23308, 16.83983], [97.24049, 16.87458], [97.23308, 16.87458], [97.21949, 16.82617], [97.209, 16.8332], [97.2046, 16.85959], [97.20583, 16.87458], [97.21949, 16.90127], [97.21144, 16.90786], [97.19159, 16.90129], [97.18329, 16.92154], [97.19898, 16.99746], [97.19825, 17.0135], [97.16472, 17.05904], [97.15725, 17.08686], [97.17449, 17.11248], [97.23365, 17.09516], [97.261, 17.10733], [97.20265, 17.13158], [97.1819, 17.13402], [97.15805, 17.1293], [97.14796, 17.11689], [97.13062, 17.07943], [97.11444, 17.10033], [97.10028, 17.13378], [97.09597, 17.16575], [97.10963, 17.18244], [97.10963, 17.18928], [97.08872, 17.19352], [97.07862, 17.23135], [97.06861, 17.25137], [97.02362, 17.26749], [97.00718, 17.27807], [97.01336, 17.29914], [96.89552, 17.38468], [96.88986, 17.39497], [96.88836, 17.44428], [96.88307, 17.45742], [96.87159, 17.44172], [96.86345, 17.40339], [96.85572, 17.38851], [96.84205, 17.409], [96.82154, 17.39472], [96.85125, 17.35957], [96.91064, 17.31708], [96.91089, 17.28486], [96.89047, 17.26094], [96.86549, 17.2403], [96.84938, 17.21296], [96.85572, 17.16877], [96.89513, 17.10179], [96.91016, 17.06684], [96.91089, 17.02481], [96.88689, 16.9794], [96.87907, 16.93473], [96.86834, 16.92842], [96.83522, 16.93602], [96.84254, 16.91767], [96.8557, 16.90128], [96.80787, 16.90868], [96.80787, 16.90127], [96.83409, 16.8854], [96.844, 16.87392], [96.84888, 16.8603], [96.84668, 16.84492], [96.83188, 16.82193], [96.81128, 16.76473], [96.7964, 16.76236], [96.7894, 16.75609], [96.79086, 16.74746], [96.80102, 16.73737], [96.78302, 16.71218], [96.71632, 16.65835], [96.69842, 16.62995], [96.67946, 16.57487], [96.64003, 16.54537], [96.61572, 16.51792], [96.5588, 16.49686], [96.49786, 16.48424], [96.43626, 16.47778], [96.40016, 16.50406], [96.37713, 16.50814], [96.35697, 16.5186], [96.2896, 16.56703], [96.27313, 16.5821], [96.26606, 16.59662], [96.26157, 16.64069], [96.22927, 16.71874], [96.22577, 16.7613], [96.23455, 16.77692], [96.28712, 16.81314], [96.25758, 16.8159], [96.20655, 16.7775], [96.17115, 16.77155], [96.19417, 16.74297], [96.2046, 16.69648], [96.2409, 16.65013], [96.2461, 16.63129], [96.23365, 16.59789], [96.23463, 16.57636], [96.31007, 16.46459], [96.32731, 16.45343], [96.33642, 16.43944], [96.32129, 16.41528], [96.3047, 16.4064], [96.28533, 16.366], [96.22155, 16.34473], [96.1192, 16.32179], [96.09767, 16.32857], [96.08855, 16.3498], [96.0774, 16.36083], [96.0066, 16.38736], [96.06657, 16.33563], [96.06741, 16.31009], [96.01899, 16.25694], [95.97978, 16.22306], [95.96192, 16.21671], [95.9424, 16.21907], [95.95143, 16.25764], [95.90788, 16.21175], [95.88308, 16.20919], [95.8899, 16.24396], [95.81813, 16.17601], [95.79769, 16.14493], [95.77662, 16.1407], [95.75555, 16.14526], [95.74586, 16.15835], [95.74122, 16.19481], [95.73463, 16.21284], [95.72486, 16.22285], [95.73226, 16.12727], [95.72526, 16.10644], [95.69703, 16.06599], [95.69068, 16.04849], [95.6874, 15.98841], [95.66486, 15.94944], [95.52344, 15.80366], [95.41578, 15.72298], [95.39649, 15.71639], [95.3742, 15.71504], [95.31074, 15.72319], [95.29445, 15.72786], [95.28795, 15.74014], [95.28257, 15.83832], [95.30226, 15.85248], [95.31267, 15.86652], [95.31772, 15.88418], [95.31398, 15.9007], [95.33855, 15.92202], [95.35475, 15.95136], [95.36427, 15.98456], [95.3685, 16.0388], [95.34864, 16.08633], [95.34547, 16.10497], [95.36158, 16.14838], [95.35548, 16.14838], [95.33823, 16.12987], [95.33025, 16.11994], [95.32749, 16.10741], [95.34555, 16.06086], [95.34864, 16.04159], [95.3418, 15.98388], [95.31186, 15.94709], [95.29699, 15.90282], [95.27474, 15.87646], [95.25164, 15.86825], [95.23879, 15.89395], [95.27589, 15.97065], [95.27296, 16.00373], [95.22397, 15.91861], [95.21762, 15.88426], [95.22436, 15.81013], [95.21273, 15.78658], [95.17338, 15.7779], [95.14455, 15.78914], [95.12576, 15.81762], [95.11624, 15.85529], [95.11526, 15.89395], [95.13754, 16.00666], [95.12892, 16.03852], [95.10776, 15.98391], [95.09768, 16.02513], [95.11021, 16.06744], [95.13796, 16.10032], [95.1736, 16.11358], [95.2072, 16.11156], [95.22592, 16.11994], [95.2225, 16.12417], [95.19373, 16.12937], [95.1836, 16.14094], [95.14869, 16.13204], [95.14243, 16.13484], [95.13575, 16.14838], [95.12892, 16.14838], [95.12158, 16.13167], [95.09412, 16.09382], [95.07057, 16.07486], [95.06788, 16.04833], [95.07289, 15.9704], [95.05501, 15.84614], [95.04687, 15.8221], [95.03408, 15.8059], [94.99757, 15.79532], [94.98617, 15.77335], [94.97534, 15.76413], [94.93776, 15.76415], [94.90358, 15.77782], [94.85866, 15.78263], [94.84687, 15.7906], [94.85866, 15.80881], [94.89039, 15.82705], [94.89633, 15.8474], [94.88258, 15.86717], [94.86394, 15.84415], [94.85321, 15.84029], [94.8484, 15.86376], [94.8484, 15.90815], [94.83595, 15.93667], [94.83473, 15.94916], [94.83975, 15.96228], [94.86281, 15.99176], [94.90724, 16.00605], [94.92067, 16.01862], [94.92408, 16.03852], [94.88934, 16.01741], [94.88022, 16.07998], [94.86354, 16.11237], [94.86313, 16.12775], [94.88706, 16.1708], [94.8999, 16.18361], [94.91733, 16.19237], [94.95924, 16.20087], [94.97511, 16.21434], [94.98683, 16.23224], [94.99244, 16.2508], [94.96697, 16.2204], [94.92465, 16.20881], [94.90252, 16.20962], [94.89308, 16.20576], [94.86573, 16.16889], [94.85467, 16.16022], [94.84946, 16.1398], [94.8484, 16.0965], [94.8694, 16.04096], [94.8462, 15.99999], [94.78688, 15.96214], [94.74536, 15.88085], [94.7212, 15.85668], [94.70387, 15.84847], [94.68385, 15.84676], [94.65871, 15.85449], [94.64894, 15.8686], [94.63551, 15.90815], [94.63282, 15.88973], [94.62241, 15.89156], [94.60134, 15.92122], [94.70314, 15.98237], [94.73227, 16.0174], [94.74171, 16.06729], [94.76588, 16.09317], [94.77198, 16.11099], [94.77272, 16.13101], [94.79265, 16.14789], [94.79371, 16.16201], [94.77516, 16.15156], [94.76596, 16.13947], [94.70532, 16.02066], [94.6714, 15.99657], [94.61476, 15.94367], [94.58985, 15.9316], [94.56659, 15.9355], [94.56236, 15.96186], [94.58872, 15.99624], [94.64235, 16.04466], [94.66334, 16.07998], [94.67888, 16.12128], [94.6867, 16.16535], [94.68385, 16.20917], [94.66522, 16.25763], [94.68531, 16.29198], [94.70493, 16.35321], [94.71071, 16.36033], [94.73227, 16.36066], [94.73227, 16.3675], [94.7217, 16.37849], [94.70583, 16.47331], [94.71072, 16.49724], [94.73162, 16.5102], [94.73227, 16.52456], [94.69703, 16.50841], [94.68393, 16.51082], [94.67701, 16.53197], [94.67018, 16.50967], [94.68384, 16.42206], [94.68384, 16.36408], [94.67847, 16.34854], [94.65512, 16.3227], [94.64372, 16.28352], [94.62793, 16.26021], [94.60669, 16.24312], [94.584, 16.23653], [94.58205, 16.24347], [94.615, 16.28555], [94.63551, 16.32648], [94.62973, 16.34418], [94.61818, 16.34203], [94.6067, 16.326], [94.59889, 16.29365], [94.58367, 16.27485], [94.57398, 16.27132], [94.56203, 16.27376], [94.53989, 16.29169], [94.52117, 16.29548], [94.51564, 16.28726], [94.51734, 16.22394], [94.50708, 16.18978], [94.45557, 16.10562], [94.42822, 16.07434], [94.39649, 16.059], [94.36061, 16.04926], [94.35133, 16.03437], [94.34798, 16.00715], [94.34001, 15.99625], [94.32146, 15.98995], [94.30104, 15.98973], [94.28663, 15.9975], [94.26563, 15.97509], [94.25168, 15.96854], [94.23952, 15.97631], [94.21476, 16.01456], [94.20982, 16.029], [94.21508, 16.15735], [94.2378, 16.27314], [94.2354, 16.34856], [94.23814, 16.36066], [94.25864, 16.38736], [94.27312, 16.4665], [94.26833, 16.52749], [94.27313, 16.53814], [94.3086, 16.52778], [94.33106, 16.52863], [94.34132, 16.54841], [94.34897, 16.57811], [94.3462, 16.59243], [94.32766, 16.60025], [94.32766, 16.60642], [94.35206, 16.6186], [94.36199, 16.63548], [94.36444, 16.70112], [94.37966, 16.75535], [94.39845, 16.77578], [94.40268, 16.78827], [94.40064, 16.83063], [94.37893, 16.88695], [94.38234, 16.90127], [94.39064, 16.90663], [94.42319, 16.90127], [94.43531, 16.91014], [94.46469, 16.94965], [94.44437, 16.94966], [94.45387, 16.96524], [94.45777, 16.9829], [94.45783, 17.05937], [94.47836, 17.09308], [94.48878, 17.12421], [94.48569, 17.14102], [94.45778, 17.15376], [94.45266, 17.16621], [94.45437, 17.18007], [94.46469, 17.18926], [94.51092, 17.16901], [94.53785, 17.1874], [94.53989, 17.19672], [94.535, 17.20515], [94.51198, 17.2172], [94.50865, 17.23036], [94.51199, 17.27521], [94.5189, 17.28814], [94.54542, 17.29609], [94.54616, 17.31963], [94.57251, 17.31109], [94.59449, 17.2923], [94.57682, 17.35853], [94.5666, 17.47643], [94.57032, 17.50519], [94.55389, 17.54361], [94.56032, 17.58209], [94.57691, 17.57623], [94.615, 17.54556], [94.59068, 17.59325], [94.59522, 17.61546], [94.56293, 17.66192], [94.55691, 17.68244], [94.55348, 17.72736], [94.54396, 17.74803], [94.50173, 17.78661], [94.49221, 17.8168], [94.48951, 17.87621], [94.48341, 17.90229], [94.44745, 17.97334], [94.44436, 17.9881], [94.45086, 18.00242], [94.48178, 18.0152], [94.4922, 18.02595], [94.49488, 18.04881], [94.48097, 18.09422], [94.46194, 18.12178], [94.45786, 18.15571], [94.43679, 18.18236], [94.42286, 18.2425], [94.4065, 18.25129], [94.34157, 18.24752], [94.32766, 18.25874], [94.32618, 18.28141], [94.33107, 18.30312], [94.3392, 18.30596], [94.35027, 18.29291], [94.36589, 18.29856], [94.37859, 18.2871], [94.38917, 18.28604], [94.417, 18.31395], [94.38966, 18.3627], [94.35061, 18.37524], [94.33107, 18.42597], [94.27985, 18.47998], [94.25887, 18.50921], [94.24498, 18.53924], [94.25896, 18.53571], [94.26222, 18.54511], [94.24879, 18.63886], [94.14895, 18.73103], [94.14895, 18.7385], [94.15642, 18.7385], [94.17457, 18.72504], [94.2116, 18.72553], [94.27931, 18.73851], [94.25245, 18.75214], [94.22804, 18.73554], [94.21242, 18.74186], [94.1531, 18.82104], [94.14731, 18.83983], [94.14894, 18.86823], [94.13819, 18.86009], [94.13356, 18.8465], [94.13509, 18.82047], [94.11964, 18.81665], [94.0984, 18.82173], [94.07867, 18.83296], [94.0669, 18.84833], [94.05323, 18.8409], [94.03811, 18.85912], [94.03209, 18.88858], [94.0366, 18.91783], [94.05323, 18.93651], [94.04038, 18.97118], [94.0412, 18.99762], [94.06609, 19.04287], [94.06008, 19.0637], [94.09425, 19.08735], [94.04656, 19.08113], [94.03054, 19.08797], [94.02907, 19.0954], [94.03907, 19.12206], [94.03274, 19.16926], [94.05323, 19.22138], [94.04591, 19.30467], [94.04998, 19.32071], [94.05991, 19.3299], [94.06967, 19.3509], [94.0739, 19.37385], [94.0669, 19.38898], [94.03061, 19.3159], [94.02524, 19.28657], [94.03321, 19.23509], [94.03338, 19.20453], [93.99439, 19.15909], [93.97348, 19.14632], [93.94711, 19.15965], [93.93727, 19.20466], [93.92547, 19.21027], [93.91603, 19.20393], [93.91041, 19.19099], [93.90992, 19.1767], [93.91489, 19.16958], [93.9554, 19.1269], [93.95021, 19.09821], [93.95248, 19.03205], [93.95777, 19.01219], [93.9812, 18.98065], [93.98437, 18.96784], [93.97388, 18.9228], [93.9502, 18.8955], [93.93727, 18.88935], [93.94408, 18.86823], [93.93043, 18.85864], [93.9074, 18.88178], [93.86574, 18.8955], [93.81373, 18.944], [93.75026, 18.97041], [93.73484, 18.98104], [93.71485, 19.0102], [93.70387, 19.01846], [93.67889, 19.01961], [93.6697, 19.03271], [93.66777, 19.04371], [93.67091, 19.06688], [93.64234, 19.13422], [93.59401, 19.17671], [93.56715, 19.23111], [93.55625, 19.23839], [93.49782, 19.31391], [93.4833, 19.3504], [93.48415, 19.39272], [93.49091, 19.40761], [93.50783, 19.42258], [93.53012, 19.43206], [93.55298, 19.43056], [93.56804, 19.40672], [93.61147, 19.40307], [93.6311, 19.3723], [93.63696, 19.34907], [93.62135, 19.33438], [93.66529, 19.30561], [93.68751, 19.2967], [93.71753, 19.29339], [93.72291, 19.26846], [93.75465, 19.24714], [93.79689, 19.23518], [93.83424, 19.23819], [93.86549, 19.2541], [93.92994, 19.29975], [93.95021, 19.3207], [93.95021, 19.34178], [93.96388, 19.34805], [93.98097, 19.37226], [93.98731, 19.3867], [93.9844, 19.43744], [93.99106, 19.45718], [93.98439, 19.46406], [93.94711, 19.45792], [93.92384, 19.46239], [93.91457, 19.47279], [93.91912, 19.48407], [93.93727, 19.49201], [93.92677, 19.49702], [93.8821, 19.50191], [93.85524, 19.5268], [93.79463, 19.57107], [93.77719, 19.60309], [93.7396, 19.61751], [93.73122, 19.63255], [93.73846, 19.65135], [93.75611, 19.66108], [93.77865, 19.66249], [93.80006, 19.65648], [93.79446, 19.67357], [93.8274, 19.71857], [93.80681, 19.74584], [93.79916, 19.71772], [93.78386, 19.69111], [93.76108, 19.67487], [93.73122, 19.67765], [93.72113, 19.68516], [93.7095, 19.71353], [93.71127, 19.73164], [93.71876, 19.7436], [93.74187, 19.75405], [93.75164, 19.76569], [93.72193, 19.76899], [93.69353, 19.72481], [93.64845, 19.72518], [93.63624, 19.73501], [93.63551, 19.75951], [93.6157, 19.72403], [93.60142, 19.71859], [93.60142, 19.78343], [93.60662, 19.79635], [93.66084, 19.87095], [93.67995, 19.88336], [93.73805, 19.88247], [93.72561, 19.90558], [93.73049, 19.91428], [93.74537, 19.91657], [93.74, 19.92512], [93.72625, 19.93659], [93.71754, 19.93769], [93.71168, 19.93382], [93.71159, 19.91967], [93.70753, 19.91658], [93.6565, 19.91621], [93.63793, 19.91028], [93.61134, 19.91035], [93.60065, 19.88841], [93.594, 19.88248], [93.5805, 19.88141], [93.56656, 19.88605], [93.54674, 19.9029], [93.56593, 19.91657], [93.52907, 19.93009], [93.51834, 19.9396], [93.53191, 19.95136], [93.51711, 19.95857], [93.51198, 19.97046], [93.51686, 19.98119], [93.53191, 19.98485], [93.52564, 19.99917], [93.50343, 19.98627], [93.49219, 19.96501], [93.47047, 19.98485], [93.45703, 19.95426], [93.44654, 19.95136], [93.42319, 19.96532], [93.4135, 19.97775], [93.38396, 20.0644], [93.38234, 20.08853], [93.37485, 20.08853], [93.37207, 20.03084], [93.36183, 20.02645], [93.34067, 20.1022], [93.33383, 20.1022], [93.3265, 20.08129], [93.31275, 20.06538], [93.27247, 20.04752], [93.24464, 20.04989], [93.19028, 20.06444], [93.17628, 20.05371], [93.14747, 20.07001], [93.12843, 20.09467], [93.12989, 20.0751], [93.15576, 20.02643], [93.17628, 19.95751], [93.23584, 19.84723], [93.23828, 19.82101], [93.21763, 19.83711], [93.20158, 19.86254], [93.1764, 19.91631], [93.14812, 19.99433], [93.13152, 20.00658], [93.10914, 19.9938], [93.10206, 19.9641], [93.10613, 19.93065], [93.12435, 19.89386], [93.13453, 19.84829], [93.1559, 19.82766], [93.16878, 19.80734], [93.14918, 19.82893], [93.13454, 19.83406], [93.11264, 19.87434], [93.05943, 19.95112], [93.04868, 19.99482], [93.03842, 20.01293], [92.98073, 20.07795], [92.97024, 20.12945], [92.98829, 20.12499], [93.04249, 20.12946], [93.05445, 20.13475], [93.08009, 20.17046], [93.08692, 20.14997], [93.09425, 20.14997], [93.12094, 20.21198], [93.12094, 20.21821], [93.0892, 20.21035], [93.04736, 20.16797], [93.01856, 20.14998], [92.9905, 20.15494], [92.98749, 20.18667], [93.00117, 20.23909], [93.01881, 20.2565], [93.04128, 20.33201], [93.05616, 20.34919], [93.08082, 20.35855], [93.09132, 20.38101], [93.10043, 20.4311], [93.08188, 20.41698], [93.07252, 20.37661], [93.05958, 20.36225], [93.04323, 20.36495], [93.03419, 20.38422], [93.03102, 20.40965], [93.03224, 20.4311], [93.07057, 20.49616], [93.08562, 20.53295], [93.07325, 20.55463], [93.06031, 20.51337], [93.02263, 20.45254], [93.02003, 20.42402], [93.02491, 20.36848], [93.01628, 20.32486], [92.9948, 20.28661], [92.93605, 20.21198], [92.89844, 20.13569], [92.88054, 20.12321], [92.86037, 20.12495], [92.84669, 20.14313], [92.77231, 20.20131], [92.77818, 20.23163], [92.79972, 20.25933], [92.86403, 20.30076], [92.94288, 20.32123], [92.9253, 20.32783], [92.89333, 20.32954], [92.88071, 20.34919], [92.84694, 20.37735], [92.84051, 20.39013], [92.82692, 20.49506], [92.81528, 20.50471], [92.79265, 20.50625], [92.79655, 20.48383], [92.78532, 20.46297], [92.7693, 20.45508], [92.75857, 20.47211], [92.77898, 20.47826], [92.751, 20.49853], [92.73658, 20.56314], [92.72071, 20.59223], [92.66285, 20.67918], [92.63502, 20.69798], [92.65943, 20.65282], [92.70826, 20.57868], [92.71697, 20.49999], [92.73749, 20.44456], [92.73121, 20.38272], [92.73925, 20.27969], [92.73121, 20.25921], [92.69712, 20.30826], [92.65317, 20.41828], [92.63258, 20.4466], [92.53989, 20.52754], [92.52916, 20.54341], [92.52003, 20.58967], [92.50701, 20.60928], [92.47056, 20.64339], [92.45362, 20.66852], [92.42897, 20.67391], [92.38112, 20.70015], [92.30543, 20.91771], [92.28103, 20.95942], [92.27052, 21.04902], [92.26515, 21.0611], [92.25709, 20.98111], [92.26148, 20.94025], [92.27198, 20.90351], [92.30534, 20.85216], [92.30763, 20.8332], [92.33333, 20.76748], [92.33398, 20.74641], [92.32553, 20.73873], [92.30105, 20.76228], [92.27809, 20.81411], [92.20974, 20.93082], [92.19288, 20.99567], [92.18629, 21.00585], [92.13413, 21.04752], [92.09685, 21.10586], [92.0524, 21.15499], [92.04543, 21.17097], [92.04397, 21.19183], [92.05226, 21.25666], [92.04526, 21.29955], [91.98976, 21.39423], [91.96942, 21.40962], [91.95987, 21.42376], [91.94973, 21.45839], [91.96339, 21.45214], [91.98293, 21.48883], [91.99903, 21.4995], [92.01791, 21.49311], [92.00538, 21.5043], [91.99539, 21.52262], [91.99, 21.562], [92.02215, 21.59935], [92.01793, 21.61603], [92.03582, 21.64045], [92.03176, 21.65013], [92.03777, 21.65957], [92.0359, 21.66816], [92.0228, 21.67682], [92.02931, 21.7049], [92.0254, 21.71284], [92.01791, 21.69855], [92.0254, 21.69855], [92.01246, 21.66443], [92.00088, 21.64998], [91.9839, 21.65013], [91.97608, 21.66206], [91.9839, 21.70539], [91.97706, 21.70539], [91.97193, 21.68822], [91.96266, 21.68952], [91.95362, 21.7014], [91.94972, 21.71597], [91.95297, 21.73833], [91.97478, 21.74649], [91.99, 21.76], [91.9839, 21.76683], [91.9673, 21.75544], [91.96031, 21.76382], [91.96658, 21.77888], [91.99, 21.78791], [91.99, 21.79483], [91.9437, 21.79141], [91.91438, 21.78266], [91.98011, 21.8215], [92.05061, 21.84864], [92.12453, 21.86221], [92.16292, 21.86388], [92.23182, 21.8577], [92.24016, 21.86146], [92.24206, 21.93196], [92.5709, 22.00638], [92.55996, 22.06134], [92.53733, 22.12863], [92.54932, 22.1385], [92.5642, 22.13834], [92.57557, 22.1433], [92.57702, 22.16867], [92.51738, 22.51258], [92.50084, 22.56054], [92.50291, 22.61862], [92.49588, 22.69562], [92.49154, 22.71107], [92.48069, 22.72616], [92.45372, 22.74797], [92.44204, 22.76293], [92.43501, 22.79329], [92.42633, 22.87106], [92.41186, 22.88793], [92.37868, 22.90044], [92.35987, 22.92661], [92.35222, 22.96033], [92.35305, 23.02991], [92.32763, 23.17143], [92.32856, 23.21119], [92.33269, 23.22626], [92.35749, 23.27894], [92.35687, 23.28912], [92.34706, 23.31543], [92.34861, 23.3541], [92.3267, 23.37527], [92.32535, 23.40351], [92.30148, 23.4318], [92.29683, 23.44658], [92.29104, 23.49529], [92.2528, 23.60931], [92.25001, 23.64262], [92.26169, 23.68512], [92.25931, 23.70649], [92.55661, 24.00773]]], [[[93.74317, 19.35546], [93.72536, 19.38687], [93.72674, 19.39666], [93.73666, 19.39696], [93.73805, 19.40327], [93.73048, 19.41926], [93.66912, 19.44649], [93.65895, 19.45751], [93.64179, 19.492], [93.65659, 19.49738], [93.64919, 19.51313], [93.68817, 19.55946], [93.73121, 19.55409], [93.75538, 19.52302], [93.82, 19.4715], [93.8366, 19.47939], [93.85784, 19.48245], [93.88021, 19.47918], [93.95622, 19.43251], [93.97071, 19.41694], [93.97234, 19.38182], [93.96583, 19.36302], [93.9402, 19.34862], [93.91716, 19.31831], [93.88942, 19.29964], [93.88357, 19.30151], [93.87517, 19.31391], [93.8628, 19.30777], [93.86491, 19.28287], [93.84586, 19.27805], [93.8025, 19.27676], [93.77378, 19.29878], [93.74986, 19.33333], [93.74317, 19.35546]]], [[[93.40286, 19.95306], [93.42205, 19.95136], [93.44264, 19.93814], [93.47055, 19.90522], [93.49878, 19.88702], [93.50521, 19.87222], [93.50115, 19.82538], [93.5183, 19.76215], [93.51197, 19.74585], [93.45681, 19.78877], [93.4407, 19.81095], [93.40681, 19.92029], [93.40286, 19.95306]]], [[[92.91977, 20.05573], [92.90945, 20.06509], [92.90871, 20.07485], [92.91454, 20.08694], [92.92269, 20.08762], [92.94645, 20.07049], [92.96249, 20.04627], [92.96754, 20.0222], [93.01465, 19.90558], [93.0249, 19.82784], [93.0185, 19.82804], [93.00856, 19.88988], [93.00123, 19.90664], [92.92591, 20.03356], [92.91977, 20.05573]]], [[[91.97486, 21.64875], [91.98388, 21.6092], [91.97022, 21.52359], [91.9611, 21.50618], [91.91407, 21.50947], [91.89454, 21.50678], [91.89966, 21.48603], [91.8877, 21.48014], [91.86843, 21.48677], [91.85525, 21.51948], [91.85549, 21.52668], [91.8711, 21.54768], [91.87403, 21.58186], [91.86891, 21.62222], [91.84792, 21.68879], [91.85353, 21.72582], [91.86298, 21.74558], [91.87257, 21.75481], [91.88331, 21.75388], [91.89796, 21.74331], [91.90284, 21.73029], [91.88771, 21.68496], [91.90333, 21.70287], [91.90952, 21.72679], [91.90838, 21.75218], [91.90123, 21.77431], [91.93555, 21.78115], [91.93873, 21.71483], [91.97486, 21.64875]]], [[[98.39812, 9.70626], [98.38495, 9.72793], [98.38967, 9.74241], [98.41162, 9.77452], [98.41781, 9.74706], [98.41667, 9.73347], [98.39812, 9.70626]]], [[[98.46119, 9.81517], [98.45687, 9.78712], [98.45004, 9.79715], [98.44248, 9.7959], [98.43695, 9.8022], [98.43677, 9.8271], [98.44394, 9.83047], [98.44549, 9.84329], [98.44013, 9.85464], [98.452, 9.87009], [98.46225, 9.8594], [98.47444, 9.85829], [98.46608, 9.83894], [98.4694, 9.8192], [98.46582, 9.8127], [98.46119, 9.81517]]], [[[98.97538, 9.94709], [98.95404, 9.87659], [98.91847, 9.81142], [98.85214, 9.73045], [98.80086, 9.68096], [98.74054, 9.6423], [98.67375, 9.61622], [98.60309, 9.60374], [98.53132, 9.60536], [98.47038, 9.61849], [98.49025, 9.63494], [98.5005, 9.63451], [98.51417, 9.65473], [98.49368, 9.68573], [98.51002, 9.68659], [98.51319, 9.69489], [98.5066, 9.70563], [98.49368, 9.71369], [98.5005, 9.7199], [98.53142, 9.70393], [98.54396, 9.70649], [98.54901, 9.72361], [98.56129, 9.73306], [98.56577, 9.74262], [98.55926, 9.74722], [98.5385, 9.74752], [98.52101, 9.75462], [98.51416, 9.74039], [98.508, 9.74039], [98.508, 9.77456], [98.51637, 9.78293], [98.54152, 9.78824], [98.55543, 9.79804], [98.56617, 9.81], [98.58302, 9.84284], [98.549, 9.80927], [98.54006, 9.81099], [98.53028, 9.82559], [98.51272, 9.83686], [98.52077, 9.85443], [98.549, 9.88372], [98.55991, 9.87303], [98.57618, 9.87759], [98.5705, 9.88422], [98.58546, 9.89497], [98.58985, 9.90546], [98.57164, 9.91548], [98.59198, 9.94269], [98.59987, 9.94814], [98.62208, 9.94782], [98.63087, 9.9527], [98.63315, 9.96296], [98.62355, 9.96719], [98.61256, 9.96597], [98.61036, 9.96011], [98.59963, 9.97387], [98.60347, 9.99342], [98.64785, 10.06913], [98.66228, 10.08527], [98.68963, 10.16205], [98.7129, 10.20551], [98.72047, 10.22793], [98.7308, 10.29173], [98.74627, 10.32901], [98.74741, 10.35053], [98.98872, 10.01586], [98.97538, 9.94709]]], [[[98.52556, 10.82685], [98.51832, 10.8295], [98.50051, 10.82348], [98.49091, 10.8808], [98.49367, 10.89108], [98.54224, 10.86005], [98.55322, 10.83283], [98.54151, 10.79622], [98.52711, 10.78694], [98.50953, 10.78662], [98.4984, 10.79361], [98.50417, 10.80609], [98.52638, 10.81086], [98.52849, 10.82005], [98.52556, 10.82685]]], [[[98.44042, 10.96573], [98.43296, 10.96504], [98.42955, 10.97773], [98.43283, 10.99338], [98.44256, 11.00299], [98.45142, 11.00193], [98.45288, 10.98628], [98.44042, 10.96573]]], [[[98.51206, 10.96524], [98.50798, 10.94637], [98.48586, 10.95589], [98.47707, 10.9737], [98.47838, 10.99335], [98.48584, 11.00669], [98.50953, 11.02774], [98.51588, 11.04536], [98.51418, 11.06989], [98.52467, 11.08664], [98.5319, 11.0838], [98.54461, 11.03102], [98.54151, 10.95381], [98.53383, 10.95103], [98.52849, 10.97431], [98.51206, 10.96524]]], [[[98.52882, 11.32496], [98.55037, 11.30329], [98.55534, 11.28392], [98.549, 11.26217], [98.52663, 11.31444], [98.52882, 11.32496]]], [[[98.54899, 11.62173], [98.54574, 11.60904], [98.53159, 11.59333], [98.52849, 11.58047], [98.53532, 11.52926], [98.5005, 11.56338], [98.46519, 11.57491], [98.459, 11.58381], [98.4419, 11.56413], [98.43239, 11.56673], [98.42922, 11.58316], [98.43165, 11.60493], [98.42384, 11.59907], [98.41559, 11.60464], [98.41165, 11.61176], [98.41863, 11.63227], [98.41041, 11.64606], [98.3913, 11.663], [98.37949, 11.6909], [98.3821, 11.70416], [98.40553, 11.70795], [98.38126, 11.73153], [98.37763, 11.73802], [98.3799, 11.75092], [98.4131, 11.77338], [98.3821, 11.7762], [98.37079, 11.78925], [98.39373, 11.794], [98.43659, 11.78731], [98.45281, 11.78925], [98.44534, 11.80361], [98.48683, 11.79609], [98.52215, 11.80475], [98.53509, 11.80364], [98.54907, 11.79137], [98.55637, 11.75905], [98.55552, 11.72831], [98.54607, 11.6992], [98.54899, 11.62173]]], [[[98.27983, 11.89926], [98.28483, 11.89606], [98.28901, 11.8826], [98.28658, 11.87379], [98.27983, 11.89926]]], [[[98.44029, 12.01537], [98.43914, 12.05679], [98.43092, 12.10041], [98.43914, 12.11199], [98.44557, 12.10139], [98.4733, 12.07709], [98.49366, 12.0493], [98.50953, 12.01679], [98.51987, 12.00702], [98.54152, 11.99531], [98.55958, 12.00079], [98.57471, 11.99298], [98.60353, 11.96743], [98.64234, 11.95749], [98.65918, 11.94867], [98.65822, 11.93392], [98.65821, 11.94013], [98.63114, 11.93211], [98.5726, 11.93163], [98.55201, 11.92333], [98.51563, 11.89581], [98.49578, 11.88851], [98.47805, 11.89095], [98.45971, 11.93391], [98.45906, 11.94778], [98.47316, 11.97797], [98.47096, 11.9881], [98.44029, 12.01537]]], [[[98.39836, 12.13737], [98.38088, 12.14428], [98.38088, 12.16047], [98.39552, 12.1782], [98.40536, 12.17007], [98.40576, 12.15721], [98.39836, 12.13737]]], [[[98.46307, 12.38881], [98.47901, 12.39019], [98.49235, 12.37238], [98.49023, 12.35416], [98.46583, 12.33536], [98.45305, 12.33178], [98.44305, 12.33467], [98.43752, 12.34073], [98.43833, 12.35106], [98.46307, 12.38881]]], [[[98.51416, 12.49559], [98.51684, 12.4792], [98.51416, 12.42365], [98.50855, 12.41031], [98.49562, 12.40584], [98.48211, 12.4106], [98.47431, 12.425], [98.48855, 12.49331], [98.49985, 12.51307], [98.51416, 12.49559]]], [[[98.46537, 12.48085], [98.45581, 12.45776], [98.39128, 12.36152], [98.34994, 12.32593], [98.30203, 12.33796], [98.3156, 12.3653], [98.33611, 12.45091], [98.31564, 12.49538], [98.33383, 12.51236], [98.31415, 12.55329], [98.30281, 12.59833], [98.30203, 12.64631], [98.31561, 12.68743], [98.33302, 12.67121], [98.38746, 12.65765], [98.40552, 12.63898], [98.39812, 12.58747], [98.40122, 12.57168], [98.42547, 12.52973], [98.43817, 12.58738], [98.45094, 12.60397], [98.46631, 12.58372], [98.47071, 12.55598], [98.46537, 12.48085]]], [[[98.33919, 12.76857], [98.35222, 12.74111], [98.36214, 12.70471], [98.34627, 12.71339], [98.33189, 12.76817], [98.33919, 12.76857]]], [[[98.30201, 12.98847], [98.31331, 12.94595], [98.31429, 12.92576], [98.30202, 12.91334], [98.30128, 12.93354], [98.28786, 12.95735], [98.28826, 12.9748], [98.26775, 13.05732], [98.24056, 13.13899], [98.24204, 13.20392], [98.24733, 13.21502], [98.26148, 13.21433], [98.26879, 13.19891], [98.28891, 13.0987], [98.29566, 13.08466], [98.30348, 13.08299], [98.31853, 13.09137], [98.32984, 13.08465], [98.33643, 13.07388], [98.33423, 13.06713], [98.30633, 13.04011], [98.30201, 13.02945], [98.30201, 12.98847]]], [[[98.49213, 13.17834], [98.48448, 13.21511], [98.49066, 13.2263], [98.50343, 13.23367], [98.51588, 13.2307], [98.52459, 13.22195], [98.52865, 13.20571], [98.51758, 13.17374], [98.49937, 13.16788], [98.49213, 13.17834]]]]}}]}