{"type": "FeatureCollection", "features": [{"type": "Feature", "properties": {"name": "뉴헤브리디스 제도", "name_en": "New Hebrides", "period": "1914년경", "kind": "식민지", "legend": "뉴헤브리디스 제도", "map_title": "제국주의 열강의 아시아·태평양 분할(1914년경)", "source": "미래엔 세계사 교과서 3권 157쪽", "volume": 3, "page": 157, "note": "영국령 · 실제로는 영국·프랑스 공동 통치(1906~)", "coast_snap": "Natural Earth 10m 해안선에 맞춤"}, "geometry": {"type": "MultiPolygon", "coordinates": [[[[169.23472, -19.36248], [169.24343, -19.34198], [169.26171, -19.32824], [169.28151, -19.32294], [169.32008, -19.32244], [169.3366, -19.31464], [169.35286, -19.32806], [169.35376, -19.34157], [169.344, -19.38014], [169.35768, -19.45526], [169.36647, -19.46966], [169.41334, -19.4846], [169.36883, -19.50989], [169.26169, -19.55062], [169.21853, -19.49016], [169.21325, -19.46505], [169.21999, -19.41481], [169.23894, -19.39853], [169.23472, -19.36248]]], [[[169.03868, -18.62909], [169.07781, -18.61827], [169.1182, -18.61939], [169.15235, -18.63633], [169.16249, -18.65247], [169.16652, -18.70827], [169.17213, -18.72649], [169.18678, -18.73496], [169.22731, -18.73935], [169.24399, -18.73253], [169.24805, -18.73448], [169.24741, -18.74342], [169.25611, -18.74823], [169.26831, -18.76994], [169.19321, -18.78704], [169.21745, -18.81537], [169.22047, -18.82497], [169.29859, -18.8642], [169.31983, -18.88202], [169.33236, -18.90488], [169.33657, -18.93463], [169.3278, -18.96038], [169.28696, -18.98235], [169.27507, -18.99927], [169.25489, -18.9848], [169.16652, -18.93922], [169.15447, -18.93621], [169.13438, -18.94087], [169.1028, -18.93222], [169.05926, -18.90195], [168.98732, -18.87655], [168.98554, -18.85963], [169.00196, -18.81504], [169.00221, -18.80169], [168.98228, -18.76263], [168.98876, -18.69081], [168.99489, -18.6697], [169.00816, -18.65], [169.03868, -18.62909]]], [[[168.47049, -17.83754], [168.4269, -17.89199], [168.35158, -17.91555], [168.26127, -17.91006], [168.17266, -17.87714], [168.10211, -17.81839], [168.06575, -17.7357], [168.07954, -17.63139], [168.12762, -17.63465], [168.22634, -17.65412], [168.32527, -17.68676], [168.46661, -17.74846], [168.46408, -17.73537], [168.54245, -17.7854], [168.4656, -17.74939], [168.47049, -17.83754]]], [[[167.54297, -16.30011], [167.66599, -16.39136], [167.77095, -16.49005], [167.84285, -16.59427], [167.86658, -16.70245], [167.82708, -16.81334], [167.72059, -16.90023], [167.60253, -16.88669], [167.48053, -16.79588], [167.36161, -16.65175], [167.25266, -16.47909], [167.16089, -16.30307], [167.0942, -16.14859], [167.06132, -16.03983], [167.10996, -16.04397], [167.14749, -16.05173], [167.17848, -15.9909], [167.17418, -15.92461], [167.18182, -15.89626], [167.22625, -15.86738], [167.3361, -15.90896], [167.33481, -15.94411], [167.39469, -16.018], [167.37713, -16.05291], [167.38436, -16.05587], [167.3111, -16.11201], [167.43765, -16.17648], [167.38948, -16.15852], [167.37681, -16.19271], [167.54297, -16.30011]]], [[[167.22495, -15.69004], [167.23352, -15.74146], [167.20574, -15.75123], [167.18589, -15.75073], [167.14422, -15.72405], [167.10142, -15.71118], [167.0893, -15.70366], [167.07229, -15.6762], [167.07571, -15.6496], [167.09499, -15.62958], [167.12696, -15.62153], [167.19776, -15.62999], [167.23356, -15.64154], [167.23681, -15.65935], [167.22495, -15.69004]]], [[[167.18873, -15.54852], [167.19263, -15.55389], [167.18531, -15.56699], [167.20833, -15.57904], [167.20947, -15.59615], [167.19483, -15.60751], [167.17164, -15.60101], [167.1574, -15.60801], [167.14283, -15.60589], [167.10956, -15.58749], [167.1574, -15.539], [167.17644, -15.53151], [167.1902, -15.53167], [167.19267, -15.53543], [167.17848, -15.539], [167.17848, -15.54583], [167.18873, -15.54852]]], [[[166.52737, -14.73707], [166.55453, -14.68239], [166.55259, -14.65765], [166.55617, -14.64594], [166.58766, -14.63641], [166.5984, -14.62527], [166.60998, -14.63491], [166.62672, -14.67498], [166.63501, -14.67947], [166.64019, -14.6898], [166.64405, -14.71315], [166.67122, -14.74392], [166.68621, -14.77996], [166.70639, -14.78974], [166.74706, -14.8196], [166.73732, -14.82952], [166.76981, -14.94767], [166.77296, -15.0097], [166.78808, -15.0285], [166.80177, -15.15228], [166.81316, -15.16041], [166.91977, -15.15594], [166.93882, -15.12811], [166.96323, -15.10418], [166.97193, -14.97991], [166.96454, -14.95135], [166.97593, -14.93728], [167.00766, -14.92207], [167.08286, -14.9289], [167.08285, -14.93628], [167.06471, -14.93922], [167.05616, -14.94769], [167.0568, -15.00205], [167.04127, -15.02508], [167.05787, -15.02696], [167.06462, -15.03884], [167.06861, -15.07293], [167.08912, -15.14121], [167.11352, -15.12415], [167.12574, -15.12136], [167.1442, -15.12811], [167.13942, -15.14642], [167.15739, -15.22682], [167.15259, -15.24276], [167.1408, -15.24977], [167.15113, -15.26474], [167.17847, -15.27777], [167.19165, -15.30538], [167.18506, -15.34099], [167.17888, -15.3466], [167.17164, -15.33294], [167.16481, -15.33294], [167.17172, -15.36639], [167.18946, -15.41717], [167.2129, -15.46356], [167.24536, -15.48806], [167.24723, -15.49822], [167.24056, -15.51783], [167.23341, -15.5236], [167.20916, -15.51784], [167.17172, -15.51784], [167.1574, -15.52288], [167.14064, -15.53558], [167.10271, -15.58001], [167.08546, -15.59057], [167.05349, -15.59193], [167.02711, -15.58001], [166.98911, -15.57562], [166.9463, -15.57676], [166.90797, -15.58636], [166.88347, -15.60801], [166.89322, -15.61776], [166.86378, -15.61484], [166.85141, -15.62265], [166.83578, -15.64885], [166.8156, -15.65828], [166.79315, -15.65633], [166.77133, -15.64503], [166.75393, -15.6277], [166.76645, -15.60882], [166.76678, -15.58392], [166.7562, -15.56243], [166.7217, -15.54729], [166.70722, -15.5328], [166.68508, -15.49814], [166.67408, -15.46803], [166.64138, -15.43474], [166.63404, -15.41318], [166.61613, -15.38523], [166.64617, -15.28558], [166.65008, -15.26474], [166.64918, -15.21836], [166.64381, -15.19525], [166.61981, -15.16155], [166.61395, -15.14186], [166.60987, -15.10027], [166.59963, -15.06211], [166.60036, -15.04844], [166.60987, -15.03192], [166.59263, -15.02629], [166.58206, -15.0114], [166.57081, -14.95623], [166.54104, -14.90838], [166.52265, -14.83213], [166.53468, -14.77532], [166.5337, -14.75164], [166.52737, -14.73707]]], [[[167.13104, -14.96892], [167.10126, -14.93982], [167.09645, -14.9289], [167.1141, -14.93386], [167.13982, -14.9533], [167.15738, -14.95624], [167.1484, -14.96568], [167.13104, -14.96892]]], [[[166.4887, -14.88975], [166.43387, -14.88787], [166.50133, -14.8408], [166.49579, -14.85342], [166.4887, -14.88975]]]]}}]}