{"type": "FeatureCollection", "features": [{"type": "Feature", "properties": {"name": "투투일라 제도(미국령 사모아)", "name_en": "American Samoa (Tutuila)", "period": "1914년경", "kind": "세력권", "legend": "미국령 (지도의 굵은 테두리)", "map_title": "제국주의 열강의 아시아·태평양 분할(1914년경)", "source": "미래엔 세계사 교과서 3권 157쪽", "volume": 3, "page": 157, "note": "섬들을 묶은 테두리 범위(바다 포함) — 실제 영토가 아니라 관할 섬 무리의 범위 표시"}, "geometry": {"type": "Polygon", "coordinates": [[[-167.64506, -16.0892], [-168.21232, -16.45661], [-168.78118, -16.81061], [-169.35176, -17.15597], [-169.4046, -17.19667], [-169.44581, -17.24791], [-169.47383, -17.30782], [-169.48254, -17.34035], [-169.489, -17.40899], [-169.48066, -17.48024], [-169.45786, -17.55136], [-169.42143, -17.61964], [-169.37276, -17.68244], [-169.31365, -17.73735], [-169.24632, -17.78229], [-169.17327, -17.81555], [-169.13545, -17.82739], [-169.05898, -17.84099], [-168.70385, -17.87098], [-167.99432, -17.92298], [-167.63987, -17.94492], [-167.24828, -17.96447], [-167.21161, -17.96138], [-167.14154, -17.94537], [-167.07795, -17.91679], [-167.02316, -17.87671], [-166.97916, -17.82661], [-166.96173, -17.79838], [-166.93681, -17.73684], [-166.92585, -17.67042], [-166.94622, -17.23452], [-166.99071, -16.42814], [-167.00222, -16.35732], [-167.01345, -16.32232], [-167.02818, -16.28799], [-167.06759, -16.22276], [-167.11899, -16.16408], [-167.18041, -16.11413], [-167.24955, -16.07479], [-167.2862, -16.05957], [-167.36194, -16.03873], [-167.43853, -16.03126], [-167.47624, -16.03265], [-167.51308, -16.03743], [-167.5828, -16.05699], [-167.64506, -16.0892]]]}}]}