{"type": "FeatureCollection", "features": [{"type": "Feature", "properties": {"name": "마커스섬", "name_en": "Marcus Island (Minamitorishima)", "category": "기타", "year": "", "coord_source": "실제 위치", "map_lon": 160.69721, "map_lat": 21.61349, "legend": "마커스섬", "map_title": "제국주의 열강의 아시아·태평양 분할(1914년경)", "source": "미래엔 세계사 교과서 3권 157쪽", "volume": 3, "page": 157}, "geometry": {"type": "Point", "coordinates": [153.98, 24.29]}}, {"type": "Feature", "properties": {"name": "하와이", "name_en": "Hawaii", "category": "기타", "year": "", "coord_source": "실제 위치", "map_lon": 198.31811, "map_lat": 19.85869, "legend": "하와이", "map_title": "제국주의 열강의 아시아·태평양 분할(1914년경)", "source": "미래엔 세계사 교과서 3권 157쪽", "volume": 3, "page": 157}, "geometry": {"type": "Point", "coordinates": [202.2, 21.3]}}, {"type": "Feature", "properties": {"name": "팔미라 제도", "name_en": "Palmyra Atoll", "category": "기타", "year": "", "coord_source": "실제 위치", "map_lon": 195.7906, "map_lat": 8.66546, "legend": "팔미라 제도", "map_title": "제국주의 열강의 아시아·태평양 분할(1914년경)", "source": "미래엔 세계사 교과서 3권 157쪽", "volume": 3, "page": 157}, "geometry": {"type": "Point", "coordinates": [197.9, 5.88]}}, {"type": "Feature", "properties": {"name": "마셜 제도", "name_en": "Marshall Islands", "category": "기타", "year": "", "coord_source": "실제 위치", "map_lon": 169.26796, "map_lat": 10.2178, "legend": "마셜 제도", "map_title": "제국주의 열강의 아시아·태평양 분할(1914년경)", "source": "미래엔 세계사 교과서 3권 157쪽", "volume": 3, "page": 157}, "geometry": {"type": "Point", "coordinates": [171.0, 8.0]}}, {"type": "Feature", "properties": {"name": "캐롤라인 제도", "name_en": "Caroline Islands", "category": "기타", "year": "", "coord_source": "실제 위치", "map_lon": 166.29898, "map_lat": 6.33526, "legend": "캐롤라인 제도", "map_title": "제국주의 열강의 아시아·태평양 분할(1914년경)", "source": "미래엔 세계사 교과서 3권 157쪽", "volume": 3, "page": 157}, "geometry": {"type": "Point", "coordinates": [150.0, 7.0]}}, {"type": "Feature", "properties": {"name": "팔라우 제도", "name_en": "Palau Islands", "category": "기타", "year": "", "coord_source": "실제 위치", "map_lon": 142.10805, "map_lat": 8.10669, "legend": "팔라우 제도", "map_title": "제국주의 열강의 아시아·태평양 분할(1914년경)", "source": "미래엔 세계사 교과서 3권 157쪽", "volume": 3, "page": 157}, "geometry": {"type": "Point", "coordinates": [134.5, 7.5]}}, {"type": "Feature", "properties": {"name": "비스마르크 제도", "name_en": "Bismarck Archipelago", "category": "기타", "year": "", "coord_source": "실제 위치", "map_lon": 151.25523, "map_lat": -0.43976, "legend": "비스마르크 제도", "map_title": "제국주의 열강의 아시아·태평양 분할(1914년경)", "source": "미래엔 세계사 교과서 3권 157쪽", "volume": 3, "page": 157}, "geometry": {"type": "Point", "coordinates": [150.5, -4.0]}}, {"type": "Feature", "properties": {"name": "길버트 제도", "name_en": "Gilbert Islands", "category": "기타", "year": "", "coord_source": "실제 위치", "map_lon": 167.60671, "map_lat": -4.28154, "legend": "길버트 제도", "map_title": "제국주의 열강의 아시아·태평양 분할(1914년경)", "source": "미래엔 세계사 교과서 3권 157쪽", "volume": 3, "page": 157}, "geometry": {"type": "Point", "coordinates": [173.0, 1.0]}}, {"type": "Feature", "properties": {"name": "피닉스 제도", "name_en": "Phoenix Islands", "category": "기타", "year": "", "coord_source": "실제 위치", "map_lon": 181.6492, "map_lat": -3.24961, "legend": "피닉스 제도", "map_title": "제국주의 열강의 아시아·태평양 분할(1914년경)", "source": "미래엔 세계사 교과서 3권 157쪽", "volume": 3, "page": 157}, "geometry": {"type": "Point", "coordinates": [188.5, -3.7]}}, {"type": "Feature", "properties": {"name": "크리스마스 제도", "name_en": "Christmas Island (Kiritimati)", "category": "기타", "year": "", "coord_source": "실제 위치", "map_lon": 197.89824, "map_lat": -0.24059, "legend": "크리스마스 제도", "map_title": "제국주의 열강의 아시아·태평양 분할(1914년경)", "source": "미래엔 세계사 교과서 3권 157쪽", "volume": 3, "page": 157}, "geometry": {"type": "Point", "coordinates": [202.6, 1.87]}}, {"type": "Feature", "properties": {"name": "솔로몬 제도", "name_en": "Solomon Islands", "category": "기타", "year": "", "coord_source": "실제 위치", "map_lon": 165.40659, "map_lat": -9.71033, "legend": "솔로몬 제도", "map_title": "제국주의 열강의 아시아·태평양 분할(1914년경)", "source": "미래엔 세계사 교과서 3권 157쪽", "volume": 3, "page": 157}, "geometry": {"type": "Point", "coordinates": [160.0, -9.0]}}, {"type": "Feature", "properties": {"name": "뉴헤브리디스 제도", "name_en": "New Hebrides", "category": "기타", "year": "", "coord_source": "실제 위치", "map_lon": 162.82363, "map_lat": -14.56339, "legend": "뉴헤브리디스 제도", "map_title": "제국주의 열강의 아시아·태평양 분할(1914년경)", "source": "미래엔 세계사 교과서 3권 157쪽", "volume": 3, "page": 157}, "geometry": {"type": "Point", "coordinates": [167.5, -16.0]}}, {"type": "Feature", "properties": {"name": "뉴칼레도니아 제도", "name_en": "New Caledonia", "category": "기타", "year": "", "coord_source": "실제 위치", "map_lon": 165.81814, "map_lat": -27.09258, "legend": "뉴칼레도니아 제도", "map_title": "제국주의 열강의 아시아·태평양 분할(1914년경)", "source": "미래엔 세계사 교과서 3권 157쪽", "volume": 3, "page": 157}, "geometry": {"type": "Point", "coordinates": [165.5, -21.3]}}, {"type": "Feature", "properties": {"name": "피지 제도", "name_en": "Fiji", "category": "기타", "year": "", "coord_source": "실제 위치", "map_lon": 180.4806, "map_lat": -18.41387, "legend": "피지 제도", "map_title": "제국주의 열강의 아시아·태평양 분할(1914년경)", "source": "미래엔 세계사 교과서 3권 157쪽", "volume": 3, "page": 157}, "geometry": {"type": "Point", "coordinates": [178.5, -17.5]}}, {"type": "Feature", "properties": {"name": "사모아 제도", "name_en": "Samoa Islands", "category": "기타", "year": "", "coord_source": "실제 위치", "map_lon": 192.69744, "map_lat": -12.43679, "legend": "사모아 제도", "map_title": "제국주의 열강의 아시아·태평양 분할(1914년경)", "source": "미래엔 세계사 교과서 3권 157쪽", "volume": 3, "page": 157}, "geometry": {"type": "Point", "coordinates": [187.8, -13.8]}}, {"type": "Feature", "properties": {"name": "투투일라 제도", "name_en": "Tutuila", "category": "기타", "year": "", "coord_source": "실제 위치", "map_lon": 196.97159, "map_lat": -20.01959, "legend": "투투일라 제도", "map_title": "제국주의 열강의 아시아·태평양 분할(1914년경)", "source": "미래엔 세계사 교과서 3권 157쪽", "volume": 3, "page": 157}, "geometry": {"type": "Point", "coordinates": [189.3, -14.3]}}, {"type": "Feature", "properties": {"name": "쿡 제도", "name_en": "Cook Islands", "category": "기타", "year": "", "coord_source": "실제 위치", "map_lon": 197.83524, "map_lat": -27.58706, "legend": "쿡 제도", "map_title": "제국주의 열강의 아시아·태평양 분할(1914년경)", "source": "미래엔 세계사 교과서 3권 157쪽", "volume": 3, "page": 157}, "geometry": {"type": "Point", "coordinates": [200.2, -21.2]}}]}