{"type": "FeatureCollection", "features": [{"type": "Feature", "properties": {"name": "메소포타미아 문명", "name_en": "Mesopotamian civilization", "period": "기원전 3500년경", "kind": "문명", "legend": "메소포타미아 문명", "map_title": "여러 지역에서 형성된 다양한 문명", "source": "미래엔 세계사 교과서 1권 14–15쪽", "volume": 1, "page": "14–15", "coast_snap": "Natural Earth 10m 해안선에 맞춤", "border_snap": "현대 국경(Natural Earth 10m)에 맞춘 구간 약 144 km"}, "geometry": {"type": "MultiPolygon", "coordinates": [[[[48.39945, 29.39764], [48.39735, 29.38751], [48.37302, 29.39393], [48.33593, 29.42059], [48.31687, 29.42701], [48.26925, 29.4297], [48.27004, 29.45596], [48.2811, 29.47109], [48.29851, 29.47312], [48.35407, 29.45726], [48.38899, 29.42487], [48.39945, 29.39764]]], [[[48.04609, 29.80044], [48.10955, 29.83332], [48.11329, 29.8391], [48.11915, 29.8736], [48.08516, 29.87988], [48.09507, 29.89471], [48.10922, 29.89361], [48.13356, 29.87987], [48.1587, 29.87922], [48.16651, 29.88593], [48.16083, 29.90155], [48.1937, 29.91645], [48.19744, 29.92536], [48.18133, 29.93513], [48.16993, 29.93647], [48.15675, 29.93115], [48.14724, 29.93513], [48.14045, 29.95195], [48.14039, 29.96979], [48.12274, 29.96968], [48.11672, 29.97407], [48.13356, 29.98968], [48.16212, 29.99566], [48.18889, 29.98335], [48.34436, 29.79076], [48.35952, 29.75425], [48.3527, 29.70979], [48.33369, 29.67911], [48.30306, 29.64521], [48.26647, 29.6161], [48.22901, 29.59993], [48.18564, 29.60412], [48.16163, 29.62971], [48.12645, 29.70277], [48.08513, 29.76781], [48.07374, 29.77969], [48.05373, 29.79003], [48.04609, 29.80044]]], [[[48.02369, 29.96989], [48.01077, 29.98046], [48.0093, 29.98688], [48.0547, 30.02448], [48.09376, 30.02928], [48.10866, 30.0261], [48.10612, 30.01765], [48.07887, 30.00405], [48.05812, 29.98344], [48.02369, 29.96989]]], [[[49.02678, 30.46621], [49.02182, 30.46149], [49.00847, 30.46593], [49.0115, 30.49881], [49.02915, 30.50198], [49.03533, 30.49815], [49.03981, 30.50263], [49.06217, 30.50125], [49.05804, 30.49018], [49.06421, 30.4646], [49.04013, 30.46556], [49.03842, 30.46971], [49.02931, 30.45779], [49.02678, 30.46621]]], [[[43.57073, 35.65107], [43.90015, 35.64075], [44.05952, 35.44544], [44.38338, 35.43751], [45.0023, 34.86068], [45.22694, 34.64366], [45.50066, 34.59169], [45.49653, 34.56425], [45.50485, 34.52378], [45.50345, 34.49417], [45.49302, 34.47901], [45.47927, 34.46725], [45.42677, 34.45751], [45.41705, 34.44436], [45.44795, 34.36209], [45.46077, 34.34046], [45.47927, 34.32915], [45.49922, 34.3424], [45.52154, 34.3425], [45.54221, 34.3316], [45.55756, 34.31196], [45.56304, 34.28928], [45.56102, 34.2646], [45.54769, 34.21649], [45.52867, 34.18856], [45.52666, 34.17931], [45.54454, 34.15063], [45.54454, 34.13949], [45.80829, 34.06908], [46.22861, 33.63877], [46.81241, 33.01908], [47.12288, 33.01115], [47.45739, 32.59398], [47.76629, 32.58654], [48.30655, 31.959], [48.62142, 31.95233], [48.85712, 31.71832], [49.09888, 31.48701], [49.16767, 31.15812], [49.24585, 30.83634], [49.4908, 30.68978], [49.48852, 30.66842], [49.49305, 30.66181], [49.55403, 30.65142], [49.62519, 30.62883], [49.65759, 30.56703], [49.67763, 30.50727], [49.68734, 30.50629], [49.76239, 30.53899], [49.78534, 30.51416], [49.82666, 30.45267], [49.85297, 30.38623], [49.86043, 30.35144], [49.86339, 30.28072], [49.85553, 30.17135], [49.60075, 30.0301], [49.56446, 30.01684], [49.53224, 30.02294], [49.50409, 30.05866], [49.50123, 30.12006], [49.47983, 30.15607], [49.45932, 30.16519], [49.42823, 30.16852], [49.38369, 30.16174], [49.34995, 30.17528], [49.32928, 30.17227], [49.29159, 30.15847], [49.27125, 30.15486], [49.24513, 30.15649], [49.2357, 30.16511], [49.23707, 30.20637], [49.21601, 30.22379], [49.2212, 30.26455], [49.20916, 30.27147], [49.19287, 30.23775], [49.17847, 30.22591], [49.16139, 30.22379], [49.14333, 30.23355], [49.12403, 30.25642], [49.08351, 30.26485], [49.01735, 30.2983], [49.00368, 30.3094], [48.99708, 30.34162], [48.9795, 30.36176], [48.9533, 30.37352], [48.92117, 30.38077], [48.93181, 30.39716], [48.94831, 30.401], [49.01075, 30.39594], [49.06202, 30.4081], [49.08236, 30.40378], [49.12338, 30.38508], [49.17643, 30.37274], [49.20289, 30.34663], [49.22772, 30.38922], [49.25717, 30.42186], [49.26384, 30.44965], [49.24318, 30.44604], [49.22829, 30.45442], [49.21902, 30.4698], [49.21119, 30.50633], [49.16824, 30.47702], [49.17506, 30.49746], [49.16676, 30.50878], [49.13405, 30.49747], [49.11012, 30.51797], [49.08937, 30.51115], [49.03435, 30.51927], [49.01734, 30.51114], [48.98146, 30.51561], [48.95297, 30.50019], [48.94565, 30.47972], [48.97267, 30.46947], [49.00441, 30.46402], [49.02947, 30.45026], [49.03727, 30.43252], [49.01734, 30.41494], [48.94646, 30.42158], [48.93483, 30.41865], [48.88014, 30.37458], [48.86232, 30.34561], [48.87369, 30.33665], [48.85963, 30.31623], [48.86703, 30.29475], [48.92114, 30.25043], [48.93596, 30.21041], [48.94163, 30.16538], [48.92799, 30.12067], [48.93481, 30.07997], [48.92863, 30.06022], [48.91528, 30.04219], [48.89722, 30.02946], [48.87672, 30.02449], [48.80885, 30.03144], [48.79135, 30.02449], [48.77198, 30.03238], [48.702, 30.03194], [48.65952, 30.05223], [48.64332, 30.05541], [48.64064, 30.03807], [48.65893, 30.00727], [48.66162, 29.99348], [48.65137, 29.97501], [48.63379, 29.96305], [48.61085, 29.95703], [48.53745, 29.96304], [48.53745, 29.96988], [48.53077, 29.9562], [48.55494, 29.95649], [48.55924, 29.9466], [48.54688, 29.93473], [48.52029, 29.92892], [48.41159, 29.93851], [48.33547, 29.96142], [48.29957, 29.98452], [48.26466, 29.99397], [48.20924, 30.02448], [48.16578, 30.03754], [48.11915, 30.04499], [48.07634, 30.04564], [48.03826, 30.03685], [47.96901, 30.00407], [47.95167, 30.08832], [47.93482, 30.10708], [47.9485, 30.06232], [47.94093, 30.02652], [47.9485, 30.01765], [47.94801, 29.99405], [47.97532, 29.94232], [47.98268, 29.86066], [47.99562, 29.8277], [48.02174, 29.77973], [48.05242, 29.74299], [48.07887, 29.74395], [48.11915, 29.65453], [48.16129, 29.60162], [48.18082, 29.56242], [48.17675, 29.54192], [48.1543, 29.53917], [48.11323, 29.5548], [48.09255, 29.56583], [48.08595, 29.57502], [48.02386, 29.58481], [47.96553, 29.5763], [47.91061, 29.5318], [47.84926, 29.50198], [47.80704, 29.46762], [47.76386, 29.41294], [47.71839, 29.3942], [47.70472, 29.36363], [47.727, 29.36193], [47.79174, 29.37248], [47.8373, 29.38749], [47.85113, 29.3802], [47.82261, 29.36343], [47.81643, 29.33756], [47.84093, 29.32293], [47.8579, 29.32303], [47.89919, 29.33525], [47.9054, 29.35926], [47.9202, 29.36486], [47.93933, 29.35943], [47.95937, 29.37244], [47.96989, 29.38723], [47.98574, 29.39375], [48.02524, 29.35489], [48.06327, 29.34337], [48.10025, 29.34994], [48.09207, 29.28723], [48.09538, 29.25775], [48.10613, 29.21353], [48.12843, 29.17389], [48.13376, 29.15377], [48.15846, 29.01728], [48.1836, 28.97385], [47.75372, 28.96047], [47.74587, 28.97246], [47.68306, 28.99002], [47.64212, 29.00734], [47.55071, 29.02929], [47.51357, 29.04442], [47.47789, 29.06295], [47.41481, 29.10803], [47.36245, 29.16386], [47.34139, 29.19474], [47.3104, 29.26079], [47.29471, 29.33178], [47.29762, 29.43743], [47.19235, 29.49188], [46.85646, 29.67839], [46.54865, 29.68483], [46.37378, 29.87588], [45.82595, 29.89059], [45.65832, 30.08615], [45.35446, 30.09594], [45.15083, 30.29621], [44.75149, 30.7001], [44.44442, 30.71243], [44.01685, 31.12441], [43.50959, 31.62649], [42.99675, 32.12642], [42.12901, 32.96104], [41.64911, 33.41729], [41.32371, 33.4327], [40.70413, 34.05336], [40.68349, 34.05442], [40.52334, 34.24774], [40.25208, 34.11186], [40.09802, 34.31662], [39.84988, 34.53684], [39.88719, 34.78039], [39.6471, 34.93773], [39.78532, 35.75184], [40.45839, 36.15127], [41.68975, 36.10886], [42.91965, 36.05449], [43.57073, 35.65107]]]]}}]}