{"type": "FeatureCollection", "features": [{"type": "Feature", "properties": {"name": "헤브라이", "name_en": "Hebrews (Israel)", "period": "기원전 11–6세기", "kind": "국가", "legend": "헤브라이", "map_title": "여러 지역에서 형성된 다양한 문명", "source": "미래엔 세계사 교과서 1권 14–15쪽", "volume": 1, "page": "14–15", "coast_snap": "Natural Earth 10m 해안선에 맞춤", "border_snap": "현대 국경(Natural Earth 10m)에 맞춘 구간 약 174 km"}, "geometry": {"type": "MultiPolygon", "coordinates": [[[[34.91261, 32.58476], [34.92091, 32.62824], [34.91919, 32.64322], [34.94207, 32.72451], [34.94753, 32.81415], [34.9555, 32.83418], [34.97047, 32.84137], [35.00343, 32.82754], [35.02768, 32.82661], [35.06707, 32.86685], [35.0796, 32.90583], [35.07781, 32.91787], [35.06545, 32.92309], [35.07154, 32.93793], [35.07843, 32.99857], [35.0962, 33.05036], [35.09215, 33.06769], [35.10646, 33.08076], [35.09964, 33.08759], [35.10524, 33.08902], [35.10646, 33.09504], [35.10046, 33.09567], [35.09963, 33.10126], [35.12532, 33.13237], [35.14763, 33.14033], [35.16782, 33.17015], [35.16181, 33.17694], [35.17107, 33.17658], [35.17465, 33.17015], [35.20476, 33.2248], [35.20916, 33.25462], [35.18834, 33.28001], [35.20973, 33.2934], [35.22478, 33.312], [35.24366, 33.3557], [35.25051, 33.40973], [35.27508, 33.44497], [35.27102, 33.4575], [35.32301, 33.49091], [35.34913, 33.51386], [35.36258, 33.55657], [35.40064, 33.64313], [35.3944, 33.64997], [35.40992, 33.66128], [35.42165, 33.70233], [35.43849, 33.71137], [35.43795, 33.7236], [35.47731, 33.8039], [35.48325, 33.87246], [35.47048, 33.90208], [35.47585, 33.90997], [35.48658, 33.91298], [35.51734, 33.90253], [35.57203, 33.90998], [35.59311, 33.94477], [35.59197, 33.95043], [35.58572, 33.95092], [35.6134, 33.99296], [35.63673, 33.99531], [35.64088, 33.99942], [35.64039, 34.00853], [35.62722, 34.01985], [35.62698, 34.04426], [35.64332, 34.08808], [35.64772, 34.11913], [35.63033, 34.15304], [35.62722, 34.20112], [35.64772, 34.22215], [35.65296, 34.28459], [35.66522, 34.31134], [35.68873, 34.3283], [35.70582, 34.3166], [35.75075, 34.38979], [35.80616, 34.41498], [35.82358, 34.43452], [35.80544, 34.45869], [35.80544, 34.4649], [35.82398, 34.46084], [35.90333, 34.47797], [35.98317, 34.53864], [35.98878, 34.55272], [35.98683, 34.6208], [35.93118, 34.74096], [35.92897, 34.79072], [35.90847, 34.82177], [35.86689, 34.92422], [35.8729, 34.92691], [35.88136, 34.94497], [35.87356, 34.95832], [35.87892, 34.97016], [35.87356, 34.97883], [35.89536, 35.00678], [35.90056, 35.02192], [35.88788, 35.06135], [35.88788, 35.1092], [35.9411, 35.18037], [35.96241, 35.19794], [35.9533, 35.2248], [35.91531, 35.28791], [35.92897, 35.32148], [35.91671, 35.40306], [35.91896, 35.41767], [35.86061, 35.47907], [35.8301, 35.49348], [35.81837, 35.50894], [35.78126, 35.49959], [35.77053, 35.50422], [35.77809, 35.54116], [35.73709, 35.56168], [35.74334, 35.5821], [35.7234, 35.57614], [35.72341, 35.58209], [35.76336, 35.59829], [35.77849, 35.61274], [35.78435, 35.63056], [35.77118, 35.66779], [35.77663, 35.67511], [35.80006, 35.68146], [35.84034, 35.74746], [35.83595, 35.78998], [35.81186, 35.83539], [35.79862, 35.84967], [35.84685, 35.84723], [35.87086, 35.85179], [35.88103, 35.86668], [35.88528, 35.88597], [35.96608, 35.99363], [35.97674, 36.00096], [35.97543, 36.0185], [35.94842, 36.08784], [35.85234, 36.21336], [35.84099, 36.24453], [35.79861, 36.28169], [35.78738, 36.30427], [35.78873, 36.32002], [35.82448, 36.36106], [35.85678, 36.36978], [35.87356, 36.39769], [35.90846, 36.41816], [35.91872, 36.44818], [35.9424, 36.46433], [35.99024, 36.47964], [36.04494, 36.53765], [36.05543, 36.53828], [36.18914, 36.60399], [36.21616, 36.65778], [36.21559, 36.67048], [36.20246, 36.69963], [36.20249, 36.76919], [36.18898, 36.80174], [36.12989, 36.86929], [36.09547, 36.89712], [36.0586, 36.91844], [36.02027, 36.92634], [35.98504, 36.91559], [35.95086, 36.89102], [35.8938, 36.83491], [35.85385, 36.81582], [35.80543, 36.7751], [35.7671, 36.76774], [35.68409, 36.76464], [35.64772, 36.75397], [35.62452, 36.72602], [35.61355, 36.71988], [35.61818, 36.73164], [35.6067, 36.74038], [35.57301, 36.70067], [35.57944, 36.68513], [35.59448, 36.70172], [35.61687, 36.69623], [35.6198, 36.71239], [35.62916, 36.70824], [35.63404, 36.69937], [35.64047, 36.71337], [35.63404, 36.72671], [35.6481, 36.73321], [35.66481, 36.71239], [35.69606, 36.72393], [35.70913, 36.71987], [35.65016, 36.69782], [35.62257, 36.68073], [35.6067, 36.65778], [35.60865, 36.64688], [35.62208, 36.65424], [35.66676, 36.69611], [35.69554, 36.7062], [35.65797, 36.6752], [35.63315, 36.63093], [35.63134, 36.60717], [35.62376, 36.60265], [35.59855, 36.59144], [35.55714, 36.58748], [35.54467, 36.58952], [35.50367, 36.61685], [35.49, 36.61392], [35.47869, 36.59854], [35.53095, 36.58273], [35.44549, 36.59634], [35.41326, 36.58369], [35.40446, 36.57193], [35.37403, 36.56159], [35.34603, 36.5411], [35.33579, 36.54561], [35.32016, 36.56468], [35.29449, 36.57259], [35.04184, 36.69522], [35.01418, 36.70308], [34.98227, 36.72077], [34.94181, 36.72781], [34.96133, 36.76579], [35.00439, 36.82247], [35.03116, 36.84863], [35.09234, 36.89375], [35.15809, 36.93383], [35.27332, 37.00388], [35.28621, 36.99811], [35.2948, 36.99917], [35.35508, 37.0388], [35.39375, 37.05764], [35.49383, 37.09257], [35.60263, 37.1193], [35.68484, 37.18389], [35.7659, 37.2299], [36.18237, 37.24093], [36.26896, 37.23657], [36.38753, 37.17109], [36.4748, 37.10021], [36.52101, 37.04694], [36.63986, 36.82809], [36.65857, 36.82752], [36.84367, 36.77584], [36.90682, 36.77259], [36.92594, 36.76897], [36.9647, 36.75383], [37.01059, 36.71952], [37.01844, 36.70665], [37.01948, 36.68582], [37.0108, 36.65373], [37.01451, 36.64226], [37.03333, 36.62872], [37.05307, 36.61994], [37.06237, 36.62211], [37.15491, 36.39675], [36.99131, 35.6279], [36.99565, 35.62012], [37.23692, 35.47022], [37.1913, 35.1924], [37.11368, 34.63364], [36.82844, 34.48658], [36.70982, 33.44244], [36.07078, 32.99666], [35.73912, 32.9956], [35.5269, 32.7961], [35.49383, 32.79575], [35.486, 32.79164], [35.4593, 32.72444], [35.43866, 32.68752], [35.40847, 32.64864], [35.36314, 32.51011], [35.33338, 32.51308], [35.27044, 32.51047], [35.25225, 32.51595], [35.22372, 32.5359], [35.20863, 32.54264], [35.19075, 32.54171], [35.1768, 32.53269], [35.15168, 32.50791], [35.0907, 32.47923], [35.06435, 32.46314], [35.04471, 32.43412], [35.0386, 32.40766], [34.8739, 32.43327], [34.91261, 32.58476]]], [[[34.57887, 35.67837], [34.57275, 35.64355], [34.54233, 35.63727], [34.43003, 35.57563], [34.41745, 35.6298], [34.59249, 35.69195], [34.57887, 35.67837]]]]}}]}