{"type": "FeatureCollection", "features": [{"type": "Feature", "properties": {"name": "토고", "name_en": "Togoland", "period": "1913년경", "kind": "식민지", "legend": "토고", "map_title": "제국주의 열강의 아프리카 분할(1913년경)", "source": "미래엔 세계사 교과서 3권 156쪽", "volume": 3, "page": 156, "note": "독일령", "coast_snap": "Natural Earth 10m 해안선에 맞춤", "border_snap": "현대 국경(Natural Earth 10m)에 맞춘 구간 약 1394 km", "group": "토고", "map_folder": "3권_p156_제국주의 열강의 아프리카 분할(1913년경)"}, "geometry": {"type": "MultiPolygon", "coordinates": [[[[0.78393, 10.35709], [1.33101, 9.99647], [1.34383, 9.96244], [1.34817, 9.69416], [1.35602, 9.64747], [1.35127, 9.59507], [1.32729, 9.55531], [1.32315, 9.54231], [1.32636, 9.52195], [1.33649, 9.49751], [1.35127, 9.48255], [1.36842, 9.49084], [1.3799, 9.46247], [1.38672, 9.36114], [1.40118, 9.32127], [1.42527, 9.2845], [1.56727, 9.13673], [1.58784, 9.10089], [1.5958, 9.07681], [1.60117, 9.04953], [1.60758, 8.55875], [1.61409, 8.53579], [1.63993, 8.50326], [1.64417, 8.49349], [1.64045, 8.47582], [1.60758, 8.42186], [1.60107, 8.37163], [1.60986, 8.36548], [1.61492, 8.35626], [1.62556, 8.27048], [1.62133, 7.99657], [1.62567, 6.99678], [1.60748, 6.99141], [1.53193, 6.99193], [1.55136, 6.92087], [1.56262, 6.90428], [1.58805, 6.88124], [1.59011, 6.86733], [1.58257, 6.82535], [1.58319, 6.80827], [1.60107, 6.74644], [1.59704, 6.73096], [1.5743, 6.70057], [1.56603, 6.67815], [1.57244, 6.66691], [1.58536, 6.65644], [1.59632, 6.63642], [1.59415, 6.61105], [1.59735, 6.60081], [1.6112, 6.58469], [1.62743, 6.57335], [1.65388, 6.57066], [1.65781, 6.55226], [1.68076, 6.53007], [1.68169, 6.48984], [1.71838, 6.467], [1.74411, 6.42573], [1.78235, 6.27727], [2.18099, 6.32333], [2.18516, 6.30896], [1.88453, 6.27481], [1.61914, 6.21378], [1.42954, 6.18195], [1.27101, 6.13373], [1.19978, 6.10262], [1.1784, 6.09797], [1.13307, 6.07364], [1.09881, 6.04702], [1.04803, 5.99266], [1.01173, 5.92626], [0.99534, 5.83959], [0.98667, 5.82094], [0.95484, 5.79109], [0.93999, 5.78595], [0.92903, 5.79921], [1.0934, 6.16092], [1.07965, 6.16792], [1.04813, 6.20939], [1.02519, 6.22233], [1.00969, 6.24445], [0.98354, 6.3246], [0.90726, 6.32491], [0.8868, 6.33039], [0.87388, 6.34013], [0.84132, 6.37922], [0.81621, 6.39506], [0.7668, 6.41935], [0.74572, 6.4409], [0.71792, 6.48883], [0.71172, 6.51338], [0.71347, 6.53999], [0.72681, 6.56211], [0.72743, 6.57144], [0.71461, 6.58391], [0.66821, 6.58583], [0.65942, 6.60172], [0.63224, 6.62399], [0.62666, 6.64489], [0.63534, 6.69538], [0.63431, 6.71161], [0.62583, 6.72776], [0.61126, 6.74153], [0.59379, 6.75111], [0.57664, 6.75473], [0.54108, 6.81718], [0.51927, 6.83225], [0.51607, 6.84181], [0.52279, 6.86284], [0.54387, 6.89793], [0.54625, 6.91477], [0.53447, 6.93591], [0.50605, 6.95782], [0.49457, 6.97312], [0.56599, 6.98965], [0.57891, 6.99678], [0.59803, 7.0312], [0.59875, 7.07471], [0.59431, 7.11972], [0.59772, 7.15889], [0.6218, 7.21884], [0.6311, 7.26524], [0.64444, 7.30193], [0.64568, 7.32359], [0.62966, 7.38916], [0.62304, 7.3979], [0.58625, 7.38436], [0.5664, 7.38079], [0.54821, 7.38327], [0.51669, 7.41102], [0.50057, 7.45505], [0.49561, 7.5043], [0.49943, 7.56238], [0.50925, 7.58538], [0.51938, 7.5952], [0.56206, 7.6123], [0.56775, 7.62574], [0.57054, 7.68393], [0.58335, 7.70428], [0.61229, 7.69943], [0.6095, 7.71896], [0.61167, 7.77126], [0.60258, 7.82841], [0.6034, 7.88831], [0.59286, 7.95931], [0.59317, 8.01574], [0.58397, 8.05305], [0.58025, 8.10008], [0.57498, 8.12462], [0.5878, 8.13772], [0.59328, 8.15067], [0.59152, 8.16449], [0.57684, 8.18048], [0.57271, 8.191], [0.57385, 8.20395], [0.59503, 8.21273], [0.62831, 8.24247], [0.64506, 8.25343], [0.70521, 8.28275], [0.71275, 8.29797], [0.70882, 8.32257], [0.68919, 8.3313], [0.68505, 8.38256], [0.64671, 8.41417], [0.63379, 8.45202], [0.61632, 8.48876], [0.5508, 8.51933], [0.52475, 8.53803], [0.48352, 8.57979], [0.44352, 8.60687], [0.40373, 8.66208], [0.37443, 8.72477], [0.36587, 8.77427], [0.37267, 8.78375], [0.38528, 8.78608], [0.39711, 8.78153], [0.40781, 8.75905], [0.4183, 8.7706], [0.42497, 8.78732], [0.41959, 8.79125], [0.43013, 8.79474], [0.46248, 8.7883], [0.47349, 8.79355], [0.48351, 8.83481], [0.50563, 8.86633], [0.49313, 8.91522], [0.44468, 8.99656], [0.43127, 9.02759], [0.44155, 9.05818], [0.45848, 9.08924], [0.46365, 9.13709], [0.46998, 9.14673], [0.49261, 9.16675], [0.5047, 9.18717], [0.50439, 9.20311], [0.49199, 9.2389], [0.49292, 9.25861], [0.52248, 9.28507], [0.52661, 9.29765], [0.52827, 9.32695], [0.53757, 9.37765], [0.53137, 9.40111], [0.51328, 9.41679], [0.48279, 9.42788], [0.49168, 9.45129], [0.48992, 9.46113], [0.48351, 9.47002], [0.43044, 9.48919], [0.41166, 9.49224], [0.34895, 9.48604], [0.33378, 9.47947], [0.3288, 9.47157], [0.32575, 9.45134], [0.32182, 9.44284], [0.31422, 9.43648], [0.26849, 9.42064], [0.24989, 9.41695], [0.23136, 9.41896], [0.22681, 9.43235], [0.23498, 9.44377], [0.22795, 9.45973], [0.22805, 9.47397], [0.26973, 9.48234], [0.28531, 9.48836], [0.2981, 9.4971], [0.30192, 9.50746], [0.29314, 9.51828], [0.27901, 9.51901], [0.2535, 9.51425], [0.22591, 9.53193], [0.22307, 9.54118], [0.2302, 9.57575], [0.28053, 9.57017], [0.30456, 9.57156], [0.32244, 9.58314], [0.33616, 9.5742], [0.35461, 9.5711], [0.37081, 9.57564], [0.37773, 9.58942], [0.36915, 9.61014], [0.34936, 9.61391], [0.3088, 9.60368], [0.27764, 9.60699], [0.26169, 9.62794], [0.26097, 9.65716], [0.27528, 9.68559], [0.30192, 9.65784], [0.31872, 9.64861], [0.33665, 9.65083], [0.34709, 9.66316], [0.34988, 9.68065], [0.34761, 9.69884], [0.34295, 9.71354], [0.32389, 9.74207], [0.32244, 9.76067], [0.34389, 9.83839], [0.33967, 9.88984], [0.34171, 9.90379], [0.34978, 9.91896], [0.36957, 9.93883], [0.37019, 9.94702], [0.34978, 9.99717], [0.35572, 10.01898], [0.34978, 10.02882], [0.39391, 10.03249], [0.39815, 10.05213], [0.39515, 10.07236], [0.78393, 10.35709]]], [[[0.3666, 10.30449], [0.3088, 10.2971], [0.31758, 10.31733], [0.30707, 10.33327], [0.29004, 10.34849], [0.27882, 10.36663], [0.28311, 10.39681], [0.27324, 10.4066], [0.26301, 10.40893], [0.23322, 10.39862], [0.19707, 10.41027], [0.18751, 10.39495], [0.17987, 10.39417], [0.12602, 10.49161], [0.11018, 10.50825], [0.48765, 10.93324], [0.5241, 10.94588], [0.78128, 10.69304], [0.78923, 10.60295], [0.78851, 10.56385], [0.77383, 10.50814], [0.75988, 10.40515], [0.3966, 10.28322], [0.3666, 10.30449]]]]}}]}