{"type": "FeatureCollection", "features": [{"type": "Feature", "properties": {"name": "키프로스", "name_en": "Cyprus", "period": "2004년 가입", "kind": "국가", "legend": "2004 라트비아 등 10개국 가입", "accession_year": 2004, "map_title": "유럽 연합 회원국(2023년 기준)", "source": "미래엔 세계사 교과서 4권 206쪽", "volume": 4, "page": 206, "geometry_source": "Natural Earth 10m 국가 경계", "group": "키프로스", "map_folder": "4권_p206_유럽 연합 회원국(2023년 기준)"}, "geometry": {"type": "MultiPolygon", "coordinates": [[[[33.89812, 35.06127], [33.93078, 35.05109], [33.94494, 35.05109], [33.96209, 35.0574], [33.98007, 35.0574], [34.00199, 35.04722], [34.01191, 35.04882], [34.02196, 35.05701], [34.05104, 35.03303], [34.06218, 35.00568], [34.07342, 34.9881], [34.08709, 34.97191], [34.09913, 34.96516], [34.05942, 34.96662], [34.03452, 34.97248], [34.02345, 34.98257], [34.01157, 34.98762], [33.95729, 34.98192], [33.91017, 34.97016], [33.89184, 34.95814], [33.86442, 34.96298], [33.84582, 34.95973], [33.83807, 34.96371], [33.85047, 34.97301], [33.85905, 34.97466], [33.85905, 34.99182], [33.84034, 34.99337], [33.82939, 35.00117], [33.83021, 35.02303], [33.82236, 35.03006], [33.799, 35.03853], [33.80438, 35.04954], [33.82711, 35.06127], [33.84117, 35.05109], [33.85512, 35.05342], [33.86763, 35.0605], [33.88013, 35.07305], [33.89812, 35.06127]]], [[[33.78093, 34.97635], [33.78019, 34.97931], [33.77089, 34.98009], [33.76934, 34.98396], [33.75921, 34.98867], [33.77399, 34.98867], [33.77792, 34.98469], [33.79115, 34.98241], [33.79435, 34.97776], [33.78093, 34.97635]]], [[[33.7397, 35.00258], [33.74131, 35.01373], [33.75206, 35.0144], [33.75206, 35.00432], [33.7397, 35.00258]]], [[[33.70151, 34.97289], [33.68035, 34.9663], [33.65406, 34.94473], [33.63982, 34.91568], [33.63478, 34.89765], [33.63502, 34.86075], [33.63258, 34.85248], [33.61695, 34.84528], [33.60564, 34.82176], [33.5442, 34.81501], [33.51319, 34.78547], [33.46762, 34.77432], [33.43865, 34.76276], [33.41521, 34.75845], [33.40016, 34.77338], [33.39918, 34.74531], [33.37086, 34.73086], [33.29656, 34.71817], [33.2601, 34.70051], [33.24562, 34.69823], [33.17359, 34.70515], [33.08644, 34.69481], [33.02589, 34.65131], [33.01564, 34.63443], [32.96954, 34.63205], [32.96252, 34.62502], [32.95559, 34.62889], [32.95404, 34.64295], [32.96561, 34.65158], [32.97027, 34.6461], [32.9898, 34.6461], [32.98753, 34.67339], [32.95471, 34.67732], [32.93606, 34.65773], [32.91725, 34.66714], [32.91367, 34.66028], [32.8845, 34.66661], [32.86561, 34.67874], [32.86043, 34.68762], [32.85969, 34.70058], [32.83229, 34.70095], [32.81934, 34.68762], [32.80601, 34.68577], [32.7986, 34.67096], [32.76677, 34.67614], [32.7601, 34.66911], [32.76067, 34.65322], [32.70737, 34.64541], [32.66578, 34.65217], [32.62623, 34.66649], [32.55665, 34.69937], [32.49334, 34.70726], [32.459, 34.72187], [32.41334, 34.75348], [32.40235, 34.79645], [32.37916, 34.84907], [32.34669, 34.8686], [32.32944, 34.88642], [32.32342, 34.89842], [32.32276, 34.91136], [32.33139, 34.92422], [32.31218, 34.95026], [32.31031, 34.98257], [32.30592, 35.00141], [32.27613, 35.04776], [32.27174, 35.07282], [32.27516, 35.09105], [32.28663, 35.09715], [32.30689, 35.0856], [32.33668, 35.05874], [32.35336, 35.04792], [32.37232, 35.04149], [32.41383, 35.04304], [32.44996, 35.05882], [32.47967, 35.08295], [32.50196, 35.1092], [32.5276, 35.15705], [32.54347, 35.16649], [32.54819, 35.17597], [32.55397, 35.17805], [32.57472, 35.1706], [32.58481, 35.17251], [32.59262, 35.16111], [32.6075, 35.15408], [32.62223, 35.15181], [32.63396, 35.15408], [32.64646, 35.16111], [32.65981, 35.18708], [32.69155, 35.18371], [32.69803, 35.15724], [32.71271, 35.13377], [32.7956, 35.10261], [32.8065, 35.09481], [32.81028, 35.07073], [32.81586, 35.06277], [32.82599, 35.05895], [32.86102, 35.0651], [32.87348, 35.07228], [32.88293, 35.08778], [32.89079, 35.09166], [32.92195, 35.07228], [32.93523, 35.07228], [32.94841, 35.07915], [32.98515, 35.10881], [33.02639, 35.12762], [33.03734, 35.1361], [33.04675, 35.13775], [33.09822, 35.13067], [33.12307, 35.13067], [33.14349, 35.14008], [33.14969, 35.14866], [33.17387, 35.16266], [33.18948, 35.16266], [33.21614, 35.15408], [33.22854, 35.15336], [33.23867, 35.14943], [33.26214, 35.12607], [33.27857, 35.11822], [33.3012, 35.11357], [33.30906, 35.11589], [33.31526, 35.12912], [33.34802, 35.15491], [33.41592, 35.16034], [33.4214, 35.15724], [33.4245, 35.1299], [33.45726, 35.10106], [33.45882, 35.09481], [33.45882, 35.04169], [33.44631, 35.00117], [33.44941, 34.98794], [33.45882, 34.97776], [33.4862, 34.98164], [33.49313, 34.9973], [33.497, 35.02608], [33.51959, 35.04411], [33.52744, 35.03704], [33.52744, 35.01285], [33.53364, 34.99957], [33.54604, 34.99497], [33.56413, 35.00117], [33.57188, 35.0144], [33.58056, 35.01993], [33.59152, 35.01838], [33.60299, 35.01208], [33.61953, 35.01683], [33.66159, 35.00035], [33.685, 34.9973], [33.70293, 34.98794], [33.70151, 34.97289]]]]}}]}