{"type": "FeatureCollection", "features": [{"type": "Feature", "properties": {"map_title": "아시아·태평양 전쟁의 전개", "source": "미래엔 세계사 교과서 4권 191쪽", "volume": 4, "page": 191, "legend": "일본의 방어선 1944년 10월", "name": "일본의 방어선(1944년 10월)", "name_en": "Japanese defensive perimeter (1944년 10월)", "period": "1944년 10월", "kind": "세력권", "note": "방어선 안쪽 범위(바다 포함)", "border_snap": "현대 국경(Natural Earth 10m)에 맞춘 구간 약 808 km", "group": "일본의 방어선", "map_folder": "4권_p191_아시아·태평양 전쟁의 전개"}, "geometry": {"type": "Polygon", "coordinates": [[[149.44096, 45.4221], [149.57153, 45.50489], [150.00107, 45.812], [150.50242, 46.15688], [151.30414, 46.60406], [152.08645, 47.06861], [152.67858, 47.49272], [153.28049, 47.91355], [153.69683, 48.22521], [154.12589, 48.60888], [154.44531, 48.9293], [154.73938, 49.26908], [154.95997, 49.59976], [155.13906, 49.91933], [155.35143, 50.23064], [155.65549, 50.46084], [155.98849, 50.56964], [156.27707, 50.6294], [156.57627, 50.77265], [156.69162, 50.72597], [156.76273, 50.58155], [156.78732, 50.36106], [156.76925, 50.08567], [156.71311, 49.77378], [156.6241, 49.44277], [156.44412, 48.97123], [156.3008, 48.58216], [156.15721, 48.17991], [155.99496, 47.71174], [155.74714, 47.18305], [155.50399, 46.64236], [155.28261, 46.1253], [155.15452, 45.81371], [154.86967, 45.25522], [154.61188, 44.72486], [154.46372, 44.40857], [154.20883, 43.84058], [154.00875, 43.46005], [153.75274, 42.95746], [153.491, 42.42247], [153.22517, 41.85586], [153.00001, 41.43019], [152.75102, 40.94718], [152.50359, 40.45346], [152.23237, 39.89633], [151.80619, 39.0874], [151.54252, 38.57293], [151.24562, 37.98102], [150.8617, 37.25127], [150.2292, 36.02789], [149.88313, 35.33822], [149.62445, 34.83319], [149.3619, 34.31085], [148.52454, 32.60561], [148.0506, 31.6808], [147.684, 30.95058], [147.32928, 30.29557], [146.83544, 29.36685], [146.48987, 28.78018], [145.96755, 27.88053], [145.50867, 27.19303], [145.06703, 26.51846], [144.57724, 25.8982], [144.11618, 25.30445], [143.67155, 24.84516], [143.08728, 24.24983], [142.49897, 23.78788], [141.92995, 23.33468], [141.51899, 23.07978], [141.06999, 22.84486], [140.09295, 22.38223], [139.58541, 22.13119], [139.08059, 21.8533], [138.59084, 21.5393], [138.1288, 21.18037], [137.67717, 20.75106], [137.2598, 20.28349], [136.86758, 19.783], [136.49119, 19.25464], [135.99066, 18.50613], [135.3635, 17.5494], [134.90945, 16.89017], [134.45957, 16.22926], [134.13651, 15.73633], [133.97091, 15.48206], [133.48781, 14.71689], [132.91191, 13.782], [132.27738, 12.737], [131.77983, 11.92616], [131.26957, 11.11079], [131.00905, 10.7039], [130.76253, 10.34294], [130.51324, 9.98501], [130.26124, 9.63084], [129.83308, 9.05591], [129.61601, 8.77441], [129.39675, 8.49756], [129.18043, 8.20841], [128.96152, 7.92514], [128.73961, 7.64848], [128.51407, 7.37925], [128.32061, 7.10532], [128.12334, 6.83928], [127.92121, 6.58215], [127.71284, 6.33514], [127.57107, 6.08419], [127.42401, 5.84238], [127.26986, 5.61115], [127.10627, 5.39232], [127.03894, 5.08382], [126.96307, 4.79221], [126.87534, 4.52475], [127.05404, 4.20584], [127.24566, 3.87582], [127.44544, 3.50004], [127.97343, 2.96142], [128.36382, 2.60624], [128.56386, 2.46956], [128.63094, 2.41506], [128.72964, 2.41453], [128.69828, 2.48383], [129.13716, 2.70943], [129.76445, 2.9386], [129.9031, 2.95837], [130.42317, 3.0317], [130.98058, 2.7486], [131.26513, 1.7639], [131.46238, 0.63418], [131.80255, -0.30715], [132.23614, -0.74163], [132.71122, -0.95034], [133.21517, -1.04808], [133.75454, -1.11953], [134.29547, -1.24658], [134.58546, -1.50425], [134.74511, -2.04536], [134.81798, -2.40283], [134.88224, -2.79246], [134.93398, -3.18902], [134.96564, -3.54028], [134.98036, -3.85665], [134.98325, -4.17827], [134.96336, -4.48734], [134.91707, -4.77625], [134.89187, -4.88268], [134.86262, -4.98604], [134.79355, -5.1842], [134.71462, -5.37314], [134.63275, -5.55593], [134.52049, -5.7914], [134.32306, -6.18589], [134.20199, -6.38117], [134.0075, -6.5459], [133.73571, -6.68422], [133.40934, -6.81484], [133.0466, -6.94181], [132.66866, -7.06401], [131.99663, -7.26978], [131.5323, -7.39594], [131.35069, -7.45653], [131.20292, -7.52856], [130.96913, -7.66836], [130.86138, -7.71725], [130.7481, -7.74568], [130.42651, -7.7218], [130.05242, -7.63247], [129.68335, -7.59567], [129.35209, -7.7459], [128.68946, -8.33748], [128.30194, -8.63436], [127.86975, -8.90671], [127.56543, -9.06597], [127.24905, -9.22027], [126.92264, -9.37054], [126.58266, -9.50466], [125.88441, -9.76753], [125.52366, -9.88478], [124.79346, -10.11902], [123.6731, -10.43692], [122.53792, -10.72715], [121.39781, -10.99228], [120.25988, -11.23297], [119.12955, -11.44865], [118.57684, -11.54552], [118.02764, -11.63601], [117.66367, -11.6926], [116.85072, -11.79936], [116.05088, -11.90861], [114.47837, -12.05753], [112.95525, -12.1304], [112.2143, -12.12626], [111.49146, -12.11553], [110.92463, -12.0737], [110.37089, -12.02498], [110.09909, -11.99754], [109.83042, -11.95455], [109.30455, -11.86085], [109.04756, -11.80963], [108.7947, -11.7551], [108.54667, -11.68392], [108.3034, -11.60883], [108.06512, -11.52944], [107.83209, -11.44532], [107.60463, -11.356], [107.38472, -11.24792], [107.17167, -11.1334], [106.96609, -11.01167], [106.76881, -10.88181], [106.58089, -10.74266], [106.41613, -10.56141], [106.26603, -10.36687], [106.13414, -10.15588], [106.02482, -9.92463], [105.93986, -9.67124], [105.87479, -9.39856], [105.82205, -9.11174], [105.72579, -8.51359], [105.67001, -8.20942], [105.60092, -7.90602], [105.53442, -7.57374], [105.43856, -7.25144], [105.30118, -6.94321], [105.09933, -6.65489], [104.78574, -6.39612], [104.40741, -6.16356], [104.00143, -5.95607], [103.59145, -5.77577], [103.19977, -5.62726], [102.8518, -5.51845], [102.57705, -5.45945], [102.41668, -5.44642], [102.35666, -5.44825], [102.33612, -5.46297], [102.32339, -5.4773], [102.29959, -5.47233], [102.24493, -5.42562], [102.13697, -5.30269], [101.94136, -5.05261], [101.66249, -4.717], [100.6412, -3.54004], [100.33679, -3.17466], [100.07727, -2.84512], [99.83418, -2.54527], [99.60504, -2.27556], [99.39327, -2.04154], [99.20493, -1.8542], [99.04481, -1.71893], [98.90932, -1.61274], [98.79302, -1.49012], [98.69397, -1.29848], [98.60039, -1.06992], [98.5062, -0.81116], [98.39283, -0.53696], [98.25231, -0.25352], [98.08906, 0.03261], [97.91774, 0.31367], [97.76135, 0.58101], [97.47795, 1.24415], [97.39453, 1.4199], [97.30905, 1.57859], [97.03959, 1.97689], [96.83805, 2.24474], [96.45584, 2.7388], [96.3383, 2.91093], [96.2744, 3.05964], [96.24641, 3.24621], [96.22462, 3.94002], [96.17746, 4.40111], [96.06935, 4.81885], [95.92761, 5.17892], [95.8208, 5.53052], [95.72364, 5.86503], [95.52878, 6.59505], [95.32511, 7.34052], [95.12162, 8.06827], [94.8994, 8.84436], [94.78447, 9.66343], [94.65949, 10.51587], [94.52371, 11.40154], [94.38747, 12.25228], [94.3346, 13.25922], [94.34409, 14.25761], [94.39224, 14.92157], [94.41695, 15.25311], [94.55437, 16.25106], [94.75766, 17.25675], [95.02826, 18.27546], [95.36787, 19.31245], [95.77838, 20.3731], [95.8463, 20.52317], [95.92533, 20.67507], [96.0138, 20.82839], [96.11005, 20.98268], [96.3191, 21.29245], [96.81231, 21.98271], [96.94705, 22.17953], [97.07632, 22.37937], [97.19698, 22.58149], [97.30584, 22.78519], [97.39973, 22.98969], [97.47543, 23.19424], [97.52422, 23.37211], [97.55961, 23.55117], [97.57051, 23.63265], [97.62467, 23.84671], [97.61971, 23.86599], [97.60989, 23.88314], [97.57268, 23.90756], [97.53299, 23.92371], [97.51646, 23.94283], [97.70766, 24.1253], [97.72006, 24.14744], [97.72306, 24.17126], [97.71872, 24.18155], [97.70456, 24.19925], [97.70156, 24.21093], [97.70466, 24.22173], [97.72409, 24.24152], [97.71841, 24.27767], [97.64451, 24.30239], [97.6382, 24.3281], [97.65361, 24.33872], [97.67428, 24.34084], [97.68957, 24.34647], [97.68833, 24.36771], [97.68099, 24.37776], [97.6626, 24.39006], [97.6473, 24.43233], [97.63986, 24.43929], [97.62436, 24.44228], [97.60069, 24.44192], [97.51956, 24.43078], [97.51325, 24.43859], [97.51387, 24.46169], [97.53857, 24.59726], [97.53279, 24.72332], [97.53609, 24.74503], [97.604, 24.78645], [97.66394, 24.82978], [97.68595, 24.83352], [97.72657, 24.82629], [97.74848, 24.82647], [97.76523, 24.83466], [97.77298, 24.85469], [97.76099, 24.87029], [97.72409, 24.89722], [97.70828, 24.92729], [97.70332, 24.96042], [97.70518, 25.02883], [97.6996, 25.06501], [97.70363, 25.07392], [97.72161, 25.07927], [97.73753, 25.09051], [97.75406, 25.11356], [97.77701, 25.15862], [97.80099, 25.23763], [97.80679, 25.24378], [97.62005, 25.39774], [97.62967, 25.4799], [97.67456, 25.68792], [97.74418, 25.88991], [97.84349, 26.08545], [97.97742, 26.27413], [98.04804, 26.35123], [98.12354, 26.41794], [98.20339, 26.47401], [98.28707, 26.51921], [98.37407, 26.5533], [98.46385, 26.57603], [98.5559, 26.58717], [98.64969, 26.58647], [98.73314, 26.57618], [98.81652, 26.55722], [98.89953, 26.52973], [98.96545, 26.50104], [99.06336, 26.44972], [99.14358, 26.39746], [99.22229, 26.3372], [99.29922, 26.26908], [99.40974, 26.1504], [99.49175, 26.03182], [99.54882, 25.9102], [99.58459, 25.78242], [99.60265, 25.64535], [99.60663, 25.49585], [99.60018, 25.33078], [99.57594, 24.99242], [99.56528, 24.75293], [99.56632, 24.58799], [99.57039, 24.50387], [99.66484, 23.90492], [99.86929, 23.2472], [100.16918, 22.56922], [100.54981, 21.90995], [100.99624, 21.30914], [101.4934, 20.80749], [102.02631, 20.44678], [102.5803, 20.26962], [102.66629, 20.26445], [102.73658, 20.26473], [102.96895, 20.28786], [103.02556, 20.2833], [103.08449, 20.26846], [103.1444, 20.24608], [103.19543, 20.21917], [103.24366, 20.18675], [103.41385, 20.05401], [103.46775, 20.01675], [103.52607, 19.98188], [103.58959, 19.95076], [103.65908, 19.92478], [103.73534, 19.90531], [103.81915, 19.89375], [103.85993, 19.89158], [103.93034, 19.89283], [104.35039, 19.9695], [104.49843, 20.03909], [104.65705, 20.2127], [104.69085, 20.19655], [104.73359, 20.20476], [104.7788, 20.21902], [104.81916, 20.22099], [104.90118, 20.17884], [105.02505, 20.37133], [105.06952, 20.40493], [105.37546, 20.72193], [105.64982, 21.07743], [105.89538, 21.45088], [106.11464, 21.82199], [106.33599, 22.21524], [106.5418, 22.3451], [106.53652, 22.36055], [106.53451, 22.39755], [106.52691, 22.43827], [106.53032, 22.44928], [106.54588, 22.47253], [106.56877, 22.57459], [106.57714, 22.59531], [106.588, 22.60777], [106.60763, 22.60999], [106.63006, 22.58012], [106.64634, 22.5688], [106.66789, 22.56911], [106.68019, 22.57945], [106.6977, 22.63087], [106.73553, 22.69541], [106.73956, 22.72678], [106.74664, 22.74435], [106.75848, 22.75422], [106.7915, 22.77212], [106.79873, 22.78437], [106.78984, 22.79719], [106.94566, 22.9796], [107.06879, 23.05607], [107.22263, 23.12208], [107.27132, 23.13483], [107.32149, 23.1398], [107.3741, 23.13784], [107.60115, 23.10566], [107.71767, 23.09798], [107.81145, 23.10132], [107.97631, 23.13072], [108.12523, 23.18442], [108.25951, 23.25768], [108.38045, 23.3458], [108.48933, 23.44402], [108.58745, 23.54761], [108.67606, 23.65185], [108.93974, 23.98772], [109.10473, 24.21651], [109.18011, 24.33181], [109.2506, 24.44962], [109.31611, 24.57134], [109.37653, 24.69841], [109.42217, 24.80721], [109.48127, 24.97223], [109.60112, 25.34475], [109.63798, 25.44364], [109.67873, 25.53642], [109.72511, 25.62243], [109.77885, 25.70103], [109.84172, 25.77158], [109.91544, 25.83344], [110.05703, 25.92854], [110.13726, 25.97534], [110.22246, 26.01922], [110.31164, 26.05832], [110.40378, 26.09081], [110.49791, 26.11483], [110.60229, 26.12942], [110.65499, 26.13038], [110.70366, 26.12548], [110.75229, 26.11563], [110.80098, 26.10148], [110.89898, 26.06284], [111.22159, 25.90497], [111.31095, 25.87419], [111.39962, 25.85795], [111.42883, 25.85582], [111.58428, 25.8709], [111.71306, 25.92581], [111.8182, 26.01224], [111.90275, 26.12188], [111.96976, 26.24633], [112.02233, 26.37721], [112.06355, 26.50614], [112.12264, 26.72031], [112.14894, 26.80234], [112.2163, 26.96657], [112.29391, 27.12933], [112.3802, 27.29072], [112.47357, 27.45078], [112.57244, 27.60956], [112.67522, 27.7671], [113.13759, 28.45494], [113.25569, 28.6412], [113.3664, 28.82752], [113.52022, 29.12206], [113.64672, 29.41693], [113.74892, 29.71018], [113.82981, 29.99992], [113.89245, 30.28437], [113.93992, 30.56179], [113.9753, 30.83053], [114.00165, 31.08897], [114.0061, 31.17019], [114.00607, 31.24903], [113.99517, 31.40058], [113.97412, 31.54558], [113.92013, 31.83784], [113.90055, 31.98944], [113.89652, 32.08852], [113.90362, 32.26573], [113.92304, 32.43642], [113.95916, 32.61618], [113.99874, 32.75775], [114.0549, 32.90822], [114.12323, 33.05174], [114.20369, 33.18825], [114.29622, 33.31763], [114.40388, 33.44425], [114.51104, 33.54948], [114.61764, 33.63637], [114.72367, 33.70796], [114.82908, 33.76728], [114.93383, 33.8173], [115.33319, 33.98194], [115.50674, 34.07381], [115.65851, 34.18637], [115.78525, 34.32892], [115.88368, 34.51064], [115.95054, 34.74067], [115.98263, 35.02804], [115.97672, 35.38168], [115.95804, 35.61842], [115.93464, 35.8543], [115.85957, 36.49198], [115.77391, 37.27097], [115.72712, 37.99526], [115.73878, 38.65757], [115.82858, 39.2504], [116.0163, 39.76609], [116.3218, 40.19684], [116.76508, 40.5348], [117.36623, 40.77203], [117.52426, 40.81122], [117.68388, 40.84483], [117.8452, 40.87368], [118.00834, 40.89859], [118.34056, 40.93987], [118.97946, 41.00605], [119.27657, 41.04055], [119.76007, 41.11321], [120.2412, 41.20743], [120.71835, 41.32263], [121.18987, 41.45824], [121.6541, 41.61375], [122.10935, 41.78874], [122.55386, 41.98275], [122.98576, 42.19544], [123.20544, 42.31386], [123.41046, 42.43236], [123.60155, 42.55151], [123.77946, 42.67186], [123.94491, 42.79398], [124.09865, 42.91842], [124.2414, 43.04573], [124.37391, 43.17645], [124.6216, 43.46626], [124.82838, 43.77643], [124.99301, 44.10333], [125.1146, 44.4433], [125.19246, 44.79263], [125.22611, 45.14758], [125.21513, 45.50432], [125.15906, 45.8589], [125.09588, 46.0925], [125.01265, 46.3206], [124.91019, 46.54188], [124.85449, 46.64025], [124.78929, 46.75498], [124.6507, 46.95862], [124.49516, 47.15146], [124.3078, 47.34617], [124.13604, 47.49959], [124.06443, 47.55441], [123.98982, 47.60433], [123.91275, 47.65001], [123.7533, 47.73126], [123.39773, 47.88469], [123.20978, 47.97232], [123.13326, 48.01537], [123.06868, 48.05949], [123.01627, 48.10593], [122.97626, 48.15588], [122.94886, 48.21054], [122.91415, 48.34175], [122.91384, 48.45601], [122.94961, 48.55731], [123.02312, 48.64965], [123.13603, 48.73702], [123.29001, 48.82345], [123.48673, 48.91295], [123.96538, 49.1041], [124.17232, 49.20572], [124.32275, 49.30454], [124.45131, 49.41191], [124.56129, 49.52573], [124.65603, 49.64397], [124.73879, 49.7645], [124.81289, 49.88528], [124.97213, 50.15973], [125.06975, 50.30901], [125.12411, 50.3808], [125.18373, 50.45038], [125.24975, 50.51756], [125.32333, 50.58213], [125.6653, 50.86685], [125.77202, 50.97286], [125.85234, 51.08088], [125.91004, 51.18917], [125.94885, 51.29596], [125.97253, 51.39954], [125.98483, 51.49814], [125.98953, 51.59007], [125.99391, 51.80904], [126.00106, 51.86445], [126.01471, 51.91425], [126.03706, 51.9604], [126.07027, 52.00482], [126.08569, 52.01971], [126.31671, 52.19976], [126.30932, 52.21387], [126.31222, 52.22795], [126.39206, 52.26436], [126.43929, 52.27529], [126.78703, 52.32528], [126.8624, 52.34026], [127.01149, 52.3613], [127.1547, 52.37359], [127.28772, 52.37733], [127.48367, 52.37151], [127.6837, 52.35548], [128.04104, 52.31505], [128.66391, 52.26147], [128.85747, 52.24019], [129.04735, 52.21365], [129.22685, 52.18046], [129.38914, 52.13927], [129.52739, 52.08867], [129.63473, 52.02732], [129.74694, 51.91263], [129.84662, 51.75304], [129.93419, 51.56012], [130.01013, 51.34549], [130.07506, 51.12076], [130.12971, 50.89758], [130.17491, 50.68756], [130.24254, 50.34427], [130.26574, 50.1975], [130.27276, 50.12804], [130.28008, 49.99638], [130.28072, 49.60977], [130.2889, 49.45889], [130.31346, 49.30465], [130.36253, 49.15179], [130.37162, 49.13549], [130.3868, 48.89629], [130.43972, 48.8965], [130.46535, 48.89133], [130.48664, 48.86368], [130.51165, 48.85552], [130.5409, 48.85345], [130.56488, 48.85588], [130.62493, 48.87433], [130.65066, 48.8764], [130.67433, 48.87082], [130.6765, 48.85743], [130.66668, 48.84146], [130.62782, 48.79604], [130.53325, 48.63579], [130.52974, 48.61626], [130.5408, 48.59835], [130.5624, 48.58815], [130.60767, 48.57673], [130.62017, 48.5605], [130.62079, 48.54931], [130.61345, 48.51947], [130.62637, 48.48226], [130.63929, 48.47725], [130.71588, 48.49906], [130.7443, 48.49732], [131.00764, 48.63859], [131.15588, 48.59369], [131.77318, 48.42303], [131.98053, 48.35807], [132.17928, 48.28552], [132.36015, 48.20407], [132.47526, 48.1353], [132.67462, 47.95061], [132.66315, 47.93868], [132.66036, 47.93134], [132.66087, 47.92302], [132.67142, 47.9025], [132.67235, 47.89444], [132.668, 47.88132], [132.65881, 47.86982], [132.60744, 47.82762], [132.57643, 47.79424], [132.57364, 47.78223], [132.58077, 47.76484], [132.58036, 47.74799], [132.54719, 47.71678], [132.75342, 47.53267], [132.76142, 47.48207], [132.79956, 47.33818], [132.84484, 47.2294], [132.90215, 47.12915], [132.97078, 47.03839], [133.05016, 46.95804], [133.13983, 46.889], [133.2395, 46.83204], [133.34909, 46.78787], [133.55196, 46.72995], [133.59215, 46.71018], [133.61448, 46.68337], [133.61956, 46.66969], [133.90245, 46.57364], [133.89635, 46.53819], [133.89191, 46.52897], [133.84933, 46.48029], [133.84581, 46.47065], [133.84778, 46.45699], [133.85439, 46.44466], [133.88188, 46.43711], [133.90028, 46.42657], [133.92147, 46.41014], [133.93387, 46.39076], [133.92602, 46.3713], [133.88085, 46.35366], [133.86338, 46.33929], [133.87444, 46.31978], [133.88519, 46.32658], [133.89635, 46.3272], [133.907, 46.32247], [133.91599, 46.31299], [133.89377, 46.30188], [133.89408, 46.29134], [133.90194, 46.27805], [133.90245, 46.25899], [133.89005, 46.25082], [133.85532, 46.23656], [133.8609, 46.22359], [133.8301, 46.19687], [133.82122, 46.20013], [133.81295, 46.21418], [133.80623, 46.21739], [133.79352, 46.21429], [133.77512, 46.18669], [133.74101, 46.15904], [133.72003, 46.15021], [133.69874, 46.14902], [133.68737, 46.14184], [133.69637, 46.11502], [133.71931, 46.07931], [133.72003, 46.06375], [133.69482, 46.02277], [133.65813, 45.93451], [133.64986, 45.92784], [133.62774, 45.93777], [133.61761, 45.93627], [133.61007, 45.92981], [133.60304, 45.89865], [133.5865, 45.88841], [133.58588, 45.87632], [133.57007, 45.87643], [133.55229, 45.88841], [133.53162, 45.88816], [133.51436, 45.87927], [133.50268, 45.86201], [133.49834, 45.8372], [133.47726, 45.8201], [133.47726, 45.80584], [133.48377, 45.79659], [133.50341, 45.78765], [133.51136, 45.77855], [133.48491, 45.76847], [133.47085, 45.72889], [133.44305, 45.70967], [133.45163, 45.69918], [133.47664, 45.69359], [133.4878, 45.68667], [133.49152, 45.67339], [133.48284, 45.6629], [133.45669, 45.64879], [133.47726, 45.62771], [133.42765, 45.61525], [133.41514, 45.60042], [133.42517, 45.58042], [133.41349, 45.57334], [133.37483, 45.57308], [133.33029, 45.54926], [133.29887, 45.54208], [133.27169, 45.52844], [133.24089, 45.52327], [133.20213, 45.51128], [133.18921, 45.50415], [133.17981, 45.49381], [133.14022, 45.43542], [133.1332, 45.41961], [133.1272, 45.38509], [133.10188, 45.28721], [133.10674, 45.26463], [133.09754, 45.24354], [133.12069, 45.18344], [133.1272, 45.15538], [133.12152, 45.13125], [133.09878, 45.10779], [133.07336, 45.09063], [133.04969, 45.08175], [133.02385, 45.05834], [132.99264, 45.04847], [132.96618, 45.02888], [132.95336, 45.02438], [133.05378, 44.81017], [133.01662, 44.67026], [132.94738, 44.30181], [132.90501, 43.94506], [132.888, 43.70169], [132.87903, 43.47182], [132.87598, 43.26059], [132.87753, 43.07477], [132.89929, 42.66322], [132.89621, 42.41205], [132.89851, 42.13011], [132.91842, 41.83248], [132.96706, 41.53212], [133.0553, 41.24153], [133.19399, 40.9729], [133.26789, 40.87224], [133.36053, 40.77065], [133.47429, 40.67259], [133.61174, 40.58261], [133.77563, 40.50538], [133.96895, 40.44558], [134.19493, 40.40778], [134.45713, 40.39625], [134.61187, 40.40199], [134.83138, 40.42253], [135.03561, 40.45534], [135.17935, 40.48953], [135.31948, 40.53087], [135.4559, 40.5777], [135.71737, 40.68126], [136.34117, 40.95132], [136.73814, 41.09956], [137.5649, 41.35927], [137.98753, 41.47245], [138.41315, 41.5732], [138.79881, 41.67599], [139.14286, 41.77243], [139.39659, 41.86873], [139.50981, 41.97502], [139.54416, 42.06488], [139.66788, 42.08353], [139.8376, 42.13807], [140.03515, 42.26149], [140.24846, 42.42664], [140.44679, 42.61336], [140.62718, 42.7943], [140.78949, 42.97932], [140.95727, 43.23515], [141.17832, 43.59588], [141.43852, 44.03035], [141.69634, 44.49177], [141.95025, 44.91715], [142.26473, 45.39927], [142.59572, 45.89637], [142.7203, 46.07742], [142.84285, 46.24362], [142.96563, 46.39206], [143.0904, 46.51987], [143.21872, 46.62445], [143.35124, 46.70276], [143.43266, 46.73565], [143.50682, 46.75477], [143.58173, 46.76593], [143.66113, 46.772], [143.83752, 46.77247], [143.93409, 46.76662], [144.03525, 46.75589], [144.30442, 46.70975], [144.59063, 46.63752], [144.67422, 46.60973], [144.88288, 46.54008], [145.17213, 46.42081], [145.45042, 46.28478], [145.71061, 46.13794], [145.9464, 45.98665], [146.15269, 45.83734], [146.35906, 45.67594], [146.77458, 45.33862], [147.43094, 44.79379], [147.49898, 44.7604], [147.58152, 44.75182], [147.67827, 44.76324], [147.78898, 44.78971], [147.91282, 44.82632], [148.49359, 45.0113], [148.6624, 45.06911], [148.83074, 45.13116], [148.99537, 45.19749], [149.15322, 45.26815], [149.30199, 45.34307], [149.44096, 45.4221]]]}}, {"type": "Feature", "properties": {"map_title": "아시아·태평양 전쟁의 전개", "source": "미래엔 세계사 교과서 4권 191쪽", "volume": 4, "page": 191, "legend": "일본의 방어선 1944년 3월", "name": "일본의 방어선(1944년 3월)", "name_en": "Japanese defensive perimeter (1944년 3월)", "period": "1944년 3월", "kind": "세력권", "note": "방어선 안쪽 범위(바다 포함)", "group": "일본의 방어선", "map_folder": "4권_p191_아시아·태평양 전쟁의 전개"}, "geometry": {"type": "Polygon", "coordinates": [[[162.80994, -2.46063], [163.40981, -2.51655], [164.01775, -2.55649], [164.63463, -2.57934], [165.26064, -2.58437], [165.89534, -2.57126], [166.53777, -2.5401], [167.96033, -2.43296], [168.34929, -2.39941], [169.13, -2.3247], [170.30119, -2.23175], [173.02465, -1.99349], [174.94203, -1.80774], [176.82618, -1.58728], [178.67333, -1.311], [179.76193, -1.09412], [180.48325, -0.95451], [181.55003, -0.67285], [182.25796, -0.49092], [182.90458, -0.23404], [183.41109, 0.1025], [183.77941, 0.512], [184.01134, 0.98733], [184.10852, 1.52077], [184.07259, 2.10402], [183.90516, 2.72812], [183.60791, 3.38349], [183.36385, 3.79058], [183.08831, 4.17661], [182.78638, 4.54392], [182.4632, 4.89493], [182.12391, 5.23215], [181.77364, 5.55816], [181.41761, 5.87558], [180.31314, 6.84357], [179.5767, 7.49966], [178.61321, 8.37471], [177.67121, 9.25099], [176.9788, 9.90954], [176.52381, 10.34941], [176.074, 10.79003], [175.40868, 11.45254], [174.87898, 12.01077], [174.37424, 12.61142], [173.92174, 13.24987], [173.54809, 13.92082], [173.27941, 14.6182], [173.14172, 15.33531], [173.16135, 16.06475], [173.36528, 16.79852], [173.67652, 17.37246], [174.08361, 17.87627], [174.56448, 18.32617], [175.09721, 18.73813], [175.65992, 19.12779], [176.23083, 19.51038], [176.78817, 19.90078], [177.31029, 20.31352], [177.67835, 20.74567], [177.86442, 20.95814], [178.24079, 21.37558], [178.43115, 21.58045], [178.64425, 22.11038], [178.75337, 22.37121], [178.97676, 22.8845], [178.99934, 23.42174], [179.04273, 24.2154], [178.88104, 24.89144], [178.72525, 25.56407], [178.42393, 26.23607], [178.12852, 26.90835], [177.74255, 27.55778], [177.36235, 28.20945], [176.94451, 28.81322], [176.53029, 29.42126], [175.73134, 30.49005], [175.10315, 31.31144], [174.15715, 32.56411], [173.52361, 33.41289], [172.87743, 34.26823], [172.39421, 34.9169], [171.89825, 35.56588], [171.23966, 36.43936], [170.73064, 37.09287], [170.05581, 37.97053], [169.35845, 38.84239], [168.83952, 39.49934], [168.12153, 40.36393], [167.58847, 41.0136], [167.03283, 41.651], [166.48302, 42.28783], [165.76376, 43.12739], [165.23379, 43.75253], [164.72724, 44.38549], [164.23015, 45.01417], [163.74686, 45.6412], [162.35394, 47.46817], [161.45087, 48.60449], [160.55061, 49.6352], [160.08364, 50.09079], [159.63992, 50.51662], [159.16194, 50.87508], [158.86136, 51.08995], [158.71782, 51.18895], [158.49523, 51.30916], [158.26766, 51.4054], [158.03424, 51.46884], [157.79337, 51.48633], [157.53946, 51.42145], [157.2695, 51.25245], [156.99382, 51.06103], [156.68936, 50.90473], [156.37666, 50.85167], [156.0588, 50.82001], [155.75617, 50.75998], [155.46681, 50.54605], [155.23326, 50.24901], [155.06719, 49.9911], [154.92931, 49.7246], [154.77276, 49.4548], [154.52998, 49.16095], [154.18571, 48.82339], [153.84493, 48.496], [153.51528, 48.18263], [153.19669, 47.88741], [152.89885, 47.63232], [152.58773, 47.37515], [152.29039, 47.15143], [152.02111, 46.99173], [151.68642, 46.82013], [151.21314, 46.5966], [150.68932, 46.33973], [150.24587, 46.09357], [149.93256, 45.90241], [149.64229, 45.71815], [149.2993, 45.54079], [149.01015, 45.43032], [148.71311, 45.33063], [148.56737, 45.28686], [148.42583, 45.24827], [148.29006, 45.21569], [148.16176, 45.18985], [147.94784, 45.15912], [147.78771, 45.15078], [147.65302, 45.17018], [147.5139, 45.22391], [147.34772, 45.3157], [147.14943, 45.44082], [146.23248, 46.05133], [145.74992, 46.3554], [145.25086, 46.62759], [144.74399, 46.84085], [144.23552, 46.97346], [143.73565, 47.01597], [143.3014, 46.99944], [142.99965, 46.94002], [142.88103, 46.85729], [142.76243, 46.73244], [142.64089, 46.57132], [142.51865, 46.38058], [142.12313, 45.71125], [141.96843, 45.46646], [141.72392, 45.09565], [141.45291, 44.61866], [141.16791, 44.0954], [140.88226, 43.62381], [140.65618, 43.2729], [140.52665, 43.097], [140.36956, 42.95035], [140.16166, 42.74981], [139.95084, 42.53207], [139.5972, 42.19028], [139.51044, 42.14039], [139.48036, 42.1122], [139.4067, 42.06502], [139.14877, 42.00773], [138.77885, 41.9511], [138.37329, 41.88233], [137.54323, 41.7174], [137.14288, 41.61946], [136.7661, 41.50498], [136.39636, 41.38813], [136.04987, 41.25526], [135.39116, 40.96081], [135.27934, 40.9161], [135.16643, 40.87553], [135.05224, 40.84032], [134.93662, 40.81165], [134.81945, 40.79071], [134.50005, 40.78445], [134.19084, 40.77227], [133.75063, 40.91395], [133.46226, 41.18422], [133.29318, 41.54338], [133.21094, 41.94783], [133.18099, 42.34834], [133.16223, 42.68498], [133.13212, 43.02067], [133.11928, 43.423], [133.13141, 43.9006], [133.19184, 44.41431], [133.31654, 44.93519], [133.50153, 45.43655], [133.90414, 46.2952], [133.99898, 46.64072], [134.00141, 46.7326], [133.99733, 46.77693], [133.98871, 46.8194], [133.97483, 46.85948], [133.95499, 46.89656], [133.92853, 46.9301], [133.89484, 46.95946], [133.86191, 46.9798], [133.82546, 46.997], [133.74521, 47.02464], [133.57643, 47.07193], [133.48701, 47.10738], [133.40603, 47.15229], [133.33358, 47.20613], [133.2699, 47.26834], [133.21535, 47.33826], [133.1703, 47.41521], [133.13528, 47.49849], [133.11085, 47.58735], [133.09453, 47.69961], [133.07808, 47.87179], [133.06996, 47.92853], [133.05851, 47.98426], [133.04254, 48.03861], [132.92681, 48.22812], [132.73722, 48.38646], [132.49369, 48.51855], [132.21559, 48.6291], [131.92122, 48.72285], [131.35175, 48.87893], [131.10896, 48.95066], [130.93576, 49.02334], [130.80885, 49.10952], [130.72093, 49.2079], [130.66498, 49.31726], [130.63401, 49.4364], [130.62106, 49.56421], [130.61912, 49.69958], [130.62169, 49.97178], [130.6178, 50.11172], [130.60525, 50.26223], [130.59439, 50.34175], [130.50712, 50.79715], [130.45585, 51.03453], [130.39431, 51.27937], [130.32033, 51.52198], [130.2319, 51.7527], [130.12714, 51.96185], [130.00425, 52.13974], [129.86155, 52.27677], [129.67905, 52.3789], [129.45237, 52.45582], [129.19453, 52.51223], [128.9184, 52.55282], [128.63667, 52.58229], [128.10636, 52.6264], [127.73373, 52.66796], [127.58744, 52.68064], [127.44395, 52.68836], [127.30364, 52.69119], [127.14305, 52.68661], [126.97293, 52.67174], [126.79745, 52.64625], [126.62078, 52.60975], [126.44706, 52.56183], [126.28041, 52.50214], [126.12496, 52.43024], [125.98478, 52.34574], [125.80528, 52.18679], [125.70762, 52.02759], [125.66676, 51.86857], [125.65775, 51.71025], [125.65576, 51.55321], [125.63599, 51.39809], [125.57374, 51.24554], [125.44436, 51.09636], [125.10976, 50.81847], [124.91647, 50.63351], [124.76656, 50.43985], [124.6436, 50.24287], [124.53116, 50.04804], [124.41284, 49.86088], [124.27222, 49.68698], [124.09284, 49.53194], [123.85819, 49.40141], [123.39227, 49.21628], [123.14937, 49.10829], [122.92643, 48.98001], [122.74345, 48.82389], [122.62048, 48.63236], [122.57763, 48.3978], [122.63509, 48.11252], [122.72442, 47.95234], [122.85498, 47.8239], [123.01634, 47.71909], [123.19804, 47.62982], [123.58084, 47.46546], [123.76118, 47.37417], [123.92039, 47.26602], [124.08667, 47.11769], [124.23971, 46.95686], [124.37871, 46.78487], [124.50285, 46.60302], [124.61127, 46.41264], [124.70312, 46.21505], [124.77751, 46.01159], [124.83352, 45.8036], [124.88349, 45.47837], [124.89067, 45.15213], [124.85647, 44.82866], [124.78228, 44.51165], [124.66959, 44.20472], [124.52002, 43.91149], [124.33536, 43.6355], [124.11763, 43.38029], [123.97778, 43.24307], [123.82956, 43.11327], [123.67392, 42.99038], [123.51179, 42.87387], [123.34411, 42.76323], [123.1718, 42.65795], [122.99578, 42.55752], [122.81696, 42.46142], [122.39904, 42.25498], [121.97017, 42.06715], [121.53166, 41.89817], [121.08475, 41.74832], [120.63067, 41.6179], [120.17058, 41.50726], [119.7056, 41.41677], [119.23686, 41.34686], [118.99094, 41.31817], [118.25144, 41.24152], [118.00601, 41.21104], [117.76194, 41.17407], [117.5197, 41.12814], [117.2798, 41.0708], [116.52716, 40.75849], [115.99573, 40.30793], [115.65106, 39.74708], [115.45903, 39.10392], [115.38585, 38.40654], [115.3979, 37.68312], [115.46168, 36.96202], [115.5972, 35.80903], [115.62014, 35.57653], [115.63833, 35.34318], [115.64587, 35.04904], [115.62626, 34.81777], [115.58118, 34.63976], [115.51226, 34.50531], [115.42119, 34.40462], [115.30963, 34.32782], [115.17923, 34.26498], [114.80167, 34.11259], [114.67906, 34.05378], [114.5527, 33.98261], [114.4236, 33.89579], [114.29276, 33.79003], [114.16115, 33.66199], [114.02972, 33.50831], [113.91976, 33.35522], [113.82412, 33.19422], [113.74288, 33.02541], [113.67605, 32.8489], [113.6237, 32.6648], [113.58584, 32.4732], [113.56254, 32.2742], [113.55383, 32.06792], [113.55816, 31.94795], [113.57983, 31.77263], [113.63416, 31.47457], [113.65259, 31.34869], [113.66224, 31.22314], [113.65908, 31.09632], [113.63401, 30.85272], [113.60069, 30.59984], [113.55629, 30.33935], [113.49799, 30.07296], [113.42296, 29.8024], [113.32842, 29.52947], [113.21158, 29.25608], [113.06972, 28.98415], [112.96153, 28.8031], [112.84602, 28.62172], [112.38508, 27.93635], [112.2773, 27.7705], [112.17341, 27.60276], [112.07499, 27.43296], [111.98362, 27.26084], [111.90089, 27.08619], [111.82835, 26.90875], [111.79707, 26.81168], [111.73762, 26.59637], [111.70832, 26.50124], [111.67741, 26.41606], [111.64381, 26.34268], [111.60642, 26.28296], [111.56414, 26.23873], [111.51587, 26.21183], [111.46053, 26.2041], [111.42043, 26.20957], [111.37669, 26.22277], [111.34574, 26.23585], [111.02809, 26.39024], [110.89771, 26.43864], [110.82952, 26.45672], [110.75888, 26.46951], [110.68551, 26.47611], [110.60767, 26.47551], [110.45685, 26.45564], [110.33572, 26.42568], [110.21863, 26.38561], [110.1066, 26.33769], [110.0007, 26.28416], [109.90195, 26.22728], [109.81141, 26.16927], [109.73009, 26.11238], [109.6233, 26.02369], [109.53339, 25.92593], [109.45801, 25.82054], [109.39475, 25.70894], [109.34128, 25.59257], [109.29525, 25.47289], [109.15106, 25.02807], [109.09544, 24.87993], [109.02066, 24.71839], [108.96126, 24.60846], [108.89679, 24.50122], [108.82742, 24.3955], [108.75332, 24.29012], [108.59162, 24.07576], [108.42228, 23.86276], [108.34133, 23.76849], [108.25992, 23.68309], [108.1765, 23.60806], [108.08947, 23.54486], [107.99728, 23.49497], [107.89835, 23.4599], [107.79112, 23.44112], [107.72703, 23.43898], [107.63386, 23.44569], [107.46319, 23.47108], [107.38372, 23.47926], [107.31613, 23.48036], [107.22054, 23.47028], [107.12835, 23.44623], [106.93608, 23.36448], [106.76455, 23.2601], [106.61133, 23.13638], [106.47399, 22.9966], [106.35014, 22.84407], [106.23738, 22.68208], [106.13329, 22.5139], [105.84703, 22.00536], [105.64115, 21.65468], [105.41567, 21.30782], [105.16816, 20.98192], [104.89599, 20.69428], [104.59632, 20.46235], [104.26611, 20.30364], [103.90223, 20.23562], [103.87521, 20.2344], [103.83205, 20.23586], [103.78041, 20.2429], [103.73327, 20.25493], [103.6898, 20.27139], [103.64916, 20.29172], [103.57309, 20.34168], [103.40404, 20.47323], [103.33251, 20.52059], [103.25151, 20.56276], [103.15487, 20.59841], [103.05746, 20.62168], [102.98395, 20.62914], [102.90792, 20.62727], [102.72267, 20.60639], [102.66708, 20.60541], [102.60008, 20.609], [102.1069, 20.77056], [101.62875, 21.10444], [101.17985, 21.57033], [100.77469, 22.12851], [100.42783, 22.74015], [100.15371, 23.36719], [99.96662, 23.97223], [99.88068, 24.51835], [99.87696, 24.59525], [99.87865, 24.82106], [99.91139, 25.29521], [99.91906, 25.47603], [99.91475, 25.65449], [99.89253, 25.83068], [99.84647, 26.00473], [99.77061, 26.17671], [99.65905, 26.34671], [99.50584, 26.5148], [99.40824, 26.60079], [99.30776, 26.67685], [99.20478, 26.74283], [99.0997, 26.79857], [98.99288, 26.8439], [98.88472, 26.87866], [98.77558, 26.9027], [98.66586, 26.91587], [98.53566, 26.91689], [98.40822, 26.90186], [98.28428, 26.87112], [98.16455, 26.82504], [98.04976, 26.76393], [97.94062, 26.68814], [97.83785, 26.59801], [97.74217, 26.49387], [97.58245, 26.26995], [97.46415, 26.04016], [97.38127, 25.80559], [97.32787, 25.5673], [97.29802, 25.32637], [97.28582, 25.08392], [97.28538, 24.84109], [97.2978, 24.27637], [97.29717, 24.11417], [97.2915, 23.95206], [97.27912, 23.79053], [97.25828, 23.63006], [97.22732, 23.47119], [97.18451, 23.31441], [97.11622, 23.13028], [97.03058, 22.94457], [96.93028, 22.75779], [96.81801, 22.57044], [96.69644, 22.383], [96.56824, 22.19595], [96.1872, 21.66429], [95.96079, 21.34022], [95.85316, 21.17723], [95.75151, 21.01392], [95.65752, 20.85054], [95.57289, 20.68731], [95.49929, 20.5245], [95.08202, 19.44593], [94.73683, 18.39067], [94.4618, 17.35327], [94.35793, 16.84093], [94.25527, 16.32832], [94.11574, 15.31043], [94.0419, 14.29415], [94.03256, 13.27391], [94.08666, 12.2438], [94.60494, 8.76571], [95.00471, 7.29167], [95.51975, 5.34967], [95.6238, 4.98358], [95.792, 4.62181], [95.93548, 4.18714], [95.96723, 3.62842], [95.96443, 3.16148], [95.96821, 2.91749], [95.99253, 2.80692], [96.05327, 2.73144], [96.18342, 2.60261], [96.40588, 2.36005], [96.66978, 2.06304], [96.92503, 1.76802], [97.20688, 1.41323], [97.28666, 1.28847], [97.38565, 1.12643], [97.61383, 0.73533], [97.89352, 0.22893], [98.2267, -0.33293], [98.36275, -0.60802], [98.46186, -0.86863], [98.54487, -1.10876], [98.63104, -1.3158], [98.72518, -1.4834], [98.83501, -1.6049], [98.96502, -1.70628], [99.1249, -1.83908], [99.32613, -2.04857], [99.55438, -2.30237], [99.80351, -2.58729], [100.07172, -2.8997], [100.35781, -3.24222], [100.98119, -4.00825], [101.88241, -5.05833], [102.08869, -5.30806], [102.23376, -5.5216], [102.24682, -5.53576], [102.24637, -5.49034], [102.26104, -5.46144], [102.30414, -5.45079], [102.41332, -5.47106], [102.6698, -5.55463], [103.0175, -5.69299], [103.40943, -5.86731], [103.81749, -6.07042], [104.21769, -6.29892], [104.58375, -6.55173], [104.88297, -6.82976], [105.09692, -7.1325], [105.24396, -7.45463], [105.34568, -7.79059], [105.41584, -8.13613], [105.49012, -8.45157], [105.54859, -8.76822], [105.64464, -9.39245], [105.69508, -9.69286], [105.75719, -9.97909], [105.84269, -10.24283], [105.9609, -10.47757], [106.10386, -10.69004], [106.26425, -10.88637], [106.43837, -11.06988], [106.63316, -11.21173], [106.83695, -11.34435], [107.04877, -11.46886], [107.26786, -11.58615], [107.49363, -11.69698], [107.72658, -11.78915], [107.96503, -11.87604], [108.20868, -11.95813], [108.45726, -12.03584], [108.71057, -12.10958], [108.96849, -12.16667], [109.23053, -12.22039], [109.49657, -12.27102], [110.04015, -12.36414], [110.59691, -12.42136], [111.45691, -12.4929], [112.04327, -12.50604], [112.94458, -12.51737], [114.49114, -12.45319], [116.0867, -12.31232], [116.89791, -12.20692], [117.72207, -12.10407], [118.81198, -11.91755], [119.92054, -11.73949], [121.03037, -11.50508], [122.15274, -11.28233], [123.26695, -11.0029], [124.3829, -10.73566], [126.54194, -10.08124], [126.88245, -9.94625], [127.2163, -9.80945], [127.54185, -9.67004], [127.8571, -9.52705], [128.15966, -9.3793], [128.44674, -9.22548], [128.70623, -9.03343], [128.94453, -8.83242], [129.16168, -8.62484], [129.36153, -8.41794], [129.55285, -8.22744], [129.75029, -8.087], [129.97231, -8.04907], [130.21666, -8.08452], [130.46992, -8.13788], [130.71943, -8.17944], [130.94177, -8.17774], [131.09791, -8.09064], [131.23224, -7.93977], [131.39156, -7.77788], [131.61773, -7.63913], [131.95935, -7.55388], [132.42471, -7.45937], [133.00468, -7.32621], [133.37236, -7.22507], [133.73722, -7.11215], [134.07895, -6.99109], [134.37547, -6.86771], [134.59276, -6.75545], [134.69777, -6.67061], [134.74325, -6.59624], [134.75962, -6.52631], [134.7991, -6.42151], [134.98543, -6.31026], [135.56098, -6.19375], [136.29968, -6.05197], [137.75588, -5.81148], [138.16729, -5.84135], [138.31206, -5.9811], [138.37482, -6.10944], [138.49854, -6.20223], [138.76977, -6.24062], [139.0948, -6.25078], [139.42663, -6.21337], [139.76679, -6.15876], [140.09214, -6.05353], [140.42018, -5.9367], [140.73905, -5.74549], [141.06033, -5.54593], [141.38216, -5.34036], [142.19132, -4.58953], [142.90626, -3.76807], [143.35752, -3.20238], [144.05449, -2.34987], [144.28917, -2.05671], [144.54268, -1.77935], [145.04492, -1.21306], [145.32685, -0.9644], [145.87858, -0.46548], [146.81747, 0.09963], [147.45795, 0.33381], [147.77923, 0.40578], [148.09941, 0.47202], [148.42296, 0.49975], [148.74791, 0.5218], [149.07716, 0.50997], [149.41014, 0.49313], [150.09114, 0.39815], [150.79095, 0.25064], [151.50251, 0.06569], [152.21491, -0.14], [152.81278, -0.3219], [153.11298, -0.40844], [154.01981, -0.66368], [154.32597, -0.74447], [154.94467, -0.90346], [155.57186, -1.05851], [156.52473, -1.28478], [157.48453, -1.50192], [158.12384, -1.64198], [159.07755, -1.84242], [160.02294, -2.02919], [160.64949, -2.14493], [161.27505, -2.25113], [161.90196, -2.34658], [162.21669, -2.39025], [162.80994, -2.46063]]]}}, {"type": "Feature", "properties": {"map_title": "아시아·태평양 전쟁의 전개", "source": "미래엔 세계사 교과서 4권 191쪽", "volume": 4, "page": 191, "legend": "일본의 방어선 1945년 8월", "name": "일본의 방어선(1945년 8월)", "name_en": "Japanese defensive perimeter (1945년 8월)", "period": "1945년 8월", "kind": "세력권", "note": "방어선 안쪽 범위(바다 포함)", "border_snap": "현대 국경(Natural Earth 10m)에 맞춘 구간 약 1034 km", "group": "일본의 방어선", "map_folder": "4권_p191_아시아·태평양 전쟁의 전개"}, "geometry": {"type": "MultiPolygon", "coordinates": [[[[109.67346, 8.67943], [109.65314, 8.57599], [109.61459, 8.33469], [109.56599, 7.60146], [109.61382, 6.88561], [109.74755, 6.19872], [109.95776, 5.55309], [110.23693, 4.96272], [110.58004, 4.44363], [110.9847, 4.01331], [111.45077, 3.6898], [111.55074, 3.63917], [111.95782, 3.45119], [112.0575, 3.39986], [112.15476, 3.3435], [112.2488, 3.28047], [112.40022, 3.15335], [112.53713, 3.00253], [112.65882, 2.82926], [112.76461, 2.63482], [112.85384, 2.42042], [112.92581, 2.18736], [112.97979, 1.93702], [112.99857, 1.79504], [112.97123, 1.57014], [113.01411, 1.55079], [113.02342, 1.53701], [113.02435, 1.51438], [113.01846, 1.49239], [113.00729, 1.47327], [112.99169, 1.45697], [112.9612, 1.43438], [112.95531, 1.42356], [112.9582, 1.41565], [112.97319, 1.41508], [113.03905, 1.19623], [113.05699, 0.78557], [113.07171, 0.60795], [113.0945, 0.43347], [113.12798, 0.26359], [113.33352, -0.23966], [113.62467, -0.48185], [113.97359, -0.49883], [114.35327, -0.33141], [114.73735, -0.0234], [115.10031, 0.3802], [115.41706, 0.83483], [115.66219, 1.29755], [115.82726, 1.69301], [115.9988, 2.08246], [116.15218, 2.44337], [116.31254, 2.79819], [116.47272, 3.11889], [116.63989, 3.43369], [116.82435, 3.70934], [117.01562, 3.9795], [117.24196, 4.20562], [117.47526, 4.42655], [117.76294, 4.59797], [118.05878, 4.76396], [118.43159, 4.8733], [118.81598, 4.97563], [119.14082, 5.00012], [119.47414, 5.01973], [119.81664, 5.03398], [120.21381, 5.00456], [120.62492, 4.96704], [121.03642, 4.89554], [121.46463, 4.81401], [121.8979, 4.70071], [122.35254, 4.57327], [122.81955, 4.41249], [123.31575, 4.22808], [123.83527, 4.00095], [124.3945, 3.73204], [124.98252, 3.41147], [126.17385, 2.73012], [126.68851, 2.47048], [127.10883, 2.30971], [127.45428, 2.2405], [127.82177, 2.2554], [128.30641, 2.34338], [128.89987, 2.44134], [129.35991, 2.44322], [129.79788, 2.33333], [130.1788, 2.05122], [130.47961, 1.5622], [130.68486, 0.87803], [130.86403, 0.17065], [131.06289, -0.39613], [131.30224, -0.75446], [131.53998, -0.99744], [131.79746, -1.15901], [132.07045, -1.26379], [132.70779, -1.40704], [133.07808, -1.46802], [133.45621, -1.5357], [133.74202, -1.68509], [133.96771, -1.89583], [134.13855, -2.19013], [134.20843, -2.63108], [134.33648, -3.60695], [134.31629, -3.97824], [134.25625, -4.92072], [134.0992, -5.30219], [133.95806, -5.67609], [133.59931, -6.04178], [133.11145, -6.3838], [132.58756, -6.55642], [132.06944, -6.70356], [131.62408, -6.82476], [131.2407, -6.89241], [130.95687, -6.95644], [130.73654, -7.02402], [130.51928, -7.05151], [130.29649, -7.05453], [130.05455, -7.03363], [129.78821, -6.98447], [129.51708, -6.96253], [129.25027, -6.9968], [129.00442, -7.07562], [128.76075, -7.20389], [128.51392, -7.36617], [127.84345, -7.81906], [127.58465, -7.97794], [127.31584, -8.13552], [127.03772, -8.29099], [126.7512, -8.44402], [126.35183, -8.62611], [125.94197, -8.80471], [125.52376, -8.98057], [125.39124, -9.02845], [125.16236, -9.06063], [125.162, -9.08234], [125.145, -9.14518], [125.15389, -9.17577], [125.15063, -9.18538], [125.14252, -9.1891], [125.10697, -9.18848], [125.09146, -9.19675], [125.07395, -9.21132], [125.05968, -9.2105], [125.04144, -9.19324], [125.0277, -9.18631], [125.00723, -9.18611], [124.97447, -9.19189], [124.95793, -9.21194], [124.95411, -9.2415], [124.72325, -9.26681], [124.67282, -9.28462], [124.4434, -9.23068], [124.42794, -9.29948], [124.40169, -9.33183], [124.37187, -9.35705], [124.35456, -9.36418], [124.34789, -9.37462], [124.34541, -9.40418], [124.32862, -9.43302], [124.33337, -9.4572], [124.33234, -9.4666], [124.32355, -9.48035], [124.31007, -9.48872], [124.27384, -9.49492], [124.25751, -9.50123], [124.25338, -9.48645], [124.25751, -9.45544], [124.24686, -9.42154], [124.22578, -9.39157], [124.21069, -9.37886], [124.19746, -9.37317], [124.18361, -9.3739], [124.16723, -9.38062], [124.1538, -9.39188], [124.13375, -9.41927], [124.12108, -9.42692], [124.09029, -9.42154], [124.06269, -9.39787], [123.87862, -9.54873], [122.87448, -9.85505], [121.5128, -10.22017], [121.05531, -10.32665], [120.14705, -10.54432], [119.6902, -10.63739], [118.78575, -10.82799], [118.10615, -10.9474], [117.43493, -11.06946], [115.87165, -11.29613], [114.34888, -11.45555], [112.8757, -11.53915], [112.15987, -11.54062], [111.4621, -11.53553], [110.78096, -11.48814], [110.12051, -11.42949], [109.79823, -11.37847], [109.48197, -11.32348], [109.17193, -11.26403], [108.8684, -11.19957], [108.63127, -11.13088], [108.39903, -11.05825], [108.17194, -10.9813], [107.9503, -10.89959], [107.73446, -10.81261], [107.52684, -10.70658], [107.32649, -10.59395], [107.13414, -10.47388], [106.95071, -10.34539], [106.77738, -10.20727], [106.60675, -10.01289], [106.45462, -9.80166], [106.32356, -9.57103], [106.21461, -9.31958], [106.12561, -9.04826], [106.05114, -8.7604], [105.94587, -8.10429], [105.88175, -7.77367], [105.79877, -7.44712], [105.68652, -7.1291], [105.53079, -6.82469], [105.31659, -6.52728], [105.01383, -6.25992], [104.63825, -6.02499], [104.2261, -5.82289], [103.80896, -5.65598], [103.41447, -5.5283], [103.08901, -5.4389], [102.83541, -5.38879], [102.5514, -5.35032], [102.47081, -5.33533], [102.3899, -5.30144], [102.28585, -5.20849], [102.1272, -5.03767], [101.60541, -4.43188], [100.90525, -3.63808], [100.56391, -3.23497], [99.98549, -2.52833], [99.73535, -2.23472], [99.50728, -1.98548], [99.3034, -1.78029], [99.13485, -1.60051], [98.98669, -1.41025], [98.85261, -1.17635], [98.58306, -0.59699], [98.42764, -0.28058], [98.26296, 0.04469], [98.09248, 0.36532], [97.93759, 0.67324], [97.81534, 0.9621], [97.62489, 1.47398], [97.53212, 1.71224], [97.42006, 1.94992], [97.27692, 2.20072], [97.10144, 2.48078], [96.91875, 2.7595], [96.75898, 3.01697], [96.65004, 3.26871], [96.58215, 3.54192], [96.53616, 3.88448], [96.49753, 4.32377], [96.42313, 4.79287], [96.30711, 5.23707], [96.1916, 5.65001], [95.95997, 6.40434], [95.72945, 7.45796], [95.62945, 8.45635], [95.67462, 9.40635], [95.86731, 10.52643], [96.12891, 11.59653], [96.44963, 12.62919], [96.82009, 13.63448], [97.23131, 14.62066], [97.67453, 15.59452], [98.14114, 16.56141], [98.22004, 16.71937], [98.45469, 16.74099], [98.46255, 16.76012], [98.47454, 16.77665], [98.48921, 16.78073], [98.50544, 16.79066], [98.51753, 16.80301], [98.52053, 16.81412], [98.51319, 16.82218], [98.49438, 16.83117], [98.49004, 16.84321], [98.49252, 16.85742], [98.50058, 16.86223], [98.51195, 16.85928], [98.52456, 16.85044], [98.50947, 16.89266], [98.48446, 16.90589], [98.48043, 16.93726], [98.44674, 16.99633], [98.43619, 17.01157], [98.4179, 17.02904], [98.39992, 17.04015], [98.4884, 17.25662], [98.62265, 17.52533], [98.82195, 17.91303], [99.0418, 18.31547], [99.28384, 18.7197], [99.54961, 19.11264], [99.84051, 19.48117], [100.14557, 19.79935], [100.38259, 19.75999], [100.42052, 19.81045], [100.43142, 19.83827], [100.43845, 19.84721], [100.47426, 19.86535], [100.48398, 19.8807], [100.49266, 19.93165], [100.54335, 20.06658], [100.55059, 20.10653], [100.5465, 20.16792], [100.76703, 20.24491], [100.876, 20.30782], [101.02904, 20.37137], [101.17617, 20.4172], [101.31981, 20.44573], [101.4624, 20.45734], [101.60638, 20.45246], [101.7542, 20.43151], [101.90832, 20.39493], [102.07122, 20.34314], [102.90399, 20.04037], [103.11341, 19.97067], [103.32405, 19.90755], [103.53626, 19.85315], [103.78657, 19.80456], [104.00097, 19.68074], [104.01027, 19.68456], [104.02174, 19.68144], [104.0697, 19.65803], [104.08872, 19.6519], [104.10923, 19.65487], [104.11719, 19.661], [104.12448, 19.67591], [104.13631, 19.68746], [104.15817, 19.68774], [104.22897, 19.70601], [104.24214, 19.69518], [104.27702, 19.68389], [104.29527, 19.65487], [104.34188, 19.68301], [104.36002, 19.68746], [104.38007, 19.68528], [104.39175, 19.67684], [104.41541, 19.65082], [104.50585, 19.60281], [104.5228, 19.59937], [104.54616, 19.60193], [104.57923, 19.61803], [104.60496, 19.60648], [104.61426, 19.60743], [104.62305, 19.61808], [104.65478, 19.69797], [104.67597, 19.72469], [104.69168, 19.73546], [104.73674, 19.74567], [104.76072, 19.76652], [104.78521, 19.77693], [104.805, 19.79089], [104.81508, 19.82241], [104.81663, 19.84809], [104.80924, 19.85367], [104.79028, 19.85967], [104.76072, 19.86145], [104.75555, 19.86701], [104.7618, 19.88551], [104.78066, 19.90809], [104.83534, 19.93889], [104.85792, 19.95522], [104.87384, 19.98266], [104.8929, 19.9855], [104.92246, 19.98224], [104.93569, 19.98416], [104.94949, 19.9955], [104.95321, 20.00927], [105.19051, 19.96839], [105.24024, 19.99097], [105.42922, 20.10709], [105.51667, 20.17276], [105.60105, 20.24308], [105.76355, 20.39351], [106.08375, 20.70425], [106.30607, 20.89044], [106.5442, 21.06052], [106.79509, 21.21631], [107.05569, 21.35963], [107.18926, 21.42596], [107.34816, 21.59935], [107.38288, 21.61889], [107.40996, 21.6454], [107.42603, 21.65206], [107.44593, 21.64695], [107.45704, 21.6315], [107.46102, 21.59636], [107.50132, 21.58153], [107.50985, 21.58178], [107.51827, 21.58737], [107.52654, 21.60328], [107.53305, 21.60866], [107.55098, 21.61083], [107.6132, 21.60561], [107.67186, 21.61765], [107.69025, 21.62473], [107.72942, 21.65196], [107.74482, 21.65754], [107.7779, 21.65599], [107.81164, 21.64783], [107.83236, 21.63935], [108.0151, 21.79401], [108.13323, 21.84378], [108.33169, 21.9229], [108.49992, 21.98157], [108.64612, 22.01824], [108.77856, 22.03134], [108.90562, 22.01926], [109.0357, 21.9804], [109.17732, 21.91311], [109.33901, 21.81577], [109.51514, 21.69378], [109.6843, 21.5638], [110.18123, 21.15902], [110.35393, 21.03003], [110.53548, 20.90938], [110.72915, 20.80031], [110.95819, 20.6846], [111.10668, 20.60004], [111.17751, 20.55292], [111.24513, 20.50141], [111.30883, 20.44466], [111.36702, 20.38328], [111.42014, 20.31772], [111.46882, 20.24863], [111.55554, 20.10253], [111.63252, 19.95023], [111.77111, 19.6553], [111.87006, 19.43527], [111.96322, 19.21331], [112.04789, 18.98936], [112.12137, 18.76338], [112.1597, 18.61672], [112.18096, 18.53524], [112.22393, 18.3048], [112.24757, 18.07185], [112.24505, 17.69782], [112.20215, 17.32372], [112.12829, 16.94996], [112.03287, 16.57704], [111.81502, 15.83692], [111.7112, 15.47194], [111.62302, 15.11229], [111.5525, 14.73883], [111.4978, 14.36404], [111.40633, 13.61481], [111.35512, 13.24191], [111.29094, 12.87077], [111.20709, 12.50154], [111.09714, 12.1342], [110.96132, 11.77441], [110.80654, 11.41996], [110.63954, 11.06872], [110.29478, 10.36821], [110.12934, 10.01557], [109.97636, 9.65932], [109.84142, 9.29807], [109.80223, 9.17825], [109.73334, 8.93779], [109.67346, 8.67943]]], [[[124.12779, 23.43951], [123.50954, 22.75243], [123.10488, 22.32122], [122.68987, 21.89715], [122.26814, 21.48608], [121.84376, 21.0945], [121.41991, 20.72714], [120.9972, 20.3843], [120.57431, 20.06291], [120.41261, 19.9509], [120.32715, 19.90005], [120.23898, 19.85564], [120.14831, 19.8199], [120.05547, 19.79509], [119.96075, 19.78346], [119.86448, 19.78732], [119.78951, 19.80248], [119.71944, 19.82707], [119.65391, 19.85975], [119.59256, 19.89917], [119.53501, 19.94397], [119.48089, 19.99282], [119.38139, 20.09715], [119.05829, 20.49667], [118.77223, 20.93099], [118.52274, 21.39771], [118.30841, 21.89289], [118.12738, 22.41171], [117.97763, 22.94916], [117.85737, 23.50051], [117.76517, 24.06157], [117.74329, 24.24215], [117.73622, 24.33341], [117.73321, 24.42494], [117.73537, 24.5165], [117.7438, 24.60782], [117.75962, 24.69867], [117.78396, 24.78883], [118.10386, 25.30538], [118.63473, 25.66951], [119.31791, 25.91684], [120.09198, 26.07845], [120.89071, 26.1778], [121.64193, 26.22822], [122.28031, 26.2469], [122.76073, 26.27126], [123.06707, 26.30048], [123.21988, 26.3114], [123.37219, 26.31796], [123.52379, 26.31873], [123.67451, 26.3123], [123.82417, 26.29724], [123.9726, 26.27213], [124.11958, 26.23476], [124.26369, 26.18408], [124.40301, 26.11995], [124.53558, 26.04224], [124.65943, 25.95075], [124.77255, 25.84527], [124.87289, 25.72553], [124.95829, 25.59124], [125.06476, 25.28263], [125.06461, 24.96742], [124.97575, 24.64888], [124.81708, 24.33119], [124.60858, 24.01947], [124.37138, 23.71987], [124.12779, 23.43951]]], [[[146.44578, 42.4367], [146.31502, 42.15584], [146.19244, 41.8764], [146.03394, 41.58477], [145.88317, 41.29421], [145.73452, 41.0415], [145.59098, 40.78938], [145.29546, 40.28887], [144.99716, 39.79158], [144.45152, 38.91074], [143.49033, 37.31054], [143.02333, 36.54925], [142.52737, 35.79344], [141.99956, 35.04944], [141.43823, 34.32419], [140.84248, 33.62476], [140.21164, 32.958], [139.76641, 32.53786], [139.54497, 32.33027], [138.84142, 31.74709], [138.34732, 31.39055], [137.85717, 31.04245], [137.3292, 30.7197], [136.80544, 30.40517], [136.27412, 30.13928], [135.69328, 29.84386], [134.52392, 29.35875], [133.29909, 28.94552], [132.6615, 28.7776], [132.02321, 28.60233], [131.36542, 28.474], [130.70804, 28.33726], [130.04012, 28.25797], [129.37643, 28.17258], [128.58513, 28.13492], [127.8372, 28.1492], [127.12814, 28.21448], [126.44898, 28.32696], [125.78887, 28.48121], [125.13711, 28.67111], [124.48314, 28.88986], [123.81621, 29.13005], [123.50951, 29.23556], [123.19551, 29.32666], [122.87565, 29.39873], [122.55143, 29.44715], [122.22441, 29.46733], [121.89614, 29.45466], [121.56818, 29.40443], [121.24209, 29.31187], [121.10011, 29.25712], [120.95934, 29.1962], [120.53688, 29.00266], [120.39356, 28.94342], [120.24781, 28.89131], [120.09895, 28.84906], [119.71004, 28.8308], [119.37405, 28.94864], [119.07614, 29.1563], [118.52925, 29.65489], [118.24643, 29.85444], [117.93428, 29.96104], [117.57482, 29.92995], [117.21579, 29.73431], [116.98826, 29.42323], [116.86397, 29.02644], [116.81481, 28.57434], [116.81274, 28.09825], [116.82986, 27.63057], [116.83843, 27.20494], [116.81111, 26.85623], [116.7731, 26.68723], [116.72046, 26.5197], [116.6532, 26.35637], [116.57134, 26.19994], [116.47493, 26.05318], [116.36406, 25.91885], [116.23882, 25.79968], [116.09931, 25.69837], [116.03438, 25.66025], [115.83469, 25.55412], [115.76998, 25.51661], [115.70795, 25.4756], [115.64963, 25.4296], [115.59604, 25.37716], [115.55363, 25.32479], [115.51704, 25.26866], [115.48557, 25.20935], [115.45855, 25.14754], [115.43529, 25.08387], [115.39726, 24.95349], [115.27596, 24.43954], [115.19951, 24.05644], [115.15247, 23.68518], [115.15073, 23.33591], [115.21006, 23.01835], [115.34618, 22.742], [115.57488, 22.51629], [115.91207, 22.35105], [116.1327, 22.28823], [116.38585, 22.22304], [116.64708, 22.14512], [116.89182, 22.04394], [117.09558, 21.90908], [117.23403, 21.73044], [117.28314, 21.49887], [117.21932, 21.20646], [117.18574, 21.13435], [117.14445, 21.06692], [117.09653, 21.00384], [117.04301, 20.94472], [116.98494, 20.88924], [116.85941, 20.78772], [116.79408, 20.74101], [116.28258, 20.44909], [115.66344, 20.20393], [114.98206, 20.02856], [114.28413, 19.94606], [113.61478, 19.98015], [113.01815, 20.15553], [112.53746, 20.49764], [112.2158, 21.03267], [112.17158, 21.18871], [112.14755, 21.35064], [112.14449, 21.51457], [112.16319, 21.67663], [112.20444, 21.83291], [112.26902, 21.97947], [112.35776, 22.11236], [112.47146, 22.22759], [112.57831, 22.30407], [112.69362, 22.36764], [112.81448, 22.4228], [113.06102, 22.52625], [113.18081, 22.58372], [113.29433, 22.6512], [113.39862, 22.73334], [113.51942, 22.872], [113.60703, 23.02996], [113.66576, 23.20334], [113.69989, 23.38817], [113.71376, 23.58047], [113.71168, 23.77626], [113.69799, 23.97154], [113.67701, 24.16237], [113.65587, 24.29228], [113.62461, 24.41292], [113.58164, 24.52333], [113.52539, 24.62254], [113.45432, 24.70958], [113.36688, 24.78349], [113.26154, 24.84337], [113.04374, 24.9218], [112.95435, 24.96884], [112.86962, 25.02744], [112.79053, 25.09555], [112.71806, 25.17116], [112.65318, 25.25224], [112.59689, 25.33683], [112.55018, 25.4229], [112.49408, 25.55258], [112.44832, 25.68837], [112.41355, 25.82881], [112.39043, 25.97244], [112.37963, 26.11781], [112.38182, 26.26346], [112.39768, 26.40798], [112.42789, 26.54993], [112.46992, 26.69619], [112.53156, 26.84546], [112.60372, 26.99528], [112.68477, 27.14543], [112.77311, 27.29572], [112.86706, 27.4459], [113.4232, 28.27828], [113.54697, 28.47383], [113.66365, 28.67074], [113.82972, 28.9886], [113.96605, 29.30544], [114.07589, 29.61931], [114.16256, 29.92837], [114.2294, 30.23085], [114.27977, 30.52513], [114.31704, 30.80957], [114.34455, 31.08268], [114.35004, 31.18106], [114.35018, 31.27549], [114.3458, 31.36618], [114.3269, 31.53714], [114.24765, 31.98977], [114.23932, 32.10932], [114.24489, 32.25772], [114.2605, 32.40024], [114.28613, 32.53679], [114.29502, 32.56942], [114.32173, 32.6673], [114.36725, 32.79169], [114.42266, 32.90987], [114.48792, 33.02177], [114.563, 33.12729], [114.64676, 33.22658], [114.72933, 33.30875], [114.81162, 33.37658], [114.89453, 33.4328], [114.97896, 33.48015], [115.0658, 33.52137], [115.25025, 33.5962], [115.51012, 33.71019], [115.7375, 33.84185], [115.93049, 33.99867], [116.08723, 34.18814], [116.20588, 34.4177], [116.28461, 34.6947], [116.32164, 35.02645], [116.31519, 35.42019], [116.29597, 35.66055], [116.27206, 35.90003], [116.19553, 36.54469], [116.10654, 37.37811], [116.06618, 38.10308], [116.0852, 38.72543], [116.17441, 39.25043], [116.34473, 39.68305], [116.60712, 40.02799], [116.93921, 40.26608], [116.97254, 40.28984], [117.45197, 40.47303], [117.60055, 40.5099], [117.75168, 40.54165], [118.06149, 40.59278], [118.38113, 40.63253], [119.01365, 40.69855], [119.31577, 40.73406], [119.81583, 40.80954], [120.31346, 40.90729], [120.80703, 41.02669], [121.29486, 41.16713], [121.77527, 41.32811], [122.24652, 41.50915], [122.70682, 41.70985], [123.15427, 41.92981], [123.38639, 42.05466], [123.6034, 42.17992], [123.80605, 42.30617], [123.99509, 42.43401], [124.17129, 42.56405], [124.33536, 42.69683], [124.48808, 42.83295], [124.63019, 42.97298], [124.90171, 43.28986], [125.12802, 43.62929], [125.30771, 43.98729], [125.43982, 44.35988], [125.52374, 44.74305], [125.55915, 45.13273], [125.54578, 45.5247], [125.48331, 45.91461], [125.4131, 46.17363], [125.32082, 46.42658], [125.26802, 46.54111], [125.2074, 46.67197], [125.07366, 46.9083], [124.92041, 47.13411], [124.81002, 47.27159], [124.74845, 47.34792], [124.55852, 47.54832], [124.35138, 47.73384], [124.26571, 47.79977], [124.17763, 47.85925], [124.0879, 47.91301], [123.90644, 48.0064], [123.48077, 48.19099], [123.36688, 48.24513], [123.31885, 48.27135], [123.28167, 48.29549], [123.25906, 48.31642], [123.24775, 48.35248], [123.24557, 48.38698], [123.26022, 48.42274], [123.29935, 48.4626], [123.37064, 48.50941], [123.48177, 48.56603], [123.64035, 48.63536], [124.13571, 48.83337], [124.34617, 48.93958], [124.52662, 49.05889], [124.68052, 49.18787], [124.81133, 49.32305], [124.92248, 49.46096], [125.01736, 49.59818], [125.09935, 49.73123], [125.25245, 49.99573], [125.33514, 50.1241], [125.37957, 50.184], [125.42729, 50.24092], [125.47922, 50.29474], [125.5363, 50.34536], [125.88668, 50.63694], [126.02978, 50.77967], [126.13759, 50.9252], [126.21513, 51.07038], [126.26739, 51.21202], [126.29938, 51.34705], [126.31615, 51.47234], [126.32338, 51.63683], [126.63518, 51.75655], [126.44606, 51.98254], [126.43929, 51.99786], [126.44735, 52.01879], [126.46709, 52.03166], [126.51443, 52.04254], [126.5198, 52.06127], [126.54392, 52.10083], [126.89192, 52.02774], [127.04093, 52.04969], [127.16091, 52.0599], [127.33135, 52.06223], [127.57131, 52.04878], [127.98646, 52.00241], [128.54176, 51.95433], [128.88775, 51.91459], [129.05466, 51.88833], [129.20393, 51.85714], [129.32529, 51.82056], [129.40841, 51.77812], [129.49159, 51.68297], [129.56989, 51.53574], [129.64209, 51.35184], [129.67464, 51.24926], [129.70705, 51.14668], [129.76376, 50.93575], [129.81135, 50.73447], [129.90796, 50.26422], [129.92861, 50.13636], [129.94203, 49.95805], [129.94522, 49.57367], [129.95471, 49.43221], [129.71118, 49.27415], [129.73506, 49.23891], [129.73754, 49.20547], [129.74177, 49.19571], [129.75563, 49.18429], [129.77598, 49.17757], [129.82466, 49.17416], [129.84151, 49.16718], [129.84544, 49.15406], [129.84151, 49.1092], [129.88316, 49.0998], [129.92068, 49.08186], [129.91169, 49.05928], [129.91344, 49.03954], [129.92647, 49.02569], [129.97422, 49.01515], [129.99685, 49.00238], [130.03747, 48.972], [130.2018, 48.8826], [130.24934, 48.86451], [130.29358, 48.87014], [130.33812, 48.88534], [130.3868, 48.89629], [130.43972, 48.8965], [130.46535, 48.89133], [130.48664, 48.86368], [130.51165, 48.85552], [130.5409, 48.85345], [130.56488, 48.85588], [130.62493, 48.87433], [130.65066, 48.8764], [130.67433, 48.87082], [130.6765, 48.85743], [130.66668, 48.84146], [130.62782, 48.79604], [130.53325, 48.63579], [130.52974, 48.61626], [130.5408, 48.59835], [130.5624, 48.58815], [130.60767, 48.57673], [130.62017, 48.5605], [130.62079, 48.54931], [130.61345, 48.51947], [130.62637, 48.48226], [130.63929, 48.47725], [130.71588, 48.49906], [130.7443, 48.49732], [130.75897, 48.48572], [130.75959, 48.46792], [130.7383, 48.42981], [130.74326, 48.41159], [130.77964, 48.35638], [130.79029, 48.34821], [130.81447, 48.33997], [130.82212, 48.33377], [130.82512, 48.31777], [130.82398, 48.29416], [131.16547, 48.25103], [131.55641, 48.14217], [131.73516, 48.08809], [131.91118, 48.02853], [132.07357, 47.96393], [132.11295, 47.94412], [132.25077, 47.72536], [132.33242, 47.73652], [132.36653, 47.73533], [132.40063, 47.7298], [132.45324, 47.71053], [132.47577, 47.70675], [132.40819, 47.47994], [132.42372, 47.38229], [132.43698, 47.31882], [132.47903, 47.17427], [132.53602, 47.03903], [132.60683, 46.91438], [132.69045, 46.80161], [132.786, 46.70199], [132.89277, 46.61676], [133.01033, 46.54706], [133.13849, 46.49392], [133.29865, 46.44963], [133.30308, 46.38697], [133.27398, 46.18676], [133.19684, 45.9446], [133.11961, 45.73699], [133.23583, 45.52171], [133.20213, 45.51128], [133.18921, 45.50415], [133.14022, 45.43542], [133.1332, 45.41961], [133.1272, 45.38509], [133.10188, 45.28721], [133.10674, 45.26463], [133.09754, 45.24354], [133.12069, 45.18344], [133.1272, 45.15538], [133.12152, 45.13125], [133.09878, 45.10779], [133.07336, 45.09063], [133.04969, 45.08175], [133.02385, 45.05834], [132.99264, 45.04847], [132.96618, 45.02888], [132.95336, 45.02439], [132.92122, 45.0279], [132.81791, 44.80602], [132.78752, 44.68743], [132.72168, 44.35357], [132.67589, 44.03955], [132.6616, 43.91466], [132.63978, 43.67927], [132.62499, 43.46561], [132.61285, 43.19274], [132.60547, 42.69206], [132.5934, 42.39813], [132.58991, 42.07665], [132.60843, 41.74146], [132.66083, 41.40377], [132.75845, 41.07468], [132.91264, 40.76522], [133.03412, 40.59833], [133.17618, 40.45063], [133.33865, 40.32331], [133.52131, 40.21754], [133.72385, 40.13433], [133.94594, 40.0746], [134.18718, 40.03913], [134.44714, 40.02844], [134.56402, 40.0314], [134.74731, 40.04394], [134.93914, 40.06595], [135.11255, 40.09517], [135.28071, 40.13401], [135.4436, 40.18065], [135.60124, 40.23325], [135.75367, 40.29004], [136.04335, 40.409], [136.47501, 40.59654], [136.77724, 40.71762], [137.08779, 40.8307], [137.40593, 40.93584], [137.81164, 41.07666], [138.22015, 41.20575], [138.61765, 41.32605], [138.96422, 41.45189], [139.2568, 41.57583], [139.46492, 41.70197], [139.65718, 41.93889], [140.00467, 42.03608], [140.21824, 42.13365], [140.43951, 42.2718], [140.64273, 42.44276], [140.83714, 42.63124], [141.02952, 42.84768], [141.22189, 43.12461], [141.70311, 43.8695], [141.95747, 44.29457], [142.21563, 44.70076], [142.75679, 45.48523], [142.89084, 45.67013], [143.02129, 45.84074], [143.14997, 45.99612], [143.27855, 46.13469], [143.40845, 46.25448], [143.54058, 46.35319], [143.67462, 46.42784], [143.74718, 46.45785], [143.81478, 46.47968], [143.87909, 46.49465], [143.94157, 46.50392], [144.00314, 46.50823], [144.06421, 46.50795], [144.12484, 46.50317], [144.18489, 46.49383], [144.34306, 46.45557], [144.52319, 46.398], [144.72153, 46.32092], [144.9339, 46.22421], [145.15583, 46.10801], [145.38269, 45.97285], [145.60953, 45.81966], [145.83121, 45.64979], [146.16907, 45.34084], [146.47252, 45.03972], [146.68055, 44.74551], [146.81766, 44.48194], [146.85388, 44.2312], [146.86567, 43.99155], [146.79179, 43.49361], [146.71679, 43.23325], [146.64675, 42.97541], [146.54246, 42.70503], [146.44578, 42.4367]]]]}}]}