{"type": "FeatureCollection", "features": [{"type": "Feature", "properties": {"name": "카자흐스탄", "name_en": "Kazakhstan", "period": "1991년", "kind": "국가", "legend": "독립 국가 연합(CIS, 1991년 기준)", "map_title": "소련의 해체와 동유럽의 변화", "source": "미래엔 세계사 교과서 4권 201쪽", "volume": 4, "page": 201, "geometry_source": "Natural Earth 10m 국가 경계", "group": "카자흐스탄", "map_folder": "4권_p201_소련의 해체와 동유럽의 변화"}, "geometry": {"type": "MultiPolygon", "coordinates": [[[[87.20065, 49.10874], [87.162, 49.12279], [87.11632, 49.12977], [86.97544, 49.0924], [86.94656, 49.09447], [86.88734, 49.10682], [86.85948, 49.10532], [86.83819, 49.09385], [86.81618, 49.05845], [86.79892, 49.04223], [86.76006, 49.02011], [86.74352, 49.00771], [86.7275, 48.99034], [86.71386, 48.96993], [86.70942, 48.95422], [86.71805, 48.91252], [86.74187, 48.87872], [86.7737, 48.85852], [86.78946, 48.83914], [86.76466, 48.80762], [86.74611, 48.79284], [86.73918, 48.78354], [86.75189, 48.72917], [86.752, 48.71543], [86.7445, 48.70354], [86.669, 48.63424], [86.60555, 48.59011], [86.56508, 48.52732], [86.54643, 48.51722], [86.43062, 48.48588], [86.33383, 48.4904], [86.30737, 48.48309], [86.28629, 48.4697], [86.2467, 48.43735], [86.19203, 48.41823], [86.00599, 48.42955], [85.78368, 48.40759], [85.74741, 48.3901], [85.71867, 48.35883], [85.58638, 48.14125], [85.56179, 48.03066], [85.54711, 47.99299], [85.52871, 47.96661], [85.51781, 47.94465], [85.51538, 47.92028], [85.59543, 47.62407], [85.59579, 47.5909], [85.57998, 47.52377], [85.58457, 47.49294], [85.60023, 47.4632], [85.67036, 47.38434], [85.67888, 47.36383], [85.6672, 47.32605], [85.6702, 47.30905], [85.67899, 47.29071], [85.67899, 47.27489], [85.65966, 47.20652], [85.64731, 47.1979], [85.60163, 47.19443], [85.57749, 47.18916], [85.55682, 47.17875], [85.54711, 47.16203], [85.53863, 47.12793], [85.51688, 47.1003], [85.50809, 47.08253], [85.50577, 47.0639], [85.49864, 47.05183], [85.43213, 47.05312], [85.30371, 47.0394], [85.24614, 47.04442], [85.22584, 47.04157], [85.20511, 47.03372], [85.19152, 47.02328], [85.16739, 46.993], [85.146, 46.97809], [85.07716, 46.94331], [85.04822, 46.9207], [85.03536, 46.91497], [84.9904, 46.90768], [84.97577, 46.902], [84.95939, 46.89089], [84.93681, 46.86102], [84.91604, 46.85055], [84.84018, 46.83913], [84.76711, 46.81807], [84.73961, 46.81477], [84.71977, 46.8213], [84.71553, 46.83518], [84.74959, 46.88246], [84.7516, 46.91799], [84.73166, 46.94776], [84.6992, 46.97024], [84.66354, 46.98385], [84.616, 46.98628], [84.52102, 46.9698], [84.47575, 46.97525], [84.4218, 46.9931], [84.26584, 47.00013], [84.15815, 46.9931], [84.09397, 46.96742], [84.06963, 46.96442], [83.99919, 46.97432], [83.90535, 46.97396], [83.52449, 47.0671], [83.35339, 47.14498], [83.31417, 47.15795], [83.22198, 47.1719], [83.20193, 47.18035], [83.15036, 47.21154], [83.12638, 47.21758], [83.0716, 47.21851], [83.0469, 47.21466], [83.02147, 47.20591], [83.01352, 47.19459], [83.01517, 47.15438], [82.99822, 47.11025], [83.00628, 47.08062], [83.00545, 47.06979], [82.99016, 47.03217], [82.98551, 47.01253], [82.99336, 46.97561], [82.99181, 46.95874], [82.98551, 46.94251], [82.83895, 46.73245], [82.74743, 46.49334], [82.70785, 46.43417], [82.70129, 46.41686], [82.6893, 46.36255], [82.67436, 46.33113], [82.60786, 46.25521], [82.56827, 46.19651], [82.54187, 46.1315], [82.51587, 45.99311], [82.48895, 45.90169], [82.47582, 45.87317], [82.44751, 45.82542], [82.37221, 45.73416], [82.33604, 45.63515], [82.30462, 45.58285], [82.29149, 45.53319], [82.32746, 45.49335], [82.36265, 45.4812], [82.51303, 45.46575], [82.61571, 45.43542], [82.63199, 45.41583], [82.63638, 45.37888], [82.63385, 45.33935], [82.61457, 45.24856], [82.58522, 45.17683], [82.53975, 45.12365], [82.47582, 45.1157], [82.42745, 45.13725], [82.34183, 45.20489], [82.29459, 45.2282], [82.24529, 45.23181], [82.19176, 45.2222], [82.00045, 45.15352], [81.95012, 45.14448], [81.91012, 45.15802], [81.891, 45.17373], [81.87534, 45.18107], [81.80728, 45.18872], [81.79364, 45.19564], [81.78848, 45.20913], [81.78145, 45.26664], [81.76517, 45.30773], [81.73928, 45.33806], [81.70476, 45.33987], [81.66523, 45.34798], [81.62259, 45.33434], [81.54203, 45.29331], [81.14417, 45.20468], [81.06252, 45.17223], [81.02191, 45.16164], [80.97602, 45.16107], [80.85385, 45.1265], [80.82755, 45.12577], [80.7457, 45.14427], [80.69712, 45.14365], [80.53682, 45.10107], [80.46757, 45.10629], [80.44535, 45.10422], [80.4251, 45.09213], [80.40639, 45.05663], [80.39006, 45.04578], [80.36505, 45.04319], [80.29053, 45.04624], [80.21901, 45.02604], [80.14759, 45.03446], [80.10336, 45.03219], [80.06171, 45.01896], [79.92466, 44.93168], [79.87815, 44.91473], [79.8582, 44.90372], [79.84301, 44.87349], [79.86864, 44.84936], [79.99174, 44.79365], [80.03938, 44.7905], [80.21829, 44.81809], [80.24474, 44.81597], [80.26324, 44.80936], [80.31451, 44.78032], [80.47615, 44.73541], [80.49228, 44.72797], [80.49744, 44.71495], [80.49196, 44.70172], [80.47615, 44.69365], [80.41114, 44.6828], [80.37631, 44.67128], [80.35585, 44.65288], [80.35451, 44.64177], [80.35916, 44.63257], [80.37724, 44.61531], [80.38375, 44.60281], [80.37993, 44.59134], [80.36453, 44.56968], [80.33787, 44.49403], [80.33042, 44.45305], [80.3329, 44.41739], [80.37301, 44.27022], [80.37321, 44.231], [80.34603, 44.15891], [80.3389, 44.12149], [80.3451, 44.1031], [80.39233, 44.06548], [80.40381, 44.04894], [80.41001, 44.03194], [80.41269, 43.99323], [80.42313, 43.97215], [80.43988, 43.949], [80.47615, 43.91024], [80.71273, 43.45887], [80.71014, 43.42585], [80.69423, 43.39472], [80.64286, 43.32622], [80.65847, 43.31064], [80.69598, 43.30327], [80.73546, 43.28888], [80.74849, 43.27516], [80.75583, 43.25762], [80.75996, 43.21878], [80.76523, 43.19995], [80.78817, 43.16824], [80.79345, 43.14946], [80.78786, 43.12804], [80.77339, 43.11292], [80.75345, 43.10404], [80.73154, 43.10109], [80.71076, 43.10479], [80.66002, 43.13282], [80.61847, 43.13427], [80.57589, 43.11941], [80.49786, 43.07618], [80.41021, 43.04866], [80.36815, 43.02846], [80.35513, 43.00058], [80.37383, 42.97518], [80.40773, 42.95469], [80.47615, 42.93028], [80.52194, 42.92544], [80.54292, 42.91666], [80.55449, 42.89893], [80.5486, 42.87847], [80.52669, 42.86839], [80.47615, 42.8639], [80.4005, 42.84302], [80.38169, 42.83142], [80.33394, 42.81708], [80.31678, 42.8156], [80.2649, 42.82367], [80.24826, 42.8162], [80.22749, 42.79098], [80.20537, 42.73109], [80.18893, 42.70158], [80.15245, 42.66037], [80.14377, 42.64476], [80.14005, 42.62295], [80.15348, 42.59154], [80.16237, 42.55239], [80.2001, 42.50839], [80.21053, 42.49084], [80.21209, 42.47875], [80.19472, 42.4463], [80.19617, 42.43459], [80.2187, 42.35493], [80.22552, 42.33902], [80.2495, 42.30995], [80.26841, 42.23797], [80.26045, 42.21649], [80.24909, 42.20489], [80.21033, 42.18952], [80.16661, 42.20872], [80.13653, 42.23887], [80.11008, 42.27334], [80.077, 42.30577], [80.0121, 42.34951], [79.96011, 42.40351], [79.91794, 42.42444], [79.69646, 42.45984], [79.65253, 42.46105], [79.57192, 42.44953], [79.47642, 42.45397], [79.42567, 42.46961], [79.39839, 42.49694], [79.35302, 42.5773], [79.32129, 42.60218], [79.24212, 42.62978], [79.20636, 42.65647], [79.18186, 42.6936], [79.17608, 42.71393], [79.17515, 42.73703], [79.18083, 42.77553], [79.17339, 42.78563], [79.14827, 42.79098], [79.10879, 42.78535], [79.03087, 42.75615], [78.99294, 42.75713], [78.95428, 42.76842], [78.88814, 42.77121], [78.80793, 42.79558], [78.68711, 42.8046], [78.66996, 42.81116], [78.63544, 42.83248], [78.5943, 42.85023], [78.49612, 42.8756], [78.42956, 42.88067], [78.38553, 42.87824], [78.31122, 42.85051], [78.29014, 42.85144], [78.22978, 42.86501], [78.18358, 42.86015], [78.1379, 42.86198], [78.03062, 42.85467], [77.98618, 42.8602], [77.92933, 42.88501], [77.90701, 42.89129], [77.88385, 42.89322], [77.86122, 42.89082], [77.80996, 42.87129], [77.79818, 42.87751], [77.78123, 42.89563], [77.71384, 42.90759], [77.6478, 42.9095], [77.62692, 42.90655], [77.57442, 42.88785], [77.55778, 42.88813], [77.50155, 42.91454], [77.46176, 42.91438], [77.41856, 42.92224], [77.32813, 42.89756], [77.17868, 42.9132], [77.16369, 42.92198], [77.13506, 42.95175], [77.124, 42.9589], [77.0899, 42.96815], [76.97642, 42.98221], [76.95688, 42.98851], [76.93735, 42.98603], [76.89766, 42.97454], [76.83348, 42.97174], [76.81415, 42.96149], [76.79297, 42.94306], [76.77953, 42.93929], [76.7539, 42.94076], [76.74625, 42.92888], [76.70791, 42.91366], [76.68879, 42.91033], [76.64435, 42.91113], [76.58502, 42.8948], [76.55877, 42.89821], [76.50688, 42.91449], [76.48053, 42.91697], [76.46193, 42.911], [76.43206, 42.88958], [76.41407, 42.8855], [76.40446, 42.88924], [76.3933, 42.90526], [76.38296, 42.91007], [76.34049, 42.90167], [76.2545, 42.92115], [76.16375, 42.92115], [76.09058, 42.93428], [76.06454, 42.93397], [75.99911, 42.91764], [75.97658, 42.91873], [75.89803, 42.9357], [75.85897, 42.93981], [75.79716, 42.93619], [75.78207, 42.93332], [75.7706, 42.92565], [75.73825, 42.86157], [75.7276, 42.84868], [75.70383, 42.83049], [75.67531, 42.81537], [75.64616, 42.8061], [75.62043, 42.8053], [75.55594, 42.82522], [75.53599, 42.82702], [75.49661, 42.82393], [75.2712, 42.84576], [75.20464, 42.84519], [75.17859, 42.84966], [75.06615, 42.9026], [75.00538, 42.9164], [74.97685, 42.92648], [74.94853, 42.94485], [74.86285, 42.97583], [74.74875, 42.99001], [74.71392, 42.99988], [74.61129, 43.05817], [74.59703, 43.07034], [74.57202, 43.1022], [74.55817, 43.11504], [74.53925, 43.1229], [74.49822, 43.13112], [74.46277, 43.14863], [74.4206, 43.15184], [74.40055, 43.15954], [74.34877, 43.19103], [74.32004, 43.20165], [74.25865, 43.21576], [74.2077, 43.24979], [74.17876, 43.2617], [74.20604, 43.23411], [74.21659, 43.21692], [74.2139, 43.20264], [74.19736, 43.19579], [74.03985, 43.18186], [74.02146, 43.18631], [73.98538, 43.21168], [73.96533, 43.21692], [73.93505, 43.19972], [73.90167, 43.13096], [73.86426, 43.1161], [73.82281, 43.11732], [73.80555, 43.11473], [73.63409, 43.06246], [73.58665, 43.04228], [73.57094, 43.03192], [73.55967, 43.0173], [73.52174, 42.93617], [73.49301, 42.89495], [73.4895, 42.87782], [73.49198, 42.861], [73.50428, 42.82759], [73.50707, 42.8094], [73.50355, 42.79408], [73.42387, 42.66277], [73.41271, 42.62732], [73.41002, 42.58965], [73.41756, 42.55616], [73.43296, 42.52485], [73.50552, 42.42093], [73.50511, 42.40294], [73.47689, 42.39907], [73.41746, 42.41705], [73.3262, 42.42868], [73.31442, 42.44157], [73.31659, 42.49371], [73.3014, 42.50707], [73.27835, 42.5134], [73.20683, 42.51717], [73.18905, 42.52076], [73.15267, 42.53921], [73.11505, 42.55084], [73.07061, 42.55193], [72.94235, 42.53603], [72.90834, 42.53697], [72.87455, 42.54399], [72.84075, 42.5557], [72.81522, 42.57304], [72.7806, 42.62045], [72.75693, 42.64021], [72.72582, 42.65288], [72.58382, 42.67827], [72.51178, 42.67755], [72.47674, 42.68256], [72.35841, 42.7414], [72.29236, 42.76106], [72.1641, 42.76509], [72.11997, 42.75181], [72.10488, 42.75034], [72.07274, 42.75718], [71.95698, 42.8046], [71.89538, 42.81604], [71.84774, 42.83405], [71.79668, 42.8223], [71.7264, 42.81966], [71.69354, 42.81181], [71.58357, 42.75964], [71.56631, 42.75724], [71.5538, 42.76091], [71.50419, 42.78961], [71.47711, 42.78354], [71.42885, 42.79558], [71.40461, 42.79488], [71.38694, 42.78307], [71.36307, 42.75411], [71.34756, 42.74284], [71.32979, 42.73703], [71.30849, 42.7401], [71.2625, 42.75357], [71.24545, 42.74713], [71.21145, 42.70522], [71.19522, 42.69724], [71.15755, 42.68794], [71.14902, 42.67794], [71.14644, 42.65686], [71.14809, 42.6174], [71.14277, 42.60254], [71.12701, 42.59061], [71.04066, 42.58053], [71.00319, 42.56353], [71.0127, 42.52604], [71.05786, 42.4934], [71.06629, 42.48214], [71.06417, 42.47033], [71.05471, 42.46038], [71.04102, 42.4548], [71.02474, 42.45596], [70.97714, 42.47875], [70.96195, 42.46811], [70.94759, 42.45129], [70.93611, 42.43162], [70.92991, 42.4123], [70.93177, 42.4015], [70.93984, 42.38783], [70.9327, 42.3762], [70.90035, 42.34674], [70.8648, 42.32155], [70.85266, 42.30607], [70.85813, 42.29106], [70.89782, 42.26161], [70.91865, 42.25337], [70.94779, 42.24815], [70.87999, 42.20693], [70.84237, 42.19254], [70.80455, 42.18843], [70.75814, 42.19802], [70.73427, 42.1973], [70.7199, 42.1829], [70.71184, 42.16433], [70.70114, 42.15094], [70.67318, 42.12598], [70.64983, 42.0934], [70.63148, 42.05687], [70.61024, 42.02741], [70.57903, 42.01625], [70.55526, 42.0187], [70.53423, 42.02498], [70.51888, 42.03669], [70.50446, 42.06847], [70.48849, 42.08188], [70.4702, 42.09162], [70.45542, 42.09374], [70.35791, 42.06224], [70.31507, 42.03459], [70.29026, 41.99377], [70.28298, 41.97625], [70.27031, 41.96555], [70.21859, 41.94692], [70.20417, 41.93581], [70.13637, 41.84809], [70.1111, 41.82597], [70.02795, 41.77998], [69.97204, 41.76458], [69.95654, 41.75518], [69.9124, 41.71286], [69.87086, 41.69958], [69.75944, 41.69645], [69.62457, 41.66831], [69.60756, 41.65828], [69.57899, 41.63338], [69.47729, 41.57312], [69.42034, 41.55953], [69.39378, 41.54496], [69.38081, 41.51881], [69.38448, 41.50822], [69.40112, 41.48517], [69.40236, 41.47483], [69.39068, 41.46972], [69.33115, 41.47793], [69.31616, 41.47483], [69.27756, 41.45618], [69.26293, 41.45458], [69.23332, 41.46264], [69.21715, 41.46005], [69.16268, 41.43406], [69.13819, 41.41592], [69.12806, 41.39515], [69.10946, 41.40068], [69.09064, 41.39629], [69.03618, 41.37401], [69.03158, 41.36698], [69.03427, 41.35872], [69.05116, 41.34363], [69.05478, 41.31541], [69.03918, 41.22028], [69.03122, 41.20875], [69.01406, 41.19604], [68.97975, 41.17821], [68.94378, 41.16488], [68.90084, 41.16064], [68.88022, 41.15552], [68.84244, 41.1101], [68.77377, 41.08726], [68.74627, 41.0638], [68.70953, 40.98375], [68.68938, 40.96494], [68.62793, 40.94453], [68.60013, 40.93006], [68.58918, 40.9066], [68.57088, 40.91352], [68.57187, 40.87048], [68.56541, 40.85916], [68.55342, 40.85043], [68.5497, 40.83503], [68.55977, 40.75131], [68.56634, 40.7325], [68.57461, 40.72449], [68.60943, 40.71581], [68.6085, 40.70336], [68.61212, 40.69054], [68.62742, 40.66713], [68.62545, 40.66041], [68.60111, 40.63003], [68.62039, 40.62222], [68.61424, 40.6091], [68.593, 40.59949], [68.56623, 40.60248], [68.52634, 40.61757], [68.51481, 40.61912], [68.50546, 40.61432], [68.49244, 40.59861], [68.47735, 40.59923], [68.46174, 40.58466], [68.2261, 40.67886], [68.15892, 40.71912], [68.0675, 40.788], [68.03707, 40.80108], [67.99748, 40.80754], [67.99092, 40.8111], [67.99407, 40.81896], [68.00306, 40.82516], [68.0382, 40.8372], [68.05474, 40.84722], [68.08058, 40.87296], [68.11076, 40.93166], [68.12058, 40.9653], [68.12089, 40.99383], [68.10786, 41.01026], [68.0997, 41.01362], [68.13132, 41.02964], [68.11892, 41.03403], [68.12145, 41.04328], [68.11737, 41.06674], [68.09598, 41.06514], [68.08213, 41.04272], [68.07138, 41.05331], [68.05908, 41.05476], [68.03438, 41.04272], [68.02115, 41.05915], [68.01319, 41.09785], [68.00306, 41.11563], [67.95893, 41.15945], [67.94948, 41.17191], [67.93743, 41.20038], [67.85413, 41.15899], [67.83491, 41.15687], [67.77093, 41.1793], [67.74814, 41.1841], [66.81528, 41.14188], [66.73296, 41.15806], [66.68821, 41.19919], [66.60263, 41.4938], [66.53886, 41.74076], [66.50414, 41.99348], [66.48481, 41.99702], [66.01724, 41.99762], [66.00866, 42.00266], [66.00649, 42.01343], [66.01373, 42.40302], [66.01962, 42.41684], [66.04318, 42.42366], [66.05321, 42.44087], [66.10127, 42.99032], [65.8126, 42.87576], [65.79524, 42.8772], [65.51691, 43.29723], [65.47738, 43.32281], [65.27145, 43.41701], [65.17192, 43.49368], [64.95653, 43.69736], [64.92294, 43.71912], [64.89101, 43.72279], [64.85504, 43.71291], [64.46157, 43.55432], [64.42674, 43.54703], [63.20801, 43.62747], [62.47772, 43.54112], [62.02611, 43.48063], [61.9857, 43.49334], [61.38605, 43.99344], [61.16167, 44.16811], [61.10286, 44.23606], [61.09315, 44.25942], [61.08664, 44.3112], [61.08023, 44.33549], [61.06214, 44.362], [61.0363, 44.38282], [58.58219, 45.54869], [58.55491, 45.55717], [58.53144, 45.55872], [58.2096, 45.49335], [57.47828, 45.33692], [55.97615, 44.99508], [55.97842, 41.32172], [55.91011, 41.32663], [55.87662, 41.32451], [55.78732, 41.29169], [55.69441, 41.28156], [55.6355, 41.26436], [55.5093, 41.25888], [55.4783, 41.26678], [55.45029, 41.27888], [55.42952, 41.29081], [55.41267, 41.30792], [55.37257, 41.37556], [55.35675, 41.38905], [55.29412, 41.4215], [55.25919, 41.44465], [55.22839, 41.47282], [55.10003, 41.64415], [54.95068, 41.79556], [54.94024, 41.8136], [54.93497, 41.83373], [54.94076, 41.88961], [54.93084, 41.90923], [54.90707, 41.93214], [54.73829, 42.04821], [54.19528, 42.31806], [54.12262, 42.3376], [54.04717, 42.3454], [53.41227, 42.25817], [53.19172, 42.19303], [53.13508, 42.16784], [52.97871, 42.12663], [52.76467, 41.99377], [52.43767, 41.74888], [52.4358, 41.76854], [52.44361, 41.79092], [52.48194, 41.86396], [52.49098, 41.90205], [52.48455, 41.94164], [52.47413, 41.96259], [52.46119, 41.97895], [52.43377, 42.00043], [52.43051, 42.01374], [52.43678, 42.05781], [52.43084, 42.06712], [52.40203, 42.09251], [52.4131, 42.10668], [52.42221, 42.12531], [52.43629, 42.17988], [52.48455, 42.20173], [52.53354, 42.27192], [52.59409, 42.33527], [52.60125, 42.35635], [52.60108, 42.38862], [52.60483, 42.39667], [52.63445, 42.41865], [52.64283, 42.42829], [52.64967, 42.46186], [52.66627, 42.50178], [52.67628, 42.53848], [52.67652, 42.57453], [52.66334, 42.6127], [52.63795, 42.6555], [52.6185, 42.67841], [52.57569, 42.69864], [52.56422, 42.72089], [52.56381, 42.74226], [52.57447, 42.74982], [52.60043, 42.69766], [52.66334, 42.66791], [52.67172, 42.64765], [52.67693, 42.64741], [52.70094, 42.59321], [52.71046, 42.58539], [52.72145, 42.59349], [52.74122, 42.63788], [52.74464, 42.65738], [52.73634, 42.70136], [52.7129, 42.73078], [52.67652, 42.74665], [52.62916, 42.74982], [52.62501, 42.77473], [52.57423, 42.79853], [52.47088, 42.82624], [52.35743, 42.83173], [52.32065, 42.81875], [52.29957, 42.79084], [52.27296, 42.79877], [52.20631, 42.86612], [52.1692, 42.88703], [52.14552, 42.88849], [52.05836, 42.87848], [51.99171, 42.85969], [51.95509, 42.84064], [51.93279, 42.83495], [51.91245, 42.84235], [51.85385, 42.89379], [51.80258, 42.95869], [51.79274, 42.97419], [51.7824, 43.01138], [51.77198, 43.03099], [51.72446, 43.0705], [51.71144, 43.09089], [51.67579, 43.09992], [51.67075, 43.11274], [51.68312, 43.14086], [51.67937, 43.15973], [51.66774, 43.17976], [51.65105, 43.19139], [51.61232, 43.17707], [51.56324, 43.17918], [51.53981, 43.17499], [51.51873, 43.15693], [51.50856, 43.15449], [51.4603, 43.16885], [51.36785, 43.15449], [51.27573, 43.15449], [51.26271, 43.16462], [51.26629, 43.18757], [51.30242, 43.26899], [51.31284, 43.31118], [51.31959, 43.44253], [51.31471, 43.46247], [51.27857, 43.51765], [51.27296, 43.55858], [51.25766, 43.57225], [51.21811, 43.59333], [51.20688, 43.62446], [51.1985, 43.62617], [51.17612, 43.62067], [51.15602, 43.62482], [51.14186, 43.63373], [51.115, 43.66083], [51.02312, 43.80097], [51.0149, 43.81855], [51.00864, 43.84561], [50.99106, 43.86709], [50.99106, 43.90811], [50.98325, 43.91901], [50.9533, 43.93879], [50.93873, 43.96572], [50.9017, 44.01105], [50.86883, 44.02033], [50.86085, 44.02538], [50.85279, 44.03876], [50.86085, 44.0694], [50.85719, 44.15278], [50.84718, 44.18928], [50.82162, 44.21503], [50.78126, 44.23591], [50.6963, 44.26435], [50.34457, 44.31126], [50.27768, 44.33649], [50.25522, 44.35102], [50.23748, 44.36933], [50.23015, 44.39094], [50.23756, 44.45775], [50.23015, 44.47663], [50.23756, 44.48408], [50.22755, 44.50218], [50.22218, 44.53482], [50.22462, 44.56769], [50.23756, 44.58649], [50.25408, 44.55752], [50.26832, 44.57054], [50.28175, 44.61376], [50.29274, 44.61896], [50.29908, 44.65534], [50.31121, 44.66234], [50.34002, 44.64789], [50.49781, 44.6258], [50.54542, 44.62743], [50.5923, 44.63972], [50.61695, 44.63972], [50.62745, 44.62401], [50.64275, 44.6208], [50.73048, 44.62055], [50.74562, 44.6092], [50.75685, 44.60505], [50.76832, 44.61034], [50.78419, 44.63272], [50.84791, 44.6328], [50.87289, 44.62885], [50.89487, 44.62055], [50.93035, 44.59691], [50.96046, 44.56973], [50.97006, 44.56538], [50.99448, 44.56826], [51.00473, 44.56598], [51.01124, 44.55801], [51.00864, 44.55146], [50.99106, 44.54548], [51.00733, 44.5288], [51.03346, 44.51582], [51.11459, 44.48847], [51.14332, 44.48477], [51.17262, 44.48558], [51.20281, 44.49091], [51.22527, 44.49974], [51.27857, 44.53864], [51.28565, 44.54857], [51.29225, 44.55231], [51.3235, 44.55231], [51.36622, 44.56021], [51.38152, 44.55976], [51.37379, 44.52774], [51.40252, 44.52143], [51.47096, 44.53189], [51.53793, 44.50935], [51.56031, 44.51138], [51.5739, 44.52391], [51.5687, 44.53775], [51.55437, 44.55048], [51.53981, 44.55976], [51.4795, 44.58316], [51.43897, 44.61005], [51.41554, 44.61213], [51.36785, 44.60077], [51.31935, 44.59638], [51.29184, 44.61449], [51.25799, 44.68891], [51.23439, 44.71906], [51.20094, 44.74091], [51.12086, 44.77827], [51.09604, 44.79686], [51.04957, 44.80345], [51.03419, 44.81786], [50.97071, 44.84715], [50.96241, 44.86367], [50.95997, 44.88646], [50.96551, 44.90668], [50.98976, 44.91893], [50.99383, 44.92715], [50.99399, 44.93647], [50.99106, 44.94335], [50.97967, 44.94872], [50.95436, 44.95222], [50.94955, 44.96381], [50.95932, 44.97883], [50.98219, 44.98949], [51.00856, 44.99584], [51.0652, 44.99702], [51.07936, 45.00483], [51.10719, 45.03217], [51.15024, 45.05362], [51.17457, 45.0622], [51.19654, 45.06562], [51.21355, 45.05756], [51.25115, 45.02607], [51.27296, 45.02464], [51.28175, 45.03754], [51.27491, 45.05683], [51.24781, 45.09048], [51.24342, 45.10106], [51.25799, 45.13451], [51.24439, 45.16181], [51.26319, 45.19257], [51.29363, 45.22549], [51.30926, 45.25731], [51.39723, 45.33259], [51.4061, 45.34858], [51.4157, 45.38996], [51.42994, 45.38093], [51.45672, 45.3474], [51.49391, 45.3347], [51.54371, 45.33491], [51.59295, 45.34471], [51.62794, 45.36107], [51.66774, 45.38955], [51.6902, 45.38862], [51.69996, 45.39208], [51.73951, 45.44685], [51.75831, 45.45726], [51.78142, 45.43423], [51.78932, 45.41934], [51.79249, 45.40546], [51.87843, 45.39521], [51.8943, 45.39086], [51.92115, 45.37165], [51.94011, 45.36734], [51.95777, 45.37165], [51.99008, 45.39086], [52.0088, 45.39521], [52.09409, 45.38154], [52.40309, 45.40941], [52.44581, 45.40058], [52.5193, 45.40888], [52.56666, 45.4007], [52.7352, 45.34785], [52.83513, 45.33666], [52.88502, 45.31831], [52.90968, 45.31269], [53.00221, 45.32014], [53.02849, 45.31647], [53.08334, 45.30166], [53.10825, 45.29963], [53.12924, 45.30488], [53.17091, 45.3225], [53.20045, 45.32844], [53.21811, 45.34056], [53.24545, 45.33381], [53.26124, 45.34284], [53.26734, 45.3509], [53.26588, 45.36107], [53.24757, 45.3697], [53.14291, 45.38398], [53.12192, 45.40205], [53.11207, 45.40615], [53.08172, 45.40888], [53.03565, 45.41877], [52.90968, 45.46345], [52.87574, 45.47114], [52.85011, 45.49421], [52.80421, 45.50104], [52.75522, 45.51679], [52.73846, 45.52558], [52.74342, 45.53832], [52.73194, 45.55414], [52.74269, 45.57343], [52.73846, 45.59723], [52.74, 45.62084], [52.74562, 45.63915], [52.75709, 45.65107], [52.77589, 45.65526], [52.79225, 45.66291], [52.80388, 45.68073], [52.82032, 45.71735], [52.85874, 45.76484], [52.8755, 45.7788], [52.91993, 45.79613], [52.95436, 45.83031], [52.96746, 45.84781], [52.98658, 45.88614], [53.00221, 45.90607], [53.04005, 45.93647], [53.06039, 45.97801], [53.0818, 46.00511], [53.0866, 46.02049], [53.077, 46.04784], [53.08237, 46.06074], [53.10524, 46.08389], [53.11378, 46.09785], [53.11842, 46.11433], [53.12761, 46.1833], [53.15675, 46.27228], [53.15675, 46.3417], [53.12827, 46.39395], [53.08286, 46.43496], [53.03256, 46.47089], [53.05323, 46.46869], [53.08318, 46.45014], [53.10206, 46.44355], [53.10206, 46.45099], [53.08416, 46.46015], [53.07545, 46.47565], [53.07504, 46.49421], [53.08172, 46.51244], [53.06324, 46.50585], [53.01783, 46.47866], [52.99838, 46.48457], [52.99659, 46.50479], [53.00961, 46.53168], [53.04005, 46.57392], [53.04176, 46.55537], [53.05421, 46.5456], [53.07179, 46.54474], [53.0879, 46.55341], [53.09571, 46.56835], [53.10011, 46.60513], [53.10825, 46.62173], [53.11769, 46.60151], [53.12574, 46.60663], [53.14243, 46.63532], [53.15203, 46.63768], [53.18409, 46.63532], [53.20053, 46.6433], [53.2046, 46.65583], [53.20777, 46.69501], [53.18816, 46.718], [53.15691, 46.72891], [53.12574, 46.73159], [53.1058, 46.73725], [53.09946, 46.75113], [53.10206, 46.78311], [53.08351, 46.85326], [53.06479, 46.87946], [53.06039, 46.89232], [53.05193, 46.89842], [52.9922, 46.89545], [52.97413, 46.90843], [52.93556, 46.94892], [52.91993, 46.95746], [52.87501, 46.95677], [52.78272, 46.94383], [52.72739, 46.95002], [52.61476, 46.95002], [52.59034, 46.95441], [52.57154, 46.96223], [52.53696, 46.98884], [52.51938, 46.99421], [52.4559, 47.00117], [52.43678, 46.99909], [52.42726, 46.99018], [52.42335, 46.97907], [52.42311, 46.9538], [52.41928, 46.944], [52.37403, 46.90363], [52.35719, 46.89362], [52.26222, 46.8701], [52.23504, 46.86888], [52.20183, 46.88544], [52.18881, 46.88377], [52.18068, 46.87556], [52.18287, 46.86188], [52.22438, 46.84829], [52.23732, 46.83234], [52.24488, 46.81005], [52.23894, 46.80683], [52.11256, 46.81273], [52.0879, 46.82095], [52.07179, 46.83002], [52.06739, 46.85139], [52.06186, 46.85004], [52.04957, 46.85688], [52.00001, 46.89057], [51.99789, 46.9029], [52.02247, 46.92621], [52.01889, 46.937], [51.99903, 46.94098], [51.98121, 46.92333], [51.9607, 46.88581], [51.94142, 46.87995], [51.90968, 46.88109], [51.87672, 46.88695], [51.85385, 46.89545], [51.89552, 46.93081], [51.87403, 46.93561], [51.806, 46.90908], [51.78492, 46.90913], [51.76368, 46.91572], [51.74391, 46.92683], [51.72771, 46.94042], [51.68922, 46.96149], [51.67579, 46.97858], [51.69606, 47.02119], [51.69402, 47.04173], [51.68019, 47.05703], [51.65528, 47.05988], [51.63575, 47.04877], [51.6211, 47.00739], [51.61101, 46.98884], [51.5923, 46.98725], [51.57203, 47.00483], [51.54607, 47.04002], [51.52719, 47.05297], [51.50261, 47.06135], [51.43784, 47.06916], [51.38185, 47.08369], [51.25359, 47.10297], [51.21258, 47.12092], [51.18702, 47.11689], [51.14186, 47.09467], [51.10271, 47.08047], [50.97071, 47.05988], [50.95191, 47.05219], [50.92286, 47.02497], [50.90545, 47.01895], [50.8908, 47.02228], [50.86834, 47.03677], [50.85743, 47.04002], [50.84653, 47.03677], [50.84059, 47.02949], [50.83953, 47.02228], [50.84376, 47.01895], [50.83814, 47.00991], [50.75782, 46.91551], [50.74057, 46.90615], [50.73048, 46.92333], [50.7339, 46.93496], [50.75318, 46.95506], [50.75782, 46.968], [50.75213, 46.97468], [50.73951, 46.96922], [50.70379, 46.94269], [50.67823, 46.93268], [50.65138, 46.92829], [50.61606, 46.93561], [50.61036, 46.91527], [50.60694, 46.86811], [50.59864, 46.85244], [50.58546, 46.83723], [50.5691, 46.82905], [50.55161, 46.83462], [50.58082, 46.86762], [50.57814, 46.87836], [50.55543, 46.88239], [50.52133, 46.87466], [50.50278, 46.86359], [50.49366, 46.86579], [50.45338, 46.89175], [50.43019, 46.89672], [50.41578, 46.88239], [50.38364, 46.81778], [50.36736, 46.80663], [50.37208, 46.81932], [50.37428, 46.85444], [50.36085, 46.8465], [50.34002, 46.81346], [50.31414, 46.80931], [50.29868, 46.80195], [50.25147, 46.74242], [50.23097, 46.72602], [50.21314, 46.72818], [50.21314, 46.73774], [50.22315, 46.76105], [50.21314, 46.76569], [50.20037, 46.76309], [50.16879, 46.74909], [50.07936, 46.68378], [50.05079, 46.6496], [50.03403, 46.63516], [50.01417, 46.62914], [49.97657, 46.63223], [49.96266, 46.62914], [49.95281, 46.62368], [49.92856, 46.60126], [49.89332, 46.59077], [49.88233, 46.57587], [49.83969, 46.58076], [49.82545, 46.57148], [49.82325, 46.55329], [49.81739, 46.54043], [49.79184, 46.54727], [49.77133, 46.56708], [49.76092, 46.56338], [49.76092, 46.54173], [49.7575, 46.53168], [49.74732, 46.53632], [49.72682, 46.55459], [49.71363, 46.56143], [49.70265, 46.56025], [49.70265, 46.51927], [49.63771, 46.57734], [49.62257, 46.58283], [49.61964, 46.56379], [49.6268, 46.51927], [49.60808, 46.527], [49.59767, 46.52114], [49.57895, 46.49885], [49.57065, 46.52192], [49.55787, 46.53437], [49.4808, 46.56061], [49.46974, 46.57355], [49.46909, 46.59439], [49.46925, 46.56265], [49.47234, 46.54662], [49.48618, 46.53465], [49.49659, 46.50902], [49.50408, 46.49885], [49.49285, 46.49958], [49.4568, 46.50959], [49.46225, 46.53294], [49.42897, 46.55488], [49.42368, 46.55052], [49.4214, 46.53974], [49.3895, 46.54401], [49.35385, 46.55353], [49.32301, 46.56806], [49.30535, 46.58759], [49.313, 46.56208], [49.37859, 46.5102], [49.39422, 46.47834], [49.37452, 46.48408], [49.33326, 46.48457], [49.29786, 46.52375], [49.27809, 46.52546], [49.27809, 46.51927], [49.29469, 46.508], [49.30356, 46.46646], [49.32944, 46.45722], [49.36687, 46.42988], [49.37273, 46.41039], [49.37143, 46.39936], [49.36687, 46.38898], [49.32569, 46.41035], [49.30633, 46.4239], [49.26629, 46.46406], [49.25034, 46.46939], [49.2234, 46.47089], [49.24318, 46.45856], [49.24879, 46.4492], [49.25074, 46.43366], [49.25538, 46.42414], [49.29176, 46.39643], [49.27809, 46.38898], [49.26385, 46.39614], [49.18491, 46.4138], [49.17359, 46.41352], [49.16822, 46.40941], [49.17042, 46.39912], [49.1784, 46.39281], [49.19923, 46.38898], [49.21583, 46.38032], [49.22218, 46.36127], [49.22713, 46.32788], [49.03316, 46.4049], [48.95988, 46.44525], [48.91797, 46.47432], [48.89705, 46.48218], [48.81963, 46.47926], [48.75855, 46.51313], [48.73292, 46.53403], [48.70502, 46.55044], [48.66522, 46.55718], [48.57324, 46.55827], [48.53939, 46.56796], [48.56301, 46.59132], [48.54689, 46.59928], [48.53924, 46.62796], [48.53004, 46.63819], [48.49345, 46.65348], [48.45511, 46.6608], [48.47909, 46.68346], [48.50575, 46.7326], [48.55671, 46.76175], [48.6182, 46.77043], [48.67659, 46.75803], [48.69727, 46.74508], [48.71266, 46.72878], [48.73954, 46.69056], [48.76403, 46.68284], [48.91689, 46.70258], [48.9481, 46.71994], [49.00629, 46.76911], [48.69727, 47.10098], [48.52508, 47.41023], [48.5103, 47.41744], [48.4732, 47.42041], [48.43754, 47.4292], [48.41108, 47.44576], [48.36059, 47.4931], [48.17435, 47.71285], [48.11249, 47.74851], [48.04449, 47.76969], [47.64973, 47.76559], [47.43533, 47.83439], [47.41217, 47.83587], [47.39419, 47.8268], [47.38882, 47.81191], [47.38944, 47.75156], [47.38293, 47.70536], [47.37425, 47.68582], [47.35967, 47.68334], [47.17446, 47.77052], [47.14056, 47.79266], [47.12382, 47.80804], [47.11948, 47.81977], [47.12516, 47.83209], [47.13829, 47.84959], [47.15674, 47.86318], [47.15865, 47.87155], [47.12165, 47.91545], [47.05116, 47.97464], [47.04424, 47.98622], [47.13705, 48.02725], [47.17818, 48.0518], [47.19203, 48.0718], [47.17395, 48.0842], [47.11948, 48.08828], [47.10356, 48.1012], [47.10408, 48.11924], [47.11648, 48.15386], [47.10883, 48.17399], [47.08031, 48.19597], [47.07525, 48.20512], [47.0986, 48.22259], [47.11214, 48.24155], [47.11183, 48.25098], [47.09891, 48.26537], [47.07829, 48.27535], [46.97923, 48.29395], [46.47828, 48.41056], [46.75382, 48.91407], [46.778, 48.93603], [46.81294, 48.95376], [46.88807, 48.98053], [46.93003, 49.00404], [46.97923, 49.04729], [47.02088, 49.09685], [47.04, 49.15033], [47.02863, 49.20149], [46.97923, 49.24428], [46.83071, 49.31833], [46.77511, 49.33255], [46.89991, 49.82032], [46.92259, 49.86135], [46.95856, 49.88414], [47.17736, 49.94718], [47.24557, 49.99235], [47.30872, 50.0448], [47.32856, 50.07297], [47.32763, 50.10929], [47.27306, 50.15844], [47.2651, 50.18634], [47.27627, 50.19988], [47.31265, 50.22241], [47.32231, 50.2374], [47.31699, 50.2529], [47.30319, 50.2635], [47.29477, 50.27543], [47.30567, 50.29486], [47.32288, 50.30448], [47.39223, 50.32323], [47.40628, 50.33424], [47.43889, 50.38318], [47.46979, 50.41176], [47.5115, 50.43692], [47.55692, 50.45258], [47.5993, 50.45268], [47.62467, 50.4408], [47.68999, 50.38633], [47.73495, 50.37005], [47.74911, 50.36024], [47.76693, 50.33719], [47.77649, 50.3298], [47.80822, 50.31993], [47.85453, 50.28504], [47.87406, 50.26644], [47.91344, 50.24386], [47.95364, 50.2049], [47.99323, 50.1818], [48.01224, 50.14211], [48.02475, 50.13126], [48.07456, 50.10526], [48.09637, 50.07855], [48.11249, 50.02196], [48.14236, 49.96377], [48.16086, 49.94646], [48.20045, 49.92502], [48.21988, 49.9015], [48.22711, 49.87949], [48.23931, 49.86476], [48.27403, 49.86306], [48.30287, 49.86673], [48.35951, 49.83396], [48.41759, 49.81169], [48.42989, 49.80967], [48.44281, 49.815], [48.46586, 49.83582], [48.47909, 49.84316], [48.68352, 49.89546], [48.7846, 49.93339], [48.86201, 49.99292], [48.88568, 50.01989], [48.88588, 50.03044], [48.8741, 50.06981], [48.86552, 50.08619], [48.85183, 50.09725], [48.78284, 50.11146], [48.78098, 50.13756], [48.78904, 50.17301], [48.77096, 50.21104], [48.72889, 50.26541], [48.7013, 50.3346], [48.67442, 50.47847], [48.67866, 50.54854], [48.67339, 50.57955], [48.64848, 50.60156], [48.59743, 50.60802], [48.57293, 50.61686], [48.56828, 50.63655], [48.58399, 50.64962], [48.6088, 50.64792], [48.73959, 50.59753], [48.78625, 50.59061], [48.83044, 50.59603], [49.0127, 50.68342], [49.10241, 50.75799], [49.14406, 50.78171], [49.28369, 50.80372], [49.36942, 50.82677], [49.40844, 50.84827], [49.42373, 50.88206], [49.40549, 50.91353], [49.37154, 50.93942], [49.34735, 50.96428], [49.35914, 50.99265], [49.39273, 51.0342], [49.40105, 51.06709], [49.41061, 51.08554], [49.42311, 51.102], [49.43655, 51.11233], [49.46011, 51.11616], [49.53975, 51.10078], [49.77906, 51.10218], [49.79591, 51.10957], [49.84283, 51.15068], [49.98685, 51.22982], [50.02876, 51.243], [50.20746, 51.26594], [50.32538, 51.30346], [50.34228, 51.31274], [50.34895, 51.32261], [50.33758, 51.37203], [50.34672, 51.38121], [50.37623, 51.39702], [50.35959, 51.41332], [50.36745, 51.41896], [50.37964, 51.42115], [50.43923, 51.42301], [50.45747, 51.42689], [50.47106, 51.43611], [50.47897, 51.45373], [50.51834, 51.45975], [50.52723, 51.47009], [50.53137, 51.4927], [50.52217, 51.55076], [50.52537, 51.56559], [50.54284, 51.57737], [50.56185, 51.58065], [50.5757, 51.58843], [50.5817, 51.6353], [50.59984, 51.63473], [50.63927, 51.61618], [50.68577, 51.61564], [50.6942, 51.61117], [50.6587, 51.57618], [50.67089, 51.56753], [50.71998, 51.56742], [50.76432, 51.57866], [50.79068, 51.59729], [50.7945, 51.62597], [50.74737, 51.70904], [50.74417, 51.74237], [50.76701, 51.7594], [50.82086, 51.75255], [50.83925, 51.74553], [50.85775, 51.73529], [50.87367, 51.72188], [50.90075, 51.68713], [50.92545, 51.67969], [51.16978, 51.66948], [51.23385, 51.68548], [51.25184, 51.67853], [51.27623, 51.6516], [51.28842, 51.64287], [51.30848, 51.63706], [51.3525, 51.63623], [51.37193, 51.62959], [51.38196, 51.6098], [51.38113, 51.58706], [51.37317, 51.57161], [51.35896, 51.56148], [51.33917, 51.55502], [51.24166, 51.5437], [51.23654, 51.5359], [51.27302, 51.4926], [51.30424, 51.47164], [51.37948, 51.46709], [51.46185, 51.47528], [51.51497, 51.4927], [51.54474, 51.52412], [51.55983, 51.53458], [51.58432, 51.53492], [51.60995, 51.52773], [51.6205, 51.51869], [51.62443, 51.48102], [51.64737, 51.45123], [51.69331, 51.4541], [51.74431, 51.47345], [51.7823, 51.49285], [51.78297, 51.52983], [51.76778, 51.56298], [51.76473, 51.59331], [51.82017, 51.63297], [51.85087, 51.66165], [51.86916, 51.67307], [51.89676, 51.67974], [51.92477, 51.67827], [51.97861, 51.66036], [52.03525, 51.6524], [52.06595, 51.65344], [52.09179, 51.65871], [52.11101, 51.67031], [52.13333, 51.70204], [52.14801, 51.71607], [52.17411, 51.72524], [52.23018, 51.72245], [52.25818, 51.72421], [52.27958, 51.73535], [52.29224, 51.76563], [52.30779, 51.77454], [52.33487, 51.76371], [52.35213, 51.7302], [52.37766, 51.6601], [52.44453, 51.58019], [52.47884, 51.50487], [52.50582, 51.47887], [52.54581, 51.45952], [52.55367, 51.45797], [52.57506, 51.46714], [52.66369, 51.46345], [52.66855, 51.45513], [52.67981, 51.459], [52.70947, 51.48208], [52.74554, 51.48701], [52.75257, 51.49048], [52.76467, 51.50525], [52.77976, 51.50812], [52.82068, 51.48701], [52.87629, 51.49009], [52.89654, 51.48528], [52.8828, 51.46714], [52.90337, 51.465], [52.94429, 51.45288], [52.95979, 51.45585], [52.99886, 51.48019], [53.0371, 51.48973], [53.1572, 51.48701], [53.14862, 51.50476], [53.15327, 51.51267], [53.16578, 51.51456], [53.19048, 51.51249], [53.20495, 51.49722], [53.21415, 51.49477], [53.23223, 51.50068], [53.30737, 51.49383], [53.34634, 51.50303], [53.3669, 51.4936], [53.40731, 51.48417], [53.43966, 51.45115], [53.45341, 51.4419], [53.55542, 51.41552], [53.59748, 51.39717], [53.6103, 51.38842], [53.61795, 51.37214], [53.60937, 51.3641], [53.57444, 51.35322], [53.59325, 51.33911], [53.59314, 51.32261], [53.58859, 51.30535], [53.59407, 51.28943], [53.64254, 51.25543], [53.64937, 51.23734], [53.67386, 51.21987], [53.85773, 51.1846], [53.90899, 51.19044], [53.93586, 51.18561], [53.97472, 51.16649], [53.99405, 51.15339], [54.01761, 51.11908], [54.03983, 51.11037], [54.09192, 51.10523], [54.11156, 51.096], [54.12014, 51.08117], [54.12996, 51.04234], [54.14567, 51.01965], [54.14908, 51.00965], [54.14536, 50.99265], [54.17657, 50.9679], [54.23352, 50.94309], [54.27579, 50.90428], [54.30007, 50.89472], [54.381, 50.88542], [54.41965, 50.86449], [54.47857, 50.85349], [54.4859, 50.84511], [54.48787, 50.83555], [54.48528, 50.82543], [54.47857, 50.81571], [54.42193, 50.76868], [54.41438, 50.74848], [54.41242, 50.70404], [54.40715, 50.68481], [54.38534, 50.63944], [54.37976, 50.61944], [54.38358, 50.59991], [54.3995, 50.57867], [54.43578, 50.54751], [54.47857, 50.52596], [54.49944, 50.52327], [54.55071, 50.53133], [54.59143, 50.54234], [54.64755, 50.57325], [54.67628, 50.60254], [54.67359, 50.63433], [54.63907, 50.70698], [54.63866, 50.72802], [54.65096, 50.76564], [54.65024, 50.78631], [54.63018, 50.80367], [54.62688, 50.81158], [54.62987, 50.82031], [54.65178, 50.84625], [54.63825, 50.88573], [54.58368, 50.90568], [54.526, 50.91643], [54.50296, 50.92826], [54.51588, 50.93725], [54.53469, 50.94361], [54.54595, 50.95327], [54.52528, 50.9911], [54.53376, 51.00324], [54.55267, 51.01017], [54.63825, 51.02769], [54.66222, 51.02789], [54.68579, 51.02355], [54.70687, 51.01629], [54.74625, 50.99296], [54.81167, 50.97239], [54.89425, 50.9124], [55.04773, 50.88423], [55.06323, 50.86217], [55.06137, 50.82269], [55.08401, 50.7969], [55.30539, 50.66497], [55.32937, 50.65515], [55.34776, 50.65138], [55.41598, 50.66141], [55.44233, 50.66166], [55.46776, 50.65696], [55.49111, 50.64585], [55.50569, 50.63024], [55.52429, 50.60068], [55.57039, 50.58833], [55.5862, 50.57841], [55.61679, 50.54994], [55.65999, 50.53004], [55.6943, 50.53878], [55.7649, 50.58684], [55.93233, 50.64652], [56.07888, 50.72476], [56.10007, 50.74786], [56.13738, 50.86878], [56.14751, 50.89229], [56.15836, 50.90552], [56.1749, 50.90868], [56.2582, 50.88449], [56.28858, 50.88031], [56.31546, 50.88382], [56.33571, 50.89586], [56.34388, 50.91142], [56.35049, 50.948], [56.36496, 50.95787], [56.41581, 50.96268], [56.43204, 50.97622], [56.43194, 50.98981], [56.42036, 51.01864], [56.42119, 51.03353], [56.4307, 51.04544], [56.44651, 51.05658], [56.47834, 51.07303], [56.508, 51.06626], [56.59658, 50.98402], [56.61663, 50.97834], [56.68835, 50.96914], [56.70747, 50.97043], [56.70964, 50.98159], [56.70272, 50.99818], [56.68246, 51.03053], [56.68029, 51.04978], [56.69455, 51.0635], [56.71605, 51.07247], [56.76008, 51.08024], [56.77631, 51.07598], [56.81362, 51.05704], [56.83863, 51.05141], [56.86509, 51.05177], [56.94105, 51.06833], [57.02518, 51.06267], [57.07241, 51.06973], [57.15447, 51.09996], [57.16822, 51.09378], [57.18124, 51.0735], [57.18993, 51.03484], [57.19747, 51.01735], [57.21359, 51.01012], [57.25628, 51.00603], [57.27292, 50.99746], [57.28852, 50.98123], [57.29762, 50.96495], [57.31891, 50.91322], [57.33431, 50.89741], [57.35271, 50.88599], [57.41813, 50.86238], [57.44304, 50.85777], [57.46763, 50.8585], [57.49141, 50.86687], [57.50887, 50.88129], [57.53285, 50.90997], [57.5559, 50.91875], [57.5962, 50.91571], [57.68922, 50.89674], [57.7224, 50.90873], [57.73728, 50.93824], [57.7379, 50.97089], [57.72819, 51.03709], [57.73439, 51.07389], [57.7688, 51.11967], [57.79619, 51.12326], [57.84177, 51.1058], [57.91226, 51.10339], [57.93406, 51.09396], [57.95009, 51.07921], [57.96021, 51.07748], [58.00166, 51.08978], [58.07731, 51.09794], [58.08413, 51.09662], [58.08879, 51.09192], [58.09096, 51.07611], [58.11369, 51.06518], [58.14056, 51.05665], [58.16764, 51.05518], [58.19059, 51.06554], [58.22376, 51.12313], [58.2681, 51.13455], [58.30841, 51.15003], [58.35357, 51.122], [58.36598, 51.10892], [58.37083, 51.08192], [58.37797, 51.07066], [58.39802, 51.06371], [58.52049, 51.06195], [58.56348, 51.04926], [58.59501, 51.02337], [58.60265, 50.98123], [58.59635, 50.96247], [58.58529, 50.9478], [58.55439, 50.92542], [58.54653, 50.91193], [58.55015, 50.89328], [58.55997, 50.87519], [58.57144, 50.86351], [58.59046, 50.86108], [58.641, 50.86341], [58.65123, 50.85328], [58.64389, 50.81468], [58.64668, 50.80129], [58.66436, 50.78992], [58.68978, 50.78837], [58.74776, 50.79509], [58.76843, 50.78269], [58.79396, 50.73768], [58.81153, 50.72548], [58.88677, 50.68895], [58.92594, 50.67815], [59.19745, 50.66275], [59.21936, 50.65836], [59.23569, 50.64461], [59.24696, 50.62962], [59.25905, 50.62037], [59.27331, 50.61598], [59.29078, 50.61547], [59.38648, 50.63035], [59.43764, 50.63112], [59.47816, 50.61438], [59.4981, 50.5997], [59.55102, 50.58601], [59.56342, 50.57986], [59.56043, 50.55382], [59.53531, 50.54658], [59.47816, 50.55242], [59.4517, 50.53728], [59.45077, 50.52229], [59.46627, 50.50736], [59.52281, 50.47465], [59.55505, 50.48436], [59.58771, 50.50617], [59.62223, 50.5241], [59.67308, 50.52953], [59.72548, 50.52767], [59.77468, 50.53371], [59.81571, 50.56291], [59.85922, 50.62254], [59.87203, 50.63598], [59.90397, 50.66027], [59.91513, 50.67381], [59.91958, 50.69091], [59.91389, 50.726], [59.91462, 50.7459], [59.9202, 50.76305], [59.96216, 50.82951], [59.97807, 50.84377], [60.02128, 50.85406], [60.08329, 50.85715], [60.1362, 50.8445], [60.15212, 50.8077], [60.15481, 50.77091], [60.17672, 50.74218], [60.20948, 50.71975], [60.24545, 50.70197], [60.30043, 50.68466], [60.71849, 50.65267], [60.81833, 50.6629], [61.3721, 50.78248], [61.40403, 50.80259], [61.42688, 50.83307], [61.44176, 50.87498], [61.45674, 50.965], [61.51317, 51.15951], [61.53416, 51.20607], [61.56733, 51.23388], [61.61105, 51.24925], [61.66366, 51.2584], [61.59317, 51.27783], [61.56299, 51.29553], [61.5387, 51.32317], [61.4984, 51.40053], [61.4738, 51.4258], [61.43762, 51.43224], [61.3937, 51.44983], [61.35618, 51.45965], [61.30492, 51.45288], [61.25717, 51.46714], [61.23298, 51.47055], [61.16405, 51.46714], [61.10183, 51.47815], [61.0485, 51.4789], [61.02938, 51.48267], [61.00396, 51.50068], [60.97099, 51.51562], [60.959, 51.52487], [60.94463, 51.54437], [60.9344, 51.56582], [60.93347, 51.59843], [60.9374, 51.61117], [60.5151, 51.61791], [60.50579, 51.61977], [60.4999, 51.62711], [60.49536, 51.64625], [60.48471, 51.65103], [60.37588, 51.66253], [60.35511, 51.67142], [60.35604, 51.69227], [60.37154, 51.70517], [60.41836, 51.71935], [60.43738, 51.72839], [60.4412, 51.73622], [60.44017, 51.75395], [60.44585, 51.76005], [60.47551, 51.7762], [60.47975, 51.78426], [60.45205, 51.80547], [60.27449, 51.83283], [60.17197, 51.88037], [60.13806, 51.88887], [60.12649, 51.87911], [60.11781, 51.86355], [60.09228, 51.85477], [60.06076, 51.85867], [60.04009, 51.8712], [59.98572, 51.95228], [59.98727, 51.96885], [60.00319, 51.99251], [60.20276, 51.99274], [60.34766, 52.08961], [60.4258, 52.12958], [60.50652, 52.15165], [60.56243, 52.15033], [60.61814, 52.14294], [60.67219, 52.14434], [60.72284, 52.16958], [60.76294, 52.2102], [60.78123, 52.22061], [60.87673, 52.24591], [60.89668, 52.25469], [60.94742, 52.28973], [60.96582, 52.29957], [61.0085, 52.315], [61.03992, 52.335], [60.96137, 52.40197], [60.9559, 52.41983], [60.95145, 52.46109], [60.94463, 52.47907], [60.93647, 52.48858], [60.92396, 52.49375], [60.83136, 52.51315], [60.81492, 52.52191], [60.80996, 52.53842], [60.81348, 52.6055], [60.80841, 52.62118], [60.80314, 52.62774], [60.72449, 52.62622], [60.71167, 52.63224], [60.69969, 52.65276], [60.67684, 52.66358], [60.67261, 52.67216], [60.67354, 52.69387], [60.69617, 52.73492], [60.73865, 52.75094], [60.78743, 52.75792], [60.82908, 52.77164], [60.86691, 52.81226], [60.88489, 52.82525], [61.05842, 52.92217], [60.9746, 52.97124], [61.05243, 52.97186], [61.0886, 52.97806], [61.15578, 53.00968], [61.1903, 53.01315], [61.22492, 53.0064], [61.25872, 52.99266], [61.28735, 52.98517], [61.31846, 52.9825], [61.34936, 52.98491], [61.37665, 52.99266], [61.42429, 53.01736], [61.44827, 53.02142], [61.47803, 53.01235], [61.57426, 52.95584], [61.60557, 52.94832], [61.6559, 52.97088], [61.67534, 52.97362], [61.71781, 52.96995], [61.81982, 52.97824], [61.85651, 52.97015], [61.92256, 52.93816], [61.95925, 52.93494], [62.03485, 52.95271], [62.07268, 52.96958], [62.09417, 52.99248], [62.11366, 53.04188], [62.11603, 53.06459], [62.10802, 53.08857], [62.08322, 53.1133], [62.05066, 53.12477], [61.83512, 53.15112], [61.76422, 53.16947], [61.7051, 53.2035], [61.66428, 53.2389], [61.64309, 53.24334], [61.54728, 53.21146], [61.51431, 53.20867], [61.47803, 53.21513], [61.37985, 53.26187], [61.34481, 53.27011], [61.24952, 53.26969], [61.20291, 53.27644], [61.16271, 53.29915], [61.14276, 53.32303], [61.13366, 53.34814], [61.13718, 53.37313], [61.15599, 53.39669], [61.20095, 53.43622], [61.21428, 53.46185], [61.21821, 53.49265], [61.23526, 53.50304], [61.2611, 53.50666], [61.28766, 53.50319], [61.30709, 53.49265], [61.3535, 53.44981], [61.38161, 53.43612], [61.4123, 53.43576], [61.43731, 53.44651], [61.48847, 53.47932], [61.51472, 53.4925], [61.55534, 53.50573], [61.52837, 53.57167], [61.51679, 53.58572], [61.50305, 53.58898], [61.39029, 53.58851], [61.36125, 53.58257], [61.31608, 53.54521], [61.28073, 53.54242], [61.14038, 53.56273], [61.12147, 53.56981], [61.09635, 53.59921], [61.04664, 53.60846], [60.90732, 53.61363], [60.88024, 53.6328], [60.90474, 53.65709], [61.00757, 53.63575], [61.04271, 53.65425], [61.04478, 53.6914], [61.05222, 53.70329], [61.06793, 53.70892], [61.1069, 53.71243], [61.12746, 53.74716], [61.19909, 53.79713], [61.20198, 53.81961], [61.17717, 53.83284], [61.11496, 53.85232], [61.09522, 53.87015], [61.08498, 53.87532], [60.97801, 53.8826], [60.9714, 53.89299], [60.96944, 53.90426], [60.97181, 53.91583], [60.97801, 53.92668], [60.9961, 53.94141], [61.01739, 53.94896], [61.0638, 53.95531], [61.09635, 53.95624], [61.14524, 53.95014], [61.17625, 53.9165], [61.19288, 53.9071], [61.21077, 53.90767], [61.2273, 53.92591], [61.23051, 53.94306], [61.22513, 53.96022], [61.20126, 53.99836], [61.19351, 54.01825], [61.24983, 54.02074], [61.27484, 54.02854], [61.31153, 54.05985], [61.33768, 54.06316], [61.41768, 54.05598], [61.43318, 54.04745], [61.46191, 54.01112], [61.47855, 54.00291], [61.55276, 53.99252], [61.55617, 53.96095], [61.56392, 53.95175], [61.5818, 53.94766], [61.60051, 53.95025], [61.61105, 53.95955], [61.61994, 53.99257], [61.71533, 53.99257], [61.7421, 53.98156], [61.75502, 53.98327], [61.77703, 53.99991], [61.7913, 54.00079], [61.82055, 53.99257], [61.82995, 53.96038], [61.83615, 53.95113], [61.85641, 53.9427], [61.89165, 53.93624], [62.00364, 53.93201], [62.0026, 54.01738], [62.41271, 54.02663], [62.43348, 54.02466], [62.44614, 54.01453], [62.44402, 53.99231], [62.39958, 53.97448], [62.38661, 53.96131], [62.38997, 53.94157], [62.40816, 53.92472], [62.45668, 53.90922], [62.4989, 53.8778], [62.51161, 53.87263], [62.52526, 53.87185], [62.54123, 53.87666], [62.5451, 53.88369], [62.53663, 53.91495], [62.53177, 53.9225], [62.53177, 53.93035], [62.54366, 53.94301], [62.58655, 53.96983], [62.56319, 53.99252], [62.55058, 54.02683], [62.58096, 54.0536], [62.62913, 54.07117], [62.67026, 54.07773], [62.75718, 54.08109], [62.81206, 54.09499], [62.83134, 54.09272], [62.87521, 54.07954], [62.90239, 54.07846], [62.98549, 54.09287], [63.08465, 54.08564], [63.1122, 54.0937], [63.12744, 54.11044], [63.12532, 54.12486], [63.11602, 54.13969], [63.11003, 54.15799], [63.12377, 54.17411], [63.15674, 54.18005], [63.21628, 54.17871], [63.33162, 54.16269], [63.36831, 54.16284], [63.39678, 54.1706], [63.4497, 54.19613], [63.47755, 54.20398], [63.54494, 54.20646], [63.70865, 54.25044], [63.74399, 54.24873], [63.7735, 54.23969], [63.85603, 54.20186], [63.89747, 54.19416], [63.90802, 54.20749], [63.94036, 54.2153], [63.97664, 54.21886], [64.00786, 54.22868], [64.02542, 54.25524], [63.9937, 54.28041], [63.97897, 54.29648], [63.98036, 54.30371], [64.0045, 54.31974], [64.02325, 54.30759], [64.03514, 54.30397], [64.05953, 54.30371], [64.09374, 54.32418], [64.10811, 54.32475], [64.15203, 54.31736], [64.17663, 54.32051], [64.22531, 54.33462], [64.25585, 54.33865], [64.29404, 54.35338], [64.33383, 54.34464], [64.43253, 54.35152], [64.44457, 54.35467], [64.46705, 54.37198], [64.51139, 54.36511], [64.53651, 54.36862], [64.57852, 54.38557], [64.65267, 54.34712], [64.6843, 54.33612], [64.72016, 54.33384], [64.78455, 54.35322], [64.84723, 54.38392], [64.91064, 54.40273], [64.97772, 54.3866], [65.05709, 54.32387], [65.08541, 54.30857], [65.10019, 54.30547], [65.11745, 54.3064], [65.1437, 54.31762], [65.17378, 54.31017], [65.18422, 54.31043], [65.21295, 54.34304], [65.18132, 54.44913], [65.20225, 54.47254], [65.19807, 54.49228], [65.19817, 54.51616], [65.21429, 54.52789], [65.34157, 54.56148], [65.37036, 54.56246], [65.42751, 54.5528], [65.44901, 54.55662], [65.45619, 54.57786], [65.44487, 54.61419], [65.44978, 54.62747], [65.47738, 54.63269], [65.57458, 54.62545], [65.71297, 54.59719], [65.74398, 54.60085], [65.77033, 54.61739], [65.79834, 54.64814], [65.82697, 54.67269], [65.85942, 54.68576], [65.9328, 54.70255], [65.95187, 54.69367], [65.96066, 54.62799], [65.97745, 54.61171], [66.44652, 54.71093], [66.50992, 54.71671], [66.63767, 54.71366], [66.7003, 54.71925], [66.72242, 54.7272], [66.76045, 54.75092], [66.78179, 54.75821], [66.97734, 54.76369], [67.00819, 54.76792], [67.067, 54.78751], [67.09852, 54.79201], [67.17397, 54.79138], [67.21334, 54.79717], [67.23954, 54.81293], [67.26006, 54.83691], [67.28393, 54.85329], [67.31132, 54.85991], [67.37793, 54.84906], [67.44299, 54.85701], [67.62273, 54.85386], [67.69848, 54.86792], [67.75791, 54.89784], [67.79755, 54.93717], [67.81734, 54.95215], [67.84679, 54.96393], [67.88224, 54.97044], [67.91315, 54.96915], [68.00968, 54.943], [68.16605, 54.95613], [68.18362, 54.96714], [68.19091, 54.99256], [68.21308, 54.99845], [68.22181, 55.00776], [68.23478, 55.0385], [68.25375, 55.04589], [68.2816, 55.04713], [68.30423, 55.05261], [68.30816, 55.07281], [68.22811, 55.1016], [68.19055, 55.12537], [68.20698, 55.15415], [68.17711, 55.17054], [68.24088, 55.19115], [68.26238, 55.19405], [68.30578, 55.18139], [68.32573, 55.18196], [68.37679, 55.19508], [68.40118, 55.19472], [68.47735, 55.18283], [68.54412, 55.19689], [68.56716, 55.19756], [68.59362, 55.19358], [68.6053, 55.1956], [68.61584, 55.20547], [68.61822, 55.21544], [68.61284, 55.23472], [68.61367, 55.24309], [68.6299, 55.25487], [68.67641, 55.27322], [68.68369, 55.28862], [68.68085, 55.3098], [68.68235, 55.32717], [68.70059, 55.3605], [68.7225, 55.3528], [68.8226, 55.34355], [68.84601, 55.33678], [68.86678, 55.32567], [68.90316, 55.29084], [68.9228, 55.27637], [68.94564, 55.27037], [68.9706, 55.27864], [68.98089, 55.29146], [68.98326, 55.30856], [68.97727, 55.3467], [68.93231, 55.36081], [68.91784, 55.37094], [68.90244, 55.41248], [68.90244, 55.41951], [68.91112, 55.42737], [68.9273, 55.43372], [68.94316, 55.43455], [69.12258, 55.39786], [69.1478, 55.37822], [69.16454, 55.34742], [69.18614, 55.32577], [69.22624, 55.33358], [69.31027, 55.38148], [69.33456, 55.38515], [69.47729, 55.34944], [69.67387, 55.33404], [69.80228, 55.29208], [69.83044, 55.27658], [69.91168, 55.21162], [69.94031, 55.20025], [70.01999, 55.19534], [70.05865, 55.18702], [70.19704, 55.13348], [70.21368, 55.13199], [70.23135, 55.14149], [70.26401, 55.17343], [70.28463, 55.1832], [70.37263, 55.20056], [70.38245, 55.20624], [70.38809, 55.23027], [70.40002, 55.24593], [70.44116, 55.28334], [70.46007, 55.28743], [70.53888, 55.26924], [70.56125, 55.2696], [70.60652, 55.2805], [70.62543, 55.29249], [70.66574, 55.30918], [70.72124, 55.31311], [70.77757, 55.30701], [70.82036, 55.29415], [70.78894, 55.26546], [70.78212, 55.24846], [70.79318, 55.23317], [70.96009, 55.10558], [70.97714, 55.07798], [70.97746, 55.04791], [70.97332, 55.01845], [70.95699, 54.97349], [70.97446, 54.94693], [70.95513, 54.92326], [70.94748, 54.90606], [70.94593, 54.88792], [70.95327, 54.8735], [70.98996, 54.84864], [70.9972, 54.83485], [70.9941, 54.80751], [71.00598, 54.77423], [71.04701, 54.74906], [71.09724, 54.73304], [71.13693, 54.72705], [71.18034, 54.72736], [71.2007, 54.724], [71.21878, 54.71418], [71.25279, 54.6824], [71.26467, 54.66173], [71.26488, 54.6392], [71.25232, 54.62535], [71.23015, 54.61755], [71.17905, 54.60871], [71.14757, 54.59145], [71.14122, 54.56375], [71.14825, 54.49249], [71.1452, 54.4806], [71.14685, 54.47616], [71.1669, 54.46272], [71.17104, 54.45099], [71.16592, 54.41704], [71.16866, 54.41094], [71.19346, 54.40402], [71.19801, 54.39952], [71.19062, 54.31818], [71.11626, 54.31173], [71.03947, 54.33208], [71.0034, 54.33312], [70.98004, 54.32506], [70.97084, 54.30501], [70.97714, 54.27013], [71.03879, 54.26759], [71.05208, 54.2632], [71.05724, 54.24713], [71.05636, 54.22341], [71.05156, 54.20031], [71.04396, 54.18594], [71.08236, 54.17426], [71.09745, 54.16507], [71.1437, 54.1137], [71.16127, 54.10197], [71.1823, 54.10156], [71.21806, 54.11628], [71.24576, 54.13577], [71.2963, 54.18899], [71.32059, 54.20103], [71.34973, 54.19767], [71.38156, 54.18884], [71.41298, 54.18445], [71.44352, 54.18512], [71.45314, 54.18135], [71.46244, 54.17153], [71.46833, 54.1584], [71.47711, 54.10967], [71.49913, 54.11158], [71.54936, 54.12698], [71.57354, 54.1292], [71.61499, 54.10952], [71.64723, 54.10858], [71.68062, 54.11908], [71.70873, 54.1322], [71.71731, 54.14646], [71.71224, 54.1907], [71.71545, 54.21075], [71.72537, 54.22909], [71.74139, 54.24243], [71.76247, 54.24765], [71.95802, 54.23597], [71.98365, 54.23157], [72.00246, 54.22563], [72.01868, 54.21499], [72.07698, 54.14832], [72.09951, 54.13189], [72.12886, 54.12605], [72.15511, 54.12838], [72.17764, 54.13597], [72.19046, 54.15199], [72.18736, 54.17943], [72.16999, 54.19685], [72.14229, 54.20331], [72.1115, 54.2062], [72.08514, 54.21313], [72.06674, 54.22238], [72.06571, 54.24098], [72.07212, 54.26273], [72.09868, 54.30051], [72.10302, 54.31157], [72.09475, 54.32077], [72.03842, 54.34604], [72.02706, 54.35534], [72.02468, 54.37095], [72.04318, 54.37803], [72.1518, 54.36826], [72.18477, 54.35684], [72.22187, 54.33322], [72.25278, 54.30346], [72.26745, 54.27348], [72.27872, 54.26273], [72.3244, 54.25348], [72.33711, 54.23654], [72.33298, 54.22377], [72.29856, 54.1784], [72.48295, 54.13561], [72.48202, 54.12832], [72.46672, 54.10993], [72.45421, 54.10714], [72.42321, 54.10869], [72.40791, 54.08957], [72.36822, 54.09634], [72.35841, 54.09298], [72.35685, 54.08176], [72.36357, 54.05954], [72.38187, 54.04301], [72.40512, 54.03066], [72.41866, 54.01603], [72.40781, 53.99231], [72.37277, 53.93624], [72.37298, 53.92007], [72.3922, 53.90823], [72.42341, 53.90348], [72.45556, 53.90534], [72.47674, 53.9134], [72.51808, 53.94322], [72.54392, 53.97076], [72.55684, 53.97722], [72.57214, 53.97645], [72.67373, 53.95051], [72.70019, 53.95764], [72.69482, 53.99257], [72.6756, 54.02166], [72.65616, 54.04254], [72.63177, 54.05391], [72.59715, 54.05458], [72.5094, 54.04358], [72.5031, 54.05086], [72.50878, 54.06874], [72.52739, 54.10006], [72.57307, 54.12869], [72.62423, 54.13499], [72.8855, 54.11732], [72.94204, 54.12176], [72.95682, 54.11753], [72.96839, 54.10414], [72.97356, 54.08652], [72.97677, 54.04771], [73.02369, 54.03396], [73.03526, 54.02058], [73.04436, 53.99231], [73.06275, 53.97908], [73.36031, 53.93841], [73.37395, 53.94095], [73.37932, 53.9487], [73.38429, 53.9703], [73.39276, 53.97402], [73.43348, 53.97066], [73.46903, 53.9473], [73.48164, 53.94539], [73.50593, 53.94973], [73.51802, 53.95604], [73.52154, 53.96875], [73.51988, 53.99242], [73.52826, 54.01071], [73.58686, 54.01944], [73.60443, 54.03469], [73.60091, 54.04693], [73.58851, 54.06616], [73.60153, 54.07122], [73.65435, 54.07851], [73.67047, 54.07592], [73.67491, 54.05159], [73.68494, 54.04843], [73.74065, 54.05794], [73.69713, 53.90084], [73.68287, 53.87413], [73.66168, 53.86085], [73.6343, 53.85744], [73.48526, 53.87485], [73.45591, 53.87366], [73.43183, 53.86545], [73.41095, 53.85025], [73.39121, 53.82824], [73.43782, 53.8085], [73.34739, 53.78762], [73.33116, 53.77517], [73.30656, 53.68567], [73.26378, 53.68101], [73.24476, 53.67481], [73.22967, 53.66241], [73.22037, 53.64308], [73.22491, 53.62985], [73.25881, 53.60629], [73.2306, 53.57234], [73.39121, 53.52025], [73.34718, 53.45937], [73.41095, 53.43002], [73.42408, 53.43255], [73.54655, 53.50692], [73.5635, 53.52547], [73.576, 53.55317], [73.58252, 53.55864], [73.6004, 53.56288], [73.63192, 53.56087], [73.6407, 53.56324], [73.6529, 53.60918], [73.65982, 53.61156], [73.73651, 53.60975], [73.78777, 53.59508], [73.80328, 53.59838], [73.87273, 53.63213], [73.90415, 53.63916], [73.93671, 53.63952], [74.04357, 53.62996], [74.05804, 53.62458], [74.063, 53.60872], [74.0628, 53.57322], [74.07685, 53.56619], [74.10765, 53.5651], [74.11871, 53.56955], [74.13721, 53.59394], [74.14796, 53.59802], [74.2139, 53.59704], [74.2233, 53.59461], [74.23529, 53.5819], [74.25048, 53.55678], [74.27033, 53.55322], [74.2631, 53.53022], [74.26961, 53.51524], [74.30609, 53.4924], [74.3589, 53.46614], [74.38836, 53.46222], [74.40913, 53.47756], [74.45688, 53.56976], [74.45543, 53.5774], [74.42081, 53.60309], [74.4297, 53.65357], [74.43848, 53.67342], [74.45347, 53.68499], [74.61646, 53.6807], [74.62679, 53.68732], [74.64447, 53.7346], [74.65449, 53.7484], [74.66297, 53.75496], [74.72529, 53.75915], [74.7349, 53.76519], [74.76219, 53.82256], [74.772, 53.83088], [74.80621, 53.8377], [74.88848, 53.83635], [74.92393, 53.83098], [75.00083, 53.80648], [75.02791, 53.80793], [75.43398, 53.98653], [75.3607, 54.05954], [75.42923, 54.09009], [75.46437, 54.10057], [75.49981, 54.10233], [75.60317, 54.09453], [75.64038, 54.09887], [76.1838, 54.25157], [76.17192, 54.27467], [76.16975, 54.29136], [76.17709, 54.30676], [76.19393, 54.32563], [76.21481, 54.34221], [76.23424, 54.34743], [76.43309, 54.31658], [76.4765, 54.32314], [76.54006, 54.3511], [76.56187, 54.35627], [76.62305, 54.35591], [76.64093, 54.3665], [76.64527, 54.38381], [76.64569, 54.40371], [76.65179, 54.42231], [76.67277, 54.43647], [76.70129, 54.44024], [76.75721, 54.43709], [76.78211, 54.43947], [76.85239, 54.46117], [76.87234, 54.46469], [76.8959, 54.46386], [76.91048, 54.45461], [76.90355, 54.4326], [76.88567, 54.42278], [76.80475, 54.41012], [76.76465, 54.39053], [76.75297, 54.37668], [76.76609, 54.36459], [76.81581, 54.3556], [76.8342, 54.34568], [76.84319, 54.32232], [76.83772, 54.29689], [76.78232, 54.24238], [76.77023, 54.21313], [76.76248, 54.20264], [76.7262, 54.18021], [76.6646, 54.13406], [76.60383, 54.13535], [76.4765, 54.16403], [76.41263, 54.16569], [76.39361, 54.16176], [76.37666, 54.15427], [76.37439, 54.14775], [76.4765, 54.04203], [76.49521, 53.99231], [76.52569, 53.96131], [77.61276, 53.44279], [77.8668, 53.27233], [77.97636, 53.16851], [78.47648, 52.63793], [79.04296, 51.99251], [79.4698, 51.4926], [79.92694, 50.8785], [79.96652, 50.81018], [79.99008, 50.78812], [80.0213, 50.76688], [80.05499, 50.75287], [80.08599, 50.75215], [80.03111, 50.80879], [80.01541, 50.83948], [80.04931, 50.85235], [80.06698, 50.84661], [80.1016, 50.82155], [80.11917, 50.81494], [80.14274, 50.81711], [80.15452, 50.82724], [80.16816, 50.85984], [80.18129, 50.87566], [80.23482, 50.89323], [80.26728, 50.91565], [80.3204, 50.9141], [80.36019, 50.91922], [80.40287, 50.93374], [80.43905, 50.95813], [80.45941, 50.99265], [80.46499, 51.02578], [80.46447, 51.04371], [80.46106, 51.05895], [80.45166, 51.0735], [80.41052, 51.10484], [80.40711, 51.11722], [80.40763, 51.13574], [80.41342, 51.16843], [80.42199, 51.18757], [80.4344, 51.20062], [80.45207, 51.20793], [80.47615, 51.20964], [80.56131, 51.20209], [80.59924, 51.20855], [80.61247, 51.23388], [80.61413, 51.24966], [80.63242, 51.27796], [80.64503, 51.28925], [80.66456, 51.30015], [80.68275, 51.30201], [80.8166, 51.26101], [80.84254, 51.25752], [80.85453, 51.26462], [80.86409, 51.27584], [80.88248, 51.28486], [80.90574, 51.28356], [80.91421, 51.27018], [80.91628, 51.23537], [80.92424, 51.21607], [80.93607, 51.20569], [81.02211, 51.17739], [81.07012, 51.17199], [81.09834, 51.19091], [81.11286, 51.19595], [81.13275, 51.19447], [81.15203, 51.18654], [81.15864, 51.17427], [81.15596, 51.15742], [81.14717, 51.13595], [81.08051, 51.03087], [81.05405, 50.96986], [81.05152, 50.9557], [81.05829, 50.94707], [81.10438, 50.93668], [81.15885, 50.93824], [81.27745, 50.96268], [81.4008, 50.95911], [81.40121, 50.92299], [81.41609, 50.88966], [81.4395, 50.85969], [81.46612, 50.83375], [81.44472, 50.81338], [81.42612, 50.78817], [81.41878, 50.76248], [81.43108, 50.74073], [81.46023, 50.73034], [81.67412, 50.73603], [81.69721, 50.74502], [81.72574, 50.77463], [81.74414, 50.78491], [81.76346, 50.78434], [81.80088, 50.76786], [81.82243, 50.76574], [81.89503, 50.77421], [81.94536, 50.7692], [81.99032, 50.75964], [82.01254, 50.75013], [82.07311, 50.71567], [82.09554, 50.70812], [82.14732, 50.70161], [82.17367, 50.70306], [82.19879, 50.70879], [82.25573, 50.74522], [82.28839, 50.73742], [82.32839, 50.7521], [82.3625, 50.74212], [82.40828, 50.74838], [82.4303, 50.74114], [82.47582, 50.71401], [82.60424, 50.76905], [82.67276, 50.78977], [82.69803, 50.81096], [82.7, 50.88098], [82.72645, 50.90072], [82.76454, 50.90666], [82.84412, 50.89173], [82.9759, 50.88191], [83.02147, 50.89178], [83.05786, 50.91715], [83.08607, 50.95255], [83.10757, 50.99265], [83.13754, 50.99467], [83.1796, 50.98728], [83.32378, 51.00242], [83.43396, 50.99265], [83.46202, 50.96433], [83.477, 50.95338], [83.49835, 50.94542], [83.60976, 50.93203], [83.63265, 50.9248], [83.7128, 50.88222], [83.77817, 50.87943], [83.80044, 50.87566], [83.8205, 50.86801], [83.83827, 50.85628], [83.86969, 50.8214], [83.88282, 50.81199], [83.92199, 50.80072], [83.95056, 50.78042], [83.94974, 50.71789], [83.97584, 50.68637], [84.10172, 50.62859], [84.13304, 50.60079], [84.15122, 50.55257], [84.18595, 50.52798], [84.19562, 50.51144], [84.19794, 50.49315], [84.17675, 50.43915], [84.19184, 50.40772], [84.2184, 50.3777], [84.23938, 50.34463], [84.24187, 50.32189], [84.23964, 50.27822], [84.24998, 50.25993], [84.26181, 50.25363], [84.30439, 50.24324], [84.33137, 50.21347], [84.36878, 50.21182], [84.40527, 50.23084], [84.44077, 50.24464], [84.47575, 50.22707], [84.50459, 50.20459], [84.5357, 50.19094], [84.56929, 50.18552], [84.60598, 50.18743], [84.642, 50.1849], [84.6667, 50.17001], [84.68938, 50.15105], [84.72029, 50.13663], [84.7732, 50.13834], [84.79067, 50.13276], [84.80152, 50.12376], [84.82612, 50.08671], [84.83868, 50.08082], [84.88798, 50.09674], [84.91025, 50.09508], [84.97577, 50.07519], [84.98673, 50.06697], [85.02011, 50.03307], [85.02833, 50.02051], [85.02544, 50.00408], [85.00936, 49.99783], [84.95479, 49.99049], [84.95066, 49.93328], [84.95459, 49.90693], [84.97577, 49.89401], [85.03262, 49.88497], [85.05629, 49.87334], [85.07076, 49.85024], [85.07592, 49.81391], [85.08171, 49.80001], [85.09814, 49.78218], [85.16326, 49.73397], [85.18511, 49.70503], [85.19504, 49.62565], [85.22361, 49.59573], [85.2631, 49.58152], [85.30278, 49.5901], [85.34206, 49.60819], [85.38402, 49.61568], [85.40727, 49.60963], [85.45099, 49.58845], [85.47569, 49.58307], [85.5313, 49.58912], [85.59718, 49.6193], [85.61486, 49.61713], [85.62845, 49.60648], [85.6423, 49.57749], [85.6562, 49.56493], [85.6733, 49.56044], [85.72575, 49.57305], [85.74741, 49.573], [85.76472, 49.56685], [85.79443, 49.54183], [85.80921, 49.53651], [85.82751, 49.54101], [85.86079, 49.55749], [85.88073, 49.56328], [85.94057, 49.55961], [85.94212, 49.55109], [85.93189, 49.51005], [85.93143, 49.49285], [85.94626, 49.48137], [85.963, 49.47858], [85.98005, 49.48287], [86.02754, 49.51564], [86.07049, 49.52628], [86.11152, 49.52018], [86.13668, 49.493], [86.17725, 49.46334], [86.21425, 49.49615], [86.24639, 49.55005], [86.27213, 49.58364], [86.32949, 49.61026], [86.39181, 49.62498], [86.45827, 49.66565], [86.47548, 49.67082], [86.48178, 49.67692], [86.48297, 49.68627], [86.47274, 49.70834], [86.51971, 49.72684], [86.5456, 49.74265], [86.56513, 49.7427], [86.58493, 49.76006], [86.59537, 49.78089], [86.6102, 49.79552], [86.64244, 49.79386], [86.68492, 49.7782], [86.74838, 49.78296], [86.75892, 49.77862], [86.75959, 49.76771], [86.73763, 49.735], [86.74052, 49.72275], [86.77587, 49.695], [86.73649, 49.67191], [86.71613, 49.66679], [86.66771, 49.66426], [86.64709, 49.65366], [86.61113, 49.62023], [86.59598, 49.60188], [86.5918, 49.58721], [86.59934, 49.57351], [86.61857, 49.55796], [86.64255, 49.54747], [86.66415, 49.54742], [86.70952, 49.5545], [86.73257, 49.55067], [86.80243, 49.52225], [86.82434, 49.50923], [86.8229, 49.49279], [86.81427, 49.47295], [86.81401, 49.45001], [86.82899, 49.43332], [86.85442, 49.42127], [86.90547, 49.40469], [86.93307, 49.39011], [86.9308, 49.38055], [86.91566, 49.36996], [86.90506, 49.35192], [86.91302, 49.3387], [86.93333, 49.32428], [87.01255, 49.28071], [87.01689, 49.27276], [87.01715, 49.25865], [87.02454, 49.24893], [87.03663, 49.24273], [87.07601, 49.23689], [87.16045, 49.24201], [87.19032, 49.23782], [87.21796, 49.22981], [87.27176, 49.20511], [87.28767, 49.18434], [87.30819, 49.11385], [87.3238, 49.08527], [87.20065, 49.10874]], [[63.44355, 45.56797], [63.50148, 45.57422], [63.55739, 45.58438], [63.61093, 45.59825], [63.66188, 45.61561], [63.70994, 45.63629], [63.7549, 45.66], [63.79634, 45.68664], [63.83396, 45.71594], [63.86755, 45.7477], [63.8967, 45.7817], [63.9213, 45.81777], [63.94093, 45.8557], [63.9553, 45.89518], [63.96408, 45.93616], [63.96713, 45.97833], [63.96408, 46.0205], [63.9553, 46.06143], [63.94093, 46.10099], [63.9213, 46.13889], [63.8967, 46.17496], [63.86755, 46.20896], [63.83396, 46.24072], [63.79634, 46.27002], [63.7549, 46.29666], [63.70994, 46.32038], [63.66188, 46.34105], [63.61093, 46.35841], [63.55739, 46.37226], [63.50148, 46.38244], [63.44355, 46.38869], [63.38391, 46.39084], [63.32428, 46.38869], [63.26635, 46.38244], [63.21049, 46.37226], [63.1569, 46.35841], [63.10595, 46.34105], [63.05783, 46.32038], [63.01293, 46.29666], [62.97148, 46.27002], [62.93386, 46.24072], [62.90027, 46.20896], [62.87103, 46.17496], [62.84648, 46.13889], [62.82689, 46.10099], [62.81253, 46.06143], [62.80364, 46.0205], [62.80064, 45.97833], [62.80364, 45.93616], [62.81253, 45.89518], [62.82689, 45.8557], [62.84648, 45.81777], [62.87103, 45.7817], [62.90027, 45.7477], [62.93386, 45.71594], [62.97148, 45.68664], [63.01293, 45.66], [63.05783, 45.63629], [63.10595, 45.61561], [63.1569, 45.59825], [63.21049, 45.58438], [63.26635, 45.57422], [63.32428, 45.56797], [63.38391, 45.56582], [63.44355, 45.56797]]], [[[52.68735, 45.475], [52.70265, 45.42548], [52.70249, 45.40522], [52.67709, 45.39696], [52.62794, 45.41022], [52.58855, 45.43281], [52.56129, 45.45653], [52.55201, 45.47834], [52.56625, 45.49356], [52.59352, 45.50898], [52.59791, 45.51679], [52.59498, 45.52351], [52.59995, 45.52749], [52.63551, 45.52562], [52.65504, 45.52139], [52.67303, 45.50385], [52.68735, 45.475]]], [[[50.73683, 44.8959], [50.76075, 44.86494], [50.73951, 44.86835], [50.69776, 44.85786], [50.69361, 44.8642], [50.70191, 44.8745], [50.70191, 44.88056], [50.6919, 44.88312], [50.68873, 44.88915], [50.69321, 44.89908], [50.68653, 44.91169], [50.6408, 44.9333], [50.62623, 44.95108], [50.62794, 44.96703], [50.63575, 44.96743], [50.64332, 44.95295], [50.65952, 44.93895], [50.67799, 44.93561], [50.69264, 44.94062], [50.70802, 44.95441], [50.71372, 44.9538], [50.72071, 44.94164], [50.72804, 44.94062], [50.73463, 44.92992], [50.73683, 44.8959]]], [[[50.2566, 44.98599], [50.27711, 45.07152], [50.28891, 45.07836], [50.32976, 45.0799], [50.34392, 45.08601], [50.3484, 45.08491], [50.35369, 45.07306], [50.34441, 45.05231], [50.32635, 45.03311], [50.33318, 44.99457], [50.32455, 44.97321], [50.30445, 44.95942], [50.28151, 44.95551], [50.26441, 44.96381], [50.2566, 44.98599]]], [[[50.14308, 44.81786], [50.1115, 44.82038], [50.07936, 44.83348], [50.06397, 44.84414], [50.05201, 44.88129], [50.04184, 44.89492], [50.00416, 44.92231], [49.98609, 44.94676], [49.98618, 44.968], [50.04184, 45.05752], [50.05201, 45.06562], [50.06764, 45.07148], [50.11346, 45.0799], [50.11215, 45.06249], [50.05356, 45.03876], [50.03842, 45.01472], [50.03517, 45.00088], [50.02101, 44.97577], [50.01783, 44.96015], [50.02117, 44.94404], [50.02996, 44.93085], [50.04282, 44.92446], [50.05828, 44.9291], [50.06202, 44.87987], [50.07342, 44.86176], [50.1076, 44.85175], [50.12647, 44.84064], [50.14137, 44.84028], [50.174, 44.85838], [50.18922, 44.86148], [50.17026, 44.83015], [50.14308, 44.81786]]], [[[49.83839, 46.28587], [49.84132, 46.26284], [49.82154, 46.21751], [49.8047, 46.21052], [49.78191, 46.22419], [49.76694, 46.24779], [49.72096, 46.33812], [49.71998, 46.35676], [49.75001, 46.35749], [49.79217, 46.33906], [49.8117, 46.32648], [49.82244, 46.31395], [49.83839, 46.28587]]]]}}]}