{"type": "FeatureCollection", "features": [{"type": "Feature", "properties": {"map_title": "베트남의 분단", "source": "미래엔 세계사 교과서 4권 197쪽", "volume": 4, "page": 197, "legend": "남베트남(지도 글자)", "name": "남베트남", "name_en": "South Vietnam", "period": "1955–1975", "kind": "국가", "note": "베트남 공화국", "coast_snap": "Natural Earth 10m 해안선에 맞춤", "border_snap": "현대 국경(Natural Earth 10m)에 맞춘 구간 약 1220 km"}, "geometry": {"type": "MultiPolygon", "coordinates": [[[[104.84798, 8.44936], [104.84831, 8.43795], [104.84213, 8.43236], [104.84334, 8.42301], [104.83156, 8.41683], [104.82294, 8.42536], [104.8432, 8.44903], [104.84798, 8.44936]]], [[[106.23414, 9.58137], [106.19703, 9.61005], [106.18963, 9.60383], [106.22656, 9.56518], [106.20705, 9.56291], [106.19662, 9.57168], [106.12599, 9.67243], [106.11769, 9.71092], [106.08718, 9.75461], [106.09344, 9.76088], [106.15545, 9.67894], [106.2234, 9.60847], [106.27931, 9.59569], [106.29199, 9.58641], [106.29069, 9.56143], [106.28443, 9.54369], [106.27003, 9.5345], [106.24416, 9.53499], [106.2492, 9.56013], [106.23414, 9.58137]]], [[[104.36136, 9.6598], [104.35799, 9.70113], [104.36392, 9.70228], [104.36491, 9.65638], [104.36136, 9.6598]]], [[[104.65463, 9.79585], [104.64137, 9.79085], [104.60982, 9.79873], [104.64015, 9.822], [104.66154, 9.80959], [104.65463, 9.79585]]], [[[106.53102, 9.85798], [106.54411, 9.83806], [106.53565, 9.82918], [106.52101, 9.83772], [106.49684, 9.87523], [106.46852, 9.89029], [106.42239, 9.93281], [106.42238, 9.93902], [106.44288, 9.93281], [106.49806, 9.89118], [106.53102, 9.85798]]], [[[104.08203, 10.37099], [104.08546, 10.35373], [104.08545, 10.24812], [104.04664, 10.15107], [104.03346, 10.09602], [104.05127, 10.06932], [104.04396, 10.04816], [104.05127, 10.00798], [104.0106, 10.03047], [103.9972, 10.07483], [103.98365, 10.15876], [103.95704, 10.23379], [103.93718, 10.26606], [103.90846, 10.28905], [103.8703, 10.3081], [103.85744, 10.32087], [103.84605, 10.37128], [103.85133, 10.3742], [103.91424, 10.36522], [103.93377, 10.36636], [103.9551, 10.39496], [103.96811, 10.40233], [103.97617, 10.43281], [103.98325, 10.442], [103.99318, 10.45009], [104.00452, 10.45098], [104.08203, 10.37099]]], [[[106.56088, 10.28286], [106.5879, 10.27692], [106.70281, 10.27558], [106.74684, 10.26317], [106.75554, 10.25755], [106.75879, 10.24437], [106.75226, 10.23598], [106.72413, 10.22652], [106.70932, 10.2436], [106.68995, 10.25178], [106.55959, 10.27539], [106.51175, 10.29589], [106.52711, 10.2971], [106.56088, 10.28286]]], [[[103.80485, 10.46321], [103.79468, 10.45357], [103.76408, 10.45649], [103.7557, 10.46207], [103.78212, 10.5151], [103.79859, 10.50543], [103.80591, 10.48432], [103.80485, 10.46321]]], [[[103.86441, 10.6122], [103.85425, 10.5865], [103.83228, 10.55598], [103.82056, 10.54402], [103.79576, 10.5364], [103.86441, 10.6122]]], [[[105.20483, 11.38091], [105.38313, 11.45885], [105.79042, 11.58741], [105.79342, 11.6073], [105.80489, 11.62492], [105.84086, 11.65815], [105.85791, 11.66156], [105.9055, 11.6443], [105.93408, 11.64286], [105.94617, 11.65707], [105.95527, 11.678], [105.98307, 11.70668], [105.98876, 11.71898], [105.99211, 11.74631], [106.01542, 11.7705], [106.0612, 11.7629], [106.11319, 11.74709], [106.15464, 11.74631], [106.22362, 11.72497], [106.24321, 11.71458], [106.26512, 11.68399], [106.27411, 11.67681], [106.28734, 11.67459], [106.35431, 11.69014], [106.37808, 11.68384], [106.41281, 11.66177], [106.42583, 11.66208], [106.43503, 11.67727], [106.42609, 11.70048], [106.39886, 11.74631], [106.39777, 11.76213], [106.41829, 11.80341], [106.42139, 11.83757], [106.43875, 11.86372], [106.43312, 11.88837], [106.40351, 11.94289], [106.394, 11.96981], [106.41746, 11.97586], [106.44206, 11.97488], [106.45105, 11.96847], [106.46051, 11.95292], [106.47374, 11.95209], [106.50454, 11.97338], [106.55244, 11.97281], [106.63859, 11.96113], [106.63063, 11.97617], [106.6805, 11.96506], [106.70158, 11.9708], [106.72111, 11.99637], [106.73279, 12.02888], [106.74922, 12.05234], [106.77196, 12.06583], [106.80297, 12.06846], [106.8793, 12.06273], [106.9163, 12.06691], [106.9534, 12.08107], [106.97769, 12.09725], [107.046, 12.16437], [107.07758, 12.20277], [107.11623, 12.23212], [107.12295, 12.24623], [107.15251, 12.27703], [107.21188, 12.30571], [107.27617, 12.3254], [107.3202, 12.32922], [107.34381, 12.31511], [107.37379, 12.26943], [107.39301, 12.25284], [107.41585, 12.25408], [107.44965, 12.29904], [107.47378, 12.31537], [107.49957, 12.32581], [107.5143, 12.34385], [107.52727, 12.39113], [107.55667, 12.47268], [107.55677, 12.49609], [107.54964, 12.50921], [107.55176, 12.52006], [107.56344, 12.54363], [107.56695, 12.57391], [107.56509, 12.60642], [107.54008, 12.71669], [107.53595, 12.79963], [107.52236, 12.82749], [107.4943, 12.85875], [107.48737, 12.87056], [107.47962, 12.91588], [107.46608, 12.95218], [107.46784, 12.96303], [107.48138, 12.98226], [107.48107, 12.98877], [107.47859, 12.99608], [107.46298, 13.00732], [107.4604, 13.02161], [107.53523, 13.19942], [107.14726, 13.37011], [107.06935, 13.60048], [107.44324, 13.78347], [107.43818, 13.79849], [107.43854, 13.80895], [107.44624, 13.83939], [107.43538, 13.8697], [107.44805, 13.90931], [107.44515, 13.92664], [107.43104, 13.956], [107.43073, 13.98447], [107.42448, 13.99406], [107.40903, 13.99992], [107.37156, 13.99628], [107.35456, 14.0024], [107.34314, 14.02062], [107.34686, 14.06168], [107.34474, 14.08131], [107.32418, 14.10808], [107.31994, 14.11984], [107.32475, 14.14387], [107.35859, 14.23862], [107.36376, 14.28324], [107.34991, 14.32156], [107.35177, 14.34197], [107.37942, 14.39545], [107.38691, 14.42191], [107.39487, 14.42909], [107.35309, 14.5007], [107.36348, 14.67303], [107.3982, 14.71262], [107.49807, 14.74595], [107.50928, 14.75864], [107.50432, 14.77318], [107.4943, 14.78876], [107.49088, 14.80424], [107.49884, 14.81765], [107.5406, 14.85685], [107.55533, 14.8762], [107.55817, 14.88672], [107.48949, 14.9403], [107.46195, 14.95681], [107.45394, 14.96787], [107.44991, 14.9811], [107.4514, 14.99593], [107.44469, 15.01182], [107.44556, 15.02539], [107.45507, 15.03412], [107.47378, 15.03575], [107.519, 15.04885], [107.57801, 15.04725], [107.58907, 15.05818], [107.59, 15.0689], [107.5808, 15.08694], [107.58049, 15.09675], [107.58499, 15.1043], [107.6054, 15.1206], [107.61579, 15.13551], [107.62726, 15.19652], [107.63672, 15.20507], [107.64746, 15.19765], [107.65398, 15.19956], [107.66436, 15.25315], [107.6641, 15.26855], [107.65759, 15.28243], [107.64307, 15.29785], [107.59848, 15.33062], [107.58659, 15.34335], [107.57987, 15.36123], [107.5777, 15.39963], [107.57315, 15.41123], [107.55558, 15.41575], [107.51264, 15.40942], [107.49393, 15.42004], [107.48964, 15.43792], [107.48748, 15.48141], [107.47378, 15.48825], [107.46081, 15.48438], [107.44789, 15.50812], [107.44298, 15.50921], [107.43213, 15.50389], [107.40505, 15.50859], [107.38164, 15.48854], [107.36934, 15.49606], [107.31643, 15.58874], [107.30356, 15.59975], [107.26542, 15.61866], [107.24873, 15.63109], [107.23912, 15.64512], [107.22568, 15.71682], [107.2153, 15.72752], [107.16026, 15.75873], [107.14879, 15.77346], [107.15018, 15.79428], [107.17525, 15.84854], [107.18625, 15.85939], [107.1986, 15.86208], [107.21809, 15.8548], [107.23566, 15.85552], [107.30506, 15.89913], [107.32294, 15.90585], [107.36107, 15.91231], [107.37554, 15.91908], [107.39063, 15.93582], [107.41802, 15.98357], [107.44474, 16.00998], [107.44355, 16.01892], [107.43213, 16.0383], [107.43564, 16.06884], [107.43104, 16.0737], [107.41151, 16.07308], [107.35591, 16.05928], [107.32686, 16.05608], [107.29896, 16.06419], [107.27591, 16.08403], [107.23881, 16.12982], [107.21282, 16.14666], [107.16966, 16.1569], [107.14202, 16.177], [107.1275, 16.20098], [107.11685, 16.25462], [107.10827, 16.26748], [107.0891, 16.28108], [107.05339, 16.29523], [107.01432, 16.29942], [106.9673, 16.29988], [106.95655, 16.30707], [106.94601, 16.34613], [106.89774, 16.37854], [106.88844, 16.39089], [106.8763, 16.41802], [106.85987, 16.41182], [106.85589, 16.41466], [106.85589, 16.42034], [106.8626, 16.43057], [106.86684, 16.46385], [106.86405, 16.50406], [106.84669, 16.53005], [106.82286, 16.53098], [106.80142, 16.4961], [106.79734, 16.47946], [106.75915, 16.45248], [106.7546, 16.44427], [106.75253, 16.42902], [106.7424, 16.42153], [106.72571, 16.41714], [106.72256, 16.42163], [106.72266, 16.43249], [106.6929, 16.42789], [106.67068, 16.44442], [106.65517, 16.47083], [106.64117, 16.51036], [106.63967, 16.52178], [106.64432, 16.57532], [106.64019, 16.58664], [106.5914, 16.60245], [106.57244, 16.61356], [106.54975, 16.6378], [106.54066, 16.65914], [106.53508, 16.68353], [106.53342, 16.97266], [106.52454, 16.98925], [106.82284, 17.27485], [106.83621, 17.28406], [107.11182, 17.08828], [107.1272, 17.05976], [107.12127, 17.01854], [107.13271, 17.00965], [107.18653, 16.93439], [107.20068, 16.92625], [107.20386, 16.91926], [107.18653, 16.90656], [107.18336, 16.89814], [107.14178, 16.87458], [107.14178, 16.86774], [107.16725, 16.86762], [107.1902, 16.87458], [107.18946, 16.89232], [107.21648, 16.90793], [107.23455, 16.88764], [107.24947, 16.87987], [107.37867, 16.77338], [107.49799, 16.68888], [107.60467, 16.59569], [107.63525, 16.58722], [107.63525, 16.57979], [107.59604, 16.59052], [107.47364, 16.65314], [107.44337, 16.64802], [107.51979, 16.60643], [107.55494, 16.59662], [107.56398, 16.58271], [107.58619, 16.58169], [107.59425, 16.58723], [107.6111, 16.56928], [107.63525, 16.55927], [107.63526, 16.55183], [107.61459, 16.55927], [107.60841, 16.54499], [107.66307, 16.55181], [107.6526, 16.53872], [107.64894, 16.52143], [107.65259, 16.52244], [107.65983, 16.51312], [107.66529, 16.50186], [107.6631, 16.49722], [107.67286, 16.49726], [107.6867, 16.51459], [107.69711, 16.52007], [107.71144, 16.49722], [107.75862, 16.46325], [107.78175, 16.42756], [107.79997, 16.41571], [107.82162, 16.38752], [107.84114, 16.37978], [107.82692, 16.3737], [107.79656, 16.38736], [107.79444, 16.37922], [107.81227, 16.31318], [107.84816, 16.29169], [107.86403, 16.29779], [107.87256, 16.29588], [107.88217, 16.27806], [107.89137, 16.28415], [107.8965, 16.27806], [107.93751, 16.31208], [107.92995, 16.35321], [107.94516, 16.35683], [107.99041, 16.32477], [108.01197, 16.31904], [108.02052, 16.32518], [108.03102, 16.34271], [108.04297, 16.34637], [108.05348, 16.30541], [108.09447, 16.23653], [108.06593, 16.25723], [108.05201, 16.26211], [108.04607, 16.24738], [108.05397, 16.23599], [108.09067, 16.22687], [108.10816, 16.23028], [108.15122, 16.21699], [108.20433, 16.21669], [108.18921, 16.19848], [108.15447, 16.17084], [108.14226, 16.14838], [108.14283, 16.11937], [108.15992, 16.10375], [108.18197, 16.09137], [108.19752, 16.07201], [108.22076, 16.0915], [108.22829, 16.08973], [108.23854, 16.05219], [108.23332, 16.0373], [108.22291, 16.02289], [108.19752, 16.00373], [108.24985, 16.02326], [108.25896, 16.01056], [108.2492, 16.06192], [108.24195, 16.07575], [108.24732, 16.12324], [108.22488, 16.12727], [108.22487, 16.13471], [108.23862, 16.14672], [108.24538, 16.162], [108.25416, 16.15664], [108.25897, 16.162], [108.26579, 16.162], [108.28631, 16.14452], [108.31739, 16.13471], [108.33139, 16.15533], [108.34838, 16.13471], [108.31764, 16.11176], [108.31421, 16.09994], [108.30494, 16.10716], [108.27955, 16.10205], [108.2658, 16.10741], [108.25856, 16.07099], [108.26531, 16.03156], [108.27914, 15.99567], [108.30592, 15.95523], [108.35865, 15.91543], [108.38818, 15.89838], [108.39617, 15.88085], [108.38526, 15.87889], [108.37517, 15.86945], [108.3825, 15.86717], [108.40266, 15.88238], [108.40991, 15.88084], [108.42408, 15.80573], [108.45533, 15.74702], [108.61866, 15.52924], [108.64625, 15.51386], [108.68343, 15.51776], [108.67449, 15.48941], [108.66776, 15.48268], [108.65626, 15.49665], [108.6294, 15.48652], [108.62094, 15.47476], [108.62892, 15.45572], [108.65252, 15.43879], [108.66847, 15.44782], [108.69092, 15.49041], [108.6971, 15.49041], [108.70395, 15.44514], [108.7435, 15.40729], [108.77295, 15.38678], [108.77361, 15.35126], [108.7798, 15.33959], [108.77296, 15.32534], [108.7798, 15.32534], [108.78712, 15.34584], [108.8213, 15.34585], [108.8213, 15.35269], [108.79624, 15.35639], [108.78858, 15.37417], [108.79559, 15.39508], [108.81446, 15.4079], [108.81446, 15.41474], [108.80017, 15.429], [108.81471, 15.42357], [108.82748, 15.42901], [108.83904, 15.37434], [108.88281, 15.33616], [108.88103, 15.29914], [108.88657, 15.2862], [108.92433, 15.25641], [108.95166, 15.25023], [108.93295, 15.22721], [108.91977, 15.22211], [108.90333, 15.22289], [108.90333, 15.21548], [108.91961, 15.21524], [108.92431, 15.20183], [108.91, 15.2093], [108.89772, 15.154], [108.8816, 15.16063], [108.86818, 15.15965], [108.86248, 15.15249], [108.8698, 15.14037], [108.88412, 15.14395], [108.89226, 15.14134], [108.89747, 15.13321], [108.89772, 15.11986], [108.90333, 15.11986], [108.91, 15.14661], [108.9192, 15.05781], [108.94264, 14.97956], [109.00561, 14.83878], [108.98552, 14.83662], [108.99024, 14.83063], [109.01245, 14.82196], [109.03696, 14.78364], [109.08081, 14.72947], [109.08604, 14.7155], [109.09505, 14.66744], [109.08668, 14.67133], [109.07643, 14.68561], [109.0818, 14.60639], [109.08821, 14.58926], [109.0861, 14.58528], [109.07667, 14.58568], [109.06105, 14.56371], [109.06707, 14.55073], [109.07447, 14.5786], [109.10816, 14.48872], [109.12573, 14.46539], [109.13021, 14.4516], [109.12916, 14.39741], [109.13648, 14.36685], [109.14967, 14.33845], [109.19059, 14.29124], [109.20117, 14.23603], [109.19093, 14.22053], [109.20525, 14.1861], [109.239, 14.13301], [109.22022, 14.13524], [109.19752, 14.16779], [109.17449, 14.17206], [109.17262, 14.15656], [109.18409, 14.1363], [109.21507, 14.11959], [109.22542, 14.10398], [109.25268, 14.03262], [109.26637, 13.92072], [109.27516, 13.90672], [109.3016, 13.8858], [109.30737, 13.87637], [109.30047, 13.7978], [109.30396, 13.75927], [109.29574, 13.75561], [109.26979, 13.75561], [109.26743, 13.7663], [109.2732, 13.82453], [109.25148, 13.89094], [109.23902, 13.87979], [109.23218, 13.83198], [109.22071, 13.80614], [109.23218, 13.81085], [109.23951, 13.78767], [109.2461, 13.77961], [109.25896, 13.77733], [109.22625, 13.7436], [109.22478, 13.72211], [109.23897, 13.69158], [109.24138, 13.64403], [109.24757, 13.62271], [109.25717, 13.60562], [109.28248, 13.58515], [109.30046, 13.5781], [109.30381, 13.56901], [109.30347, 13.56221], [109.29831, 13.55864], [109.28679, 13.5576], [109.29419, 13.53037], [109.26344, 13.57705], [109.25294, 13.60163], [109.22608, 13.6319], [109.21852, 13.64696], [109.21119, 13.64696], [109.21013, 13.63081], [109.23219, 13.61225], [109.24529, 13.57123], [109.26743, 13.55467], [109.26246, 13.54393], [109.25896, 13.54462], [109.28679, 13.50922], [109.2942, 13.50922], [109.3142, 13.52288], [109.30226, 13.50153], [109.30372, 13.47989], [109.31218, 13.47163], [109.32325, 13.46979], [109.33464, 13.47572], [109.33968, 13.46548], [109.33131, 13.45209], [109.33464, 13.4409], [109.32505, 13.42247], [109.30739, 13.40682], [109.29916, 13.41747], [109.27752, 13.42163], [109.27322, 13.43106], [109.27809, 13.43793], [109.29819, 13.44843], [109.30047, 13.46137], [109.26254, 13.48932], [109.24513, 13.48518], [109.23219, 13.46137], [109.23755, 13.45319], [109.23463, 13.43708], [109.24528, 13.42723], [109.23756, 13.42007], [109.23219, 13.39313], [109.24935, 13.3847], [109.26637, 13.3618], [109.28004, 13.35277], [109.29103, 13.3631], [109.29932, 13.36468], [109.30737, 13.35277], [109.30567, 13.3339], [109.28679, 13.33104], [109.29427, 13.31464], [109.2942, 13.29757], [109.2732, 13.31061], [109.26856, 13.30183], [109.25896, 13.29755], [109.27263, 13.26325], [109.2942, 13.2355], [109.2928, 13.26702], [109.29624, 13.27887], [109.30738, 13.28388], [109.30372, 13.30317], [109.30811, 13.30363], [109.31811, 13.28888], [109.32104, 13.25902], [109.30738, 13.22866], [109.31421, 13.19794], [109.30421, 13.15062], [109.30738, 13.13304], [109.3313, 13.09376], [109.32838, 13.08466], [109.34945, 13.06826], [109.37013, 13.03181], [109.45826, 12.92405], [109.46501, 12.91331], [109.46729, 12.89769], [109.45817, 12.85188], [109.43093, 12.84513], [109.4284, 12.85212], [109.45004, 12.87324], [109.43824, 12.87861], [109.41725, 12.86494], [109.40349, 12.83821], [109.3777, 12.83242], [109.36883, 12.82461], [109.37549, 12.81635], [109.37623, 12.77619], [109.42075, 12.69131], [109.43621, 12.67422], [109.45134, 12.67376], [109.47241, 12.6564], [109.46997, 12.64864], [109.45135, 12.63898], [109.45133, 12.57075], [109.44013, 12.56476], [109.42995, 12.57588], [109.41725, 12.60546], [109.40512, 12.61799], [109.40351, 12.62881], [109.42408, 12.64643], [109.42408, 12.65265], [109.40349, 12.68744], [109.396, 12.67309], [109.37623, 12.67377], [109.38151, 12.6564], [109.37622, 12.63899], [109.36354, 12.65624], [109.34207, 12.66011], [109.36257, 12.69049], [109.38559, 12.70246], [109.3899, 12.71162], [109.3864, 12.72753], [109.36257, 12.76252], [109.36256, 12.79291], [109.3589, 12.79731], [109.34783, 12.79483], [109.33838, 12.7731], [109.30397, 12.75088], [109.25553, 12.69926], [109.23357, 12.68708], [109.20493, 12.64643], [109.20801, 12.59805], [109.20045, 12.59125], [109.20493, 12.55024], [109.2116, 12.54804], [109.21119, 12.5434], [109.21852, 12.5434], [109.22788, 12.57452], [109.23902, 12.57758], [109.23902, 12.58373], [109.2322, 12.58373], [109.2322, 12.59124], [109.24902, 12.58551], [109.24707, 12.57197], [109.23219, 12.54035], [109.23715, 12.52228], [109.24936, 12.50951], [109.29834, 12.47796], [109.30355, 12.46963], [109.29347, 12.44904], [109.29428, 12.43903], [109.29851, 12.43081], [109.33667, 12.41013], [109.34594, 12.39631], [109.33465, 12.38573], [109.34204, 12.37889], [109.33465, 12.37215], [109.32252, 12.38605], [109.30908, 12.36006], [109.29716, 12.35109], [109.28226, 12.3561], [109.25896, 12.39256], [109.2155, 12.44017], [109.18507, 12.45893], [109.15651, 12.45466], [109.17016, 12.43355], [109.14967, 12.44038], [109.15463, 12.42691], [109.17693, 12.3994], [109.19642, 12.40259], [109.20654, 12.38715], [109.21412, 12.33291], [109.22926, 12.31371], [109.24202, 12.3054], [109.24219, 12.29658], [109.23634, 12.2911], [109.21852, 12.29637], [109.20492, 12.26289], [109.17693, 12.27652], [109.18246, 12.26781], [109.21118, 12.2486], [109.20484, 12.23339], [109.22476, 12.20085], [109.1985, 12.20795], [109.18824, 12.20576], [109.18434, 12.194], [109.1906, 12.20083], [109.20436, 12.19379], [109.20964, 12.18602], [109.2142, 12.1586], [109.22681, 12.13789], [109.21119, 12.11823], [109.20997, 12.10969], [109.21388, 12.0681], [109.22055, 12.05061], [109.2492, 11.99738], [109.28678, 11.96743], [109.28345, 11.94014], [109.26637, 11.92646], [109.26588, 11.9099], [109.27084, 11.89501], [109.28077, 11.88394], [109.29419, 11.87864], [109.2942, 11.87147], [109.27784, 11.86483], [109.26165, 11.8657], [109.24758, 11.87296], [109.23902, 11.88544], [109.22479, 11.87866], [109.21657, 11.90884], [109.22267, 11.98164], [109.21119, 12.01582], [109.21852, 12.01582], [109.19581, 12.0749], [109.18621, 12.11774], [109.17677, 12.12946], [109.16334, 12.11201], [109.18214, 12.08104], [109.17693, 12.05305], [109.18238, 12.04287], [109.20582, 12.02163], [109.21119, 12.0056], [109.20818, 11.97663], [109.19873, 11.94815], [109.18181, 11.9217], [109.1565, 11.89912], [109.13722, 11.89606], [109.12582, 11.86359], [109.1316, 11.83002], [109.16334, 11.82404], [109.19777, 11.86928], [109.20491, 11.8681], [109.19288, 11.82754], [109.20492, 11.81037], [109.20362, 11.78457], [109.24283, 11.73546], [109.23219, 11.7142], [109.22478, 11.72162], [109.21778, 11.7141], [109.20899, 11.69368], [109.19125, 11.67194], [109.18432, 11.6385], [109.16041, 11.61644], [109.15397, 11.59681], [109.13599, 11.57023], [109.12917, 11.57023], [109.1172, 11.58027], [109.06707, 11.58382], [109.05567, 11.59665], [109.04347, 11.6385], [109.02027, 11.6328], [109.02174, 11.62031], [109.04038, 11.60151], [109.03403, 11.55956], [109.04036, 11.54288], [109.01246, 11.54287], [109.02785, 11.51724], [109.02829, 11.47395], [109.0193, 11.40632], [109.02246, 11.36762], [109.0179, 11.35573], [108.98048, 11.32357], [108.95167, 11.31014], [108.93336, 11.31119], [108.87387, 11.33389], [108.83806, 11.33076], [108.8213, 11.32372], [108.78785, 11.30069], [108.76612, 11.27595], [108.75782, 11.2578], [108.74554, 11.20692], [108.73804, 11.18969], [108.72934, 11.18155], [108.70053, 11.17916], [108.65626, 11.19282], [108.61524, 11.17916], [108.5774, 11.17914], [108.55941, 11.16243], [108.53126, 11.15327], [108.50034, 11.12084], [108.49171, 11.10468], [108.48193, 11.06404], [108.47249, 11.05334], [108.43914, 11.0467], [108.40357, 11.02897], [108.36883, 11.02277], [108.34497, 10.95381], [108.32521, 10.95157], [108.31544, 10.94432], [108.30005, 10.91284], [108.29372, 10.91284], [108.28533, 10.94334], [108.25864, 10.95181], [108.13502, 10.92768], [108.10646, 10.91816], [108.08911, 10.89204], [108.06568, 10.86799], [108.04298, 10.81391], [108.0354, 10.77278], [107.9983, 10.69938], [107.91944, 10.7211], [107.88234, 10.71699], [107.8239, 10.69237], [107.7685, 10.65031], [107.73129, 10.63788], [107.66627, 10.60375], [107.62135, 10.5926], [107.58058, 10.57026], [107.5442, 10.5362], [107.53052, 10.51293], [107.51116, 10.50155], [107.42985, 10.46854], [107.38461, 10.46284], [107.34498, 10.45044], [107.33416, 10.45356], [107.29664, 10.41572], [107.27198, 10.3785], [107.25441, 10.3789], [107.21632, 10.40156], [107.19021, 10.40519], [107.195, 10.41405], [107.21168, 10.41938], [107.21754, 10.42561], [107.21697, 10.43447], [107.20541, 10.45067], [107.17596, 10.47744], [107.14178, 10.48086], [107.14176, 10.46663], [107.13574, 10.46662], [107.12273, 10.48021], [107.10279, 10.48994], [107.0818, 10.4916], [107.06609, 10.48087], [107.05983, 10.48087], [107.06324, 10.49506], [107.05982, 10.5082], [107.05047, 10.48847], [107.03192, 10.47408], [107.02564, 10.50137], [107.011, 10.49413], [106.99781, 10.48087], [106.99147, 10.48087], [106.9944, 10.49665], [107.02564, 10.51504], [107.03272, 10.52595], [107.03191, 10.60749], [107.0114, 10.63789], [107.02564, 10.63105], [107.02369, 10.65632], [107.01319, 10.67268], [106.98414, 10.69937], [106.97975, 10.68476], [107.0114, 10.65526], [107.00262, 10.63044], [107.00245, 10.61709], [107.02508, 10.60391], [107.02272, 10.58759], [107.0114, 10.56281], [107.02687, 10.54418], [107.02564, 10.53547], [107.01904, 10.53389], [106.99781, 10.54914], [107.00514, 10.55598], [106.99147, 10.57026], [106.99822, 10.59724], [106.99781, 10.6249], [106.99147, 10.62491], [106.98487, 10.59683], [106.98414, 10.56688], [106.99195, 10.54011], [107.01139, 10.52187], [106.9944, 10.51288], [106.97217, 10.47428], [106.96363, 10.46663], [106.95721, 10.47168], [106.96363, 10.50137], [106.95932, 10.51187], [106.94313, 10.52928], [106.93776, 10.54873], [106.94313, 10.60065], [106.8816, 10.65217], [106.84864, 10.63557], [106.82862, 10.63028], [106.80128, 10.66694], [106.77247, 10.68635], [106.74147, 10.66926], [106.73683, 10.65815], [106.7588, 10.6413], [106.77247, 10.60375], [106.76905, 10.59227], [106.75196, 10.57648], [106.7334, 10.52246], [106.6886, 10.50366], [106.67237, 10.50422], [106.66261, 10.52188], [106.65577, 10.52188], [106.65919, 10.50707], [106.6687, 10.49454], [106.6465, 10.48664], [106.63803, 10.47899], [106.63038, 10.45869], [106.59425, 10.43928], [106.59213, 10.4687], [106.57993, 10.48774], [106.58188, 10.45279], [106.58676, 10.43871], [106.59742, 10.43305], [106.61541, 10.43659], [106.63006, 10.44579], [106.64894, 10.47407], [106.65575, 10.47407], [106.66293, 10.44392], [106.67018, 10.43256], [106.68979, 10.43305], [106.71364, 10.46808], [106.72413, 10.47405], [106.74105, 10.46799], [106.78809, 10.39313], [106.79541, 10.30683], [106.79077, 10.28486], [106.77556, 10.27539], [106.70411, 10.28905], [106.59832, 10.28852], [106.52524, 10.30256], [106.4873, 10.30278], [106.43767, 10.32185], [106.42237, 10.31696], [106.48032, 10.28083], [106.72064, 10.19977], [106.76515, 10.16767], [106.79314, 10.16249], [106.79906, 10.14786], [106.79126, 10.11018], [106.73706, 10.05415], [106.72087, 10.04492], [106.70413, 10.0489], [106.70924, 10.05663], [106.70834, 10.07526], [106.70411, 10.08365], [106.69663, 10.08365], [106.69205, 10.06642], [106.67677, 10.04922], [106.66871, 10.03242], [106.68408, 10.01203], [106.66424, 10.00609], [106.64893, 9.97436], [106.60743, 9.97485], [106.59108, 9.98079], [106.54786, 10.01537], [106.49806, 10.03584], [106.46893, 10.059], [106.44321, 10.08979], [106.35987, 10.22069], [106.33123, 10.2495], [106.292, 10.2617], [106.3379, 10.2281], [106.34938, 10.21483], [106.35816, 10.17658], [106.3685, 10.15591], [106.46168, 10.03571], [106.48439, 10.01533], [106.56153, 9.97914], [106.61427, 9.93903], [106.67058, 9.90941], [106.68637, 9.90545], [106.69629, 9.89655], [106.6932, 9.87641], [106.68256, 9.85532], [106.66871, 9.84286], [106.67644, 9.86677], [106.66871, 9.88373], [106.66261, 9.88373], [106.65789, 9.84862], [106.63786, 9.82601], [106.61134, 9.81705], [106.58677, 9.82295], [106.56333, 9.84179], [106.5044, 9.90546], [106.39503, 9.97436], [106.14487, 10.22858], [106.12135, 10.24067], [106.11329, 10.23428], [106.13502, 10.22016], [106.15789, 10.19538], [106.16601, 10.18109], [106.17286, 10.14753], [106.19337, 10.12027], [106.28345, 10.05045], [106.31251, 10.00796], [106.36931, 9.95693], [106.38893, 9.93281], [106.47587, 9.86168], [106.50112, 9.83382], [106.51856, 9.80182], [106.52752, 9.76219], [106.53785, 9.75117], [106.563, 9.74721], [106.57495, 9.73907], [106.58057, 9.69999], [106.57552, 9.64863], [106.56315, 9.61433], [106.54371, 9.58503], [106.51839, 9.56279], [106.48508, 9.54715], [106.46437, 9.55476], [106.43946, 9.54118], [106.39821, 9.54207], [106.38503, 9.5483], [106.33717, 9.5847], [106.25019, 9.63131], [106.06494, 9.80405], [105.97047, 9.92084], [105.93287, 9.95539], [105.90406, 9.97647], [105.86948, 9.98535], [105.83806, 10.00503], [105.81902, 10.00796], [105.83839, 9.97944], [106.0735, 9.74795], [106.09295, 9.69294], [106.19702, 9.54116], [106.20776, 9.51146], [106.21069, 9.47004], [106.20581, 9.45735], [106.1692, 9.4182], [106.19458, 9.39899], [106.19702, 9.38471], [106.19336, 9.36934], [106.18393, 9.36222], [106.01824, 9.31525], [105.76001, 9.21095], [105.53875, 9.12934], [105.47022, 9.06196], [105.44361, 9.04149], [105.43295, 9.02831], [105.42618, 9.00816], [105.40821, 9.00056], [105.4081, 8.97983], [105.3341, 8.83993], [105.29304, 8.78774], [105.25881, 8.76048], [105.21675, 8.75451], [105.18403, 8.74088], [105.15441, 8.70586], [105.12635, 8.66015], [105.10147, 8.63428], [104.85621, 8.56559], [104.83278, 8.56917], [104.81479, 8.58112], [104.75199, 8.59085], [104.72292, 8.6027], [104.72024, 8.61375], [104.7593, 8.61562], [104.83513, 8.66047], [104.83904, 8.67097], [104.83416, 8.68098], [104.81953, 8.69086], [104.83278, 8.69887], [104.91163, 8.68521], [104.94239, 8.69644], [104.95639, 8.70742], [104.96314, 8.71939], [104.90748, 8.69961], [104.87615, 8.69921], [104.85319, 8.71277], [104.84841, 8.72358], [104.8528, 8.72918], [104.91212, 8.73534], [104.92897, 8.7473], [104.91913, 8.77046], [104.9163, 8.79024], [104.92156, 8.80931], [104.85792, 8.78145], [104.81666, 8.77132], [104.79168, 8.78407], [104.77461, 8.81787], [104.81172, 8.93705], [104.80708, 9.04542], [104.81104, 9.13244], [104.8191, 9.19294], [104.83562, 9.55612], [104.85657, 9.73804], [104.8928, 9.85108], [104.93943, 9.84956], [104.96998, 9.85366], [104.97691, 9.87124], [104.99334, 9.88812], [105.05507, 9.93351], [105.07667, 9.94341], [105.08667, 9.93593], [105.11329, 9.85708], [105.10711, 9.9086], [105.10711, 9.9527], [105.10043, 9.97411], [105.08766, 9.99673], [105.04265, 10.05508], [105.00327, 10.09211], [104.98365, 10.10346], [104.96388, 10.10586], [104.92433, 10.09627], [104.90086, 10.09743], [104.86891, 10.11612], [104.80486, 10.2071], [104.77198, 10.22663], [104.73854, 10.23139], [104.70737, 10.22232], [104.68133, 10.19969], [104.67562, 10.17488], [104.65838, 10.16804], [104.65088, 10.14449], [104.61305, 10.14449], [104.60769, 10.15351], [104.61354, 10.16738], [104.61305, 10.17918], [104.59261, 10.21006], [104.58888, 10.26089], [104.57936, 10.27485], [104.55152, 10.29588], [104.54541, 10.28222], [104.53737, 10.28222], [104.5359, 10.30956], [104.50377, 10.35737], [104.49911, 10.37039], [104.51743, 10.37848], [104.52508, 10.38984], [104.53053, 10.40908], [104.52491, 10.41942], [104.51743, 10.41942], [104.49918, 10.392], [104.48585, 10.3833], [104.46957, 10.37849], [104.45363, 10.37984], [104.45582, 10.40717], [104.44923, 10.42561], [104.43238, 10.44628], [104.42205, 10.4523], [104.40757, 10.44613], [104.36313, 10.48774], [104.33253, 10.48774], [104.30616, 10.4786], [104.29771, 10.48087], [104.28981, 10.49751], [104.28631, 10.54047], [104.24985, 10.57026], [104.23032, 10.56315], [104.22267, 10.57026], [104.20704, 10.55], [104.18116, 10.54956], [104.13014, 10.56281], [104.08878, 10.55465], [103.94557, 10.58813], [103.91799, 10.61124], [103.90042, 10.64732], [103.9948, 10.73685], [104.05473, 10.77577], [104.12118, 10.80237], [104.19161, 10.81562], [104.26164, 10.81631], [104.55401, 10.51833], [104.56683, 10.52807], [104.58254, 10.53153], [104.62553, 10.53336], [104.77384, 10.51533], [104.8188, 10.51719], [104.85441, 10.53132], [104.87854, 10.55597], [104.91973, 10.61801], [104.93135, 10.6307], [104.94432, 10.64162], [105.04246, 10.69082], [105.06674, 10.71395], [105.06623, 10.74643], [105.03047, 10.81164], [105.01481, 10.84921], [105.0114, 10.88383], [105.01786, 10.89959], [105.04277, 10.92636], [105.07791, 10.9469], [105.08375, 10.94262], [105.08607, 10.92952], [105.09754, 10.91435], [105.2533, 10.88352], [105.30301, 10.84402], [105.31789, 10.83885], [105.3275, 10.84828], [105.35727, 10.90797], [105.39789, 10.95458], [105.4105, 10.963], [105.23094, 11.33787], [105.20483, 11.38091]]], [[[107.16414, 10.45712], [107.17205, 10.46459], [107.20265, 10.43806], [107.21119, 10.42561], [107.1902, 10.43305], [107.18776, 10.42064], [107.17311, 10.41112], [107.16585, 10.39111], [107.13551, 10.37849], [107.08717, 10.32321], [107.07375, 10.37263], [107.07937, 10.39101], [107.11988, 10.40131], [107.14967, 10.41657], [107.15602, 10.42251], [107.16414, 10.45712]]], [[[106.87428, 10.42561], [106.87697, 10.44383], [106.89234, 10.46528], [106.89527, 10.48086], [106.88795, 10.48086], [106.88795, 10.46662], [106.87941, 10.49004], [106.88836, 10.50486], [106.9275, 10.52117], [106.94809, 10.50702], [106.94337, 10.47663], [106.92205, 10.42561], [106.92945, 10.42561], [106.93629, 10.43927], [106.96871, 10.41658], [106.97729, 10.40518], [106.92848, 10.3935], [106.90854, 10.38471], [106.89527, 10.37101], [106.88796, 10.37101], [106.88795, 10.38923], [106.87428, 10.42561]]], [[[106.77882, 10.62446], [106.75196, 10.66584], [106.78419, 10.66291], [106.80812, 10.63361], [106.8353, 10.62604], [106.84783, 10.61384], [106.85377, 10.59838], [106.85377, 10.58393], [106.84205, 10.57075], [106.8401, 10.55939], [106.85353, 10.53901], [106.86769, 10.52896], [106.87182, 10.51521], [106.86442, 10.503], [106.8401, 10.50137], [106.8401, 10.49453], [106.85597, 10.4938], [106.86396, 10.48694], [106.87428, 10.4604], [106.83229, 10.4724], [106.81959, 10.46662], [106.82667, 10.46381], [106.83326, 10.46662], [106.84864, 10.45254], [106.85963, 10.43179], [106.85889, 10.41308], [106.84031, 10.40526], [106.81642, 10.41471], [106.79168, 10.43717], [106.77069, 10.46431], [106.75882, 10.48774], [106.75474, 10.51537], [106.7588, 10.54296], [106.75196, 10.56656], [106.77858, 10.57648], [106.7859, 10.60139], [106.77882, 10.62446]]], [[[106.88966, 10.62727], [106.92945, 10.59756], [106.93019, 10.59007], [106.92205, 10.58023], [106.9297, 10.54906], [106.92205, 10.54297], [106.91676, 10.54629], [106.90211, 10.57648], [106.89527, 10.57648], [106.90894, 10.53238], [106.90309, 10.52188], [106.89262, 10.52472], [106.86744, 10.54296], [106.85377, 10.56281], [106.85597, 10.57176], [106.86524, 10.57978], [106.87127, 10.60765], [106.86793, 10.61713], [106.85377, 10.62491], [106.85377, 10.63105], [106.88795, 10.63447], [106.88966, 10.62727]]], [[[109.30047, 12.194], [109.30737, 12.18717], [109.28761, 12.18896], [109.25437, 12.21134], [109.2453, 12.22126], [109.2453, 12.22808], [109.2732, 12.22126], [109.27321, 12.23553], [109.32838, 12.22125], [109.34213, 12.2132], [109.34888, 12.20083], [109.32838, 12.18717], [109.31658, 12.1975], [109.30047, 12.194]]], [[[109.3462, 12.63104], [109.38314, 12.62372], [109.39039, 12.61351], [109.40503, 12.57079], [109.40023, 12.55794], [109.38377, 12.56319], [109.34743, 12.58821], [109.33546, 12.60326], [109.31204, 12.61433], [109.32033, 12.62799], [109.3462, 12.63104]]], [[[109.34345, 13.63226], [109.36247, 13.61652], [109.36297, 13.60644], [109.35174, 13.611], [109.34345, 13.63226]]], [[[109.12679, 15.37131], [109.10538, 15.37439], [109.09735, 15.37947], [109.10703, 15.39006], [109.12679, 15.37131]]], [[[108.54045, 15.92057], [108.5128, 15.9425], [108.50587, 15.95572], [108.49237, 15.95878], [108.48835, 15.96376], [108.50847, 15.9758], [108.53874, 15.95351], [108.54045, 15.92057]]]]}}]}