{"type": "FeatureCollection", "features": [{"type": "Feature", "properties": {"map_title": "베트남의 분단", "source": "미래엔 세계사 교과서 4권 197쪽", "volume": 4, "page": 197, "legend": "하노이(지도 기호)", "name": "하노이", "name_en": "Hanoi", "category": "수도", "year": "", "coord_source": "실제 위치", "map_lon": 105.85782, "map_lat": 21.03995, "note": "북베트남 수도"}, "geometry": {"type": "Point", "coordinates": [105.85, 21.03]}}, {"type": "Feature", "properties": {"map_title": "베트남의 분단", "source": "미래엔 세계사 교과서 4권 197쪽", "volume": 4, "page": 197, "legend": "사이공(지도 기호)", "name": "사이공", "name_en": "Saigon", "category": "수도", "year": "", "coord_source": "실제 위치", "map_lon": 106.70038, "map_lat": 10.7873, "note": "남베트남 수도"}, "geometry": {"type": "Point", "coordinates": [106.7, 10.78]}}, {"type": "Feature", "properties": {"map_title": "베트남의 분단", "source": "미래엔 세계사 교과서 4권 197쪽", "volume": 4, "page": 197, "legend": "디엔비엔푸(지도 기호)", "name": "디엔비엔푸", "name_en": "Dien Bien Phu", "category": "격전지", "year": "1954", "coord_source": "실제 위치", "map_lon": 103.0178, "map_lat": 21.41402, "note": "디엔비엔푸 전투(1954)"}, "geometry": {"type": "Point", "coordinates": [103.02, 21.39]}}]}