{"type": "FeatureCollection", "features": [{"type": "Feature", "properties": {"map_title": "불교의 전파 과정", "source": "미래엔 세계사 교과서 1권 38쪽", "volume": 1, "page": 38, "name": "대승 불교 전파(간다라→부다가야)", "category": "전파 경로", "period": "", "legend": "대승 불교", "start": "간다라", "end": "부다가야"}, "geometry": {"type": "LineString", "coordinates": [[75.21961, 32.19244], [75.57442, 31.80261], [76.10129, 31.21535], [76.50518, 30.79064], [77.1054, 30.15028], [77.65561, 29.60019], [78.20107, 29.04613], [78.78223, 28.5005], [79.35854, 27.94871], [79.95617, 27.42967], [80.54899, 26.90249], [81.02936, 26.52874], [81.74413, 25.95853], [82.21496, 25.6498], [82.91599, 25.18002], [84.04477, 24.63924]]}}, {"type": "Feature", "properties": {"map_title": "불교의 전파 과정", "source": "미래엔 세계사 교과서 1권 38쪽", "volume": 1, "page": 38, "name": "대승 불교 전파(말레이반도→앙코르 와트)", "category": "전파 경로", "period": "", "legend": "대승 불교", "start": "말레이반도", "end": "앙코르 와트"}, "geometry": {"type": "LineString", "coordinates": [[101.40296, 3.10309], [101.52433, 2.78079], [101.68284, 2.50723], [101.89523, 2.30349], [102.16121, 2.16944], [102.44909, 2.06488], [102.74102, 1.95143], [103.02693, 1.77649], [103.30216, 1.59872], [103.56037, 1.47454], [103.78115, 1.43408], [104.10785, 1.47343], [104.31071, 1.53078], [104.61226, 1.65063], [104.96407, 1.82377], [105.32262, 2.03891], [106.07649, 2.68825], [106.26238, 2.85536], [106.30309, 3.02052], [106.25847, 3.13276], [106.228, 3.23429], [106.33207, 3.34374], [106.51482, 3.50815], [106.75179, 3.67713], [107.27994, 4.03078], [107.47279, 4.25246], [107.61891, 4.48961], [107.71138, 4.74325], [107.76113, 5.00952], [107.7363, 5.30289], [107.69064, 5.60125], [107.62984, 5.90283], [107.55826, 6.20636], [107.13631, 7.43652], [107.03014, 7.7311], [106.93495, 8.02214], [106.85605, 8.30827], [106.80238, 8.58673], [106.79038, 8.83259], [106.82597, 9.06292], [106.88438, 9.28852], [106.95048, 9.516]]}}, {"type": "Feature", "properties": {"map_title": "불교의 전파 과정", "source": "미래엔 세계사 교과서 1권 38쪽", "volume": 1, "page": 38, "name": "대승 불교 전파(보로부두르→보르네오섬)", "category": "전파 경로", "period": "", "legend": "대승 불교", "start": "보로부두르", "end": "보르네오섬"}, "geometry": {"type": "LineString", "coordinates": [[109.98708, -7.52659], [110.20595, -7.54328], [110.35297, -7.45718], [110.46311, -7.33237], [110.56957, -7.1983], [110.71981, -7.10236], [110.93637, -7.06909], [111.18382, -7.054], [111.44442, -7.02807], [111.7262, -6.93837], [112.03661, -6.74019], [112.357, -6.43977], [112.57178, -6.15053], [112.73821, -5.93508], [112.65542, -5.76759], [112.62481, -5.63646], [112.61198, -5.29671], [112.65582, -4.88866], [112.68052, -4.4387], [112.7103, -3.98116], [112.69933, -3.53502], [112.66669, -3.09781], [112.59631, -2.69542], [112.51075, -2.30806], [112.41904, -1.96159], [112.32368, -1.62578]]}}, {"type": "Feature", "properties": {"map_title": "불교의 전파 과정", "source": "미래엔 세계사 교과서 1권 38쪽", "volume": 1, "page": 38, "name": "대승 불교 전파(말레이반도→앙코르 와트)", "category": "전파 경로", "period": "", "legend": "대승 불교", "start": "말레이반도", "end": "앙코르 와트"}, "geometry": {"type": "LineString", "coordinates": [[107.30523, 4.12196], [107.73395, 4.20498], [108.12888, 4.30779], [108.44501, 4.44068], [108.69699, 4.61264], [108.92048, 4.79486], [109.12513, 4.98306], [109.29688, 5.19364], [109.62014, 5.61594], [109.89247, 6.06837], [110.03307, 6.29018], [110.15197, 6.52597], [110.27626, 6.75788], [110.40628, 6.98567], [110.51267, 7.22605], [110.6245, 7.46232], [110.74136, 7.69461], [110.83094, 7.93931], [110.92463, 8.18074], [111.02176, 8.41932], [111.08764, 8.67106], [111.22626, 9.16967], [111.33694, 10.12476], [111.28395, 11.15111], [111.0576, 12.2195], [110.85694, 12.7481], [110.64826, 13.27151], [110.35982, 13.75652], [110.21185, 13.9921], [110.05945, 14.22152], [109.87358, 14.42285], [109.68371, 14.61613], [109.48893, 14.79975], [109.28968, 14.97263], [109.07148, 15.11139], [108.86186, 15.24972], [108.67648, 15.40523], [108.53164, 15.58696], [108.3913, 15.75401], [108.23614, 15.91625], [108.06359, 16.08325], [107.88539, 16.27919]]}}, {"type": "Feature", "properties": {"map_title": "불교의 전파 과정", "source": "미래엔 세계사 교과서 1권 38쪽", "volume": 1, "page": 38, "name": "대승 불교 전파(쿠샨 왕조→둔황)", "category": "전파 경로", "period": "", "legend": "대승 불교", "start": "쿠샨 왕조", "end": "둔황"}, "geometry": {"type": "LineString", "coordinates": [[76.39377, 35.50771], [76.997, 35.9156], [77.61088, 36.32094], [78.51374, 36.80611], [79.12615, 37.12593], [80.02089, 37.51668], [80.93049, 37.90027], [81.96214, 38.2645], [83.00903, 38.61798], [83.66888, 38.80445], [84.66738, 39.07503], [85.33834, 39.24886], [86.42441, 39.47746], [87.15247, 39.62123], [87.88303, 39.75753], [88.22124, 39.80693], [88.89834, 39.90049], [89.57587, 39.98669], [90.25314, 40.06501], [90.59146, 40.10103], [91.29579, 40.1475], [91.99736, 40.18371], [92.69495, 40.20861], [93.38707, 40.22085]]}}, {"type": "Feature", "properties": {"map_title": "불교의 전파 과정", "source": "미래엔 세계사 교과서 1권 38쪽", "volume": 1, "page": 38, "name": "대승 불교 전파(둔황→윈강)", "category": "전파 경로", "period": "", "legend": "대승 불교", "start": "둔황", "end": "윈강"}, "geometry": {"type": "LineString", "coordinates": [[94.30592, 40.25914], [94.66452, 40.25912], [95.01805, 40.25161], [95.36768, 40.23819], [95.71423, 40.22], [96.05812, 40.19763], [96.70276, 40.14799], [97.30431, 40.09359], [97.90017, 40.0306], [98.49092, 39.96017], [99.38615, 39.86011], [99.9778, 39.7867], [100.56576, 39.70897], [101.44228, 39.61846], [102.60243, 39.49085], [104.58401, 39.37927], [105.67536, 39.41074], [106.49731, 39.44301], [107.1028, 39.53467], [107.71092, 39.63124], [108.32155, 39.73271], [109.16756, 39.99848], [110.01712, 40.27094]]}}, {"type": "Feature", "properties": {"map_title": "불교의 전파 과정", "source": "미래엔 세계사 교과서 1권 38쪽", "volume": 1, "page": 38, "name": "대승 불교 전파(둔황→장안)", "category": "전파 경로", "period": "", "legend": "대승 불교", "start": "둔황", "end": "장안"}, "geometry": {"type": "LineString", "coordinates": [[94.57779, 40.07362], [94.90845, 40.08109], [95.23523, 40.08269], [95.55913, 40.07977], [95.8806, 40.07295], [96.51724, 40.04921], [96.83155, 40.0152], [97.45511, 39.93952], [97.76455, 39.89821], [98.37916, 39.80946], [99.28424, 39.6069], [100.17841, 39.39129], [101.05235, 39.10597], [101.91713, 38.81296], [102.75978, 38.45166], [103.59486, 38.08742], [105.21116, 37.22623], [105.99077, 36.73046], [106.76716, 36.24218], [107.51695, 35.68982], [108.26759, 35.15244]]}}, {"type": "Feature", "properties": {"map_title": "불교의 전파 과정", "source": "미래엔 세계사 교과서 1권 38쪽", "volume": 1, "page": 38, "name": "대승 불교 전파(장안→룽먼)", "category": "전파 경로", "period": "", "legend": "대승 불교", "start": "장안", "end": "룽먼"}, "geometry": {"type": "LineString", "coordinates": [[108.73963, 34.29401], [109.06256, 34.29634], [109.38991, 34.3048], [110.04222, 34.2962], [110.68814, 34.26006], [111.32214, 34.19129], [111.93923, 34.08528], [112.53437, 33.93728], [113.10241, 33.74211], [113.63803, 33.4942]]}}, {"type": "Feature", "properties": {"map_title": "불교의 전파 과정", "source": "미래엔 세계사 교과서 1권 38쪽", "volume": 1, "page": 38, "name": "대승 불교 전파(장안→전진)", "category": "전파 경로", "period": "", "legend": "대승 불교", "start": "장안", "end": "전진"}, "geometry": {"type": "LineString", "coordinates": [[108.9561, 34.29595], [109.49149, 34.51183], [110.31, 34.85497], [111.61898, 35.59718], [112.81276, 36.47094], [113.8224, 37.42626], [114.28309, 38.03052], [114.57769, 38.42347], [115.06647, 39.4981], [115.11974, 39.73689], [115.17863, 39.97859], [115.24319, 40.22256], [115.31322, 40.46812], [115.38832, 40.71457], [115.42691, 41.23539], [115.50271, 42.01217]]}}, {"type": "Feature", "properties": {"map_title": "불교의 전파 과정", "source": "미래엔 세계사 교과서 1권 38쪽", "volume": 1, "page": 38, "name": "대승 불교 전파(전진→고구려)", "category": "전파 경로", "period": "", "legend": "대승 불교", "start": "전진", "end": "고구려"}, "geometry": {"type": "LineString", "coordinates": [[118.18912, 43.1682], [118.78309, 43.14127], [119.3741, 43.09127], [119.95777, 43.01506], [120.52953, 42.90984], [121.08469, 42.77315], [121.61841, 42.60295], [122.12571, 42.39767], [122.60132, 42.15628]]}}, {"type": "Feature", "properties": {"map_title": "불교의 전파 과정", "source": "미래엔 세계사 교과서 1권 38쪽", "volume": 1, "page": 38, "name": "대승 불교 전파(고구려→신라)", "category": "전파 경로", "period": "", "legend": "대승 불교", "start": "고구려", "end": "신라"}, "geometry": {"type": "LineString", "coordinates": [[126.34009, 39.99075], [126.4086, 39.73898], [126.53882, 39.4713], [126.6921, 39.21322], [126.83904, 38.98949], [127.02134, 38.80027], [127.27353, 38.63307], [127.5802, 38.48133], [127.90713, 38.35017]]}}, {"type": "Feature", "properties": {"map_title": "불교의 전파 과정", "source": "미래엔 세계사 교과서 1권 38쪽", "volume": 1, "page": 38, "name": "대승 불교 전파(백제→일본)", "category": "전파 경로", "period": "", "legend": "대승 불교", "start": "백제", "end": "일본"}, "geometry": {"type": "LineString", "coordinates": [[125.61715, 35.55698], [125.68691, 35.25207], [125.75625, 34.97012], [125.9923, 34.71009], [126.60162, 33.87124], [126.94982, 33.5123], [127.93692, 33.08336], [128.29752, 32.98415], [128.61339, 32.92507], [128.83922, 32.94656], [129.02909, 33.04202], [129.22189, 33.11743], [129.43379, 33.15871], [129.6632, 33.21181], [129.92533, 33.23445], [130.22047, 33.23554], [130.64076, 33.33874], [131.0557, 33.46177]]}}, {"type": "Feature", "properties": {"map_title": "불교의 전파 과정", "source": "미래엔 세계사 교과서 1권 38쪽", "volume": 1, "page": 38, "name": "대승 불교 전파(룽먼→동진)", "category": "전파 경로", "period": "", "legend": "대승 불교", "start": "룽먼", "end": "동진"}, "geometry": {"type": "LineString", "coordinates": [[114.46592, 33.18702], [115.34275, 32.8332], [115.83438, 32.5442], [116.07547, 32.39846], [116.46907, 32.05688], [116.65977, 31.88563], [116.808, 31.69017], [117.09117, 31.29976], [117.18948, 31.08101], [117.37663, 30.64559], [117.53949, 29.92676], [117.60698, 29.13971], [117.5932, 28.27531]]}}, {"type": "Feature", "properties": {"map_title": "불교의 전파 과정", "source": "미래엔 세계사 교과서 1권 38쪽", "volume": 1, "page": 38, "name": "대승 불교 전파(룽먼→동진)", "category": "전파 경로", "period": "", "legend": "대승 불교", "start": "룽먼", "end": "동진"}, "geometry": {"type": "LineString", "coordinates": [[114.30208, 33.19997], [113.99152, 32.39346], [113.82309, 31.51524], [113.79108, 30.60429], [113.82656, 30.3035], [113.89029, 29.70095], [113.96896, 29.41678], [114.11838, 28.84843], [114.47802, 28.09312], [114.97868, 27.4833], [115.63691, 27.0649]]}}, {"type": "Feature", "properties": {"map_title": "불교의 전파 과정", "source": "미래엔 세계사 교과서 1권 38쪽", "volume": 1, "page": 38, "name": "대승 불교 전파(동진→앙코르 와트)", "category": "전파 경로", "period": "", "legend": "대승 불교", "start": "동진", "end": "앙코르 와트"}, "geometry": {"type": "LineString", "coordinates": [[117.32574, 26.25123], [117.19693, 25.79947], [116.9988, 25.36561], [116.74296, 24.96116], [116.43668, 24.59909], [116.08826, 24.28224], [115.71484, 23.99928], [115.33485, 23.73251], [114.68437, 23.28796], [114.40416, 23.10288], [114.11163, 22.9148], [113.81201, 22.73102], [113.51892, 22.57015], [113.24588, 22.45477], [112.97048, 22.38396], [112.66598, 22.34992], [111.89897, 22.32382], [111.49759, 22.29647], [111.10484, 22.23727], [110.74093, 22.15981], [110.41911, 22.07969], [110.14001, 22.022], [109.89128, 21.99438], [109.65567, 21.98447], [109.41179, 21.96869], [109.12238, 21.92508], [108.30498, 21.82081], [107.83968, 21.77307], [106.95466, 21.66387], [106.56208, 21.59108], [106.19429, 21.48885], [105.85596, 21.35136], [105.5516, 21.17583], [105.28522, 20.96226], [105.06049, 20.71252], [104.88104, 20.42906], [104.75081, 20.11412], [104.66807, 19.65492], [104.69313, 19.18205], [104.81272, 18.71734], [105.01245, 18.28125], [105.28085, 17.89245], [105.61048, 17.5666], [105.99322, 17.31425], [106.41331, 17.13667]]}}, {"type": "Feature", "properties": {"map_title": "불교의 전파 과정", "source": "미래엔 세계사 교과서 1권 38쪽", "volume": 1, "page": 38, "name": "대승 불교 전파(부다가야→팔렘방)", "category": "전파 경로", "period": "", "legend": "대승 불교", "start": "부다가야", "end": "팔렘방"}, "geometry": {"type": "LineString", "coordinates": [[85.04576, 24.96591], [85.08537, 24.68601], [85.14772, 24.40662], [85.22676, 24.12877], [85.31787, 23.8531], [85.41738, 23.57998], [85.522, 23.30967], [85.83277, 22.52614], [86.0177, 22.02993], [86.11092, 21.76251], [86.3218, 21.1155], [86.42404, 20.81801], [86.6043, 20.35875], [86.63717, 20.26392], [86.7023, 20.14165], [86.80457, 20.00244], [86.9316, 19.84632], [87.07515, 19.67726], [87.45879, 19.27307], [87.66055, 19.0541], [87.86512, 18.82542], [88.07054, 18.5878], [88.2941, 18.35946], [88.51606, 18.1232], [88.73535, 17.87946], [88.95109, 17.62866], [89.16258, 17.3713], [89.38512, 17.12189], [89.60226, 16.86683], [89.81359, 16.6068], [90.0188, 16.34257], [90.21767, 16.07505], [90.42213, 15.81507], [90.61965, 15.55347], [90.81016, 15.29148], [90.99366, 15.03052], [91.17018, 14.77219], [91.98401, 13.61867], [92.12879, 13.43106], [92.26571, 13.26317], [92.63428, 12.84805], [92.74537, 12.70213], [92.83239, 12.54478], [92.89277, 12.38764], [92.94555, 12.26356], [93.06278, 12.08362], [93.13733, 11.944], [93.23751, 11.7225], [93.47695, 11.16994], [93.63094, 10.82583], [93.79784, 10.47573], [93.98046, 10.12437], [94.18551, 9.77867], [94.41216, 9.43755], [94.66041, 9.10293], [94.93041, 8.77905], [95.21137, 8.46189], [95.77269, 7.84814], [96.03567, 7.55064], [96.27789, 7.25823], [96.50134, 6.9748], [96.70496, 6.69843], [96.89423, 6.43282], [97.07961, 6.19062], [97.26542, 5.98489], [97.45858, 5.83654], [97.66507, 5.74703], [97.87975, 5.67078], [98.09908, 5.56561], [98.31314, 5.41066], [98.50127, 5.19532], [98.65656, 4.92663], [98.80895, 4.56957], [98.95828, 4.18581], [99.14604, 3.8201], [99.47472, 3.57942], [100.05083, 3.57814], [100.65327, 3.60649], [101.12748, 3.52027], [101.32718, 3.18084], [101.44243, 2.80815], [101.59842, 2.472], [101.81224, 2.19915], [102.36055, 1.78265], [102.61847, 1.50499], [102.84746, 1.15271], [103.04801, 0.79434], [103.21088, 0.48894], [103.54546, -0.16542], [103.74048, -0.51796], [103.95497, -0.89467], [104.15768, -1.27989], [104.32336, -1.6649], [104.42906, -2.04586]]}}, {"type": "Feature", "properties": {"map_title": "불교의 전파 과정", "source": "미래엔 세계사 교과서 1권 38쪽", "volume": 1, "page": 38, "name": "대승 불교 전파(팔렘방→보로부두르)", "category": "전파 경로", "period": "", "legend": "대승 불교", "start": "팔렘방", "end": "보로부두르"}, "geometry": {"type": "LineString", "coordinates": [[104.74325, -3.08398], [104.94086, -3.35775], [105.2867, -3.89221], [105.45972, -4.16916], [105.65479, -4.46455], [105.91196, -4.80525], [106.27708, -5.19003], [106.67724, -5.59562], [107.0719, -5.95954], [107.4297, -6.22251], [108.006, -6.5004], [108.25439, -6.59353], [108.53973, -6.67659], [108.92003, -6.73027], [109.34506, -6.79974]]}}, {"type": "Feature", "properties": {"map_title": "불교의 전파 과정", "source": "미래엔 세계사 교과서 1권 38쪽", "volume": 1, "page": 38, "name": "대승 불교 전파(동진→백제)", "category": "전파 경로", "period": "", "legend": "대승 불교", "start": "동진", "end": "백제"}, "geometry": {"type": "LineString", "coordinates": [[118.64269, 27.3174], [118.96907, 28.69566], [119.23811, 29.48321], [119.33068, 29.73675], [119.426, 29.98235], [119.54386, 30.20877], [119.66467, 30.43011], [120.04222, 31.10466], [120.33144, 31.54073], [120.47102, 31.75671], [120.60362, 31.97124], [120.83871, 32.37683], [120.91902, 32.55466], [120.95772, 32.70945], [120.95939, 32.83313], [120.95533, 32.9382], [121.02834, 33.07817], [121.18236, 33.28108], [121.3782, 33.51514], [121.6007, 33.76624], [121.84314, 34.02671], [122.1231, 34.28649], [122.41783, 34.54625], [122.72448, 34.80203], [123.04017, 35.05043], [123.36173, 35.28883], [123.70803, 35.51156], [124.05152, 35.72142], [124.70617, 36.11039], [125.0049, 36.2977]]}}, {"type": "Feature", "properties": {"map_title": "불교의 전파 과정", "source": "미래엔 세계사 교과서 1권 38쪽", "volume": 1, "page": 38, "name": "상좌부 불교 전파(파간→타이)", "category": "전파 경로", "period": "", "legend": "상좌부 불교", "start": "파간", "end": "타이"}, "geometry": {"type": "LineString", "coordinates": [[95.1273, 20.05121], [95.37496, 20.14626], [95.6173, 20.25182], [96.09632, 20.46823], [96.33752, 20.56499], [96.58251, 20.64446], [96.83332, 20.69936], [97.09249, 20.72275], [97.50387, 20.67897], [97.86083, 20.54153], [98.16723, 20.3272], [98.42515, 20.0514], [98.63584, 19.72876], [98.80009, 19.37331], [98.91824, 18.99857], [98.99011, 18.6176], [99.01599, 18.35541], [99.02899, 18.09244], [99.0323, 17.82941], [99.02911, 17.56694], [99.0092, 16.78571], [99.00589, 16.52769]]}}, {"type": "Feature", "properties": {"map_title": "불교의 전파 과정", "source": "미래엔 세계사 교과서 1권 38쪽", "volume": 1, "page": 38, "name": "상좌부 불교 전파(부다가야→파간)", "category": "전파 경로", "period": "", "legend": "상좌부 불교", "start": "부다가야", "end": "파간"}, "geometry": {"type": "LineString", "coordinates": [[84.89036, 24.73807], [85.52168, 24.92202], [86.19478, 24.98694], [86.88816, 24.95729], [87.58845, 24.85616], [88.28394, 24.70668], [88.96216, 24.53244], [90.20435, 24.19439], [90.49965, 24.10877], [90.77933, 24.01604], [91.03876, 23.91292], [91.28894, 23.80022], [92.05277, 23.42331], [92.61333, 23.16276], [92.90954, 23.03448], [93.22061, 22.90758], [93.54919, 22.78749], [93.89816, 22.67153], [94.26356, 22.56362], [94.64592, 22.45789], [95.03533, 22.3558]]}}, {"type": "Feature", "properties": {"map_title": "불교의 전파 과정", "source": "미래엔 세계사 교과서 1권 38쪽", "volume": 1, "page": 38, "name": "상좌부 불교 전파(타이→말레이반도)", "category": "전파 경로", "period": "", "legend": "상좌부 불교", "start": "타이", "end": "말레이반도"}, "geometry": {"type": "LineString", "coordinates": [[100.32835, 12.86829], [100.15956, 12.57324], [100.07184, 12.28016], [100.16481, 11.96436], [100.36554, 11.60981], [100.58622, 11.25058], [100.80138, 10.88996], [100.99874, 10.52494], [101.16863, 10.15212], [101.32049, 9.74434], [101.4524, 9.31787], [101.56325, 8.87112], [101.65054, 8.40794], [101.7114, 7.94229], [101.74405, 7.50189], [101.74899, 7.1284], [101.73037, 6.85279]]}}, {"type": "Feature", "properties": {"map_title": "불교의 전파 과정", "source": "미래엔 세계사 교과서 1권 38쪽", "volume": 1, "page": 38, "name": "상좌부 불교 전파(타이→앙코르 와트)", "category": "전파 경로", "period": "", "legend": "상좌부 불교", "start": "타이", "end": "앙코르 와트"}, "geometry": {"type": "LineString", "coordinates": [[101.14239, 14.57575], [101.57523, 14.57448], [102.05494, 14.52963], [102.55753, 14.44885], [103.06053, 14.33773], [103.5449, 14.19746], [103.99393, 14.02407], [104.39114, 13.81017], [104.71953, 13.54846]]}}, {"type": "Feature", "properties": {"map_title": "불교의 전파 과정", "source": "미래엔 세계사 교과서 1권 38쪽", "volume": 1, "page": 38, "name": "상좌부 불교 전파(마우리아 왕조→실론섬)", "category": "전파 경로", "period": "", "legend": "상좌부 불교", "start": "마우리아 왕조", "end": "실론섬"}, "geometry": {"type": "LineString", "coordinates": [[73.97351, 18.95649], [73.73302, 18.8336], [73.51206, 18.71032], [73.31533, 18.58901], [73.14939, 18.47238], [73.02562, 18.36299], [72.97085, 18.22144], [72.97405, 18.08761], [73.00938, 17.95814], [73.1178, 17.70726], [73.16857, 17.54656], [73.18492, 17.37908], [73.14489, 17.19885], [73.06642, 17.01053], [72.96538, 16.81823], [72.87127, 16.59323], [72.76838, 16.36749], [72.65897, 16.14165], [72.42655, 15.69098], [72.24287, 15.19407], [71.96118, 14.45599], [71.78776, 13.67092], [71.67717, 13.15319], [71.64332, 12.3438], [71.63057, 11.80998], [71.73894, 11.12643], [71.82097, 10.67478], [71.86542, 10.45031], [71.96754, 10.15069], [72.07446, 9.85258], [72.20683, 9.57259], [72.34456, 9.29401], [72.50569, 9.03465], [72.67313, 8.77662], [72.86244, 8.539], [73.06024, 8.30274], [73.28055, 8.08826], [73.50949, 7.87498], [73.7548, 7.68422], [74.0071, 7.49434], [74.27169, 7.32798], [74.54281, 7.1623], [75.10879, 6.88072], [75.7282, 6.63833], [76.39395, 6.43959], [77.09926, 6.29091], [77.58507, 6.22835], [77.83478, 6.19864], [78.58099, 6.1659], [79.29328, 6.18862], [79.70021, 6.23395], [79.8741, 6.24818], [79.99705, 6.27537], [80.05822, 6.28464], [80.06614, 6.27835]]}}, {"type": "Feature", "properties": {"map_title": "불교의 전파 과정", "source": "미래엔 세계사 교과서 1권 38쪽", "volume": 1, "page": 38, "name": "상좌부 불교 전파(실론섬→파간)", "category": "전파 경로", "period": "", "legend": "상좌부 불교", "start": "실론섬", "end": "파간"}, "geometry": {"type": "LineString", "coordinates": [[81.96201, 8.48183], [82.22087, 8.93084], [82.46951, 9.38059], [82.71111, 9.83564], [82.82951, 10.06538], [83.06122, 10.5283], [83.3253, 10.97681], [83.58411, 11.42529], [84.21325, 12.53805], [84.93125, 13.56681], [85.50493, 14.37147], [86.48607, 15.46762], [86.97426, 16.02398], [88.09596, 17.05666], [88.48984, 17.41041], [88.69273, 17.58839], [89.15539, 17.89609], [89.63488, 18.20229], [90.12697, 18.50537], [90.87261, 18.95033], [92.13643, 19.50155], [92.57823, 19.68387], [92.7761, 19.75821], [92.9499, 19.81243], [93.09957, 19.80516], [93.22115, 19.78503], [93.32821, 19.77612], [93.43007, 19.79436], [93.53953, 19.84394], [93.67733, 19.91459], [93.86252, 19.99296], [94.08787, 20.07292], [94.34046, 20.15344]]}}, {"type": "Feature", "properties": {"map_title": "불교의 전파 과정", "source": "미래엔 세계사 교과서 1권 38쪽", "volume": 1, "page": 38, "name": "상좌부 불교 전파(실론섬→말레이반도)", "category": "전파 경로", "period": "", "legend": "상좌부 불교", "start": "실론섬", "end": "말레이반도"}, "geometry": {"type": "LineString", "coordinates": [[83.21437, 8.66022], [83.90912, 9.08913], [84.64317, 9.45179], [84.89922, 9.55117], [85.41424, 9.74692], [86.21694, 9.97455], [87.04255, 10.13618], [87.87907, 10.23465], [88.15837, 10.24906], [88.71151, 10.27389], [89.52232, 10.2585], [90.29918, 10.16498], [90.78818, 10.09626], [91.02191, 10.05962], [91.24742, 10.0212], [91.45652, 9.95047], [91.65622, 9.87695], [91.84565, 9.80015], [92.02388, 9.71967], [92.18992, 9.63526], [92.34263, 9.54705], [92.48053, 9.45595], [92.61477, 9.31921], [92.71781, 9.19628], [92.77263, 9.11982], [92.897, 9.01827], [92.99024, 8.93575], [93.23144, 8.63325], [93.39107, 8.44773], [93.59361, 8.25584], [93.85321, 8.07507], [94.14161, 7.89291], [94.7268, 7.46335], [95.01268, 7.24579], [95.28531, 7.02969], [95.54099, 6.8166], [95.77861, 6.60635], [95.98448, 6.37589], [96.17564, 6.1465], [96.53647, 5.68912], [96.71775, 5.47407], [96.90673, 5.30044], [97.06659, 5.21844], [97.23457, 5.17224], [97.41515, 5.13167], [97.6191, 5.07982], [97.84039, 5.00385], [98.04429, 4.89232], [98.20946, 4.73965], [98.33109, 4.54357], [98.42831, 4.32949], [98.51958, 4.11203], [98.62168, 3.90467], [98.74566, 3.71526], [98.87256, 3.50845], [99.0163, 3.30232]]}}, {"type": "Feature", "properties": {"map_title": "불교의 전파 과정", "source": "미래엔 세계사 교과서 1권 38쪽", "volume": 1, "page": 38, "name": "상좌부 불교 전파(수마트라섬→보로부두르)", "category": "전파 경로", "period": "", "legend": "상좌부 불교", "start": "수마트라섬", "end": "보로부두르"}, "geometry": {"type": "LineString", "coordinates": [[99.41544, 2.50762], [99.5157, 2.2504], [99.70309, 1.71746], [99.80438, 1.45559], [99.91632, 1.20154], [100.03989, 0.95479], [100.18429, 0.71841], [100.33859, 0.48389], [100.5018, 0.24899], [100.67265, 0.01218], [101.03109, -0.47038], [101.61378, -1.18981], [102.20138, -1.94149], [102.61739, -2.4263], [102.82979, -2.66818], [103.04504, -2.90752], [103.47833, -3.37377], [104.00522, -3.86298], [104.25876, -4.09374], [104.51079, -4.31448], [104.76749, -4.52856], [105.03507, -4.72353], [105.30809, -4.93579], [105.58774, -5.17809], [105.87585, -5.45677], [106.17129, -5.76761], [106.73032, -6.38549], [107.00922, -6.65971], [107.2871, -6.88404], [107.56091, -7.05599], [107.83081, -7.15817], [108.10322, -7.22405], [108.38864, -7.26655], [108.69661, -7.30336], [109.02764, -7.35517]]}}, {"type": "Feature", "properties": {"map_title": "불교의 전파 과정", "source": "미래엔 세계사 교과서 1권 38쪽", "volume": 1, "page": 38, "name": "상좌부 불교 전파(보로부두르→자와섬)", "category": "전파 경로", "period": "", "legend": "상좌부 불교", "start": "보로부두르", "end": "자와섬"}, "geometry": {"type": "LineString", "coordinates": [[110.15828, -7.63302], [110.40591, -7.74863], [110.67669, -7.82592], [111.02022, -7.91548], [111.23796, -7.9498], [111.47069, -7.97462], [111.73039, -7.97623], [112.23415, -7.97304], [112.47175, -7.99027], [112.72466, -8.02258], [113.00096, -8.0836], [113.31737, -8.16548], [113.64313, -8.2598]]}}, {"type": "Feature", "properties": {"map_title": "불교의 전파 과정", "source": "미래엔 세계사 교과서 1권 38쪽", "volume": 1, "page": 38, "name": "상좌부 불교 전파(부다가야→간다라)", "category": "전파 경로", "period": "", "legend": "상좌부 불교", "start": "부다가야", "end": "간다라"}, "geometry": {"type": "LineString", "coordinates": [[84.386, 25.74952], [83.70775, 26.06023], [83.44245, 26.19376], [83.33572, 26.25483], [83.12852, 26.38523], [82.92399, 26.52022], [82.72191, 26.6594], [82.52212, 26.80237], [82.32445, 26.94874], [81.93499, 27.25007], [81.74294, 27.4043], [81.32851, 27.74775], [80.92055, 28.09919], [80.5186, 28.45765], [80.12224, 28.82224], [79.73102, 29.19214], [79.3445, 29.56658], [78.96218, 29.94477], [78.58357, 30.32592], [77.90199, 31.02734], [77.23001, 31.73897], [76.56734, 32.4606], [75.91344, 33.19168]]}}]}