{"type": "FeatureCollection", "features": [{"type": "Feature", "properties": {"map_title": "불교의 전파 과정", "source": "미래엔 세계사 교과서 1권 38쪽", "volume": 1, "page": 38, "name": "만달레이", "name_en": "Mandalay", "category": "도시", "year": null, "coord_source": "실제 위치", "map_lon": 96.07973, "map_lat": 21.96987, "legend": "만달레이"}, "geometry": {"type": "Point", "coordinates": [96.08, 21.97]}}, {"type": "Feature", "properties": {"map_title": "불교의 전파 과정", "source": "미래엔 세계사 교과서 1권 38쪽", "volume": 1, "page": 38, "name": "파간", "name_en": "Bagan", "category": "유적", "year": null, "coord_source": "실제 위치", "map_lon": 95.35454, "map_lat": 20.10139, "legend": "파간"}, "geometry": {"type": "Point", "coordinates": [94.86, 21.17]}}, {"type": "Feature", "properties": {"map_title": "불교의 전파 과정", "source": "미래엔 세계사 교과서 1권 38쪽", "volume": 1, "page": 38, "name": "장안", "name_en": "Chang'an (Xi'an)", "category": "수도", "year": null, "coord_source": "실제 위치", "map_lon": 108.94003, "map_lat": 34.26002, "legend": "장안"}, "geometry": {"type": "Point", "coordinates": [108.94, 34.26]}}, {"type": "Feature", "properties": {"map_title": "불교의 전파 과정", "source": "미래엔 세계사 교과서 1권 38쪽", "volume": 1, "page": 38, "name": "둔황", "name_en": "Dunhuang", "category": "유적", "year": null, "coord_source": "실제 위치", "map_lon": 94.65997, "map_lat": 40.13997, "legend": "둔황"}, "geometry": {"type": "Point", "coordinates": [94.66, 40.14]}}, {"type": "Feature", "properties": {"map_title": "불교의 전파 과정", "source": "미래엔 세계사 교과서 1권 38쪽", "volume": 1, "page": 38, "name": "부다가야", "name_en": "Bodh Gaya", "category": "유적", "year": null, "coord_source": "실제 위치", "map_lon": 84.99007, "map_lat": 24.69998, "legend": "부다가야"}, "geometry": {"type": "Point", "coordinates": [84.99, 24.7]}}, {"type": "Feature", "properties": {"map_title": "불교의 전파 과정", "source": "미래엔 세계사 교과서 1권 38쪽", "volume": 1, "page": 38, "name": "앙코르 와트", "name_en": "Angkor Wat", "category": "유적", "year": null, "coord_source": "실제 위치", "map_lon": 105.21821, "map_lat": 12.5182, "legend": "앙코르 와트"}, "geometry": {"type": "Point", "coordinates": [103.87, 13.41]}}, {"type": "Feature", "properties": {"map_title": "불교의 전파 과정", "source": "미래엔 세계사 교과서 1권 38쪽", "volume": 1, "page": 38, "name": "보로부두르", "name_en": "Borobudur", "category": "유적", "year": null, "coord_source": "실제 위치", "map_lon": 110.1995, "map_lat": -7.6084, "legend": "보로부두르"}, "geometry": {"type": "Point", "coordinates": [110.2, -7.61]}}, {"type": "Feature", "properties": {"map_title": "불교의 전파 과정", "source": "미래엔 세계사 교과서 1권 38쪽", "volume": 1, "page": 38, "name": "팔렘방", "name_en": "Palembang", "category": "도시", "year": null, "coord_source": "실제 위치", "map_lon": 104.75966, "map_lat": -2.99001, "legend": "팔렘방"}, "geometry": {"type": "Point", "coordinates": [104.76, -2.99]}}, {"type": "Feature", "properties": {"map_title": "불교의 전파 과정", "source": "미래엔 세계사 교과서 1권 38쪽", "volume": 1, "page": 38, "name": "윈강", "name_en": "Yungang Grottoes", "category": "유적", "year": null, "coord_source": "실제 위치", "map_lon": 111.22097, "map_lat": 40.2052, "legend": "윈강"}, "geometry": {"type": "Point", "coordinates": [113.13, 40.11]}}, {"type": "Feature", "properties": {"map_title": "불교의 전파 과정", "source": "미래엔 세계사 교과서 1권 38쪽", "volume": 1, "page": 38, "name": "룽먼", "name_en": "Longmen Grottoes", "category": "유적", "year": null, "coord_source": "실제 위치", "map_lon": 114.38155, "map_lat": 33.13653, "legend": "룽먼"}, "geometry": {"type": "Point", "coordinates": [112.47, 34.56]}}]}