{"type": "FeatureCollection", "features": [{"type": "Feature", "properties": {"map_title": "오스만 제국의 영역", "source": "미래엔 세계사 교과서 3권 130쪽", "volume": 3, "page": 130, "name": "오스만 제국(1300년경)", "name_en": "Ottoman Empire c.1300", "period": "1300년경", "kind": "국가", "legend": "1300년경 오스만 제국", "coast_snap": "Natural Earth 10m 해안선에 맞춤"}, "geometry": {"type": "MultiPolygon", "coordinates": [[[[28.48677, 40.39988], [28.46754, 40.39435], [28.45883, 40.37946], [28.49949, 40.39109], [28.54542, 40.39129], [28.59278, 40.38189], [28.63771, 40.36518], [28.64381, 40.37123], [28.65805, 40.36518], [28.6854, 40.37945], [28.74187, 40.38642], [28.77199, 40.40252], [28.88404, 40.38629], [28.93873, 40.36518], [29.05161, 40.36734], [29.06568, 40.37572], [29.09011, 40.42722], [29.11899, 40.42365], [29.15154, 40.43407], [29.13356, 40.45075], [29.0879, 40.47748], [29.06568, 40.48188], [29.011, 40.48188], [28.96949, 40.46138], [28.91668, 40.47091], [28.82846, 40.51301], [28.7742, 40.52278], [28.79266, 40.55328], [28.82684, 40.57061], [28.89772, 40.59174], [28.92774, 40.60643], [28.97007, 40.63946], [28.98634, 40.64475], [29.28159, 40.66592], [29.32325, 40.67674], [29.39185, 40.70782], [29.41684, 40.68675], [29.46144, 40.70417], [29.47007, 40.71893], [29.47927, 40.72406], [29.50087, 40.72886], [29.5277, 40.72135], [29.54223, 40.70966], [29.54884, 40.69098], [29.75352, 40.72456], [29.8672, 40.7289], [29.90357, 40.71625], [29.92416, 40.71646], [29.9393, 40.73505], [29.92921, 40.75804], [29.89015, 40.7635], [29.7754, 40.74873], [29.73756, 40.76984], [29.66619, 40.78351], [29.42872, 40.77607], [29.37778, 40.75655], [29.35695, 40.76241], [29.33953, 40.78758], [29.32914, 40.79035], [29.34344, 40.7978], [29.33953, 40.80781], [29.31544, 40.82445], [29.31105, 40.8182], [29.30177, 40.82445], [29.2932, 40.8186], [29.25458, 40.81079], [29.25458, 40.81703], [29.27076, 40.82185], [29.2746, 40.83876], [29.28826, 40.83128], [29.28842, 40.83779], [29.29493, 40.83877], [29.26393, 40.86978], [29.24098, 40.88255], [29.22047, 40.87972], [29.20135, 40.89395], [29.14479, 40.91414], [29.08318, 40.95966], [29.0281, 40.98213], [29.03484, 40.98957], [29.0233, 40.99336], [29.00758, 41.0305], [29.02605, 41.03827], [29.06235, 41.07632], [29.09059, 41.14094], [29.06926, 41.15297], [29.09262, 41.18036], [29.12983, 41.21171], [29.16969, 41.23309], [29.20623, 41.22919], [29.21616, 41.2394], [29.23207, 41.24067], [29.41974, 41.21428], [29.61883, 41.1789], [29.88461, 41.14899], [30.13689, 41.14378], [30.16521, 41.14663], [30.21705, 41.16714], [30.24049, 41.19231], [30.2483, 41.18757], [30.27126, 41.21116], [30.28248, 41.21551], [30.29558, 41.20742], [30.33668, 41.20082], [30.36997, 41.18134], [30.69922, 41.12152], [30.74806, 41.09199], [30.83326, 41.0799], [30.96496, 41.08265], [30.97176, 41.008], [30.95954, 40.93845], [30.94671, 40.90447], [30.92933, 40.8712], [30.88306, 40.81047], [30.82142, 40.75706], [30.76631, 40.72384], [30.74594, 40.72588], [30.61726, 40.74575], [30.53461, 40.77024], [30.49032, 40.78916], [30.41312, 40.80112], [30.4065, 40.79329], [30.41269, 40.74464], [30.40357, 40.66674], [30.34588, 40.67805], [30.26742, 40.70421], [30.25736, 40.70284], [30.22527, 40.63318], [30.20214, 40.59832], [30.13762, 40.5301], [30.07112, 40.4829], [29.97405, 40.43679], [29.96359, 40.39811], [29.96575, 40.36363], [29.98301, 40.31191], [30.01254, 40.26589], [30.04404, 40.23853], [30.08136, 40.22014], [30.12616, 40.20647], [30.19822, 40.19069], [30.24683, 40.18715], [30.27655, 40.1794], [30.35881, 40.14396], [30.39275, 40.11742], [30.42052, 40.06715], [30.41942, 39.98476], [30.39171, 39.9499], [30.37406, 39.93805], [30.33934, 39.9273], [30.21191, 39.9231], [30.04127, 39.93424], [29.81612, 39.93204], [29.60829, 39.9041], [29.03285, 39.85354], [28.9097, 39.83312], [28.66594, 39.78209], [28.60377, 39.77323], [28.43875, 39.76443], [28.39795, 39.76981], [28.33164, 39.79043], [28.26902, 39.82485], [28.23882, 39.83053], [28.21962, 39.8707], [28.2173, 39.92533], [28.22566, 39.96274], [28.26304, 40.034], [28.25371, 40.04016], [28.20838, 40.0388], [28.17361, 40.03024], [28.12817, 40.08481], [28.1089, 40.1174], [28.08369, 40.18485], [28.07753, 40.22033], [28.07891, 40.29049], [28.08634, 40.32538], [28.11671, 40.39622], [28.34769, 40.40403], [28.4004, 40.39741], [28.48677, 40.39988]]], [[[28.53631, 40.56508], [28.5472, 40.56102], [28.53157, 40.51468], [28.51906, 40.51021], [28.51614, 40.51785], [28.52272, 40.54499], [28.51907, 40.56146], [28.53631, 40.56508]]], [[[29.12988, 40.8705], [29.11784, 40.8326], [29.10452, 40.83943], [29.11152, 40.8655], [29.12988, 40.8705]]], [[[28.96047, 41.00301], [28.94614, 41.00947], [28.92839, 40.99581], [28.89926, 40.98429], [28.84995, 40.97529], [28.83374, 40.96395], [28.82203, 40.96163], [28.78599, 40.96565], [28.77019, 40.97932], [28.62526, 40.96842], [28.59524, 40.97798], [28.60353, 41.00947], [28.59181, 41.01887], [28.57553, 41.02367], [28.58253, 41.04637], [28.57244, 41.06647], [28.55193, 41.08051], [28.52784, 41.08515], [28.53289, 41.07062], [28.55454, 41.05366], [28.56251, 41.03677], [28.5602, 41.01204], [28.55355, 40.99836], [28.54135, 40.98958], [28.51247, 40.99267], [28.4607, 41.03286], [28.43531, 41.04291], [28.40857, 41.04647], [28.51873, 41.10037], [28.52511, 41.153], [28.5462, 41.21743], [28.58257, 41.27775], [28.65165, 41.35925], [28.90846, 41.26655], [29.00715, 41.24973], [29.02426, 41.24283], [29.04518, 41.2564], [29.06838, 41.25377], [29.09391, 41.2464], [29.10921, 41.23529], [29.08676, 41.19188], [29.06935, 41.17471], [29.04078, 41.16429], [29.07065, 41.13019], [29.04217, 41.06635], [29.0315, 41.05386], [29.00554, 41.0445], [28.98951, 41.03107], [28.99219, 41.00804], [28.98168, 41.00167], [28.96047, 41.00301]]]]}}]}