{"type": "FeatureCollection", "features": [{"type": "Feature", "properties": {"map_title": "제1차 세계 대전 전후의 유럽", "source": "미래엔 세계사 교과서 4권 184쪽", "volume": 4, "page": 184, "legend": "제1차 세계 대전 이후 새로운 국가", "name": "아일랜드", "name_en": "Ireland", "period": "1922", "kind": "국가", "phase": "전후", "group": "새로운 국가", "coast_snap": "Natural Earth 10m 해안선에 맞춤", "border_snap": "현대 국경(Natural Earth 10m)에 맞춘 구간 약 234 km"}, "geometry": {"type": "MultiPolygon", "coordinates": [[[[-9.81355, 51.62764], [-9.89184, 51.61134], [-9.91787, 51.61939], [-9.91552, 51.62906], [-9.88166, 51.64106], [-9.79933, 51.63678], [-9.81355, 51.62764]]], [[[-10.40583, 51.8841], [-10.426, 51.88228], [-10.42901, 51.88984], [-10.412, 51.90411], [-10.35167, 51.93113], [-10.30164, 51.92478], [-10.2977, 51.9184], [-10.30455, 51.91071], [-10.36156, 51.89204], [-10.39623, 51.88984], [-10.40583, 51.8841]]], [[[-9.64246, 53.09383], [-9.66051, 53.09066], [-9.77871, 53.12349], [-9.81141, 53.1376], [-9.80083, 53.14647], [-9.7775, 53.14679], [-9.75219, 53.1354], [-9.71569, 53.13824], [-9.67106, 53.13051], [-9.66346, 53.1232], [-9.67154, 53.1092], [-9.64096, 53.10154], [-9.64246, 53.09383]]], [[[-9.76015, 53.23175], [-9.74991, 53.2322], [-9.73639, 53.24562], [-9.72411, 53.24156], [-9.72567, 53.22567], [-9.76063, 53.22742], [-9.76015, 53.23175]]], [[[-9.69237, 53.2264], [-9.71036, 53.23859], [-9.72006, 53.26606], [-9.69888, 53.28067], [-9.67146, 53.28075], [-9.63834, 53.25104], [-9.65833, 53.23266], [-9.69237, 53.2264]]], [[[-9.87318, 53.30575], [-9.85582, 53.31037], [-9.84523, 53.29702], [-9.84579, 53.28735], [-9.85395, 53.29702], [-9.87318, 53.30575]]], [[[-10.0043, 53.81428], [-9.98542, 53.82517], [-9.94797, 53.80833], [-9.96008, 53.79764], [-9.97798, 53.79228], [-10.0486, 53.79048], [-10.05005, 53.80324], [-10.0043, 53.81428]]], [[[-10.14236, 54.00605], [-10.13443, 54.00031], [-10.10888, 54.00458], [-10.06322, 54.02276], [-9.97591, 54.02113], [-9.95687, 54.01601], [-9.93638, 53.98925], [-9.95686, 53.98924], [-9.95469, 53.97334], [-9.96361, 53.95384], [-9.93066, 53.95904], [-9.92268, 53.94709], [-9.93737, 53.92353], [-9.93635, 53.89248], [-9.958, 53.88061], [-9.97678, 53.88688], [-10.0183, 53.91291], [-10.05552, 53.91373], [-10.05582, 53.95881], [-10.06664, 53.9676], [-10.08723, 53.97138], [-10.16283, 53.96138], [-10.20163, 53.96613], [-10.14236, 54.00605]]], [[[-9.5287, 51.42837], [-9.49217, 51.44879], [-9.47673, 51.4481], [-9.47645, 51.43891], [-9.48543, 51.43127], [-9.4978, 51.42716], [-9.50886, 51.42902], [-9.52195, 51.42021], [-9.5287, 51.42837]]], [[[-9.63936, 53.29661], [-9.64169, 53.29166], [-9.67504, 53.28518], [-9.70112, 53.28559], [-9.71221, 53.29824], [-9.68964, 53.30724], [-9.63936, 53.29661]]], [[[-10.37206, 52.1756], [-10.37314, 52.19782], [-10.36148, 52.20669], [-10.37578, 52.21284], [-10.36655, 52.22821], [-10.32055, 52.23457], [-10.27578, 52.26812], [-10.17187, 52.2868], [-10.1561, 52.27863], [-10.16625, 52.23456], [-10.10082, 52.24079], [-10.07144, 52.25129], [-10.04491, 52.26927], [-10.03604, 52.29035], [-10.05977, 52.30963], [-10.02477, 52.31011], [-10.01356, 52.30634], [-10.0183, 52.29605], [-10.00878, 52.25336], [-9.9475, 52.23762], [-9.87222, 52.23265], [-9.82559, 52.25825], [-9.81339, 52.25507], [-9.82649, 52.24824], [-9.81005, 52.24213], [-9.73766, 52.24824], [-9.75341, 52.25829], [-9.79918, 52.2613], [-9.84679, 52.27497], [-9.86188, 52.26815], [-9.86935, 52.27315], [-9.88107, 52.29603], [-9.85961, 52.28473], [-9.84923, 52.28474], [-9.83389, 52.28921], [-9.86189, 52.29605], [-9.86187, 52.30344], [-9.82649, 52.30964], [-9.83762, 52.3264], [-9.83446, 52.37523], [-9.85098, 52.38544], [-9.90371, 52.39156], [-9.93144, 52.39975], [-9.94992, 52.41209], [-9.93496, 52.42153], [-9.91588, 52.4256], [-9.84838, 52.42841], [-9.74893, 52.45673], [-9.7206, 52.47723], [-9.70352, 52.48354], [-9.6774, 52.48314], [-9.63463, 52.47358], [-9.63878, 52.48713], [-9.6505, 52.49384], [-9.68307, 52.49462], [-9.6752, 52.50483], [-9.68309, 52.51536], [-9.67321, 52.53388], [-9.67553, 52.54608], [-9.6483, 52.57037], [-9.64281, 52.56733], [-9.61791, 52.5772], [-9.57697, 52.57038], [-9.49747, 52.57037], [-9.47033, 52.56184], [-9.43878, 52.57709], [-9.35041, 52.5738], [-9.33584, 52.57802], [-9.27213, 52.57722], [-9.22029, 52.5856], [-9.19237, 52.60049], [-9.07063, 52.62417], [-9.0524, 52.63181], [-9.04418, 52.62084], [-9.00561, 52.62084], [-8.99112, 52.62499], [-8.97101, 52.6485], [-8.95994, 52.65228], [-8.78498, 52.66596], [-8.75117, 52.67296], [-8.76936, 52.67316], [-8.8675, 52.6933], [-8.93269, 52.68709], [-8.96083, 52.69368], [-8.96205, 52.70002], [-8.94937, 52.70694], [-8.95206, 52.73432], [-8.9545, 52.7447], [-8.96985, 52.74849], [-8.94262, 52.77521], [-9.00023, 52.76044], [-9.02359, 52.74714], [-9.0258, 52.73428], [-9.05823, 52.69677], [-9.1468, 52.62377], [-9.16576, 52.61758], [-9.25479, 52.6114], [-9.2858, 52.59081], [-9.3107, 52.59064], [-9.33305, 52.59773], [-9.27868, 52.62572], [-9.27896, 52.63931], [-9.31062, 52.62726], [-9.38334, 52.61317], [-9.43488, 52.61205], [-9.47544, 52.61958], [-9.49071, 52.6341], [-9.52488, 52.63704], [-9.53844, 52.64545], [-9.53327, 52.66096], [-9.54418, 52.66665], [-9.58072, 52.66596], [-9.58072, 52.65912], [-9.56339, 52.65306], [-9.55282, 52.63932], [-9.62841, 52.61759], [-9.69441, 52.60562], [-9.70687, 52.58023], [-9.71451, 52.57861], [-9.73082, 52.58405], [-9.75748, 52.57198], [-9.93633, 52.55672], [-9.93633, 52.56293], [-9.87563, 52.58681], [-9.82409, 52.59516], [-9.62165, 52.71377], [-9.62839, 52.72744], [-9.59325, 52.74111], [-9.5382, 52.74226], [-9.49865, 52.75251], [-9.4838, 52.78266], [-9.48931, 52.78734], [-9.4838, 52.79572], [-9.49126, 52.80316], [-9.4698, 52.81318], [-9.45035, 52.83047], [-9.43747, 52.85345], [-9.42919, 52.85773], [-9.42746, 52.87775], [-9.3653, 52.91413], [-9.35408, 52.9335], [-9.37287, 52.93716], [-9.4514, 52.93465], [-9.47762, 52.94034], [-9.3876, 53.00861], [-9.39492, 53.01564], [-9.34161, 53.07697], [-9.30333, 53.1079], [-9.27219, 53.14666], [-9.25109, 53.15191], [-9.18053, 53.11677], [-9.1586, 53.11103], [-9.09667, 53.12701], [-9.07287, 53.11848], [-9.07006, 53.13447], [-9.08434, 53.14346], [-9.12815, 53.15193], [-9.12815, 53.1594], [-9.06957, 53.16619], [-9.02343, 53.14716], [-9.00406, 53.14574], [-9.00406, 53.15192], [-9.04564, 53.1662], [-9.04563, 53.17372], [-9.00963, 53.16608], [-8.98668, 53.17698], [-8.97888, 53.17576], [-8.9842, 53.1662], [-8.97423, 53.15795], [-8.93639, 53.14574], [-8.95685, 53.17987], [-8.92821, 53.20588], [-8.89485, 53.22089], [-8.93269, 53.21467], [-9.03148, 53.21663], [-9.04561, 53.22089], [-9.02769, 53.22758], [-8.96312, 53.23518], [-8.96312, 53.24193], [-8.9911, 53.24193], [-8.9911, 53.24819], [-8.94262, 53.26179], [-8.94262, 53.26862], [-9.02208, 53.27546], [-9.07748, 53.26396], [-9.40144, 53.24799], [-9.44821, 53.23182], [-9.5117, 53.22835], [-9.53294, 53.23445], [-9.5664, 53.26179], [-9.54727, 53.27912], [-9.55456, 53.29072], [-9.57136, 53.29047], [-9.58521, 53.25044], [-9.59684, 53.23771], [-9.61229, 53.23616], [-9.62841, 53.2482], [-9.62841, 53.2556], [-9.60912, 53.27631], [-9.61728, 53.32149], [-9.59742, 53.33005], [-9.57698, 53.32392], [-9.56078, 53.34121], [-9.60115, 53.36489], [-9.5528, 53.3854], [-9.60656, 53.38471], [-9.62165, 53.37848], [-9.60851, 53.3666], [-9.6066, 53.34938], [-9.61547, 53.33466], [-9.63463, 53.33008], [-9.65248, 53.34126], [-9.63777, 53.37751], [-9.63842, 53.3854], [-9.65266, 53.39281], [-9.68472, 53.37523], [-9.74308, 53.31441], [-9.7904, 53.30159], [-9.8067, 53.30159], [-9.84293, 53.32331], [-9.88654, 53.31721], [-9.90223, 53.32392], [-9.88691, 53.35936], [-9.8413, 53.36791], [-9.78551, 53.39277], [-9.78551, 53.39899], [-9.82022, 53.39901], [-9.82022, 53.40644], [-9.79918, 53.41266], [-9.79918, 53.4195], [-9.82519, 53.41669], [-9.86054, 53.39426], [-9.87538, 53.39522], [-9.88107, 53.40644], [-9.87572, 53.41543], [-9.85607, 53.42377], [-9.84752, 53.43374], [-9.86034, 53.43252], [-9.88476, 53.4195], [-9.91145, 53.42597], [-9.92268, 53.4195], [-9.92565, 53.40974], [-9.92237, 53.38923], [-9.96181, 53.37958], [-10.01446, 53.38136], [-10.02597, 53.38558], [-10.04931, 53.40982], [-10.06322, 53.41266], [-10.1272, 53.40984], [-10.14175, 53.4195], [-10.15803, 53.41284], [-10.17648, 53.41268], [-10.15718, 53.43943], [-10.14224, 53.4457], [-10.06798, 53.44383], [-10.05297, 53.4536], [-10.05297, 53.46109], [-10.07419, 53.46577], [-10.08713, 53.48151], [-10.02058, 53.47044], [-10.01207, 53.48151], [-10.06941, 53.48477], [-10.10728, 53.49446], [-10.12814, 53.50886], [-10.13476, 53.52709], [-10.15266, 53.54361], [-10.19346, 53.53804], [-10.20321, 53.54361], [-10.18028, 53.55548], [-10.10766, 53.54979], [-10.11508, 53.57029], [-10.07067, 53.57001], [-10.02576, 53.56288], [-10.00524, 53.54361], [-9.97106, 53.56289], [-10.03188, 53.58715], [-10.04675, 53.59926], [-10.00865, 53.60442], [-9.93074, 53.5998], [-9.90225, 53.60444], [-9.86791, 53.61738], [-9.8544, 53.61811], [-9.82287, 53.60643], [-9.69677, 53.59821], [-9.69677, 53.60444], [-9.7141, 53.60985], [-9.78376, 53.60627], [-9.82726, 53.6162], [-9.90842, 53.64607], [-9.92266, 53.69074], [-9.89953, 53.74384], [-9.90842, 53.76211], [-9.79947, 53.78026], [-9.78886, 53.78664], [-9.75202, 53.77635], [-9.5664, 53.79629], [-9.5664, 53.80366], [-9.62162, 53.81733], [-9.60115, 53.82416], [-9.60544, 53.83918], [-9.59503, 53.84804], [-9.56021, 53.86514], [-9.58687, 53.87198], [-9.57283, 53.88223], [-9.5664, 53.89932], [-9.58689, 53.89249], [-9.61547, 53.89883], [-9.75817, 53.89932], [-9.8566, 53.86629], [-9.91075, 53.85872], [-9.94376, 53.87938], [-9.93139, 53.88516], [-9.92516, 53.91303], [-9.90844, 53.92036], [-9.90844, 53.94709], [-9.91588, 53.94709], [-9.91588, 53.95384], [-9.86803, 53.96136], [-9.82335, 53.94709], [-9.81164, 53.94172], [-9.80761, 53.91828], [-9.79605, 53.91291], [-9.78751, 53.91608], [-9.78551, 53.94709], [-9.81265, 53.96629], [-9.82649, 53.9676], [-9.82022, 53.95384], [-9.8317, 53.95629], [-9.8496, 53.9975], [-9.8544, 54.00235], [-9.87767, 54.00191], [-9.89896, 54.02553], [-9.89768, 54.05512], [-9.87344, 54.0622], [-9.86189, 54.07123], [-9.87585, 54.07485], [-9.87609, 54.08063], [-9.8544, 54.09105], [-9.86189, 54.09789], [-9.83389, 54.11213], [-9.85509, 54.11738], [-9.88109, 54.11213], [-9.87971, 54.10025], [-9.89537, 54.09789], [-9.89537, 54.09105], [-9.88854, 54.09105], [-9.91715, 54.0699], [-9.94554, 54.06624], [-9.97068, 54.07856], [-9.99093, 54.10467], [-9.97155, 54.10423], [-9.90844, 54.11835], [-9.94358, 54.13538], [-9.82192, 54.2082], [-9.74193, 54.24236], [-9.6929, 54.2596], [-9.58864, 54.28547], [-9.45763, 54.30195], [-9.38451, 54.29719], [-9.36087, 54.30354], [-9.27795, 54.30066], [-9.26065, 54.29892], [-9.24767, 54.2766], [-9.2176, 54.28349], [-9.20948, 54.26756], [-9.2176, 54.24873], [-9.19589, 54.24249], [-9.19589, 54.23506], [-9.21508, 54.22712], [-9.21036, 54.21784], [-9.14932, 54.18061], [-9.14123, 54.1457], [-9.135, 54.1457], [-9.1289, 54.19306], [-9.13498, 54.20774], [-9.11254, 54.21332], [-9.0902, 54.22663], [-9.05089, 54.28952], [-9.01749, 54.29189], [-8.95686, 54.28352], [-8.93904, 54.28997], [-8.8566, 54.26301], [-8.80736, 54.26301], [-8.78563, 54.26683], [-8.76513, 54.27658], [-8.73746, 54.26411], [-8.67642, 54.2713], [-8.64836, 54.263], [-8.63329, 54.23237], [-8.60479, 54.2255], [-8.57266, 54.20034], [-8.54385, 54.20864], [-8.51122, 54.20775], [-8.51122, 54.21454], [-8.55922, 54.22774], [-8.57213, 54.24653], [-8.58731, 54.25235], [-8.621, 54.25557], [-8.621, 54.26299], [-8.59374, 54.2835], [-8.55822, 54.27521], [-8.54076, 54.28436], [-8.47029, 54.2766], [-8.50414, 54.29719], [-8.5698, 54.30574], [-8.56719, 54.32416], [-8.53173, 54.31021], [-8.51171, 54.31737], [-8.51915, 54.32673], [-8.56212, 54.33808], [-8.66136, 54.33805], [-8.66825, 54.35152], [-8.66387, 54.35927], [-8.47411, 54.43], [-8.46669, 54.47498], [-8.44302, 54.44733], [-8.38418, 54.46824], [-8.28734, 54.47944], [-8.2421, 54.49775], [-8.21019, 54.50194], [-8.21019, 54.50943], [-8.24328, 54.5102], [-8.27096, 54.52367], [-8.21638, 54.55036], [-8.21884, 54.56977], [-8.17251, 54.59447], [-8.17538, 54.61928], [-8.13756, 54.60562], [-8.12084, 54.64655], [-8.12767, 54.65278], [-8.16666, 54.63615], [-8.23493, 54.62938], [-8.29209, 54.60563], [-8.28034, 54.62962], [-8.28726, 54.63679], [-8.30175, 54.6398], [-8.31676, 54.63544], [-8.34237, 54.61616], [-8.36783, 54.60863], [-8.42774, 54.57184], [-8.4566, 54.56466], [-8.4566, 54.57078], [-8.43227, 54.58779], [-8.38476, 54.60566], [-8.38768, 54.61986], [-8.40005, 54.62857], [-8.42185, 54.6193], [-8.41869, 54.6413], [-8.43163, 54.6413], [-8.44831, 54.62763], [-8.46154, 54.60287], [-8.48175, 54.61596], [-8.48616, 54.63129], [-8.49413, 54.63296], [-8.55346, 54.62263], [-8.56405, 54.60884], [-8.59691, 54.61929], [-8.67259, 54.61946], [-8.68999, 54.62613], [-8.68196, 54.63581], [-8.6914, 54.6413], [-8.77416, 54.65986], [-8.79179, 54.65962], [-8.77815, 54.68008], [-8.79774, 54.69196], [-8.79551, 54.69842], [-8.7552, 54.70576], [-8.7446, 54.72508], [-8.73325, 54.7326], [-8.66209, 54.76263], [-8.63658, 54.76845], [-8.5362, 54.76691], [-8.48371, 54.75678], [-8.45661, 54.75641], [-8.45661, 54.76264], [-8.5266, 54.77277], [-8.54537, 54.78376], [-8.52989, 54.78806], [-8.48493, 54.78937], [-8.47338, 54.78681], [-8.44469, 54.76313], [-8.42667, 54.75723], [-8.40819, 54.76264], [-8.46129, 54.79352], [-8.49889, 54.80122], [-8.53498, 54.81647], [-8.5584, 54.81787], [-8.55433, 54.82753], [-8.52489, 54.83153], [-8.49071, 54.85198], [-8.47102, 54.84052], [-8.40197, 54.84454], [-8.34626, 54.83169], [-8.32567, 54.83153], [-8.32567, 54.83832], [-8.36539, 54.8454], [-8.38132, 54.85595], [-8.38083, 54.8725], [-8.3667, 54.88109], [-8.32738, 54.87702], [-8.31265, 54.87934], [-8.32584, 54.88581], [-8.33703, 54.90363], [-8.37401, 54.90729], [-8.38085, 54.88618], [-8.40928, 54.88704], [-8.43259, 54.90156], [-8.45094, 54.92228], [-8.46343, 54.94082], [-8.45043, 54.94626], [-8.41845, 54.93456], [-8.39135, 54.93867], [-8.36657, 54.94819], [-8.39614, 54.95528], [-8.41829, 54.9679], [-8.4566, 54.99543], [-8.45659, 55.00287], [-8.43773, 55.00982], [-8.41503, 55.00288], [-8.40197, 55.01655], [-8.40817, 55.01655], [-8.40317, 55.03066], [-8.37401, 55.03636], [-8.3474, 55.06426], [-8.33787, 55.05837], [-8.33507, 55.03506], [-8.32567, 55.03022], [-8.31998, 55.03433], [-8.31359, 55.05268], [-8.30516, 55.05805], [-8.3204, 55.10492], [-8.30435, 55.11921], [-8.27846, 55.16054], [-8.26301, 55.16107], [-8.20653, 55.14688], [-8.14128, 55.16054], [-8.15958, 55.13874], [-8.15648, 55.1245], [-8.11485, 55.15472], [-8.02098, 55.18879], [-7.99957, 55.21962], [-7.9768, 55.2219], [-7.95021, 55.21027], [-7.95873, 55.19917], [-8.00414, 55.18098], [-8.00414, 55.17414], [-7.96198, 55.1872], [-7.94904, 55.17984], [-7.90857, 55.18841], [-7.89491, 55.17414], [-7.89879, 55.1564], [-7.8601, 55.1679], [-7.87287, 55.1516], [-7.89489, 55.14688], [-7.89489, 55.14008], [-7.85643, 55.13898], [-7.83471, 55.16498], [-7.83755, 55.17585], [-7.86008, 55.19465], [-7.8661, 55.21491], [-7.7987, 55.25607], [-7.79126, 55.24867], [-7.81574, 55.19465], [-7.7987, 55.18098], [-7.77074, 55.18842], [-7.7176, 55.16657], [-7.69563, 55.1332], [-7.7025, 55.09907], [-7.6682, 55.1472], [-7.69506, 55.20747], [-7.7036, 55.21845], [-7.71605, 55.22191], [-7.72395, 55.21459], [-7.72199, 55.20026], [-7.70931, 55.17415], [-7.72313, 55.17573], [-7.75023, 55.19465], [-7.77965, 55.19965], [-7.79174, 55.206], [-7.78816, 55.21857], [-7.76084, 55.25608], [-7.72509, 55.25267], [-7.67348, 55.27386], [-7.66088, 55.27654], [-7.64397, 55.27276], [-7.61141, 55.2414], [-7.61994, 55.2049], [-7.61449, 55.19599], [-7.57276, 55.18097], [-7.56412, 55.15575], [-7.52784, 55.13255], [-7.5258, 55.11616], [-7.54142, 55.09224], [-7.55639, 55.08975], [-7.58643, 55.07112], [-7.64102, 55.05069], [-7.64102, 55.04385], [-7.58117, 55.05043], [-7.56186, 55.0445], [-7.57274, 55.02338], [-7.63419, 54.99543], [-7.68139, 54.96125], [-7.68139, 54.95441], [-7.64338, 54.96528], [-7.54849, 55.01843], [-7.53799, 55.01992], [-7.52935, 55.0307], [-7.46911, 55.04385], [-7.45617, 55.05614], [-7.45002, 55.07233], [-7.45442, 55.08625], [-7.47751, 55.09638], [-7.46288, 55.11953], [-7.46288, 55.14346], [-7.51008, 55.18098], [-7.54139, 55.19807], [-7.54946, 55.21516], [-7.54937, 55.22516], [-7.52709, 55.23676], [-7.51622, 55.25414], [-7.51358, 55.27436], [-7.5243, 55.29026], [-7.47859, 55.28392], [-7.46288, 55.29027], [-7.46908, 55.30387], [-7.42797, 55.28657], [-7.40591, 55.28693], [-7.36778, 55.3106], [-7.34752, 55.31428], [-7.3275, 55.3085], [-7.3121, 55.29029], [-7.33995, 55.29027], [-7.32087, 55.28217], [-7.2766, 55.27582], [-7.25674, 55.284], [-7.32067, 55.3133], [-7.35045, 55.33501], [-7.35302, 55.35855], [-7.40019, 55.38027], [-7.38442, 55.38637], [-7.24731, 55.35716], [-7.2092, 55.34523], [-7.12906, 55.28583], [-7.07934, 55.27265], [-7.04148, 55.26876], [-6.9757, 55.24868], [-6.95353, 55.25433], [-6.93958, 55.23908], [-6.9428, 55.21858], [-6.97256, 55.20832], [-7.03409, 55.19685], [-7.09977, 55.16548], [-7.1595, 55.15078], [-7.17284, 55.1435], [-7.23229, 55.09186], [-7.25674, 55.05069], [-7.17785, 55.05697], [-7.1339, 55.04385], [-7.09948, 55.04096], [-7.06505, 55.04385], [-7.0537, 55.04873], [-7.0172, 55.07111], [-7.0098, 55.1024], [-6.97492, 55.13544], [-6.96253, 55.19465], [-6.94669, 55.19537], [-6.88378, 55.17414], [-6.75451, 55.1778], [-6.64045, 55.20831], [-6.57128, 55.21125], [-6.51984, 55.24066], [-6.47595, 55.24867], [-6.41592, 55.23188], [-6.37816, 55.24623], [-6.35324, 55.24267], [-6.23982, 55.20832], [-6.16002, 55.2219], [-6.10099, 55.21238], [-6.03712, 55.16791], [-6.04066, 55.11205], [-6.06208, 55.07412], [-6.05435, 55.06513], [-6.00353, 55.06317], [-5.97576, 55.05304], [-5.96827, 55.04385], [-5.97018, 55.02606], [-5.98624, 54.98176], [-5.94565, 54.97549], [-6.00969, 54.94161], [-6.16253, 54.84132], [-6.25675, 54.79084], [-6.36668, 54.75024], [-6.45722, 54.69795], [-6.54421, 54.66381], [-6.53521, 54.70294], [-6.49836, 54.77524], [-6.5438, 54.82107], [-6.55508, 54.8249], [-6.56743, 54.8224], [-6.63819, 54.78085], [-6.74377, 54.736], [-6.79902, 54.71897], [-6.91536, 54.6951], [-7.06915, 54.68209], [-7.15917, 54.68458], [-7.54307, 54.74167], [-7.56664, 54.73868], [-7.5854, 54.74472], [-7.61537, 54.73935], [-7.64968, 54.74488], [-7.66751, 54.73878], [-7.70229, 54.71888], [-7.7366, 54.70746], [-7.7705, 54.70602], [-7.80358, 54.71614], [-7.83215, 54.73061], [-7.8459, 54.73103], [-7.88011, 54.71103], [-7.92967, 54.69671], [-7.90714, 54.68669], [-7.91484, 54.67165], [-7.90662, 54.66132], [-7.86435, 54.64907], [-7.84642, 54.63145], [-7.83804, 54.63124], [-7.815, 54.63946], [-7.76916, 54.61801], [-7.75355, 54.6145], [-7.7212, 54.62587], [-7.71056, 54.62426], [-7.70787, 54.60416], [-7.74926, 54.59615], [-7.84884, 54.54091], [-7.88714, 54.53213], [-7.92641, 54.53305], [-8.00219, 54.54344], [-8.02328, 54.5297], [-8.05586, 54.49755], [-8.07245, 54.48706], [-8.09705, 54.47859], [-8.15017, 54.46939], [-8.17384, 54.46174], [-8.16118, 54.45482], [-8.15603, 54.43906], [-8.14635, 54.43074], [-8.12242, 54.41523], [-8.07994, 54.3802], [-8.05648, 54.36588], [-8.03134, 54.35803], [-8.00219, 54.35792], [-7.98103, 54.32656], [-7.96801, 54.31219], [-7.9508, 54.30087], [-7.89497, 54.29359], [-7.88026, 54.28702], [-7.87365, 54.27105], [-7.86967, 54.22687], [-7.85644, 54.21142], [-7.83696, 54.20434], [-8.0195, 53.99714], [-8.04782, 53.9734], [-8.09619, 53.94404], [-8.09968, 53.93621], [-8.09262, 53.92834], [-8.07414, 53.92641], [-7.92264, 53.94911], [-7.77283, 53.89303], [-7.62331, 53.90526], [-7.50607, 54.12565], [-7.48075, 54.12765], [-7.43962, 54.14693], [-7.41466, 54.14569], [-7.42577, 54.13695], [-7.40396, 54.13504], [-7.39466, 54.12192], [-7.37549, 54.12331], [-7.32696, 54.1136], [-7.31032, 54.11468], [-7.33316, 54.14274], [-7.33316, 54.14941], [-7.32598, 54.15458], [-7.29554, 54.16512], [-7.29213, 54.16264], [-7.29735, 54.1259], [-7.29379, 54.12202], [-7.27074, 54.13225], [-7.2635, 54.14099], [-7.26087, 54.15117], [-7.26537, 54.16114], [-7.24578, 54.16698], [-7.24702, 54.17225], [-7.26113, 54.18088], [-7.24909, 54.19742], [-7.2295, 54.20755], [-7.17472, 54.21607], [-7.15333, 54.22424], [-7.15974, 54.24067], [-7.14589, 54.25209], [-7.1815, 54.26976], [-7.1755, 54.28366], [-7.20904, 54.29343], [-7.21147, 54.30418], [-7.19917, 54.30346], [-7.18465, 54.31663], [-7.19147, 54.32387], [-7.19245, 54.33472], [-7.18563, 54.33694], [-7.15989, 54.33519], [-7.12703, 54.34976], [-7.0785, 54.39472], [-7.04926, 54.41151], [-7.01784, 54.41317], [-6.98409, 54.40309], [-6.92203, 54.3727], [-6.90596, 54.34904], [-6.88596, 54.34562], [-6.87496, 54.33396], [-6.42324, 54.42679], [-6.32284, 54.43658], [-6.20027, 54.43876], [-6.08234, 54.42872], [-5.96882, 54.41046], [-5.86285, 54.37963], [-5.77117, 54.34369], [-5.72191, 54.31847], [-5.63143, 54.25593], [-5.63998, 54.23506], [-5.65575, 54.22969], [-5.66339, 54.23087], [-5.67882, 54.24616], [-5.73689, 54.24909], [-5.77945, 54.24653], [-5.86205, 54.23054], [-5.86803, 54.21849], [-5.86858, 54.16113], [-5.89381, 54.10469], [-5.91199, 54.0913], [-5.95385, 54.07868], [-5.98498, 54.0592], [-6.04052, 54.03645], [-6.09544, 54.03637], [-6.11288, 54.04388], [-6.11288, 54.05011], [-6.08495, 54.05695], [-6.17429, 54.0743], [-6.18586, 54.09268], [-6.26366, 54.10468], [-6.26989, 54.09793], [-6.20702, 54.06171], [-6.18433, 54.05377], [-6.16991, 54.03962], [-6.12654, 54.03022], [-6.10731, 54.01361], [-6.11101, 54.00129], [-6.14356, 53.97843], [-6.16076, 53.97445], [-6.22277, 53.99543], [-6.23705, 53.99385], [-6.30704, 54.01187], [-6.35985, 54.01602], [-6.35985, 54.00849], [-6.34783, 54.00361], [-6.37295, 53.96442], [-6.37898, 53.9169], [-6.37295, 53.89932], [-6.35082, 53.88141], [-6.31729, 53.87108], [-6.24325, 53.86513], [-6.25499, 53.82221], [-6.24498, 53.80687], [-6.22279, 53.79629], [-6.24328, 53.78254], [-6.24844, 53.75576], [-6.24132, 53.68561], [-6.22989, 53.65656], [-6.22277, 53.64606], [-6.1871, 53.63007], [-6.16979, 53.60566], [-6.09156, 53.57615], [-6.14243, 53.54514], [-6.23712, 53.5037], [-6.29004, 53.48698], [-6.40063, 53.46356], [-6.45933, 53.45664], [-6.57649, 53.4532], [-6.74036, 53.46899], [-6.75475, 53.44779], [-6.74711, 53.40145], [-6.75169, 53.38038], [-6.7632, 53.37234], [-6.80089, 53.36213], [-6.81902, 53.34844], [-6.83729, 53.31776], [-6.85092, 53.25521], [-6.84318, 53.24577], [-6.80807, 53.23868], [-6.79839, 53.23126], [-6.74706, 52.9617], [-6.7289, 52.90481], [-6.70956, 52.87905], [-6.65181, 52.84721], [-6.64005, 52.81829], [-6.63197, 52.75179], [-6.48764, 52.72069], [-6.38738, 52.68439], [-6.30148, 52.63709], [-6.26472, 52.60982], [-6.20866, 52.55315], [-6.22206, 52.52862], [-6.28267, 52.46739], [-6.31774, 52.44794], [-6.35619, 52.409], [-6.36555, 52.3935], [-6.36613, 52.34446], [-6.39005, 52.35883], [-6.44807, 52.35591], [-6.46886, 52.36001], [-6.46296, 52.378], [-6.49649, 52.36432], [-6.49649, 52.3581], [-6.48143, 52.35464], [-6.45615, 52.33584], [-6.44866, 52.3227], [-6.45499, 52.31224], [-6.42375, 52.30792], [-6.40917, 52.28925], [-6.37297, 52.32267], [-6.38976, 52.2956], [-6.36978, 52.27261], [-6.31837, 52.24079], [-6.35986, 52.18619], [-6.37707, 52.17822], [-6.39947, 52.1855], [-6.38097, 52.20759], [-6.38231, 52.21198], [-6.39403, 52.21284], [-6.42561, 52.1938], [-6.46909, 52.1936], [-6.46911, 52.19977], [-6.44864, 52.19977], [-6.46231, 52.20718], [-6.47256, 52.20698], [-6.48966, 52.19978], [-6.53746, 52.19359], [-6.57975, 52.17822], [-6.59715, 52.1796], [-6.64143, 52.20279], [-6.71557, 52.21662], [-6.78628, 52.21004], [-6.80557, 52.21284], [-6.80557, 52.22036], [-6.77599, 52.23322], [-6.76586, 52.24575], [-6.76403, 52.2613], [-6.79296, 52.24042], [-6.81265, 52.2353], [-6.83226, 52.24079], [-6.8391, 52.23456], [-6.8391, 52.21284], [-6.81859, 52.22036], [-6.83226, 52.19359], [-6.81862, 52.19359], [-6.81861, 52.18619], [-6.83226, 52.18618], [-6.8248, 52.17935], [-6.89708, 52.15204], [-6.93212, 52.12467], [-6.94894, 52.13093], [-6.93975, 52.14321], [-6.90392, 52.1623], [-6.90372, 52.17219], [-6.92101, 52.21284], [-6.93668, 52.22907], [-6.97012, 52.24738], [-6.98473, 52.27863], [-6.99739, 52.28921], [-6.9899, 52.25165], [-6.96949, 52.22036], [-6.98229, 52.19562], [-6.97997, 52.18594], [-6.95517, 52.18617], [-6.95517, 52.17935], [-7.01689, 52.13852], [-7.106, 52.13094], [-7.07185, 52.16572], [-7.10635, 52.173], [-7.12023, 52.17194], [-7.12023, 52.16572], [-7.10603, 52.15204], [-7.13732, 52.15888], [-7.14965, 52.15632], [-7.16748, 52.13838], [-7.18737, 52.13277], [-7.24376, 52.13837], [-7.43545, 52.12568], [-7.50431, 52.1027], [-7.54141, 52.0974], [-7.5553, 52.08492], [-7.56529, 52.08374], [-7.58263, 52.10423], [-7.59996, 52.10102], [-7.61901, 52.09223], [-7.63109, 52.07905], [-7.62735, 52.06269], [-7.61758, 52.07022], [-7.60216, 52.07167], [-7.5468, 52.05926], [-7.54518, 52.055], [-7.55103, 52.0428], [-7.58263, 52.02851], [-7.58993, 51.99116], [-7.63541, 51.97676], [-7.68847, 51.98037], [-7.7093, 51.97386], [-7.7233, 51.94458], [-7.82933, 51.95345], [-7.83849, 51.9759], [-7.84984, 51.98013], [-7.85669, 51.94286], [-7.86971, 51.92966], [-7.90119, 51.91266], [-7.92223, 51.91181], [-7.88063, 51.89199], [-7.89128, 51.88208], [-8.00817, 51.85578], [-8.02306, 51.84357], [-8.00416, 51.8299], [-8.02059, 51.82393], [-8.0961, 51.81411], [-8.13419, 51.80476], [-8.24619, 51.80273], [-8.24794, 51.81342], [-8.22326, 51.82368], [-8.23007, 51.83673], [-8.20165, 51.84199], [-8.1754, 51.85716], [-8.20277, 51.86401], [-8.1953, 51.87702], [-8.18224, 51.88451], [-8.18708, 51.89313], [-8.19376, 51.89541], [-8.21018, 51.88452], [-8.24356, 51.89289], [-8.28464, 51.89201], [-8.2932, 51.90331], [-8.3474, 51.892], [-8.40884, 51.89179], [-8.42935, 51.88451], [-8.35416, 51.87298], [-8.32927, 51.86131], [-8.3474, 51.8299], [-8.29835, 51.82989], [-8.30516, 51.81623], [-8.29213, 51.81], [-8.31949, 51.80256], [-8.28468, 51.80255], [-8.30517, 51.78213], [-8.29737, 51.76602], [-8.34571, 51.72469], [-8.37255, 51.71553], [-8.41002, 51.70978], [-8.43553, 51.69272], [-8.44176, 51.70393], [-8.4558, 51.71231], [-8.47191, 51.71625], [-8.48396, 51.71381], [-8.46923, 51.70661], [-8.46418, 51.69501], [-8.469, 51.68407], [-8.48395, 51.67843], [-8.49112, 51.69868], [-8.51244, 51.70604], [-8.55842, 51.70637], [-8.55842, 51.70014], [-8.54833, 51.69636], [-8.51749, 51.69269], [-8.5021, 51.70034], [-8.49755, 51.69269], [-8.50642, 51.68249], [-8.52115, 51.67841], [-8.53917, 51.64838], [-8.53175, 51.61081], [-8.54441, 51.61791], [-8.5587, 51.63801], [-8.57266, 51.64496], [-8.5891, 51.6459], [-8.63817, 51.63745], [-8.75764, 51.64496], [-8.74328, 51.6352], [-8.72655, 51.63133], [-8.69001, 51.63129], [-8.69003, 51.62385], [-8.70295, 51.61701], [-8.68255, 51.61078], [-8.69978, 51.59724], [-8.69618, 51.57666], [-8.734, 51.57978], [-8.74279, 51.57564], [-8.76513, 51.59028], [-8.80199, 51.59028], [-8.82665, 51.59516], [-8.83337, 51.59029], [-8.85387, 51.59593], [-8.88802, 51.55558], [-8.92894, 51.54597], [-8.93319, 51.53536], [-8.9532, 51.54938], [-8.99112, 51.56297], [-9.07286, 51.54939], [-9.12076, 51.56297], [-9.12076, 51.55557], [-9.10774, 51.54938], [-9.11597, 51.53773], [-9.14331, 51.52388], [-9.19254, 51.5246], [-9.18962, 51.50838], [-9.20397, 51.508], [-9.22379, 51.4873], [-9.25304, 51.49116], [-9.26474, 51.48731], [-9.27213, 51.50837], [-9.29947, 51.4975], [-9.30176, 51.48872], [-9.3153, 51.48762], [-9.34924, 51.47404], [-9.38137, 51.47363], [-9.36071, 51.48383], [-9.34667, 51.50092], [-9.3729, 51.49128], [-9.37684, 51.49464], [-9.35709, 51.51716], [-9.31994, 51.53506], [-9.32746, 51.54255], [-9.36779, 51.52509], [-9.40184, 51.50094], [-9.41387, 51.51114], [-9.40185, 51.54597], [-9.42504, 51.55756], [-9.44327, 51.55952], [-9.45653, 51.55557], [-9.44801, 51.54365], [-9.47656, 51.53508], [-9.54748, 51.5253], [-9.55631, 51.50813], [-9.58072, 51.50837], [-9.61132, 51.49385], [-9.62839, 51.4941], [-9.62963, 51.50405], [-9.65591, 51.52017], [-9.66268, 51.51147], [-9.71719, 51.48041], [-9.70355, 51.47362], [-9.77184, 51.45312], [-9.76895, 51.4643], [-9.77794, 51.46223], [-9.80663, 51.44572], [-9.81338, 51.45311], [-9.8202, 51.44572], [-9.81339, 51.47362], [-9.82631, 51.47774], [-9.83387, 51.48729], [-9.79381, 51.49966], [-9.74005, 51.52976], [-9.6831, 51.54255], [-9.62138, 51.58296], [-9.54589, 51.61079], [-9.59203, 51.61372], [-9.78503, 51.55249], [-9.84747, 51.5494], [-9.78637, 51.57347], [-9.77032, 51.59222], [-9.73119, 51.6009], [-9.60798, 51.6424], [-9.59454, 51.65549], [-9.56188, 51.65815], [-9.45861, 51.68399], [-9.45652, 51.70014], [-9.44294, 51.72004], [-9.45727, 51.72459], [-9.48981, 51.71456], [-9.51281, 51.7259], [-9.52546, 51.72687], [-9.52546, 51.7473], [-9.56021, 51.76162], [-9.55663, 51.7309], [-9.5459, 51.72005], [-9.56607, 51.7167], [-9.62683, 51.68505], [-9.71349, 51.67646], [-9.74796, 51.66743], [-9.87414, 51.6562], [-9.93008, 51.63744], [-9.94189, 51.62134], [-10.00475, 51.60855], [-10.0288, 51.59651], [-10.07006, 51.60395], [-10.11612, 51.60029], [-10.13866, 51.5939], [-10.15607, 51.58285], [-10.16281, 51.59027], [-10.14329, 51.61358], [-10.0598, 51.63129], [-10.06662, 51.63744], [-10.06265, 51.64985], [-10.07067, 51.65705], [-10.10079, 51.65926], [-10.08811, 51.67161], [-10.02575, 51.67227], [-10.00377, 51.67805], [-9.95686, 51.70637], [-9.95686, 51.71381], [-9.99776, 51.71382], [-9.98043, 51.73201], [-9.94904, 51.74712], [-9.88888, 51.76157], [-9.90225, 51.74116], [-9.86791, 51.7486], [-9.85652, 51.75861], [-9.85439, 51.77528], [-9.8238, 51.76781], [-9.78551, 51.7685], [-9.78551, 51.77529], [-9.81335, 51.78212], [-9.81337, 51.78827], [-9.75451, 51.81908], [-9.73766, 51.83674], [-9.70352, 51.83674], [-9.67105, 51.843], [-9.58072, 51.87018], [-9.58072, 51.87767], [-9.65315, 51.87177], [-9.75805, 51.84699], [-9.77717, 51.83975], [-9.79175, 51.82682], [-9.84008, 51.82368], [-9.83391, 51.81623], [-9.86422, 51.80421], [-9.87484, 51.80257], [-9.86803, 51.82368], [-9.88219, 51.82368], [-9.90226, 51.81001], [-9.94994, 51.80256], [-9.99365, 51.78096], [-10.01642, 51.77474], [-10.03938, 51.78213], [-10.08455, 51.75593], [-10.13559, 51.74117], [-10.12975, 51.75434], [-10.22431, 51.78213], [-10.18615, 51.78962], [-10.17707, 51.81367], [-10.1942, 51.8391], [-10.23461, 51.85102], [-10.27125, 51.82169], [-10.34104, 51.78829], [-10.34657, 51.80109], [-10.33471, 51.83027], [-10.34105, 51.84357], [-10.38888, 51.84618], [-10.38195, 51.85716], [-10.38876, 51.86401], [-10.38195, 51.87767], [-10.3956, 51.87768], [-10.39562, 51.88451], [-10.36266, 51.88719], [-10.25414, 51.90868], [-10.25504, 51.92548], [-10.26918, 51.93082], [-10.28799, 51.95185], [-10.30686, 51.95345], [-10.30657, 51.95974], [-10.25845, 51.97386], [-10.2662, 51.98847], [-10.21736, 51.99893], [-10.12816, 52.0285], [-10.03327, 52.04108], [-9.99267, 52.05589], [-9.97105, 52.0899], [-9.96363, 52.0899], [-9.96374, 52.07197], [-9.95433, 52.06415], [-9.92638, 52.06269], [-9.92958, 52.07192], [-9.90842, 52.13092], [-9.87751, 52.11953], [-9.77184, 52.1247], [-9.79294, 52.13838], [-9.75817, 52.15204], [-9.95686, 52.14521], [-9.94378, 52.1247], [-9.95465, 52.10882], [-9.9606, 52.12494], [-9.97033, 52.13166], [-9.99779, 52.13837], [-10.02807, 52.13964], [-10.16242, 52.11872], [-10.18627, 52.10946], [-10.21752, 52.13093], [-10.24205, 52.11979], [-10.26773, 52.13581], [-10.27892, 52.13638], [-10.30687, 52.13093], [-10.30687, 52.1247], [-10.27208, 52.11791], [-10.2721, 52.11173], [-10.34488, 52.12466], [-10.36832, 52.1247], [-10.36437, 52.1149], [-10.35411, 52.11173], [-10.37572, 52.11127], [-10.43659, 52.09741], [-10.46075, 52.10302], [-10.46741, 52.11495], [-10.47816, 52.15204], [-10.45092, 52.16572], [-10.46127, 52.18], [-10.42781, 52.19643], [-10.40932, 52.19976], [-10.41666, 52.18618], [-10.3946, 52.17479], [-10.38207, 52.17194], [-10.37206, 52.1756]]], [[[-8.5493, 54.96842], [-8.56581, 54.97554], [-8.5658, 54.99542], [-8.5454, 55.00288], [-8.55221, 55.00971], [-8.53637, 55.01658], [-8.49658, 55.00067], [-8.48398, 54.97554], [-8.52742, 54.96753], [-8.5493, 54.96842]]], [[[-6.2364, 55.31134], [-6.17432, 55.30389], [-6.178, 55.28077], [-6.19479, 55.26296], [-6.18798, 55.284], [-6.21109, 55.29531], [-6.28352, 55.29707], [-6.2364, 55.31134]]], [[[-5.55908, 55.43791], [-5.58462, 55.42744], [-5.58463, 55.42121], [-5.57213, 55.42231], [-5.55348, 55.41476], [-5.54858, 55.33952], [-5.59412, 55.31315], [-5.63996, 55.30391], [-5.6809, 55.31135], [-5.72558, 55.29708], [-5.77228, 55.30126], [-5.78285, 55.31355], [-5.7946, 55.35616], [-5.79147, 55.3984], [-5.71565, 55.4479], [-5.72189, 55.51386], [-5.70775, 55.54336], [-5.72181, 55.5646], [-5.69646, 55.60303], [-5.61805, 55.5367], [-5.59188, 55.5038], [-5.55908, 55.43791]]], [[[-6.13157, 55.63193], [-6.16003, 55.62666], [-6.20255, 55.63056], [-6.21532, 55.62665], [-6.22718, 55.60161], [-6.26188, 55.58382], [-6.28734, 55.57845], [-6.31132, 55.58345], [-6.32517, 55.60554], [-6.31923, 55.62824], [-6.29746, 55.64247], [-6.24324, 55.66014], [-6.2648, 55.6955], [-6.27709, 55.70401], [-6.32517, 55.71541], [-6.32096, 55.73335], [-6.16369, 55.73638], [-6.03148, 55.72394], [-6.02351, 55.6821], [-6.04572, 55.67426], [-6.05827, 55.66016], [-6.06444, 55.66763], [-6.08267, 55.65196], [-6.13157, 55.63193]]], [[[-6.50387, 55.72285], [-6.49791, 55.73202], [-6.38208, 55.72761], [-6.41857, 55.70962], [-6.46297, 55.67447], [-6.49095, 55.67183], [-6.50351, 55.68156], [-6.50242, 55.69766], [-6.48965, 55.7154], [-6.50387, 55.72285]]]]}}]}