{"type": "FeatureCollection", "features": [{"type": "Feature", "properties": {"map_title": "제1차 세계 대전 전후의 유럽", "source": "미래엔 세계사 교과서 4권 184쪽", "volume": 4, "page": 184, "legend": "제1차 세계 대전 이후 새로운 국가", "name": "유고슬라비아", "name_en": "Yugoslavia", "period": "1918", "kind": "국가", "phase": "전후", "group": "새로운 국가", "coast_snap": "Natural Earth 10m 해안선에 맞춤", "border_snap": "현대 국경(Natural Earth 10m)에 맞춘 구간 약 1826 km"}, "geometry": {"type": "MultiPolygon", "coordinates": [[[[22.18506, 44.26746], [22.16212, 44.22139], [22.16095, 44.2094], [22.18112, 44.17649], [22.41179, 44.00693], [22.39959, 43.99334], [22.39453, 43.93634], [22.37903, 43.9135], [22.37706, 43.88352], [22.36755, 43.85275], [22.35474, 43.8297], [22.34947, 43.80792], [22.36259, 43.78084], [22.38854, 43.75829], [22.38605, 43.7255], [22.40486, 43.68718], [22.42647, 43.66821], [22.45592, 43.65641], [22.46626, 43.64912], [22.47287, 43.63594], [22.4738, 43.613], [22.48197, 43.59946], [22.47711, 43.59129], [22.4831, 43.57928], [22.47866, 43.56918], [22.47845, 43.55923], [22.49065, 43.54088], [22.51886, 43.47425], [22.26512, 43.33485], [22.14048, 43.27827], [22.13328, 43.25832], [22.15835, 43.22179], [22.08189, 43.07192], [22.081, 43.0597], [22.09289, 43.04701], [22.23444, 42.96799], [22.18384, 42.87924], [22.00826, 42.84216], [21.99316, 42.83459], [21.98599, 42.82353], [21.99217, 42.80738], [22.13703, 42.67612], [22.44207, 42.68168], [22.4492, 42.66796], [22.42533, 42.57285], [22.48145, 42.53562], [22.51214, 42.51919], [22.52486, 42.50766], [22.5325, 42.49356], [22.53654, 42.47839], [22.53312, 42.45759], [22.51948, 42.42093], [22.50884, 42.40493], [22.58297, 42.10134], [22.63112, 42.07763], [22.4881, 41.86874], [22.46259, 41.72355], [22.33571, 41.74203], [22.21683, 41.70385], [21.82394, 41.78257], [21.43936, 41.74345], [21.41936, 41.7335], [21.30637, 41.5944], [21.04909, 41.5324], [20.86538, 41.58863], [20.53469, 41.58527], [20.52932, 41.57488], [20.50741, 41.56227], [20.44416, 41.54966], [20.15359, 41.64149], [20.09055, 41.64121], [20.02456, 41.77883], [19.95559, 41.83502], [19.8824, 42.0307], [19.92212, 42.09435], [19.92471, 42.11049], [19.85777, 42.24102], [19.90803, 42.27434], [19.91582, 42.2859], [19.89928, 42.41096], [19.99917, 42.6293], [19.996, 42.70332], [19.96027, 42.88858], [20.08475, 43.00012], [20.01989, 43.04735], [19.95974, 43.07856], [19.94982, 43.08592], [19.92915, 43.11391], [19.91664, 43.11706], [19.90714, 43.11326], [19.8722, 43.09037], [19.80513, 43.08996], [19.78177, 43.09647], [19.7612, 43.10874], [19.74281, 43.12652], [19.71356, 43.16561], [19.70549, 43.16618], [19.69733, 43.16021], [19.68462, 43.15672], [19.61868, 43.16825], [19.59811, 43.1762], [19.58085, 43.1878], [19.54995, 43.21752], [19.51243, 43.24064], [19.29215, 43.08353], [19.27113, 43.00183], [19.27977, 42.9711], [19.3388, 42.87199], [19.38763, 42.56962], [19.29986, 42.72082], [19.26341, 42.82544], [19.19781, 42.91732], [19.07753, 43.04671], [18.99246, 43.2671], [18.95949, 43.30346], [18.95732, 43.32586], [18.95029, 43.33307], [18.92342, 43.34684], [18.89914, 43.3519], [18.8396, 43.34782], [18.82121, 43.34139], [18.83351, 43.32415], [18.80715, 43.31803], [18.67951, 43.24948], [18.42637, 43.38258], [18.40365, 43.38217], [18.36901, 43.38992], [18.3047, 43.42352], [18.19508, 43.52448], [18.25995, 43.47097], [18.30569, 43.44383], [18.34663, 43.42609], [18.39185, 43.41492], [18.41902, 43.41304], [18.46042, 43.41865], [18.49242, 43.43395], [18.51749, 43.46104], [18.54667, 43.53638], [18.56085, 43.63614], [18.55669, 43.7911], [18.57226, 43.83538], [18.59181, 43.85088], [18.7459, 43.88672], [18.80745, 43.90663], [18.83376, 43.92049], [18.88118, 43.97915], [18.87331, 44.04115], [18.88012, 44.07097], [18.8945, 44.0888], [18.92273, 44.10898], [18.94167, 44.11669], [19.157, 44.29358], [19.13891, 44.30934], [19.11669, 44.3437], [19.10894, 44.36365], [19.10719, 44.38272], [19.11576, 44.4036], [19.14139, 44.43083], [19.14336, 44.45822], [19.12734, 44.50256], [19.12992, 44.51832], [19.16527, 44.52669], [19.17963, 44.53826], [19.18728, 44.5533], [19.18832, 44.57604], [19.20868, 44.58839], [19.2557, 44.64565], [19.27007, 44.67562], [19.27761, 44.68487], [19.30841, 44.70513], [19.31802, 44.71546], [19.32836, 44.73396], [19.36371, 44.85463], [19.37663, 44.863], [19.3728, 44.88145], [19.35317, 44.89902], [19.34014, 44.89623], [19.33022, 44.89871], [19.31017, 44.91235], [19.28382, 44.90837], [19.23948, 44.91514], [19.20186, 44.90837], [19.18687, 44.92754], [19.17426, 44.92542], [19.08455, 44.87897], [19.00497, 44.86331], [18.88963, 44.86119], [18.85872, 44.86853], [18.8178, 44.88755], [18.78338, 44.91374], [18.77263, 44.94248], [18.77987, 44.95224], [18.80157, 44.96398], [18.80457, 44.97384], [18.79578, 44.98506], [18.79465, 44.99545], [18.78896, 45.00573], [18.77801, 45.01033], [18.73832, 45.01591], [18.72633, 45.02614], [18.68513, 45.08381], [19.04486, 45.13725], [19.06006, 45.14686], [19.11607, 45.14288], [19.13767, 45.14603], [19.1417, 45.16215], [19.12186, 45.1958], [19.14388, 45.19952], [19.15576, 45.19497], [19.18532, 45.16804], [19.20454, 45.16288], [19.22594, 45.16195], [19.2678, 45.16582], [19.27947, 45.17724], [19.28671, 45.17952], [19.30428, 45.16655], [19.39068, 45.16934], [19.40536, 45.17967], [19.40784, 45.20313], [19.74003, 45.21271], [19.7565, 45.20023], [19.80167, 45.17613], [19.84857, 45.16725], [19.86784, 45.17165], [19.89502, 45.19188], [19.973, 45.33557], [20.01505, 45.38399], [20.04269, 45.4022], [20.07984, 45.41497], [20.11676, 45.41888], [20.15821, 45.41691], [20.23138, 45.40517], [20.28958, 45.38843], [20.31684, 45.3755], [20.37816, 45.32645], [20.40888, 45.28419], [20.4334, 45.22919], [20.49756, 45.16727], [20.57561, 45.1283], [20.64879, 45.08072], [20.69727, 45.06316], [20.74555, 45.06262], [20.84089, 45.08276], [20.88487, 45.10061], [21.09156, 45.28809], [21.06396, 45.30628], [20.98149, 45.33279], [20.96619, 45.34158], [20.92764, 45.37749], [20.86305, 45.41873], [20.83039, 45.45252], [20.81602, 45.46286], [20.76714, 45.47934], [20.76073, 45.49335], [20.79762, 45.5165], [20.80021, 45.5305], [20.78739, 45.55366], [20.75804, 45.58926], [20.43993, 45.55135], [20.40372, 45.56724], [20.29042, 45.59826], [20.15688, 45.61552], [20.06413, 45.61266], [20.00721, 45.60309], [19.95314, 45.5872], [19.88023, 45.55242], [19.82706, 45.51396], [19.77388, 45.45828], [19.63438, 45.54754], [19.54929, 45.61124], [19.50409, 45.63714], [19.36725, 45.69332], [19.28814, 45.71387], [18.96849, 45.66874], [18.93541, 45.63339], [18.91237, 45.61923], [18.90358, 45.57308], [18.65803, 45.41556], [18.65271, 45.40036], [18.62433, 45.24197], [18.58936, 45.16328], [18.56644, 45.05847], [18.53294, 45.01189], [18.49635, 44.93642], [18.48432, 44.85686], [18.49814, 44.78781], [18.51584, 44.75214], [18.53973, 44.72001], [18.59268, 44.6745], [18.64766, 44.64562], [18.75659, 44.61099], [18.83787, 44.59488], [18.9227, 44.58867], [18.88846, 44.53023], [18.87334, 44.46034], [18.87985, 44.39513], [18.91321, 44.31959], [18.8395, 44.29243], [18.78314, 44.26522], [18.71355, 44.21253], [18.67628, 44.16388], [18.66247, 44.1346], [18.64998, 44.0632], [18.47242, 44.01836], [18.4158, 43.98593], [18.37644, 43.94745], [18.3477, 43.901], [18.33182, 43.85421], [18.32518, 43.81172], [18.32347, 43.67875], [18.22231, 43.75205], [18.15268, 43.78752], [18.07769, 43.81251], [17.96788, 43.82835], [17.96017, 43.88008], [17.94373, 43.92493], [17.91942, 43.96491], [17.86187, 44.02396], [17.63157, 44.16638], [17.48966, 44.23733], [17.47478, 44.25845], [17.37182, 44.30804], [17.24114, 44.39514], [17.1124, 44.45486], [17.05251, 44.50388], [17.00569, 44.53069], [16.94619, 44.54976], [16.8741, 44.55637], [16.8099, 44.5898], [16.73499, 44.60573], [16.67602, 44.60482], [16.60894, 44.58944], [16.4362, 44.57889], [16.11666, 44.52094], [16.10489, 44.53237], [16.0837, 44.5349], [16.04732, 44.52333], [16.02665, 44.52519], [16.00608, 44.541], [16.01394, 44.55702], [16.03047, 44.57222], [16.03492, 44.58539], [16.04474, 44.58937], [16.03616, 44.61531], [16.0283, 44.62472], [15.97911, 44.63438], [15.96898, 44.63924], [15.95565, 44.65319], [15.9481, 44.6781], [15.93735, 44.68895], [15.91306, 44.68451], [15.90542, 44.69014], [15.8956, 44.71856], [15.88878, 44.72425], [15.87627, 44.72482], [15.85643, 44.70358], [15.80568, 44.69665], [15.797, 44.70327], [15.78284, 44.72259], [15.75369, 44.73929], [15.71731, 44.78647], [15.71607, 44.80321], [15.73065, 44.81701], [15.76868, 44.82734], [15.77344, 44.84502], [15.76403, 44.86403], [15.73426, 44.90212], [15.73085, 44.92723], [15.73881, 44.94485], [15.76362, 44.97555], [15.76744, 44.99322], [15.75556, 45.02356], [15.75597, 45.04221], [15.77943, 45.08536], [15.78377, 45.10092], [15.78005, 45.16029], [15.78098, 45.16799], [15.79235, 45.1898], [15.33388, 45.45852], [15.36137, 45.48203], [15.31103, 45.50591], [15.29667, 45.52296], [15.28261, 45.5706], [15.26959, 45.59345], [15.26856, 45.60166], [15.28788, 45.61034], [15.29739, 45.62569], [15.3531, 45.64032], [15.37377, 45.64021], [15.35196, 45.66807], [15.33077, 45.68455], [15.31496, 45.68088], [15.30494, 45.67215], [15.28302, 45.68011], [15.26783, 45.69845], [15.25088, 45.70765], [15.24892, 45.71184], [15.25502, 45.72346], [15.26349, 45.73039], [15.3038, 45.74615], [15.42906, 45.7753], [15.44105, 45.78217], [15.43557, 45.80212], [15.44033, 45.81147], [15.2304, 45.9982], [15.17919, 46.07461], [15.10602, 46.15014], [14.98904, 46.24911], [14.93598, 46.28679], [14.783, 46.50326], [14.76089, 46.49628], [14.73526, 46.49334], [14.72637, 46.49771], [14.70973, 46.49251], [14.68709, 46.47122], [14.67996, 46.45887], [14.66208, 46.4597], [14.6317, 46.44058], [14.59015, 46.43443], [14.57537, 46.41973], [14.5577, 46.38394], [14.54033, 46.37864], [14.5271, 46.38823], [14.51584, 46.40536], [14.50219, 46.41836], [14.46768, 46.41267], [14.45093, 46.41448], [14.42003, 46.42435], [14.40649, 46.43934], [14.39584, 46.44099], [14.41132, 46.67953], [14.41624, 46.68979], [14.4051, 46.71167], [14.11409, 46.93053], [14.2774, 47.14587], [14.28081, 47.1617], [14.37402, 47.21579], [14.38256, 47.22878], [14.37979, 47.24447], [14.36372, 47.25896], [14.14061, 47.34513], [14.17365, 47.39534], [14.18911, 47.45119], [14.18429, 47.52201], [14.47138, 47.39321], [14.79266, 47.31026], [15.037, 47.3776], [15.13872, 47.46737], [15.39403, 47.48648], [15.70187, 47.39733], [15.79995, 47.45621], [16.00592, 47.47001], [16.09769, 47.44376], [16.43396, 47.39685], [16.43644, 47.35851], [16.42497, 47.35112], [16.42435, 47.3452], [16.43882, 47.33657], [16.46921, 47.29324], [16.47324, 47.2768], [16.46662, 47.26342], [16.45246, 47.25458], [16.42135, 47.24314], [16.42466, 47.22559], [16.40926, 47.20368], [16.41278, 47.18717], [16.41877, 47.18366], [16.4351, 47.18358], [16.44182, 47.17712], [16.44213, 47.16834], [16.43365, 47.14575], [16.44709, 47.13971], [16.48088, 47.15077], [16.49732, 47.14968], [16.50951, 47.13754], [16.8398, 47.10027], [16.96048, 47.03292], [17.01378, 46.89504], [17.21235, 46.80133], [17.37354, 46.59495], [17.5928, 46.55426], [17.85309, 46.41493], [18.40116, 46.37775], [18.63028, 46.51301], [18.80278, 46.48905], [19.04771, 46.59044], [19.18916, 46.56675], [19.53624, 46.71025], [19.744, 46.66532], [19.92536, 46.70304], [20.16791, 46.63674], [20.22832, 46.64533], [20.19015, 46.63691], [20.1804, 46.62727], [20.17787, 46.61276], [20.2687, 46.49198], [20.47639, 46.3619], [20.58008, 46.24653], [20.60151, 46.24076], [20.68665, 46.24723], [20.64873, 45.9716], [20.65584, 45.95315], [20.9324, 45.77569], [21.02376, 45.76461], [21.10398, 45.69305], [21.3621, 45.59178], [21.36408, 45.57636], [21.29456, 45.51168], [21.13941, 45.3037], [21.15564, 45.29517], [21.20608, 45.24592], [21.23925, 45.22938], [21.25713, 45.22411], [21.2993, 45.22318], [21.40555, 45.19967], [21.43376, 45.18882], [21.45939, 45.17404], [21.49329, 45.1451], [21.49784, 45.13187], [21.49412, 45.11931], [21.48151, 45.11156], [21.45857, 45.10732], [21.44244, 45.09291], [21.44379, 45.07291], [21.42952, 45.0573], [21.42187, 45.03141], [21.40927, 45.02397], [21.36338, 45.01653], [21.35139, 44.99824], [21.35346, 44.98981], [21.38394, 44.98666], [21.38705, 44.98154], [21.38518, 44.9695], [21.40844, 44.95834], [21.4565, 44.95235], [21.51634, 44.9339], [21.53102, 44.92465], [21.53628, 44.91408], [21.84486, 44.98339], [21.91764, 44.89201], [21.98348, 44.85846], [22.00693, 44.86052], [22.03929, 44.87885], [22.12433, 44.97074], [22.15688, 44.99594], [22.19816, 45.01857], [22.21428, 45.02502], [22.37614, 45.05041], [22.59915, 44.93567], [22.46894, 44.73019], [22.42605, 44.73365], [22.38068, 44.70053], [22.36115, 44.69205], [22.3197, 44.68534], [22.30492, 44.67738], [22.29903, 44.66167], [22.18514, 44.51511], [22.17211, 44.50535], [22.14824, 44.5009], [22.18506, 44.26746]]], [[[14.15803, 46.4399], [14.1371, 46.21306], [14.14986, 46.44006], [14.15803, 46.4399]]]]}}]}