{"type": "FeatureCollection", "features": [{"type": "Feature", "properties": {"map_title": "제1차 세계 대전 전후의 유럽", "source": "미래엔 세계사 교과서 4권 184쪽", "volume": 4, "page": 184, "legend": "제1차 세계 대전 이전(1914) 오스트리아·헝가리 제국", "name": "오스트리아·헝가리 제국", "name_en": "Austria-Hungary", "period": "1914년", "kind": "국가", "phase": "1914", "coast_snap": "Natural Earth 10m 해안선에 맞춤", "border_snap": "현대 국경(Natural Earth 10m)에 맞춘 구간 약 1222 km"}, "geometry": {"type": "Polygon", "coordinates": [[[24.45654, 50.45889], [24.50873, 50.42136], [24.54692, 50.40058], [24.58205, 50.39177], [24.72871, 50.40215], [24.79824, 50.39511], [24.8482, 50.37736], [24.8893, 50.34731], [24.90361, 50.32908], [24.91984, 50.28799], [24.91975, 50.24314], [24.90778, 50.1792], [24.91473, 50.11876], [24.92888, 50.0914], [24.94508, 50.07786], [25.01314, 50.04419], [25.13352, 50.00182], [25.26259, 49.9383], [25.46924, 49.89147], [25.51202, 49.87669], [25.54008, 49.86103], [25.56686, 49.82998], [25.5804, 49.79363], [25.61634, 49.59609], [25.64536, 49.54317], [25.66792, 49.52131], [25.72325, 49.48694], [25.80931, 49.45368], [25.86341, 49.44149], [25.94529, 49.44087], [26.02116, 49.41764], [26.11422, 49.39683], [26.16378, 49.36764], [26.18966, 49.34014], [26.20001, 49.32063], [26.2086, 49.27955], [26.21664, 48.99845], [26.1969, 48.91614], [26.15559, 48.79384], [26.14577, 48.71106], [26.15212, 48.67835], [26.17582, 48.62138], [26.20773, 48.57549], [26.27172, 48.53474], [26.31121, 48.52338], [26.33397, 48.50787], [26.5329, 48.31292], [26.50829, 48.31462], [26.535, 48.19096], [26.54638, 47.98513], [26.56105, 47.95177], [26.56009, 47.93458], [26.54229, 47.90744], [26.4795, 47.86712], [26.43837, 47.82962], [26.40364, 47.78785], [26.38502, 47.74149], [26.36792, 47.65202], [26.37391, 47.59949], [26.44886, 47.50715], [26.46867, 47.46085], [26.47291, 47.38893], [26.45788, 47.31426], [26.42494, 47.25444], [26.40205, 47.23559], [26.31669, 47.20005], [26.24252, 47.17929], [26.20595, 47.1779], [26.16589, 47.18471], [25.94315, 47.25234], [25.92647, 47.25317], [25.86966, 47.24164], [25.73032, 47.26369], [25.68438, 47.26419], [25.62312, 47.24797], [25.5636, 47.21412], [25.52298, 47.17008], [25.51514, 47.14655], [25.51849, 47.12322], [25.55243, 47.06813], [25.60013, 47.02416], [25.65829, 46.98921], [25.72365, 46.96115], [25.99308, 46.87653], [26.07073, 46.83628], [26.13599, 46.78278], [26.19125, 46.71949], [26.23885, 46.64988], [26.35799, 46.43709], [26.43029, 46.33198], [26.61166, 46.13468], [26.70382, 46.06718], [26.74662, 46.00846], [26.76501, 45.95163], [26.76397, 45.89663], [26.7483, 45.84337], [26.72271, 45.79182], [26.63417, 45.64663], [26.60803, 45.58055], [26.59649, 45.51184], [26.60425, 45.44009], [26.61679, 45.40294], [26.63586, 45.36488], [26.68192, 45.29794], [26.68435, 45.27417], [26.67374, 45.2516], [26.63014, 45.21884], [26.57966, 45.20333], [26.43404, 45.19277], [26.40672, 45.18738], [26.34646, 45.16492], [26.19801, 45.15132], [26.13973, 45.13925], [26.09385, 45.11568], [26.06651, 45.08834], [26.04895, 45.08396], [26.02354, 45.09499], [25.97721, 45.13634], [25.87852, 45.20469], [25.82662, 45.23427], [25.77166, 45.25746], [25.33131, 45.38169], [25.19106, 45.41315], [25.11698, 45.42323], [24.8982, 45.44107], [24.64377, 45.43795], [24.52675, 45.44425], [24.43351, 45.4577], [24.07373, 45.52559], [23.98362, 45.53589], [23.89194, 45.53944], [23.79788, 45.53418], [23.67104, 45.51085], [23.51651, 45.52226], [23.48185, 45.51792], [23.42851, 45.50222], [23.28903, 45.40856], [23.23936, 45.39159], [23.12553, 45.37529], [22.88166, 45.36207], [22.821, 45.35116], [22.76772, 45.33527], [22.67893, 45.29065], [22.60662, 45.23258], [22.46903, 45.07961], [22.45119, 45.06892], [22.41032, 45.05564], [22.26634, 45.04009], [22.19882, 45.0189], [22.1574, 44.9963], [22.12374, 44.97024], [22.04085, 44.87994], [22.00287, 44.85867], [21.98485, 44.85773], [21.95884, 44.8692], [21.94225, 44.88436], [21.90733, 44.94129], [21.87431, 44.97323], [21.85457, 44.97831], [21.53859, 44.90945], [21.53102, 44.92465], [21.51634, 44.9339], [21.4565, 44.95235], [21.40844, 44.95834], [21.38518, 44.9695], [21.38705, 44.98154], [21.38395, 44.98666], [21.35346, 44.98981], [21.35139, 44.99824], [21.35614, 45.00857], [21.36338, 45.01653], [21.3733, 45.0201], [21.39883, 45.02139], [21.42188, 45.03141], [21.42952, 45.0573], [21.44379, 45.07291], [21.44244, 45.09291], [21.45857, 45.10732], [21.48151, 45.11156], [21.49412, 45.11931], [21.49784, 45.13187], [21.49329, 45.1451], [21.45939, 45.17404], [21.43376, 45.18882], [21.40555, 45.19967], [21.2993, 45.22318], [21.25713, 45.22411], [21.23925, 45.22938], [21.20608, 45.24592], [21.15564, 45.29517], [21.13941, 45.3037], [21.12918, 45.30189], [21.11306, 45.28933], [21.10334, 45.28607], [21.09156, 45.28809], [20.88603, 45.10103], [20.84211, 45.08309], [20.74446, 45.06247], [20.69618, 45.06334], [20.6492, 45.0805], [20.57513, 45.1286], [20.49865, 45.16635], [20.43245, 45.2304], [20.40861, 45.28468], [20.37775, 45.32695], [20.31603, 45.376], [20.26223, 45.39789], [20.15775, 45.41696], [20.11756, 45.41892], [20.06024, 45.40971], [20.01503, 45.38402], [19.97331, 45.33612], [19.89396, 45.19049], [19.86791, 45.17156], [19.84858, 45.16715], [19.82809, 45.16825], [19.80419, 45.17496], [19.75555, 45.20081], [19.73918, 45.21323], [19.40784, 45.20313], [19.40536, 45.17967], [19.39068, 45.16934], [19.30428, 45.16655], [19.28671, 45.17952], [19.27947, 45.17724], [19.26779, 45.16582], [19.22594, 45.16195], [19.20454, 45.16288], [19.18532, 45.16804], [19.15576, 45.19497], [19.14388, 45.19952], [19.12186, 45.19579], [19.14171, 45.16215], [19.13767, 45.14603], [19.11607, 45.14288], [19.06006, 45.14686], [19.04486, 45.13725], [18.68489, 45.08403], [18.72633, 45.02614], [18.73832, 45.01591], [18.77801, 45.01033], [18.78896, 45.00573], [18.79465, 44.99545], [18.79578, 44.98506], [18.80457, 44.97385], [18.80157, 44.96398], [18.77987, 44.95224], [18.77263, 44.94248], [18.78338, 44.91374], [18.8178, 44.88755], [18.85872, 44.86853], [18.88963, 44.86119], [19.00497, 44.86331], [19.08455, 44.87897], [19.17426, 44.92542], [19.18687, 44.92754], [19.20186, 44.90837], [19.23948, 44.91514], [19.28382, 44.90837], [19.31017, 44.91235], [19.33022, 44.89871], [19.34014, 44.89623], [19.35316, 44.89902], [19.3728, 44.88145], [19.37663, 44.863], [19.36371, 44.85463], [19.32836, 44.73396], [19.31803, 44.71546], [19.30841, 44.70513], [19.27761, 44.68487], [19.27007, 44.67562], [19.2557, 44.64565], [19.20868, 44.58839], [19.18832, 44.57604], [19.18728, 44.5533], [19.17964, 44.53826], [19.16527, 44.52669], [19.12992, 44.51832], [19.12734, 44.50256], [19.14336, 44.45822], [19.14139, 44.43083], [19.11576, 44.4036], [19.10718, 44.38272], [19.10894, 44.36365], [19.11669, 44.3437], [19.13891, 44.30934], [19.157, 44.29358], [18.94137, 44.11654], [18.92239, 44.1088], [18.89406, 44.08843], [18.88046, 44.07169], [18.87329, 44.04051], [18.88136, 43.97249], [18.86751, 43.96327], [18.833, 43.91987], [18.80705, 43.90647], [18.74554, 43.88661], [18.59124, 43.85071], [18.57224, 43.8354], [18.5567, 43.79187], [18.56084, 43.63538], [18.54651, 43.53535], [18.5167, 43.45934], [18.49364, 43.43439], [18.46084, 43.41823], [18.41739, 43.41268], [18.39484, 43.41436], [18.31717, 43.43791], [18.25901, 43.47157], [18.12155, 43.58244], [18.0747, 43.60921], [18.02353, 43.62799], [17.96939, 43.63581], [17.85454, 43.6394], [17.78732, 43.64937], [17.66314, 43.7015], [17.61838, 43.71287], [17.50145, 43.72423], [17.44733, 43.73487], [17.39681, 43.75289], [17.25499, 43.81878], [17.21075, 43.83125], [17.11296, 43.84339], [17.07853, 43.8532], [17.05636, 43.87413], [17.05409, 43.89363], [17.06317, 43.90844], [17.10383, 43.92594], [17.17402, 43.93162], [17.23628, 43.9208], [17.34099, 43.89336], [17.45171, 43.88411], [17.51955, 43.86784], [17.54381, 43.8513], [17.57505, 43.79592], [17.59309, 43.78226], [17.61625, 43.77476], [17.66673, 43.77781], [17.70136, 43.78855], [17.73455, 43.80495], [17.72777, 43.85019], [17.70163, 43.8812], [17.45848, 44.02019], [17.31934, 44.0805], [17.29786, 44.10432], [17.22364, 44.14141], [17.10762, 44.21784], [17.00933, 44.26481], [16.97431, 44.29006], [16.91723, 44.34761], [16.89504, 44.35995], [16.87367, 44.36278], [16.81729, 44.3581], [16.78794, 44.36233], [16.76463, 44.37619], [16.74295, 44.40805], [16.72117, 44.42328], [16.66509, 44.41039], [16.52636, 44.41084], [16.20287, 44.35977], [16.17134, 44.37709], [16.14199, 44.38075], [16.13827, 44.3776], [16.13879, 44.38541], [16.15388, 44.39357], [16.15987, 44.4007], [16.15966, 44.4161], [16.12835, 44.48431], [16.11646, 44.52147], [16.10489, 44.53237], [16.0837, 44.53491], [16.04732, 44.52333], [16.02665, 44.52519], [16.00608, 44.541], [16.01394, 44.55702], [16.03047, 44.57222], [16.03492, 44.58539], [16.04474, 44.58937], [16.03616, 44.61531], [16.0283, 44.62472], [15.97911, 44.63438], [15.96898, 44.63924], [15.95565, 44.65319], [15.9481, 44.6781], [15.93735, 44.68895], [15.91306, 44.68451], [15.90542, 44.69014], [15.8956, 44.71856], [15.88878, 44.72425], [15.87627, 44.72482], [15.85643, 44.70358], [15.80568, 44.69665], [15.797, 44.70327], [15.78284, 44.72259], [15.75369, 44.73929], [15.72848, 44.7691], [15.71731, 44.78647], [15.71607, 44.80321], [15.73065, 44.81701], [15.76868, 44.82734], [15.77344, 44.84502], [15.76403, 44.86403], [15.73426, 44.90212], [15.73085, 44.92723], [15.41169, 44.97006], [15.32099, 45.02251], [15.29108, 45.05111], [15.28428, 45.06623], [15.28521, 45.09202], [15.27285, 45.12], [15.28195, 45.12558], [15.31999, 45.12653], [15.32487, 45.13496], [15.31621, 45.15524], [15.32485, 45.15793], [15.35785, 45.15257], [15.40577, 45.1332], [15.51052, 45.06814], [15.55243, 45.05119], [15.64976, 45.03097], [15.67166, 45.03376], [15.6858, 45.04726], [15.66528, 45.06961], [15.56531, 45.12176], [15.3641, 45.20168], [15.34454, 45.21246], [15.215, 45.43362], [15.28158, 45.45097], [15.32519, 45.45283], [15.36137, 45.48203], [15.31103, 45.50591], [15.29667, 45.52296], [15.28261, 45.5706], [15.26959, 45.59345], [15.26856, 45.60166], [15.28788, 45.61034], [15.29739, 45.62569], [15.3531, 45.64032], [15.37377, 45.64021], [15.35196, 45.66807], [15.33077, 45.68455], [15.31496, 45.68088], [15.30494, 45.67215], [15.28302, 45.68011], [15.26783, 45.69845], [15.25088, 45.70765], [15.24892, 45.71184], [15.25502, 45.72346], [15.26349, 45.73039], [15.02964, 45.88705], [15.01053, 45.94804], [14.97112, 45.99488], [14.82587, 46.12325], [14.69063, 46.21807], [14.62359, 46.25707], [14.56079, 46.28268], [14.52893, 46.28723], [14.50448, 46.27967], [14.49096, 46.26329], [14.48284, 46.24032], [14.4703, 46.13212], [14.46317, 46.11376], [14.44728, 46.10269], [14.3976, 46.08373], [14.38342, 46.07217], [14.38468, 46.05048], [14.40224, 45.9937], [14.39698, 45.97544], [14.37581, 45.9735], [14.27852, 45.99216], [14.25753, 45.98625], [14.22588, 45.96894], [14.20716, 45.94859], [14.20666, 45.93869], [14.22868, 45.8677], [14.22783, 45.85701], [14.2198, 45.84916], [14.18542, 45.85468], [14.13482, 45.87758], [14.08172, 45.90754], [14.03188, 45.94494], [14.01144, 45.97247], [14.0036, 46.03981], [13.99504, 46.06207], [13.95406, 46.10581], [13.85764, 46.18262], [13.83497, 46.21118], [13.79168, 46.2865], [13.75079, 46.33754], [13.74065, 46.36739], [13.73955, 46.42846], [13.72968, 46.45653], [13.65717, 46.51155], [13.63036, 46.52276], [13.62147, 46.52248], [13.71667, 46.57601], [13.74633, 46.58375], [13.77248, 46.57716], [13.76108, 46.58268], [13.79083, 46.60878], [13.93981, 46.60703], [13.9899, 46.61774], [14.07885, 46.6981], [13.96448, 46.77735], [13.76856, 46.93514], [13.8525, 47.03071], [13.70654, 47.05937], [13.71319, 47.13943], [13.88253, 47.22276], [13.63168, 47.31821], [13.61952, 47.41935], [13.85743, 47.46489], [13.88126, 47.47295], [13.90386, 47.48785], [13.91258, 47.50462], [13.91002, 47.52252], [13.89869, 47.54081], [13.8371, 47.59071], [13.78117, 47.62099], [13.65822, 47.67291], [13.57511, 47.71851], [13.50043, 47.73689], [13.37925, 47.7584], [13.06409, 47.67399], [13.07205, 47.65947], [13.07484, 47.64665], [13.07205, 47.62242], [13.05706, 47.59766], [13.04094, 47.58335], [13.03825, 47.58402], [13.03908, 47.56134], [13.04125, 47.5619], [13.02812, 47.54165], [13.02895, 47.51803], [13.03701, 47.50137], [13.03732, 47.49305], [13.0088, 47.4701], [13.00187, 47.46602], [12.99112, 47.46568], [12.96973, 47.47573], [12.94255, 47.47049], [12.93159, 47.47351], [12.8826, 47.49858], [12.82845, 47.53726], [12.80364, 47.54134], [12.77894, 47.55482], [12.77367, 47.5795], [12.78586, 47.60268], [12.81315, 47.61182], [12.79331, 47.62479], [12.76736, 47.63637], [12.75166, 47.64939], [12.76199, 47.66686], [12.74483, 47.66536], [12.68871, 47.67513], [12.65306, 47.67513], [12.6174, 47.66934], [12.59838, 47.66288], [12.55384, 47.63601], [12.53823, 47.63133], [12.49658, 47.6289], [12.48252, 47.63358], [12.4447, 47.65629], [12.42413, 47.69156], [12.4077, 47.69373], [12.35147, 47.68169], [12.2937, 47.69001], [12.27189, 47.68789], [12.23871, 47.6789], [12.22879, 47.68487], [12.22332, 47.6959], [12.23303, 47.70887], [12.24223, 47.73202], [12.22518, 47.72737], [12.19241, 47.71016], [12.1766, 47.70582], [12.18177, 47.69213], [12.20233, 47.67779], [12.20512, 47.67228], [12.20678, 47.64557], [12.20213, 47.62983], [12.1736, 47.60508], [11.93589, 47.61074], [11.85197, 47.59916], [11.8407, 47.59461], [11.83068, 47.57761], [11.82034, 47.57529], [11.76402, 47.58312], [11.68257, 47.58335], [11.62046, 47.58965], [11.58914, 47.57038], [11.5694, 47.52738], [11.55121, 47.51369], [11.52951, 47.50785], [11.48258, 47.50258], [11.43535, 47.50971], [11.41262, 47.50609], [11.36549, 47.46933], [11.38864, 47.46222], [11.39246, 47.45478], [11.38388, 47.44486], [11.36766, 47.44013], [11.32425, 47.43943], [11.30564, 47.4354], [11.25883, 47.40073], [11.23702, 47.39396], [11.21304, 47.39582], [11.21521, 47.423], [11.19382, 47.42894], [11.1686, 47.42426], [11.10328, 47.39357], [11.08375, 47.38951], [10.97946, 47.39055], [10.96551, 47.39608], [10.95528, 47.40961], [10.96313, 47.42124], [10.95983, 47.43251], [10.90991, 47.46899], [10.85844, 47.48516], [10.85162, 47.4931], [10.88386, 47.50801], [10.89223, 47.51488], [10.85864, 47.53067], [10.97533, 47.75081], [10.90628, 47.89978], [10.88111, 47.92497], [10.85882, 47.93459], [10.8236, 47.93971], [10.78558, 47.93794], [10.71292, 47.92226], [10.6229, 47.93172], [10.51029, 47.93622], [10.45892, 47.94989], [10.42889, 47.97786], [10.40586, 48.01817], [10.40437, 48.04234], [10.4326, 48.14379], [10.43724, 48.1922], [10.40261, 48.30032], [10.34358, 48.40132], [10.31875, 48.3911], [10.25922, 48.40673], [10.22059, 48.39692], [10.15161, 48.35821], [10.09292, 48.2917], [10.02795, 48.26603], [10.00664, 48.25206], [9.94112, 48.27843], [9.9106, 48.29627], [9.85211, 48.39405], [9.83468, 48.41491], [9.80675, 48.43486], [9.75508, 48.44815], [9.62921, 48.4588], [9.58483, 48.4821], [9.54554, 48.5367], [9.53379, 48.56646], [9.52912, 48.61237], [9.53145, 48.71741], [9.52536, 48.74392], [9.50594, 48.78226], [9.51217, 48.80748], [9.54306, 48.83451], [9.5898, 48.83964], [9.62353, 48.85808], [9.66409, 48.89966], [9.72256, 48.98161], [9.70736, 48.99409], [9.70084, 49.00907], [9.81892, 49.06548], [9.99191, 49.00115], [10.22481, 48.82707], [10.26834, 48.7181], [10.51093, 48.85823], [10.52454, 48.99716], [10.99863, 48.92312], [11.06896, 48.75995], [11.52205, 48.79036], [11.77292, 48.92202], [12.40576, 48.8904], [12.41396, 48.97532], [12.64347, 48.91505], [12.7455, 48.83488], [12.87634, 48.88685], [12.99944, 48.85524], [13.04584, 48.74705], [13.26992, 48.61601], [13.32654, 48.74522], [13.46552, 48.94293], [13.42727, 48.95996], [13.39854, 48.97768], [13.38417, 48.99303], [13.38355, 49.02109], [13.37239, 49.03851], [13.32991, 49.06693], [13.29953, 49.09364], [13.28733, 49.10057], [13.26728, 49.10563], [13.20682, 49.10749], [13.1785, 49.11835], [13.14946, 49.15483], [13.05582, 49.23818], [13.04321, 49.24289], [13.01128, 49.2678], [12.99981, 49.29493], [13.33893, 49.40996], [13.6007, 49.42834], [13.76014, 49.5109], [13.80175, 49.67663], [14.05304, 49.59456], [14.1596, 49.70171], [14.1658, 49.85447], [13.958, 50.06756], [13.82248, 50.06631], [13.70935, 50.19759], [13.55936, 50.28239], [13.31273, 50.51046], [13.10959, 50.56659], [13.01004, 50.64386], [12.78246, 50.98008], [12.90769, 51.14503], [12.62059, 51.30329], [12.47006, 51.55696], [12.55529, 51.53286], [12.69066, 51.42411], [12.8451, 51.56754], [13.18477, 51.59815], [13.3543, 51.55003], [13.43919, 51.6384], [13.59115, 51.63971], [13.7587, 51.72058], [13.85939, 51.69558], [13.9433, 51.80088], [14.21721, 51.80643], [14.58281, 51.82508], [14.59594, 51.84242], [14.6533, 51.87862], [14.67169, 51.89389], [14.68857, 51.9153], [15.04188, 51.84216], [15.15616, 51.80096], [15.20603, 51.86296], [15.38619, 51.85014], [15.38663, 51.96547], [15.64694, 51.93126], [15.6626, 51.83008], [15.88667, 51.71456], [16.15825, 51.66155], [16.39323, 51.49267], [16.64823, 51.55878], [16.75453, 51.44968], [16.51467, 51.31474], [16.73143, 51.19697], [16.86672, 51.01647], [16.97172, 50.92345], [17.28626, 51.08935], [17.15405, 51.26932], [17.36359, 51.20928], [17.48542, 51.16328], [17.54298, 51.13304], [17.59916, 51.09553], [17.65458, 51.04894], [17.74848, 51.05948], [17.81241, 51.06087], [17.86278, 51.05372], [17.91358, 51.0369], [17.80931, 50.93651], [17.92335, 50.85941], [18.02758, 50.74994], [18.22612, 50.78997], [18.45037, 50.64286], [18.47403, 50.63728], [18.54811, 50.63569], [18.68572, 50.61507], [18.69853, 50.5098], [18.70581, 50.48456], [18.7178, 50.46855], [18.76695, 50.44016], [18.83122, 50.41568], [18.90395, 50.37983], [18.91977, 50.38002], [18.94788, 50.39197], [19.00219, 50.44526], [19.05117, 50.48398], [19.36042, 50.66242], [19.42039, 50.68857], [19.49534, 50.71304], [19.64203, 50.74213], [19.7457, 50.74935], [19.85429, 50.74198], [20.21501, 50.65335], [20.29377, 50.62351], [20.34575, 50.61], [20.44295, 50.59811], [20.49875, 50.60433], [20.54915, 50.62435], [20.65238, 50.71352], [20.72612, 50.75173], [20.78103, 50.76288], [20.94363, 50.77474], [21.00757, 50.78735], [21.12584, 50.82916], [21.22077, 50.88584], [21.38287, 50.92324], [21.44291, 50.9431], [21.52105, 50.98619], [21.6319, 51.09826], [21.65326, 51.11145], [21.68035, 51.11999], [21.7403, 51.11276], [21.80613, 51.09276], [21.9166, 51.04867], [21.98486, 51.01538], [22.0544, 50.95714], [22.18982, 50.87472], [22.23286, 50.83171], [22.28714, 50.75973], [22.36954, 50.68411], [22.40403, 50.66238], [22.44304, 50.64549], [22.53346, 50.62354], [22.65763, 50.62424], [22.74608, 50.61107], [22.94294, 50.59737], [23.01479, 50.5997], [23.29701, 50.64204], [23.44042, 50.6753], [23.50852, 50.70632], [23.59731, 50.76011], [23.9595, 50.78889], [23.97428, 50.77618], [23.99795, 50.7692], [24.02585, 50.76703], [24.02585, 50.76083], [24.01283, 50.74331], [24.02688, 50.72802], [24.05417, 50.71716], [24.08104, 50.71298], [24.07494, 50.69019], [24.0828, 50.66916], [24.10843, 50.62988], [24.08528, 50.60441], [24.09541, 50.55686], [24.10254, 50.54363], [24.45654, 50.45889]]]}}]}