{"type": "FeatureCollection", "features": [{"type": "Feature", "properties": {"map_title": "제1차 세계 대전 전후의 유럽", "source": "미래엔 세계사 교과서 4권 184쪽", "volume": 4, "page": 184, "legend": "제1차 세계 대전 이후 새로운 국가", "name": "에스토니아", "name_en": "Estonia", "period": "1918", "kind": "국가", "phase": "전후", "group": "새로운 국가", "coast_snap": "Natural Earth 10m 해안선에 맞춤", "border_snap": "현대 국경(Natural Earth 10m)에 맞춘 구간 약 352 km"}, "geometry": {"type": "MultiPolygon", "coordinates": [[[[22.54908, 57.75064], [22.58579, 57.7597], [22.61034, 57.75462], [22.60027, 57.74384], [22.59248, 57.71277], [22.5058, 57.74622], [22.54908, 57.75064]]], [[[23.22952, 57.7917], [23.2178, 57.80093], [23.22431, 57.82371], [23.23959, 57.82257], [23.26008, 57.81373], [23.27506, 57.79873], [23.27018, 57.78564], [23.25026, 57.78438], [23.22952, 57.7917]]], [[[23.93802, 58.13727], [23.95512, 58.15162], [23.98422, 58.15712], [24.01334, 58.1535], [24.02207, 58.13007], [24.00243, 58.10856], [23.97072, 58.09961], [23.94332, 58.11341], [23.93802, 58.13727]]], [[[22.49596, 58.17604], [22.50971, 58.17478], [22.52961, 58.14927], [22.5, 58.12113], [22.49692, 58.13068], [22.47733, 58.14297], [22.49596, 58.17604]]], [[[23.80486, 58.74799], [23.78339, 58.75585], [23.77957, 58.76642], [23.78549, 58.77798], [23.79949, 58.78535], [23.81617, 58.78461], [23.87436, 58.77167], [23.81568, 58.79995], [23.78419, 58.80097], [23.75766, 58.78536], [23.73951, 58.798], [23.71909, 58.79906], [23.67652, 58.79219], [23.60336, 58.79483], [23.56031, 58.78583], [23.54233, 58.77532], [23.48552, 58.77733], [23.4295, 58.76486], [23.46658, 58.80072], [23.4857, 58.80963], [23.51881, 58.81265], [23.52613, 58.81977], [23.46365, 58.86417], [23.45509, 58.883], [23.42239, 58.90868], [23.42207, 58.92869], [23.44371, 58.94403], [23.5101, 58.9416], [23.53192, 58.95668], [23.54916, 58.95083], [23.58448, 58.95356], [23.62485, 58.9726], [23.62159, 59.01533], [23.60548, 59.03266], [23.55982, 59.0528], [23.61443, 59.0113], [23.58033, 59.00507], [23.55982, 58.9914], [23.55297, 58.9709], [23.5433, 58.96987], [23.52564, 58.98395], [23.46128, 58.99239], [23.43484, 59.00382], [23.41127, 59.02532], [23.43629, 59.02558], [23.42924, 59.04361], [23.43492, 59.05609], [23.48057, 59.08376], [23.49074, 59.08827], [23.50123, 59.08544], [23.51824, 59.07331], [23.51938, 59.12499], [23.48636, 59.17386], [23.4709, 59.21214], [23.52565, 59.2304], [23.56967, 59.22419], [23.57846, 59.2263], [23.6311, 59.25181], [23.67925, 59.2498], [23.7155, 59.23168], [23.73048, 59.23041], [23.74258, 59.2447], [23.82591, 59.23355], [23.88857, 59.22096], [24.11005, 59.15971], [24.24951, 59.11184], [24.41808, 59.0275], [24.46909, 58.99106], [24.48962, 59.00164], [24.52252, 59.0103], [24.59282, 59.00959], [24.76555, 58.9974], [24.7892, 59.00698], [24.79731, 59.02142], [24.76608, 59.0598], [24.76971, 59.06683], [24.79542, 59.07103], [24.81193, 59.06883], [24.89536, 59.04089], [24.93301, 59.03732], [24.98099, 59.05452], [25.09927, 59.1142], [25.13741, 59.1235], [25.17778, 59.11602], [25.28014, 59.06901], [25.38518, 59.04403], [25.46048, 59.03572], [25.47851, 59.03998], [25.492, 59.04942], [25.53698, 59.13525], [25.5535, 59.14262], [25.56733, 59.14196], [25.60728, 59.12876], [25.6843, 59.07193], [25.83592, 59.01742], [25.87121, 59.01697], [25.90609, 59.03239], [25.92813, 59.03486], [26.09166, 59.01128], [26.20548, 59.00106], [26.23344, 59.00441], [26.25405, 59.01723], [26.26, 59.08073], [26.28464, 59.08654], [26.29904, 59.08462], [26.34768, 59.05301], [26.38517, 59.0504], [26.4127, 59.0653], [26.4326, 59.1127], [26.46102, 59.11662], [26.48715, 59.10304], [26.51087, 59.04965], [26.53201, 59.03752], [26.56862, 59.03809], [26.60398, 59.0599], [26.63013, 59.0643], [26.67783, 59.05379], [26.77832, 59.01211], [26.82134, 58.99991], [26.99692, 59.00665], [27.03891, 58.99319], [27.08487, 58.97137], [27.47779, 58.87543], [27.69441, 58.97594], [28.00599, 58.81135], [28.06013, 58.79968], [28.24704, 58.74865], [28.32892, 58.73591], [28.35883, 58.7388], [28.3889, 58.74749], [28.4933, 58.79667], [28.58311, 58.66926], [28.32574, 58.62318], [28.30699, 58.6165], [28.11269, 58.36708], [27.95735, 58.30568], [27.5443, 58.38209], [27.49412, 58.31954], [27.48285, 58.26864], [27.49536, 58.22146], [27.57969, 58.12586], [27.63044, 58.08829], [27.63659, 58.0592], [27.63013, 58.033], [27.63157, 58.00416], [27.65064, 58.00008], [27.66909, 57.99196], [27.67519, 57.96781], [27.65938, 57.93246], [27.66496, 57.9184], [27.67312, 57.91282], [27.77441, 57.8907], [27.79084, 57.88086], [27.79932, 57.86107], [27.78681, 57.84758], [27.76345, 57.83867], [27.70072, 57.82484], [27.53763, 57.81156], [27.5246, 57.8073], [27.55385, 57.79477], [27.51241, 57.78131], [27.50244, 57.77255], [27.49784, 57.75567], [27.50889, 57.72746], [27.50776, 57.71477], [27.52817, 57.52848], [27.52279, 57.49202], [27.52564, 57.46838], [27.51484, 57.44789], [27.51132, 57.4304], [27.53628, 57.4157], [27.64082, 57.389], [27.70795, 57.34813], [27.80913, 57.31394], [27.82774, 57.30495], [27.8403, 57.29064], [27.84613, 57.26731], [27.84117, 57.21121], [27.83394, 57.18049], [27.82433, 57.15907], [27.79404, 57.14339], [27.70098, 57.11879], [27.68222, 57.1037], [27.28527, 57.18613], [27.12434, 57.24031], [26.75516, 57.20524], [26.73478, 57.21002], [26.56738, 57.28258], [26.49955, 57.51582], [26.44756, 57.55292], [26.43092, 57.56171], [26.33863, 57.58315], [26.29718, 57.59915], [26.26318, 57.62083], [26.16851, 57.70405], [26.13523, 57.72477], [26.02475, 57.77436], [26.01606, 57.78668], [26.01307, 57.8073], [26.02526, 57.82841], [26.02196, 57.83794], [26.01452, 57.84283], [26.00273, 57.84598], [25.79262, 57.85598], [25.7675, 57.86892], [25.74538, 57.90918], [25.7303, 57.92313], [25.715, 57.92339], [25.65009, 57.91143], [25.62508, 57.91029], [25.60152, 57.9122], [25.5794, 57.91946], [25.30655, 57.73927], [25.08387, 57.70558], [24.87015, 57.66661], [24.87087, 57.68395], [24.86266, 57.69595], [24.86814, 57.71286], [24.85527, 57.72002], [24.73887, 57.70707], [24.61398, 57.70444], [24.4903, 57.71414], [24.37201, 57.73583], [24.29959, 57.75604], [24.28878, 57.84507], [24.32439, 57.88679], [24.33386, 57.92133], [24.38111, 57.98383], [24.3983, 58.02326], [24.46412, 58.07217], [24.46414, 58.12055], [24.47291, 58.15473], [24.45485, 58.1962], [24.46754, 58.21784], [24.47089, 58.25071], [24.49148, 58.26569], [24.54851, 58.28929], [24.5604, 58.31232], [24.55104, 58.33373], [24.52882, 58.35065], [24.44418, 58.38613], [24.40317, 58.39533], [24.36183, 58.39728], [24.327, 58.38813], [24.29575, 58.35497], [24.28686, 58.31855], [24.24332, 58.28023], [24.21078, 58.2714], [24.15602, 58.27684], [24.12858, 58.25494], [24.12084, 58.24519], [24.11166, 58.24105], [24.0941, 58.2447], [24.0838, 58.25071], [24.05323, 58.27827], [23.98023, 58.31843], [23.91383, 58.33332], [23.85508, 58.33957], [23.83351, 58.35395], [23.82447, 58.35456], [23.80568, 58.34652], [23.77711, 58.35497], [23.75562, 58.34004], [23.74826, 58.33921], [23.741, 58.34309], [23.72934, 58.36269], [23.71892, 58.39956], [23.68361, 58.42198], [23.67745, 58.43525], [23.68434, 58.49966], [23.67897, 58.52416], [23.66383, 58.5362], [23.63494, 58.5284], [23.62241, 58.52913], [23.58458, 58.54474], [23.57338, 58.55217], [23.56121, 58.58316], [23.54615, 58.5799], [23.51637, 58.55465], [23.50149, 58.56249], [23.49808, 58.57221], [23.51824, 58.60375], [23.49321, 58.6736], [23.49775, 58.6966], [23.50654, 58.70538], [23.5359, 58.70279], [23.54664, 58.70962], [23.53006, 58.72285], [23.53307, 58.74745], [23.58448, 58.73794], [23.69703, 58.75115], [23.75522, 58.73359], [23.8025, 58.7307], [23.80486, 58.74799]]], [[[22.32162, 58.58463], [22.45491, 58.59244], [22.55031, 58.62957], [22.58318, 58.6345], [22.61264, 58.6057], [22.64812, 58.58674], [22.68214, 58.60032], [22.73634, 58.58808], [22.75799, 58.59292], [22.81137, 58.62294], [22.84636, 58.61343], [22.89967, 58.62026], [22.98975, 58.60174], [23.01881, 58.59081], [23.09103, 58.57096], [23.12582, 58.5351], [23.14829, 58.52155], [23.18865, 58.5104], [23.25556, 58.49992], [23.28857, 58.48818], [23.31804, 58.47266], [23.33324, 58.45637], [23.32495, 58.4423], [23.2614, 58.46589], [23.23764, 58.45637], [23.26173, 58.45161], [23.27798, 58.43652], [23.23488, 58.4399], [23.19607, 58.45637], [23.1819, 58.47468], [23.15651, 58.47752], [23.13036, 58.43953], [23.10865, 58.42903], [23.08424, 58.42963], [23.08674, 58.39497], [23.04247, 58.3715], [23.02198, 58.36324], [22.97755, 58.38166], [22.95484, 58.38105], [22.94752, 58.37263], [22.96947, 58.36017], [22.90267, 58.31184], [22.85401, 58.29873], [22.8112, 58.27343], [22.74293, 58.27383], [22.7212, 58.27033], [22.71013, 58.25776], [22.75665, 58.24225], [22.72314, 58.22542], [22.66921, 58.22151], [22.65496, 58.2447], [22.62135, 58.25275], [22.58619, 58.24779], [22.56495, 58.23519], [22.535, 58.25406], [22.51757, 58.23042], [22.50415, 58.22355], [22.49726, 58.22306], [22.49098, 58.2447], [22.47682, 58.2451], [22.42164, 58.22164], [22.38795, 58.22675], [22.32342, 58.20661], [22.27475, 58.17927], [22.26531, 58.11484], [22.22426, 58.0466], [22.22191, 58.09176], [22.22972, 58.13496], [22.25687, 58.19948], [22.20057, 58.24591], [22.14597, 58.31073], [22.12771, 58.3456], [22.11156, 58.416], [22.11358, 58.45216], [22.13043, 58.50563], [22.17019, 58.52051], [22.18777, 58.54287], [22.21289, 58.54636], [22.22885, 58.51057], [22.24334, 58.50483], [22.2732, 58.50202], [22.28836, 58.56932], [22.32162, 58.58463]]], [[[23.1758, 58.68109], [23.19811, 58.68056], [23.28834, 58.66648], [23.34347, 58.6449], [23.3475, 58.60716], [23.38176, 58.57973], [23.40021, 58.55541], [23.37989, 58.54755], [23.36215, 58.53247], [23.31373, 58.54466], [23.27858, 58.54637], [23.23487, 58.53466], [23.22382, 58.53548], [23.13461, 58.5799], [23.08326, 58.59052], [23.05936, 58.60346], [23.06286, 58.62457], [23.07511, 58.62969], [23.10613, 58.62421], [23.12094, 58.62832], [23.13463, 58.66181], [23.15465, 58.67592], [23.1758, 58.68109]]], [[[23.04052, 58.84077], [23.03352, 58.83032], [23.01906, 58.8291], [22.9568, 58.8474], [22.94223, 58.83423], [22.92921, 58.83999], [22.87957, 58.83271], [22.8672, 58.82005], [22.88275, 58.81742], [22.88683, 58.81203], [22.88671, 58.79048], [22.84538, 58.77653], [22.81666, 58.77596], [22.79007, 58.781], [22.77835, 58.79218], [22.78933, 58.80263], [22.82691, 58.81916], [22.81935, 58.82966], [22.80226, 58.83039], [22.7776, 58.82437], [22.73666, 58.80646], [22.68098, 58.72407], [22.65494, 58.70279], [22.61117, 58.69051], [22.55568, 58.68701], [22.50173, 58.69478], [22.46309, 58.71646], [22.49723, 58.73754], [22.44949, 58.78681], [22.43979, 58.84138], [22.38373, 58.88127], [22.41966, 58.93132], [22.45274, 58.9634], [22.47547, 58.98091], [22.48846, 58.98115], [22.48845, 58.99094], [22.53525, 59.02054], [22.58542, 59.04608], [22.68043, 59.08226], [22.7141, 59.06956], [22.69158, 59.04116], [22.70134, 59.02497], [22.73666, 59.00507], [22.83716, 59.0086], [22.93408, 58.98403], [22.94962, 58.97068], [22.94956, 58.94257], [22.9554, 58.93222], [23.01513, 58.89179], [23.02174, 58.86408], [23.03905, 58.86102], [23.04052, 58.84077]]], [[[23.29908, 58.9709], [23.27858, 58.9707], [23.2234, 58.98395], [23.21077, 58.97298], [23.16327, 58.96895], [23.1483, 58.97403], [23.11413, 59.0218], [23.11921, 59.03369], [23.1318, 59.04081], [23.17018, 59.04587], [23.20801, 59.04408], [23.278, 59.03238], [23.34424, 59.03928], [23.38962, 59.00755], [23.39371, 58.99624], [23.38475, 58.98054], [23.37427, 58.97554], [23.3401, 58.98395], [23.29908, 58.9709]]]]}}]}