{"type": "FeatureCollection", "features": [{"type": "Feature", "properties": {"map_title": "제1차 세계 대전 전후의 유럽", "source": "미래엔 세계사 교과서 4권 184쪽", "volume": 4, "page": 184, "legend": "제1차 세계 대전 이후 일시적 자치 또는 독립된 지역", "name": "아제르바이잔", "name_en": "Azerbaijan", "period": "1918–1920", "kind": "기타", "phase": "전후", "group": "일시적 자치·독립", "coast_snap": "Natural Earth 10m 해안선에 맞춤", "border_snap": "현대 국경(Natural Earth 10m)에 맞춘 구간 약 162 km"}, "geometry": {"type": "Polygon", "coordinates": [[[45.46484, 38.47482], [45.56533, 38.62145], [45.65776, 38.76805], [45.74262, 38.91502], [45.89079, 39.20934], [45.96562, 39.38219], [46.00626, 39.48512], [46.16956, 39.6041], [46.1461, 39.63846], [46.13168, 39.65215], [46.11448, 39.65965], [46.07655, 39.66812], [46.04513, 39.68755], [46.00658, 39.74791], [45.97924, 39.76848], [45.91614, 39.78315], [45.86188, 39.80455], [45.81682, 39.83917], [45.76442, 39.92206], [45.74277, 39.94051], [45.71543, 39.9509], [45.61115, 39.95916], [45.57942, 39.97017], [45.57627, 39.99389], [45.63957, 40.02541], [45.8039, 40.00448], [45.87377, 40.00975], [45.8872, 40.01844], [45.89403, 40.02908], [45.90953, 40.08267], [45.9317, 40.09755], [45.95077, 40.11719], [45.96296, 40.14169], [45.9811, 40.20597], [45.9811, 40.21781], [46.26907, 40.28048], [46.41376, 40.74689], [46.43795, 40.81338], [46.47492, 41.04411], [46.49678, 41.04483], [46.50556, 41.05527], [46.51114, 41.07098], [46.52241, 41.087], [46.54355, 41.09703], [46.58215, 41.09165], [46.60179, 41.09403], [46.62111, 41.1146], [46.91055, 41.0158], [47.34522, 40.81419], [47.47287, 40.74204], [47.53217, 40.70095], [47.632, 40.62081], [47.65234, 40.61409], [47.66967, 40.61476], [47.73407, 40.6566], [47.75722, 40.66188], [47.78552, 40.66019], [47.8201, 40.64944], [47.86644, 40.62574], [47.89755, 40.60163], [47.9176, 40.57769], [47.95739, 40.47929], [47.97214, 40.45649], [48.00907, 40.41727], [48.09072, 40.35045], [48.32475, 40.19939], [48.33718, 40.19913], [48.365, 40.21809], [48.39901, 40.21297], [48.43082, 40.18615], [48.45909, 40.14465], [48.48227, 40.09522], [48.49886, 40.04482], [48.51143, 39.96845], [48.62398, 39.89088], [48.85448, 39.71507], [48.86959, 39.71904], [48.89533, 39.7735], [48.9307, 39.82361], [48.95617, 39.90758], [48.95619, 39.9522], [48.96769, 40.01535], [48.9654, 40.09143], [49.04044, 40.12211], [49.08377, 40.13408], [49.18031, 40.14864], [49.26217, 40.18595], [49.34858, 40.20942], [49.43988, 40.21952], [49.48578, 40.21936], [49.56582, 40.21039], [49.49252, 40.154], [49.49041, 40.13239], [49.49658, 40.09456], [49.44264, 40.07844], [49.43263, 40.06297], [49.43507, 40.04279], [49.44874, 40.02253], [49.47958, 39.99913], [49.48388, 39.98868], [49.4354, 39.95767], [49.42368, 39.93549], [49.42823, 39.90644], [49.44311, 39.87336], [49.43847, 39.86177], [49.41651, 39.84374], [49.42138, 39.81025], [49.40089, 39.79662], [49.39479, 39.78246], [49.40087, 39.76927], [49.39633, 39.75617], [49.40203, 39.7425], [49.4248, 39.71808], [49.42358, 39.70955], [49.38396, 39.69013], [49.33725, 39.64643], [49.31804, 39.62141], [49.31901, 39.6042], [49.29713, 39.56558], [49.28492, 39.5222], [49.28582, 39.49518], [49.29575, 39.47671], [49.38853, 39.41101], [49.40893, 39.38642], [49.39731, 39.34516], [49.40704, 39.3237], [49.38559, 39.33495], [49.37306, 39.35098], [49.36687, 39.35098], [49.37908, 39.31981], [49.39137, 39.30549], [49.40706, 39.29694], [49.40706, 39.28951], [49.38454, 39.2937], [49.35768, 39.32014], [49.30641, 39.3465], [49.27312, 39.33658], [49.24732, 39.3107], [49.23707, 39.27896], [49.23779, 39.1695], [49.21078, 39.09077], [49.20317, 39.03389], [49.19363, 39.01622], [49.11882, 38.97534], [49.07928, 38.96334], [49.05154, 38.98103], [49.05585, 39.00751], [49.0652, 39.01511], [49.11012, 39.02196], [49.1255, 39.02814], [49.13868, 39.04344], [49.14682, 39.06342], [49.14772, 39.08344], [49.1364, 39.10228], [49.11638, 39.1103], [49.06863, 39.11141], [49.05893, 39.1728], [49.04119, 39.18439], [49.02223, 39.18822], [48.96762, 39.18382], [48.94956, 39.15127], [48.94694, 39.12752], [48.93482, 39.12442], [48.93637, 39.05313], [48.95263, 39.03164], [48.94852, 39.00706], [48.92181, 38.9357], [48.89868, 38.89306], [48.86793, 38.86385], [48.8318, 38.87116], [48.83473, 38.81928], [48.86314, 38.75646], [48.8772, 38.34642], [48.8659, 38.31688], [48.87288, 38.29556], [48.87485, 38.24274], [48.89371, 38.20579], [48.90773, 38.08348], [48.94905, 37.96686], [48.94117, 37.94774], [48.94451, 37.90339], [48.98746, 37.84247], [48.98316, 37.81598], [48.99366, 37.77676], [49.0145, 37.73916], [49.0652, 37.67886], [49.1325, 37.62336], [49.20558, 37.58169], [49.36687, 37.51496], [49.44174, 37.49486], [49.82618, 37.45356], [49.86744, 37.45856], [49.90155, 37.4697], [49.93377, 37.47442], [49.96946, 37.4597], [49.94313, 37.46161], [49.93531, 37.45356], [50.01873, 37.42772], [50.14838, 37.40395], [50.19564, 37.38934], [50.22729, 37.36542], [50.22332, 37.32933], [50.24513, 37.27928], [50.26955, 37.24497], [50.24393, 37.21443], [50.18356, 37.1617], [50.10364, 37.11489], [50.06444, 37.09836], [49.98254, 37.07521], [49.89556, 37.06499], [49.872, 37.065], [49.86095, 37.08806], [49.84935, 37.09358], [49.76542, 37.0965], [49.6587, 37.10809], [49.58727, 37.14317], [49.5012, 37.20861], [49.49179, 37.2074], [49.42867, 37.16154], [49.38264, 37.13761], [49.33952, 37.14387], [49.22341, 37.17329], [49.09326, 37.22224], [49.08243, 37.22111], [49.01112, 37.09018], [49.00442, 36.95749], [48.92842, 36.84908], [48.89832, 36.78885], [48.90173, 36.73034], [48.92713, 36.58682], [48.92938, 36.53096], [48.92611, 36.52705], [48.91994, 36.5339], [48.88378, 36.59789], [48.86807, 36.59989], [48.84671, 36.53849], [48.81793, 36.36917], [48.80662, 36.37169], [48.79338, 36.39229], [48.78378, 36.39262], [48.77725, 36.38706], [48.74233, 36.41792], [48.70544, 36.46295], [48.53009, 36.73692], [48.41746, 36.89867], [48.3156, 37.01891], [48.21207, 37.11811], [48.10298, 37.20153], [47.99067, 37.2703], [47.8726, 37.33029], [47.45887, 37.51149], [47.47752, 37.52386], [47.48493, 37.54231], [47.47892, 37.56537], [47.4605, 37.57878], [47.37091, 37.58062], [47.32614, 37.57662], [47.27975, 37.56567], [47.23233, 37.5442], [47.15439, 37.48474], [46.95247, 37.25291], [46.84089, 37.15583], [46.73458, 37.09166], [46.63156, 37.0552], [46.52724, 37.04023], [46.416, 37.04125], [45.99908, 37.08277], [45.54458, 37.11882], [45.6261, 37.37738], [45.66529, 37.51933], [45.66342, 37.63393], [45.67378, 37.81973], [45.62437, 37.98799], [45.53907, 38.02546], [45.50916, 38.24998], [45.46484, 38.47482]]]}}]}