{"type": "FeatureCollection", "features": [{"type": "Feature", "properties": {"name": "올멕", "name_en": "Olmec civilization", "period": "기원전 1200–400년경", "kind": "국가", "legend": "올멕", "map_title": "여러 지역에서 형성된 다양한 문명", "source": "미래엔 세계사 교과서 1권 14–15쪽", "volume": 1, "page": "14–15", "coast_snap": "Natural Earth 10m 해안선에 맞춤", "group": "올멕", "map_folder": "1권_p014-015_여러 지역에서 형성된 다양한 문명"}, "geometry": {"type": "MultiPolygon", "coordinates": [[[[-96.53876, 19.18529], [-96.4993, 19.24536], [-96.31964, 19.429], [-96.30482, 19.39199], [-96.29845, 19.35415], [-96.27831, 19.3146], [-96.25451, 19.30145], [-96.15738, 19.22516], [-96.13181, 19.23572], [-96.12215, 19.22207], [-96.11872, 19.19847], [-96.10291, 19.16583], [-96.08849, 19.1153], [-96.06143, 19.07852], [-96.04125, 19.06566], [-95.97717, 19.05824], [-95.97028, 19.04586], [-95.95629, 18.97582], [-95.94176, 18.93895], [-95.90355, 18.8819], [-95.84435, 18.8334], [-95.78574, 18.81871], [-95.76521, 18.81044], [-95.75276, 18.79999], [-95.75277, 18.76583], [-95.7779, 18.77852], [-95.82457, 18.8133], [-95.87951, 18.82852], [-95.91478, 18.86249], [-95.93765, 18.86823], [-95.95885, 18.85639], [-95.93651, 18.83836], [-95.88244, 18.81704], [-95.87291, 18.79877], [-95.80737, 18.75214], [-95.80736, 18.7447], [-95.82421, 18.74528], [-95.86632, 18.75898], [-95.87731, 18.75239], [-95.87304, 18.73786], [-95.86189, 18.72337], [-95.85204, 18.71678], [-95.82433, 18.72012], [-95.80114, 18.73102], [-95.79419, 18.74322], [-95.77473, 18.74403], [-95.64688, 18.7106], [-95.58503, 18.66966], [-95.56835, 18.6833], [-95.60827, 18.70767], [-95.67431, 18.7294], [-95.72837, 18.75724], [-95.73281, 18.79997], [-95.66417, 18.75104], [-95.58361, 18.72167], [-95.49519, 18.70734], [-95.36474, 18.70327], [-95.27503, 18.7099], [-95.19006, 18.70514], [-95.05143, 18.61224], [-95.03841, 18.59796], [-95.03332, 18.57714], [-95.02424, 18.56403], [-95.00255, 18.55541], [-94.87217, 18.53587], [-94.85505, 18.5279], [-94.80786, 18.52361], [-94.78694, 18.51194], [-94.7692, 18.48334], [-94.7386, 18.40681], [-94.71801, 18.37482], [-94.65292, 18.31396], [-94.6283, 18.28534], [-94.58088, 18.18985], [-94.53087, 18.16063], [-94.50024, 18.15761], [-94.46695, 18.14423], [-94.38842, 18.15571], [-94.3539, 18.16856], [-94.20714, 18.18964], [-94.13488, 18.20799], [-94.08458, 18.23223], [-94.0078, 18.24844], [-93.97256, 18.27211], [-93.86149, 18.30653], [-93.88541, 18.27607], [-93.88878, 18.26215], [-93.87828, 18.2569], [-93.78112, 18.27277], [-93.7591, 18.29222], [-93.75886, 18.3015], [-93.76674, 18.31485], [-93.76249, 18.32394], [-93.7386, 18.34064], [-93.72521, 18.3371], [-93.7106, 18.33959], [-93.68395, 18.35491], [-93.67756, 18.33641], [-93.65722, 18.33332], [-93.59284, 18.34496], [-93.58121, 18.35627], [-93.56664, 18.38906], [-93.5764, 18.41185], [-93.58031, 18.41633], [-93.60261, 18.41104], [-93.63268, 18.39046], [-93.70385, 18.3686], [-93.72492, 18.34748], [-93.76903, 18.34064], [-93.80346, 18.31709], [-93.83682, 18.30931], [-93.8478, 18.29973], [-93.83958, 18.31854], [-93.80187, 18.33369], [-93.78173, 18.35306], [-93.59698, 18.4198], [-93.55212, 18.42942], [-93.44469, 18.44179], [-93.30553, 18.43793], [-93.15576, 18.44305], [-93.16569, 18.42154], [-93.1831, 18.40892], [-93.17642, 18.37767], [-93.17003, 18.3686], [-93.16047, 18.36896], [-93.12166, 18.38904], [-93.12255, 18.37397], [-93.13386, 18.35489], [-93.13532, 18.34064], [-93.12849, 18.34064], [-93.10733, 18.3686], [-93.11482, 18.37482], [-93.0948, 18.37812], [-93.08837, 18.39277], [-93.09594, 18.40888], [-93.13938, 18.42024], [-93.13739, 18.42898], [-93.12193, 18.43792], [-93.10114, 18.44305], [-92.93977, 18.44574], [-92.85573, 18.46605], [-92.80679, 18.49409], [-92.75931, 18.53667], [-92.7263, 18.58762], [-92.71691, 18.59218], [-92.70748, 18.59085], [-92.69027, 18.55292], [-92.6822, 18.45596], [-92.6691, 18.42939], [-92.66226, 18.45734], [-92.67028, 18.47285], [-92.66226, 18.53583], [-92.69586, 18.61562], [-92.68102, 18.62286], [-92.58898, 18.62491], [-92.40487, 18.67108], [-92.29271, 18.67683], [-92.06013, 18.70161], [-91.97931, 18.69842], [-91.94807, 18.69121], [-91.92081, 18.66193], [-91.86043, 18.62181], [-91.86043, 18.60981], [-91.86658, 18.59838], [-91.87662, 18.59016], [-91.88829, 18.58765], [-91.88085, 18.6013], [-91.9051, 18.59443], [-91.93236, 18.59391], [-91.94252, 18.59838], [-91.93724, 18.62055], [-91.94294, 18.62865], [-91.95019, 18.62954], [-91.97607, 18.61157], [-91.99446, 18.61563], [-92.00821, 18.61298], [-92.01138, 18.60737], [-92.00504, 18.60236], [-91.99073, 18.60131], [-91.99094, 18.59384], [-92.01647, 18.58968], [-92.03913, 18.6013], [-92.03166, 18.5808], [-92.04601, 18.56664], [-92.0528, 18.5467], [-92.03166, 18.56036], [-92.01374, 18.54633], [-91.99071, 18.53925], [-91.95519, 18.54768], [-91.94262, 18.52998], [-91.92662, 18.5183], [-91.8883, 18.50576], [-91.94298, 18.54198], [-91.96417, 18.56233], [-91.97027, 18.59388], [-91.93883, 18.57526], [-91.92626, 18.57233], [-91.90198, 18.58079], [-91.91503, 18.56037], [-91.88818, 18.54816], [-91.87817, 18.53799], [-91.87403, 18.52559], [-91.8883, 18.53242], [-91.89004, 18.52546], [-91.89452, 18.52558], [-91.87694, 18.51439], [-91.83723, 18.50323], [-91.8263, 18.49144], [-91.8291, 18.47729], [-91.85424, 18.44831], [-91.86042, 18.43317], [-91.85228, 18.42015], [-91.81428, 18.38866], [-91.80207, 18.38565], [-91.79235, 18.40156], [-91.81259, 18.45047], [-91.79454, 18.43732], [-91.77751, 18.43622], [-91.7826, 18.38978], [-91.80258, 18.32203], [-91.81796, 18.28928], [-91.85764, 18.22997], [-91.8823, 18.20288], [-91.93825, 18.1571], [-91.97005, 18.138], [-92.02888, 18.11264], [-92.03332, 18.10546], [-91.84503, 17.57575], [-92.43237, 16.93307], [-93.5556, 16.89767], [-93.92771, 16.88957], [-94.30004, 16.88622], [-94.67364, 16.88934], [-94.9934, 17.10311], [-95.31043, 17.32171], [-95.93259, 17.76012], [-95.99742, 18.0086], [-96.27124, 18.15744], [-96.38455, 18.59304], [-96.28956, 18.66483], [-96.28643, 18.67471], [-96.31295, 18.72668], [-96.32485, 18.76112], [-96.33842, 18.83169], [-96.38928, 18.88994], [-96.43958, 18.97652], [-96.52806, 19.04223], [-96.5726, 19.0863], [-96.56511, 19.11905], [-96.53876, 19.18529]]], [[[-91.79832, 18.49143], [-91.77826, 18.48125], [-91.77727, 18.44402], [-91.80515, 18.4759], [-91.79832, 18.49143]]], [[[-91.82393, 18.64913], [-91.84266, 18.6512], [-91.82989, 18.66656], [-91.82393, 18.64913]]]]}}]}