{"type": "FeatureCollection", "features": [{"type": "Feature", "properties": {"map_title": "나폴레옹 시대의 유럽 정세", "source": "미래엔 세계사 교과서 3권 142쪽", "volume": 3, "page": 142, "name": "나폴리 왕국", "name_en": "Kingdom of Naples", "period": "1812년경", "kind": "국가", "legend": "프랑스의 위성국(지도 글자·위치로 이름 판단)", "coast_snap": "Natural Earth 10m 해안선에 맞춤"}, "geometry": {"type": "MultiPolygon", "coordinates": [[[[14.96974, 38.15925], [15.00733, 38.1518], [15.04899, 38.15179], [15.0687, 38.13129], [15.0879, 38.12824], [15.17742, 38.15632], [15.2033, 38.1833], [15.24073, 38.24116], [15.23718, 38.26479], [15.24317, 38.26479], [15.24633, 38.25434], [15.24073, 38.23029], [15.24537, 38.21723], [15.25758, 38.21019], [15.29184, 38.20702], [15.32106, 38.21088], [15.39967, 38.23257], [15.43377, 38.25315], [15.47291, 38.26781], [15.51288, 38.29758], [15.52866, 38.30263], [15.55925, 38.3001], [15.61598, 38.28022], [15.6516, 38.27529], [15.64242, 38.26228], [15.62428, 38.26166], [15.58375, 38.24042], [15.56967, 38.22696], [15.55991, 38.19977], [15.57592, 38.20017], [15.52703, 38.13679], [15.50033, 38.08495], [15.39259, 37.97614], [15.26645, 37.81211], [15.24122, 37.79556], [15.21306, 37.76146], [15.20655, 37.74775], [15.22021, 37.70673], [15.21606, 37.69673], [15.20216, 37.68537], [15.17848, 37.60412], [15.16382, 37.5677], [15.15536, 37.5597], [15.08847, 37.59224], [15.0205, 37.63957], [14.9656, 37.69667], [14.92596, 37.76129], [14.8324, 38.03867], [14.81848, 38.10716], [14.82019, 38.1648], [14.87554, 38.17643], [14.90679, 38.18764], [14.93531, 38.18593], [14.96974, 38.15925]]], [[[14.95661, 38.38838], [14.98625, 38.40891], [15.00732, 38.37768], [14.98683, 38.3641], [14.95661, 38.38838]]], [[[15.22965, 38.78303], [15.21746, 38.77303], [15.20607, 38.77522], [15.18704, 38.79271], [15.21831, 38.81189], [15.23925, 38.80402], [15.22965, 38.78303]]], [[[14.25471, 40.54638], [14.20834, 40.53796], [14.19599, 40.54117], [14.19886, 40.55856], [14.21921, 40.56054], [14.26212, 40.55398], [14.25471, 40.54638]]], [[[13.84853, 43.09203], [13.86541, 43.00731], [13.94467, 42.79828], [14.00123, 42.69843], [14.06323, 42.62482], [14.07537, 42.59882], [14.22055, 42.47016], [14.28419, 42.42829], [14.38737, 42.37294], [14.42905, 42.32172], [14.56023, 42.22565], [14.59588, 42.20856], [14.65349, 42.19107], [14.69369, 42.18536], [14.70923, 42.17548], [14.71704, 42.16006], [14.7295, 42.09911], [14.74073, 42.08462], [14.78041, 42.07513], [14.83546, 42.04414], [14.8711, 42.03181], [14.95156, 42.02112], [14.99365, 42.01064], [15.04518, 41.96898], [15.06316, 41.96429], [15.12338, 41.93427], [15.16538, 41.9278], [15.28175, 41.92803], [15.40056, 41.90778], [15.44606, 41.90693], [15.61134, 41.92803], [15.77443, 41.92121], [16.02711, 41.94407], [16.14046, 41.9199], [16.1609, 41.89265], [16.17919, 41.89329], [16.17604, 41.87739], [16.19217, 41.82163], [16.19287, 41.79092], [16.14575, 41.74886], [16.10719, 41.73762], [16.06315, 41.70149], [16.02751, 41.67993], [15.9253, 41.64004], [15.90008, 41.61465], [15.89137, 41.57685], [15.89633, 41.53644], [15.91179, 41.50288], [15.9336, 41.47944], [15.96111, 41.45946], [16.02166, 41.4278], [16.08513, 41.41266], [16.11411, 41.39289], [16.30127, 41.32793], [16.4603, 41.26264], [16.52067, 41.25014], [16.59392, 41.20698], [16.83031, 41.14638], [16.85141, 41.13296], [16.85816, 41.13296], [16.85816, 41.14035], [16.86442, 41.14036], [16.88527, 41.12397], [17.05739, 41.08175], [17.2028, 41.02112], [17.2762, 40.98031], [17.31006, 40.95477], [17.34791, 40.9121], [17.37769, 40.90228], [17.4134, 40.8812], [17.47609, 40.83015], [17.51221, 40.82029], [17.54835, 40.80195], [17.60395, 40.791], [17.60174, 40.78045], [17.62621, 40.71753], [17.63505, 40.64769], [17.63264, 40.61195], [17.60859, 40.51123], [17.61903, 40.36751], [17.60785, 40.2999], [17.51206, 40.30371], [17.49391, 40.30745], [17.44044, 40.331], [17.39943, 40.33101], [17.36818, 40.35151], [17.21291, 40.4062], [17.20023, 40.42039], [17.22348, 40.42841], [17.24301, 40.44139], [17.2479, 40.45734], [17.22758, 40.47444], [17.24741, 40.48028], [17.29575, 40.47321], [17.31625, 40.48188], [17.32325, 40.49848], [17.30405, 40.49946], [17.26175, 40.48872], [17.26857, 40.49616], [17.24741, 40.50283], [17.18995, 40.48189], [17.18182, 40.4853], [17.16619, 40.50918], [17.15602, 40.5124], [17.04957, 40.51911], [16.97609, 40.49262], [16.91212, 40.44522], [16.78273, 40.30158], [16.7614, 40.2696], [16.73745, 40.21084], [16.73071, 40.20068], [16.71169, 40.18801], [16.57124, 40.28048], [16.51271, 40.33626], [16.47009, 40.39894], [16.45474, 40.43301], [16.43786, 40.50248], [16.43618, 40.53815], [16.4366, 40.55275], [16.55048, 40.67688], [16.69235, 40.7806], [16.69403, 40.79135], [16.61107, 40.82241], [16.4016, 40.87755], [16.27478, 40.93109], [16.26308, 40.92835], [16.19324, 40.86809], [15.94941, 40.34101], [16.00997, 40.28332], [16.05534, 40.22745], [16.13201, 40.15152], [16.14545, 40.15675], [16.16605, 40.21265], [16.2167, 40.2873], [16.25288, 40.24166], [16.27143, 40.20929], [16.29569, 40.14117], [16.30211, 40.07029], [16.28885, 39.98987], [16.38789, 39.90009], [16.41161, 39.86983], [16.44673, 39.80508], [16.45815, 39.77039], [16.46733, 39.70057], [16.4652, 39.66481], [16.44777, 39.59594], [16.41293, 39.53019], [16.38959, 39.49981], [16.33022, 39.44096], [16.38903, 39.28997], [16.40013, 39.28361], [16.47238, 39.29668], [16.51766, 39.30017], [16.60901, 39.29664], [16.69658, 39.27947], [16.73857, 39.26588], [16.81637, 39.22943], [16.88382, 39.1815], [16.93748, 39.12456], [16.97575, 39.06065], [17.03938, 38.9148], [17.02199, 38.90596], [16.99635, 38.92951], [16.98129, 38.9372], [16.95729, 38.94009], [16.83855, 38.9182], [16.72779, 38.87885], [16.68775, 38.85586], [16.67074, 38.84065], [16.61061, 38.81655], [16.58562, 38.79784], [16.57439, 38.78506], [16.56372, 38.75675], [16.53883, 38.72333], [16.53484, 38.6999], [16.54907, 38.68992], [16.55885, 38.59602], [16.577, 38.52832], [16.57062, 38.43964], [16.55018, 38.43101], [16.55536, 38.41189], [16.50814, 38.37154], [16.49757, 38.36929], [16.46705, 38.34871], [16.43507, 38.33999], [16.33985, 38.30085], [16.30633, 38.27709], [16.16944, 38.14321], [16.15187, 38.11083], [16.12554, 38.00501], [16.11093, 37.97379], [16.09001, 37.94921], [16.06316, 37.93269], [16.00099, 37.91902], [15.94215, 37.93309], [15.76119, 37.9253], [15.73465, 37.93106], [15.68426, 37.95363], [15.64567, 37.98819], [15.63512, 38.0091], [15.63837, 38.02773], [15.65846, 38.04255], [15.62405, 38.09211], [15.62746, 38.10736], [15.6478, 38.14313], [15.63284, 38.22028], [15.65057, 38.24103], [15.6846, 38.2532], [15.78647, 38.27802], [15.81284, 38.3006], [15.8299, 38.35124], [15.9048, 38.47394], [15.91782, 38.51679], [15.91603, 38.55036], [15.90008, 38.57827], [15.83563, 38.62804], [15.83673, 38.64918], [15.84474, 38.66049], [15.9048, 38.67939], [15.96803, 38.71259], [16.00262, 38.7254], [16.04884, 38.72772], [16.12086, 38.72093], [16.1526, 38.7309], [16.17921, 38.74828], [16.20094, 38.77644], [16.2151, 38.81415], [16.22169, 38.85659], [16.21469, 38.91901], [16.2046, 38.93407], [16.18963, 38.94355], [16.16896, 38.94686], [16.15416, 38.95522], [16.08303, 39.07527], [16.03403, 39.34524], [15.9954, 39.43877], [15.95808, 39.47757], [15.93312, 39.51366], [15.87624, 39.55147], [15.86753, 39.56391], [15.8366, 39.65266], [15.80642, 39.6955], [15.78875, 39.79662], [15.78875, 39.7904], [15.78395, 39.81], [15.76972, 39.83015], [15.78191, 39.8686], [15.77442, 39.8911], [15.74156, 39.9296], [15.72804, 39.96418], [15.6789, 40.00886], [15.65162, 40.04365], [15.63039, 40.05769], [15.62428, 40.07779], [15.6102, 40.0732], [15.53492, 40.07779], [15.51313, 40.06768], [15.4953, 40.04673], [15.45981, 40.02936], [15.42959, 39.9998], [15.4101, 39.99398], [15.34317, 40.00416], [15.3143, 40.03376], [15.30275, 40.0362], [15.28305, 40.02986], [15.26125, 40.02937], [15.26125, 40.0362], [15.27915, 40.04768], [15.26344, 40.07372], [15.2339, 40.1], [15.18996, 40.11913], [15.12721, 40.16962], [15.1128, 40.17479], [15.06568, 40.16658], [15.04722, 40.16894], [15.03493, 40.17537], [15.0228, 40.19563], [15.00312, 40.21026], [14.97591, 40.21932], [14.95709, 40.23155], [14.93814, 40.22785], [14.91116, 40.24165], [14.90693, 40.25861], [14.93189, 40.28555], [14.93914, 40.30707], [14.9324, 40.33372], [14.99449, 40.35843], [15.00043, 40.36883], [14.99827, 40.39756], [14.88885, 40.57307], [14.83546, 40.63264], [14.78199, 40.66987], [14.75221, 40.6767], [14.71998, 40.66682], [14.69015, 40.64906], [14.62574, 40.64908], [14.61329, 40.6459], [14.57129, 40.61775], [14.54448, 40.61364], [14.51638, 40.61987], [14.48658, 40.63264], [14.47136, 40.62467], [14.42205, 40.61555], [14.40153, 40.60213], [14.3558, 40.58364], [14.34262, 40.57064], [14.32983, 40.58466], [14.32799, 40.60541], [14.33775, 40.62441], [14.38738, 40.63695], [14.44422, 40.68598], [14.47637, 40.6951], [14.47975, 40.71149], [14.47413, 40.72968], [14.44264, 40.75507], [14.42129, 40.75094], [14.39444, 40.76157], [14.2942, 40.83877], [14.24838, 40.83771], [14.22364, 40.83137], [14.20316, 40.80121], [14.18221, 40.80093], [14.1656, 40.81575], [14.13524, 40.81857], [14.09596, 40.83381], [14.08253, 40.83128], [14.07618, 40.82221], [14.08251, 40.78353], [14.04771, 40.7896], [14.04117, 40.79649], [14.05226, 40.83759], [14.04446, 40.87421], [14.02134, 40.92183], [13.96534, 40.99641], [13.91799, 41.02367], [13.91065, 41.06464], [13.88432, 41.1048], [13.85173, 41.14732], [13.80221, 41.19468], [13.86828, 41.24907], [13.94417, 41.29037], [14.02992, 41.31979], [14.12365, 41.33625], [14.13169, 41.34451], [14.11195, 41.38406], [14.10483, 41.38855], [13.86693, 41.40622], [13.76107, 41.51702], [13.85967, 41.77971], [13.83825, 41.9419], [13.80487, 42.09955], [13.73509, 42.33841], [13.6521, 42.42129], [13.54129, 42.57391], [13.48997, 42.66712], [13.44116, 42.78716], [13.79892, 43.18263], [13.8348, 43.12726], [13.84853, 43.09203]], [[16.53113, 39.20934], [16.54205, 39.20881], [16.60668, 39.23347], [16.60467, 39.24481], [16.56298, 39.26731], [16.52698, 39.27271], [16.5178, 39.26362], [16.52596, 39.21496], [16.53113, 39.20934]]], [[[13.88315, 40.76239], [13.9463, 40.74518], [13.9656, 40.73518], [13.96581, 40.71528], [13.94467, 40.70162], [13.93482, 40.70563], [13.91977, 40.7045], [13.89015, 40.69417], [13.84915, 40.71528], [13.85614, 40.73485], [13.87013, 40.74872], [13.86282, 40.76239], [13.88315, 40.76239]]], [[[14.03531, 40.75984], [14.02182, 40.75719], [14.02588, 40.75032], [14.01352, 40.74754], [14.01708, 40.73727], [14.00587, 40.74689], [14.001, 40.74397], [14.0041, 40.76219], [14.01339, 40.7693], [14.03531, 40.75984]]], [[[15.49674, 42.11603], [15.48471, 42.10144], [15.47773, 42.10412], [15.47821, 42.11347], [15.48911, 42.12453], [15.49284, 42.12384], [15.49674, 42.11603]]]]}}]}