{"type": "FeatureCollection", "features": [{"type": "Feature", "properties": {"map_title": "나폴레옹 시대의 유럽 정세", "source": "미래엔 세계사 교과서 3권 142쪽", "volume": 3, "page": 142, "name": "프로이센", "name_en": "Kingdom of Prussia", "period": "1812년경", "kind": "국가", "legend": "프랑스의 동맹국(지도 글자·위치로 이름 판단)", "coast_snap": "Natural Earth 10m 해안선에 맞춤", "border_snap": "현대 국경(Natural Earth 10m)에 맞춘 구간 약 206 km"}, "geometry": {"type": "MultiPolygon", "coordinates": [[[[13.03892, 53.6133], [13.05403, 53.83337], [13.01476, 53.85666], [12.89681, 53.90882], [12.81424, 53.96024], [12.62646, 53.90269], [12.5635, 53.95627], [12.53676, 53.98779], [12.49951, 54.05469], [12.48929, 54.08987], [12.48667, 54.15992], [12.50228, 54.25741], [12.51572, 54.29207], [12.53471, 54.32537], [12.57828, 54.37698], [12.59295, 54.36933], [12.62273, 54.37393], [12.67726, 54.39208], [12.67044, 54.4064], [12.69256, 54.41364], [12.71751, 54.41381], [12.71752, 54.40641], [12.70248, 54.40412], [12.69239, 54.39619], [12.68409, 54.37226], [12.7046, 54.3996], [12.72381, 54.38125], [12.73504, 54.37816], [12.74611, 54.38588], [12.75782, 54.37979], [12.76857, 54.38007], [12.78711, 54.39205], [12.79469, 54.37714], [12.81804, 54.35798], [12.85467, 54.35786], [12.87599, 54.36542], [12.90383, 54.3996], [12.92937, 54.41437], [12.9691, 54.42938], [13.0088, 54.43805], [13.03416, 54.43366], [13.0215, 54.42646], [13.02857, 54.40184], [13.04038, 54.39208], [13.09553, 54.37226], [13.07667, 54.35252], [13.08074, 54.33714], [13.1092, 54.3102], [13.11492, 54.28002], [13.12599, 54.2766], [13.17065, 54.27659], [13.17066, 54.26919], [13.1434, 54.26301], [13.17612, 54.26484], [13.22836, 54.24738], [13.28881, 54.23427], [13.32179, 54.19452], [13.34887, 54.18048], [13.32154, 54.16682], [13.34653, 54.16694], [13.3838, 54.17812], [13.40347, 54.17365], [13.38299, 54.15314], [13.39479, 54.14891], [13.4087, 54.15461], [13.41772, 54.15313], [13.45037, 54.11042], [13.48357, 54.0913], [13.50709, 54.09105], [13.50709, 54.09789], [13.47928, 54.11836], [13.47928, 54.12518], [13.60271, 54.13947], [13.68345, 54.16803], [13.71192, 54.17364], [13.71467, 54.16406], [13.69825, 54.15933], [13.69825, 54.15314], [13.72902, 54.14374], [13.80812, 54.10468], [13.7732, 54.04633], [13.7461, 54.03644], [13.79762, 53.99893], [13.83862, 53.98631], [13.84864, 53.95555], [13.86722, 53.95457], [13.90602, 53.94306], [13.90756, 53.93354], [13.89014, 53.91291], [13.81853, 53.878], [13.80812, 53.86514], [13.81707, 53.85293], [13.8628, 53.84125], [13.86915, 53.83031], [13.89991, 53.80915], [13.91065, 53.81048], [13.98422, 53.77399], [14.01734, 53.76951], [14.03745, 53.75528], [14.06851, 53.75533], [14.10613, 53.74335], [14.18653, 53.73981], [14.21469, 53.74486], [14.23415, 53.76177], [14.25016, 53.75995], [14.26448, 53.75161], [14.26743, 53.73542], [14.21274, 53.70808], [14.22535, 53.70376], [14.27369, 53.70063], [14.30486, 53.71255], [14.30616, 53.72069], [14.2886, 53.72798], [14.30161, 53.73485], [14.28858, 53.74164], [14.29421, 53.74907], [14.3304, 53.73419], [14.34205, 53.71491], [14.38355, 53.70062], [14.41456, 53.68236], [14.45898, 53.67782], [14.51237, 53.66644], [14.53072, 53.65792], [14.59059, 53.59838], [14.60159, 53.62665], [14.62379, 53.63923], [14.62379, 53.65282], [14.57595, 53.65966], [14.54495, 53.70405], [14.57595, 53.7695], [14.58741, 53.76349], [14.62379, 53.76952], [14.61673, 53.79475], [14.63063, 53.85151], [14.62379, 53.85151], [14.61354, 53.83161], [14.58961, 53.81733], [14.59586, 53.81051], [14.58741, 53.81257], [14.56912, 53.82416], [14.58961, 53.83784], [14.57586, 53.8548], [14.55209, 53.86278], [14.44118, 53.86963], [14.42556, 53.87982], [14.43816, 53.89932], [14.4319, 53.90616], [14.42205, 53.89614], [14.3851, 53.89728], [14.36305, 53.87938], [14.40919, 53.87157], [14.41765, 53.86514], [14.41548, 53.85282], [14.39292, 53.84082], [14.38356, 53.84467], [14.35621, 53.83447], [14.3283, 53.831], [14.3283, 53.82416], [14.34203, 53.82099], [14.3283, 53.81734], [14.27468, 53.8308], [14.22657, 53.87197], [14.20314, 53.87832], [14.08741, 53.87044], [14.06512, 53.87239], [14.04835, 53.87938], [14.02506, 53.86385], [13.99615, 53.85385], [13.93848, 53.84468], [13.87526, 53.84406], [13.8401, 53.85029], [13.82179, 53.86514], [13.85548, 53.87739], [13.88771, 53.88154], [13.93165, 53.89932], [13.93898, 53.92821], [13.90188, 53.9698], [13.90449, 53.99542], [13.95484, 53.99358], [13.97264, 53.98924], [13.96583, 53.98184], [13.95899, 53.94086], [13.97462, 53.95734], [13.98785, 53.96141], [14.02782, 53.96136], [14.01433, 53.94709], [14.04835, 53.94086], [14.04029, 53.95384], [14.05307, 53.97842], [14.05128, 54.00507], [14.03745, 54.02172], [14.01435, 54.01603], [13.9817, 54.05634], [13.94606, 54.0666], [13.92612, 54.06403], [13.91586, 54.05638], [13.9248, 54.03645], [13.90724, 54.02749], [13.89088, 54.01016], [13.85599, 54.00236], [13.8581, 54.01577], [13.87631, 54.03644], [13.8711, 54.04865], [13.86362, 54.04999], [13.82301, 54.03791], [13.79418, 54.01814], [13.7741, 54.02277], [13.78207, 54.04214], [13.80926, 54.0751], [13.81495, 54.10126], [13.80616, 54.11664], [13.75297, 54.15312], [13.77761, 54.17401], [13.79615, 54.17828], [13.81494, 54.17364], [13.85597, 54.11835], [13.8825, 54.10244], [14.0166, 54.06], [14.20948, 53.93863], [14.26808, 53.92182], [14.36704, 53.91698], [14.40675, 53.92182], [14.51772, 53.96534], [14.78192, 54.03461], [15.0101, 54.06981], [15.28884, 54.13894], [15.66578, 54.19843], [15.85972, 54.24998], [16.02084, 54.26179], [16.13149, 54.28351], [16.1189, 54.27604], [16.06935, 54.26301], [16.09108, 54.25397], [16.17921, 54.26301], [16.17239, 54.27659], [16.22006, 54.2766], [16.21323, 54.28352], [16.21518, 54.29963], [16.19215, 54.30028], [16.1378, 54.29029], [16.21355, 54.31611], [16.27537, 54.35855], [16.23178, 54.32258], [16.27491, 54.33047], [16.28883, 54.34024], [16.3239, 54.34992], [16.33676, 54.35859], [16.32488, 54.37311], [16.30502, 54.37348], [16.28162, 54.35862], [16.3243, 54.40155], [16.43979, 54.48825], [16.43442, 54.47236], [16.44451, 54.46988], [16.4734, 54.48212], [16.47975, 54.49555], [16.47389, 54.49966], [16.44606, 54.48827], [16.46685, 54.51232], [16.50133, 54.5324], [16.5696, 54.55718], [16.77849, 54.57514], [16.85964, 54.59393], [16.93941, 54.6059], [17.0388, 54.54914], [17.11932, 54.47839], [17.38557, 54.52206], [17.39503, 54.53233], [17.35172, 54.59845], [17.33837, 54.6333], [17.32971, 54.70312], [17.3375, 54.74901], [17.71567, 54.79043], [17.88543, 54.82411], [18.1527, 54.83832], [18.3169, 54.83832], [18.33952, 54.83347], [18.37582, 54.81513], [18.41051, 54.80818], [18.75171, 54.69008], [18.81378, 54.64336], [18.83434, 54.61644], [18.83528, 54.6031], [18.81764, 54.59814], [18.80226, 54.61603], [18.78404, 54.62353], [18.77182, 54.64228], [18.70777, 54.70124], [18.65456, 54.71016], [18.64503, 54.71955], [18.61672, 54.72525], [18.55698, 54.74901], [18.49823, 54.76538], [18.44776, 54.78998], [18.42921, 54.78168], [18.41505, 54.75312], [18.4131, 54.73192], [18.44755, 54.7184], [18.47444, 54.68757], [18.47039, 54.66673], [18.48192, 54.65961], [18.47592, 54.64008], [18.48731, 54.63178], [18.50636, 54.6341], [18.52293, 54.64652], [18.5171, 54.62995], [18.57063, 54.55036], [18.56756, 54.48786], [18.57407, 54.45038], [18.58806, 54.43366], [18.63429, 54.41694], [18.69433, 54.40452], [18.7173, 54.38203], [18.88592, 54.35016], [18.92319, 54.34854], [18.95435, 54.35857], [18.97462, 54.34976], [19.00208, 54.34492], [19.37721, 54.37763], [19.45998, 54.40102], [19.53102, 54.41494], [19.59255, 54.45237], [19.62648, 54.461], [19.6265, 54.46845], [19.73406, 54.5257], [19.83188, 54.59813], [19.88317, 54.65619], [19.89633, 54.66218], [19.90018, 54.68756], [19.95631, 54.7569], [19.95883, 54.79682], [19.92068, 54.88959], [19.94078, 54.93439], [19.95693, 54.95199], [19.97675, 54.96458], [19.99585, 54.96807], [20.0337, 54.94819], [20.07496, 54.9544], [20.14356, 54.95181], [20.20582, 54.95843], [20.36557, 54.94619], [20.40699, 54.95161], [20.48243, 54.97553], [20.63404, 55.04877], [20.80822, 55.17609], [20.82228, 55.18098], [20.99952, 55.357], [21.04152, 55.41608], [21.08237, 55.49763], [21.08465, 55.51536], [21.11987, 55.51904], [21.11987, 55.48945], [21.08717, 55.44107], [21.10619, 55.42743], [21.10619, 55.42121], [21.0735, 55.39179], [21.03784, 55.3286], [20.98894, 55.29133], [20.9895, 55.27042], [20.94109, 55.24868], [20.93701, 55.23775], [20.9131, 55.23322], [20.90333, 55.22582], [20.90551, 55.21858], [20.89064, 55.21259], [20.88403, 55.19807], [20.83461, 55.15188], [20.77361, 55.11449], [20.68783, 55.05069], [20.55851, 54.98197], [20.53338, 54.97358], [20.53093, 54.96467], [20.55812, 54.94082], [20.76368, 54.94769], [20.80518, 54.94081], [20.86036, 54.91132], [20.96909, 54.89981], [21.03932, 54.904], [21.05592, 54.91444], [21.07895, 54.89981], [21.09067, 54.90156], [21.10622, 54.91351], [21.19028, 54.92691], [21.23015, 54.93891], [21.24342, 54.96125], [21.21937, 55.01345], [21.19508, 55.1354], [21.18134, 55.17109], [21.18141, 55.19366], [21.18883, 55.20831], [21.20167, 55.21441], [21.22291, 55.20148], [21.23683, 55.20063], [21.25904, 55.20498], [21.26759, 55.21174], [21.27328, 55.23265], [21.26443, 55.284], [21.27085, 55.28802], [21.28533, 55.28706], [21.29119, 55.29706], [21.27418, 55.32734], [21.25947, 55.33625], [21.25709, 55.36937], [21.24659, 55.37018], [21.18882, 55.33863], [21.18338, 55.34618], [21.2243, 55.39932], [21.2483, 55.41787], [21.23658, 55.48265], [21.22291, 55.52021], [21.21223, 55.52759], [21.42316, 55.54233], [21.54713, 55.5439], [21.60957, 55.53939], [21.72902, 55.52022], [21.83875, 55.48833], [21.8782, 55.4723], [21.88041, 55.43155], [21.90927, 55.3679], [21.92082, 55.36156], [21.93507, 55.36365], [22.21635, 55.50833], [22.9603, 55.32127], [23.64083, 55.14469], [24.57589, 55.00462], [25.53419, 54.85267], [25.59265, 54.71336], [25.18783, 54.48304], [25.22412, 54.25855], [25.20624, 54.25679], [25.19353, 54.24367], [25.17307, 54.19659], [25.15653, 54.17571], [25.1156, 54.14879], [25.07199, 54.1322], [25.02713, 54.12786], [24.94827, 54.1459], [24.90228, 54.14977], [24.85598, 54.14672], [24.82156, 54.13453], [24.81753, 54.12822], [24.81815, 54.11013], [24.79945, 54.10321], [24.79056, 54.0966], [24.78425, 54.09623], [24.7825, 54.09287], [24.78715, 54.07763], [24.81247, 54.03892], [24.82136, 54.01991], [24.81939, 53.99257], [24.80637, 53.97531], [24.7887, 53.96968], [24.7056, 53.9642], [24.69082, 53.97283], [24.6779, 53.99231], [24.66684, 53.99386], [24.64297, 53.98301], [24.5791, 53.97562], [24.52866, 53.95836], [24.41404, 53.89769], [24.37787, 53.88684], [24.25705, 53.89402], [24.24641, 53.90364], [24.22915, 53.93237], [24.20114, 53.95247], [24.16962, 53.95893], [24.13675, 53.95542], [24.07494, 53.93573], [24.04539, 53.93087], [23.98131, 53.9304], [23.96487, 53.93273], [23.91981, 53.94777], [23.90472, 53.94606], [23.82834, 53.92007], [23.81212, 53.92084], [23.78721, 53.92792], [23.75445, 53.91676], [23.69192, 53.91149], [23.64262, 53.89898], [23.62712, 53.89821], [23.52259, 53.9331], [23.48748, 53.93172], [22.87624, 54.05848], [21.88284, 53.86703], [21.08991, 53.95466], [20.53885, 53.90037], [19.88889, 54.05446], [19.1977, 54.19888], [18.80653, 54.15216], [18.45271, 54.09167], [18.12987, 54.02081], [17.8262, 53.94281], [17.44603, 53.67424], [16.75898, 53.57144], [16.39667, 53.44718], [16.02615, 53.33829], [15.53295, 53.01302], [15.55776, 52.7821], [16.20254, 52.33644], [15.77753, 51.99965], [15.45266, 51.99303], [15.29823, 52.35074], [15.02007, 52.47252], [14.63232, 52.49674], [14.62767, 52.50742], [14.60906, 52.5178], [14.61681, 52.54103], [14.64482, 52.57692], [14.61371, 52.59253], [14.54994, 52.63619], [14.4901, 52.65064], [14.46137, 52.67456], [14.43192, 52.68609], [14.39771, 52.72712], [14.3822, 52.73815], [14.27596, 52.78572], [14.24867, 52.79458], [14.21601, 52.81799], [14.19596, 52.82337], [14.15276, 52.82833], [13.94173, 52.63917], [13.34417, 52.81137], [12.79801, 52.78059], [12.15684, 52.87243], [11.65149, 53.14164], [11.62261, 53.31693], [11.90776, 53.43521], [12.82018, 53.48735], [13.03892, 53.6133]]], [[[13.14895, 54.37726], [13.17433, 54.38397], [13.20485, 54.37226], [13.21168, 54.37908], [13.22332, 54.3725], [13.26686, 54.38589], [13.25115, 54.38691], [13.23929, 54.39363], [13.23441, 54.40339], [13.23902, 54.42007], [13.22536, 54.42085], [13.2116, 54.4311], [13.20143, 54.43366], [13.15702, 54.42684], [13.18182, 54.45302], [13.25953, 54.46845], [13.25955, 54.47529], [13.27312, 54.48212], [13.23326, 54.49308], [13.22537, 54.50195], [13.23276, 54.51626], [13.1854, 54.5083], [13.16604, 54.51912], [13.15887, 54.54068], [13.14347, 54.54292], [13.16674, 54.54942], [13.24293, 54.55598], [13.25953, 54.55378], [13.28826, 54.53994], [13.29786, 54.51968], [13.30926, 54.53482], [13.30107, 54.55036], [13.33367, 54.57307], [13.36939, 54.58514], [13.34205, 54.55036], [13.35385, 54.54987], [13.36313, 54.54291], [13.34889, 54.52367], [13.37485, 54.52558], [13.3838, 54.53189], [13.38982, 54.54291], [13.36313, 54.55036], [13.36313, 54.5572], [13.37671, 54.56463], [13.41731, 54.52456], [13.4109, 54.50943], [13.43068, 54.49274], [13.45558, 54.48749], [13.50709, 54.48827], [13.4997, 54.49575], [13.52076, 54.51626], [13.52076, 54.52367], [13.49968, 54.5572], [13.52076, 54.56464], [13.52076, 54.57059], [13.66927, 54.53309], [13.65112, 54.51627], [13.58481, 54.48652], [13.57545, 54.47187], [13.5879, 54.43757], [13.60955, 54.4138], [13.67741, 54.40081], [13.69797, 54.39219], [13.74195, 54.35049], [13.76641, 54.34491], [13.74008, 54.32982], [13.73015, 54.31684], [13.72314, 54.2784], [13.69098, 54.28352], [13.71193, 54.28657], [13.71193, 54.30394], [13.67945, 54.29401], [13.65115, 54.29719], [13.65115, 54.30393], [13.68824, 54.3133], [13.70362, 54.32046], [13.71192, 54.33186], [13.65992, 54.32978], [13.61722, 54.31772], [13.69093, 54.34492], [13.69093, 54.35175], [13.65008, 54.35244], [13.62682, 54.33911], [13.59929, 54.35175], [13.49968, 54.34492], [13.42888, 54.31094], [13.40609, 54.28523], [13.35963, 54.27546], [13.35572, 54.24872], [13.3694, 54.25556], [13.36313, 54.26301], [13.41772, 54.26605], [13.42307, 54.23296], [13.40723, 54.22823], [13.34745, 54.23736], [13.31156, 54.25113], [13.33522, 54.28351], [13.30787, 54.26919], [13.31471, 54.26301], [13.28419, 54.26284], [13.26791, 54.2565], [13.24244, 54.26919], [13.21015, 54.27583], [13.19925, 54.28441], [13.20484, 54.29719], [13.19028, 54.29975], [13.14969, 54.29027], [13.14301, 54.29819], [13.14895, 54.30475], [13.16228, 54.30769], [13.1775, 54.30394], [13.1775, 54.31021], [13.11551, 54.33808], [13.14895, 54.37726]]], [[[12.92113, 54.4335], [12.89639, 54.4201], [12.87078, 54.41683], [12.76368, 54.4222], [12.69459, 54.43366], [12.67042, 54.42007], [12.63232, 54.42203], [12.67899, 54.45177], [12.8191, 54.45172], [12.85662, 54.44111], [12.87965, 54.44879], [12.90837, 54.44464], [12.92113, 54.4335]]], [[[13.07504, 54.50943], [13.06819, 54.46846], [13.06139, 54.46846], [13.06424, 54.50511], [13.10092, 54.59083], [13.14021, 54.5966], [13.11891, 54.58641], [13.10253, 54.52994], [13.07504, 54.50943]]], [[[13.52007, 54.57076], [13.50831, 54.57038], [13.48658, 54.5572], [13.44142, 54.55721], [13.42384, 54.57453], [13.39927, 54.57959], [13.38456, 54.59647], [13.46632, 54.57689], [13.48467, 54.57894], [13.52007, 54.57076]]], [[[13.24985, 54.5767], [13.26363, 54.60368], [13.34672, 54.59987], [13.3318, 54.58784], [13.27326, 54.56094], [13.25327, 54.56464], [13.24985, 54.5767]]], [[[13.15722, 54.59792], [13.15706, 54.58799], [13.14967, 54.59138], [13.14965, 54.57771], [13.14341, 54.57771], [13.1434, 54.59689], [13.15722, 54.59792]]]]}}]}