{"type": "FeatureCollection", "features": [{"type": "Feature", "properties": {"map_title": "나폴레옹 시대의 유럽 정세", "source": "미래엔 세계사 교과서 3권 142쪽", "volume": 3, "page": 142, "name": "에스파냐", "name_en": "Kingdom of Spain", "period": "1812년경", "kind": "국가", "legend": "프랑스의 위성국(지도 글자·위치로 이름 판단)", "coast_snap": "Natural Earth 10m 해안선에 맞춤", "border_snap": "현대 국경(Natural Earth 10m)에 맞춘 구간 약 946 km"}, "geometry": {"type": "MultiPolygon", "coordinates": [[[[-5.48718, 35.89716], [-5.44811, 35.91851], [-5.4235, 35.90896], [-5.4142, 35.9094], [-5.40549, 35.92651], [-5.3662, 35.92474], [-5.32738, 35.90424], [-5.30932, 35.90082], [-5.28309, 35.91167], [-5.29187, 35.89054], [-5.33556, 35.86237], [-5.34569, 35.83259], [-5.31876, 35.70173], [-5.3048, 35.68521], [-5.27677, 35.6852], [-5.27455, 35.65085], [-5.50746, 35.78638], [-5.56742, 35.83766], [-5.54096, 35.85053], [-5.48718, 35.89716]]], [[[-0.74185, 37.72553], [-0.74014, 37.70246], [-0.7265, 37.66522], [-0.74688, 37.68379], [-0.75449, 37.77439], [-0.74943, 37.77488], [-0.73275, 37.74775], [-0.74185, 37.72553]]], [[[-9.27951, 43.055], [-9.2711, 43.06048], [-9.25792, 43.0609], [-9.2457, 43.08799], [-9.22232, 43.10273], [-9.21759, 43.11443], [-9.18981, 43.10232], [-9.16226, 43.11445], [-9.14123, 43.13487], [-9.10774, 43.14114], [-9.10774, 43.1485], [-9.14708, 43.1387], [-9.16331, 43.13977], [-9.16226, 43.14851], [-9.19421, 43.13655], [-9.20807, 43.13786], [-9.21758, 43.15534], [-9.17007, 43.18874], [-9.13793, 43.20151], [-9.10041, 43.18952], [-9.0524, 43.19636], [-9.02697, 43.21015], [-9.01153, 43.23874], [-9.00406, 43.23874], [-8.98575, 43.22687], [-8.95897, 43.22748], [-8.93252, 43.2353], [-8.91527, 43.24502], [-8.93639, 43.24409], [-8.94789, 43.24981], [-8.96312, 43.27228], [-8.988, 43.28302], [-8.93049, 43.29975], [-8.888, 43.32073], [-8.8566, 43.32689], [-8.84117, 43.33892], [-8.82999, 43.3412], [-8.81726, 43.33595], [-8.78555, 43.31244], [-8.76854, 43.30707], [-8.6931, 43.2934], [-8.63003, 43.31585], [-8.59252, 43.32419], [-8.55842, 43.31322], [-8.50597, 43.33153], [-8.48606, 43.35431], [-8.45572, 43.36335], [-8.44302, 43.3753], [-8.38858, 43.38584], [-8.37572, 43.36298], [-8.35359, 43.34862], [-8.34081, 43.35993], [-8.3399, 43.39273], [-8.33071, 43.40565], [-8.31062, 43.40313], [-8.26721, 43.38592], [-8.25056, 43.35488], [-8.21728, 43.32832], [-8.21019, 43.31322], [-8.20246, 43.32925], [-8.20961, 43.39069], [-8.20481, 43.39972], [-8.1754, 43.41633], [-8.19506, 43.42324], [-8.24714, 43.42309], [-8.26446, 43.42724], [-8.28873, 43.44623], [-8.30514, 43.45108], [-8.28649, 43.46198], [-8.17878, 43.47329], [-8.16698, 43.48456], [-8.16857, 43.49201], [-8.25731, 43.47773], [-8.24372, 43.48517], [-8.25731, 43.49201], [-8.2692, 43.47895], [-8.28897, 43.47297], [-8.3331, 43.47151], [-8.31663, 43.52288], [-8.30517, 43.51935], [-8.2921, 43.53294], [-8.30821, 43.54634], [-8.31264, 43.56712], [-8.26098, 43.56452], [-8.23225, 43.57551], [-8.08666, 43.65647], [-8.083, 43.64545], [-8.07461, 43.63963], [-8.05187, 43.64281], [-8.06554, 43.64281], [-8.06554, 43.64906], [-8.05187, 43.65648], [-8.07114, 43.66786], [-8.07395, 43.67853], [-8.05931, 43.70941], [-8.01098, 43.71174], [-7.98119, 43.71784], [-7.95295, 43.73013], [-7.90855, 43.76633], [-7.88086, 43.76324], [-7.86148, 43.73119], [-7.84652, 43.71796], [-7.84651, 43.71174], [-7.86758, 43.71796], [-7.87926, 43.70051], [-7.87378, 43.68448], [-7.8841, 43.67862], [-7.89489, 43.68448], [-7.90856, 43.67699], [-7.90856, 43.67015], [-7.85839, 43.6682], [-7.84923, 43.6756], [-7.86758, 43.69745], [-7.85603, 43.70344], [-7.84386, 43.7038], [-7.81916, 43.69746], [-7.82604, 43.71174], [-7.81229, 43.72285], [-7.77404, 43.74248], [-7.73404, 43.75007], [-7.71276, 43.76069], [-7.69571, 43.77489], [-7.68553, 43.79343], [-7.67131, 43.78286], [-7.66834, 43.77253], [-7.69563, 43.74592], [-7.69156, 43.72724], [-7.67516, 43.73163], [-7.67248, 43.74384], [-7.64103, 43.75266], [-7.6376, 43.73908], [-7.61303, 43.70429], [-7.61596, 43.68854], [-7.60717, 43.69111], [-7.58641, 43.71795], [-7.57429, 43.71455], [-7.55577, 43.7276], [-7.54141, 43.73162], [-7.49015, 43.72532], [-7.40762, 43.69123], [-7.36707, 43.68007], [-7.30411, 43.59858], [-7.25676, 43.58161], [-7.27107, 43.56863], [-7.27107, 43.56114], [-7.25772, 43.55667], [-7.23038, 43.56854], [-7.21579, 43.56867], [-7.15697, 43.55927], [-7.09585, 43.56098], [-7.07933, 43.56862], [-7.04407, 43.55927], [-7.03235, 43.553], [-7.03087, 43.53323], [-7.05362, 43.49653], [-7.04459, 43.47919], [-7.03832, 43.47919], [-7.02375, 43.52582], [-7.01036, 43.53323], [-7.00136, 43.55666], [-6.94423, 43.56594], [-6.77082, 43.56862], [-6.70373, 43.55756], [-6.64837, 43.57902], [-6.59737, 43.57513], [-6.51012, 43.54747], [-6.48852, 43.55508], [-6.46296, 43.55496], [-6.46909, 43.57537], [-6.41763, 43.56114], [-6.36612, 43.56862], [-6.31461, 43.56863], [-6.24999, 43.58405], [-6.23639, 43.5943], [-6.22277, 43.59588], [-6.17805, 43.57538], [-6.10041, 43.5692], [-6.08495, 43.57537], [-6.06916, 43.56969], [-6.0235, 43.58843], [-5.90738, 43.58845], [-5.90217, 43.59752], [-5.91306, 43.61286], [-5.90062, 43.62324], [-5.90736, 43.63682], [-5.87515, 43.63679], [-5.86352, 43.64142], [-5.8522, 43.66294], [-5.83634, 43.66221], [-5.80383, 43.65049], [-5.78218, 43.63689], [-5.75413, 43.61259], [-5.72397, 43.56515], [-5.70948, 43.53143], [-5.6945, 43.46215], [-5.69407, 43.42639], [-5.70294, 43.37294], [-5.69853, 43.36609], [-5.62726, 43.36728], [-5.35127, 43.34792], [-5.33835, 43.3541], [-5.32547, 43.40159], [-5.29112, 43.46707], [-5.24934, 43.51659], [-5.2119, 43.49836], [-5.17789, 43.48937], [-5.09201, 43.48629], [-5.06771, 43.48138], [-5.05704, 43.46861], [-5.04503, 43.4743], [-4.97517, 43.45877], [-4.94075, 43.47169], [-4.90762, 43.46064], [-4.83654, 43.44976], [-4.73493, 43.4171], [-4.50817, 43.40244], [-4.48168, 43.38361], [-4.4608, 43.3987], [-4.43253, 43.40261], [-4.4049, 43.39699], [-4.37926, 43.38361], [-4.36875, 43.39618], [-4.35936, 43.39967], [-4.31281, 43.39578], [-4.18859, 43.40538], [-4.16095, 43.42116], [-4.09795, 43.43556], [-4.0292, 43.43826], [-4.02089, 43.45038], [-4.01277, 43.45249], [-3.98144, 43.43826], [-3.97647, 43.44294], [-3.96101, 43.4451], [-3.97459, 43.45249], [-3.97459, 43.45876], [-3.94004, 43.47711], [-3.92272, 43.4826], [-3.90632, 43.47919], [-3.89379, 43.48488], [-3.88585, 43.47919], [-3.8568, 43.49237], [-3.82673, 43.497], [-3.79703, 43.49273], [-3.76917, 43.47919], [-3.81265, 43.46487], [-3.84431, 43.44509], [-3.82386, 43.43077], [-3.83153, 43.42906], [-3.83129, 43.42459], [-3.81119, 43.42548], [-3.7965, 43.43077], [-3.77228, 43.45249], [-3.74498, 43.43826], [-3.74303, 43.45136], [-3.75552, 43.47174], [-3.72887, 43.46552], [-3.72143, 43.47175], [-3.72859, 43.47928], [-3.68838, 43.48424], [-3.65607, 43.50067], [-3.57912, 43.51824], [-3.55437, 43.5169], [-3.55626, 43.4997], [-3.53906, 43.49896], [-3.50536, 43.47919], [-3.43152, 43.46686], [-3.42863, 43.44685], [-3.44699, 43.4451], [-3.47004, 43.45417], [-3.478, 43.4429], [-3.5017, 43.43077], [-3.48182, 43.42805], [-3.46109, 43.41246], [-3.44701, 43.43075], [-3.43619, 43.41901], [-3.39249, 43.42458], [-3.33031, 43.41035], [-3.26896, 43.40411], [-3.21053, 43.38983], [-3.17691, 43.36624], [-3.1315, 43.35578], [-3.11238, 43.35407], [-3.08951, 43.36688], [-3.00817, 43.32091], [-3.02927, 43.37616], [-2.99913, 43.39448], [-2.93993, 43.4171], [-2.94667, 43.43077], [-2.93008, 43.43792], [-2.90549, 43.43987], [-2.807, 43.44168], [-2.76862, 43.45249], [-2.7556, 43.45012], [-2.71521, 43.4245], [-2.69494, 43.38862], [-2.69103, 43.36754], [-2.67927, 43.38984], [-2.67779, 43.40619], [-2.6612, 43.41192], [-2.4838, 43.37072], [-2.46443, 43.34923], [-2.36742, 43.3157], [-2.32706, 43.30683], [-2.28466, 43.30349], [-2.19628, 43.31475], [-2.17447, 43.29743], [-2.16222, 43.29426], [-2.14485, 43.30108], [-2.1278, 43.28742], [-2.09886, 43.30413], [-1.99462, 43.32844], [-1.96035, 43.34307], [-1.94537, 43.34249], [-1.91869, 43.32099], [-1.90465, 43.32844], [-1.92568, 43.34263], [-1.88492, 43.35602], [-1.84739, 43.38091], [-1.81127, 43.39507], [-1.7755, 43.37617], [-1.76796, 43.3836], [-1.74962, 43.38921], [-1.661, 43.39968], [-1.6378, 43.42377], [-1.59675, 43.44253], [-1.56207, 43.49339], [-1.54501, 43.50924], [-1.52686, 43.4986], [-1.5392, 43.28356], [-1.50809, 43.27676], [-1.46639, 43.26077], [-1.43223, 43.26501], [-1.4035, 43.24333], [-1.39968, 43.20674], [-1.41053, 43.1669], [-1.42577, 43.13527], [-1.48784, 43.08182], [-1.47528, 43.06014], [-1.45714, 43.04507], [-1.43502, 43.03572], [-1.41053, 43.03091], [-1.38314, 43.02921], [-1.36614, 43.03332], [-1.35761, 43.04683], [-1.35518, 43.07303], [-1.34826, 43.09308], [-1.33105, 43.10734], [-1.30862, 43.11357], [-1.28604, 43.10918], [-1.30697, 43.09598], [-1.31508, 43.08288], [-1.31059, 43.06949], [-1.29369, 43.0552], [-1.27488, 43.04683], [-1.2169, 43.03926], [-1.18253, 43.02528], [-1.14993, 43.00572], [-1.11241, 43.00825], [-1.0797, 42.9934], [-1.02849, 42.9867], [-1.01629, 42.97624], [-0.98146, 42.95704], [-0.94322, 42.9479], [-0.86353, 42.94306], [-0.78643, 42.95327], [-0.75967, 42.9465], [-0.74091, 42.9109], [-0.74587, 42.89392], [-0.74029, 42.8848], [-0.73011, 42.87751], [-0.70039, 42.87643], [-0.6483, 42.84979], [-0.60949, 42.81144], [-0.61017, 42.79909], [-0.58293, 42.79584], [-0.57714, 42.78979], [-0.57869, 42.77734], [-0.56903, 42.77264], [-0.53565, 42.78421], [-0.53389, 42.80801], [-0.50841, 42.80749], [-0.45446, 42.78891], [-0.42392, 42.79067], [-0.35168, 42.82925], [-0.343, 42.82274], [-0.33517, 42.82496], [-0.32279, 42.8425], [-0.30742, 42.83183], [-0.24703, 42.80483], [-0.23515, 42.78623], [-0.20835, 42.78387], [-0.16141, 42.79535], [-0.16363, 42.77798], [-0.15779, 42.7607], [-0.14572, 42.74589], [-0.12311, 42.73036], [-0.11903, 42.71685], [-0.09575, 42.71068], [-0.07841, 42.69667], [-0.03893, 42.68515], [-0.00431, 42.68752], [0.07284, 42.70848], [0.13418, 42.71522], [0.15294, 42.7246], [0.16917, 42.72646], [0.22239, 42.7162], [0.23836, 42.71037], [0.25981, 42.68238], [0.27539, 42.66869], [0.29024, 42.67029], [0.31831, 42.69954], [0.33603, 42.71269], [0.35417, 42.7175], [0.38182, 42.70011], [0.3844, 42.68858], [0.38928, 42.68515], [0.40928, 42.68225], [0.46693, 42.69044], [0.48351, 42.6853], [0.60816, 42.68799], [0.64361, 42.68448], [0.65673, 42.68799], [0.66542, 42.69866], [0.66645, 42.71476], [0.65963, 42.7299], [0.64764, 42.74104], [0.63348, 42.74478], [0.6433, 42.75907], [0.65074, 42.76339], [0.63968, 42.77468], [0.65374, 42.80269], [0.65157, 42.82405], [0.65632, 42.83842], [0.67937, 42.84511], [0.70676, 42.84658], [0.72433, 42.84529], [0.77631, 42.83245], [0.8129, 42.83162], [0.8561, 42.81276], [0.88577, 42.80424], [0.91036, 42.78767], [0.92111, 42.78437], [0.95026, 42.79612], [0.98292, 42.78036], [1.06818, 42.77612], [1.08906, 42.77132], [1.10673, 42.75961], [1.13433, 42.71597], [1.15149, 42.70672], [1.16254, 42.70569], [1.19593, 42.71365], [1.31912, 42.71336], [1.34258, 42.70866], [1.52836, 42.83164], [1.73841, 42.78398], [1.91254, 42.55143], [2.55094, 42.53835], [2.56227, 42.5474], [2.55073, 42.66114], [2.5521, 42.80102], [2.61518, 42.83599], [2.65766, 42.85339], [2.7469, 42.87809], [2.81039, 42.88717], [3.04848, 42.97091], [3.03899, 42.94278], [3.04184, 42.93281], [3.05468, 42.9271], [3.05607, 42.90713], [3.04046, 42.79019], [3.04329, 42.72459], [3.03761, 42.68321], [3.05185, 42.55488], [3.06609, 42.54206], [3.13737, 42.52492], [3.14591, 42.51496], [3.14308, 42.49213], [3.17586, 42.45648], [3.18151, 42.43532], [3.17018, 42.39659], [3.17449, 42.3638], [3.18735, 42.34951], [3.20419, 42.33959], [3.24984, 42.3432], [3.26303, 42.32921], [3.28061, 42.33685], [3.29371, 42.33498], [3.3177, 42.32298], [3.29404, 42.28803], [3.28702, 42.26293], [3.26303, 42.23987], [3.24716, 42.24571], [3.21014, 42.23974], [3.17873, 42.24971], [3.17018, 42.25967], [3.15162, 42.25682], [3.1303, 42.23973], [3.11883, 42.21833], [3.11647, 42.15843], [3.12249, 42.14049], [3.1386, 42.12763], [3.1731, 42.112], [3.21448, 42.06833], [3.21299, 42.05599], [3.19986, 42.04619], [3.1959, 42.03312], [3.20786, 41.99002], [3.23567, 41.96552], [3.23217, 41.94603], [3.1949, 41.8883], [3.15016, 41.84536], [3.11683, 41.84757], [3.07863, 41.82662], [3.06905, 41.79908], [3.04034, 41.78689], [2.95094, 41.73428], [2.93298, 41.71247], [2.84018, 41.69465], [2.82016, 41.68195], [2.81315, 41.67032], [2.792, 41.66901], [2.77849, 41.64559], [2.44947, 41.53522], [2.42896, 41.51896], [2.37134, 41.48921], [2.29672, 41.46532], [2.26735, 41.44864], [2.24041, 41.42097], [2.16325, 41.32665], [2.13054, 41.30366], [2.06031, 41.27462], [2.0197, 41.26586], [1.95135, 41.26069], [1.88413, 41.2475], [1.85401, 41.236], [1.81984, 41.23713], [1.62436, 41.19218], [1.53924, 41.18745], [1.2885, 41.11639], [1.21778, 41.10468], [1.18378, 41.06277], [1.17294, 41.05867], [1.14169, 41.07172], [1.09767, 41.07087], [1.05568, 41.06489], [1.01743, 41.05179], [0.99041, 41.0397], [0.87745, 40.95478], [0.8225, 40.89939], [0.7142, 40.81521], [0.69483, 40.786], [0.75017, 40.76557], [0.76238, 40.76606], [0.76726, 40.77102], [0.75021, 40.78599], [0.76693, 40.78501], [0.78072, 40.77935], [0.84181, 40.73212], [0.87369, 40.72792], [0.87239, 40.7071], [0.85789, 40.68605], [0.84831, 40.67537], [0.78403, 40.66096], [0.75636, 40.64224], [0.70703, 40.58341], [0.6768, 40.56509], [0.6159, 40.55346], [0.59248, 40.58209], [0.64063, 40.58685], [0.66318, 40.57473], [0.69622, 40.59036], [0.73268, 40.63373], [0.68222, 40.63422], [0.59978, 40.61372], [0.56349, 40.59003], [0.54851, 40.57233], [0.5013, 40.48421], [0.45265, 40.43407], [0.44612, 40.40844], [0.42026, 40.38825], [0.35058, 40.28491], [0.29884, 40.24677], [0.26473, 40.20979], [0.20525, 40.17154], [0.14453, 40.07885], [0.11703, 40.05635], [0.06617, 40.03193], [0.0405, 40.00288], [-0.00315, 39.93169], [-0.02868, 39.9018], [-0.0913, 39.84793], [-0.19449, 39.71544], [-0.20894, 39.66409], [-0.25744, 39.61624], [-0.2815, 39.56937], [-0.32335, 39.51622], [-0.33059, 39.48041], [-0.32747, 39.43067], [-0.30134, 39.32201], [-0.21551, 39.18184], [-0.24218, 39.16627], [-0.2267, 39.11178], [-0.21003, 39.07869], [-0.15803, 39.00214], [-0.10595, 38.93651], [-0.00975, 38.8697], [0.06308, 38.86078], [0.11069, 38.84999], [0.15397, 38.83099], [0.18529, 38.80353], [0.17091, 38.79609], [0.21786, 38.76813], [0.2277, 38.7702], [0.23453, 38.74226], [0.2277, 38.73458], [0.19207, 38.73041], [0.17677, 38.72403], [0.16261, 38.71353], [0.14502, 38.68636], [0.11858, 38.68281], [0.08302, 38.66096], [0.07313, 38.64521], [0.08056, 38.63102], [0.06044, 38.63483], [0.01526, 38.62478], [-0.01476, 38.62442], [-0.04296, 38.61172], [-0.05476, 38.59528], [-0.05364, 38.56696], [-0.05995, 38.55294], [-0.07544, 38.53996], [-0.0902, 38.53536], [-0.13174, 38.53535], [-0.17699, 38.52725], [-0.20214, 38.5196], [-0.23425, 38.50156], [-0.32942, 38.47004], [-0.34455, 38.46162], [-0.35083, 38.45003], [-0.39517, 38.41376], [-0.40608, 38.39887], [-0.41369, 38.36482], [-0.46019, 38.36005], [-0.47057, 38.35187], [-0.47437, 38.33675], [-0.50984, 38.33836], [-0.51879, 38.29865], [-0.50403, 38.20722], [-0.51572, 38.19545], [-0.53287, 38.19218], [-0.56884, 38.1942], [-0.59138, 38.18964], [-0.62369, 38.16242], [-0.64501, 38.11603], [-0.65454, 37.98933], [-0.66341, 37.9803], [-0.68993, 37.97215], [-0.71841, 37.94302], [-0.75862, 37.86335], [-0.7561, 37.80606], [-0.76074, 37.79615], [-0.78799, 37.82282], [-0.81242, 37.77009], [-0.82556, 37.76139], [-0.84781, 37.75609], [-0.85611, 37.7425], [-0.85261, 37.72378], [-0.80993, 37.6669], [-0.75479, 37.6413], [-0.73485, 37.63935], [-0.72646, 37.65151], [-0.70801, 37.643], [-0.70126, 37.63133], [-0.70533, 37.61954], [-0.73665, 37.59945], [-0.75451, 37.60432], [-0.83642, 37.57641], [-0.88671, 37.57429], [-0.92516, 37.55591], [-0.9735, 37.5764], [-0.98996, 37.57893], [-1.00642, 37.58145], [-1.08776, 37.58088], [-1.10342, 37.5764], [-1.11999, 37.55903], [-1.10579, 37.53215], [-1.16705, 37.54376], [-1.17859, 37.56388], [-1.2427, 37.5792], [-1.25767, 37.56701], [-1.26168, 37.55767], [-1.32374, 37.56199], [-1.36917, 37.54137], [-1.41394, 37.50641], [-1.45556, 37.4927], [-1.4709, 37.48224], [-1.48836, 37.43322], [-1.49672, 37.42794], [-1.515, 37.43321], [-1.54374, 37.41499], [-1.61872, 37.39228], [-1.64162, 37.38104], [-1.65285, 37.36127], [-1.67089, 37.36331], [-1.68017, 37.35444], [-1.69879, 37.3167], [-1.72836, 37.28258], [-1.78722, 37.23522], [-1.81273, 37.20706], [-1.83035, 37.16637], [-1.85533, 37.07638], [-1.88501, 37.01549], [-1.90612, 36.98762], [-1.90035, 36.94119], [-1.91261, 36.93362], [-1.9414, 36.92988], [-1.98892, 36.9005], [-2.0028, 36.88703], [-2.01306, 36.84578], [-2.05687, 36.81009], [-2.07117, 36.77534], [-2.10082, 36.76516], [-2.11108, 36.74613], [-2.14642, 36.73002], [-2.16613, 36.72758], [-2.20364, 36.73714], [-2.28279, 36.81009], [-2.31835, 36.82791], [-2.36168, 36.83678], [-2.43309, 36.81628], [-2.48143, 36.82994], [-2.56078, 36.81879], [-2.57689, 36.81131], [-2.61738, 36.72825], [-2.65889, 36.69482], [-2.68436, 36.68599], [-2.71825, 36.68205], [-2.7362, 36.68741], [-2.75666, 36.68038], [-2.82099, 36.71389], [-2.84825, 36.70023], [-2.85874, 36.70495], [-2.8861, 36.7344], [-2.91397, 36.75031], [-2.93326, 36.75165], [-2.98772, 36.73712], [-3.07645, 36.74976], [-3.15671, 36.74453], [-3.2279, 36.75483], [-3.32958, 36.7449], [-3.41542, 36.69552], [-3.4776, 36.69611], [-3.51596, 36.72105], [-3.54983, 36.71238], [-3.58639, 36.72659], [-3.6011, 36.74255], [-3.66567, 36.73937], [-3.67983, 36.72882], [-3.73128, 36.72411], [-3.83854, 36.75197], [-3.96096, 36.7268], [-4.05671, 36.74799], [-4.07996, 36.74356], [-4.11018, 36.72574], [-4.22472, 36.7124], [-4.40319, 36.72386], [-4.42032, 36.71988], [-4.43326, 36.71068], [-4.49112, 36.63666], [-4.49537, 36.62056], [-4.52483, 36.58073], [-4.5878, 36.57382], [-4.61503, 36.53056], [-4.65925, 36.50764], [-4.723, 36.49299], [-4.90266, 36.50654], [-4.99417, 36.45711], [-5.06249, 36.45222], [-5.10901, 36.42894], [-5.15762, 36.42194], [-5.18655, 36.4112], [-5.22712, 36.35794], [-5.25366, 36.29711], [-5.27385, 36.28269], [-5.2906, 36.27741], [-5.28532, 36.26081], [-5.33405, 36.18781], [-5.34204, 36.11052], [-5.35024, 36.11929], [-5.36661, 36.16315], [-5.40608, 36.17923], [-5.42545, 36.17975], [-5.44233, 36.14879], [-5.4349, 36.12153], [-5.43989, 36.1142], [-5.43716, 36.0987], [-5.42871, 36.0808], [-5.43842, 36.06302], [-5.44576, 36.05736], [-5.61176, 36.00647], [-5.62971, 36.03677], [-5.68936, 36.06712], [-5.69515, 36.06539], [-5.73252, 36.14487], [-5.78113, 36.20328], [-5.80103, 36.23474], [-5.82913, 36.30206], [-5.84038, 36.3721], [-5.83462, 36.44216], [-5.81176, 36.51081], [-5.76964, 36.5786], [-5.77234, 36.58768], [-5.78463, 36.58963], [-5.84085, 36.56312], [-5.92299, 36.53864], [-6.00941, 36.52749], [-6.09686, 36.53009], [-6.1815, 36.54621], [-6.22815, 36.5617], [-6.23489, 36.57575], [-6.28319, 36.61237], [-6.29385, 36.61685], [-6.33593, 36.61916], [-6.40407, 36.66736], [-6.43162, 36.71479], [-6.43788, 36.7333], [-6.43339, 36.75101], [-6.41453, 36.76764], [-6.35888, 36.78583], [-6.34561, 36.79499], [-6.33519, 36.81826], [-6.34374, 36.85993], [-6.33821, 36.88373], [-6.30435, 36.90721], [-6.22326, 36.90233], [-6.19481, 36.93212], [-6.23965, 36.9134], [-6.26505, 36.91291], [-6.28356, 36.92593], [-6.32592, 36.91266], [-6.34472, 36.90127], [-6.35245, 36.88028], [-6.34667, 36.81989], [-6.35245, 36.80858], [-6.388, 36.80818], [-6.41624, 36.8378], [-6.44864, 36.9042], [-6.4711, 36.93561], [-6.49958, 36.95966], [-6.74486, 37.10139], [-6.81175, 37.12373], [-6.85302, 37.15111], [-6.89288, 37.16658], [-6.91088, 37.18895], [-6.91762, 37.21507], [-6.85269, 37.29523], [-6.90347, 37.24958], [-6.93091, 37.23401], [-6.96255, 37.23383], [-6.96255, 37.22761], [-6.93008, 37.18317], [-6.92847, 37.17236], [-6.94164, 37.1711], [-7.02937, 37.20551], [-7.10104, 37.22425], [-7.12735, 37.21475], [-7.08558, 37.2065], [-7.32787, 37.20156], [-7.36291, 37.18172], [-7.38142, 37.17993], [-7.41442, 37.19282], [-7.40022, 37.17853], [-7.40763, 37.16488], [-7.43211, 37.17672], [-7.44534, 37.19589], [-7.42328, 37.21882], [-7.43424, 37.25933], [-7.42758, 37.27452], [-7.43745, 37.30734], [-7.44499, 37.38676], [-7.46225, 37.41787], [-7.46003, 37.42914], [-7.46887, 37.47557], [-7.47595, 37.49425], [-7.50633, 37.51812], [-7.51543, 37.52934], [-7.52367, 37.55567], [-7.52912, 37.5567], [-7.52969, 37.56717], [-7.51584, 37.58094], [-7.51253, 37.59037], [-7.51434, 37.6014], [-7.50489, 37.60639], [-7.47161, 37.6369], [-7.18661, 37.57668], [-7.12337, 37.58414], [-7.04792, 37.61998], [-6.99715, 37.63634], [-6.93033, 37.75782], [-6.95243, 37.7878], [-7.02398, 38.02256], [-7.01577, 38.04683], [-7.00636, 38.05933], [-6.99763, 38.08961], [-6.97897, 38.11995], [-6.9475, 38.19664], [-6.9642, 38.20615], [-6.9921, 38.20428], [-7.01815, 38.19803], [-7.02641, 38.19963], [-7.03871, 38.18622], [-7.06305, 38.17754], [-7.10351, 38.17359], [-7.12687, 38.1909], [-7.16718, 38.27208], [-7.19633, 38.29216], [-7.21136, 38.31753], [-7.31715, 38.42458], [-7.35921, 38.44636], [-7.33518, 38.46944], [-7.3341, 38.48101], [-7.34562, 38.49414], [-7.3358, 38.50587], [-7.31771, 38.55625], [-7.27586, 38.60382], [-7.27043, 38.6177], [-7.27353, 38.62539], [-7.28604, 38.63191], [-7.29095, 38.63816], [-7.29296, 38.65627], [-7.28407, 38.71324], [-7.27043, 38.73751], [-7.21152, 38.77536], [-7.19643, 38.77999], [-7.17974, 38.79089], [-7.1662, 38.80342], [-7.16062, 38.8129], [-7.15101, 38.81928], [-7.10486, 38.82719], [-7.08868, 38.83337], [-7.05608, 38.85515], [-7.05726, 38.86944], [-7.0522, 38.88499], [-7.06605, 38.9046], [-7.0445, 38.91863], [-7.02212, 38.94287], [-6.97329, 39.01395], [-6.97489, 39.02302], [-6.98631, 39.03007], [-6.97939, 39.04718], [-6.98569, 39.06676], [-6.9997, 39.0847], [-7.03882, 39.10914], [-7.06491, 39.11477], [-7.09127, 39.11245], [-7.12729, 39.09748], [-7.15721, 39.10544], [-7.16749, 39.11348], [-7.16889, 39.12185], [-7.15793, 39.14139], [-7.15581, 39.15151], [-7.16806, 39.17063], [-7.21932, 39.18484], [-7.24413, 39.19564], [-7.25808, 39.2113], [-7.26578, 39.23135], [-7.26433, 39.25233], [-7.25085, 39.27063], [-7.30045, 39.31791], [-7.31926, 39.32954], [-7.32665, 39.34132], [-7.33141, 39.36261], [-7.33193, 39.38473], [-7.31885, 39.41325], [-7.31363, 39.4361], [-7.31353, 39.45744], [-7.32092, 39.46741], [-7.36293, 39.47609], [-7.38417, 39.484], [-7.39941, 39.49366], [-7.40892, 39.51557], [-7.41755, 39.5242], [-7.45135, 39.53785], [-7.46809, 39.55025], [-7.49786, 39.58105], [-7.51584, 39.59376], [-7.55729, 39.6798], [-7.34143, 39.67184], [-7.29275, 39.68331], [-7.25286, 39.68233], [-7.23575, 39.68652], [-7.21405, 39.67618], [-7.18289, 39.6751], [-7.03577, 39.68926], [-7.02114, 39.69401], [-7.00962, 39.71546], [-7.01334, 39.73892], [-6.99303, 39.77421], [-7.00027, 39.80253], [-6.99303, 39.81607], [-6.98523, 39.82114], [-6.95283, 39.83287], [-6.92766, 39.86191], [-6.92177, 39.89715], [-6.92523, 39.91793], [-6.90952, 39.93198], [-6.89976, 39.96562], [-6.90162, 39.97648], [-6.89691, 39.98712], [-6.8797, 40.00919], [-6.91991, 40.06489], [-6.95572, 40.10293], [-6.97717, 40.11342], [-7.01577, 40.11905], [-7.02765, 40.13264], [-7.03484, 40.16675], [-7.04311, 40.18137], [-7.03458, 40.19305], [-7.02476, 40.2162], [-7.28455, 40.32832], [-7.17533, 40.65587], [-7.28425, 40.97109], [-7.40218, 41.28041], [-7.16768, 41.39867], [-6.91419, 41.51744], [-6.85587, 41.61094], [-6.55528, 41.6749], [-6.56308, 41.71304], [-6.5774, 41.73973], [-6.56014, 41.76688], [-6.53575, 41.84858], [-6.52422, 41.86742], [-6.56789, 41.87587], [-6.57579, 41.8829], [-6.56763, 41.92607], [-6.57166, 41.94261], [-6.58515, 41.95465], [-6.60949, 41.96232], [-6.62282, 41.94095], [-6.65677, 41.93307], [-6.72798, 41.93085], [-6.7579, 41.93757], [-6.79439, 41.97971], [-6.82493, 41.98377], [-6.83123, 41.95395], [-6.85495, 41.94294], [-6.91712, 41.9391], [-6.94513, 41.94336], [-6.96952, 41.9577], [-6.99236, 41.96638], [-7.01577, 41.95367], [-7.05127, 41.94201], [-7.08274, 41.95279], [-7.11318, 41.97243], [-7.14537, 41.98749], [-7.15974, 41.98573], [-7.21555, 42.20693], [-7.41526, 42.31157], [-7.98527, 42.29725], [-8.25233, 42.13758], [-8.27068, 42.132], [-8.29538, 42.13009], [-8.32995, 42.10844], [-8.34675, 42.10169], [-8.50121, 42.08309], [-8.52002, 42.07772], [-8.55443, 42.06007], [-8.5728, 42.05441], [-8.62689, 42.05103], [-8.64389, 42.04149], [-8.65257, 42.03144], [-8.67081, 41.99982], [-8.69127, 41.98961], [-8.71701, 41.98377], [-8.74493, 41.97219], [-8.7391, 41.94751], [-8.7577, 41.94764], [-8.7508, 41.96898], [-8.76634, 41.94812], [-8.82759, 41.95514], [-8.88492, 41.96805], [-8.89857, 42.10152], [-8.89548, 42.11908], [-8.88459, 42.12603], [-8.82653, 42.13052], [-8.81908, 42.13972], [-8.82372, 42.14761], [-8.84275, 42.15445], [-8.84698, 42.16083], [-8.81599, 42.17451], [-8.80576, 42.19749], [-8.79064, 42.20453], [-8.77177, 42.22235], [-8.70189, 42.25853], [-8.6699, 42.2809], [-8.63174, 42.29682], [-8.62165, 42.31021], [-8.62165, 42.34081], [-8.62645, 42.34833], [-8.64989, 42.3356], [-8.67481, 42.29903], [-8.77392, 42.26899], [-8.78499, 42.26009], [-8.8483, 42.26097], [-8.86748, 42.25643], [-8.85342, 42.29108], [-8.85325, 42.30483], [-8.84697, 42.30481], [-8.833, 42.28913], [-8.82722, 42.2967], [-8.8307, 42.34162], [-8.81286, 42.34637], [-8.77693, 42.34016], [-8.77196, 42.34272], [-8.76462, 42.35569], [-8.7266, 42.38893], [-8.66251, 42.42691], [-8.65526, 42.44135], [-8.66438, 42.43797], [-8.69449, 42.43964], [-8.7579, 42.40716], [-8.8107, 42.40072], [-8.84325, 42.40368], [-8.86749, 42.41471], [-8.88801, 42.45563], [-8.9426, 42.46931], [-8.93504, 42.47906], [-8.91696, 42.48751], [-8.88126, 42.49656], [-8.86902, 42.49338], [-8.86084, 42.48501], [-8.86118, 42.47556], [-8.87434, 42.46931], [-8.85155, 42.46076], [-8.82653, 42.46186], [-8.82505, 42.49494], [-8.81286, 42.50275], [-8.82517, 42.53742], [-8.82297, 42.56952], [-8.81382, 42.58144], [-8.7884, 42.59219], [-8.7755, 42.60472], [-8.73876, 42.66608], [-8.73095, 42.68842], [-8.73717, 42.68842], [-8.7539, 42.65689], [-8.76732, 42.64517], [-8.78498, 42.64058], [-8.80381, 42.64595], [-8.82624, 42.67414], [-8.83951, 42.68244], [-8.8546, 42.66157], [-8.857, 42.64912], [-8.84701, 42.64057], [-8.86877, 42.61751], [-8.88052, 42.61181], [-8.89461, 42.61997], [-8.88948, 42.6306], [-8.93639, 42.60643], [-8.92225, 42.5937], [-8.934, 42.58683], [-8.96988, 42.57917], [-8.9808, 42.55122], [-9.01155, 42.53072], [-9.02634, 42.54312], [-9.03336, 42.57811], [-9.05581, 42.5854], [-9.07086, 42.59614], [-9.06561, 42.62055], [-9.03881, 42.66108], [-9.03013, 42.7077], [-9.00625, 42.73382], [-8.96312, 42.75129], [-8.92223, 42.78811], [-8.89826, 42.7923], [-8.88492, 42.81501], [-8.88768, 42.83112], [-8.90844, 42.83946], [-8.9126, 42.8166], [-8.92809, 42.80252], [-8.95104, 42.79512], [-8.97737, 42.79231], [-9.02819, 42.79788], [-9.04894, 42.79474], [-9.04566, 42.77803], [-9.06844, 42.7599], [-9.08129, 42.75484], [-9.10024, 42.75753], [-9.11342, 42.76607], [-9.13498, 42.81276], [-9.11319, 42.81635], [-9.10025, 42.83328], [-9.10839, 42.84483], [-9.14121, 42.85746], [-9.14866, 42.88447], [-9.13752, 42.89606], [-9.13451, 42.91755], [-9.16787, 42.92683], [-9.18346, 42.94526], [-9.19587, 42.94933], [-9.19001, 42.9324], [-9.1958, 42.92659], [-9.21006, 42.92574], [-9.21435, 42.93903], [-9.22423, 42.94021], [-9.23558, 42.93488], [-9.2517, 42.92023], [-9.26843, 42.89132], [-9.29198, 42.92857], [-9.25097, 43.01679], [-9.27211, 43.03128], [-9.27951, 43.055]], [[-5.64938, 36.49094], [-5.63079, 36.51031], [-5.59157, 36.56933], [-5.59183, 36.57702], [-5.77601, 36.70535], [-5.78646, 36.70715], [-5.79318, 36.70272], [-5.79395, 36.69576], [-5.76179, 36.64179], [-5.73889, 36.57279], [-5.73145, 36.51251], [-5.66977, 36.48433], [-5.64938, 36.49094]]]]}}]}