{"type": "FeatureCollection", "features": [{"type": "Feature", "properties": {"name": "육상 교역로", "category": "교역로", "period": "신항로 개척 이전", "legend": "육상 교역로", "map_title": "신항로 개척 이전의 지역 교역망과 주요 교역로", "source": "미래엔 세계사 교과서 2권 101쪽", "volume": 2, "page": 101}, "geometry": {"type": "MultiLineString", "coordinates": [[[-5.9454, 35.74937], [-5.93873, 35.45845], [-5.97511, 35.15854], [-6.04749, 34.8444], [-6.15449, 34.52376], [-6.29527, 34.20862], [-6.46873, 33.91325], [-6.67317, 33.65256], [-6.9036, 33.43393], [-7.15121, 33.25012], [-7.40728, 33.08876], [-7.90713, 32.79442], [-8.12907, 32.64206], [-8.31862, 32.47535], [-8.47546, 32.29166], [-8.61023, 32.09075]], [[-6.00281, 35.72456], [-5.86933, 35.43398], [-5.69734, 35.20882], [-5.47911, 35.03428], [-5.21225, 34.89974], [-4.8981, 34.79528], [-4.54132, 34.71347], [-4.14911, 34.65018], [-3.73027, 34.60425], [-3.29434, 34.57348], [-2.84788, 34.55431], [-2.39576, 34.54556], [-1.94288, 34.54691], [-1.49423, 34.55911], [-1.05503, 34.58403], [-0.63067, 34.62454], [-0.22665, 34.68431], [0.06577, 34.74562], [0.34218, 34.82205], [0.60231, 34.9155], [0.84597, 35.02787], [1.07319, 35.16072], [1.28462, 35.31453], [1.48218, 35.48752], [1.66993, 35.67418], [1.87117, 35.88257], [1.93395, 35.93256], [1.98721, 35.94944], [2.04323, 35.9349], [2.11473, 35.88998], [2.47763, 35.62185], [2.80963, 35.36128], [2.92212, 35.27943], [3.04174, 35.20097], [3.17225, 35.12633], [3.31742, 35.05597], [3.53913, 34.96536], [3.76554, 34.88679], [3.9957, 34.81942], [4.22866, 34.76249], [4.46345, 34.71529], [4.69912, 34.67713], [4.93473, 34.64731], [5.16933, 34.62516], [5.60025, 34.60838], [6.03116, 34.60336], [6.45301, 34.63387], [6.87365, 34.67691], [7.28025, 34.75492], [7.68352, 34.8458], [8.06751, 34.97096], [8.44596, 35.1091], [8.80166, 35.2804], [9.15227, 35.46376], [9.48008, 35.6772], [9.80473, 35.89881], [10.10167, 36.14445], [10.38445, 36.39697], [10.63824, 36.65784], [10.93455, 36.87668]], [[-5.77186, 35.8736], [-5.59685, 36.14294], [-5.41939, 36.3227], [-5.24956, 36.48845], [-5.13667, 36.74025], [-5.02492, 37.03136], [-4.91388, 37.35466], [-4.78493, 37.68793], [-4.62465, 38.00476], [-4.4274, 38.29753], [-4.21421, 38.58511], [-3.98933, 38.86752], [-3.75713, 39.14454], [-3.51998, 39.41314], [-3.27577, 39.67071], [-3.02742, 39.91548], [-2.76845, 40.14452]], [[-5.56557, 36.09055], [-5.60812, 35.86339], [-5.64834, 35.6116], [-5.68439, 35.34496], [-5.71616, 35.06598], [-5.8, 34.20899], [-5.85657, 33.66861], [-5.88566, 33.16642], [-5.89526, 32.92133], [-5.90052, 32.67719], [-5.90128, 32.43232], [-5.89102, 31.93632], [-5.87084, 31.429], [-5.82427, 30.91193], [-5.78248, 30.38532], [-5.74893, 29.85195], [-5.73557, 29.58357], [-5.71507, 29.04483], [-5.59901, 27.42843], [-5.53419, 26.61718], [-5.45686, 26.07613], [-5.37312, 25.53267], [-5.28325, 24.98651], [-5.13833, 24.16198], [-4.87544, 23.05733], [-4.534, 21.66303], [-4.12026, 20.26292], [-3.79439, 19.13677], [-3.51417, 18.29341], [-3.33185, 17.73021], [-3.1546, 17.16636], [-2.98566, 16.60179], [-2.27633, 17.18308], [-1.11053, 18.16], [0.80502, 19.6931], [2.79175, 21.19366], [3.9647, 22.02736], [4.84972, 22.65076], [6.05742, 23.45453], [6.96503, 24.05237], [7.88785, 24.62897], [9.11393, 25.38742], [10.19533, 26.0221], [11.26509, 26.6426], [12.3345, 27.22887], [13.38554, 27.79058]], [[14.98568, 32.25458], [14.89599, 32.17389], [14.81017, 32.07516], [14.72965, 31.95364], [14.65189, 31.80994], [14.57458, 31.64709], [14.49642, 31.46855], [14.35752, 31.03587], [14.05025, 30.06753], [13.86245, 29.3586], [13.59264, 28.37334], [13.16207, 26.50813], [12.78905, 24.54019], [12.48859, 22.52934], [12.26812, 20.53658], [12.20397, 19.58456], [12.13409, 18.62424]], [[29.21851, 41.11073], [28.78707, 41.16612], [28.35364, 41.23025], [27.48233, 41.37198], [26.6074, 41.52466], [25.73072, 41.68682], [24.85415, 41.85941], [23.98006, 42.04465], [23.11181, 42.24559], [22.25429, 42.46522], [21.23017, 42.75827], [20.23398, 43.06524], [18.29491, 43.67466], [16.66948, 44.17129], [16.34062, 44.2789], [16.00671, 44.38186], [15.67257, 44.49497], [15.0006, 44.75017], [14.66548, 44.90439], [14.33373, 45.08878], [13.91271, 45.33249], [13.69749, 45.44521], [13.47706, 45.53748], [13.24717, 45.59482], [13.01142, 45.61306], [12.78328, 45.60053], [12.57504, 45.56257], [12.37286, 45.47082], [12.31991, 45.35338], [12.40043, 45.09034], [12.42992, 44.90204], [12.48436, 44.49412], [12.51557, 44.32276], [12.52488, 44.09486], [12.46901, 43.80163], [12.3966, 43.47855], [12.33743, 43.14831], [12.30638, 42.82349], [12.31093, 42.51173], [12.35619, 42.2187], [12.4521, 41.95513]], [[30.03216, 31.1938], [29.72299, 31.0465], [29.4281, 30.85158], [29.12206, 30.65846], [28.80517, 30.47209], [28.4783, 30.30788], [28.14442, 30.14953], [27.80561, 29.99605], [27.46346, 29.84687], [27.11333, 29.72286], [26.76092, 29.60327], [26.40718, 29.48808], [26.0529, 29.37738], [25.68916, 29.29674], [25.3252, 29.22109], [24.96163, 29.15052], [24.59895, 29.08507], [24.22459, 29.05462], [23.85133, 29.0295], [23.47961, 29.00944], [23.10986, 28.99401], [22.72644, 29.01798], [22.34547, 29.04609], [21.59329, 29.1111], [20.07866, 29.41524], [18.59824, 29.88209], [17.71568, 30.19994], [17.4218, 30.31226], [17.12971, 30.43381], [16.83975, 30.568], [16.55159, 30.71791], [16.2645, 30.8861], [15.98738, 31.06544], [15.73187, 31.24655], [15.50097, 31.42853], [15.29799, 31.61012], [15.12704, 31.78929], [14.99317, 31.96272], [14.89812, 32.12391], [14.83486, 32.26167]], [[29.9638, 31.20965], [29.63193, 31.06621], [29.28829, 30.90727], [28.90956, 30.78337], [28.50553, 30.67972], [28.07871, 30.61001], [27.63722, 30.55117], [27.18167, 30.52711], [26.71715, 30.5102], [26.24499, 30.53192], [25.76782, 30.55976], [25.28901, 30.63138], [24.8088, 30.70965], [24.17563, 30.88239], [23.86119, 30.97474], [23.55423, 31.10308], [23.25068, 31.23714], [22.95169, 31.37817], [22.72676, 31.50844], [22.06179, 31.92064], [21.64074, 32.14586], [21.29469, 32.24778], [21.00197, 32.22102], [20.74999, 32.0804], [20.54377, 31.85199], [20.39829, 31.56447], [20.31414, 31.24515], [20.2652, 30.66177], [20.21325, 30.41982], [20.12906, 30.19918], [20.00828, 30.00872], [19.84533, 29.85784], [19.63603, 29.75585], [19.37751, 29.71213], [19.06732, 29.73621]], [[31.41862, 30.01436], [31.17518, 29.7935], [30.99289, 29.4826], [30.88657, 29.09868], [30.86609, 28.6753], [30.94003, 28.24741], [31.11635, 27.8472], [31.40248, 27.50413], [31.80589, 27.24592], [31.94843, 27.18627], [32.38408, 27.01845], [32.52448, 26.95668], [32.6587, 26.88725], [32.78441, 26.80732], [32.89935, 26.71405], [32.98459, 26.62512], [33.05593, 26.53107], [33.11527, 26.43295], [33.16449, 26.33182], [33.20545, 26.2287], [33.24003, 26.1246], [33.27002, 26.02055], [33.47224, 25.25663], [33.73599, 24.30792], [33.76927, 24.16288], [33.79418, 24.02027], [33.80779, 23.88157], [33.80708, 23.74827], [33.78903, 23.6218], [33.75047, 23.50357], [33.67183, 23.37166], [33.56571, 23.26101], [33.43749, 23.16668], [33.29276, 23.08373], [32.818, 22.85486], [32.66654, 22.76927], [32.20159, 22.31221], [31.93377, 21.686], [31.83239, 20.93191], [31.86474, 20.09055], [31.99846, 19.20339], [32.20271, 18.31366], [32.3275, 17.89161], [32.44887, 17.46671], [32.71083, 16.70985]], [[28.90725, 41.11411], [29.27827, 41.09958], [29.64806, 41.08995], [30.75294, 41.06966], [31.11998, 41.05974], [31.48675, 41.04841], [32.21981, 41.01575], [32.95372, 40.97091], [33.32146, 40.94384], [33.68998, 40.91575], [34.79967, 40.82107], [35.48018, 40.77185], [36.17674, 40.73689], [37.5765, 40.67978], [38.26138, 40.63981], [38.92659, 40.57952], [39.56656, 40.48941], [40.17655, 40.36022], [40.55695, 40.25525], [41.30422, 40.04242], [41.66292, 39.92418], [42.36863, 39.68495], [43.38179, 39.29057], [44.03336, 39.00582], [44.35545, 38.86256], [45.30078, 38.40431], [45.92037, 38.08102], [46.22825, 37.91891], [47.1479, 37.40863], [48.06965, 36.87463], [48.83643, 36.48333], [49.60645, 36.1977], [50.38522, 35.99535], [51.17754, 35.85501], [51.98749, 35.75556], [53.67521, 35.59264], [54.26394, 35.52025], [55.06206, 35.42703], [55.55612, 35.39799], [56.04334, 35.40139], [56.52386, 35.44072], [56.99821, 35.51953], [57.46745, 35.6416], [57.93369, 35.81109], [58.71721, 36.17978], [59.72929, 36.63795], [61.1529, 37.27003], [62.24795, 37.74845], [63.35268, 38.22485], [64.824, 38.84925], [65.91276, 39.30312], [66.97347, 39.73624]], [[29.9764, 31.22589], [29.95734, 31.11459], [30.02395, 30.97031], [30.15677, 30.81107], [30.34358, 30.64237], [30.57269, 30.4698], [30.83211, 30.30083], [31.10916, 30.14528], [31.38965, 30.01796]], [[30.38202, 50.56233], [30.66476, 50.11722], [30.8911, 49.65198], [31.0685, 49.17205], [31.20306, 48.68107], [31.30057, 48.1823], [31.36666, 47.67893], [31.40694, 47.17409], [31.4269, 46.67096]], [[36.85565, 21.83302], [36.67967, 21.95349], [36.36129, 22.11219], [35.67872, 22.40284], [35.42196, 22.50607], [34.89848, 22.73517], [34.41308, 22.98073], [34.02441, 23.23931], [33.79108, 23.50738]], [[80.67279, 42.74798], [78.93938, 42.7189], [77.18648, 42.7801], [75.41266, 42.91865], [73.61716, 43.1216], [71.79974, 43.37602], [70.69952, 43.55383], [69.96104, 43.66919], [68.84994, 43.86393], [68.10432, 43.98981], [67.36019, 44.12824], [66.23888, 44.33011], [65.18944, 44.53753], [64.13976, 44.74043], [61.9612, 45.18327], [59.75655, 45.62213], [57.57003, 46.0183], [55.43561, 46.32999], [53.38075, 46.51308], [51.43066, 46.522], [49.61121, 46.31005], [49.10733, 46.20706], [48.10967, 45.99137], [47.6124, 45.89176], [47.1136, 45.80639], [46.61112, 45.74188], [46.1026, 45.7048], [45.58549, 45.70173], [44.96028, 45.74903], [44.34073, 45.84761], [43.72581, 45.99063], [43.11488, 46.17122], [42.50767, 46.38257], [41.9043, 46.61786], [41.30511, 46.8703], [40.71071, 47.13316], [40.12833, 47.35419], [39.56016, 47.49641], [38.99928, 47.57576], [38.43836, 47.60793], [37.86969, 47.60846], [36.67688, 47.57657], [36.03622, 47.57503], [35.63642, 47.55888], [35.09085, 47.50444], [34.76919, 47.46218], [34.44632, 47.41856], [33.75035, 47.30883], [33.05186, 47.18448], [32.40165, 47.05694], [31.8525, 46.93977], [31.45856, 46.84803]], [[44.34037, 33.40983], [44.13392, 34.17192], [43.78252, 35.53197], [43.75608, 35.62081], [43.72538, 35.70882], [43.68909, 35.79452], [43.64588, 35.87637], [43.59442, 35.95285], [43.53337, 36.02246], [43.4614, 36.08369], [43.35739, 36.14443], [43.24801, 36.1829], [43.13467, 36.20242], [43.0188, 36.20631], [42.90181, 36.19784], [42.78512, 36.18032], [42.55832, 36.13118], [41.95177, 36.01868], [41.35118, 35.96585], [40.75152, 35.96467], [40.14775, 36.00684], [39.53403, 36.0837], [38.90195, 36.18611], [38.57286, 36.2474], [38.23661, 36.30439], [37.88003, 36.36908], [37.34683, 36.45255], [37.08608, 36.48358], [36.37613, 36.54946]], [[45.06748, 12.81653], [45.02122, 12.77101], [44.9265, 12.77986], [44.79865, 12.79967], [44.65372, 12.79312], [44.50411, 12.75359], [44.35758, 12.70709], [44.22041, 12.68091], [44.09834, 12.69362], [43.99495, 12.74554], [43.90868, 12.82572], [43.83848, 12.92927], [43.784, 13.05159], [43.74486, 13.18858], [43.72003, 13.33632], [43.70767, 13.49089], [43.70546, 13.64825], [43.72005, 14.00801], [43.74108, 14.37234], [43.74869, 14.73209], [43.72702, 15.08678], [43.66403, 15.4487], [43.54201, 15.8282], [43.34982, 16.22827], [43.10728, 16.649], [42.80156, 17.19564], [42.55337, 17.74385], [42.34344, 18.27918], [42.12649, 18.77768], [41.8405, 19.20706], [41.4577, 19.56057], [41.04178, 19.88948], [40.65401, 20.24469], [40.3633, 20.58478], [40.13456, 20.93763], [39.96994, 21.28893], [39.91051, 21.63961], [39.92858, 21.98728], [39.95697, 22.32544], [39.97905, 22.65435], [39.98936, 22.97531], [39.98456, 23.22665], [39.9634, 23.4825], [39.92163, 23.73923], [39.85445, 23.99341], [39.75637, 24.24184], [39.62053, 24.48251], [39.43833, 24.71498], [39.21214, 24.92903], [38.96832, 25.09575], [38.70195, 25.2296], [38.42076, 25.34391], [38.13206, 25.45218], [37.84274, 25.56776], [37.55914, 25.70387], [37.28694, 25.87353], [37.03109, 26.08976], [36.75764, 26.40338], [36.53832, 26.74013], [36.36616, 27.09534], [36.23455, 27.46456], [36.13693, 27.84326], [36.06652, 28.22681], [36.01624, 28.61037], [35.88614, 29.98221], [35.83671, 30.47394], [35.56933, 32.85021], [35.55968, 32.95917], [35.55933, 33.01342], [35.56352, 33.06724], [35.57347, 33.12043], [35.59038, 33.17281], [35.61549, 33.22417], [35.71001, 33.33799], [35.8423, 33.42793], [36.00623, 33.49555], [36.19456, 33.54247], [36.39891, 33.57079], [36.61065, 33.58321], [36.82175, 33.58288], [37.02496, 33.57333], [37.44309, 33.54654], [38.25591, 33.48172], [38.65057, 33.44621], [39.41875, 33.38377], [40.1597, 33.33074], [40.87539, 33.29111], [41.56727, 33.26772], [42.23636, 33.26262], [42.56215, 33.26998], [42.8836, 33.27759], [43.45572, 33.29865], [43.72313, 33.31767], [43.97728, 33.35177], [44.21757, 33.40818], [44.44374, 33.49465], [44.65481, 33.6174], [44.84954, 33.78181], [44.99961, 33.94792], [45.13637, 34.12746], [45.26221, 34.31718], [45.37952, 34.51396], [45.49058, 34.71469], [45.70285, 35.1158], [45.95614, 35.57982], [46.09905, 35.85535], [46.23355, 36.13668], [46.35601, 36.4239], [46.46279, 36.71712], [46.55017, 37.01641], [46.61435, 37.32187], [46.65147, 37.63358]], [[47.27648, 45.81078], [46.91315, 45.47051], [46.63341, 45.08637], [46.43673, 44.66576], [46.32242, 44.2162], [46.28968, 43.74524], [46.33754, 43.26051], [46.46488, 42.76961], [46.67053, 42.28009], [46.95111, 41.81716], [47.29586, 41.40049], [47.6928, 41.02938], [48.13056, 40.70307], [48.5983, 40.42085], [49.0855, 40.18205], [49.58176, 39.98609], [50.07659, 39.83245]], [[73.80152, 20.21129], [74.06667, 20.65545], [74.39312, 21.06178], [74.76803, 21.43694], [75.17937, 21.7872], [75.61586, 22.11841], [76.06696, 22.43606], [76.97322, 23.05127], [77.40933, 23.36622], [77.91625, 23.77239], [78.43452, 24.24716], [78.9055, 24.76809], [79.27074, 25.31341], [79.4714, 25.86252], [79.4477, 26.39647], [79.1383, 26.89872], [79.01735, 27.00225], [78.87993, 27.08861], [78.72965, 27.16186], [78.57007, 27.22609], [78.07141, 27.40516], [77.91043, 27.47381], [77.6297, 27.6302], [77.37799, 27.81728], [77.14899, 28.02882], [76.93641, 28.25856], [76.73398, 28.50035], [76.33446, 28.99558], [76.12475, 29.23696], [75.30115, 29.97134], [74.33818, 30.55378], [73.26444, 30.99291], [72.10957, 31.29634], [70.90528, 31.47152], [69.68656, 31.52664], [68.49213, 31.47114], [67.36376, 31.31579], [66.59082, 31.16058], [65.07118, 30.82265], [64.32039, 30.6593], [63.57307, 30.51014], [62.82596, 30.3815], [62.44749, 30.33249], [62.07261, 30.27914], [61.68628, 30.24665], [61.30192, 30.20886], [60.9677, 30.20089], [60.63336, 30.18881], [60.2986, 30.17266], [59.96011, 30.18231], [59.27989, 30.1916], [58.24835, 30.2666], [57.21834, 30.40666], [56.87851, 30.47438], [56.20548, 30.6182], [55.87442, 30.70788], [55.54607, 30.80109], [55.22052, 30.89793], [54.90066, 31.00646], [54.58373, 31.11883], [54.26978, 31.23505], [53.96261, 31.35763], [53.04545, 31.74451], [52.73688, 31.87862], [52.1296, 32.15624], [51.53504, 32.40288], [50.95248, 32.65604], [49.8186, 33.07802], [49.2644, 33.2369], [48.71648, 33.38958], [48.17295, 33.48298], [47.63151, 33.56778], [47.09091, 33.58858], [46.54816, 33.60169], [45.4518, 33.49093], [44.89541, 33.36702], [44.33182, 33.24786], [44.67451, 33.28842], [45.01047, 33.27487], [45.33854, 33.21066], [45.65801, 33.10035], [45.96813, 32.94873], [46.26804, 32.7606], [46.55684, 32.5407], [46.83345, 32.29365], [47.09175, 32.02612], [47.32802, 31.74308], [47.5449, 31.44653], [47.74484, 31.13841], [47.92997, 30.82052], [48.10203, 30.49445], [48.26191, 30.16135], [48.40796, 29.8208]], [[52.33809, 35.71718], [52.51163, 35.16522], [52.6463, 34.61025], [52.74415, 34.0529], [52.80684, 33.49353], [52.8358, 32.93231], [52.83254, 32.36939], [52.79882, 31.80496], [52.73684, 31.23946], [52.64994, 30.67219], [52.54224, 30.1009], [52.41808, 29.52377], [52.28216, 28.93977], [52.13927, 28.35], [51.84829, 27.18791], [51.77504, 26.91657], [51.69979, 26.66161]], [[64.24959, 38.50354], [63.41846, 38.38535], [62.59745, 38.29262], [61.78568, 38.22361], [60.98259, 38.17664], [60.18814, 38.15026], [59.40286, 38.14318], [58.62707, 38.154], [57.85955, 38.18076], [57.18046, 38.23549], [56.4895, 38.33358], [55.78975, 38.46478], [55.08424, 38.61874], [53.66891, 38.95347], [52.96594, 39.11347], [52.27096, 39.25467]], [[56.23136, 26.95454], [56.38284, 27.10133], [56.5385, 27.29249], [56.67314, 27.51551], [56.80645, 27.74694], [57.01897, 28.22683], [57.17154, 28.71387], [57.26484, 29.20289], [57.30114, 29.69216], [57.28273, 30.18101], [57.21143, 30.66899]], [[64.2471, 38.65015], [64.33398, 38.181], [64.3709, 37.94594], [64.39981, 37.71111], [64.41789, 37.47689], [64.42235, 37.2437], [64.41038, 37.01193], [64.37916, 36.78197], [64.32475, 36.55433], [64.24443, 36.33121], [64.13752, 36.11569], [64.00329, 35.91074], [63.84084, 35.7193], [63.64929, 35.54422], [63.42759, 35.38825], [63.1747, 35.25407], [62.96518, 35.16834], [62.7453, 35.09253], [62.29678, 34.95214], [62.07948, 34.87854], [61.87448, 34.79677], [61.68759, 34.70249], [61.52465, 34.59143], [61.38386, 34.45165], [61.28401, 34.29869], [61.21949, 34.13523], [61.18466, 33.96391], [61.1739, 33.78727], [61.18165, 33.60787], [61.20234, 33.4282], [61.23048, 33.25074], [61.25888, 33.10115], [61.29598, 32.94958], [61.3457, 32.79886], [61.41183, 32.65176], [61.49818, 32.51099], [61.60853, 32.37919], [61.7467, 32.25894], [61.91663, 32.15267], [62.01006, 32.10766], [62.1077, 32.06795], [62.2088, 32.03277], [62.41861, 31.97296], [63.65498, 31.68958], [64.11234, 31.57859], [64.57009, 31.46313], [65.02824, 31.3432], [65.4868, 31.2189], [66.4048, 30.95798]], [[66.92622, 39.39268], [68.29448, 40.03057], [69.66741, 40.58464], [71.06164, 41.06782], [72.4816, 41.48609], [73.92853, 41.84363], [75.40227, 42.14374], [76.90177, 42.38933], [78.42543, 42.583], [79.94206, 42.75286], [80.70796, 42.8341], [81.47925, 42.90661], [82.25607, 42.9656], [83.03841, 43.00617], [83.82615, 43.02339], [84.61901, 43.01221], [85.57951, 42.95012], [86.44294, 42.83209], [87.23169, 42.65736], [87.96841, 42.42619], [88.676, 42.13991], [89.3776, 41.80107], [90.09661, 41.41367], [90.85678, 40.98365]], [[116.51252, 39.91551], [115.86131, 39.81807], [115.1845, 39.60997], [114.49873, 39.31313], [113.81877, 38.94691], [113.15893, 38.53044], [112.53321, 38.08284], [111.95524, 37.62323], [111.43824, 37.17048], [111.24671, 36.99165], [111.05932, 36.81099], [110.87617, 36.62866], [110.69736, 36.44484], [110.52299, 36.25967], [110.35316, 36.07335], [110.18796, 35.886], [109.77754, 35.40496], [109.5895, 35.18071], [109.39117, 34.9368], [109.20599, 34.69717], [109.05694, 34.48524], [108.96658, 34.32397], [108.95707, 34.2356], [108.45035, 34.77658], [108.11103, 35.13177], [107.76875, 35.48021], [107.42276, 35.82126], [107.05936, 36.1037], [106.50717, 36.51536], [106.13419, 36.78228], [105.56744, 37.17251], [104.91929, 37.50566], [104.26329, 37.83017], [103.37712, 38.25299], [100.87908, 39.08154], [100.05272, 39.25499], [99.50078, 39.37454], [98.67185, 39.56177], [98.11892, 39.69319], [97.22679, 39.80526], [96.63366, 39.89025], [96.04232, 39.98523], [95.74751, 40.0371], [95.16016, 40.15141], [94.84848, 40.17639], [94.5386, 40.20757], [94.23054, 40.24506], [93.92377, 40.28718], [93.61803, 40.3332], [93.00915, 40.4353], [92.7058, 40.4908], [92.10089, 40.60958], [91.46325, 40.64884], [91.14544, 40.67188], [90.51163, 40.72423], [89.87991, 40.78423], [88.93562, 40.88711], [88.17737, 40.88306], [87.479, 40.81702], [86.82498, 40.70254], [86.19969, 40.55392], [84.97232, 40.21332], [84.33849, 40.05151], [83.06814, 39.79572], [82.16787, 39.62161], [80.74513, 39.25423], [79.40999, 38.80272], [78.17089, 38.25646], [77.03621, 37.60501], [76.01477, 36.83807], [75.11696, 35.94598], [74.35698, 34.92077], [74.27024, 34.75064], [74.21533, 34.57712], [74.18351, 34.40073], [74.166, 34.222], [74.13891, 33.85947], [74.1118, 33.67662], [74.06396, 33.49329], [73.9863, 33.29466], [73.88947, 33.10273], [73.77591, 32.91719], [73.64807, 32.73777], [73.50836, 32.56417], [73.35923, 32.39613], [73.20312, 32.23337], [73.04249, 32.07563], [72.50072, 31.57053], [72.2334, 31.31482], [71.98006, 31.05258], [71.74955, 30.78039], [71.55071, 30.49471], [71.39237, 30.19185], [71.28334, 29.86788], [71.2341, 29.58889], [71.20895, 29.29998], [71.19375, 29.0067], [71.17436, 28.71478], [71.13669, 28.43007], [71.06669, 28.15862], [70.9502, 27.90665], [70.77283, 27.68065], [70.60445, 27.54078], [70.41085, 27.42171], [70.19851, 27.31786], [69.97399, 27.22351], [69.51507, 27.03983], [69.29433, 26.9383], [69.08876, 26.82182], [68.7706, 26.5585], [68.53968, 26.24334], [68.38589, 25.88252], [68.29754, 25.48417], [68.25773, 25.06119], [68.24308, 24.63226], [68.2366, 24.21199], [68.23864, 23.80221]], [[74.65299, 42.03041], [75.25028, 41.62544], [75.83378, 41.22189], [76.40333, 40.81661], [76.95876, 40.40644], [77.49983, 39.98821], [78.02629, 39.55877], [78.53782, 39.11502], [79.03413, 38.65386]], [[77.30411, 37.81383], [77.95232, 37.44919], [78.61284, 37.09802], [79.28404, 36.77141], [79.9645, 36.48031], [80.65306, 36.23549], [81.3488, 36.04751], [82.05112, 35.92663], [82.75975, 35.88292], [83.54955, 35.93239], [84.29797, 36.07169], [85.01522, 36.28148], [85.71096, 36.54304], [86.39456, 36.83818], [87.76132, 37.4583], [88.46194, 37.74847], [91.596, 38.96758], [93.67446, 39.77228], [94.54852, 40.11737], [94.99629, 40.30346]], [[79.41107, 26.02707], [80.33728, 25.97989], [81.24918, 25.85399], [82.13596, 25.65502], [82.98704, 25.38771], [83.79201, 25.05569], [84.5406, 24.66148], [85.22268, 24.20651], [85.82829, 23.69135], [86.02728, 23.49799], [86.21781, 23.29897]]]}}, {"type": "Feature", "properties": {"name": "해상 교역로", "category": "교역로", "period": "신항로 개척 이전", "legend": "해상 교역로", "map_title": "신항로 개척 이전의 지역 교역망과 주요 교역로", "source": "미래엔 세계사 교과서 2권 101쪽", "volume": 2, "page": 101}, "geometry": {"type": "MultiLineString", "coordinates": [[[-5.8579, 35.75367], [-5.45043, 35.94611], [-5.11496, 36.20216], [-4.70219, 36.41068], [-4.14067, 36.51153], [-3.53781, 36.58022], [-2.90858, 36.50838], [-2.26396, 36.38256], [-1.61174, 36.26335], [-1.02266, 36.16059], [-0.46761, 36.07411], [0.04479, 36.02388], [0.4878, 36.06987], [0.86784, 36.20929], [1.25083, 36.32357], [1.70222, 36.30211], [2.23559, 36.11886], [2.19623, 36.17038], [2.23387, 36.24565], [2.33092, 36.33026], [2.46768, 36.41182], [2.62091, 36.4833], [2.76591, 36.54117], [2.87961, 36.58216], [2.94233, 36.60111], [3.12308, 36.63109], [3.30284, 36.6563], [3.48385, 36.67599], [3.66752, 36.69054], [4.24296, 36.72062], [4.44118, 36.73624], [4.81895, 36.76785], [5.20453, 36.81603], [5.58915, 36.842], [5.9792, 36.8768], [6.36963, 36.8876], [6.76657, 36.9081], [7.1721, 36.91142], [7.59585, 36.93462], [8.02394, 36.94541], [8.4394, 36.96897], [8.82449, 36.98255], [9.14629, 37.02054], [9.42475, 37.03103], [9.69847, 37.02186], [10.37147, 36.93632], [11.08142, 36.82981], [11.30839, 36.80241], [11.52428, 36.78315], [11.7233, 36.77425], [11.90352, 36.77444], [12.09575, 36.76273], [12.42032, 36.66891], [12.82733, 36.49719], [13.66969, 36.10571], [14.00619, 35.95707], [14.21751, 35.88711], [14.33991, 35.87283], [14.4182, 35.88591], [14.50352, 35.92845], [14.61619, 35.97881], [14.81893, 36.01405], [15.09163, 36.04702], [15.40685, 36.07675], [16.12813, 36.13115], [16.52191, 36.15369], [17.35019, 36.18965], [18.2041, 36.21728], [19.47875, 36.26385], [21.0789, 36.33722], [21.44592, 36.35096], [21.79785, 36.35481], [22.14168, 36.34555], [22.48662, 36.30584], [22.83131, 36.20634], [23.15503, 35.97667], [23.46137, 35.70743], [23.7563, 35.56197], [24.0542, 35.51902], [24.36659, 35.4887], [24.6862, 35.47645], [25.01757, 35.47922], [25.35946, 35.49702], [25.70691, 35.53301], [26.05142, 35.59282], [26.37783, 35.68626], [26.68892, 35.80448], [26.99344, 35.93171], [27.29973, 36.0535], [27.61772, 36.15871], [27.95944, 36.24338], [28.32966, 36.2987], [28.71102, 36.33444], [29.08713, 36.35754], [29.43684, 36.3721], [29.74123, 36.39143], [30.0314, 36.40479], [30.33224, 36.41116], [30.6764, 36.40799], [31.05894, 36.39576], [31.45465, 36.3915], [31.84726, 36.38068], [32.21513, 36.35846], [32.51202, 36.30744], [32.75959, 36.24711], [33.25275, 36.21268], [33.53416, 36.12225], [33.84749, 36.02865], [34.20635, 35.96496], [34.6498, 35.98832], [35.16535, 36.08341], [36.51312, 36.38168]], [[12.37798, 42.00036], [12.56417, 41.75854], [12.81262, 41.57721], [13.09692, 41.3917], [13.3537, 41.15276], [13.57836, 40.80319], [13.97214, 39.95072], [14.16737, 39.5055], [14.38573, 39.07888], [14.60296, 38.67966], [14.8424, 38.35924], [15.07404, 38.20639], [15.34617, 38.12494], [15.62317, 38.0183], [15.87327, 37.96628], [16.05762, 37.96966], [16.28618, 37.93609], [16.91719, 37.64122], [17.27925, 37.46511], [17.67477, 37.30363], [18.07767, 37.14383], [18.50264, 37.00983], [18.92805, 36.88307], [19.36909, 36.78353], [19.80726, 36.69079], [20.69254, 36.55889], [21.12619, 36.51428], [21.93944, 36.42144], [22.34442, 36.35114]], [[12.25367, 45.48435], [12.56069, 45.28434], [12.88848, 45.08859], [13.20024, 44.88072], [13.49121, 44.66111], [13.76228, 44.4341], [14.01612, 44.20412], [14.25057, 43.97348], [14.90395, 43.31064], [15.115, 43.10462], [15.53139, 42.71507], [15.73791, 42.53031], [15.9456, 42.35183], [16.15419, 42.17856], [16.57239, 41.84342], [16.97573, 41.51026], [17.3714, 41.17722], [17.56153, 41.00761], [17.74182, 40.83377], [17.90427, 40.65019], [18.22099, 40.2557], [18.41467, 40.0373], [18.68816, 39.79125], [19.03289, 39.52228], [20.09794, 38.70618], [20.37751, 38.48072], [20.53236, 38.33135], [20.59616, 38.22972], [20.64414, 38.10397], [20.73503, 37.91644], [20.87088, 37.71106], [21.0439, 37.50846], [21.23533, 37.31144], [21.43329, 37.13032], [21.62081, 36.97635], [21.78859, 36.84675], [21.9452, 36.71763], [22.33328, 36.44744], [22.5244, 36.29913]], [[15.10092, 35.99712], [15.04243, 35.6452], [15.00961, 35.28009], [14.99199, 34.90762], [14.97215, 34.16111], [14.94881, 32.81111], [14.94706, 32.56631], [14.95043, 32.42989], [14.94302, 32.35685], [14.88685, 32.17704]], [[21.44475, 32.6932], [21.7157, 32.67875], [21.98893, 32.67028], [22.27083, 32.68203], [22.56923, 32.73237], [22.95444, 32.76981], [23.74368, 32.86523], [24.88676, 32.81944], [25.26099, 32.75232], [26.0194, 32.62531], [27.15067, 32.29478], [28.27696, 31.82941], [28.6462, 31.6454], [29.00111, 31.47554], [29.56177, 31.2326], [29.74492, 31.19126], [29.87099, 31.2193], [29.99051, 31.23967]], [[31.54225, 46.94042], [31.3839, 46.1061], [31.1608, 45.28245], [30.87538, 44.47536], [30.52996, 43.69058], [30.12701, 42.9338], [29.66911, 42.21087], [29.15874, 41.52961], [28.78367, 41.11043], [28.59657, 40.91313]], [[39.28126, 47.54374], [38.20138, 46.62128], [37.08385, 45.71631], [35.91032, 44.83499], [34.66439, 43.98518], [33.33442, 43.17528], [31.91624, 42.41103], [30.41116, 41.69225], [29.4532, 41.29156], [29.13396, 41.16153], [28.81454, 41.03765]], [[28.86741, 41.22697], [28.75969, 41.08638], [28.61587, 40.96652], [28.44158, 40.86494], [28.24237, 40.77932], [28.0238, 40.70808], [27.79137, 40.65006], [27.5506, 40.60433], [27.307, 40.57015], [27.06237, 40.54487], [26.32171, 40.48684], [26.07699, 40.46424], [25.8357, 40.43529], [25.5993, 40.39702], [25.36935, 40.34648], [25.06359, 40.2481], [24.78786, 40.11758], [24.54891, 39.95826], [24.353, 39.77351], [24.20588, 39.5667], [24.11288, 39.34123], [24.07919, 39.10054], [24.11032, 38.84839], [24.28866, 38.43301], [24.57446, 38.08989], [24.93632, 37.80694], [25.73164, 37.25382], [26.15119, 37.05102], [26.58624, 36.95944], [26.97939, 36.85721], [27.28096, 36.67744], [27.56992, 36.46088], [27.82131, 36.17456], [28.10513, 35.83108], [28.29184, 35.54578], [28.47977, 35.24415], [28.66536, 34.9318], [28.82709, 34.59782], [29.15023, 33.92622], [29.29178, 33.58627], [29.57225, 32.93286], [29.80135, 32.32515], [29.90486, 32.04928], [29.97879, 31.79624], [30.03451, 31.57348], [30.05983, 31.39542], [29.97687, 31.26357], [29.85538, 31.16936]], [[31.27795, 30.11847], [31.52849, 29.88164], [31.78309, 29.65548], [32.55756, 28.99007], [33.2522, 28.28984], [33.70976, 27.81473], [34.13483, 27.32553], [34.34477, 27.07863], [34.55267, 26.83036], [34.95994, 26.33259], [35.3545, 25.8335], [35.73523, 25.33209], [36.11934, 24.84515], [36.48432, 24.35818], [36.65909, 24.11507], [36.85021, 23.88544], [37.40647, 23.20397], [37.59625, 22.98204], [37.83666, 22.78723], [38.10009, 22.60243], [38.38878, 22.42916], [38.98384, 22.10729], [39.24969, 21.9752], [39.43431, 21.83362], [39.56197, 21.68412], [39.67851, 21.53126], [39.84688, 21.38143]], [[33.11757, 43.06203], [33.55728, 43.16136], [33.99192, 43.22502], [34.42288, 43.25377], [34.8516, 43.24845], [35.27953, 43.20991], [35.70813, 43.13903], [36.13882, 43.0367], [36.57302, 42.90374], [36.70298, 42.85785], [36.80482, 42.81798], [36.88726, 42.78114], [37.02864, 42.70439], [37.31162, 42.53488]], [[36.7742, 21.90435], [36.97847, 21.66213], [37.38955, 21.47495], [38.22136, 21.43033], [38.99676, 21.42148], [39.3352, 21.36982], [39.50018, 21.31732], [39.69632, 21.28236], [40.07331, 21.27276]], [[40.06708, -3.25995], [40.07772, -3.31785], [40.05496, -3.36874], [40.11664, -3.44237], [40.24462, -3.53822], [40.40595, -3.64869], [40.59345, -3.76858], [40.8089, -3.88891], [41.04445, -4.01397], [41.29701, -4.14212], [41.56884, -4.25855], [42.14388, -4.49536], [43.07409, -4.7934], [44.05566, -5.01191], [45.07281, -5.12775], [46.1181, -5.11764], [47.5348, -4.98378], [48.96187, -4.79368], [50.39473, -4.54229], [51.8304, -4.22532], [53.26581, -3.8393], [54.1234, -3.56728], [54.69714, -3.38175], [55.54986, -3.06621], [56.11989, -2.85137], [56.96486, -2.49216], [57.52924, -2.2482], [58.67137, -1.69153], [59.24315, -1.40791], [60.0841, -0.94483], [60.9254, -0.47499], [61.75191, 0.02779], [62.57821, 0.53568], [64.20431, 1.60775], [65.80623, 2.72403], [67.38486, 3.86786], [68.93735, 5.02496], [69.70045, 5.60568], [70.45352, 6.18653], [70.98181, 6.60215], [71.50091, 7.01975], [72.00791, 7.44086], [72.25553, 7.65351], [72.49792, 7.86833], [72.73256, 8.08695], [72.94947, 8.31604], [73.123, 8.57297], [73.28597, 8.83523], [73.46026, 9.08799], [73.64585, 9.33143], [73.84011, 9.56749], [74.04102, 9.79766], [74.24733, 10.0229], [74.45823, 10.24383], [74.67324, 10.46085], [74.8921, 10.67421], [75.11469, 10.88404], [75.34106, 11.09035], [75.57153, 11.293], [75.80682, 11.49154]], [[40.09585, -3.24616], [40.06836, -3.32873], [39.99865, -3.65447], [39.93463, -4.11553], [39.84274, -4.63518], [39.78264, -4.90248], [39.74211, -5.1739], [39.61941, -5.67203], [39.42713, -6.03691], [39.12757, -6.19578]], [[45.2001, 12.45062], [45.34743, 11.96742], [45.59605, 11.42267], [45.91194, 10.98122], [46.26497, 10.77814], [46.62421, 10.79473], [47.31272, 10.95227], [47.62994, 11.03268], [47.93124, 11.11648], [48.23311, 11.1841], [48.54031, 11.24524], [49.17303, 11.38959], [49.50715, 11.45532], [49.84409, 11.50971], [50.14814, 11.5701], [50.42086, 11.63411], [50.6805, 11.61415], [50.96449, 11.53885], [51.37624, 11.48917], [51.95975, 11.46831], [52.49317, 11.37874], [52.84333, 11.13753], [53.04387, 10.71949], [53.09414, 10.46819], [53.11221, 10.21134], [53.10229, 9.95215], [53.06778, 9.69295], [53.01186, 9.43568], [52.93779, 9.18208], [52.84911, 8.93382], [52.74978, 8.6925], [52.59209, 8.37123], [52.42846, 8.05406], [52.09341, 7.43211], [51.7272, 6.85972], [51.37651, 6.29135], [50.6503, 5.23386], [50.45641, 4.99351], [50.26055, 4.75997], [50.06232, 4.53367], [49.86238, 4.31382], [49.23572, 3.70999], [49.0358, 3.50693], [48.83234, 3.3108], [48.63491, 3.1099], [48.44227, 2.90405], [48.25273, 2.69352], [48.05722, 2.48749], [47.468, 1.85319], [47.26178, 1.64799], [47.05169, 1.44619], [46.83618, 1.24963], [46.61372, 1.05902], [46.3998, 0.88942], [46.17887, 0.72256], [45.41127, 0.16436], [45.10091, -0.06869], [44.79059, -0.31168], [44.48531, -0.54247], [43.88231, -1.01049], [42.98946, -1.62193], [42.40073, -1.95493], [42.11776, -2.12043], [41.84145, -2.24801], [41.57949, -2.37612], [41.32843, -2.50419], [40.7844, -2.68723], [40.60397, -2.75353], [40.44519, -2.7984], [40.31936, -2.89251], [40.23202, -3.03193], [40.13482, -3.16323]], [[39.89463, 21.33278], [39.72668, 21.182], [39.61102, 20.9762], [39.49546, 20.70742], [39.20246, 19.98026], [39.0373, 19.556], [38.89109, 19.11858], [38.78749, 18.69169], [38.74422, 18.30631], [38.78964, 18.0202], [38.99105, 17.60137], [39.06956, 17.36494], [39.15665, 17.08522], [39.28815, 16.76482], [39.47133, 16.41457], [39.84106, 15.7509], [40.28114, 15.10515], [40.9051, 14.63771], [41.62811, 14.32579], [42.18251, 13.96095], [42.51253, 13.49059], [42.73447, 12.95591], [42.99095, 12.41219], [43.1593, 12.12158], [43.34835, 11.82599], [43.64377, 11.38478], [43.91066, 10.97773], [43.99402, 10.87335], [44.083, 10.80373], [44.18634, 10.78501], [44.30078, 10.81222], [44.41832, 10.87287], [44.53397, 10.96064], [44.64163, 11.06985], [44.73603, 11.19378], [44.81706, 11.33128], [44.88491, 11.48313], [44.93987, 11.65084], [44.98209, 11.83463], [45.01158, 12.03098], [45.02839, 12.23085], [45.03504, 12.418], [45.03675, 12.70757], [45.00557, 12.96493]], [[44.80757, 13.12591], [44.85866, 12.92013], [44.97045, 12.7767], [45.1476, 12.63821], [45.39815, 12.35439], [45.70782, 11.96953], [46.05398, 11.5948], [46.41699, 11.31674], [46.77818, 11.17637], [47.36136, 11.14351], [47.84797, 11.19911], [48.31636, 11.27171], [48.80279, 11.36038], [49.31007, 11.43658], [49.8296, 11.52605], [50.28459, 11.68293], [50.58407, 11.90351], [50.79123, 12.23444], [50.95667, 12.7341], [51.13921, 13.33564], [51.29758, 13.99093], [51.4119, 14.64628], [51.52728, 15.21985], [51.76515, 15.54729], [51.9985, 15.87664], [52.32459, 15.71184], [52.68796, 15.60438], [53.08616, 15.51212], [53.49029, 15.44927], [53.88543, 15.42604], [54.26848, 15.44544], [54.63981, 15.50629], [54.99889, 15.60457], [55.42921, 15.78154], [55.83725, 16.02102], [56.2184, 16.31723], [56.56753, 16.66392], [56.87967, 17.05452], [57.15027, 17.48195], [57.37558, 17.93825], [57.55304, 18.41404], [57.60602, 18.6004], [57.64509, 18.78586], [57.66677, 18.96422], [57.66739, 19.12983], [57.64068, 19.27969], [57.57866, 19.41535], [57.47426, 19.53815], [57.32389, 19.6425], [57.58472, 19.64022], [57.83348, 19.6739], [58.07027, 19.82077], [58.30407, 19.9772], [58.52955, 20.18057], [58.99284, 20.49546], [59.22529, 20.61951], [59.41962, 20.76365], [59.61298, 20.89726], [59.8801, 21.21264], [59.93715, 21.3945], [59.98649, 21.57784], [59.94574, 21.78533], [59.89127, 21.99976], [59.66474, 22.30981], [59.29312, 22.59944], [58.89921, 22.92417], [58.5906, 23.26329], [58.20245, 23.50547], [57.6953, 23.63611], [57.19213, 23.76129], [56.80099, 23.99644], [56.5456, 24.35955], [56.37795, 24.77641], [56.26987, 25.22914], [56.21227, 25.73045], [56.18806, 26.26184], [56.19069, 26.70847], [56.24204, 26.98842], [56.32223, 27.25874]], [[48.35278, 29.84643], [48.44907, 29.65868], [48.54569, 29.44586], [48.75136, 28.96613], [49.04883, 28.25136], [49.1456, 28.02643], [49.24684, 27.80682], [49.35862, 27.59039], [49.48904, 27.3766], [49.65484, 27.16889], [49.88177, 26.97713], [50.14554, 26.79514], [50.41891, 26.6194], [50.68849, 26.45558], [50.94217, 26.3175], [51.15336, 26.22875], [51.29131, 26.21201], [51.39761, 26.24187], [51.50457, 26.29863], [51.62347, 26.37574], [51.7499, 26.47545], [51.86886, 26.60465], [51.77442, 26.40995], [51.70465, 26.23202], [51.64875, 26.07363], [51.62766, 25.91767], [51.70024, 25.72564], [51.95064, 25.44657], [52.32684, 25.12907], [52.76405, 24.83332], [53.21094, 24.60895], [53.60639, 24.52835], [53.94791, 24.5734], [54.26186, 24.6761], [54.55132, 24.81138], [54.80833, 24.96371], [55.03364, 25.1248], [55.23572, 25.2986], [55.41097, 25.50303], [55.54989, 25.7551], [55.65102, 26.05662], [55.74092, 26.37287], [55.83604, 26.66152], [55.94898, 26.86658], [56.19409, 27.17366]], [[50.46262, 11.6338], [50.66618, 11.6291], [50.86077, 11.6053], [51.08256, 11.61592], [51.41599, 11.69601], [51.9599, 11.87716], [52.59952, 12.08011], [53.14352, 12.27666], [53.43388, 12.43185], [53.63644, 12.5345], [53.85604, 12.58635], [54.33186, 12.58638], [54.60151, 12.60619], [54.88437, 12.63508], [55.17527, 12.66905], [55.78099, 12.69466], [56.08946, 12.71243], [56.71455, 12.75615], [57.35439, 12.76348], [58.32987, 12.78312], [59.32928, 12.74495], [60.00713, 12.71249], [60.69445, 12.64154], [61.04165, 12.60241], [61.74286, 12.51656], [62.44902, 12.39937], [63.52176, 12.208], [64.24151, 12.0593], [65.32762, 11.82857], [67.14073, 11.42717], [67.50115, 11.34984], [68.21696, 11.19842], [68.92352, 11.05309], [69.95867, 10.86779], [70.62589, 10.75926], [71.26864, 10.68482], [71.57883, 10.65483], [71.88037, 10.63044], [72.17234, 10.61223], [72.45403, 10.61321], [72.72496, 10.62105], [72.98509, 10.63572], [73.23506, 10.65677], [73.47628, 10.6832], [74.17736, 10.8222], [74.6485, 10.90929], [74.89385, 10.9648], [75.14505, 11.01583], [75.40257, 11.06209], [75.66694, 11.10328], [75.93909, 11.13884]], [[50.09043, 39.80734], [50.40061, 39.70973], [50.70448, 39.62013], [51.00468, 39.53744], [51.3039, 39.4605], [51.60478, 39.38816], [51.91006, 39.31928], [52.54478, 39.18731]], [[56.47511, 27.08035], [56.45601, 26.86446], [56.54993, 26.59154], [56.72945, 26.25648], [56.98064, 25.92872], [57.29412, 25.63736], [57.64345, 25.35275], [57.99341, 25.04935], [58.29235, 24.78162], [58.5621, 24.49603], [58.75248, 24.19066], [58.87236, 23.86709], [58.9814, 23.56157], [59.23477, 23.35182], [59.67472, 23.26742], [60.12923, 23.23976], [60.56331, 23.23991], [60.95892, 23.25963], [61.33821, 23.27056], [61.75704, 23.29782], [62.17206, 23.31044], [62.47036, 23.33007], [62.77165, 23.34332], [63.0772, 23.35076], [63.39569, 23.37335], [63.72119, 23.38928], [64.05583, 23.39711], [64.39515, 23.42007], [64.74799, 23.43111], [65.11631, 23.42826], [65.66324, 23.44444], [66.23995, 23.43171], [66.77581, 23.45651], [67.31662, 23.47171], [67.77354, 23.55078], [68.22002, 23.63331], [67.74147, 23.29186], [67.46069, 22.85278], [67.37959, 22.34004], [67.47511, 21.79184], [67.72093, 21.24322], [68.09391, 20.72383], [68.57409, 20.26091], [69.14409, 19.88129], [69.77754, 19.60198], [70.42677, 19.43037], [71.07669, 19.36087], [71.71365, 19.38673], [72.32509, 19.50028], [72.899, 19.69346], [73.4234, 19.95825], [73.88584, 20.28706], [73.58601, 19.96571], [73.33901, 19.5614], [73.14626, 19.09446], [73.008, 18.58612], [72.92275, 18.0589], [72.88723, 17.53676], [72.89678, 17.04491], [72.94598, 16.60942], [73.06117, 16.11654], [73.22902, 15.67402], [73.44469, 15.28356], [73.70388, 14.94634], [74.00307, 14.66287], [74.3397, 14.43282], [74.7125, 14.25477], [75.12178, 14.12619], [74.92528, 13.90514], [74.76286, 13.65992], [74.63648, 13.39617], [74.54764, 13.11997], [74.49733, 12.8378], [74.48611, 12.5565], [74.51422, 12.28323], [74.58184, 12.02517], [74.6819, 11.80136], [74.80959, 11.61215], [74.96233, 11.45753], [75.13862, 11.33663], [75.33748, 11.24825], [75.55779, 11.19124], [75.79803, 11.16471], [76.05558, 11.16854]], [[75.65816, 11.30241], [75.48247, 10.55215], [75.36047, 9.81977], [75.31112, 9.10243], [75.33307, 8.74986], [75.36311, 8.39109], [75.44334, 8.04165], [75.53164, 7.68641], [75.67172, 7.34465], [75.81818, 6.99859], [76.22227, 6.33882], [76.74627, 5.71572], [77.14534, 5.33045], [77.58291, 4.96072], [78.0562, 4.61521], [78.5622, 4.3026], [79.09779, 4.03154], [79.65973, 3.81065], [80.24478, 3.64848], [80.84963, 3.55356], [81.7207, 3.48617], [82.56813, 3.45478], [83.39784, 3.46161], [84.21633, 3.50856], [85.0305, 3.5972], [85.84751, 3.72896], [86.67475, 3.90517], [87.5197, 4.12716], [88.2526, 4.32518], [89.0047, 4.50518], [89.77206, 4.66701], [90.16129, 4.73888], [90.55077, 4.81053], [91.3369, 4.93552], [92.12659, 5.04178], [92.91592, 5.12899], [93.70109, 5.19684], [94.02012, 5.22763], [94.63216, 5.30562], [94.93225, 5.33675], [95.23317, 5.35183], [95.53855, 5.34264], [95.85206, 5.30088], [96.17734, 5.21819]], [[75.76135, 11.44085], [75.73726, 10.98754], [75.76269, 10.53401], [75.83758, 10.09496], [75.96549, 9.68272], [76.14834, 9.31097], [76.38372, 8.99624], [76.66586, 8.75729], [76.98745, 8.61365], [77.71855, 8.5576], [78.34095, 8.77081], [78.86233, 9.19633], [79.29726, 9.77297], [79.66174, 10.43903], [79.97077, 11.13414], [80.23775, 11.79979], [80.65102, 12.80138], [80.73249, 13.01344], [80.80957, 13.22603], [80.88222, 13.4391], [80.95037, 13.65258], [81.24187, 14.65723], [81.31223, 14.92339], [81.37092, 15.18515], [81.40689, 15.41792], [81.40917, 15.59722], [81.36687, 15.69863], [81.64028, 15.53856], [81.95428, 15.45088], [82.29594, 15.42984], [82.652, 15.46976], [83.00896, 15.565], [83.35322, 15.70986], [83.67118, 15.89859], [83.94933, 16.12525], [84.18406, 16.3787], [84.38373, 16.64949], [84.55293, 16.93433], [84.69632, 17.22998], [84.81854, 17.53322], [84.92426, 17.8409], [85.01812, 18.14991], [85.10476, 18.45721], [85.50876, 18.32025], [85.93562, 18.22872], [86.3788, 18.18276], [86.83159, 18.18251], [87.28719, 18.2281], [87.73871, 18.31957], [88.17929, 18.45685], [88.60207, 18.63969], [89.01576, 18.88911], [89.42509, 19.21479], [89.81713, 19.59899], [90.17919, 20.02362], [90.49876, 20.47038], [90.76332, 20.92097], [90.96029, 21.35724], [91.07688, 21.76135], [91.12874, 21.20657], [91.23413, 20.66024], [91.37825, 20.11802], [91.54625, 19.57558], [91.72324, 19.02862], [91.89413, 18.47295], [92.04366, 17.90455], [92.15629, 17.31963], [92.30264, 16.70244], [92.53598, 16.12076], [92.83502, 15.5618], [93.17827, 15.01279], [93.54407, 14.46089], [93.91057, 13.89326], [94.25576, 13.29707], [94.55736, 12.65977], [94.7495, 12.15197], [94.90466, 11.65301], [95.02505, 11.15798], [95.11304, 10.66177], [95.17105, 10.15915], [95.20164, 9.64475], [95.20733, 9.11317], [95.19072, 8.55893], [95.19509, 8.14038], [95.24473, 7.61916], [95.34392, 7.03743], [95.4969, 6.43736], [95.70795, 5.86099], [95.98146, 5.35023], [96.32201, 4.94681], [96.73427, 4.69261], [96.93719, 4.63484], [97.1674, 4.59516], [97.41779, 4.56759], [97.9507, 4.52483], [98.21905, 4.49752], [98.4793, 4.45809], [98.72446, 4.40035], [98.97635, 4.3178], [99.20858, 4.22271], [99.42381, 4.11316], [99.6247, 3.98725], [99.81386, 3.84311], [99.99383, 3.67888], [100.16709, 3.49273], [100.33607, 3.28287], [100.40681, 3.17833], [100.47054, 3.06626], [100.64969, 2.71577], [100.71554, 2.60436], [100.78956, 2.5007], [100.8749, 2.4078], [101.04709, 2.26445], [101.22837, 2.14224], [101.41517, 2.03326], [101.79051, 1.8235], [101.97141, 1.70699], [102.14271, 1.57228], [102.30072, 1.41161], [102.63675, 1.04725], [102.99939, 0.69415], [103.37227, 0.34552], [103.73911, -0.00527], [104.08355, -0.36476], [104.38923, -0.73933], [104.63963, -1.13523], [104.81832, -1.55819], [104.86572, -1.75609], [104.884, -1.94075], [104.88101, -2.11621], [104.86462, -2.28624], [104.82356, -2.62424], [104.81512, -2.79863], [104.82599, -2.98004]], [[100.26504, 13.04399], [101.26388, 11.71325], [101.86876, 10.90139], [102.66478, 9.81034], [103.43367, 8.71478], [104.15795, 7.62172], [104.82053, 6.53814], [105.21211, 5.82594], [105.40529, 5.47069], [105.89751, 4.4255]], [[104.70202, -3.1564], [104.82732, -2.57625], [104.96696, -1.96254], [105.23817, -0.66596], [105.30099, -0.32987], [105.48394, 0.70049], [105.58867, 1.40525], [105.68523, 2.12132], [105.76448, 2.84894], [105.83502, 3.58555], [105.89007, 4.33148], [105.93797, 5.08451], [105.97328, 5.84491], [106.00333, 6.61069], [106.0404, 8.15702], [106.35945, 7.92566], [106.69356, 7.77824], [107.03731, 7.70663], [107.38519, 7.7027], [107.73149, 7.75827], [108.07043, 7.86515], [108.39607, 8.01505], [108.70236, 8.19959], [109.59309, 9.1115], [110.03436, 10.25774], [110.10561, 11.56672], [109.88923, 12.96647], [109.46897, 14.38409], [108.92966, 15.74633], [108.35709, 16.98165], [107.83636, 18.02356], [107.63969, 18.38708], [107.427, 18.73959], [107.20387, 19.08343], [106.74896, 19.75428], [106.52861, 20.08584], [106.32069, 20.41776], [106.13119, 20.75209], [106.45272, 20.64779], [107.1039, 20.42178], [107.43499, 20.31345], [107.77076, 20.2172], [108.11202, 20.13978], [108.45961, 20.08796], [108.81448, 20.06846], [109.20095, 20.07728], [109.58695, 20.10673], [109.97069, 20.15773], [110.35044, 20.23116], [110.72451, 20.32788], [111.09122, 20.44868], [111.44893, 20.59433], [111.79604, 20.76555], [112.14581, 20.97078], [112.43974, 21.1816], [112.68108, 21.40376], [112.87332, 21.64285], [113.02017, 21.90428], [113.12555, 22.19322], [113.19373, 22.51455], [113.22961, 22.87257], [113.26119, 22.62573], [113.3768, 22.40566], [113.56322, 22.21274], [113.80759, 22.04727], [114.09711, 21.90961], [114.41904, 21.80021], [114.7606, 21.71955], [115.10913, 21.66817], [115.65381, 21.63154], [116.16276, 21.64231], [116.6389, 21.70384], [117.08548, 21.81914], [117.50586, 21.99108], [117.90331, 22.22241], [118.28085, 22.51602], [118.64094, 22.87499], [118.76698, 23.06189], [118.84878, 23.28005], [118.89282, 23.51974], [118.9053, 23.77147], [118.89227, 24.02595], [118.85971, 24.27399], [118.81377, 24.50645], [118.76085, 24.71405], [118.88462, 24.61089], [119.12113, 24.65856], [119.42764, 24.82058], [119.76361, 25.05885], [120.09283, 25.33233], [120.38189, 25.59791], [120.59825, 25.81175], [120.70896, 25.93009], [120.97762, 26.26805], [121.24299, 26.6353], [121.49639, 27.02507], [121.72912, 27.43054], [121.93222, 27.84499], [122.0963, 28.26198], [122.21142, 28.67543], [122.26704, 29.07973], [122.24952, 29.37708], [122.16677, 29.63468], [122.02758, 29.85726], [121.8412, 30.04922], [121.61727, 30.2147], [121.36578, 30.35759], [121.09699, 30.48157], [120.82146, 30.59012], [121.03115, 30.98077], [121.24821, 31.36741], [121.38714, 31.75603], [121.53145, 32.14136], [121.59069, 32.51402], [121.65406, 32.88453], [121.59964, 33.57185], [121.35197, 34.17888], [120.89478, 34.67865], [120.21162, 35.03843], [119.28541, 35.21722], [119.79751, 35.23322], [120.31581, 35.34105], [120.82182, 35.52752], [121.29695, 35.78005], [121.7224, 36.08695], [122.07923, 36.43757], [122.3484, 36.82237], [122.51082, 37.23257]], [[105.31402, -0.72219], [105.90059, -0.85157], [106.4686, -1.03865], [107.01113, -1.27847], [107.52083, -1.56603], [107.99009, -1.89637], [108.41128, -2.2644], [108.77694, -2.66495], [109.08006, -3.09256], [109.24155, -3.37647], [109.38866, -3.66485], [109.5308, -3.95253], [109.6771, -4.23504], [109.83629, -4.50862], [110.01662, -4.77024], [110.22587, -5.01757], [110.4715, -5.24876], [110.60546, -5.35423], [110.74595, -5.45326], [110.89198, -5.54648], [111.04264, -5.63441], [111.19705, -5.71745], [111.3544, -5.79599], [111.51386, -5.8703], [111.67463, -5.94067], [111.99368, -6.06864], [112.31872, -6.18124], [112.65036, -6.27446], [112.98879, -6.34387], [113.33392, -6.38526], [113.68565, -6.39579], [114.04443, -6.37513], [114.41177, -6.32616]], [[122.7422, 37.48212], [122.77084, 36.99647], [122.89306, 36.53333], [123.10348, 36.10155], [123.39642, 35.70964], [123.76584, 35.36574], [124.2053, 35.07761], [124.70786, 34.85256], [125.26623, 34.69736]], [[126.52222, 37.43056], [126.28447, 37.2589], [126.05722, 37.07833], [125.84343, 36.88901], [125.64607, 36.69119], [125.46812, 36.48519], [125.31258, 36.27141], [125.18245, 36.05037], [125.08078, 35.82264], [125.01292, 35.58944], [124.98262, 35.3548], [124.99087, 35.12368], [125.03863, 34.90098], [125.12679, 34.69164], [125.25611, 34.50056], [125.42731, 34.3326], [125.641, 34.1926], [125.83935, 34.10528], [126.05703, 34.04149], [126.29009, 34.00095], [126.53464, 33.98332], [126.78681, 33.98822], [127.04272, 34.0152], [127.29848, 34.06372], [127.55025, 34.13326], [127.79389, 34.22239], [128.02653, 34.32839], [128.24625, 34.44893], [128.45122, 34.58163], [128.63965, 34.72394], [128.80992, 34.87319], [128.96065, 35.02663], [129.09141, 35.18107]], [[129.07946, 35.17755], [128.98522, 35.00953], [128.90738, 34.83848], [128.84469, 34.66523], [128.79703, 34.48996], [128.76455, 34.31268], [128.74749, 34.13331], [128.74617, 33.9517], [128.76091, 33.76768], [128.80154, 33.58442], [128.87675, 33.40877], [128.98465, 33.24588], [129.12342, 33.10088], [129.29133, 32.97884], [129.4868, 32.88464], [129.70837, 32.82299], [129.95435, 32.7985]]]}}]}