{"type": "FeatureCollection", "features": [{"type": "Feature", "properties": {"name": "동아시아 교역망", "name_en": "East Asian trade network", "period": "신항로 개척 이전(15세기 이전)", "kind": "기타", "legend": "동아시아 교역망", "map_title": "신항로 개척 이전의 지역 교역망과 주요 교역로", "source": "미래엔 세계사 교과서 2권 101쪽", "volume": 2, "page": 101, "border_snap": "현대 국경(Natural Earth 10m)에 맞춘 구간 약 608 km"}, "geometry": {"type": "Polygon", "coordinates": [[[114.3293, -7.96428], [114.07114, -8.07752], [113.80066, -8.18741], [113.52269, -8.28129], [113.2479, -8.3259], [112.44197, -8.32939], [111.48121, -8.31817], [111.26482, -8.31239], [111.05115, -8.30161], [110.8072, -8.20357], [110.31457, -7.98186], [110.05841, -7.88423], [109.78587, -7.81832], [109.49664, -7.78537], [109.19803, -7.77013], [108.89295, -7.76661], [108.58333, -7.77089], [107.64407, -7.79528], [106.72759, -7.59559], [104.87449, -7.20861], [103.94293, -7.00857], [103.42726, -6.75568], [102.91214, -6.49743], [102.14135, -6.09725], [101.62905, -5.82063], [101.37337, -5.67915], [100.60797, -5.24179], [100.40421, -5.05005], [99.99797, -4.6594], [99.59316, -4.25916], [99.18936, -3.84955], [98.58433, -3.21853], [98.18056, -2.78768], [97.77578, -2.34951], [97.47004, -1.84219], [97.0093, -1.0672], [96.21596, 0.29589], [95.43883, 1.60745], [95.09038, 2.52898], [94.69281, 3.56363], [94.23065, 4.78013], [93.91339, 5.6003], [93.60488, 6.38625], [93.41705, 7.24591], [93.21361, 8.15624], [92.95821, 9.32887], [92.7099, 10.49169], [92.47055, 11.64174], [92.39109, 13.02288], [92.32405, 14.38371], [92.27051, 15.72124], [92.23105, 17.03321], [92.3217, 17.81666], [92.41642, 18.59177], [92.51532, 19.35826], [92.61849, 20.11597], [92.76271, 21.11249], [92.85854, 21.72435], [92.87746, 21.95701], [92.88924, 21.96672], [92.90619, 22.01731], [92.92097, 22.02181], [92.93741, 22.01302], [92.9556, 21.98962], [92.9617, 21.98688], [92.9681, 21.98724], [92.97896, 21.99535], [92.97792, 22.01649], [92.96531, 22.04956], [92.96717, 22.06268], [92.98547, 22.09596], [92.99518, 22.10325], [93.02546, 22.11292], [93.02257, 22.12098], [93.02236, 22.19622], [93.02453, 22.2019], [93.04582, 22.20686], [93.07249, 22.20247], [93.09058, 22.19715], [93.10432, 22.18717], [93.11952, 22.18097], [93.14174, 22.18728], [93.12313, 22.21839], [93.12354, 22.23069], [93.16902, 22.24691], [93.17367, 22.25942], [93.16592, 22.38659], [93.15352, 22.42752], [93.11786, 22.46287], [93.09915, 22.51196], [93.09822, 22.53527], [93.10908, 22.5747], [93.11052, 22.59635], [93.10442, 22.61593], [93.08189, 22.65283], [93.07394, 22.6719], [93.07084, 22.69288], [93.07952, 22.77272], [93.11238, 22.79995], [93.1159, 22.7984], [93.1253, 22.82155], [93.16106, 22.86098], [93.17553, 22.8817], [93.17739, 22.9002], [93.17109, 22.92044], [93.15114, 22.95622], [93.14318, 22.97751], [93.13822, 23.00526], [93.14008, 23.0319], [93.15238, 23.04994], [93.17708, 23.05844], [93.19651, 23.05384], [93.21212, 23.03989], [93.22556, 23.02038], [93.24654, 23.00449], [93.27279, 23.00591], [93.29883, 23.01795], [93.31826, 23.03366], [93.33335, 23.05229], [93.3749, 23.12973], [93.37273, 23.16983], [93.38079, 23.23726], [93.37645, 23.27948], [93.3779, 23.29682], [93.3842, 23.31313], [93.40725, 23.34726], [93.39981, 23.42609], [93.40022, 23.45402], [93.43236, 23.64732], [93.4303, 23.68034], [93.40632, 23.71912], [93.3748, 23.73902], [93.35826, 23.85526], [93.35919, 23.89095], [93.35599, 23.90699], [93.33759, 23.92841], [93.31609, 23.9611], [93.30297, 23.99528], [93.30297, 24.04114], [93.30968, 24.06398], [93.32219, 24.08006], [93.34854, 24.08889], [93.36828, 24.07848], [93.55508, 24.24305], [93.70965, 24.71339], [94.10558, 25.87614], [94.34888, 26.56684], [94.59643, 27.25307], [95.18678, 28.36798], [95.42803, 28.81271], [95.38893, 29.03996], [95.42982, 29.04652], [95.48758, 29.06899], [95.51131, 29.13179], [95.52143, 29.13786], [95.52268, 29.16119], [95.51193, 29.19755], [95.51534, 29.20943], [95.55017, 29.21248], [95.55378, 29.23904], [95.56443, 29.24561], [95.59234, 29.24969], [95.6467, 29.22835], [95.71716, 29.21828], [95.74736, 29.27365], [95.74478, 29.34043], [95.77641, 29.34555], [95.79594, 29.35289], [95.84493, 29.57501], [96.41256, 30.59188], [97.04837, 31.7087], [97.5858, 32.426], [98.26589, 33.32129], [99.1312, 34.47238], [99.71359, 35.23326], [100.26889, 35.94818], [101.05241, 36.77874], [101.84887, 37.60647], [102.49345, 38.30299], [103.12068, 38.96919], [103.6481, 39.52051], [104.18207, 40.07043], [104.84385, 40.63496], [106.33813, 41.89387], [106.23555, 42.11323], [106.76783, 42.28662], [107.16568, 42.33399], [107.13427, 42.56053], [108.08539, 43.34692], [108.56908, 43.74261], [109.47996, 44.31694], [110.72256, 45.08348], [111.92366, 45.80819], [112.59051, 46.20345], [113.17153, 46.54264], [114.40067, 47.0283], [115.06973, 47.28543], [115.67094, 47.51208], [115.8527, 47.70556], [115.91451, 47.68391], [115.9729, 47.70905], [116.08431, 47.80693], [116.18157, 47.84959], [116.24389, 47.86289], [116.42889, 47.83514], [116.49969, 47.83636], [116.75166, 47.87413], [116.82205, 47.8763], [116.85326, 47.87212], [117.0084, 47.82897], [117.14046, 48.04886], [117.80386, 48.28321], [118.93571, 48.45249], [120.06079, 48.60397], [121.17867, 48.73743], [122.289, 48.85289], [122.95328, 48.75332], [123.2829, 48.69968], [123.93684, 48.58456], [124.26107, 48.52306], [124.5834, 48.45891], [125.22219, 48.32271], [125.53856, 48.2507], [126.16507, 48.09898], [126.39533, 47.95229], [126.84906, 47.65153], [127.07262, 47.4976], [127.51341, 47.18305], [127.73081, 47.02265], [128.16007, 46.69615], [128.58275, 46.36304], [128.99995, 46.02463], [129.61665, 45.04066], [130.22959, 44.03977], [130.63582, 43.40508], [130.90203, 43.00933], [130.98219, 42.78081], [131.07401, 42.54884], [131.1759, 42.31065], [131.5426, 41.52086], [131.66912, 41.23919], [131.92268, 40.65557], [132.27499, 39.82094], [132.68927, 38.82845], [133.06919, 37.07624], [133.16691, 36.61191], [133.22537, 36.31729], [133.23035, 36.2759], [133.22202, 36.2308], [133.21679, 36.16573], [133.21646, 36.00382], [133.22311, 35.77335], [133.23986, 35.51028], [133.22515, 35.2176], [133.22374, 34.91802], [133.23778, 34.30579], [133.23962, 33.99155], [133.22849, 33.68356], [133.19298, 33.41479], [133.11985, 33.21857], [132.93585, 32.90772], [132.86494, 32.73167], [132.82203, 32.5223], [132.79324, 32.29569], [132.77347, 32.05774], [132.76015, 31.81138], [132.75174, 31.55842], [132.74576, 31.0372], [132.66419, 30.51144], [132.58971, 29.9745], [132.52071, 29.42845], [132.45608, 28.87477], [132.39317, 28.29728], [132.3017, 27.39409], [132.20729, 26.39329], [132.12268, 25.44479], [131.75371, 23.76044], [131.394, 22.07946], [130.96969, 20.06406], [130.78274, 19.15734], [130.43305, 18.11299], [129.77901, 16.11996], [129.23994, 14.4424], [128.7344, 12.82855], [128.22883, 11.65976], [127.8614, 10.7868], [127.50785, 9.91949], [127.28256, 9.34617], [127.17396, 9.06152], [126.96735, 8.49765], [126.87099, 8.21919], [126.78116, 7.94377], [126.70085, 7.67227], [126.63944, 7.40635], [126.59842, 7.14738], [126.52401, 6.89594], [126.43491, 6.65339], [126.30825, 6.42567], [126.10967, 6.22392], [125.86244, 6.03089], [125.62281, 5.81016], [125.45917, 5.50263], [125.40566, 5.08322], [125.40269, 4.62868], [125.42657, 4.18072], [125.46178, 3.78601], [125.51831, 3.31549], [125.5264, 3.13735], [125.5095, 2.95449], [125.4545, 2.7337], [125.33185, 2.39582], [125.12999, 1.94915], [124.84595, 1.60131], [124.5185, 1.37283], [124.18811, 1.18202], [123.87664, 0.99516], [123.6061, 0.7792], [123.39055, 0.51353], [123.22845, 0.20826], [123.11612, -0.12976], [123.01362, -0.4642], [122.88997, -0.75979], [122.72857, -1.00217], [122.53807, -1.21865], [122.32121, -1.42506], [122.07946, -1.63094], [121.55148, -2.06217], [121.30883, -2.28403], [121.05463, -2.49111], [120.82207, -2.69652], [120.60315, -2.90112], [120.39652, -3.10704], [120.21442, -3.32121], [120.06147, -3.54383], [119.92533, -3.77066], [119.79864, -4.00219], [119.68174, -4.24245], [119.58519, -4.50366], [119.50688, -4.79025], [119.37189, -5.05732], [119.13094, -5.27735], [118.84453, -5.47879], [118.53457, -5.67119], [118.19485, -5.81683], [117.84511, -5.95797], [116.77875, -6.37047], [116.43014, -6.51005], [116.09184, -6.65454], [115.76979, -6.808], [115.47669, -6.98078], [115.22144, -7.17984], [114.98513, -7.3864], [114.54032, -7.7867], [114.3293, -7.96428]]]}}]}