{"type": "FeatureCollection", "features": [{"type": "Feature", "properties": {"name": "바그다드", "name_en": "Baghdad", "category": "도시", "year": null, "coord_source": "실제 위치", "map_lon": 44.36862, "map_lat": 33.30721, "legend": "바그다드", "map_title": "신항로 개척 이전의 지역 교역망과 주요 교역로", "source": "미래엔 세계사 교과서 2권 101쪽", "volume": 2, "page": 101}, "geometry": {"type": "Point", "coordinates": [44.37, 33.31]}}, {"type": "Feature", "properties": {"name": "카이로", "name_en": "Cairo", "category": "도시", "year": null, "coord_source": "실제 위치", "map_lon": 31.24095, "map_lat": 30.03846, "legend": "카이로", "map_title": "신항로 개척 이전의 지역 교역망과 주요 교역로", "source": "미래엔 세계사 교과서 2권 101쪽", "volume": 2, "page": 101}, "geometry": {"type": "Point", "coordinates": [31.24, 30.04]}}, {"type": "Feature", "properties": {"name": "알렉산드리아", "name_en": "Alexandria", "category": "도시", "year": null, "coord_source": "실제 위치", "map_lon": 29.91791, "map_lat": 31.19707, "legend": "알렉산드리아", "map_title": "신항로 개척 이전의 지역 교역망과 주요 교역로", "source": "미래엔 세계사 교과서 2권 101쪽", "volume": 2, "page": 101}, "geometry": {"type": "Point", "coordinates": [29.92, 31.2]}}, {"type": "Feature", "properties": {"name": "콘스탄티노폴리스", "name_en": "Constantinople", "category": "도시", "year": null, "coord_source": "실제 위치", "map_lon": 28.97862, "map_lat": 41.01238, "legend": "콘스탄티노폴리스", "map_title": "신항로 개척 이전의 지역 교역망과 주요 교역로", "source": "미래엔 세계사 교과서 2권 101쪽", "volume": 2, "page": 101}, "geometry": {"type": "Point", "coordinates": [28.98, 41.01]}}, {"type": "Feature", "properties": {"name": "키이우", "name_en": "Kyiv", "category": "도시", "year": null, "coord_source": "실제 위치", "map_lon": 30.52235, "map_lat": 50.45175, "legend": "키이우", "map_title": "신항로 개척 이전의 지역 교역망과 주요 교역로", "source": "미래엔 세계사 교과서 2권 101쪽", "volume": 2, "page": 101}, "geometry": {"type": "Point", "coordinates": [30.52, 50.45]}}, {"type": "Feature", "properties": {"name": "베네치아", "name_en": "Venice", "category": "도시", "year": null, "coord_source": "실제 위치", "map_lon": 12.34125, "map_lat": 45.43981, "legend": "베네치아", "map_title": "신항로 개척 이전의 지역 교역망과 주요 교역로", "source": "미래엔 세계사 교과서 2권 101쪽", "volume": 2, "page": 101}, "geometry": {"type": "Point", "coordinates": [12.34, 45.44]}}, {"type": "Feature", "properties": {"name": "로마", "name_en": "Rome", "category": "도시", "year": null, "coord_source": "실제 위치", "map_lon": 12.49911, "map_lat": 41.90207, "legend": "로마", "map_title": "신항로 개척 이전의 지역 교역망과 주요 교역로", "source": "미래엔 세계사 교과서 2권 101쪽", "volume": 2, "page": 101}, "geometry": {"type": "Point", "coordinates": [12.5, 41.9]}}, {"type": "Feature", "properties": {"name": "팀북투", "name_en": "Timbuktu", "category": "도시", "year": null, "coord_source": "실제 위치", "map_lon": -3.00238, "map_lat": 16.77129, "legend": "팀북투", "map_title": "신항로 개척 이전의 지역 교역망과 주요 교역로", "source": "미래엔 세계사 교과서 2권 101쪽", "volume": 2, "page": 101}, "geometry": {"type": "Point", "coordinates": [-3.0, 16.77]}}, {"type": "Feature", "properties": {"name": "코르도바", "name_en": "Córdoba", "category": "도시", "year": null, "coord_source": "실제 위치", "map_lon": -4.77781, "map_lat": 37.88631, "legend": "코르도바", "map_title": "신항로 개척 이전의 지역 교역망과 주요 교역로", "source": "미래엔 세계사 교과서 2권 101쪽", "volume": 2, "page": 101}, "geometry": {"type": "Point", "coordinates": [-4.78, 37.89]}}, {"type": "Feature", "properties": {"name": "베이징", "name_en": "Beijing", "category": "도시", "year": null, "coord_source": "실제 위치", "map_lon": 116.39882, "map_lat": 39.89687, "legend": "베이징", "map_title": "신항로 개척 이전의 지역 교역망과 주요 교역로", "source": "미래엔 세계사 교과서 2권 101쪽", "volume": 2, "page": 101}, "geometry": {"type": "Point", "coordinates": [116.4, 39.9]}}, {"type": "Feature", "properties": {"name": "장안(시안)", "name_en": "Chang'an (Xi'an)", "category": "도시", "year": null, "coord_source": "실제 위치", "map_lon": 108.93787, "map_lat": 34.34003, "legend": "장안(시안)", "map_title": "신항로 개척 이전의 지역 교역망과 주요 교역로", "source": "미래엔 세계사 교과서 2권 101쪽", "volume": 2, "page": 101}, "geometry": {"type": "Point", "coordinates": [108.94, 34.34]}}, {"type": "Feature", "properties": {"name": "취안저우", "name_en": "Quanzhou", "category": "도시", "year": null, "coord_source": "실제 위치", "map_lon": 118.67597, "map_lat": 24.86993, "legend": "취안저우", "map_title": "신항로 개척 이전의 지역 교역망과 주요 교역로", "source": "미래엔 세계사 교과서 2권 101쪽", "volume": 2, "page": 101}, "geometry": {"type": "Point", "coordinates": [118.68, 24.87]}}, {"type": "Feature", "properties": {"name": "항저우", "name_en": "Hangzhou", "category": "도시", "year": null, "coord_source": "실제 위치", "map_lon": 120.16379, "map_lat": 30.27288, "legend": "항저우", "map_title": "신항로 개척 이전의 지역 교역망과 주요 교역로", "source": "미래엔 세계사 교과서 2권 101쪽", "volume": 2, "page": 101}, "geometry": {"type": "Point", "coordinates": [120.16, 30.27]}}, {"type": "Feature", "properties": {"name": "부산", "name_en": "Busan", "category": "도시", "year": null, "coord_source": "실제 위치", "map_lon": 129.03974, "map_lat": 35.09855, "legend": "부산", "map_title": "신항로 개척 이전의 지역 교역망과 주요 교역로", "source": "미래엔 세계사 교과서 2권 101쪽", "volume": 2, "page": 101}, "geometry": {"type": "Point", "coordinates": [129.04, 35.1]}}, {"type": "Feature", "properties": {"name": "나가사키", "name_en": "Nagasaki", "category": "도시", "year": null, "coord_source": "실제 위치", "map_lon": 129.86931, "map_lat": 32.74944, "legend": "나가사키", "map_title": "신항로 개척 이전의 지역 교역망과 주요 교역로", "source": "미래엔 세계사 교과서 2권 101쪽", "volume": 2, "page": 101}, "geometry": {"type": "Point", "coordinates": [129.87, 32.75]}}, {"type": "Feature", "properties": {"name": "광저우", "name_en": "Guangzhou", "category": "도시", "year": null, "coord_source": "실제 위치", "map_lon": 113.25664, "map_lat": 23.12883, "legend": "광저우", "map_title": "신항로 개척 이전의 지역 교역망과 주요 교역로", "source": "미래엔 세계사 교과서 2권 101쪽", "volume": 2, "page": 101}, "geometry": {"type": "Point", "coordinates": [113.26, 23.13]}}, {"type": "Feature", "properties": {"name": "교지", "name_en": "Giao Chỉ (Hanoi)", "category": "도시", "year": null, "coord_source": "실제 위치", "map_lon": 105.85097, "map_lat": 21.02994, "legend": "교지", "map_title": "신항로 개척 이전의 지역 교역망과 주요 교역로", "source": "미래엔 세계사 교과서 2권 101쪽", "volume": 2, "page": 101}, "geometry": {"type": "Point", "coordinates": [105.85, 21.03]}}, {"type": "Feature", "properties": {"name": "팔렘방", "name_en": "Palembang", "category": "도시", "year": null, "coord_source": "실제 위치", "map_lon": 104.75678, "map_lat": -2.98841, "legend": "팔렘방", "map_title": "신항로 개척 이전의 지역 교역망과 주요 교역로", "source": "미래엔 세계사 교과서 2권 101쪽", "volume": 2, "page": 101}, "geometry": {"type": "Point", "coordinates": [104.76, -2.99]}}, {"type": "Feature", "properties": {"name": "믈라카", "name_en": "Malacca", "category": "도시", "year": null, "coord_source": "실제 위치", "map_lon": 102.24751, "map_lat": 2.19388, "legend": "믈라카", "map_title": "신항로 개척 이전의 지역 교역망과 주요 교역로", "source": "미래엔 세계사 교과서 2권 101쪽", "volume": 2, "page": 101}, "geometry": {"type": "Point", "coordinates": [102.25, 2.19]}}, {"type": "Feature", "properties": {"name": "캘리컷", "name_en": "Calicut", "category": "도시", "year": null, "coord_source": "실제 위치", "map_lon": 75.77742, "map_lat": 11.25016, "legend": "캘리컷", "map_title": "신항로 개척 이전의 지역 교역망과 주요 교역로", "source": "미래엔 세계사 교과서 2권 101쪽", "volume": 2, "page": 101}, "geometry": {"type": "Point", "coordinates": [75.78, 11.25]}}, {"type": "Feature", "properties": {"name": "호르무즈", "name_en": "Hormuz", "category": "도시", "year": null, "coord_source": "실제 위치", "map_lon": 56.4564, "map_lat": 27.10099, "legend": "호르무즈", "map_title": "신항로 개척 이전의 지역 교역망과 주요 교역로", "source": "미래엔 세계사 교과서 2권 101쪽", "volume": 2, "page": 101}, "geometry": {"type": "Point", "coordinates": [56.46, 27.1]}}, {"type": "Feature", "properties": {"name": "메카", "name_en": "Mecca", "category": "도시", "year": null, "coord_source": "실제 위치", "map_lon": 39.83382, "map_lat": 21.41686, "legend": "메카", "map_title": "신항로 개척 이전의 지역 교역망과 주요 교역로", "source": "미래엔 세계사 교과서 2권 101쪽", "volume": 2, "page": 101}, "geometry": {"type": "Point", "coordinates": [39.83, 21.42]}}, {"type": "Feature", "properties": {"name": "메디나", "name_en": "Medina", "category": "도시", "year": null, "coord_source": "실제 위치", "map_lon": 39.60684, "map_lat": 24.47208, "legend": "메디나", "map_title": "신항로 개척 이전의 지역 교역망과 주요 교역로", "source": "미래엔 세계사 교과서 2권 101쪽", "volume": 2, "page": 101}, "geometry": {"type": "Point", "coordinates": [39.61, 24.47]}}, {"type": "Feature", "properties": {"name": "아덴", "name_en": "Aden", "category": "도시", "year": null, "coord_source": "실제 위치", "map_lon": 45.03183, "map_lat": 12.79149, "legend": "아덴", "map_title": "신항로 개척 이전의 지역 교역망과 주요 교역로", "source": "미래엔 세계사 교과서 2권 101쪽", "volume": 2, "page": 101}, "geometry": {"type": "Point", "coordinates": [45.03, 12.79]}}, {"type": "Feature", "properties": {"name": "잔지바르", "name_en": "Zanzibar", "category": "도시", "year": null, "coord_source": "실제 위치", "map_lon": 39.19103, "map_lat": -6.16299, "legend": "잔지바르", "map_title": "신항로 개척 이전의 지역 교역망과 주요 교역로", "source": "미래엔 세계사 교과서 2권 101쪽", "volume": 2, "page": 101}, "geometry": {"type": "Point", "coordinates": [39.19, -6.16]}}, {"type": "Feature", "properties": {"name": "말린디", "name_en": "Malindi", "category": "도시", "year": null, "coord_source": "실제 위치", "map_lon": 40.11929, "map_lat": -3.21978, "legend": "말린디", "map_title": "신항로 개척 이전의 지역 교역망과 주요 교역로", "source": "미래엔 세계사 교과서 2권 101쪽", "volume": 2, "page": 101}, "geometry": {"type": "Point", "coordinates": [40.12, -3.22]}}, {"type": "Feature", "properties": {"name": "둔황", "name_en": "Dunhuang", "category": "도시", "year": null, "coord_source": "실제 위치", "map_lon": 94.65727, "map_lat": 40.13877, "legend": "둔황", "map_title": "신항로 개척 이전의 지역 교역망과 주요 교역로", "source": "미래엔 세계사 교과서 2권 101쪽", "volume": 2, "page": 101}, "geometry": {"type": "Point", "coordinates": [94.66, 40.14]}}, {"type": "Feature", "properties": {"name": "사마르칸트", "name_en": "Samarkand", "category": "도시", "year": null, "coord_source": "실제 위치", "map_lon": 66.96679, "map_lat": 39.64799, "legend": "사마르칸트", "map_title": "신항로 개척 이전의 지역 교역망과 주요 교역로", "source": "미래엔 세계사 교과서 2권 101쪽", "volume": 2, "page": 101}, "geometry": {"type": "Point", "coordinates": [66.97, 39.65]}}, {"type": "Feature", "properties": {"name": "니샤푸르", "name_en": "Nishapur", "category": "도시", "year": null, "coord_source": "실제 위치", "map_lon": 58.79856, "map_lat": 36.20882, "legend": "니샤푸르", "map_title": "신항로 개척 이전의 지역 교역망과 주요 교역로", "source": "미래엔 세계사 교과서 2권 101쪽", "volume": 2, "page": 101}, "geometry": {"type": "Point", "coordinates": [58.8, 36.21]}}]}