{"type": "FeatureCollection", "features": [{"type": "Feature", "properties": {"name": "라이베리아", "name_en": "Liberia", "period": "1913년경", "kind": "국가", "legend": "라이베리아", "map_title": "제국주의 열강의 아프리카 분할(1913년경)", "source": "미래엔 세계사 교과서 3권 156쪽", "volume": 3, "page": 156, "note": "독립국", "coast_snap": "Natural Earth 10m 해안선에 맞춤", "border_snap": "현대 국경(Natural Earth 10m)에 맞춘 구간 약 1056 km", "group": "라이베리아", "map_folder": "3권_p156_제국주의 열강의 아프리카 분할(1913년경)"}, "geometry": {"type": "MultiPolygon", "coordinates": [[[[-11.47619, 6.91942], [-11.43674, 6.93854], [-11.43886, 6.96387], [-11.43467, 6.98082], [-11.40728, 6.99637], [-11.39772, 7.0128], [-11.3893, 7.0467], [-11.39292, 7.06686], [-11.38971, 7.07352], [-11.36791, 7.07595], [-11.35514, 7.08407], [-11.35313, 7.0928], [-11.35643, 7.10536], [-11.37059, 7.1284], [-11.37323, 7.13884], [-11.35204, 7.15925], [-11.31721, 7.21357], [-11.30021, 7.21708], [-11.21789, 7.25408], [-11.12632, 7.36803], [-10.9779, 7.48492], [-10.93703, 7.50776], [-10.89899, 7.51649], [-10.8746, 7.53086], [-10.73058, 7.70547], [-10.6926, 7.73757], [-10.64542, 7.76304], [-10.61519, 7.76904], [-10.61622, 8.02251], [-10.61214, 8.03186], [-10.57782, 8.05315], [-10.56718, 8.0632], [-10.54398, 8.10607], [-10.52925, 8.12429], [-10.52151, 8.12809], [-10.55528, 8.21499], [-10.44605, 8.27007], [-10.33156, 8.26915], [-10.33329, 8.24976], [-10.31815, 8.20164], [-10.06172, 8.42219], [-10.04039, 8.42566], [-10.00019, 8.44931], [-9.96112, 8.47956], [-9.94417, 8.48835], [-9.92815, 8.49344], [-9.89187, 8.49592], [-9.8728, 8.50036], [-9.85864, 8.48705], [-9.80681, 8.50625], [-9.80885, 8.52847], [-9.79002, 8.55307], [-9.79059, 8.5654], [-9.77359, 8.56302], [-9.76304, 8.54997], [-9.75731, 8.53271], [-9.7463, 8.46806], [-9.73591, 8.45049], [-9.72212, 8.43564], [-9.71819, 8.43827], [-9.7155, 8.47333], [-9.70325, 8.48726], [-9.68351, 8.48705], [-9.66351, 8.47786], [-9.65054, 8.46481], [-9.64512, 8.44341], [-9.67592, 8.40964], [-9.67726, 8.39153], [-9.66837, 8.38874], [-9.65338, 8.3921], [-9.61954, 8.39272], [-9.61215, 8.39634], [-9.60016, 8.41088], [-9.59205, 8.4051], [-9.57918, 8.38729], [-9.52905, 8.36631], [-9.49913, 8.34347], [-9.52228, 8.33068], [-9.53939, 8.31458], [-9.53019, 8.30598], [-9.52125, 8.28441], [-9.50916, 8.26559], [-9.52544, 8.24079], [-9.53189, 8.21232], [-9.53014, 8.1855], [-9.51562, 8.17488], [-9.49133, 8.16997], [-9.48141, 8.1647], [-9.4598, 8.06878], [-9.46187, 8.05842], [-9.47278, 8.04036], [-9.47422, 8.02881], [-9.45154, 8.05176], [-9.44094, 8.05057], [-9.42415, 8.02618], [-9.42234, 8.01579], [-9.42456, 8.00582], [-9.43309, 7.99347], [-9.44601, 7.95006], [-9.44844, 7.90784], [-9.43867, 7.86624], [-9.41567, 7.82443], [-9.35547, 7.74191], [-9.36637, 7.71617], [-9.37625, 7.68057], [-9.37469, 7.64693], [-9.35351, 7.62243], [-9.36441, 7.61426], [-9.37299, 7.60135], [-9.38366, 7.55954], [-9.4087, 7.52745], [-9.40492, 7.5136], [-9.4134, 7.49226], [-9.43609, 7.45856], [-9.46621, 7.43345], [-9.4735, 7.39557], [-9.4797, 7.38539], [-9.49071, 7.37604], [-9.48663, 7.37283], [-9.47836, 7.37692], [-9.44926, 7.40508], [-9.4381, 7.42156], [-9.41872, 7.38777], [-9.40735, 7.37805], [-9.39226, 7.39986], [-9.38141, 7.40497], [-9.37924, 7.41583], [-9.37516, 7.41929], [-9.34922, 7.42156], [-9.33501, 7.41965], [-9.3194, 7.41195], [-9.2995, 7.3766], [-9.2838, 7.37407], [-9.24972, 7.38306], [-9.23434, 7.38131], [-9.21987, 7.361], [-9.20628, 7.29837], [-9.18148, 7.27568], [-9.15308, 7.27547], [-9.14747, 7.27139], [-9.1469, 7.25408], [-9.11962, 7.23796], [-9.11605, 7.22468], [-9.12541, 7.19021], [-9.11394, 7.20039], [-9.07311, 7.21134], [-9.03286, 7.24028], [-9.0157, 7.23889], [-8.98102, 7.25057], [-8.97772, 7.26622], [-8.97312, 7.26767], [-8.96257, 7.26297], [-8.9572, 7.28648], [-8.94438, 7.27868], [-8.92542, 7.2486], [-8.91219, 7.25015], [-8.86888, 7.26664], [-8.85783, 7.27305], [-8.85324, 7.28715], [-8.38767, 7.31495], [-8.36401, 7.27888], [-8.35755, 7.26571], [-8.34969, 7.2347], [-8.32897, 7.20401], [-8.32974, 7.17832], [-8.30535, 7.1469], [-8.28412, 7.01787], [-8.28665, 6.99379], [-8.31455, 6.96857], [-8.31998, 6.95999], [-8.32091, 6.91017], [-8.33367, 6.88258], [-8.31572, 6.86382], [-8.31662, 6.83628], [-8.32499, 6.80625], [-8.3375, 6.77726], [-8.35176, 6.75535], [-8.46131, 6.63342], [-8.53356, 6.57634], [-8.54715, 6.56004], [-8.5672, 6.55061], [-8.57273, 6.53084], [-8.59412, 6.52389], [-8.61872, 6.49284], [-8.56808, 6.49041], [-8.5565, 6.48702], [-8.54534, 6.4772], [-8.51562, 6.43759], [-8.49723, 6.43137], [-8.48477, 6.44157], [-8.46752, 6.48707], [-8.44963, 6.46793], [-8.41827, 6.45121], [-8.40509, 6.43633], [-8.40649, 6.43054], [-8.41387, 6.42418], [-8.41904, 6.40765], [-8.40597, 6.37225], [-8.41098, 6.36318], [-8.42015, 6.35809], [-8.42369, 6.35199], [-8.41181, 6.34003], [-8.40106, 6.35044], [-8.38881, 6.35509], [-8.37656, 6.35473], [-8.36597, 6.35008], [-8.35295, 6.36106], [-8.34261, 6.35695], [-8.32236, 6.33646], [-8.3175, 6.33698], [-8.31001, 6.34463], [-8.30272, 6.34065], [-8.29771, 6.33259], [-8.29507, 6.31336], [-8.20849, 6.29254], [-8.17058, 6.27401], [-8.14061, 6.27758], [-8.10661, 6.29468], [-8.03302, 6.30176], [-8.01571, 6.29778], [-7.99938, 6.2867], [-7.93489, 6.27143], [-7.92055, 6.2738], [-7.91437, 6.27174], [-7.90657, 6.252], [-7.86212, 6.21639], [-7.84662, 6.19748], [-7.84414, 6.18397], [-7.86202, 6.12438], [-7.8645, 6.1017], [-7.86181, 6.08149], [-7.85091, 6.06756], [-7.8505, 6.07224], [-7.82838, 6.08072], [-7.81939, 6.0801], [-7.80967, 6.07121], [-7.80244, 6.03925], [-7.78874, 6.03149], [-7.78647, 6.02511], [-7.79996, 6.01015], [-7.80068, 5.98173], [-7.79965, 5.97447], [-7.78663, 5.95817], [-7.74714, 5.9376], [-7.71717, 5.90075], [-7.70322, 5.90788], [-7.68048, 5.94093], [-7.64834, 5.91129], [-7.63061, 5.90861], [-7.62912, 5.90494], [-7.6085, 5.8937], [-7.58416, 5.8837], [-7.57909, 5.87719], [-7.58721, 5.86677], [-7.56628, 5.84373], [-7.55915, 5.83985], [-7.52778, 5.85884], [-7.53109, 5.84202], [-7.51558, 5.83923], [-7.5039, 5.8121], [-7.4944, 5.80618], [-7.48664, 5.81381], [-7.48168, 5.83021], [-7.47858, 5.85988], [-7.44654, 5.84595], [-7.44205, 5.81127], [-7.44856, 5.76906], [-7.44949, 5.73236], [-7.43104, 5.65397], [-7.39668, 5.58509], [-7.38412, 5.56896], [-7.4051, 5.5724], [-7.41192, 5.56036], [-7.40711, 5.54139], [-7.39363, 5.52398], [-7.41998, 5.52313], [-7.40815, 5.51178], [-7.42515, 5.49416], [-7.43238, 5.47956], [-7.43171, 5.44192], [-7.43621, 5.43132], [-7.45021, 5.43871], [-7.44995, 5.42277], [-7.4391, 5.38781], [-7.4297, 5.3743], [-7.41487, 5.36598], [-7.39693, 5.36644], [-7.39146, 5.34769], [-7.38975, 5.31714], [-7.40768, 5.28986], [-7.41378, 5.26671], [-7.41879, 5.26046], [-7.42851, 5.25614], [-7.43518, 5.27929], [-7.42851, 5.28815], [-7.43993, 5.29017], [-7.46825, 5.27345], [-7.47569, 5.26423], [-7.49047, 5.22219], [-7.48225, 5.17506], [-7.48303, 5.15824], [-7.48892, 5.14067], [-7.51584, 5.09181], [-7.52992, 5.09739], [-7.54685, 5.0977], [-7.56323, 5.09016], [-7.57579, 5.07207], [-7.57816, 5.05473], [-7.5702, 4.99688], [-7.5716, 4.97538], [-7.55532, 4.94843], [-7.54959, 4.92905], [-7.54953, 4.91389], [-7.56178, 4.92017], [-7.57496, 4.92156], [-7.6055, 4.89743], [-7.60597, 4.888], [-7.59883, 4.8571], [-7.60602, 4.81619], [-7.601, 4.80464], [-7.57956, 4.78428], [-7.57248, 4.72336], [-7.16099, 4.72067], [-7.15082, 4.70615], [-7.11904, 4.6427], [-7.07712, 4.53326], [-7.09941, 4.52649], [-7.17345, 4.51879], [-7.23282, 4.49331], [-7.24523, 4.48493], [-7.25525, 4.46553], [-7.28816, 4.46052], [-7.30603, 4.44547], [-7.35985, 4.41608], [-7.43872, 4.35099], [-7.45678, 4.34407], [-7.52432, 4.35468], [-7.59325, 4.34724], [-7.64444, 4.36152], [-7.71272, 4.36153], [-7.72101, 4.3647], [-7.73323, 4.38203], [-7.74971, 4.38333], [-7.80101, 4.40632], [-7.81232, 4.41609], [-7.83288, 4.45222], [-7.8629, 4.46138], [-7.88683, 4.48017], [-7.91454, 4.48653], [-7.94201, 4.50487], [-8.00316, 4.52351], [-8.0375, 4.52877], [-8.10033, 4.55329], [-8.22181, 4.56803], [-8.25731, 4.57999], [-8.3002, 4.62727], [-8.43854, 4.67618], [-8.54996, 4.75487], [-8.60753, 4.78693], [-8.74734, 4.83786], [-8.77814, 4.85433], [-8.8483, 4.91356], [-8.87434, 4.93012], [-8.93611, 4.95539], [-8.96709, 4.9602], [-9.01479, 4.97847], [-9.03196, 4.99145], [-9.02579, 4.99893], [-9.06982, 5.01107], [-9.10496, 5.03157], [-9.16226, 5.08088], [-9.21275, 5.10742], [-9.24397, 5.13056], [-9.27871, 5.14575], [-9.29197, 5.16348], [-9.27896, 5.16348], [-9.29214, 5.18163], [-9.35423, 5.21131], [-9.47081, 5.32047], [-9.48852, 5.37165], [-9.49747, 5.38939], [-9.50805, 5.3996], [-9.54182, 5.41983], [-9.59365, 5.43034], [-9.59495, 5.44001], [-9.58308, 5.4549], [-9.58072, 5.4645], [-9.597, 5.48835], [-9.69676, 5.54639], [-9.84211, 5.68545], [-9.97951, 5.79797], [-10.01521, 5.83812], [-10.03994, 5.85433], [-10.04905, 5.87177], [-10.04479, 5.88447], [-10.04621, 5.89643], [-10.05553, 5.91177], [-10.07128, 5.92479], [-10.11513, 5.94342], [-10.18569, 5.9991], [-10.22655, 6.04361], [-10.2799, 6.07697], [-10.29817, 6.08491], [-10.336, 6.09224], [-10.35366, 6.10237], [-10.36411, 6.11567], [-10.36147, 6.12921], [-10.34447, 6.12271], [-10.33357, 6.13605], [-10.35363, 6.14061], [-10.39562, 6.17699], [-10.44469, 6.20384], [-10.46394, 6.20498], [-10.46394, 6.1975], [-10.41218, 6.17105], [-10.38939, 6.15217], [-10.38197, 6.12926], [-10.39712, 6.14785], [-10.45669, 6.17748], [-10.65941, 6.2275], [-10.78831, 6.29296], [-10.80784, 6.31086], [-10.80036, 6.32781], [-10.79035, 6.31391], [-10.77237, 6.30736], [-10.78905, 6.33495], [-10.79234, 6.35903], [-10.78233, 6.38141], [-10.75939, 6.4042], [-10.78409, 6.40127], [-10.80036, 6.3899], [-10.82433, 6.43773], [-10.85733, 6.47285], [-10.8959, 6.49901], [-11.05362, 6.58417], [-11.2329, 6.64804], [-11.35317, 6.70117], [-11.37486, 6.72688], [-11.37571, 6.76667], [-11.36828, 6.81135], [-11.38561, 6.84178], [-11.40459, 6.84718], [-11.44087, 6.87312], [-11.47619, 6.91942]]], [[[-11.5341, 6.94221], [-11.54757, 6.9514], [-11.58799, 6.97895], [-11.57429, 6.98261], [-11.57131, 6.987], [-11.49601, 6.93351], [-11.5341, 6.94221]]], [[[-11.59553, 6.99331], [-11.62213, 6.9858], [-11.63122, 7.00825], [-11.69815, 7.06704], [-11.7777, 7.1134], [-11.76957, 7.1277], [-11.57965, 6.99292], [-11.59553, 6.99331]]]]}}, {"type": "Feature", "properties": {"name": "라이베리아", "name_en": "Liberia", "period": "1914년", "kind": "식민지", "level": "개별 지역", "colonizer": "영국령", "legend": "라이베리아", "map_title": "아프리카의 저항 운동", "source": "미래엔 세계사 교과서 3권 173쪽", "volume": 3, "page": 173, "coast_snap": "Natural Earth 10m 해안선에 맞춤", "border_snap": "현대 국경(Natural Earth 10m)에 맞춘 구간 약 578 km", "group": "라이베리아", "map_folder": "3권_p173_아프리카의 저항 운동"}, "geometry": {"type": "MultiPolygon", "coordinates": [[[[-11.37237, 6.72393], [-11.37571, 6.76667], [-11.37539, 6.76859], [-11.36282, 6.7385], [-11.37237, 6.72393]]], [[[-12.89823, 7.61057], [-12.88306, 7.61644], [-12.8448, 7.6225], [-12.73567, 7.62255], [-12.68095, 7.63469], [-12.60047, 7.63808], [-12.58114, 7.63007], [-12.59586, 7.61274], [-12.58605, 7.60761], [-12.54752, 7.60894], [-12.52966, 7.60382], [-12.51518, 7.59468], [-12.49301, 7.56802], [-12.50438, 7.56102], [-12.49914, 7.52021], [-12.50183, 7.50239], [-12.52644, 7.46556], [-12.52746, 7.44969], [-12.51888, 7.41657], [-12.51965, 7.40412], [-12.53255, 7.39245], [-12.54967, 7.38965], [-12.56578, 7.39567], [-12.57484, 7.41034], [-12.55443, 7.41035], [-12.58556, 7.45991], [-12.60554, 7.47866], [-12.73156, 7.51124], [-12.76439, 7.52798], [-12.84948, 7.54074], [-12.95143, 7.56796], [-12.95165, 7.5749], [-12.9143, 7.58442], [-12.9103, 7.59808], [-12.89823, 7.61057]]], [[[-13.19177, 9.07299], [-13.15384, 9.04932], [-13.13105, 9.04147], [-13.11591, 9.04395], [-13.08558, 9.06598], [-13.02886, 9.09598], [-13.01525, 9.11275], [-13.00204, 9.14412], [-12.98416, 9.17231], [-12.95915, 9.17784], [-12.96021, 9.18608], [-12.97835, 9.21285], [-12.97375, 9.24158], [-12.95791, 9.27243], [-12.93701, 9.28708], [-12.91753, 9.26701], [-12.89564, 9.2785], [-12.85689, 9.2785], [-12.83583, 9.28197], [-12.81914, 9.29579], [-12.79526, 9.33509], [-12.76415, 9.34767], [-12.7678, 9.37232], [-12.75976, 9.38284], [-12.73723, 9.39723], [-12.72294, 9.39209], [-12.71645, 9.40441], [-12.7016, 9.42023], [-12.66752, 9.5287], [-12.66863, 9.54236], [-12.64992, 9.5521], [-12.63385, 9.59787], [-12.6246, 9.60128], [-12.60682, 9.60071], [-12.60277, 9.60936], [-12.60155, 9.65171], [-12.58225, 9.68336], [-12.57308, 9.69256], [-12.53877, 9.71191], [-12.53569, 9.73279], [-12.52246, 9.73447], [-12.52727, 9.75362], [-12.51362, 9.82783], [-12.51432, 9.85131], [-12.50833, 9.86038], [-12.47234, 9.88126], [-12.42699, 9.89761], [-12.27674, 9.92927], [-12.25359, 9.92841], [-12.19364, 9.88606], [-12.15835, 9.8756], [-12.14135, 9.87488], [-11.92177, 9.92221], [-11.91495, 9.93149], [-11.9101, 9.99252], [-11.47224, 9.99492], [-11.46, 9.58321], [-11.17121, 9.1461], [-10.75347, 9.12012], [-10.74634, 9.08381], [-11.10692, 8.87546], [-11.12649, 8.81264], [-11.01931, 8.73205], [-11.00815, 8.71982], [-10.63886, 8.51989], [-10.64387, 8.48687], [-10.65467, 8.4855], [-10.66909, 8.39907], [-10.725, 8.31985], [-10.73528, 8.2873], [-11.06897, 8.04297], [-11.08814, 8.01283], [-11.08266, 8.00231], [-11.04184, 7.98656], [-10.73058, 7.70547], [-10.8746, 7.53086], [-10.89899, 7.51649], [-10.93703, 7.50776], [-10.9779, 7.48492], [-11.12632, 7.36803], [-11.21789, 7.25408], [-11.30021, 7.21708], [-11.31721, 7.21357], [-11.35204, 7.15925], [-11.37323, 7.13884], [-11.37059, 7.1284], [-11.35643, 7.10536], [-11.35313, 7.0928], [-11.35514, 7.08406], [-11.36791, 7.07595], [-11.38971, 7.07352], [-11.39292, 7.06686], [-11.3893, 7.0467], [-11.39772, 7.0128], [-11.40728, 6.99637], [-11.43467, 6.98081], [-11.43886, 6.96387], [-11.43674, 6.93854], [-11.44449, 6.93394], [-11.40978, 6.85089], [-11.44087, 6.87312], [-11.47619, 6.91942], [-11.49279, 6.93277], [-11.5341, 6.94221], [-11.58799, 6.97895], [-11.57429, 6.98261], [-11.56749, 6.99262], [-11.59553, 6.99331], [-11.62213, 6.9858], [-11.63122, 7.00825], [-11.69815, 7.06704], [-11.83959, 7.14899], [-12.07378, 7.23361], [-12.31485, 7.32901], [-12.50656, 7.38984], [-12.47618, 7.4151], [-12.4398, 7.41648], [-12.36946, 7.38984], [-12.37588, 7.40502], [-12.40103, 7.41254], [-12.41723, 7.43081], [-12.44652, 7.43911], [-12.46426, 7.42963], [-12.48932, 7.44526], [-12.49241, 7.4536], [-12.47088, 7.491], [-12.42833, 7.53358], [-12.41039, 7.52765], [-12.3994, 7.53286], [-12.36266, 7.53441], [-12.33874, 7.54066], [-12.31481, 7.52765], [-12.29507, 7.53311], [-12.25886, 7.55238], [-12.23225, 7.5537], [-12.23842, 7.56801], [-12.20177, 7.576], [-12.1881, 7.58308], [-12.18383, 7.60273], [-12.218, 7.59591], [-12.22545, 7.60895], [-12.25626, 7.60517], [-12.26278, 7.59065], [-12.26928, 7.58638], [-12.29866, 7.57601], [-12.32771, 7.57319], [-12.40355, 7.54751], [-12.44107, 7.55371], [-12.46373, 7.56201], [-12.47631, 7.6022], [-12.49298, 7.6164], [-12.48522, 7.633], [-12.4855, 7.65054], [-12.50036, 7.63912], [-12.51964, 7.64427], [-12.51965, 7.63009], [-12.54392, 7.65355], [-12.53139, 7.68708], [-12.493, 7.73992], [-12.47126, 7.72626], [-12.465, 7.7331], [-12.47178, 7.75995], [-12.46593, 7.77058], [-12.45198, 7.77408], [-12.47216, 7.78766], [-12.49014, 7.77192], [-12.51964, 7.72626], [-12.56949, 7.69555], [-12.60187, 7.6838], [-12.61644, 7.69522], [-12.70124, 7.70809], [-12.77816, 7.75599], [-12.78722, 7.77428], [-12.7905, 7.79238], [-12.78751, 7.80459], [-12.75984, 7.82184], [-12.7779, 7.819], [-12.82872, 7.7983], [-12.87588, 7.82869], [-12.89859, 7.86571], [-12.92462, 7.87496], [-12.95908, 7.91119], [-12.93944, 7.91511], [-12.9055, 7.93414], [-12.88671, 7.93853], [-12.85448, 7.93159], [-12.82128, 7.91743], [-12.88841, 7.97529], [-12.90526, 8.02408], [-12.91176, 8.03067], [-12.89526, 8.07939], [-12.87589, 8.10301], [-12.90806, 8.10742], [-12.92149, 8.11995], [-12.94481, 8.1645], [-12.98106, 8.18623], [-12.98505, 8.21696], [-12.97208, 8.25385], [-12.99961, 8.24014], [-13.0677, 8.23334], [-13.09044, 8.2246], [-13.14273, 8.18977], [-13.15771, 8.1713], [-13.16392, 8.1713], [-13.16393, 8.22964], [-13.1688, 8.2628], [-13.16393, 8.27436], [-13.17564, 8.28377], [-13.21028, 8.33906], [-13.22386, 8.34566], [-13.23103, 8.36384], [-13.26365, 8.40169], [-13.27416, 8.42089], [-13.28676, 8.42451], [-13.26854, 8.4499], [-13.26696, 8.46271], [-13.28676, 8.50022], [-13.25951, 8.49339], [-13.25268, 8.49753], [-13.24584, 8.48656], [-13.22867, 8.49372], [-13.19299, 8.48777], [-13.17757, 8.47914], [-13.16501, 8.46515], [-13.1444, 8.43122], [-13.11002, 8.41323], [-13.06037, 8.37271], [-13.03356, 8.3767], [-13.03356, 8.38353], [-13.05626, 8.39118], [-13.06382, 8.39916], [-13.06769, 8.41088], [-13.05407, 8.41088], [-13.05407, 8.41767], [-13.11093, 8.43382], [-13.12559, 8.44904], [-13.11611, 8.47296], [-13.06151, 8.50023], [-13.03995, 8.52675], [-13.02672, 8.5207], [-13.02415, 8.54319], [-13.01305, 8.5617], [-12.90722, 8.54804], [-12.8697, 8.56916], [-12.88805, 8.57307], [-12.92808, 8.57218], [-12.93111, 8.58285], [-12.91194, 8.60684], [-12.87588, 8.68521], [-12.90087, 8.65485], [-12.9169, 8.62763], [-12.93644, 8.60701], [-12.97208, 8.59644], [-13.01806, 8.60016], [-13.04394, 8.58471], [-13.0616, 8.58322], [-13.07847, 8.58903], [-13.08876, 8.60268], [-13.06627, 8.60684], [-13.04433, 8.63336], [-13.02672, 8.64423], [-13.02672, 8.65107], [-13.04108, 8.65429], [-13.04784, 8.66474], [-13.05407, 8.66474], [-13.06355, 8.63394], [-13.07063, 8.62198], [-13.08194, 8.61693], [-13.09819, 8.62204], [-13.13036, 8.6579], [-13.14061, 8.65225], [-13.14843, 8.65339], [-13.1577, 8.67097], [-13.16259, 8.654], [-13.15429, 8.64305], [-13.12293, 8.63057], [-13.13659, 8.62376], [-13.10905, 8.60333], [-13.1075, 8.581], [-13.12215, 8.55956], [-13.14342, 8.54181], [-13.13927, 8.52471], [-13.14412, 8.51741], [-13.15429, 8.51456], [-13.16834, 8.52498], [-13.19516, 8.56937], [-13.21691, 8.63255], [-13.24119, 8.67219], [-13.24021, 8.71938], [-13.23522, 8.71992], [-13.24021, 8.82583], [-13.21226, 8.85711], [-13.20092, 8.8598], [-13.18497, 8.84349], [-13.10814, 8.84406], [-13.07185, 8.85554], [-13.04308, 8.85834], [-12.98571, 8.85712], [-13.02697, 8.8697], [-13.04109, 8.86123], [-13.05822, 8.86115], [-13.08877, 8.87018], [-13.11561, 8.86242], [-13.13014, 8.86405], [-13.13976, 8.88142], [-13.15769, 8.88447], [-13.15843, 8.89228], [-13.14265, 8.91673], [-13.12263, 8.92601], [-13.0751, 8.93163], [-13.0751, 8.93911], [-13.09252, 8.94465], [-13.15771, 8.92546], [-13.18098, 8.92305], [-13.20612, 8.92838], [-13.22573, 8.94254], [-13.23282, 8.96638], [-13.23998, 8.95978], [-13.24022, 8.95211], [-13.25487, 8.96638], [-13.26049, 8.96528], [-13.26696, 8.95211], [-13.28843, 8.96947], [-13.28502, 9.01703], [-13.30108, 9.03531], [-13.3011, 9.04149], [-13.3216, 9.05663], [-13.32578, 9.06778], [-13.32217, 9.08307], [-13.30065, 9.08462], [-13.30109, 9.09613], [-13.29743, 9.09987], [-13.27738, 9.05859], [-13.23363, 9.07206], [-13.20754, 9.07671], [-13.19177, 9.07299]], [[-12.5132, 8.14902], [-12.44036, 8.14794], [-12.40403, 8.1429], [-12.33384, 8.12201], [-12.30028, 8.10617], [-12.24881, 8.07371], [-12.21972, 8.05189], [-12.17163, 8.00389], [-12.15924, 8.00666], [-12.14018, 8.06332], [-12.13529, 8.11549], [-12.13996, 8.16792], [-12.15299, 8.21685], [-12.17405, 8.2634], [-12.20194, 8.30527], [-12.23574, 8.34131], [-12.27537, 8.37094], [-12.31711, 8.39128], [-12.36276, 8.40287], [-12.40822, 8.404], [-12.44956, 8.39516], [-12.48839, 8.37652], [-12.52201, 8.34903], [-12.54842, 8.31541], [-12.56726, 8.27705], [-12.56516, 8.26862], [-12.55282, 8.26694], [-12.54602, 8.25394], [-12.53252, 8.22027], [-12.5132, 8.14902]]], [[[-13.40412, 9.30842], [-13.42119, 9.32871], [-13.41412, 9.33985], [-13.38332, 9.27656], [-13.40778, 9.28702], [-13.41197, 9.2934], [-13.40412, 9.30842]]]]}}]}