{"type": "FeatureCollection", "features": [{"type": "Feature", "properties": {"name": "영국령 가이아나", "name_en": "British Guiana", "period": "19세기", "kind": "식민지", "legend": "영국령 가이아나", "map_title": "라틴 아메리카의 독립", "source": "미래엔 세계사 교과서 3권 148쪽", "volume": 3, "page": 148, "coast_snap": "Natural Earth 10m 해안선에 맞춤", "border_snap": "현대 국경(Natural Earth 10m)에 맞춘 구간 약 1992 km", "group": "영국령 가이아나", "map_folder": "3권_p148_라틴 아메리카의 독립"}, "geometry": {"type": "MultiPolygon", "coordinates": [[[[-60.02098, 8.558], [-59.96818, 8.52756], [-59.93249, 8.49176], [-59.87532, 8.40522], [-59.8378, 8.36929], [-59.8094, 8.35468], [-59.76057, 8.3415], [-59.65184, 8.27367], [-59.62218, 8.26752], [-59.60985, 8.24209], [-59.54345, 8.22948], [-59.52302, 8.20649], [-59.43375, 8.13032], [-59.45678, 8.16722], [-59.49169, 8.20132], [-59.53356, 8.22891], [-59.60863, 8.25943], [-59.70067, 8.32274], [-59.7613, 8.35545], [-59.78184, 8.39419], [-59.77952, 8.40712], [-59.75585, 8.41086], [-59.73937, 8.40362], [-59.70397, 8.37556], [-59.66305, 8.36334], [-59.61124, 8.32274], [-59.5454, 8.28376], [-59.4541, 8.24261], [-59.34789, 8.16682], [-59.16536, 8.05887], [-59.105, 8.01376], [-59.02129, 7.93084], [-58.88475, 7.77869], [-58.83342, 7.73829], [-58.77863, 7.66236], [-58.75405, 7.61211], [-58.73763, 7.58833], [-58.73392, 7.59469], [-58.7439, 7.61935], [-58.742, 7.63027], [-58.70344, 7.62095], [-58.68226, 7.60342], [-58.64686, 7.56523], [-58.60932, 7.5065], [-58.56818, 7.45334], [-58.48974, 7.37612], [-58.47154, 7.34517], [-58.46424, 7.3122], [-58.47419, 7.27998], [-58.46737, 7.28741], [-58.47252, 7.24445], [-58.46737, 7.11612], [-58.48498, 7.01103], [-58.49739, 6.99482], [-58.53563, 6.96528], [-58.55069, 6.94709], [-58.56819, 6.90681], [-58.57406, 6.8684], [-58.59773, 6.8083], [-58.59774, 6.72163], [-58.6114, 6.68781], [-58.61141, 6.50971], [-58.61995, 6.47688], [-58.68643, 6.38247], [-58.6796, 6.37621], [-58.63866, 6.41035], [-58.62889, 6.42331], [-58.61539, 6.41738], [-58.59024, 6.41722], [-58.59772, 6.4234], [-58.58117, 6.46345], [-58.57723, 6.59448], [-58.567, 6.6367], [-58.46138, 6.82206], [-58.43488, 6.85781], [-58.39842, 6.88336], [-58.3544, 6.89434], [-58.31217, 6.89214], [-58.27384, 6.88051], [-58.21428, 6.84928], [-58.16967, 6.81342], [-58.16221, 6.82953], [-58.15372, 6.83221], [-58.06811, 6.82173], [-58.00568, 6.79174], [-57.89169, 6.69625], [-57.80633, 6.61337], [-57.79699, 6.59815], [-57.77886, 6.59034], [-57.75698, 6.5677], [-57.647, 6.47796], [-57.59871, 6.42739], [-57.54762, 6.30714], [-57.53668, 6.29316], [-57.52891, 6.26571], [-57.52043, 6.27799], [-57.51703, 6.31507], [-57.50418, 6.32903], [-57.48607, 6.33949], [-57.46637, 6.3379], [-57.44542, 6.33029], [-57.36489, 6.28738], [-57.28983, 6.23473], [-57.20763, 6.15152], [-57.18654, 6.12097], [-57.16732, 6.08511], [-57.15536, 6.01967], [-57.14445, 5.98902], [-57.14362, 5.978], [-57.16576, 6.00568], [-57.14198, 5.95574], [-57.13727, 5.88209], [-57.17002, 5.79962], [-57.17062, 5.77904], [-57.18068, 5.75493], [-57.18306, 5.73141], [-57.15957, 5.69291], [-57.16152, 5.63891], [-57.17334, 5.60748], [-57.19678, 5.56506], [-57.24767, 5.49185], [-57.24767, 5.48493], [-57.22509, 5.50751], [-57.19302, 5.51972], [-57.17951, 5.53059], [-57.16369, 5.55707], [-57.13964, 5.66511], [-57.13488, 5.75991], [-57.12571, 5.81836], [-57.10235, 5.88626], [-57.06602, 5.95009], [-57.05768, 5.95587], [-57.03482, 5.95991], [-57.01281, 5.97386], [-56.99449, 5.99265], [-56.9746, 5.99811], [-56.95654, 6.01156], [-56.86697, 5.98964], [-56.83036, 5.98556], [-56.66097, 5.97979], [-56.63464, 5.8746], [-56.6321, 5.80382], [-56.64342, 5.7338], [-56.68019, 5.59476], [-56.75646, 5.62233], [-56.7797, 5.62034], [-56.82131, 5.44255], [-56.83449, 5.41384], [-57.1924, 5.20317], [-57.1849, 5.18315], [-57.18981, 5.16922], [-57.20201, 5.15762], [-57.21777, 5.14855], [-57.23332, 5.14212], [-57.23875, 5.16201], [-57.24728, 5.17237], [-57.25994, 5.1763], [-57.27771, 5.17692], [-57.28898, 5.17103], [-57.29554, 5.15721], [-57.30221, 5.12847], [-57.31709, 5.09476], [-57.32143, 5.07016], [-57.31694, 5.05897], [-57.28045, 5.0261], [-57.29048, 5.02029], [-57.31523, 5.0261], [-57.32944, 5.02409], [-57.35621, 5.01243], [-57.38138, 5.00574], [-57.46049, 4.99763], [-57.49026, 4.99135], [-57.5176, 5.01243], [-57.56622, 5.00709], [-57.6101, 4.99135], [-57.64937, 5.00843], [-57.68694, 5.00626], [-57.72048, 4.9898], [-57.7473, 4.96401], [-57.76234, 4.93554], [-57.77396, 4.92644], [-57.79846, 4.92306], [-57.83024, 4.93306], [-57.84279, 4.92988], [-57.85034, 4.9228], [-57.8707, 4.88893], [-57.9185, 4.82976], [-57.92537, 4.79614], [-57.91783, 4.78237], [-57.88455, 4.76286], [-57.87117, 4.72173], [-57.84435, 4.68752], [-57.83603, 4.66984], [-57.83742, 4.65088], [-57.84543, 4.63352], [-57.86331, 4.60773], [-57.87912, 4.55683], [-57.89607, 4.52851], [-57.91447, 4.48407], [-57.92186, 4.45094], [-57.95266, 4.40973], [-57.95664, 4.39144], [-57.94527, 4.34392], [-57.94739, 4.31876], [-57.95385, 4.29902], [-57.96496, 4.28204], [-58.05203, 4.1931], [-58.06593, 4.17184], [-58.06769, 4.15114], [-58.05508, 4.10807], [-58.04201, 4.02304], [-58.03214, 3.98772], [-58.0079, 3.95728], [-57.94212, 3.90545], [-57.92584, 3.8864], [-57.87514, 3.8122], [-57.85385, 3.76667], [-57.84962, 3.74747], [-57.84693, 3.7021], [-57.84099, 3.68099], [-57.82977, 3.66244], [-57.81313, 3.65184], [-57.76425, 3.63159], [-57.72611, 3.6072], [-57.71748, 3.58244], [-57.70286, 3.55568], [-57.68725, 3.55216], [-57.66043, 3.53519], [-57.64405, 3.51666], [-57.6455, 3.49899], [-57.66069, 3.46951], [-57.65836, 3.45062], [-57.66461, 3.41754], [-57.65485, 3.39013], [-57.64146, 3.38243], [-57.61325, 3.37664], [-57.56514, 3.34982], [-57.55423, 3.34675], [-57.54504, 3.34814], [-57.53527, 3.36778], [-57.5224, 3.36525], [-57.5039, 3.35334], [-57.48799, 3.35153], [-57.48204, 3.34856], [-57.47625, 3.33895], [-57.4592, 3.35334], [-57.43093, 3.36062], [-57.42396, 3.36938], [-57.42504, 3.3875], [-57.36675, 3.36561], [-57.34004, 3.37016], [-57.30841, 3.39491], [-57.28355, 3.3438], [-57.28045, 3.32977], [-57.28278, 3.29505], [-57.29249, 3.27629], [-57.28045, 3.24781], [-57.28795, 3.20311], [-57.27492, 3.16901], [-57.27771, 3.15691], [-57.28603, 3.14239], [-57.27492, 3.13428], [-57.2649, 3.13263], [-57.25498, 3.13583], [-57.23947, 3.14787], [-57.23332, 3.14167], [-57.24857, 3.11237], [-57.23947, 3.09413], [-57.22221, 3.07826], [-57.21286, 3.05604], [-57.20599, 3.02814], [-57.20924, 3.02405], [-57.22325, 3.02478], [-57.22645, 3.02126], [-57.22118, 2.99258], [-57.23462, 2.97036], [-57.22185, 2.96302], [-57.18862, 2.95951], [-57.18382, 2.94468], [-57.19472, 2.93062], [-57.21963, 2.9083], [-57.20635, 2.85657], [-57.20227, 2.84624], [-57.19426, 2.842], [-57.18661, 2.82324], [-57.17462, 2.81895], [-57.13338, 2.83259], [-57.1264, 2.82603], [-57.14367, 2.79001], [-57.13705, 2.77115], [-57.09953, 2.77859], [-57.08987, 2.77389], [-56.70585, 2.90196], [-56.47156, 2.5608], [-56.1168, 2.33309], [-56.14388, 2.27475], [-56.14678, 2.25619], [-56.57977, 2.0168], [-56.6778, 2.0184], [-56.70519, 2.02965], [-56.80146, 2.16597], [-56.82619, 2.26167], [-56.83888, 2.2811], [-56.88014, 2.2948], [-56.88443, 2.30374], [-56.88389, 2.33976], [-56.89505, 2.36208], [-56.93084, 2.39329], [-57.10449, 2.02145], [-57.15292, 2.0022], [-57.23844, 1.94854], [-57.25865, 1.95223], [-57.29482, 1.97484], [-57.31942, 1.97714], [-57.34148, 1.96885], [-57.38453, 1.92521], [-57.41951, 1.90919], [-57.42949, 1.9003], [-57.45429, 1.83382], [-57.46478, 1.81573], [-57.53129, 1.73155], [-57.56116, 1.70897], [-57.60787, 1.69711], [-57.63857, 1.69618], [-57.72311, 1.71165], [-57.75882, 1.71346], [-57.79076, 1.70494], [-57.87148, 1.66925], [-57.90538, 1.64856], [-57.92222, 1.64248], [-57.93902, 1.64331], [-57.96914, 1.65548], [-57.98501, 1.6577], [-57.991, 1.65042], [-57.98392, 1.60412], [-57.98697, 1.58683], [-58.01116, 1.53619], [-58.02723, 1.51686], [-58.06914, 1.50901], [-58.11642, 1.51055], [-58.14862, 1.51908], [-58.15554, 1.52738], [-58.16288, 1.54918], [-58.17063, 1.55882], [-58.18727, 1.56761], [-58.21967, 1.55606], [-58.26055, 1.56032], [-58.28199, 1.56657], [-58.2992, 1.57518], [-58.32049, 1.60122], [-58.33191, 1.59339], [-58.3514, 1.55332], [-58.38312, 1.53722], [-58.39026, 1.53076], [-58.3917, 1.52084], [-58.38592, 1.49973], [-58.38638, 1.49019], [-58.41346, 1.47203], [-58.49888, 1.45738], [-58.74775, 1.78422], [-58.76127, 1.79583], [-59.02841, 1.87008], [-59.31182, 2.19798], [-59.74022, 2.22948], [-59.7417, 2.26379], [-59.76325, 2.28798], [-59.8012, 2.29273], [-59.81363, 2.29919], [-59.84425, 2.32544], [-59.88407, 2.34601], [-59.90314, 2.3596], [-59.91344, 2.37872], [-59.91182, 2.38781], [-59.90151, 2.40451], [-59.90678, 2.45877], [-59.93585, 2.52388], [-59.94073, 2.563], [-59.55997, 2.71058], [-59.55897, 2.72845], [-59.57419, 2.7364], [-59.94324, 2.5681], [-59.95313, 2.58393], [-59.97099, 2.59256], [-59.96504, 2.61343], [-59.99646, 2.67477], [-60.00008, 2.69405], [-59.99372, 2.85729], [-59.97298, 2.93931], [-59.97042, 2.96044], [-59.97398, 3.01765], [-59.96923, 3.04271], [-59.95938, 3.06648], [-59.93267, 3.11004], [-59.91486, 3.11997], [-59.91161, 3.12642], [-59.92156, 3.15009], [-59.90572, 3.1548], [-59.90321, 3.15867], [-59.91686, 3.18115], [-59.91667, 3.19417], [-59.89763, 3.21738], [-59.88401, 3.26254], [-59.85373, 3.31538], [-59.84319, 3.34902], [-59.82681, 3.35194], [-59.82177, 3.35659], [-59.821, 3.36349], [-59.82849, 3.38341], [-59.82404, 3.43168], [-59.84136, 3.4254], [-59.83854, 3.44302], [-59.82136, 3.48439], [-59.82955, 3.50976], [-59.86303, 3.55237], [-59.86288, 3.58172], [-59.83766, 3.60929], [-59.75555, 3.63813], [-59.71764, 3.67321], [-59.69506, 3.68306], [-59.68622, 3.69021], [-59.68013, 3.70169], [-59.68015, 3.73112], [-59.67181, 3.75623], [-59.65912, 3.76892], [-59.61829, 3.78719], [-59.59861, 3.80241], [-59.5954, 3.81654], [-59.60251, 3.85568], [-59.59633, 3.87589], [-59.58178, 3.8992], [-59.56316, 3.91819], [-59.53471, 3.9271], [-59.52923, 3.93191], [-59.52765, 3.93953], [-59.52959, 3.94945], [-59.53683, 3.95769], [-59.54869, 3.96193], [-59.59, 3.96671], [-59.59628, 3.97064], [-59.59538, 3.99637], [-59.60574, 4.00715], [-59.61982, 4.03273], [-59.65369, 4.0642], [-59.66325, 4.07973], [-59.6601, 4.10319], [-59.64899, 4.1198], [-59.64617, 4.13404], [-59.66736, 4.15058], [-59.71033, 4.16445], [-59.72674, 4.17647], [-59.73847, 4.20277], [-59.74054, 4.22233], [-59.73795, 4.24], [-59.72449, 4.26406], [-59.73847, 4.28659], [-59.7278, 4.30529], [-59.69361, 4.34069], [-59.68739, 4.36446], [-59.68674, 4.38118], [-59.69046, 4.38446], [-59.71351, 4.38937], [-59.73795, 4.41557], [-59.79627, 4.4482], [-59.80963, 4.46575], [-59.81769, 4.45684], [-59.82624, 4.45461], [-59.84763, 4.46025], [-59.86324, 4.46066], [-59.87169, 4.46823], [-59.86885, 4.48092], [-59.87293, 4.48469], [-59.88582, 4.48474], [-59.90528, 4.47528], [-59.91456, 4.47435], [-59.9343, 4.49825], [-59.95313, 4.50588], [-59.97455, 4.50371], [-59.98455, 4.4888], [-60.0207, 4.49887], [-60.05561, 4.49159], [-60.06625, 4.49433], [-60.07155, 4.51254], [-60.07687, 4.51996], [-60.08777, 4.52554], [-60.0986, 4.526], [-60.1062, 4.5066], [-60.11201, 4.50216], [-60.12093, 4.50236], [-60.14878, 4.51301], [-60.15999, 4.52779], [-60.16485, 4.54621], [-60.16154, 4.5652], [-60.13483, 4.59355], [-60.10615, 4.59535], [-60.09708, 4.59856], [-60.0877, 4.60752], [-60.07563, 4.65029], [-60.04705, 4.69176], [-60.03245, 4.72542], [-60.03008, 4.74436], [-60.03452, 4.7878], [-60.02047, 4.83229], [-60.01796, 4.89223], [-60.00021, 4.95833], [-59.99928, 4.99688], [-59.9815, 5.05742], [-59.9831, 5.08594], [-60.05512, 5.12509], [-60.07573, 5.14082], [-60.09124, 5.15824], [-60.12302, 5.23185], [-60.13172, 5.2434], [-60.17656, 5.22715], [-60.19095, 5.23994], [-60.2003, 5.26345], [-60.21343, 5.26723], [-60.25521, 5.25645], [-60.27373, 5.24736], [-60.31407, 5.20692], [-60.33308, 5.19377], [-60.35499, 5.19317], [-60.39894, 5.20831], [-60.4198, 5.20723], [-60.42742, 5.20077], [-60.43912, 5.18139], [-60.44897, 5.17423], [-60.45636, 5.1747], [-60.47749, 5.19193], [-60.49741, 5.19594], [-60.55384, 5.18806], [-60.56829, 5.18971], [-60.60177, 5.20658], [-60.63034, 5.21009], [-60.85316, 5.32504], [-61.37961, 5.9053], [-61.39671, 5.94558], [-61.38627, 5.95659], [-61.35276, 5.97519], [-61.33809, 5.98679], [-61.29119, 6.06116], [-61.27856, 6.09304], [-61.26938, 6.10722], [-61.2561, 6.11438], [-61.20652, 6.12578], [-61.19448, 6.13286], [-61.18474, 6.14601], [-61.17399, 6.17164], [-61.16112, 6.18288], [-61.1327, 6.18355], [-61.12156, 6.18665], [-61.11285, 6.25414], [-61.11479, 6.26401], [-61.12136, 6.26946], [-61.12908, 6.28331], [-61.1467, 6.29422], [-61.15197, 6.30336], [-61.16091, 6.34235], [-61.15482, 6.39057], [-61.13898, 6.4248], [-61.13975, 6.44126], [-61.15347, 6.46436], [-61.17086, 6.50924], [-61.20967, 6.54097], [-61.21197, 6.56144], [-61.20479, 6.59583], [-61.19019, 6.63288], [-61.17065, 6.66851], [-61.12983, 6.71584], [-61.11097, 6.71951], [-61.08906, 6.7175], [-61.0704, 6.71186], [-61.06123, 6.73008], [-61.01867, 6.72044], [-61.00025, 6.73437], [-60.9546, 6.72874], [-60.93382, 6.73174], [-60.89948, 6.76855], [-60.90129, 6.78602], [-60.91116, 6.80002], [-60.91338, 6.81121], [-60.90757, 6.81524], [-60.8724, 6.80811], [-60.84961, 6.78995], [-60.83762, 6.78636], [-60.79352, 6.79382], [-60.77306, 6.78842], [-60.73647, 6.76478], [-60.72153, 6.75969], [-60.70035, 6.76708], [-60.68415, 6.78403], [-60.6558, 6.82457], [-60.63955, 6.83772], [-60.62069, 6.84589], [-60.54873, 6.8631], [-60.42096, 6.94221], [-60.39419, 6.94847], [-60.37734, 6.93854], [-60.36809, 6.9881], [-60.3597, 7.0049], [-60.31342, 7.04024], [-60.30358, 7.05414], [-60.29159, 7.0883], [-60.29234, 7.10525], [-60.29993, 7.12101], [-60.31282, 7.13259], [-60.34758, 7.15192], [-60.36011, 7.16577], [-60.37202, 7.17228], [-60.41582, 7.17135], [-60.44951, 7.18835], [-60.47532, 7.1885], [-60.49661, 7.1806], [-60.51286, 7.1652], [-60.53491, 7.12577], [-60.548, 7.12551], [-60.62841, 7.19114], [-60.64306, 7.2209], [-60.64356, 7.25067], [-60.6311, 7.2777], [-60.60224, 7.30653], [-60.59997, 7.31392], [-60.60177, 7.33015], [-60.62898, 7.38436], [-60.65324, 7.39846], [-60.65727, 7.40813], [-60.65627, 7.4288], [-60.66063, 7.43614], [-60.6742, 7.44549], [-60.70066, 7.4535], [-60.72383, 7.49582], [-60.7297, 7.51034], [-60.73058, 7.52543], [-60.7165, 7.55158], [-60.67115, 7.56605], [-60.65562, 7.58522], [-60.6317, 7.6246], [-60.62516, 7.62946], [-60.61066, 7.62682], [-60.60126, 7.63385], [-60.59746, 7.64672], [-60.59986, 7.66155], [-60.58451, 7.68852], [-60.58699, 7.72713], [-60.55958, 7.76304], [-60.53984, 7.80009], [-60.52576, 7.81337], [-60.50328, 7.82087], [-60.4185, 7.81937], [-60.37476, 7.82361], [-60.35042, 7.8418], [-60.34241, 7.86479], [-60.32034, 7.88474], [-60.27187, 7.91776], [-60.25329, 7.93456], [-60.23112, 7.96411], [-60.18309, 7.98267], [-60.12922, 8.02881], [-60.1079, 8.03556], [-60.06801, 8.03176], [-60.04648, 8.03292], [-60.02959, 8.04282], [-60.01946, 8.06031], [-60.01101, 8.10044], [-59.99933, 8.1154], [-60.00067, 8.15294], [-59.99331, 8.16852], [-59.95706, 8.20015], [-59.93972, 8.20844], [-59.88975, 8.21989], [-59.86921, 8.22113], [-59.84846, 8.22774], [-59.82929, 8.2451], [-59.81665, 8.2672], [-59.8156, 8.28776], [-59.85562, 8.35213], [-59.9597, 8.46817], [-60.02098, 8.558]]], [[[-57.15396, 5.697], [-57.17375, 5.7433], [-57.14623, 5.80932], [-57.14472, 5.78505], [-57.15621, 5.74026], [-57.14709, 5.69852], [-57.14938, 5.69398], [-57.15396, 5.697]]], [[[-58.48592, 6.86911], [-58.55299, 6.76474], [-58.56606, 6.71587], [-58.57306, 6.72171], [-58.57417, 6.73663], [-58.55639, 6.81462], [-58.53508, 6.85316], [-58.50219, 6.87516], [-58.48813, 6.87861], [-58.48592, 6.86911]]], [[[-58.39103, 6.91988], [-58.44103, 6.90477], [-58.46051, 6.88339], [-58.46343, 6.90053], [-58.44681, 6.94321], [-58.43175, 6.95466], [-58.41873, 6.97215], [-58.3788, 6.97212], [-58.33362, 6.96527], [-58.39103, 6.91988]]], [[[-58.45737, 6.96347], [-58.47269, 6.93675], [-58.47625, 6.92167], [-58.4904, 6.90075], [-58.5021, 6.90195], [-58.49843, 6.91841], [-58.4478, 7.02278], [-58.43374, 7.0239], [-58.41036, 7.00405], [-58.42095, 6.99245], [-58.4409, 6.98204], [-58.45737, 6.96347]]], [[[-60.06436, 8.56513], [-60.02105, 8.55801], [-60.08366, 8.55859], [-60.07751, 8.57099], [-60.06436, 8.56513]]]]}}]}