{"type": "FeatureCollection", "features": [{"type": "Feature", "properties": {"name": "피지 제도", "name_en": "Fiji", "period": "1914년경", "kind": "식민지", "legend": "피지 제도", "map_title": "제국주의 열강의 아시아·태평양 분할(1914년경)", "source": "미래엔 세계사 교과서 3권 157쪽", "volume": 3, "page": 157, "note": "영국령", "coast_snap": "Natural Earth 10m 해안선에 맞춤", "group": "피지 제도", "map_folder": "3권_p157_제국주의 열강의 아시아·태평양 분할"}, "geometry": {"type": "MultiPolygon", "coordinates": [[[[177.65405, -18.50409], [177.65608, -18.52859], [177.62177, -18.52755], [177.62072, -18.50432], [177.6351, -18.48603], [177.64877, -18.49286], [177.65405, -18.50409]]], [[[178.13892, -18.34874], [178.15007, -18.35785], [178.15595, -18.37596], [178.15259, -18.39739], [178.14234, -18.41187], [178.12697, -18.41545], [178.10876, -18.4035], [178.12184, -18.39918], [178.11623, -18.38983], [178.12762, -18.35167], [178.13892, -18.34874]]], [[[177.26565, -17.85956], [177.28208, -17.85175], [177.32732, -17.84856], [177.3615, -17.83489], [177.37143, -17.82342], [177.3729, -17.8152], [177.36891, -17.79728], [177.3703, -17.74969], [177.37428, -17.7475], [177.41603, -17.75986], [177.42351, -17.75921], [177.43434, -17.75018], [177.42058, -17.67832], [177.39569, -17.66301], [177.38894, -17.64056], [177.42042, -17.62233], [177.43434, -17.59792], [177.4651, -17.58799], [177.469, -17.57635], [177.46747, -17.55536], [177.47803, -17.54647], [177.48959, -17.55885], [177.49952, -17.55576], [177.50392, -17.54453], [177.49929, -17.53265], [177.51516, -17.50507], [177.52442, -17.50076], [177.53338, -17.51214], [177.53956, -17.51214], [177.58131, -17.47813], [177.62208, -17.45468], [177.63112, -17.43923], [177.63893, -17.43712], [177.65626, -17.4428], [177.64682, -17.45175], [177.6631, -17.49847], [177.66928, -17.49236], [177.65919, -17.46803], [177.6631, -17.44394], [177.71013, -17.41791], [177.74879, -17.43027], [177.76548, -17.39667], [177.78729, -17.38455], [177.80763, -17.38096], [177.81415, -17.37128], [177.82993, -17.36404], [177.83329, -17.3667], [177.83366, -17.39023], [177.82016, -17.41717], [177.83627, -17.42132], [177.87599, -17.38935], [177.89731, -17.40293], [177.92661, -17.40594], [177.95623, -17.40252], [178.00717, -17.38348], [178.04225, -17.35688], [178.06593, -17.35589], [178.08139, -17.34833], [178.11378, -17.3532], [178.15105, -17.34686], [178.18084, -17.32928], [178.19012, -17.30056], [178.23893, -17.32], [178.2627, -17.33564], [178.28646, -17.38372], [178.28629, -17.39666], [178.2797, -17.40717], [178.24537, -17.44394], [178.25602, -17.44965], [178.25807, -17.45745], [178.24537, -17.47129], [178.25864, -17.46893], [178.28599, -17.43809], [178.30372, -17.43028], [178.34831, -17.44013], [178.36459, -17.4529], [178.37573, -17.47129], [178.37574, -17.49847], [178.40358, -17.52239], [178.44549, -17.5499], [178.47876, -17.55317], [178.49626, -17.56513], [178.53028, -17.60833], [178.57278, -17.61786], [178.59082, -17.63096], [178.6023, -17.65], [178.60327, -17.67457], [178.58058, -17.71006], [178.56772, -17.75498], [178.57114, -17.76263], [178.60229, -17.78656], [178.59889, -17.81943], [178.60841, -17.82806], [178.62062, -17.82351], [178.6272, -17.82684], [178.62629, -17.83409], [178.6159, -17.84108], [178.63485, -17.85327], [178.63599, -17.8637], [178.62956, -17.8759], [178.6159, -17.86907], [178.62272, -17.89022], [178.59108, -17.89756], [178.5949, -17.92604], [178.62615, -17.97145], [178.64576, -17.97325], [178.6543, -17.97845], [178.67701, -18.01141], [178.69386, -18.00994], [178.70534, -17.99197], [178.71142, -17.99197], [178.69842, -18.0193], [178.6945, -18.0569], [178.68457, -18.0704], [178.66358, -18.08814], [178.61297, -18.1124], [178.58864, -18.13598], [178.58863, -18.11549], [178.54764, -18.12907], [178.56056, -18.10866], [178.55502, -18.09922], [178.52711, -18.09002], [178.48561, -18.10866], [178.48779, -18.12908], [178.47022, -18.14185], [178.43777, -18.14657], [178.43816, -18.12298], [178.4131, -18.10345], [178.3899, -18.10182], [178.39616, -18.10865], [178.39113, -18.11826], [178.37843, -18.1272], [178.36892, -18.12907], [178.36606, -18.122], [178.35524, -18.11549], [178.32293, -18.12558], [178.30933, -18.14022], [178.27703, -18.14625], [178.26588, -18.15643], [178.2522, -18.18376], [178.2142, -18.2011], [178.1683, -18.24846], [178.14137, -18.2527], [178.13551, -18.25944], [178.11305, -18.23944], [178.03891, -18.26489], [177.99124, -18.25883], [177.97836, -18.2527], [177.95956, -18.26577], [177.94581, -18.26872], [177.92107, -18.26067], [177.89406, -18.27311], [177.88575, -18.25164], [177.85939, -18.26579], [177.83449, -18.24667], [177.82716, -18.23447], [177.64525, -18.19115], [177.59164, -18.16668], [177.56764, -18.17009], [177.52491, -18.15537], [177.4651, -18.15642], [177.45428, -18.15194], [177.43718, -18.136], [177.36671, -18.11906], [177.33595, -18.10556], [177.31365, -18.07391], [177.30682, -18.0813], [177.30006, -18.03973], [177.28762, -18.02215], [177.28582, -18.00897], [177.26296, -17.99382], [177.26645, -17.97942], [177.25165, -17.95224], [177.27215, -17.91693], [177.2715, -17.90423], [177.25905, -17.87933], [177.26565, -17.85956]]], [[[178.77954, -17.76605], [178.77272, -17.78035], [178.76588, -17.77288], [178.75891, -17.77747], [178.74781, -17.76995], [178.73469, -17.76756], [178.71321, -17.71102], [178.74192, -17.74958], [178.76271, -17.76198], [178.77954, -17.76605]]], [[[178.33366, -16.82886], [178.30738, -16.82757], [178.29022, -16.83439], [178.28298, -16.82236], [178.28005, -16.78673], [178.30641, -16.79388], [178.33398, -16.7934], [178.33009, -16.81406], [178.33366, -16.82886]]], [[[178.59246, -16.59563], [178.56701, -16.59253], [178.56041, -16.58734], [178.58823, -16.57302], [178.60515, -16.58001], [178.62254, -16.57304], [178.60632, -16.59157], [178.59246, -16.59563]]], [[[178.78262, -17.62291], [178.79789, -17.61862], [178.81675, -17.62896], [178.83012, -17.66558], [178.83553, -17.69316], [178.8293, -17.71861], [178.8229, -17.72912], [178.76808, -17.74717], [178.75812, -17.7297], [178.73943, -17.67313], [178.7511, -17.64337], [178.78262, -17.62291]]], [[[179.99999, -16.78539], [180.0, -16.96256], [179.99232, -16.97484], [179.95395, -16.99879], [179.92897, -17.00213], [179.9175, -16.99878], [179.91245, -16.983], [179.89423, -16.96746], [179.89016, -16.95387], [179.89529, -16.93915], [179.93116, -16.90944], [179.9673, -16.85833], [179.97756, -16.82822], [179.99999, -16.78539]]], [[[179.945, -16.61875], [179.95166, -16.60788], [179.95264, -16.62835], [179.9475, -16.64426], [179.93599, -16.65391], [179.88334, -16.65553], [179.9109, -16.64625], [179.91034, -16.63196], [179.93458, -16.6251], [179.945, -16.61875]]], [[[178.50653, -16.73041], [178.54021, -16.70405], [178.54021, -16.72454], [178.55714, -16.69835], [178.56804, -16.70403], [178.58562, -16.66513], [178.58863, -16.64951], [178.56707, -16.66008], [178.55275, -16.65894], [178.53396, -16.62901], [178.5818, -16.61469], [178.60841, -16.64202], [178.65007, -16.64952], [178.68092, -16.66806], [178.69109, -16.66985], [178.70428, -16.66709], [178.71781, -16.64936], [178.77329, -16.60329], [178.78834, -16.59695], [178.7977, -16.60664], [178.80096, -16.63584], [178.81398, -16.62998], [178.81739, -16.62273], [178.81399, -16.59759], [178.8183, -16.58702], [178.84864, -16.54634], [178.85548, -16.56699], [178.86793, -16.55706], [178.86916, -16.53966], [178.87598, -16.53966], [178.88624, -16.55234], [178.90944, -16.52655], [178.93092, -16.51263], [178.91702, -16.47066], [178.93735, -16.47812], [178.94273, -16.46039], [178.95216, -16.45966], [178.9651, -16.47064], [179.00783, -16.45958], [179.05421, -16.45403], [179.13653, -16.42983], [179.17758, -16.42978], [179.19126, -16.40798], [179.22234, -16.39903], [179.24041, -16.39814], [179.29835, -16.40911], [179.31422, -16.39562], [179.32928, -16.40797], [179.35874, -16.38813], [179.36572, -16.3913], [179.37208, -16.40488], [179.40358, -16.40797], [179.39576, -16.37884], [179.37617, -16.36077], [179.38648, -16.35133], [179.39767, -16.34785], [179.41782, -16.35394], [179.43142, -16.31903], [179.44321, -16.31025], [179.45818, -16.31992], [179.4714, -16.2739], [179.4861, -16.26524], [179.52166, -16.268], [179.53566, -16.26246], [179.5203, -16.24482], [179.53345, -16.2449], [179.54248, -16.25075], [179.55437, -16.27264], [179.56804, -16.22432], [179.57293, -16.23642], [179.60279, -16.25213], [179.61151, -16.24335], [179.6189, -16.24262], [179.63014, -16.25897], [179.63014, -16.24342], [179.63405, -16.2379], [179.65333, -16.23528], [179.65643, -16.21747], [179.67449, -16.2243], [179.70183, -16.22308], [179.7103, -16.20779], [179.76441, -16.18143], [179.77067, -16.19655], [179.77272, -16.21941], [179.78094, -16.23113], [179.79298, -16.2265], [179.81447, -16.20771], [179.82879, -16.20437], [179.8396, -16.2077], [179.84131, -16.21347], [179.82879, -16.2243], [179.85597, -16.23113], [179.91066, -16.17987], [179.98317, -16.14911], [179.99999, -16.14912], [179.99983, -16.16911], [179.93799, -16.22429], [179.90382, -16.23113], [179.85825, -16.28265], [179.85913, -16.28631], [179.85125, -16.29095], [179.79822, -16.3694], [179.78094, -16.38128], [179.7809, -16.40321], [179.76343, -16.43279], [179.73859, -16.4591], [179.69386, -16.47731], [179.59181, -16.54534], [179.58229, -16.56699], [179.5791, -16.61142], [179.57145, -16.62558], [179.52361, -16.65895], [179.50659, -16.68352], [179.47869, -16.6972], [179.48877, -16.70762], [179.49219, -16.72503], [179.48876, -16.74386], [179.47869, -16.75872], [179.4861, -16.76605], [179.50193, -16.75468], [179.52027, -16.74962], [179.53711, -16.75263], [179.54811, -16.76605], [179.58522, -16.72944], [179.62208, -16.71787], [179.63258, -16.71022], [179.64089, -16.68728], [179.67107, -16.67685], [179.67792, -16.65554], [179.69842, -16.64951], [179.72267, -16.60443], [179.74977, -16.59246], [179.75669, -16.57676], [179.81414, -16.54632], [179.83326, -16.53037], [179.84181, -16.51507], [179.90382, -16.48431], [179.91717, -16.4669], [179.93946, -16.46332], [179.95337, -16.4998], [179.93621, -16.52467], [179.89015, -16.61468], [179.89014, -16.63583], [179.86964, -16.63584], [179.84864, -16.66237], [179.87501, -16.66432], [179.89193, -16.67597], [179.90112, -16.69476], [179.90382, -16.71771], [179.93555, -16.7204], [179.94971, -16.73008], [179.95166, -16.7457], [179.9419, -16.75261], [179.89633, -16.73821], [179.91063, -16.76603], [179.89015, -16.75872], [179.87574, -16.76945], [179.86363, -16.76482], [179.85793, -16.75189], [179.86215, -16.73821], [179.82635, -16.73706], [179.81203, -16.73121], [179.80201, -16.71771], [179.78077, -16.72502], [179.72633, -16.71771], [179.69987, -16.73527], [179.66627, -16.74066], [179.65984, -16.74676], [179.65675, -16.75869], [179.65056, -16.7457], [179.64381, -16.7457], [179.6333, -16.76587], [179.59685, -16.78875], [179.58228, -16.80705], [179.56512, -16.79168], [179.54493, -16.79078], [179.50318, -16.80021], [179.47145, -16.8012], [179.43824, -16.81389], [179.40382, -16.80234], [179.2969, -16.80681], [179.30795, -16.79746], [179.32342, -16.77118], [179.35475, -16.75848], [179.3489, -16.7457], [179.35141, -16.73138], [179.33961, -16.72438], [179.30796, -16.7177], [179.26637, -16.68987], [179.17205, -16.72259], [179.15284, -16.73447], [179.1229, -16.75872], [179.12939, -16.77581], [179.12337, -16.78964], [179.10998, -16.80009], [179.09571, -16.80705], [179.06544, -16.79892], [179.04444, -16.82383], [179.01987, -16.8952], [179.04542, -16.88015], [179.07519, -16.88153], [179.06559, -16.89348], [179.02686, -16.9231], [178.96773, -16.90642], [178.95445, -16.89901], [178.94532, -16.87754], [178.92596, -16.87313], [178.92026, -16.86696], [178.917, -16.84808], [178.91, -16.84808], [178.91, -16.86784], [178.89454, -16.85931], [178.87403, -16.8611], [178.8213, -16.9026], [178.80713, -16.95045], [178.78777, -16.96787], [178.80094, -16.97772], [178.7627, -17.00505], [178.7339, -17.007], [178.70534, -16.99879], [178.69192, -16.98577], [178.68064, -16.9581], [178.67042, -16.89902], [178.66041, -16.87949], [178.64064, -16.86052], [178.62746, -16.83766], [178.6364, -16.80706], [178.6064, -16.79305], [178.60231, -16.77972], [178.5407, -16.80917], [178.51157, -16.81421], [178.48562, -16.79339], [178.49244, -16.78672], [178.48122, -16.77727], [178.47903, -16.76589], [178.48361, -16.75997], [178.49928, -16.76605], [178.4966, -16.74717], [178.50653, -16.73041]]], [[[179.98749, -16.5424], [179.9844, -16.53021], [179.98716, -16.51833], [179.99999, -16.48956], [179.99999, -16.54127], [179.98749, -16.5424]]], [[[179.38964, -16.3336], [179.36093, -16.34073], [179.32815, -16.33358], [179.32815, -16.3266], [179.36231, -16.3266], [179.38964, -16.3336]]]]}}]}