{"type": "FeatureCollection", "features": [{"type": "Feature", "properties": {"name": "금", "name_en": "Jin", "period": "1115–1234", "kind": "국가", "legend": "금", "map_title": "금과 남송의 영역", "source": "미래엔 세계사 교과서 2권 77쪽", "volume": 2, "page": 77, "coast_snap": "Natural Earth 10m 해안선에 맞춤", "border_snap": "현대 국경(Natural Earth 10m)에 맞춘 구간 약 82 km", "group": "금", "map_folder": "2권_p077_금과 남송의 영역"}, "geometry": {"type": "MultiPolygon", "coordinates": [[[[105.25584, 33.3265], [105.28799, 33.31632], [105.27241, 33.32114], [105.25584, 33.3265]]], [[[119.49423, 34.7609], [119.49284, 34.75504], [119.48186, 34.74821], [119.46705, 34.75161], [119.44158, 34.77434], [119.45003, 34.77752], [119.45395, 34.77192], [119.49423, 34.7609]]], [[[120.18343, 35.75454], [120.17091, 35.74332], [120.15944, 35.74332], [120.15334, 35.75369], [120.16028, 35.77202], [120.17148, 35.7844], [120.17529, 35.78318], [120.18343, 35.75454]]], [[[122.17641, 37.49788], [122.16539, 37.50259], [122.18027, 37.51295], [122.19222, 37.51015], [122.19394, 37.50389], [122.20749, 37.49642], [122.17641, 37.49788]]], [[[120.72634, 37.90885], [120.72244, 37.9191], [120.72707, 37.94765], [120.73454, 37.94765], [120.74837, 37.9387], [120.75736, 37.92242], [120.75456, 37.89669], [120.72634, 37.90885]]], [[[120.60191, 37.96931], [120.60679, 37.97988], [120.61898, 37.98114], [120.62581, 37.97256], [120.62566, 37.95892], [120.61842, 37.94702], [120.60191, 37.96931]]], [[[120.72047, 37.96403], [120.70054, 37.96988], [120.68826, 37.98526], [120.69021, 37.99062], [120.70382, 37.98967], [120.72019, 37.98074], [120.72729, 37.96943], [120.72047, 37.96403]]], [[[120.74269, 38.18754], [120.7727, 38.16542], [120.77327, 38.15974], [120.75457, 38.1582], [120.7466, 38.16186], [120.73879, 38.17561], [120.74269, 38.18754]]], [[[121.82149, 38.88671], [121.83374, 38.89264], [121.83838, 38.87055], [121.82602, 38.8606], [121.81936, 38.87613], [121.8239, 38.88076], [121.82149, 38.88671]]], [[[117.78564, 38.93845], [117.81478, 38.93045], [117.81085, 38.91467], [117.78929, 38.90464], [117.76059, 38.90947], [117.71837, 38.92136], [117.69733, 38.93463], [117.71371, 38.96644], [117.7315, 38.95447], [117.76912, 38.94391], [117.76213, 38.92928], [117.7782, 38.92708], [117.78564, 38.93845]]], [[[117.72045, 38.97394], [117.72995, 38.97672], [117.80885, 38.96423], [117.81926, 38.9584], [117.87939, 38.94655], [117.88004, 38.93054], [117.73323, 38.96429], [117.72045, 38.97394]]], [[[117.80323, 38.97961], [117.79122, 38.98928], [117.77335, 39.04757], [117.79624, 39.04989], [117.80965, 39.02898], [117.82683, 38.98372], [117.81965, 38.97741], [117.80323, 38.97961]]], [[[122.40257, 39.21379], [122.39291, 39.2038], [122.38893, 39.18708], [122.40258, 39.15913], [122.38916, 39.15245], [122.37631, 39.16059], [122.334, 39.14632], [122.32131, 39.16596], [122.33814, 39.18496], [122.38234, 39.20821], [122.40257, 39.21379]]], [[[122.7395, 39.22224], [122.72579, 39.21019], [122.6907, 39.19332], [122.69752, 39.22126], [122.63601, 39.22802], [122.63601, 39.23427], [122.66373, 39.23299], [122.7186, 39.24188], [122.74194, 39.23606], [122.7395, 39.22224]]], [[[105.26244, 36.39712], [105.69848, 36.13749], [105.70794, 36.13603], [106.10042, 36.37844], [106.39649, 36.6418], [106.79878, 36.81218], [107.7316, 37.06719], [108.3862, 37.32515], [109.28454, 37.26464], [109.6365, 37.41301], [110.05277, 37.86666], [110.54657, 38.27107], [111.06783, 39.03042], [111.56592, 39.74041], [111.61888, 39.88359], [111.52647, 40.06007], [111.06572, 40.11238], [110.82863, 40.21606], [110.53853, 40.64995], [110.36225, 40.69803], [110.08681, 40.67165], [110.18933, 41.77963], [111.00997, 42.06734], [111.84758, 42.33984], [112.50933, 42.56781], [112.95781, 42.71252], [113.41233, 42.85085], [114.05069, 43.06596], [114.48382, 43.20181], [115.27861, 43.49063], [116.09177, 43.76037], [116.74326, 44.04585], [117.62574, 44.41351], [118.32051, 44.80009], [118.9299, 45.2335], [119.44174, 45.72696], [119.81027, 46.25227], [120.70457, 46.15796], [122.79157, 45.9272], [123.85507, 45.80025], [124.91379, 45.66423], [125.64133, 45.58338], [126.3918, 45.49526], [127.62282, 45.3603], [128.4489, 45.28014], [129.29759, 45.19179], [129.99456, 45.11468], [130.73927, 45.02772], [130.93343, 44.84171], [130.97157, 44.85406], [131.00826, 44.85628], [131.0248, 44.86243], [131.03885, 44.87458], [131.04206, 44.88248], [131.04113, 44.89778], [131.04536, 44.90543], [131.05157, 44.90904], [131.0958, 44.91912], [131.11006, 44.91953], [131.15802, 44.9017], [131.17652, 44.90341], [131.259, 44.92816], [131.29992, 44.95648], [131.31315, 44.96366], [131.32948, 44.96764], [131.35036, 44.96801], [131.4195, 44.95896], [131.43376, 44.96129], [131.45216, 44.98372], [131.57361, 45.06577], [131.80372, 44.91076], [133.26829, 44.74179], [134.30631, 44.61642], [135.04406, 44.52311], [134.82752, 44.43976], [134.66934, 44.18414], [134.67789, 44.04625], [134.5387, 43.95807], [134.57909, 43.82097], [134.399, 43.67761], [134.32642, 43.4925], [133.83817, 43.20247], [133.83825, 43.19397], [133.88902, 43.14479], [133.91262, 43.11374], [133.93164, 43.08154], [133.9561, 43.01424], [133.96215, 42.94429], [133.95803, 42.90887], [133.92676, 42.88273], [133.91066, 42.87984], [133.86451, 42.90119], [133.83961, 42.89761], [133.81844, 42.88395], [133.79428, 42.87669], [133.72999, 42.84544], [133.71729, 42.81665], [133.67164, 42.85285], [133.64291, 42.85383], [133.60529, 42.84626], [133.59335, 42.85285], [133.58496, 42.83564], [133.57227, 42.82625], [133.55177, 42.81876], [133.52442, 42.82624], [133.51197, 42.82172], [133.4978, 42.80444], [133.4204, 42.7715], [133.37745, 42.76351], [133.2986, 42.7635], [133.2374, 42.74396], [133.22291, 42.73623], [133.17774, 42.6938], [133.15746, 42.68842], [133.06202, 42.68843], [133.0377, 42.6914], [133.02443, 42.69937], [132.99637, 42.72256], [133.03842, 42.74298], [133.07667, 42.7381], [133.07887, 42.74982], [133.04322, 42.77961], [132.99637, 42.80443], [133.01051, 42.81875], [132.98976, 42.82697], [132.90048, 42.81558], [132.88746, 42.80146], [132.90014, 42.79393], [132.88769, 42.7635], [132.86499, 42.74813], [132.85201, 42.74654], [132.81594, 42.75642], [132.79153, 42.79084], [132.79843, 42.80842], [132.79111, 42.8205], [132.75735, 42.83243], [132.77369, 42.87507], [132.77442, 42.8959], [132.76344, 42.90815], [132.73976, 42.90717], [132.7037, 42.87874], [132.68165, 42.87336], [132.69505, 42.8596], [132.6832, 42.85571], [132.61891, 42.8592], [132.60817, 42.85684], [132.58911, 42.84236], [132.57789, 42.84041], [132.54444, 42.85969], [132.51052, 42.87141], [132.50345, 42.88703], [132.5027, 42.9243], [132.40439, 42.94229], [132.39706, 42.93936], [132.39412, 42.92179], [132.35426, 42.91083], [132.3458, 42.9007], [132.3601, 42.88081], [132.35353, 42.87027], [132.3601, 42.85969], [132.31154, 42.84546], [132.28771, 42.89045], [132.29453, 42.90278], [132.29113, 42.94912], [132.30128, 43.02391], [132.29112, 43.04462], [132.30323, 43.05317], [132.30494, 43.06403], [132.29113, 43.08563], [132.30746, 43.08661], [132.32057, 43.09418], [132.32569, 43.10627], [132.31839, 43.12042], [132.33961, 43.13402], [132.32595, 43.14086], [132.32912, 43.17498], [132.35654, 43.17097], [132.36695, 43.17499], [132.38168, 43.19123], [132.37607, 43.20474], [132.30772, 43.23819], [132.30846, 43.24701], [132.3458, 43.26716], [132.35621, 43.28596], [132.3458, 43.29792], [132.30543, 43.31904], [132.28956, 43.31257], [132.28198, 43.27852], [132.254, 43.26651], [132.23608, 43.23672], [132.22684, 43.22994], [132.13711, 43.19176], [132.09596, 43.18098], [132.02963, 43.11653], [131.95223, 43.07198], [131.92994, 43.06958], [131.90724, 43.07442], [131.88649, 43.08565], [131.91725, 43.10786], [131.92067, 43.12043], [131.85914, 43.08565], [131.8472, 43.08992], [131.84987, 43.10049], [131.8794, 43.1374], [131.91173, 43.19757], [131.9586, 43.22991], [131.99684, 43.23872], [132.00664, 43.26034], [132.04493, 43.28644], [132.05201, 43.31476], [132.04444, 43.32437], [132.03102, 43.32514], [132.01401, 43.31562], [131.99204, 43.27311], [131.96837, 43.27059], [131.97812, 43.29206], [131.9568, 43.30585], [131.89527, 43.31863], [131.84604, 43.30538], [131.83205, 43.30989], [131.82603, 43.31794], [131.82814, 43.3264], [131.83863, 43.33271], [131.82667, 43.33796], [131.80763, 43.33096], [131.79932, 43.31587], [131.76425, 43.29169], [131.75049, 43.22529], [131.72267, 43.20978], [131.72267, 43.20234], [131.74171, 43.20147], [131.75804, 43.19548], [131.76391, 43.18586], [131.74984, 43.175], [131.73073, 43.17415], [131.69467, 43.20234], [131.68385, 43.19929], [131.67416, 43.18183], [131.64698, 43.16885], [131.65146, 43.15599], [131.66676, 43.15689], [131.69465, 43.17497], [131.68334, 43.14851], [131.66465, 43.12497], [131.58675, 43.04996], [131.563, 43.03832], [131.56494, 42.99629], [131.54787, 42.99312], [131.51767, 43.00934], [131.49952, 42.99999], [131.49195, 42.98432], [131.49934, 42.9571], [131.49609, 42.9423], [131.49195, 42.94489], [131.43824, 42.93416], [131.42995, 42.93505], [131.40553, 42.95063], [131.39389, 42.94501], [131.38624, 42.91429], [131.40633, 42.91005], [131.41072, 42.90095], [131.4004, 42.87336], [131.4593, 42.88441], [131.47192, 42.88393], [131.47168, 42.87324], [131.40902, 42.83935], [131.37892, 42.83112], [131.36036, 42.80663], [131.3636, 42.78218], [131.35201, 42.77434], [131.30013, 42.79328], [131.27313, 42.77733], [131.23645, 42.70664], [131.2518, 42.69082], [131.26107, 42.68805], [131.26228, 42.6811], [131.25415, 42.66821], [131.23268, 42.66791], [131.22421, 42.66059], [131.20902, 42.63629], [131.20977, 42.62262], [131.20118, 42.61402], [131.22429, 42.60492], [131.22797, 42.59168], [131.23407, 42.58885], [131.21275, 42.58394], [131.22436, 42.57062], [131.21929, 42.55458], [131.21328, 42.55141], [131.20375, 42.55724], [131.18535, 42.55956], [131.16702, 42.57563], [131.16702, 42.58539], [131.1792, 42.59438], [131.18065, 42.6052], [131.1585, 42.60131], [131.14357, 42.6127], [131.12692, 42.61726], [131.12742, 42.64681], [131.12035, 42.66719], [131.1057, 42.66835], [131.08702, 42.64038], [131.07358, 42.63887], [131.03443, 42.64521], [130.99488, 42.64069], [130.95248, 42.6278], [130.93115, 42.60693], [130.88966, 42.59961], [130.87258, 42.60396], [130.8155, 42.63417], [130.83859, 42.64299], [130.88945, 42.63861], [130.91151, 42.61683], [130.93214, 42.61835], [130.94459, 42.63117], [130.94971, 42.65312], [130.93178, 42.65751], [130.89945, 42.65464], [130.84783, 42.66132], [130.80344, 42.65116], [130.787, 42.65377], [130.79595, 42.66284], [130.83204, 42.67406], [130.83701, 42.69159], [130.82546, 42.69932], [130.80179, 42.69685], [130.76929, 42.6816], [130.74564, 42.6811], [130.72076, 42.70002], [130.65667, 42.66408], [130.66079, 42.64318], [130.68344, 42.64353], [130.73291, 42.61554], [130.73689, 42.60724], [130.7295, 42.57917], [130.75462, 42.59721], [130.77417, 42.59682], [130.78354, 42.57917], [130.84212, 42.55853], [130.85499, 42.53925], [130.86963, 42.53546], [130.87288, 42.52765], [130.8702, 42.51798], [130.8646, 42.51729], [130.85849, 42.52456], [130.84303, 42.51976], [130.83814, 42.51024], [130.84496, 42.48632], [130.8387, 42.47236], [130.82325, 42.46504], [130.78663, 42.46186], [130.74307, 42.35345], [130.70359, 42.29525], [130.69555, 42.28901], [130.61662, 42.27232], [130.59756, 42.26279], [130.59498, 42.29816], [130.56937, 42.31526], [130.54051, 42.31838], [130.51019, 42.33578], [130.48068, 42.33975], [130.46565, 42.33475], [130.46938, 42.32208], [130.45645, 42.31178], [130.4401, 42.30914], [130.41916, 42.3244], [130.40745, 42.32458], [130.40584, 42.30712], [130.38416, 42.2912], [130.38624, 42.27066], [130.39112, 42.26411], [130.40584, 42.2608], [130.40088, 42.24251], [130.37818, 42.25786], [130.36799, 42.25569], [130.36066, 42.24366], [130.36982, 42.23202], [130.35883, 42.22927], [130.35149, 42.21609], [130.33506, 42.214], [130.33063, 42.19151], [130.30704, 42.18317], [130.31563, 42.21888], [130.30742, 42.23629], [130.29418, 42.23704], [130.25136, 42.20529], [130.22898, 42.18246], [130.21493, 42.17464], [130.20227, 42.17355], [130.1993, 42.10131], [130.18531, 42.10391], [130.17392, 42.09878], [130.16025, 42.08511], [130.16658, 42.0771], [130.15943, 42.07285], [130.12007, 42.09008], [130.09277, 42.08981], [130.07304, 42.07846], [130.067, 42.05191], [130.05222, 42.05036], [130.04491, 42.03598], [130.03387, 41.99552], [130.02682, 41.99271], [130.01495, 42.0144], [130.00288, 42.01091], [130.00128, 41.99047], [129.98219, 41.98265], [130.00268, 41.96223], [129.98561, 41.95527], [129.97486, 41.94164], [129.97827, 41.94378], [129.96468, 41.89875], [129.95444, 41.89205], [129.93739, 41.9039], [129.91362, 41.91119], [129.89674, 41.90426], [129.88339, 41.85741], [129.88452, 41.82417], [129.86964, 41.79146], [129.85517, 41.78179], [129.85245, 41.76493], [129.84282, 41.7588], [129.82655, 41.77845], [129.81331, 41.77773], [129.77476, 41.75942], [129.74149, 41.68421], [129.71502, 41.67534], [129.69082, 41.64972], [129.6694, 41.57596], [129.6488, 41.5494], [129.66064, 41.52594], [129.65273, 41.49412], [129.6594, 41.46465], [129.7146, 41.41965], [129.73605, 41.42127], [129.75818, 41.39259], [129.7693, 41.38618], [129.79663, 41.38617], [129.80615, 41.37604], [129.78613, 41.32478], [129.77036, 41.31513], [129.75913, 41.29287], [129.71957, 41.16694], [129.71192, 41.12263], [129.72827, 41.08515], [129.71982, 41.05622], [129.72828, 40.9787], [129.75082, 40.95173], [129.76487, 40.94441], [129.75557, 40.93897], [129.74923, 40.91701], [129.75298, 40.90994], [129.73427, 40.8911], [129.73733, 40.87146], [129.71655, 40.8346], [129.7061, 40.83567], [129.69836, 40.84561], [129.66285, 40.83878], [129.57177, 40.83972], [129.55394, 40.82893], [129.55104, 40.81013], [129.532, 40.80728], [129.51807, 40.79548], [129.50624, 40.79208], [129.47653, 40.79388], [129.42695, 40.7813], [129.35169, 40.74534], [129.32783, 40.71813], [129.30323, 40.67367], [129.28664, 40.68358], [129.27014, 40.70798], [129.23348, 40.70571], [129.2177, 40.69635], [129.20643, 40.67555], [129.19775, 40.63801], [129.17456, 40.60366], [129.1726, 40.56892], [129.16124, 40.56555], [129.15089, 40.5459], [129.07756, 40.47258], [129.03012, 40.47397], [128.97581, 40.45993], [128.86052, 40.37186], [128.83053, 40.36739], [128.81331, 40.35492], [128.76404, 40.34653], [128.752, 40.33511], [128.72164, 40.33895], [128.68781, 40.3312], [128.66966, 40.31078], [128.65666, 40.31077], [128.65534, 40.32018], [128.63649, 40.31322], [128.61895, 40.29733], [128.61645, 40.27144], [128.65671, 40.25713], [128.66776, 40.24031], [128.6626, 40.22541], [128.66455, 40.20125], [128.65093, 40.19715], [128.62887, 40.18028], [128.58861, 40.18667], [128.5432, 40.16677], [128.52767, 40.14343], [128.51018, 40.13547], [128.4798, 40.13475], [128.44856, 40.10951], [128.43471, 40.10393], [128.41139, 40.09639], [128.39184, 40.09958], [128.36476, 40.09689], [128.33776, 40.06705], [128.32774, 40.02823], [128.3021, 40.03344], [128.28013, 40.06548], [128.26344, 40.0771], [128.23632, 40.0679], [128.22784, 40.05621], [128.23437, 40.02937], [128.19337, 40.02936], [128.15512, 40.01632], [128.14683, 40.01831], [128.13942, 40.02733], [128.00685, 40.04515], [127.9978, 40.02042], [127.96372, 40.0041], [127.94002, 39.97477], [127.93027, 39.97192], [127.90666, 39.98394], [127.89104, 39.96122], [127.88408, 39.90232], [127.8746, 39.89282], [127.78183, 39.8854], [127.79638, 39.87565], [127.79402, 39.86568], [127.76244, 39.85355], [127.72738, 39.85719], [127.69575, 39.8482], [127.67962, 39.81644], [127.66329, 39.80682], [127.6487, 39.8209], [127.62375, 39.83093], [127.60718, 39.81026], [127.59303, 39.80622], [127.56186, 39.784], [127.5494, 39.76106], [127.52084, 39.74697], [127.50131, 39.70722], [127.51222, 39.64948], [127.55274, 39.63678], [127.57031, 39.61786], [127.57454, 39.59504], [127.53677, 39.55201], [127.52044, 39.51047], [127.56298, 39.34373], [127.56209, 39.31623], [127.55444, 39.30598], [127.54347, 39.30196], [127.53184, 39.30513], [127.522, 39.31603], [127.52061, 39.32941], [127.54225, 39.37149], [127.50759, 39.40925], [127.49513, 39.43342], [127.48292, 39.437], [127.42554, 39.39253], [127.37843, 39.37885], [127.37843, 39.37149], [127.42555, 39.35712], [127.45387, 39.36798], [127.46726, 39.36392], [127.47338, 39.34756], [127.4668, 39.34016], [127.42555, 39.33048], [127.4083, 39.34325], [127.39194, 39.34186], [127.39827, 39.32368], [127.37897, 39.27089], [127.14587, 39.33183], [127.06653, 39.36632], [126.99732, 39.4121], [126.93251, 39.4787], [126.9713, 39.55233], [126.99594, 39.58324], [127.0436, 39.62928], [127.03573, 39.68473], [127.0358, 39.7301], [127.02985, 39.73703], [126.15984, 39.95848], [125.62652, 39.88793], [125.33511, 39.85648], [125.3292, 39.8505], [125.31438, 39.78732], [125.29997, 39.75379], [125.25881, 39.6908], [125.20221, 39.63486], [125.16908, 39.61052], [125.11281, 39.57889], [125.0975, 39.60273], [125.04771, 39.60421], [125.01809, 39.62402], [125.01059, 39.63532], [124.98635, 39.63899], [124.95826, 39.66201], [124.94728, 39.66299], [124.93783, 39.64584], [124.90185, 39.66194], [124.89267, 39.69196], [124.8816, 39.70417], [124.84913, 39.7215], [124.80308, 39.73046], [124.79916, 39.73981], [124.77062, 39.74183], [124.76039, 39.74801], [124.75644, 39.77066], [124.7461, 39.78294], [124.73951, 39.76211], [124.75472, 39.73374], [124.74462, 39.69136], [124.7571, 39.6879], [124.75303, 39.67247], [124.74053, 39.67179], [124.7298, 39.66529], [124.74389, 39.64435], [124.73514, 39.6416], [124.71641, 39.64713], [124.69502, 39.63754], [124.67492, 39.62208], [124.64906, 39.61212], [124.63745, 39.5905], [124.62381, 39.59797], [124.6294, 39.61164], [124.61867, 39.61474], [124.61082, 39.62865], [124.62857, 39.64475], [124.63216, 39.66294], [124.6451, 39.66947], [124.64991, 39.68366], [124.64698, 39.69758], [124.6238, 39.69356], [124.60947, 39.71467], [124.58482, 39.72358], [124.58912, 39.76586], [124.56602, 39.77888], [124.56172, 39.7865], [124.56406, 39.81428], [124.43442, 39.83076], [124.41774, 39.82454], [124.40359, 39.8415], [124.39658, 39.86555], [124.36255, 39.87175], [124.34181, 39.89997], [124.32156, 39.91267], [124.33213, 39.92511], [124.36996, 39.94001], [124.38308, 40.00267], [124.40579, 40.02778], [124.46583, 40.01529], [124.4996, 40.02253], [124.47926, 40.03075], [124.41025, 40.0362], [124.39146, 40.04829], [124.36996, 40.09829], [124.35825, 40.08906], [124.35694, 40.07632], [124.36257, 40.04655], [124.36132, 40.01118], [124.30787, 39.96109], [124.2942, 39.93378], [124.26637, 39.92695], [124.20215, 39.87862], [124.15504, 39.86131], [124.13721, 39.84236], [124.11818, 39.83317], [124.08815, 39.85187], [124.05521, 39.82982], [123.98569, 39.81026], [123.94215, 39.84056], [123.91065, 39.82454], [123.88754, 39.82291], [123.83434, 39.82912], [123.80763, 39.83759], [123.77304, 39.81836], [123.71982, 39.83068], [123.6697, 39.85661], [123.64308, 39.87857], [123.65675, 39.9195], [123.64015, 39.9147], [123.63095, 39.904], [123.59139, 39.78434], [123.56324, 39.76881], [123.54184, 39.79169], [123.53321, 39.79662], [123.51319, 39.7978], [123.48154, 39.77969], [123.44564, 39.73705], [123.42774, 39.72664], [123.41042, 39.73518], [123.40847, 39.746], [123.41041, 39.79662], [123.42115, 39.81322], [123.41708, 39.82453], [123.40309, 39.82355], [123.3982, 39.81834], [123.40358, 39.81025], [123.38672, 39.78963], [123.33937, 39.7849], [123.31406, 39.77612], [123.2732, 39.81025], [123.26414, 39.79732], [123.25717, 39.80109], [123.25204, 39.81708], [123.24472, 39.81403], [123.23585, 39.80244], [123.26351, 39.76764], [123.26538, 39.7541], [123.24903, 39.74825], [123.20997, 39.75495], [123.20419, 39.74506], [123.20639, 39.73469], [123.25513, 39.7241], [123.26912, 39.70759], [123.26587, 39.70109], [123.22342, 39.67989], [123.17432, 39.66577], [123.1287, 39.66487], [123.108, 39.69013], [123.05781, 39.67472], [123.0395, 39.67313], [123.00913, 39.68049], [122.99195, 39.66592], [122.97763, 39.66625], [122.97763, 39.65884], [122.99629, 39.64944], [122.99243, 39.63671], [122.96412, 39.61165], [122.94492, 39.6197], [122.8716, 39.60579], [122.84864, 39.61786], [122.78818, 39.57233], [122.77979, 39.56046], [122.71078, 39.53596], [122.68823, 39.51863], [122.67677, 39.51546], [122.64845, 39.53242], [122.63656, 39.50846], [122.5879, 39.467], [122.5621, 39.48676], [122.55323, 39.48135], [122.56105, 39.46796], [122.55542, 39.45601], [122.54005, 39.45401], [122.46982, 39.4167], [122.39633, 39.41104], [122.3833, 39.39566], [122.35597, 39.38788], [122.31885, 39.36201], [122.29005, 39.35098], [122.26742, 39.31803], [122.25148, 39.32368], [122.24005, 39.28547], [122.19857, 39.25121], [122.115, 39.20075], [122.1167, 39.18867], [122.1045, 39.15913], [122.13609, 39.15808], [122.16266, 39.14615], [122.12745, 39.14199], [122.07333, 39.10457], [122.04786, 39.09919], [122.03932, 39.09089], [122.05127, 39.06713], [122.04232, 39.05973], [121.98805, 39.06293], [121.95931, 39.04048], [121.94296, 39.03629], [121.90431, 39.04938], [121.88844, 39.04247], [121.91293, 39.03071], [121.92317, 39.009], [121.87941, 39.02741], [121.82692, 39.03628], [121.83798, 39.01508], [121.88013, 38.99701], [121.89526, 38.98102], [121.89464, 38.9706], [121.87116, 38.95053], [121.85987, 38.94466], [121.84792, 38.94747], [121.81177, 38.97268], [121.77247, 39.02196], [121.74488, 39.03351], [121.7247, 39.03018], [121.72006, 39.01952], [121.73877, 39.00897], [121.73877, 39.00155], [121.68019, 39.00898], [121.63575, 38.99531], [121.656, 38.99062], [121.65259, 38.96345], [121.6292, 38.95441], [121.59213, 38.94868], [121.58741, 38.94009], [121.61818, 38.92642], [121.65919, 38.92624], [121.67649, 38.92161], [121.69339, 38.90977], [121.70361, 38.89191], [121.70483, 38.87335], [121.6963, 38.86296], [121.67612, 38.87116], [121.65479, 38.85787], [121.58107, 38.86298], [121.55275, 38.85814], [121.51221, 38.82698], [121.50489, 38.82648], [121.49886, 38.81465], [121.48495, 38.80989], [121.38014, 38.8166], [121.34474, 38.81464], [121.28761, 38.78808], [121.23666, 38.79849], [121.21754, 38.77558], [121.2447, 38.77557], [121.19849, 38.72786], [121.17953, 38.72094], [121.15337, 38.72754], [121.13242, 38.75873], [121.11453, 38.76814], [121.13925, 38.7895], [121.13486, 38.80976], [121.11135, 38.84028], [121.11452, 38.85813], [121.15235, 38.8863], [121.14853, 38.89907], [121.09043, 38.89909], [121.08621, 38.90571], [121.11794, 38.94342], [121.17953, 38.95432], [121.202, 38.94286], [121.21949, 38.9405], [121.25685, 38.94965], [121.29184, 38.96734], [121.33432, 38.96857], [121.34034, 38.97761], [121.32677, 39.01203], [121.33413, 39.02639], [121.35231, 39.03806], [121.37455, 39.04409], [121.40307, 39.03841], [121.4192, 39.01854], [121.42807, 39.01472], [121.4673, 39.01512], [121.48634, 39.0196], [121.54648, 39.04925], [121.63233, 39.06948], [121.67408, 39.08804], [121.68979, 39.11815], [121.681, 39.13642], [121.64919, 39.15815], [121.64194, 39.17621], [121.62962, 39.17333], [121.60671, 39.18082], [121.59264, 39.1922], [121.60792, 39.20075], [121.60167, 39.22125], [121.62631, 39.22451], [121.63307, 39.23615], [121.58996, 39.26405], [121.61199, 39.27497], [121.64193, 39.27215], [121.64698, 39.26488], [121.68019, 39.27521], [121.7361, 39.31175], [121.73829, 39.31965], [121.73131, 39.33047], [121.76498, 39.36523], [121.77953, 39.37138], [121.83749, 39.36465], [121.86549, 39.37055], [121.91505, 39.39541], [121.94296, 39.39936], [121.93124, 39.41718], [121.89869, 39.39936], [121.84858, 39.38732], [121.83066, 39.38509], [121.74537, 39.3979], [121.70777, 39.39566], [121.71777, 39.3715], [121.54925, 39.3619], [121.5259, 39.36466], [121.49196, 39.38899], [121.46144, 39.4737], [121.43605, 39.50861], [121.39951, 39.52021], [121.35402, 39.5222], [121.30616, 39.50179], [121.27272, 39.51545], [121.23683, 39.51473], [121.22781, 39.51887], [121.22353, 39.52883], [121.22854, 39.53644], [121.24855, 39.5434], [121.26001, 39.56367], [121.30617, 39.59796], [121.32651, 39.60235], [121.38218, 39.60134], [121.4498, 39.6151], [121.47071, 39.63215], [121.4639, 39.64581], [121.49816, 39.65291], [121.52589, 39.61787], [121.5333, 39.6223], [121.53956, 39.63898], [121.5259, 39.65265], [121.55014, 39.67866], [121.53745, 39.69253], [121.51841, 39.68672], [121.50686, 39.69433], [121.49086, 39.72099], [121.46389, 39.7386], [121.45741, 39.74828], [121.48461, 39.764], [121.48732, 39.778], [121.47756, 39.78677], [121.47073, 39.81024], [121.50992, 39.82403], [121.53591, 39.86175], [121.56629, 39.85884], [121.61609, 39.8717], [121.63598, 39.89668], [121.68491, 39.9225], [121.70712, 39.92693], [121.75465, 39.91828], [121.77442, 39.92084], [121.79965, 39.94001], [121.80967, 39.96502], [121.83603, 39.97114], [121.85475, 39.98517], [121.87379, 39.9914], [121.88095, 40.00796], [121.87477, 40.0163], [121.82695, 40.02253], [121.88046, 40.0415], [121.92947, 40.07729], [121.93313, 40.10138], [121.99567, 40.12389], [122.00636, 40.15632], [121.99148, 40.18699], [122.01596, 40.18814], [122.03858, 40.19636], [122.09165, 40.22721], [122.10751, 40.26215], [122.10613, 40.31012], [122.18033, 40.35242], [122.21103, 40.3806], [122.20364, 40.42722], [122.24195, 40.42723], [122.25009, 40.43061], [122.25149, 40.45392], [122.2881, 40.47285], [122.28689, 40.48871], [122.30185, 40.50235], [122.29396, 40.52302], [122.27565, 40.54365], [122.22486, 40.57852], [122.1765, 40.58659], [122.1503, 40.60407], [122.1376, 40.62402], [122.16798, 40.65351], [122.17066, 40.68651], [122.15943, 40.70161], [122.13697, 40.68513], [122.12184, 40.68013], [122.10865, 40.69953], [122.04908, 40.74608], [121.87201, 40.81507], [121.8511, 40.83227], [121.84377, 40.85969], [121.84059, 40.9138], [121.82595, 40.94818], [121.8589, 40.96747], [121.87477, 40.98957], [121.86793, 40.9958], [121.82602, 40.97403], [121.77771, 40.93497], [121.78004, 40.90791], [121.73954, 40.84909], [121.59496, 40.84592], [121.57505, 40.84151], [121.51043, 40.87936], [121.45021, 40.88594], [121.44094, 40.89135], [121.42978, 40.9138], [121.36134, 40.93964], [121.33725, 40.92817], [121.29932, 40.89961], [121.27395, 40.90303], [121.25839, 40.92064], [121.24472, 40.90642], [121.22495, 40.92707], [121.20029, 40.93073], [121.17579, 40.92231], [121.11109, 40.87605], [121.07993, 40.86298], [121.08026, 40.8284], [121.06572, 40.8184], [121.06834, 40.8034], [121.05011, 40.79749], [121.02963, 40.82648], [121.00498, 40.83308], [120.98194, 40.82681], [120.96323, 40.80659], [120.9685, 40.7836], [120.93629, 40.75556], [120.93954, 40.74055], [120.99439, 40.73626], [121.01026, 40.73085], [121.02072, 40.71934], [120.96264, 40.70929], [120.94019, 40.69126], [120.868, 40.67869], [120.84776, 40.6831], [120.82532, 40.67403], [120.79842, 40.59968], [120.77003, 40.58576], [120.67879, 40.52192], [120.6591, 40.48377], [120.62094, 40.47443], [120.6041, 40.46516], [120.59702, 40.45002], [120.59736, 40.42243], [120.58407, 40.41373], [120.5621, 40.41132], [120.54566, 40.40241], [120.53907, 40.38288], [120.54753, 40.37616], [120.58838, 40.38431], [120.59114, 40.3673], [120.50176, 40.32691], [120.50488, 40.24909], [120.49251, 40.23127], [120.4723, 40.21454], [120.43631, 40.1946], [120.358, 40.1918], [120.33359, 40.187], [120.30903, 40.17967], [120.26131, 40.14673], [120.18898, 40.12617], [120.11859, 40.10009], [120.04457, 40.08096], [119.9744, 40.13212], [119.94626, 40.16011], [119.90981, 40.20766], [119.90038, 40.21044], [119.88974, 40.20687], [119.88557, 40.19762], [119.92685, 40.12219], [119.94377, 40.05273], [119.91531, 40.03615], [119.91198, 39.9981], [119.8755, 39.99474], [119.81105, 39.97305], [119.77442, 39.95052], [119.74965, 39.9524], [119.70821, 39.93495], [119.6609, 39.93268], [119.62061, 39.91105], [119.57186, 39.9043], [119.53559, 39.89083], [119.51987, 39.8583], [119.53068, 39.81471], [119.46679, 39.81485], [119.42941, 39.79531], [119.36787, 39.74835], [119.33961, 39.71556], [119.31394, 39.64095], [119.28492, 39.59546], [119.26759, 39.59797], [119.24537, 39.59447], [119.22324, 39.58466], [119.20859, 39.56957], [119.209, 39.5502], [119.243, 39.57069], [119.22934, 39.53596], [119.24269, 39.54588], [119.26241, 39.57751], [119.27014, 39.58064], [119.28138, 39.57501], [119.26198, 39.53508], [119.25642, 39.49311], [119.27091, 39.48887], [119.29709, 39.45521], [119.30506, 39.43298], [119.27942, 39.38401], [119.25565, 39.36553], [119.22585, 39.35778], [119.20335, 39.36344], [119.1848, 39.35481], [119.12913, 39.29394], [119.01563, 39.18977], [118.9935, 39.17963], [118.92603, 39.13062], [118.89431, 39.12443], [118.89431, 39.13182], [118.94199, 39.15913], [118.95631, 39.18806], [118.96998, 39.1933], [118.94557, 39.19212], [118.88065, 39.17281], [118.88551, 39.18525], [118.87143, 39.2001], [118.87379, 39.21381], [118.85898, 39.20751], [118.84052, 39.17564], [118.79598, 39.15179], [118.73742, 39.14745], [118.68125, 39.19012], [118.62955, 39.24764], [118.60897, 39.27967], [118.58106, 39.34168], [118.56722, 39.34337], [118.51734, 39.31733], [118.41541, 39.38294], [118.40362, 39.37501], [118.40812, 39.29206], [118.39206, 39.22091], [118.35859, 39.15436], [118.28476, 39.04174], [118.23529, 39.05311], [118.20713, 39.07671], [118.17094, 39.13525], [118.14053, 39.17284], [118.0964, 39.20239], [118.04538, 39.21897], [117.93116, 39.2121], [117.88559, 39.20112], [117.75732, 39.11446], [117.73756, 39.1064], [117.71542, 39.1114], [117.71827, 39.093], [117.75147, 39.06791], [117.77525, 38.98106], [117.7295, 38.98436], [117.70192, 38.99531], [117.70875, 38.98102], [117.584, 38.81159], [117.57626, 38.77375], [117.57321, 38.71375], [117.55878, 38.69094], [117.56046, 38.6571], [117.54355, 38.62132], [117.56596, 38.6125], [117.66805, 38.44616], [117.71608, 38.37851], [117.80389, 38.29402], [117.83717, 38.2709], [117.94169, 38.23394], [117.97754, 38.19484], [117.989, 38.19855], [118.00719, 38.197], [118.05372, 38.17325], [118.05777, 38.16108], [118.05241, 38.15366], [118.06521, 38.14308], [118.08481, 38.13874], [118.11923, 38.15228], [118.14609, 38.14248], [118.21608, 38.14492], [118.44925, 38.10771], [118.51229, 38.08807], [118.54298, 38.06834], [118.57301, 38.0799], [118.61562, 38.12498], [118.65488, 38.14569], [118.76006, 38.15511], [118.8401, 38.15256], [118.95002, 38.09726], [118.92481, 38.05777], [118.94198, 38.04938], [118.95614, 38.03359], [118.9734, 37.99649], [118.99659, 37.96312], [119.0484, 37.94797], [119.09248, 37.91277], [119.11694, 37.85327], [119.1557, 37.82396], [119.20683, 37.80283], [119.24307, 37.76948], [119.25958, 37.71585], [119.25565, 37.67188], [119.21803, 37.67522], [119.18931, 37.70073], [119.12014, 37.73751], [119.06947, 37.74063], [119.03713, 37.72209], [119.01074, 37.65376], [118.97665, 37.61091], [118.96998, 37.59345], [118.95786, 37.5314], [118.94459, 37.37812], [118.94947, 37.33617], [118.96119, 37.29564], [118.97242, 37.28067], [119.01473, 37.26983], [119.0586, 37.22761], [119.11499, 37.20111], [119.14552, 37.17886], [119.28712, 37.13727], [119.44117, 37.12055], [119.47511, 37.13328], [119.52425, 37.13904], [119.56373, 37.14178], [119.66074, 37.1376], [119.71681, 37.14159], [119.7706, 37.15184], [119.79185, 37.18056], [119.89731, 37.24942], [119.88673, 37.28465], [119.8463, 37.3437], [119.85891, 37.36017], [119.92897, 37.38459], [119.98829, 37.41328], [119.99782, 37.42181], [120.05982, 37.44042], [120.18759, 37.51179], [120.29762, 37.59789], [120.32252, 37.63239], [120.30641, 37.66519], [120.27858, 37.67243], [120.23567, 37.6747], [120.21569, 37.68407], [120.31186, 37.68626], [120.3685, 37.69473], [120.41098, 37.7121], [120.44313, 37.73818], [120.46339, 37.74774], [120.55616, 37.76138], [120.5936, 37.78188], [120.63526, 37.78872], [120.67433, 37.80199], [120.70493, 37.82094], [120.73805, 37.83396], [120.78492, 37.82965], [120.83668, 37.81598], [120.8777, 37.82965], [120.92554, 37.81935], [120.94075, 37.80646], [120.9288, 37.78872], [120.94093, 37.77399], [120.97535, 37.75137], [121.00537, 37.74428], [121.02198, 37.7167], [121.03256, 37.7104], [121.06699, 37.71353], [121.11329, 37.70823], [121.13794, 37.70115], [121.14851, 37.6894], [121.13217, 37.6645], [121.13014, 37.6518], [121.14851, 37.63788], [121.13551, 37.62629], [121.13437, 37.61054], [121.1421, 37.59467], [121.15537, 37.58259], [121.17164, 37.57709], [121.30812, 37.58124], [121.34474, 37.59081], [121.37452, 37.61054], [121.35405, 37.63786], [121.39327, 37.6226], [121.42975, 37.59688], [121.39845, 37.59487], [121.38144, 37.58299], [121.38168, 37.56611], [121.44678, 37.51959], [121.46395, 37.49945], [121.4769, 37.468], [121.53711, 37.45623], [121.57032, 37.42866], [121.59165, 37.42446], [121.67612, 37.4392], [121.65488, 37.45771], [121.63429, 37.46239], [121.58743, 37.45357], [121.60282, 37.47201], [121.63502, 37.48126], [121.65943, 37.47272], [121.73243, 37.46174], [121.93783, 37.46425], [121.95727, 37.4597], [121.95727, 37.45356], [121.94459, 37.44074], [121.9498, 37.4256], [121.98805, 37.4256], [121.99741, 37.43407], [121.97788, 37.47188], [121.98122, 37.48016], [121.99464, 37.48672], [122.02549, 37.52785], [122.06153, 37.53718], [122.07179, 37.5445], [122.06716, 37.56272], [122.09506, 37.54914], [122.10947, 37.55223], [122.12184, 37.56272], [122.13949, 37.5506], [122.15185, 37.53286], [122.15258, 37.51454], [122.13551, 37.50068], [122.12989, 37.48347], [122.14145, 37.45661], [122.16212, 37.43309], [122.1832, 37.41816], [122.22422, 37.45799], [122.24537, 37.45969], [122.2618, 37.45091], [122.27858, 37.4239], [122.29648, 37.41816], [122.45704, 37.41816], [122.47803, 37.42559], [122.48805, 37.41193], [122.57057, 37.40156], [122.59164, 37.40436], [122.60093, 37.41502], [122.6124, 37.4186], [122.68043, 37.41501], [122.68823, 37.40981], [122.68872, 37.38972], [122.67896, 37.37468], [122.6561, 37.38459], [122.61459, 37.37092], [122.57081, 37.34479], [122.59114, 37.31415], [122.59472, 37.29526], [122.55763, 37.31908], [122.54965, 37.31977], [122.56007, 37.27473], [122.59473, 37.23688], [122.60288, 37.20991], [122.6289, 37.19964], [122.6289, 37.19283], [122.57431, 37.18537], [122.56324, 37.17316], [122.57715, 37.15778], [122.5743, 37.14445], [122.54347, 37.15664], [122.51002, 37.15522], [122.48268, 37.13996], [122.4707, 37.11031], [122.46446, 37.11031], [122.46445, 37.15184], [122.45395, 37.15428], [122.44435, 37.13654], [122.43637, 37.08979], [122.4541, 37.07745], [122.45703, 37.06591], [122.41122, 37.03653], [122.40235, 37.02147], [122.40919, 37.00629], [122.42433, 37.00365], [122.43702, 37.01162], [122.43638, 37.02773], [122.46119, 37.03082], [122.51303, 37.02049], [122.54004, 37.02772], [122.5254, 36.94449], [122.53271, 36.92593], [122.52656, 36.91443], [122.50742, 36.89803], [122.49856, 36.90421], [122.5001, 36.91559], [122.51271, 36.93464], [122.49855, 36.93891], [122.49391, 36.9326], [122.45663, 36.92065], [122.43995, 36.91845], [122.4122, 36.92475], [122.40577, 36.92219], [122.40341, 36.90664], [122.42945, 36.88812], [122.43636, 36.87068], [122.43074, 36.86455], [122.40267, 36.85707], [122.38559, 36.86323], [122.37973, 36.8614], [122.37573, 36.84956], [122.35523, 36.8291], [122.31983, 36.82296], [122.20059, 36.84271], [122.18533, 36.84993], [122.18069, 36.8664], [122.18478, 36.88475], [122.19688, 36.89801], [122.26588, 36.89802], [122.25294, 36.90595], [122.2112, 36.91845], [122.1627, 36.9458], [122.17856, 36.98627], [122.1797, 37.0058], [122.16611, 37.01411], [122.14999, 37.00532], [122.14918, 36.96214], [122.14291, 36.9458], [122.09433, 36.95091], [122.08089, 36.91658], [122.06498, 36.90665], [122.03307, 36.89803], [122.03762, 36.96368], [122.0538, 36.97525], [122.04916, 36.97993], [122.02931, 36.98676], [121.92628, 36.9936], [121.91489, 36.98583], [121.92335, 36.96849], [121.94957, 36.93878], [121.91512, 36.92024], [121.78598, 36.89118], [121.75587, 36.8723], [121.74487, 36.84724], [121.72832, 36.83603], [121.64944, 36.81608], [121.64942, 36.82225], [121.68417, 36.83592], [121.68417, 36.84276], [121.65821, 36.84016], [121.63746, 36.83137], [121.62452, 36.81477], [121.62143, 36.78876], [121.63427, 36.74657], [121.62525, 36.74039], [121.60354, 36.74967], [121.59425, 36.76765], [121.58302, 36.76285], [121.56007, 36.76765], [121.52589, 36.75398], [121.50352, 36.76045], [121.49644, 36.77448], [121.50319, 36.78863], [121.54737, 36.79816], [121.57302, 36.81964], [121.59522, 36.82632], [121.60475, 36.83251], [121.60719, 36.84496], [121.58814, 36.84618], [121.54648, 36.83592], [121.52222, 36.81217], [121.51157, 36.80858], [121.49815, 36.81087], [121.49228, 36.82392], [121.48439, 36.82909], [121.45948, 36.82868], [121.45297, 36.81639], [121.45802, 36.80195], [121.4707, 36.78962], [121.45337, 36.7574], [121.44459, 36.75347], [121.40895, 36.75397], [121.39015, 36.74681], [121.37778, 36.73151], [121.3794, 36.71699], [121.40167, 36.71239], [121.38496, 36.70649], [121.31422, 36.71182], [121.15773, 36.66861], [121.12802, 36.65095], [121.08017, 36.61002], [121.06276, 36.61006], [121.04249, 36.62767], [121.03248, 36.62425], [121.03252, 36.58971], [121.02353, 36.58394], [120.99838, 36.5895], [120.94468, 36.59123], [120.92882, 36.59635], [120.93653, 36.61196], [120.93336, 36.62027], [120.89292, 36.6284], [120.86476, 36.64672], [120.8506, 36.65095], [120.82407, 36.64399], [120.77084, 36.61719], [120.75058, 36.61685], [120.74692, 36.60318], [120.75756, 36.59634], [120.74228, 36.55585], [120.75025, 36.54076], [120.77866, 36.54108], [120.79379, 36.55097], [120.82643, 36.59633], [120.85035, 36.60455], [120.86458, 36.59771], [120.89479, 36.56159], [120.92024, 36.55328], [120.9275, 36.5329], [120.93849, 36.53437], [120.9568, 36.54791], [120.9636, 36.5477], [120.96142, 36.53144], [120.94117, 36.50971], [120.93629, 36.49702], [120.94994, 36.45918], [120.90626, 36.45238], [120.89479, 36.43867], [120.90096, 36.42768], [120.89838, 36.41184], [120.87427, 36.38061], [120.86744, 36.3772], [120.84971, 36.38614], [120.844, 36.42268], [120.82644, 36.43253], [120.83204, 36.45527], [120.8069, 36.46393], [120.75058, 36.45917], [120.73706, 36.43867], [120.71412, 36.4287], [120.68653, 36.38715], [120.69068, 36.37084], [120.72216, 36.33056], [120.70728, 36.32267], [120.66196, 36.33633], [120.64772, 36.33088], [120.64365, 36.3225], [120.66194, 36.3015], [120.65455, 36.28828], [120.67049, 36.26563], [120.68751, 36.18789], [120.70483, 36.15624], [120.69653, 36.14388], [120.62778, 36.11654], [120.61671, 36.12336], [120.5936, 36.10978], [120.5652, 36.11579], [120.55161, 36.11371], [120.54589, 36.09977], [120.53622, 36.09147], [120.47364, 36.08926], [120.42172, 36.06197], [120.36948, 36.04877], [120.35353, 36.04085], [120.32472, 36.0572], [120.29202, 36.06197], [120.29202, 36.0681], [120.30844, 36.07953], [120.3135, 36.10448], [120.33497, 36.13613], [120.36158, 36.19164], [120.3392, 36.2226], [120.32278, 36.22639], [120.30641, 36.27424], [120.28647, 36.26382], [120.27353, 36.23428], [120.27516, 36.20409], [120.29882, 36.19163], [120.28451, 36.17598], [120.21633, 36.19913], [120.21909, 36.22191], [120.18678, 36.21906], [120.14454, 36.2089], [120.11728, 36.20966], [120.10816, 36.22553], [120.09718, 36.22639], [120.08595, 36.20913], [120.10532, 36.20087], [120.10921, 36.18879], [120.08937, 36.14769], [120.08969, 36.11172], [120.10019, 36.0961], [120.15405, 36.07704], [120.16846, 36.06195], [120.1753, 35.99364], [120.18605, 35.98452], [120.19776, 35.9853], [120.22998, 35.99989], [120.2295, 35.97281], [120.24277, 35.97358], [120.28077, 35.99824], [120.28493, 36.01092], [120.30315, 35.9938], [120.30526, 35.98701], [120.29883, 35.97314], [120.28443, 35.9626], [120.2444, 35.95307], [120.22682, 35.94184], [120.17531, 35.89007], [120.17051, 35.90746], [120.18971, 35.93155], [120.18898, 35.94526], [120.16847, 35.93842], [120.13575, 35.90413], [120.09718, 35.90082], [120.05226, 35.86262], [120.03883, 35.84284], [120.01977, 35.75976], [120.00293, 35.72778], [119.96999, 35.73238], [119.93776, 35.76113], [119.90821, 35.74486], [119.90016, 35.73627], [119.93562, 35.70502], [119.90162, 35.67154], [119.90845, 35.63398], [119.90454, 35.62459], [119.85998, 35.60623], [119.84328, 35.6158], [119.83409, 35.63532], [119.8401, 35.6579], [119.81162, 35.6479], [119.771, 35.59334], [119.74392, 35.57594], [119.74838, 35.60932], [119.74391, 35.61689], [119.73251, 35.62084], [119.70712, 35.61416], [119.69655, 35.59933], [119.64796, 35.58393], [119.6041, 35.48802], [119.59973, 35.46894], [119.56454, 35.42471], [119.5622, 35.40042], [119.55151, 35.38004], [119.50765, 35.33235], [119.46957, 35.32149], [119.42872, 35.32148], [119.42392, 35.31346], [119.42187, 35.27741], [119.40455, 35.25373], [119.38771, 35.20539], [119.3706, 35.11742], [119.35799, 35.09712], [119.33619, 35.0887], [119.2212, 35.06403], [119.21266, 35.05801], [119.19288, 35.00043], [119.19288, 34.97403], [119.20337, 34.93163], [119.1887, 34.85627], [119.19313, 34.80988], [119.2019, 34.78498], [119.18906, 34.76655], [119.19531, 34.75971], [119.18873, 34.73306], [119.19223, 34.71821], [119.20338, 34.7119], [119.20981, 34.71857], [119.22935, 34.7597], [119.24179, 34.76165], [119.29135, 34.75348], [119.31178, 34.75507], [119.32496, 34.76], [119.34669, 34.78081], [119.38771, 34.75348], [119.44222, 34.74603], [119.46322, 34.73236], [119.4742, 34.71527], [119.47273, 34.69815], [119.45655, 34.68456], [119.53175, 34.61571], [119.58871, 34.58221], [119.60922, 34.56273], [119.64095, 34.55052], [119.64772, 34.53384], [119.68555, 34.53381], [119.72849, 34.52422], [119.75122, 34.51421], [119.79526, 34.48168], [119.82618, 34.4704], [119.90504, 34.4649], [119.94021, 34.45781], [120.02277, 34.41948], [120.0787, 34.37751], [120.11818, 34.3596], [120.23975, 34.32367], [120.25708, 34.31183], [120.27418, 34.24453], [120.29883, 34.20425], [120.32495, 34.13645], [120.32522, 34.1113], [120.36689, 34.04313], [120.23747, 33.96831], [120.16337, 33.93385], [120.08282, 33.9121], [120.04102, 33.90625], [119.9604, 33.90476], [119.91332, 34.00111], [119.89833, 34.04785], [119.82834, 34.0832], [119.78749, 34.11009], [119.7415, 34.11542], [119.50239, 33.96982], [119.45214, 33.79902], [119.39253, 33.62029], [119.06852, 33.46193], [118.71181, 33.44904], [118.09347, 32.99694], [117.42264, 33.03322], [117.22884, 32.99475], [116.59291, 32.44195], [116.07349, 32.56933], [115.55287, 32.4013], [114.43295, 32.36844], [113.90338, 32.43176], [113.14226, 32.20273], [112.68794, 32.19994], [112.3587, 32.31776], [111.5171, 32.86314], [110.94825, 33.11681], [110.3395, 33.19409], [109.42301, 33.04196], [109.07829, 33.05525], [108.79311, 33.18239], [108.22978, 33.63686], [107.71082, 33.86192], [107.13647, 33.97841], [106.24919, 34.03461], [105.64231, 33.99576], [105.29665, 33.85949], [105.06033, 33.57896], [105.07775, 33.44403], [105.21888, 33.33981], [105.14725, 33.37117], [105.07333, 33.43615], [104.93565, 33.7669], [104.52461, 33.83437], [104.36156, 33.94311], [104.30038, 34.13277], [104.40581, 34.77817], [104.16945, 35.16873], [103.80154, 35.33498], [103.26401, 35.30183], [103.12073, 35.34478], [103.08817, 36.08847], [103.3991, 36.34132], [103.66514, 36.75677], [104.17574, 36.97253], [104.52693, 36.99078], [104.74574, 36.9335], [105.26244, 36.39712]]], [[[122.53589, 39.22355], [122.49798, 39.21936], [122.48798, 39.23313], [122.52638, 39.23184], [122.54045, 39.23427], [122.54443, 39.23033], [122.53589, 39.22355]]], [[[122.64389, 39.2785], [122.68438, 39.2622], [122.64308, 39.25508], [122.58619, 39.25801], [122.53347, 39.27168], [122.50508, 39.29693], [122.54656, 39.29693], [122.58473, 39.28437], [122.64389, 39.2785]]], [[[121.37526, 39.44237], [121.36427, 39.44546], [121.34059, 39.44033], [121.29615, 39.39143], [121.27296, 39.38509], [121.25947, 39.39151], [121.25868, 39.41262], [121.26589, 39.43357], [121.31105, 39.44794], [121.32016, 39.45401], [121.33132, 39.47577], [121.34059, 39.48134], [121.35255, 39.4824], [121.38844, 39.47451], [121.42253, 39.4745], [121.44241, 39.46285], [121.45045, 39.45026], [121.43828, 39.441], [121.41627, 39.44033], [121.41627, 39.43354], [121.42555, 39.43012], [121.43557, 39.416], [121.43359, 39.38581], [121.42171, 39.37369], [121.40322, 39.37061], [121.33694, 39.37739], [121.33629, 39.38754], [121.37965, 39.42487], [121.3816, 39.43354], [121.37526, 39.44237]]], [[[120.79185, 40.50701], [120.79998, 40.50707], [120.80665, 40.51625], [120.82105, 40.51125], [120.82592, 40.4923], [120.81804, 40.48453], [120.80266, 40.48286], [120.78508, 40.4707], [120.77729, 40.47464], [120.77436, 40.48542], [120.79217, 40.49775], [120.79185, 40.50701]]], [[[123.08154, 39.42367], [123.06065, 39.43221], [123.04869, 39.44717], [123.05568, 39.45477], [123.0935, 39.44293], [123.08578, 39.44249], [123.08154, 39.42367]]], [[[123.04003, 39.52973], [123.02995, 39.50789], [123.0057, 39.49731], [122.97976, 39.49935], [122.96438, 39.51545], [122.96804, 39.54108], [122.98976, 39.54949], [123.01758, 39.54449], [123.04003, 39.52973]]], [[[124.62372, 39.56005], [124.67417, 39.57061], [124.69125, 39.56964], [124.69808, 39.56289], [124.68866, 39.54648], [124.62372, 39.56005]]], [[[124.92672, 39.60478], [124.90967, 39.59355], [124.93359, 39.55055], [124.87809, 39.52302], [124.8541, 39.52333], [124.85697, 39.5279], [124.84279, 39.53843], [124.84564, 39.54323], [124.85659, 39.54423], [124.85974, 39.55314], [124.85442, 39.55658], [124.85449, 39.57375], [124.87052, 39.58093], [124.86972, 39.59565], [124.88177, 39.60387], [124.88049, 39.61245], [124.89919, 39.61412], [124.92672, 39.60478]]], [[[124.52174, 39.71152], [124.51753, 39.71767], [124.54186, 39.73134], [124.54882, 39.73012], [124.53557, 39.72089], [124.5267, 39.72016], [124.52174, 39.71152]]], [[[124.23987, 39.81262], [124.24162, 39.80186], [124.23039, 39.79826], [124.226, 39.79143], [124.21167, 39.79517], [124.22101, 39.81897], [124.23001, 39.82116], [124.23987, 39.81262]]], [[[124.33483, 39.86572], [124.33263, 39.88321], [124.34116, 39.8852], [124.35263, 39.87523], [124.34497, 39.86299], [124.33483, 39.86572]]], [[[124.33025, 39.90082], [124.34034, 39.89281], [124.3353, 39.88862], [124.31926, 39.8966], [124.32075, 39.9007], [124.33025, 39.90082]]], [[[124.3589, 39.96213], [124.36085, 39.94904], [124.34492, 39.93937], [124.35175, 39.95371], [124.3589, 39.96213]]], [[[128.16538, 39.99713], [128.17595, 39.9975], [128.17482, 40.00926], [128.19801, 40.00161], [128.20794, 40.00949], [128.21176, 39.99616], [128.22463, 40.01259], [128.22908, 40.01145], [128.21979, 39.99223], [128.19597, 39.98645], [128.16823, 39.98726], [128.16319, 39.99291], [128.16538, 39.99713]]], [[[130.27368, 42.17726], [130.28499, 42.17031], [130.28775, 42.15693], [130.27394, 42.14632], [130.26158, 42.16186], [130.27368, 42.17726]]], [[[130.90644, 42.45991], [130.91002, 42.47178], [130.93116, 42.47568], [130.93505, 42.4702], [130.91456, 42.45589], [130.90644, 42.45991]]], [[[131.42041, 42.64337], [131.43588, 42.64366], [131.45509, 42.65164], [131.45917, 42.67015], [131.472, 42.67076], [131.46306, 42.6555], [131.46175, 42.6372], [131.42041, 42.64337]]], [[[132.34507, 42.72742], [132.33774, 42.75064], [132.32797, 42.74739], [132.31562, 42.74971], [132.31139, 42.75955], [132.32782, 42.77293], [132.34231, 42.77803], [132.35574, 42.77199], [132.36612, 42.732], [132.34507, 42.72742]]], [[[132.39968, 42.85212], [132.42751, 42.89589], [132.43921, 42.89203], [132.45361, 42.86091], [132.44988, 42.82811], [132.47769, 42.8039], [132.47559, 42.80025], [132.45827, 42.7983], [132.42986, 42.82648], [132.40156, 42.83198], [132.39968, 42.85212]]], [[[131.67846, 42.87418], [131.66114, 42.87556], [131.65926, 42.86466], [131.65016, 42.85954], [131.63952, 42.86542], [131.65904, 42.88568], [131.67529, 42.89157], [131.67846, 42.87418]]], [[[131.7121, 42.91885], [131.71844, 42.92434], [131.74437, 42.92189], [131.74535, 42.90624], [131.72308, 42.89754], [131.71479, 42.9016], [131.7121, 42.91885]]], [[[131.73666, 42.95071], [131.72674, 42.9322], [131.71088, 42.95177], [131.71632, 42.95966], [131.70974, 42.97777], [131.71551, 42.98403], [131.72421, 42.98424], [131.72723, 42.99533], [131.75643, 42.9593], [131.73666, 42.95071]]], [[[131.89226, 43.03583], [131.92089, 43.02415], [131.92399, 43.00584], [131.91503, 42.98429], [131.883, 42.96076], [131.83725, 42.96114], [131.79054, 42.97456], [131.75703, 42.99005], [131.79119, 42.99628], [131.77459, 43.00533], [131.7694, 43.01537], [131.77346, 43.02117], [131.79119, 43.0174], [131.78736, 43.03437], [131.77779, 43.04473], [131.79884, 43.05263], [131.85939, 43.03726], [131.85939, 43.04462], [131.82654, 43.06516], [131.85498, 43.06134], [131.87573, 43.051], [131.89226, 43.03583]]]]}}]}