{"type": "FeatureCollection", "features": [{"type": "Feature", "properties": {"name": "타이", "name_en": "Siam (Thailand)", "period": "1914년경", "kind": "국가", "legend": "타이", "map_title": "제국주의 열강의 아시아·태평양 분할(1914년경)", "source": "미래엔 세계사 교과서 3권 157쪽", "volume": 3, "page": 157, "note": "독립국", "coast_snap": "Natural Earth 10m 해안선에 맞춤", "border_snap": "현대 국경(Natural Earth 10m)에 맞춘 구간 약 3244 km", "group": "타이", "map_folder": "3권_p157_제국주의 열강의 아시아·태평양 분할"}, "geometry": {"type": "MultiPolygon", "coordinates": [[[[99.05715, 7.50406], [99.03136, 7.56169], [99.02711, 7.62287], [99.02069, 7.63687], [99.02809, 7.64426], [99.03492, 7.64426], [99.07586, 7.60895], [99.07594, 7.57323], [99.08611, 7.53653], [99.11743, 7.4792], [99.09995, 7.46724], [99.07716, 7.4803], [99.05715, 7.50406]]], [[[98.35907, 7.58585], [98.36094, 7.60549], [98.37907, 7.61512], [98.38053, 7.60611], [98.36434, 7.586], [98.35907, 7.58585]]], [[[98.93785, 7.83805], [98.94468, 7.85254], [98.96574, 7.85211], [98.97803, 7.84332], [98.97967, 7.83613], [98.9961, 7.83506], [98.99642, 7.82075], [98.98618, 7.81131], [98.9917, 7.78783], [98.98634, 7.7841], [98.9454, 7.83495], [98.93785, 7.83805]]], [[[98.31153, 8.18552], [98.33008, 8.17047], [98.34352, 8.1092], [98.34962, 8.1092], [98.36012, 8.11883], [98.40553, 8.08251], [98.41286, 8.0943], [98.42262, 8.0993], [98.43213, 8.09593], [98.43913, 8.0825], [98.43841, 8.06556], [98.41863, 8.02729], [98.41862, 7.99316], [98.40219, 7.98102], [98.39747, 7.95502], [98.40895, 7.91771], [98.41863, 7.90375], [98.43165, 7.91741], [98.43962, 7.90192], [98.43978, 7.88663], [98.43181, 7.87495], [98.39967, 7.86457], [98.39536, 7.85049], [98.39811, 7.81503], [98.36232, 7.83242], [98.34392, 7.83291], [98.33252, 7.78596], [98.32308, 7.77095], [98.30909, 7.76774], [98.29185, 7.7775], [98.28664, 7.7917], [98.28142, 7.85594], [98.26915, 7.87892], [98.26776, 7.89008], [98.28533, 7.90375], [98.28142, 7.91743], [98.25417, 7.92829], [98.2741, 7.95368], [98.26597, 7.97378], [98.28142, 8.00308], [98.27443, 8.06932], [98.28826, 8.1092], [98.29021, 8.13011], [98.28144, 8.19179], [98.29566, 8.18496], [98.30291, 8.18804], [98.31153, 8.18552]]], [[[98.57088, 7.93916], [98.56325, 7.98631], [98.56805, 7.99334], [98.58041, 7.99616], [98.58229, 8.01537], [98.57439, 8.03181], [98.55487, 8.03694], [98.53689, 8.0712], [98.53099, 8.08876], [98.5285, 8.12346], [98.54054, 8.10493], [98.58692, 8.07928], [98.60245, 8.06324], [98.61035, 8.03473], [98.61182, 7.9263], [98.60352, 7.90377], [98.58823, 7.90494], [98.57733, 7.91963], [98.57088, 7.93916]]], [[[98.59242, 8.14699], [98.62404, 8.19179], [98.63208, 8.18975], [98.63753, 8.17129], [98.62085, 8.09001], [98.57981, 8.10603], [98.57009, 8.11888], [98.57472, 8.12498], [98.59669, 8.13032], [98.59242, 8.14699]]], [[[98.26157, 8.87858], [98.2532, 8.89764], [98.251, 8.91844], [98.25587, 8.96638], [98.25222, 8.99701], [98.26092, 9.01291], [98.2793, 9.00933], [98.29888, 8.99752], [98.31088, 8.97816], [98.30698, 8.95791], [98.27052, 8.87718], [98.26157, 8.87858]]], [[[98.27394, 9.03597], [98.25425, 9.03682], [98.2405, 9.04898], [98.25083, 9.15403], [98.27328, 9.15998], [98.28223, 9.15672], [98.30797, 9.13284], [98.32277, 9.09777], [98.323, 9.07624], [98.30201, 9.05516], [98.30932, 9.04898], [98.27394, 9.03597]]], [[[98.30617, 9.2575], [98.31446, 9.25758], [98.31844, 9.24905], [98.29379, 9.20795], [98.29727, 9.19706], [98.28109, 9.17606], [98.26979, 9.16828], [98.26516, 9.17561], [98.26595, 9.19639], [98.30617, 9.2575]]], [[[98.39812, 9.70626], [98.38495, 9.72793], [98.38967, 9.74241], [98.41162, 9.77452], [98.41781, 9.74706], [98.41667, 9.73347], [98.39812, 9.70626]]], [[[98.46119, 9.81517], [98.45687, 9.78712], [98.45004, 9.79715], [98.44248, 9.7959], [98.43695, 9.8022], [98.43567, 9.82473], [98.44394, 9.83047], [98.44549, 9.84329], [98.44013, 9.85464], [98.452, 9.87009], [98.46225, 9.8594], [98.47444, 9.85829], [98.46608, 9.83894], [98.4694, 9.8192], [98.46582, 9.8127], [98.46119, 9.81517]]], [[[98.29411, 10.01911], [98.28825, 10.00797], [98.26922, 10.00259], [98.2439, 9.96012], [98.20297, 9.93769], [98.21832, 10.03997], [98.23464, 10.05417], [98.25441, 10.06268], [98.27516, 10.05565], [98.28248, 10.05938], [98.29565, 10.05564], [98.29565, 10.04891], [98.28004, 10.05101], [98.27394, 10.04804], [98.27516, 10.03583], [98.29411, 10.01911]]], [[[98.52849, 10.82005], [98.52556, 10.82685], [98.51832, 10.8295], [98.50051, 10.82348], [98.49091, 10.8808], [98.49367, 10.89108], [98.5188, 10.87908], [98.54224, 10.86005], [98.55322, 10.83283], [98.54151, 10.79622], [98.52711, 10.78694], [98.50954, 10.78662], [98.4984, 10.79361], [98.50417, 10.80609], [98.52638, 10.81086], [98.52849, 10.82005]]], [[[98.44584, 11.0026], [98.45142, 11.00193], [98.45288, 10.98628], [98.44042, 10.96573], [98.43296, 10.96504], [98.44584, 11.0026]]], [[[98.53383, 10.95103], [98.52849, 10.97431], [98.51206, 10.96524], [98.50798, 10.94637], [98.48586, 10.95589], [98.47707, 10.9737], [98.48107, 10.99819], [98.48684, 11.00844], [98.50953, 11.02774], [98.51588, 11.04536], [98.51418, 11.06989], [98.52467, 11.08664], [98.5319, 11.0838], [98.54461, 11.03102], [98.54151, 10.95381], [98.53383, 10.95103]]], [[[99.8392, 6.45482], [99.83279, 6.47084], [99.85088, 6.46574], [99.86647, 6.42967], [99.89892, 6.41034], [99.89759, 6.40205], [99.91333, 6.3902], [99.90062, 6.3643], [99.91626, 6.33153], [99.9062, 6.32624], [99.83617, 6.33038], [99.80144, 6.33765], [99.73534, 6.36205], [99.67488, 6.39912], [99.64546, 6.42418], [99.64524, 6.43583], [99.66944, 6.42689], [99.68857, 6.43522], [99.72137, 6.43414], [99.73648, 6.42398], [99.77093, 6.41984], [99.786, 6.42285], [99.80225, 6.43605], [99.8143, 6.45403], [99.8392, 6.45482]]], [[[99.67579, 6.52456], [99.67041, 6.50146], [99.65871, 6.49235], [99.64683, 6.50968], [99.63415, 6.55206], [99.60028, 6.58345], [99.60305, 6.59699], [99.62387, 6.62271], [99.62388, 6.65741], [99.64243, 6.67133], [99.6506, 6.71754], [99.65699, 6.7238], [99.6805, 6.67292], [99.68029, 6.62404], [99.70443, 6.55829], [99.69971, 6.53328], [99.67579, 6.52456]]], [[[99.857, 6.73615], [99.86751, 6.71004], [99.85206, 6.70695], [99.84217, 6.712], [99.84524, 6.72841], [99.857, 6.73615]]], [[[99.57432, 7.09069], [99.5578, 7.11888], [99.56641, 7.12066], [99.59978, 7.1037], [99.6167, 7.08418], [99.61109, 7.07951], [99.57432, 7.09069]]], [[[99.4458, 7.25091], [99.45385, 7.23901], [99.41725, 7.23534], [99.38331, 7.19409], [99.37819, 7.20181], [99.37786, 7.25258], [99.38552, 7.27557], [99.41912, 7.25658], [99.4458, 7.25091]]], [[[99.06707, 7.67519], [99.1045, 7.66937], [99.12427, 7.65737], [99.12744, 7.62519], [99.11744, 7.5959], [99.09987, 7.59664], [99.08766, 7.61205], [99.06959, 7.62255], [99.04462, 7.66339], [99.06707, 7.67519]]], [[[98.97679, 9.9482], [98.95528, 9.87739], [98.92411, 9.81811], [98.93981, 9.69948], [98.95055, 9.69396], [98.99623, 9.71137], [99.06585, 9.72515], [99.102, 9.72693], [99.16271, 9.7215], [99.17286, 9.66523], [99.18141, 9.64326], [99.21218, 9.59747], [99.22316, 9.54263], [99.26531, 9.46601], [99.32356, 9.39155], [99.29078, 9.39008], [99.28874, 9.37727], [99.25465, 9.35684], [99.23552, 9.33633], [99.23024, 9.31977], [99.23414, 9.27827], [99.25506, 9.23249], [99.30177, 9.2226], [99.35075, 9.21917], [99.37818, 9.19294], [99.44386, 9.19599], [99.47478, 9.201], [99.50172, 9.22028], [99.5215, 9.26992], [99.53582, 9.28167], [99.54819, 9.28314], [99.59352, 9.27485], [99.61012, 9.27798], [99.64112, 9.29468], [99.67237, 9.30219], [99.68947, 9.31585], [99.73374, 9.31216], [99.73952, 9.32049], [99.75278, 9.31976], [99.78159, 9.30842], [99.8034, 9.32264], [99.81544, 9.31118], [99.85352, 9.29466], [99.85304, 9.27399], [99.85963, 9.25776], [99.87778, 9.22647], [99.88599, 9.23328], [99.88648, 9.1579], [99.89145, 9.13833], [99.91626, 9.10199], [99.9194, 9.08672], [99.91944, 9.0384], [99.9331, 9.00056], [99.91944, 8.98005], [99.91944, 8.9558], [99.93115, 8.87897], [99.92628, 8.86335], [99.93921, 8.83246], [99.95924, 8.63764], [99.96713, 8.60566], [99.98414, 8.57941], [100.04077, 8.54555], [100.07594, 8.4704], [100.09212, 8.44643], [100.09848, 8.42646], [100.10434, 8.41767], [100.13851, 8.40094], [100.14422, 8.38882], [100.15756, 8.38573], [100.18629, 8.3972], [100.1771, 8.42622], [100.17506, 8.46646], [100.16481, 8.50137], [100.13114, 8.51455], [100.15064, 8.52292], [100.18063, 8.50136], [100.20834, 8.46967], [100.22053, 8.44855], [100.27148, 8.31708], [100.30291, 8.11856], [100.4402, 7.477], [100.50063, 7.334], [100.56719, 7.22949], [100.5746, 7.20915], [100.57399, 7.19499], [100.54814, 7.19706], [100.49963, 7.24233], [100.47242, 7.25886], [100.44434, 7.25783], [100.42556, 7.26756], [100.43898, 7.29414], [100.42902, 7.32671], [100.42232, 7.36997], [100.40813, 7.3787], [100.41, 7.45832], [100.40602, 7.52766], [100.38951, 7.56618], [100.35893, 7.57861], [100.32556, 7.57448], [100.28973, 7.51836], [100.27255, 7.53127], [100.26882, 7.55744], [100.27557, 7.57696], [100.30958, 7.59772], [100.3235, 7.6164], [100.327, 7.65522], [100.32057, 7.70795], [100.30698, 7.75788], [100.28875, 7.78832], [100.2697, 7.7954], [100.21062, 7.78091], [100.15642, 7.73338], [100.14479, 7.71943], [100.14291, 7.70002], [100.15463, 7.61579], [100.17261, 7.56802], [100.1854, 7.51423], [100.22523, 7.47925], [100.26051, 7.39362], [100.27882, 7.36221], [100.30299, 7.34268], [100.34978, 7.33929], [100.37012, 7.3327], [100.37866, 7.31134], [100.38494, 7.2663], [100.39381, 7.25853], [100.41766, 7.25349], [100.42685, 7.24531], [100.40187, 7.23355], [100.39234, 7.22256], [100.39552, 7.21133], [100.41085, 7.19863], [100.42444, 7.17121], [100.43656, 7.16014], [100.45062, 7.15532], [100.46614, 7.15723], [100.4948, 7.13662], [100.51999, 7.13555], [100.55587, 7.14469], [100.58863, 7.17959], [100.58542, 7.22438], [100.76515, 6.98314], [100.78443, 6.96711], [100.82735, 6.9517], [100.84994, 6.96205], [100.89637, 6.91964], [100.94811, 6.88073], [100.99757, 6.85667], [101.19142, 6.86188], [101.23152, 6.88032], [101.24427, 6.90202], [101.27773, 6.89624], [101.29156, 6.8848], [101.31715, 6.87592], [101.35133, 6.87592], [101.34358, 6.89614], [101.3283, 6.91787], [101.26257, 6.94477], [101.29173, 6.95456], [101.32081, 6.94928], [101.38521, 6.90522], [101.48786, 6.87839], [101.55738, 6.84177], [101.6683, 6.65864], [101.77166, 6.50072], [101.80836, 6.46455], [101.90869, 6.40191], [102.02003, 6.29564], [102.15211, 6.20319], [102.16358, 6.1975], [102.18702, 6.20344], [102.19166, 6.21507], [102.18312, 6.22305], [102.16687, 6.21798], [102.17808, 6.23362], [102.19955, 6.2328], [102.22904, 6.22203], [102.22474, 6.20523], [102.06815, 6.17952], [102.07127, 6.12666], [102.06, 6.0948], [102.03344, 6.06839], [101.95939, 6.0116], [101.93474, 5.98173], [101.91975, 5.94026], [101.91929, 5.89757], [101.91293, 5.85931], [101.86921, 5.82386], [101.85474, 5.79766], [101.8255, 5.77983], [101.82022, 5.77373], [101.81227, 5.75254], [101.80048, 5.73991], [101.78415, 5.7381], [101.76286, 5.74955], [101.74002, 5.78236], [101.72679, 5.78647], [101.71475, 5.7829], [101.69661, 5.76626], [101.68669, 5.7612], [101.66592, 5.76559], [101.65036, 5.78265], [101.63078, 5.8284], [101.63408, 5.85559], [101.60515, 5.8661], [101.57931, 5.90633], [101.55791, 5.91135], [101.53466, 5.90602], [101.39265, 5.85109], [101.35756, 5.82841], [101.31896, 5.81009], [101.27969, 5.80303], [101.24899, 5.78699], [101.23359, 5.71942], [101.22502, 5.69921], [101.2123, 5.68152], [101.19685, 5.66681], [101.14998, 5.63865], [101.12218, 5.62989], [101.10544, 5.63764], [101.07877, 5.68777], [101.0598, 5.70958], [101.03733, 5.72459], [101.00839, 5.72567], [100.99862, 5.72955], [100.9672, 5.78102], [100.96529, 5.79241], [100.96772, 5.80412], [101.01531, 5.89835], [101.03185, 5.90892], [101.07112, 5.91985], [101.07877, 5.93817], [101.08745, 5.98969], [101.089, 6.04661], [101.09427, 6.08575], [101.08714, 6.1056], [101.05252, 6.13456], [101.05345, 6.15761], [101.06688, 6.17433], [101.08001, 6.18035], [101.08916, 6.18885], [101.09102, 6.21316], [101.08828, 6.23352], [101.08166, 6.24647], [101.06895, 6.25086], [101.02306, 6.24099], [101.00648, 6.24636], [100.97428, 6.27262], [100.95516, 6.26864], [100.92891, 6.24063], [100.9101, 6.2358], [100.85511, 6.24791], [100.84282, 6.24394], [100.83734, 6.23719], [100.833, 6.23668], [100.82214, 6.25988], [100.82152, 6.28876], [100.82902, 6.31626], [100.81072, 6.35576], [100.80561, 6.4148], [100.79631, 6.43395], [100.77326, 6.44731], [100.7423, 6.45012], [100.73388, 6.45638], [100.72995, 6.4932], [100.71285, 6.49304], [100.64841, 6.44715], [100.63068, 6.44478], [100.61265, 6.44917], [100.57844, 6.46426], [100.51741, 6.48191], [100.49917, 6.4903], [100.46723, 6.51322], [100.45235, 6.51686], [100.42651, 6.51389], [100.40966, 6.51526], [100.38739, 6.52208], [100.34879, 6.54061], [100.3292, 6.55777], [100.31789, 6.57671], [100.28078, 6.68892], [100.27396, 6.69626], [100.26332, 6.70001], [100.24265, 6.70026], [100.2275, 6.68887], [100.21236, 6.68918], [100.18756, 6.70796], [100.1733, 6.70342], [100.16684, 6.69512], [100.15609, 6.62058], [100.15717, 6.60353], [100.1672, 6.56614], [100.1457, 6.53952], [100.14849, 6.50449], [100.14436, 6.47958], [100.12729, 6.44229], [100.16382, 6.35746], [100.14663, 6.35279], [100.11996, 6.46312], [100.10816, 6.47956], [100.09011, 6.48486], [100.10231, 6.51708], [100.10353, 6.53319], [100.09352, 6.54011], [100.08058, 6.53681], [100.06316, 6.50672], [100.02996, 6.53466], [100.00148, 6.56726], [99.99122, 6.59785], [99.98414, 6.6022], [99.96413, 6.59375], [99.96096, 6.59846], [99.96309, 6.60551], [99.97397, 6.62271], [99.96095, 6.66055], [99.93736, 6.66475], [99.92848, 6.69261], [99.89146, 6.72505], [99.86752, 6.7626], [99.85174, 6.77644], [99.82489, 6.76961], [99.80958, 6.8083], [99.79721, 6.82168], [99.71071, 6.85416], [99.68581, 6.87735], [99.68606, 6.91747], [99.69045, 6.93548], [99.71022, 6.93797], [99.71388, 6.94221], [99.7072, 6.96101], [99.68093, 6.97362], [99.68621, 7.01337], [99.67922, 7.02676], [99.70563, 7.07525], [99.71681, 7.08198], [99.74806, 7.12604], [99.74057, 7.13711], [99.69288, 7.11613], [99.67759, 7.12329], [99.6719, 7.13541], [99.67237, 7.17072], [99.6211, 7.13704], [99.61411, 7.13668], [99.61085, 7.15086], [99.584, 7.15645], [99.55799, 7.19726], [99.54006, 7.24413], [99.54537, 7.26607], [99.56674, 7.27802], [99.58522, 7.30671], [99.5984, 7.34272], [99.60353, 7.37617], [99.59734, 7.37617], [99.56901, 7.32222], [99.54957, 7.30184], [99.52468, 7.31135], [99.52053, 7.32697], [99.5254, 7.37002], [99.5215, 7.38361], [99.50815, 7.38496], [99.49781, 7.37079], [99.49098, 7.35102], [99.48805, 7.33519], [99.49219, 7.29987], [99.48828, 7.28572], [99.47071, 7.27999], [99.44493, 7.28984], [99.42067, 7.30744], [99.39235, 7.31221], [99.37819, 7.32096], [99.33661, 7.38361], [99.34588, 7.40005], [99.34742, 7.42349], [99.344, 7.46898], [99.32984, 7.5034], [99.2956, 7.50715], [99.30885, 7.52831], [99.29274, 7.62067], [99.26832, 7.61641], [99.24978, 7.62776], [99.24677, 7.63409], [99.25807, 7.63687], [99.26222, 7.64326], [99.25571, 7.65737], [99.24366, 7.67145], [99.21419, 7.68013], [99.19256, 7.70515], [99.15291, 7.73082], [99.13754, 7.74434], [99.13054, 7.76724], [99.12428, 7.76724], [99.12191, 7.73306], [99.11215, 7.70552], [99.09148, 7.69185], [99.05601, 7.69893], [99.03322, 7.72281], [99.02768, 7.78889], [99.01443, 7.81501], [99.056, 7.84736], [99.06227, 7.85936], [99.06959, 7.92487], [99.0503, 7.90547], [99.0407, 7.90185], [99.02809, 7.90376], [99.00026, 7.94257], [98.96779, 7.95621], [98.96047, 7.97639], [98.96388, 7.99828], [98.96046, 8.00678], [98.92946, 8.031], [98.91798, 8.05134], [98.89894, 8.04271], [98.88819, 8.02107], [98.8436, 8.00288], [98.82945, 8.00679], [98.81276, 8.04499], [98.8003, 8.05244], [98.78841, 8.03459], [98.77556, 8.02343], [98.77028, 8.02368], [98.76539, 8.0471], [98.74738, 8.06851], [98.74741, 8.13654], [98.74392, 8.14989], [98.74741, 8.1992], [98.74415, 8.21491], [98.72706, 8.25385], [98.71273, 8.22591], [98.70656, 8.22591], [98.70314, 8.29853], [98.6963, 8.3085], [98.67726, 8.30317], [98.6482, 8.28487], [98.63087, 8.28799], [98.63086, 8.28117], [98.62404, 8.28117], [98.62624, 8.34609], [98.64796, 8.36652], [98.65545, 8.37963], [98.60353, 8.3972], [98.59888, 8.37491], [98.58513, 8.36897], [98.56756, 8.36787], [98.55201, 8.36001], [98.52605, 8.33634], [98.51043, 8.33113], [98.5005, 8.34321], [98.49366, 8.34321], [98.48666, 8.32491], [98.47981, 8.32577], [98.47316, 8.33576], [98.46632, 8.33576], [98.46631, 8.32275], [98.44565, 8.3251], [98.42823, 8.31696], [98.42221, 8.30634], [98.45313, 8.29401], [98.45655, 8.25829], [98.46265, 8.24331], [98.4629, 8.21636], [98.44613, 8.17512], [98.42498, 8.14844], [98.41163, 8.1645], [98.40553, 8.1645], [98.40202, 8.149], [98.39129, 8.13656], [98.37526, 8.15083], [98.35694, 8.185], [98.33124, 8.19506], [98.32398, 8.20962], [98.29331, 8.2159], [98.28143, 8.2259], [98.27761, 8.24071], [98.2776, 8.28352], [98.26239, 8.31282], [98.24204, 8.40648], [98.19953, 8.53419], [98.19802, 8.55606], [98.20298, 8.57387], [98.20973, 8.58147], [98.21567, 8.55337], [98.24732, 8.51455], [98.2531, 8.53465], [98.21998, 8.56916], [98.22682, 8.58902], [98.22683, 8.61009], [98.24049, 8.65107], [98.23854, 8.67304], [98.21999, 8.72622], [98.22414, 8.73533], [98.23959, 8.74584], [98.25074, 8.75995], [98.26152, 8.85046], [98.28354, 8.88495], [98.29274, 8.92438], [98.32489, 8.97524], [98.33302, 8.98003], [98.36402, 8.97394], [98.3581, 8.996], [98.39129, 9.03531], [98.34246, 9.01823], [98.3327, 9.02607], [98.33001, 9.05221], [98.34206, 9.06288], [98.36598, 9.06391], [98.38201, 9.07193], [98.37078, 9.10358], [98.32839, 9.16438], [98.32229, 9.20935], [98.32692, 9.20368], [98.33969, 9.19977], [98.34783, 9.20279], [98.37078, 9.22647], [98.35232, 9.23591], [98.35191, 9.25137], [98.38331, 9.31656], [98.39723, 9.37901], [98.42547, 9.43252], [98.44322, 9.52082], [98.45721, 9.54851], [98.48683, 9.52806], [98.5311, 9.56611], [98.52849, 9.57587], [98.49367, 9.57588], [98.48341, 9.59638], [98.4634, 9.60444], [98.4717, 9.62115], [98.49025, 9.63494], [98.5005, 9.63451], [98.51417, 9.65473], [98.49368, 9.68573], [98.51002, 9.68659], [98.51319, 9.69489], [98.5066, 9.70563], [98.49368, 9.71369], [98.5005, 9.7199], [98.53142, 9.70392], [98.54396, 9.70649], [98.54901, 9.72361], [98.56129, 9.73306], [98.56577, 9.74262], [98.55926, 9.74722], [98.5385, 9.74752], [98.52101, 9.75463], [98.51416, 9.74039], [98.508, 9.74039], [98.508, 9.77456], [98.51637, 9.78293], [98.54152, 9.78823], [98.55543, 9.79804], [98.56617, 9.81], [98.58302, 9.84284], [98.549, 9.80927], [98.54006, 9.81099], [98.53028, 9.82559], [98.51272, 9.83686], [98.52077, 9.85443], [98.549, 9.88372], [98.55991, 9.87303], [98.57618, 9.87759], [98.5705, 9.88422], [98.58546, 9.89496], [98.58985, 9.90546], [98.57164, 9.91548], [98.59198, 9.94269], [98.59987, 9.94813], [98.62208, 9.94782], [98.63087, 9.9527], [98.63315, 9.96296], [98.62355, 9.96719], [98.61256, 9.96597], [98.61036, 9.96011], [98.59963, 9.97387], [98.60347, 9.99342], [98.64785, 10.06913], [98.66228, 10.08527], [98.68963, 10.16205], [98.7129, 10.20551], [98.72047, 10.22793], [98.7308, 10.29173], [98.74627, 10.32901], [98.74741, 10.35053], [98.99016, 10.01698], [98.97679, 9.9482]]], [[[99.66816, 9.51919], [99.69873, 9.5422], [99.70345, 9.52131], [99.68149, 9.5129], [99.66816, 9.51919]]], [[[98.70052, 10.24968], [98.69595, 10.22352], [98.64422, 10.15501], [98.58985, 10.04206], [98.56055, 10.00215], [98.54314, 9.98747], [98.52102, 10.029], [98.51393, 10.14692], [98.49367, 10.17919], [98.48962, 10.19768], [98.51222, 10.26142], [98.51711, 10.30744], [98.52849, 10.34325], [98.52849, 10.3642], [98.51222, 10.4228], [98.49416, 10.45246], [98.49343, 10.47272], [98.5005, 10.51504], [98.49545, 10.55687], [98.4634, 10.63004], [98.459, 10.67292], [98.45933, 10.7154], [98.46349, 10.72922], [98.47657, 10.73467], [98.4983, 10.73158], [98.51099, 10.72288], [98.52849, 10.6931], [98.53875, 10.70441], [98.53834, 10.7187], [98.52102, 10.74095], [98.53257, 10.74676], [98.54371, 10.74505], [98.56324, 10.72728], [98.5775, 10.7706], [98.59986, 10.80549], [98.60271, 10.81949], [98.5967, 10.83713], [98.61598, 10.83845], [98.63087, 10.85082], [98.58644, 10.86104], [98.57888, 10.87519], [98.58156, 10.88202], [98.61378, 10.89029], [98.63405, 10.91372], [98.64796, 10.91908], [98.67311, 10.90546], [98.68954, 10.91346], [98.70363, 10.91615], [98.70655, 10.91283], [98.71241, 10.92438], [98.71762, 10.96068], [98.71275, 10.97431], [98.72022, 10.98054], [98.69289, 11.00845], [98.69533, 11.02008], [98.71648, 11.03238], [98.72242, 11.04487], [98.70655, 11.09785], [98.68881, 11.09249], [98.67646, 11.10045], [98.65823, 11.13198], [98.70265, 11.14362], [98.72413, 11.1562], [98.73316, 11.17601], [98.73318, 11.2071], [98.751, 11.25706], [98.75929, 11.26895], [98.74644, 11.28588], [98.72668, 11.33319], [98.7215, 11.36344], [98.79844, 11.3852], [98.87012, 11.38996], [99.24328, 11.19766], [99.25619, 11.21999], [99.28844, 11.25831], [99.30053, 11.28063], [99.31573, 11.32081], [99.32637, 11.33623], [99.3643, 11.37672], [99.3705, 11.39334], [99.37763, 11.43551], [99.38704, 11.45155], [99.41587, 11.48023], [99.42817, 11.4969], [99.43737, 11.51669], [99.44109, 11.53341], [99.44058, 11.59728], [99.44977, 11.61376], [99.4661, 11.62394], [99.5307, 11.63092], [99.54259, 11.64048], [99.60687, 11.72569], [99.61535, 11.74941], [99.63002, 11.81577], [99.62796, 11.82538], [99.8141, 11.85911], [99.83297, 11.83765], [99.81959, 11.83637], [99.80982, 11.82461], [99.81705, 11.77558], [99.81105, 11.75308], [99.81705, 11.74145], [99.78045, 11.73725], [99.7518, 11.70987], [99.67058, 11.57787], [99.6613, 11.55101], [99.64186, 11.52326], [99.62562, 11.44024], [99.59294, 11.36421], [99.57374, 11.34406], [99.56935, 11.33397], [99.56625, 11.27631], [99.56935, 11.25552], [99.58618, 11.21385], [99.58618, 11.19514], [99.56935, 11.17916], [99.56202, 11.19892], [99.54615, 11.19843], [99.52858, 11.18684], [99.50815, 11.16218], [99.49635, 11.13288], [99.49415, 11.11457], [99.49757, 11.09309], [99.5153, 11.03921], [99.5066, 11.00488], [99.49008, 11.00306], [99.21299, 11.10826], [99.20617, 11.10002], [99.17506, 11.08744], [99.15171, 11.04767], [99.1331, 11.03338], [99.09321, 11.01297], [99.07688, 10.99651], [99.06365, 10.95742], [99.05507, 10.94525], [99.04525, 10.94551], [99.00556, 10.95881], [99.00153, 10.95763], [98.98665, 10.93931], [98.98024, 10.91802], [98.98179, 10.89549], [98.98975, 10.87515], [98.98985, 10.86045], [98.9819, 10.83241], [98.97445, 10.8242], [98.93404, 10.80771], [98.9233, 10.8081], [98.90542, 10.81441], [98.89208, 10.80852], [98.88361, 10.79919], [98.87534, 10.77862], [98.86821, 10.76989], [98.83007, 10.76356], [98.81095, 10.74663], [98.76672, 10.68875], [98.75679, 10.66607], [98.7479, 10.62312], [98.75152, 10.61036], [98.77075, 10.59398], [98.77726, 10.58323], [98.79131, 10.52042], [98.79038, 10.50027], [98.77653, 10.4621], [98.7664, 10.4112], [98.74741, 10.35053], [98.73504, 10.34308], [98.71892, 10.31257], [98.70052, 10.24968]]], [[[102.55506, 11.75966], [102.56413, 11.7551], [102.57077, 11.73302], [102.56533, 11.71061], [102.54011, 11.71686], [102.55506, 11.75966]]], [[[102.47356, 11.80728], [102.46583, 11.81025], [102.44704, 11.80728], [102.44708, 11.81261], [102.47324, 11.82498], [102.4713, 11.83323], [102.47616, 11.8353], [102.48658, 11.82705], [102.51302, 11.8259], [102.51026, 11.81026], [102.49065, 11.80451], [102.49373, 11.79536], [102.49065, 11.78663], [102.47356, 11.80728]]], [[[102.9203, 11.82858], [102.9081, 11.81673], [102.90594, 11.82004], [102.9203, 11.82858]]], [[[102.37916, 12.00283], [102.37614, 11.9709], [102.34936, 11.96887], [102.31088, 11.98111], [102.31835, 11.9612], [102.29039, 11.97485], [102.29412, 11.9947], [102.2942, 12.05679], [102.28469, 12.06684], [102.25637, 12.1319], [102.27003, 12.1319], [102.26173, 12.14444], [102.24956, 12.15301], [102.31088, 12.14618], [102.35539, 12.11112], [102.38657, 12.05834], [102.39966, 12.0493], [102.39967, 12.04316], [102.443, 11.9839], [102.44116, 11.96744], [102.42731, 11.96149], [102.41099, 11.97151], [102.37916, 12.00283]]], [[[100.78094, 12.71612], [100.80428, 12.71657], [100.80762, 12.6938], [100.79802, 12.68671], [100.79273, 12.67545], [100.78078, 12.66866], [100.76524, 12.70283], [100.76751, 12.70985], [100.77174, 12.70376], [100.78094, 12.71612]]], [[[99.30973, 12.65349], [99.27686, 12.66558], [99.26674, 12.70284], [99.2563, 12.70946], [99.23346, 12.71313], [99.22446, 12.71747], [99.21413, 12.73465], [99.21444, 12.77168], [99.21072, 12.79227], [99.17527, 12.83343], [99.16845, 12.8741], [99.15315, 12.91355], [99.15418, 12.9266], [99.16731, 12.95601], [99.16483, 12.97551], [99.15108, 12.99479], [99.09321, 13.03833], [99.08835, 13.05835], [99.10251, 13.1044], [99.1053, 13.12961], [99.1021, 13.17134], [99.11408, 13.18808], [99.1332, 13.19516], [99.17279, 13.19951], [99.18726, 13.21224], [99.19015, 13.2295], [99.17341, 13.28743], [99.17279, 13.30092], [99.18695, 13.32914], [99.18364, 13.35797], [99.18881, 13.40792], [99.18788, 13.42714], [99.15202, 13.58196], [99.14953, 13.66599], [99.15253, 13.71487], [99.14127, 13.73211], [99.10881, 13.7627], [99.10116, 13.77882], [99.0898, 13.82665], [99.09217, 13.86357], [99.09, 13.87011], [99.08029, 13.88156], [99.06106, 13.88802], [99.04763, 13.91499], [99.01621, 13.93794], [99.00711, 13.94964], [98.98479, 13.99059], [98.95296, 14.02803], [98.94531, 14.06914], [98.93528, 14.08539], [98.91771, 14.09638], [98.87234, 14.11247], [98.75369, 14.20012], [98.73106, 14.2235], [98.70698, 14.26998], [98.67039, 14.26792], [98.64424, 14.29567], [98.61448, 14.30515], [98.59319, 14.32161], [98.54771, 14.37768], [98.47815, 14.5165], [98.45283, 14.52805], [98.44549, 14.54203], [98.43134, 14.58784], [98.41821, 14.60756], [98.29749, 14.72125], [98.24334, 14.80512], [98.23538, 14.82455], [98.2391, 14.844], [98.22215, 14.86426], [98.22163, 14.92126], [98.21491, 14.94317], [98.19114, 14.98813], [98.19135, 15.00115], [98.20437, 15.02958], [98.199, 15.05138], [98.1681, 15.0827], [98.16045, 15.10637], [98.165, 15.1258], [98.18577, 15.16078], [98.19073, 15.17918], [98.17791, 15.20879], [98.17719, 15.2206], [98.21543, 15.21886], [98.2329, 15.2268], [98.24768, 15.24093], [98.28302, 15.28997], [98.08105, 15.65113], [98.11651, 15.73462], [98.54027, 15.71196], [98.54306, 15.73537], [98.57438, 15.83599], [98.57665, 15.85418], [98.56931, 15.89614], [98.56859, 15.92017], [98.58378, 15.97696], [98.57696, 15.99691], [98.55009, 16.03422], [98.54699, 16.0475], [98.55588, 16.05551], [98.59008, 16.04579], [98.61158, 16.04693], [98.61913, 16.05101], [98.63019, 16.06], [98.64414, 16.07964], [98.65871, 16.11628], [98.67959, 16.12615], [98.69716, 16.12687], [98.75845, 16.11917], [98.77033, 16.11385], [98.78304, 16.10243], [98.79844, 16.10444], [98.80723, 16.11054], [98.83079, 16.1356], [98.83544, 16.14454], [98.83668, 16.18904], [98.84309, 16.20873], [98.88371, 16.25875], [98.90335, 16.36345], [98.90252, 16.38164], [98.88526, 16.40618], [98.86211, 16.42065], [98.8434, 16.43838], [98.83958, 16.47243], [98.8187, 16.45564], [98.81043, 16.43962], [98.80206, 16.39828], [98.78863, 16.37456], [98.72827, 16.32825], [98.6984, 16.28495], [98.68238, 16.27348], [98.66326, 16.28666], [98.65695, 16.30164], [98.64238, 16.37363], [98.62946, 16.40267], [98.62822, 16.41357], [98.63825, 16.43445], [98.6398, 16.44499], [98.63163, 16.46313], [98.56425, 16.55196], [98.56776, 16.5825], [98.56156, 16.60173], [98.54709, 16.62012], [98.51226, 16.64327], [98.49841, 16.6624], [98.48632, 16.701], [98.45666, 16.72322], [98.0386, 16.65965], [97.61059, 17.13936], [97.36082, 17.42632], [97.12294, 17.72921], [96.73029, 18.33468], [96.86342, 18.69766], [97.01741, 19.06479], [97.188, 19.43413], [97.33846, 19.45349], [97.76709, 19.39753], [97.80037, 19.44078], [97.83354, 19.46871], [97.84212, 19.47938], [97.84874, 19.49398], [97.84098, 19.51716], [97.83985, 19.55532], [97.84863, 19.56764], [97.88584, 19.57281], [97.94806, 19.60242], [97.97948, 19.63332], [98.00831, 19.63911], [98.01358, 19.65175], [98.01389, 19.66945], [98.00562, 19.70565], [98.00459, 19.72391], [98.01792, 19.78939], [98.02454, 19.80298], [98.04562, 19.80763], [98.07291, 19.77729], [98.08593, 19.77316], [98.11136, 19.77714], [98.13223, 19.76606], [98.17202, 19.73156], [98.21326, 19.71776], [98.21791, 19.70797], [98.21667, 19.68746], [98.21915, 19.67699], [98.23755, 19.66469], [98.26277, 19.66986], [98.30731, 19.68999], [98.34762, 19.69063], [98.39444, 19.68634], [98.4396, 19.68774], [98.47454, 19.70531], [98.4888, 19.7067], [98.51546, 19.68337], [98.53262, 19.67585], [98.53655, 19.6771], [98.538, 19.68389], [98.54833, 19.69265], [98.5907, 19.7041], [98.59835, 19.70908], [98.62378, 19.7375], [98.64135, 19.74495], [98.73013, 19.7573], [98.74925, 19.7635], [98.80785, 19.80654], [98.83792, 19.79344], [98.85188, 19.78404], [98.86449, 19.77321], [98.88371, 19.74546], [98.89932, 19.74862], [98.93508, 19.77347], [98.97383, 19.78807], [98.98768, 19.79936], [99.00091, 19.82101], [99.00877, 19.84592], [98.99936, 19.90773], [99.00143, 19.91788], [99.01352, 19.93496], [99.00587, 19.97235], [99.01683, 20.041], [99.03647, 20.07516], [99.07347, 20.10123], [99.1175, 20.11779], [99.15842, 20.12355], [99.17775, 20.1218], [99.23645, 20.10273], [99.27532, 20.07219], [99.29568, 20.0625], [99.3212, 20.06627], [99.4414, 20.10162], [99.4875, 20.14125], [99.51034, 20.15381], [99.84979, 19.89725], [99.90212, 19.42143], [100.0636, 19.37537], [100.46196, 19.5371], [100.47426, 19.52498], [100.49183, 19.51447], [100.52061, 19.50261], [100.55076, 19.49464], [100.57744, 19.08178], [100.54213, 18.21542], [100.52976, 17.8227], [100.88566, 17.59588], [100.88602, 17.57376], [100.90193, 17.56193], [100.98152, 17.54761], [101.01903, 17.52663], [101.04932, 17.49573], [101.06616, 17.49221], [101.1289, 17.46116], [101.14719, 17.47248], [101.16424, 17.49573], [101.16672, 17.51061], [101.17696, 17.5164], [101.20217, 17.52317], [101.22863, 17.56849], [101.24703, 17.59216], [101.35731, 17.67902], [101.38376, 17.68492], [101.40159, 17.70667], [101.40402, 17.71556], [101.3819, 17.72073], [101.388, 17.72931], [101.40185, 17.73375], [101.43203, 17.7336], [101.45348, 17.75101], [101.46831, 17.72037], [101.48298, 17.74579], [101.50272, 17.76538], [101.53652, 17.77912], [101.55626, 17.79215], [101.53404, 17.80956], [101.56401, 17.82031], [101.57052, 17.82889], [101.57755, 17.85292], [101.57755, 17.86811], [101.60039, 17.85436], [101.61114, 17.86553], [101.61987, 17.88465], [101.6362, 17.89483], [101.72907, 17.91219], [101.73258, 17.93203], [101.75692, 17.99782], [101.76576, 18.04032], [101.77392, 18.05856], [101.79041, 18.07358], [101.79666, 18.07357], [101.80606, 18.06239], [101.84518, 18.05213], [101.88379, 18.03084], [101.9043, 18.03712], [102.0785, 18.2138], [102.15354, 18.2101], [102.17193, 18.20029], [102.18211, 18.16923], [102.19157, 18.15207], [102.23312, 18.12417], [102.25658, 18.09404], [102.30671, 18.05146], [102.33652, 18.03704], [102.36639, 18.0388], [102.38515, 18.01606], [102.41223, 17.9942], [102.44551, 17.97777], [102.48204, 17.97115], [102.56752, 17.97084], [102.59961, 17.95518], [102.61232, 17.91529], [102.59527, 17.84082], [102.60943, 17.837], [102.66079, 17.81287], [102.68291, 17.81008], [102.68291, 17.81736], [102.67335, 17.83178], [102.66761, 17.85007], [102.67299, 17.86537], [102.68673, 17.87353], [102.72218, 17.8818], [102.73738, 17.89043], [102.77407, 17.92273], [102.83189, 17.95312], [102.83804, 17.96376], [102.85272, 17.97203], [102.9386, 18.00893], [102.95494, 18.01213], [102.97292, 18.00774], [103.00382, 17.98857], [103.02046, 17.98423], [103.03793, 17.99069], [103.05829, 18.01926], [103.06821, 18.02577], [103.07307, 18.03552], [103.0648, 18.09404], [103.06635, 18.11226], [103.07131, 18.12556], [103.07994, 18.13479], [103.09276, 18.14119], [103.08909, 18.13479], [103.11007, 18.14181], [103.12666, 18.15186], [103.13859, 18.16672], [103.15089, 18.2215], [103.1573, 18.23703], [103.1682, 18.24977], [103.1852, 18.25775], [103.27352, 18.27607], [103.28634, 18.28033], [103.29538, 18.28777], [103.29652, 18.2969], [103.29042, 18.30514], [103.24019, 18.33599], [103.23368, 18.34927], [103.23399, 18.35578], [103.24406, 18.38007], [103.26076, 18.4002], [103.28256, 18.41557], [103.30685, 18.42567], [103.39677, 18.44141], [103.46994, 18.42198], [103.49774, 18.42373], [103.5488, 18.41542], [103.60714, 18.4004], [103.63861, 18.37795], [103.69556, 18.35322], [103.7091, 18.34971], [103.76718, 18.34668], [103.8014, 18.33826], [103.83209, 18.32067], [103.85777, 18.28648], [103.87395, 18.28323], [103.88594, 18.287], [103.91002, 18.31532], [103.92929, 18.32759], [103.95126, 18.33299], [103.97544, 18.33067], [104.00004, 18.31844], [104.01864, 18.29912], [104.06841, 18.2154], [104.11094, 18.11455], [104.12236, 18.09528], [104.13569, 18.07967], [104.19812, 18.02557], [104.21088, 18.00862], [104.25511, 17.91498], [104.27031, 17.874], [104.28757, 17.85674], [104.35263, 17.81933], [104.36777, 17.80057], [104.3903, 17.75716], [104.4089, 17.7337], [104.42229, 17.6998], [104.452, 17.66595], [104.4812, 17.64042], [104.63638, 17.56244], [104.65509, 17.55609], [104.70263, 17.5273], [104.71452, 17.51526], [104.75679, 17.44994], [104.78893, 17.42896], [104.81642, 17.37279], [104.81999, 17.34892], [104.81642, 17.30008], [104.81834, 17.24024], [104.80991, 17.17167], [104.74532, 17.0248], [104.74036, 17.00258], [104.74966, 16.9108], [104.7664, 16.86817], [104.76707, 16.85613], [104.75844, 16.82192], [104.75679, 16.79846], [104.77901, 16.70487], [104.75302, 16.6148], [104.74842, 16.57191], [104.7495, 16.54933], [104.75452, 16.52892], [104.76516, 16.51134], [104.78273, 16.49708], [104.83885, 16.46773], [104.85549, 16.45409], [104.87947, 16.42184], [104.89704, 16.37275], [104.90805, 16.35337], [104.94406, 16.33084], [104.97931, 16.29865], [105.01548, 16.27673], [105.02639, 16.25766], [105.02974, 16.23601], [105.02886, 16.19147], [105.03259, 16.16527], [105.04246, 16.14144], [105.05811, 16.12119], [105.0793, 16.10543], [105.23722, 16.0508], [105.28854, 16.04739], [105.40492, 16.01882], [105.42207, 16.00988], [105.42393, 16.00212], [105.41814, 15.99473], [105.38652, 15.98078], [105.36249, 15.95479], [105.36063, 15.91939], [105.37256, 15.88213], [105.41205, 15.79976], [105.423, 15.7839], [105.43566, 15.77165], [105.44796, 15.76488], [105.46238, 15.76281], [105.50341, 15.76617], [105.52542, 15.76348], [105.56852, 15.74938], [105.61291, 15.72147], [105.64092, 15.68199], [105.651, 15.6346], [105.64087, 15.58331], [105.61627, 15.52128], [105.61203, 15.49947], [105.61038, 15.45717], [105.60428, 15.43921], [105.58837, 15.42379], [105.55281, 15.40203], [105.5062, 15.38759], [105.48625, 15.3749], [105.47747, 15.35281], [105.48331, 15.33452], [105.49902, 15.32467], [105.51938, 15.32106], [105.55803, 15.32514], [105.56149, 15.3209], [105.5648, 15.29946], [105.56398, 15.27253], [105.53157, 15.25289], [105.50393, 15.23106], [105.4631, 15.18944], [105.45442, 15.17553], [105.4477, 15.1553], [105.44362, 15.11135], [105.45194, 15.09477], [105.47385, 15.09063], [105.49829, 15.06614], [105.52088, 15.06614], [105.52429, 15.04596], [105.55354, 15.00534], [105.56614, 14.99593], [105.59307, 14.99079], [105.58356, 14.97759], [105.54392, 14.95309], [105.53416, 14.93402], [105.55064, 14.9023], [105.54305, 14.8801], [105.51778, 14.87767], [105.51695, 14.85654], [105.52439, 14.83724], [105.50155, 14.82734], [105.49385, 14.80899], [105.48915, 14.78633], [104.95519, 14.38626], [104.89817, 14.39628], [104.86655, 14.41377], [104.83141, 14.41176], [104.78826, 14.43821], [104.77167, 14.43987], [104.75793, 14.43305], [104.72795, 14.40995], [104.71286, 14.40685], [104.7062, 14.41225], [104.70103, 14.43008], [104.69286, 14.43398], [104.68465, 14.43057], [104.66837, 14.40964], [104.65137, 14.40892], [104.62656, 14.41928], [104.61044, 14.41897], [104.59463, 14.41], [104.5628, 14.36848], [104.54285, 14.36039], [104.49262, 14.37401], [104.48197, 14.37122], [104.46198, 14.35711], [104.45262, 14.35693], [104.43918, 14.36142], [104.32539, 14.37763], [104.27124, 14.39907], [104.24747, 14.40109], [104.21915, 14.38287], [104.20127, 14.37799], [104.18918, 14.3823], [104.18349, 14.39142], [104.18256, 14.40036], [104.18566, 14.40398], [104.17703, 14.40421], [104.17326, 14.39602], [104.14845, 14.36961], [104.14091, 14.366], [104.12835, 14.36636], [104.11021, 14.38044], [104.07373, 14.37075], [104.03595, 14.35259], [104.00138, 14.34507], [103.97399, 14.36729], [103.91984, 14.36458], [103.91054, 14.35626], [103.90278, 14.34243], [103.88516, 14.34042], [103.87033, 14.34326], [103.83845, 14.36339], [103.82403, 14.36804], [103.79421, 14.36483], [103.77525, 14.36698], [103.71654, 14.38153], [103.67489, 14.38649], [103.67169, 14.39561], [103.67386, 14.41933], [103.67148, 14.42956], [103.65717, 14.44116], [103.64719, 14.44398], [103.63706, 14.44328], [103.62745, 14.4378], [103.6229, 14.42248], [103.61681, 14.41455], [103.59614, 14.40434], [103.58162, 14.40742], [103.56813, 14.41594], [103.55025, 14.42186], [103.5334, 14.41907], [103.49485, 14.39995], [103.44968, 14.37158], [103.43925, 14.37287], [103.4225, 14.38483], [103.40809, 14.3808], [103.38023, 14.36106], [103.36287, 14.35347], [103.27368, 14.35106], [103.19859, 14.32851], [103.13823, 14.31975], [103.11803, 14.31324], [103.085, 14.29582], [103.00485, 14.22877], [102.9878, 14.219], [102.93406, 14.20097], [102.91861, 14.18549], [102.91401, 14.16934], [102.91127, 14.13211], [102.87623, 14.07131], [102.86977, 14.02062], [102.85499, 14.004], [102.79742, 13.96], [102.77283, 13.93608], [102.75438, 13.90411], [102.72911, 13.83215], [102.70648, 13.80195], [102.70265, 13.7712], [102.69862, 13.7618], [102.67495, 13.7419], [102.57439, 13.69389], [102.54235, 13.66971], [102.54106, 13.6486], [102.5625, 13.62803], [102.59775, 13.60545], [102.57956, 13.60049], [102.53253, 13.57382], [102.5132, 13.56716], [102.45223, 13.56217], [102.3713, 13.56891], [102.33223, 13.5646], [102.31342, 13.54101], [102.31477, 13.53034], [102.32552, 13.51344], [102.33012, 13.49636], [102.33363, 13.40626], [102.32707, 13.34544], [102.3282, 13.27516], [102.38205, 13.13662], [102.40189, 13.103], [102.44727, 13.05081], [102.46318, 13.01928], [102.47316, 13.00613], [102.49016, 12.99608], [102.48664, 12.98479], [102.46882, 12.97339], [102.46721, 12.96947], [102.47889, 12.95363], [102.46628, 12.93792], [102.46484, 12.92753], [102.47409, 12.90526], [102.48334, 12.84379], [102.48974, 12.82309], [102.50432, 12.79974], [102.50664, 12.78752], [102.49527, 12.7461], [102.48272, 12.73522], [102.47796, 12.71964], [102.47925, 12.67711], [102.48638, 12.66119], [102.50178, 12.64977], [102.55863, 12.63122], [102.58855, 12.60983], [102.66482, 12.53422], [102.69676, 12.51309], [102.70482, 12.48032], [102.71841, 12.46591], [102.75061, 12.44901], [102.76208, 12.43609], [102.76513, 12.41635], [102.7565, 12.40224], [102.73066, 12.38007], [102.72007, 12.36121], [102.71505, 12.34219], [102.69221, 12.17848], [102.69996, 12.13874], [102.75123, 12.06097], [102.77107, 12.03735], [102.78714, 12.00263], [102.79712, 11.95297], [102.843, 11.86605], [102.88517, 11.8077], [102.89945, 11.81619], [102.90185, 11.81088], [102.87792, 11.78977], [102.82545, 11.85814], [102.78333, 11.89249], [102.77704, 11.90254], [102.77703, 11.96743], [102.76694, 12.01179], [102.74969, 12.04027], [102.63186, 12.15205], [102.63015, 12.16135], [102.65358, 12.15917], [102.64137, 12.17548], [102.60452, 12.20393], [102.60572, 12.22126], [102.56186, 12.20209], [102.5573, 12.18374], [102.57162, 12.09097], [102.58594, 12.06025], [102.58236, 12.04927], [102.55389, 12.0568], [102.55015, 12.06119], [102.55047, 12.09097], [102.53224, 12.11359], [102.47364, 12.14899], [102.36646, 12.18594], [102.35035, 12.1957], [102.33619, 12.19758], [102.32447, 12.18034], [102.29592, 12.19002], [102.28648, 12.20254], [102.29038, 12.22126], [102.28346, 12.24136], [102.2654, 12.27147], [102.26321, 12.28953], [102.29005, 12.2829], [102.3152, 12.29125], [102.3519, 12.32368], [102.35987, 12.34707], [102.35206, 12.36725], [102.33725, 12.37612], [102.32447, 12.3653], [102.33839, 12.35716], [102.34506, 12.34479], [102.33077, 12.32786], [102.31044, 12.31635], [102.29168, 12.31807], [102.28354, 12.34138], [102.28614, 12.38569], [102.29225, 12.40689], [102.30405, 12.4274], [102.29786, 12.4274], [102.29152, 12.41958], [102.2767, 12.39256], [102.27004, 12.39257], [102.26353, 12.4173], [102.27003, 12.44038], [102.24241, 12.42626], [102.22827, 12.42774], [102.22218, 12.44038], [102.20102, 12.43354], [102.21062, 12.42768], [102.21435, 12.41965], [102.20851, 12.3994], [102.21461, 12.3994], [102.23585, 12.41372], [102.24263, 12.40255], [102.2478, 12.38321], [102.24269, 12.37214], [102.26302, 12.35699], [102.27345, 12.32616], [102.26481, 12.30623], [102.22829, 12.32368], [102.16684, 12.38573], [102.12437, 12.41055], [102.12599, 12.41991], [102.08705, 12.46493], [102.07195, 12.48851], [102.07813, 12.50924], [102.08595, 12.49836], [102.09864, 12.49559], [102.08546, 12.50434], [102.10564, 12.52289], [102.11232, 12.53726], [102.10475, 12.53726], [102.09295, 12.52338], [102.07815, 12.52973], [102.09864, 12.5434], [102.04785, 12.54232], [102.04332, 12.55052], [102.06446, 12.57075], [102.00929, 12.56452], [102.00929, 12.55707], [102.04322, 12.5235], [102.06445, 12.52292], [102.05746, 12.49722], [102.05697, 12.46836], [102.00896, 12.53408], [101.97348, 12.54145], [101.96078, 12.53727], [101.96078, 12.58063], [101.94988, 12.60635], [101.94597, 12.59569], [101.93426, 12.58373], [101.94776, 12.52975], [101.8996, 12.56974], [101.8926, 12.58372], [101.9131, 12.57758], [101.90943, 12.59422], [101.88559, 12.5982], [101.84881, 12.65453], [101.83025, 12.6728], [101.78272, 12.70112], [101.76612, 12.70588], [101.70444, 12.70791], [101.68637, 12.70214], [101.65983, 12.66011], [101.64234, 12.65136], [101.58106, 12.65266], [101.5735, 12.64981], [101.57113, 12.63235], [101.56642, 12.6313], [101.53907, 12.63175], [101.50904, 12.63898], [101.4651, 12.63231], [101.44288, 12.62482], [101.43328, 12.61542], [101.42887, 12.59688], [101.41814, 12.59566], [101.39291, 12.61172], [101.3235, 12.64216], [101.24887, 12.6601], [101.08774, 12.68061], [101.06666, 12.67626], [101.03207, 12.65698], [100.98862, 12.64936], [100.97771, 12.63923], [100.97445, 12.59806], [100.92613, 12.61913], [100.92613, 12.62539], [100.94077, 12.63638], [100.93458, 12.6529], [100.91765, 12.66258], [100.89959, 12.65267], [100.88868, 12.65876], [100.85796, 12.65267], [100.86687, 12.6603], [100.87143, 12.67377], [100.8511, 12.67378], [100.86459, 12.70112], [100.8375, 12.70812], [100.85484, 12.75226], [100.86793, 12.77113], [100.8921, 12.76252], [100.9157, 12.79365], [100.91993, 12.81094], [100.91326, 12.8404], [100.86867, 12.90624], [100.8646, 12.91958], [100.86818, 12.92902], [100.8921, 12.94806], [100.89959, 12.98223], [100.90821, 12.97744], [100.91879, 12.98241], [100.9336, 13.00275], [100.93312, 13.02643], [100.9114, 13.05704], [100.90577, 13.07441], [100.90154, 13.08063], [100.88283, 13.08784], [100.87828, 13.09833], [100.89959, 13.12564], [100.94516, 13.20091], [100.94451, 13.22004], [100.9336, 13.25601], [100.91249, 13.29407], [100.93239, 13.33811], [100.96534, 13.34854], [100.98129, 13.35904], [100.98715, 13.39615], [100.98512, 13.41771], [100.97089, 13.4372], [100.99578, 13.49616], [100.96318, 13.47133], [100.88923, 13.46825], [100.81398, 13.48603], [100.77133, 13.49117], [100.74977, 13.49991], [100.67986, 13.50924], [100.64967, 13.52026], [100.6102, 13.54751], [100.59205, 13.55451], [100.58961, 13.56196], [100.59669, 13.58267], [100.59783, 13.61225], [100.58318, 13.57599], [100.58423, 13.53368], [100.57585, 13.51961], [100.55609, 13.51097], [100.42994, 13.48934], [100.35646, 13.48969], [100.33717, 13.48189], [100.28989, 13.50504], [100.27508, 13.51667], [100.26498, 13.49755], [100.25306, 13.48568], [100.15059, 13.44411], [100.11305, 13.43659], [100.05307, 13.41303], [100.03883, 13.40274], [100.02165, 13.36661], [100.00131, 13.37202], [100.01564, 13.36587], [100.01392, 13.34838], [100.00619, 13.33284], [99.99366, 13.32173], [99.96274, 13.30988], [99.9607, 13.29243], [99.96713, 13.25902], [99.99855, 13.21808], [100.07398, 13.15277], [100.08774, 13.09618], [100.10433, 13.05732], [100.10189, 13.03986], [100.09318, 13.02426], [100.05299, 12.96613], [100.03736, 12.90428], [99.97693, 12.87349], [99.90807, 12.85359], [99.83613, 12.84715], [99.77454, 12.85104], [99.75237, 12.82416], [99.3979, 12.58373], [99.39376, 12.58978], [99.3334, 12.62543], [99.30973, 12.65349]]]]}}, {"type": "Feature", "properties": {"name": "독립국(타이)", "name_en": "Independent state (Siam)", "period": "19세기 후반~20세기 초", "kind": "국가", "legend": "독립국", "map_title": "동남아시아의 식민지화", "source": "미래엔 세계사 교과서 3권 171쪽", "volume": 3, "page": 171, "coast_snap": "Natural Earth 10m 해안선에 맞춤", "border_snap": "현대 국경(Natural Earth 10m)에 맞춘 구간 약 3584 km", "group": "타이", "map_folder": "3권_p171_동남아시아의 식민지화"}, "geometry": {"type": "MultiPolygon", "coordinates": [[[[99.5578, 7.11888], [99.56641, 7.12066], [99.59978, 7.1037], [99.6167, 7.08418], [99.61109, 7.07951], [99.57432, 7.09069], [99.5578, 7.11888]]], [[[99.4458, 7.25091], [99.45385, 7.23901], [99.41725, 7.23534], [99.38331, 7.19409], [99.37819, 7.20181], [99.37786, 7.25258], [99.38552, 7.27557], [99.41912, 7.25658], [99.4458, 7.25091]]], [[[99.02711, 7.62287], [99.02069, 7.63687], [99.02809, 7.64426], [99.03492, 7.64426], [99.07586, 7.60895], [99.07594, 7.57323], [99.08611, 7.53653], [99.11743, 7.4792], [99.09995, 7.46724], [99.07716, 7.4803], [99.05715, 7.50406], [99.03136, 7.56169], [99.02711, 7.62287]]], [[[98.36418, 7.58585], [98.35907, 7.58585], [98.36091, 7.60526], [98.36859, 7.61293], [98.37907, 7.61512], [98.38053, 7.60611], [98.36418, 7.58585]]], [[[99.12427, 7.65737], [99.12744, 7.62519], [99.11744, 7.5959], [99.09987, 7.59664], [99.08766, 7.61205], [99.06959, 7.62255], [99.04462, 7.66339], [99.06707, 7.67519], [99.1045, 7.66937], [99.12427, 7.65737]]], [[[98.9454, 7.83495], [98.93785, 7.83805], [98.94112, 7.84901], [98.95151, 7.85488], [98.96574, 7.85211], [98.97803, 7.84332], [98.97967, 7.83613], [98.9961, 7.83506], [98.99642, 7.82075], [98.98618, 7.81131], [98.9917, 7.78783], [98.98634, 7.7841], [98.9454, 7.83495]]], [[[98.29566, 8.18496], [98.30291, 8.18804], [98.31153, 8.18552], [98.33008, 8.17047], [98.34352, 8.1092], [98.34962, 8.1092], [98.36012, 8.11883], [98.40553, 8.08251], [98.41286, 8.0943], [98.42262, 8.0993], [98.43213, 8.09593], [98.43913, 8.0825], [98.43841, 8.06556], [98.41863, 8.02729], [98.41862, 7.99316], [98.40219, 7.98102], [98.39747, 7.95502], [98.40895, 7.91771], [98.41863, 7.90375], [98.43165, 7.91741], [98.43962, 7.90192], [98.43978, 7.88663], [98.43181, 7.87495], [98.39967, 7.86457], [98.39536, 7.85049], [98.39811, 7.81503], [98.36232, 7.83242], [98.34392, 7.83291], [98.33252, 7.78596], [98.32308, 7.77095], [98.30909, 7.76774], [98.29185, 7.7775], [98.2867, 7.7915], [98.28142, 7.85594], [98.26907, 7.87914], [98.26776, 7.89008], [98.28533, 7.90375], [98.28142, 7.91743], [98.25417, 7.92829], [98.2741, 7.95368], [98.26597, 7.97378], [98.28142, 8.00308], [98.27443, 8.06932], [98.28826, 8.1092], [98.29021, 8.13011], [98.28144, 8.19179], [98.29566, 8.18496]]], [[[98.56805, 7.99334], [98.58041, 7.99616], [98.58229, 8.01537], [98.57439, 8.03181], [98.55487, 8.03694], [98.53689, 8.0712], [98.53099, 8.08876], [98.5285, 8.12346], [98.54054, 8.10493], [98.58692, 8.07928], [98.60245, 8.06324], [98.61035, 8.03473], [98.61182, 7.9263], [98.60352, 7.90377], [98.58823, 7.90494], [98.57733, 7.91963], [98.57088, 7.93916], [98.56325, 7.98631], [98.56805, 7.99334]]], [[[98.59669, 8.13032], [98.59242, 8.14699], [98.62404, 8.19179], [98.63208, 8.18975], [98.63753, 8.17129], [98.62085, 8.09001], [98.57961, 8.10616], [98.57009, 8.11888], [98.57472, 8.12498], [98.59669, 8.13032]]], [[[98.26157, 8.87858], [98.25308, 8.89809], [98.251, 8.91844], [98.25587, 8.96638], [98.25222, 8.99701], [98.26092, 9.01291], [98.2793, 9.00933], [98.29888, 8.99752], [98.31088, 8.97816], [98.30698, 8.95791], [98.27052, 8.87718], [98.26157, 8.87858]]], [[[98.2405, 9.04898], [98.25083, 9.15403], [98.27328, 9.15998], [98.28223, 9.15672], [98.30797, 9.13284], [98.32277, 9.09777], [98.323, 9.07624], [98.30201, 9.05516], [98.30932, 9.04898], [98.27394, 9.03597], [98.25425, 9.03682], [98.2405, 9.04898]]], [[[98.31446, 9.25758], [98.31844, 9.24905], [98.29379, 9.20795], [98.29727, 9.19706], [98.28109, 9.17606], [98.26979, 9.16828], [98.26516, 9.17561], [98.26595, 9.19639], [98.30617, 9.2575], [98.31446, 9.25758]]], [[[98.39812, 9.70626], [98.38495, 9.72793], [98.38967, 9.74241], [98.41162, 9.77452], [98.41781, 9.74706], [98.41667, 9.73347], [98.39812, 9.70626]]], [[[98.46119, 9.81517], [98.45687, 9.78712], [98.45004, 9.79715], [98.44248, 9.7959], [98.43695, 9.8022], [98.43677, 9.8271], [98.44394, 9.83047], [98.44549, 9.84329], [98.44013, 9.85464], [98.452, 9.87009], [98.46225, 9.8594], [98.47444, 9.85829], [98.46608, 9.83894], [98.4694, 9.8192], [98.46582, 9.8127], [98.46119, 9.81517]]], [[[98.52556, 10.82685], [98.51832, 10.8295], [98.50051, 10.82348], [98.5005, 10.83714], [98.49147, 10.86669], [98.49367, 10.89108], [98.54224, 10.86005], [98.55322, 10.83283], [98.54151, 10.79622], [98.52711, 10.78694], [98.50954, 10.78662], [98.4984, 10.79361], [98.50417, 10.80609], [98.52638, 10.81086], [98.52849, 10.82005], [98.52556, 10.82685]]], [[[98.47838, 10.99335], [98.48672, 11.00825], [98.50953, 11.02774], [98.51535, 11.04929], [98.5356, 11.07322], [98.54461, 11.03102], [98.54151, 10.95381], [98.53383, 10.95103], [98.52849, 10.97431], [98.51206, 10.96524], [98.50798, 10.94637], [98.48586, 10.95589], [98.47708, 10.97393], [98.47838, 10.99335]]], [[[99.21296, 11.51964], [99.17278, 11.46178], [99.14017, 11.42651], [99.13357, 11.37946], [99.11995, 11.33256], [99.12536, 11.28119], [99.12094, 11.21312], [99.1249, 11.20549], [99.12079, 11.2033], [99.10445, 11.14966], [99.07583, 11.22362], [99.06489, 11.29365], [99.06801, 11.36444], [99.08506, 11.43328], [99.11541, 11.49752], [99.1579, 11.55468], [99.18354, 11.58021], [99.25285, 11.63355], [99.24093, 11.58364], [99.21296, 11.51964]]], [[[99.82325, 6.23908], [99.82951, 6.20292], [99.78969, 6.24924], [99.80045, 6.2728], [99.82392, 6.28214], [99.83698, 6.29421], [99.83977, 6.2773], [99.82486, 6.25772], [99.82325, 6.23908]]], [[[100.29615, 6.11555], [100.26003, 6.1809], [100.2479, 6.22077], [100.19983, 6.25915], [100.17458, 6.29097], [100.15285, 6.33393], [100.13747, 6.38052], [100.12729, 6.44228], [100.3238, 6.09176], [100.30946, 6.08203], [100.29615, 6.11555]]], [[[99.83279, 6.47084], [99.85108, 6.46564], [99.86647, 6.42967], [99.89892, 6.41034], [99.89759, 6.40205], [99.91333, 6.3902], [99.90062, 6.3643], [99.91626, 6.33153], [99.89169, 6.32194], [99.87051, 6.30492], [99.86569, 6.29054], [99.84942, 6.30071], [99.84459, 6.32469], [99.82533, 6.3241], [99.80731, 6.31753], [99.77803, 6.28298], [99.76273, 6.28286], [99.72031, 6.34273], [99.71904, 6.35323], [99.71089, 6.35609], [99.65807, 6.43108], [99.66944, 6.42689], [99.68875, 6.4353], [99.72137, 6.43414], [99.73648, 6.42398], [99.77093, 6.41984], [99.786, 6.42285], [99.80225, 6.43605], [99.8143, 6.45403], [99.8392, 6.45482], [99.83279, 6.47084]]], [[[99.73924, 6.48005], [99.71531, 6.49132], [99.69081, 6.51317], [99.68124, 6.52655], [99.67579, 6.52456], [99.67041, 6.50146], [99.65871, 6.49235], [99.64683, 6.50968], [99.63415, 6.55205], [99.60028, 6.58345], [99.60305, 6.59699], [99.61394, 6.60883], [99.62599, 6.6328], [99.62388, 6.65741], [99.64243, 6.67133], [99.6506, 6.71754], [99.65699, 6.7238], [99.6805, 6.67292], [99.68038, 6.64389], [99.6809, 6.64608], [99.75073, 6.61989], [99.77385, 6.60501], [99.78011, 6.59601], [99.78384, 6.56769], [99.77901, 6.53216], [99.767, 6.49984], [99.75871, 6.4881], [99.74911, 6.48101], [99.73924, 6.48005]]], [[[99.85718, 6.73626], [99.86751, 6.71004], [99.85206, 6.70695], [99.84215, 6.71178], [99.84524, 6.72841], [99.85718, 6.73626]]], [[[100.08009, 9.54999], [100.06087, 9.46382], [100.03199, 9.45018], [100.02588, 9.42915], [100.0193, 9.42574], [99.94663, 9.41821], [99.9367, 9.47456], [99.92629, 9.49396], [99.93881, 9.50903], [99.93955, 9.52823], [99.92629, 9.56598], [99.9363, 9.57769], [99.98471, 9.579], [100.04371, 9.56415], [100.06235, 9.56737], [100.07017, 9.5864], [100.08594, 9.57452], [100.09066, 9.56094], [100.08009, 9.54999]]], [[[99.68149, 9.5129], [99.66816, 9.51919], [99.69873, 9.5422], [99.70345, 9.52131], [99.68149, 9.5129]]], [[[100.12673, 9.82994], [100.1504, 9.81574], [100.1566, 9.80553], [100.16161, 9.77639], [100.15884, 9.6973], [100.10404, 9.71324], [100.08163, 9.72556], [100.09009, 9.66529], [100.05405, 9.68773], [99.9992, 9.71036], [99.98782, 9.71977], [99.99334, 9.73168], [99.98992, 9.74291], [99.97056, 9.7646], [99.98765, 9.80181], [99.9979, 9.79727], [100.03783, 9.79407], [100.03368, 9.81916], [100.03737, 9.82819], [100.04654, 9.8347], [100.05974, 9.83835], [100.09302, 9.83822], [100.12673, 9.82994]]], [[[103.01577, 11.62749], [102.98243, 11.61442], [102.98246, 11.62485], [102.99383, 11.63572], [103.01577, 11.62749]]], [[[103.0262, 11.63254], [103.00914, 11.64587], [103.00914, 11.64918], [103.04156, 11.64129], [103.0262, 11.63254]]], [[[102.97511, 11.65745], [102.97511, 11.6385], [102.96876, 11.6385], [102.97163, 11.65829], [102.97511, 11.65745]]], [[[102.98243, 11.65275], [102.97819, 11.6567], [102.98243, 11.65567], [102.98243, 11.65275]]], [[[102.56664, 11.71353], [102.54093, 11.71985], [102.55519, 11.75982], [102.56413, 11.7551], [102.56841, 11.74388], [102.5708, 11.73261], [102.56664, 11.71353]]], [[[102.46583, 11.81025], [102.44704, 11.80728], [102.44708, 11.81261], [102.47324, 11.82498], [102.4713, 11.83323], [102.47616, 11.8353], [102.48658, 11.82705], [102.51302, 11.8259], [102.51026, 11.81026], [102.49065, 11.80451], [102.49373, 11.79536], [102.49065, 11.78663], [102.47356, 11.80728], [102.46583, 11.81025]]], [[[102.37614, 11.9709], [102.34936, 11.96887], [102.31088, 11.98111], [102.31835, 11.9612], [102.29039, 11.97485], [102.29412, 11.9947], [102.2942, 12.05679], [102.28469, 12.06684], [102.25637, 12.1319], [102.27003, 12.1319], [102.26173, 12.14444], [102.24956, 12.15301], [102.29322, 12.14541], [102.31088, 12.14618], [102.35539, 12.11112], [102.38532, 12.06045], [102.36154, 12.12401], [102.43249, 12.10415], [102.4587, 12.09342], [102.47601, 12.07882], [102.4928, 12.05563], [102.51158, 12.01416], [102.51347, 11.98994], [102.51006, 11.98223], [102.4939, 11.96638], [102.47119, 11.95305], [102.44898, 11.94599], [102.43351, 11.9491], [102.42436, 11.9633], [102.41099, 11.97151], [102.37916, 12.00283], [102.37614, 11.9709]]], [[[100.80762, 12.6938], [100.79802, 12.68671], [100.79273, 12.67545], [100.78078, 12.66866], [100.76524, 12.70283], [100.76751, 12.70985], [100.77174, 12.70376], [100.78094, 12.71612], [100.80428, 12.71657], [100.80762, 12.6938]]], [[[98.48666, 8.32491], [98.47981, 8.32577], [98.47316, 8.33576], [98.46632, 8.33576], [98.46631, 8.32275], [98.44565, 8.3251], [98.42823, 8.31696], [98.42221, 8.30634], [98.45313, 8.29401], [98.45655, 8.25829], [98.46265, 8.24331], [98.4629, 8.21636], [98.44613, 8.17512], [98.42498, 8.14844], [98.41163, 8.1645], [98.40553, 8.1645], [98.40202, 8.149], [98.39129, 8.13656], [98.37526, 8.15083], [98.35694, 8.185], [98.33124, 8.19506], [98.32398, 8.20962], [98.29331, 8.2159], [98.28143, 8.2259], [98.27761, 8.24071], [98.2776, 8.28351], [98.26239, 8.31282], [98.24204, 8.40648], [98.19953, 8.53419], [98.19802, 8.55606], [98.20298, 8.57387], [98.20973, 8.58147], [98.21567, 8.55337], [98.24732, 8.51455], [98.2531, 8.53465], [98.21998, 8.56916], [98.22682, 8.58902], [98.22683, 8.61009], [98.24049, 8.65107], [98.23854, 8.67304], [98.21999, 8.72622], [98.22414, 8.73533], [98.23959, 8.74584], [98.25074, 8.75995], [98.26152, 8.85046], [98.28354, 8.88496], [98.29274, 8.92438], [98.32489, 8.97524], [98.33302, 8.98003], [98.36402, 8.97394], [98.3581, 8.996], [98.39129, 9.0353], [98.34246, 9.01823], [98.3327, 9.02607], [98.33001, 9.05221], [98.34206, 9.06288], [98.36598, 9.06391], [98.38201, 9.07193], [98.37078, 9.10358], [98.32839, 9.16438], [98.32229, 9.20935], [98.32692, 9.20368], [98.33969, 9.19977], [98.34783, 9.20279], [98.37078, 9.22647], [98.35232, 9.23591], [98.35191, 9.25137], [98.38331, 9.31655], [98.39723, 9.37901], [98.42547, 9.43252], [98.44322, 9.52082], [98.45721, 9.54851], [98.48683, 9.52806], [98.5311, 9.56611], [98.52849, 9.57587], [98.49367, 9.57588], [98.48341, 9.59638], [98.4634, 9.60444], [98.4717, 9.62115], [98.49025, 9.63494], [98.5005, 9.63451], [98.51417, 9.65473], [98.49368, 9.68573], [98.51002, 9.68659], [98.51319, 9.69489], [98.5066, 9.70563], [98.49368, 9.71369], [98.5005, 9.7199], [98.53142, 9.70392], [98.54396, 9.70649], [98.54901, 9.72361], [98.56129, 9.73306], [98.56577, 9.74262], [98.55926, 9.74722], [98.5385, 9.74752], [98.52101, 9.75463], [98.51416, 9.74039], [98.508, 9.74039], [98.508, 9.77456], [98.51637, 9.78293], [98.54152, 9.78823], [98.55543, 9.79804], [98.56617, 9.81], [98.58302, 9.84284], [98.549, 9.80927], [98.54006, 9.81099], [98.53028, 9.82559], [98.51272, 9.83686], [98.52077, 9.85443], [98.549, 9.88372], [98.55991, 9.87303], [98.57618, 9.87759], [98.5705, 9.88422], [98.58546, 9.89496], [98.58985, 9.90546], [98.57164, 9.91548], [98.59198, 9.94269], [98.59987, 9.94813], [98.62208, 9.94782], [98.63087, 9.9527], [98.63315, 9.96296], [98.62355, 9.96719], [98.61256, 9.96597], [98.61036, 9.96011], [98.59963, 9.97387], [98.60347, 9.99342], [98.64785, 10.06913], [98.66228, 10.08527], [98.68963, 10.16205], [98.7129, 10.20551], [98.72047, 10.22793], [98.7308, 10.29173], [98.74627, 10.32901], [98.74741, 10.35053], [98.73504, 10.34308], [98.71892, 10.31257], [98.70281, 10.26276], [98.69595, 10.22352], [98.64422, 10.15502], [98.58985, 10.04206], [98.56055, 10.00215], [98.54314, 9.98747], [98.52102, 10.029], [98.51393, 10.14692], [98.49367, 10.17919], [98.48962, 10.19768], [98.51222, 10.26142], [98.51711, 10.30744], [98.52849, 10.34325], [98.52849, 10.3642], [98.51222, 10.4228], [98.49416, 10.45246], [98.49343, 10.47272], [98.5005, 10.51504], [98.49545, 10.55687], [98.4634, 10.63004], [98.459, 10.67292], [98.45933, 10.7154], [98.46349, 10.72922], [98.47657, 10.73467], [98.4983, 10.73158], [98.51099, 10.72288], [98.52849, 10.6931], [98.53875, 10.70441], [98.53834, 10.71869], [98.52102, 10.74095], [98.53257, 10.74676], [98.54371, 10.74505], [98.56324, 10.72728], [98.5775, 10.7706], [98.59986, 10.80549], [98.60271, 10.81949], [98.5967, 10.83713], [98.61598, 10.83845], [98.63087, 10.85082], [98.58644, 10.86104], [98.57888, 10.87519], [98.58156, 10.88202], [98.61378, 10.89029], [98.63405, 10.91372], [98.64796, 10.91908], [98.67311, 10.90546], [98.68954, 10.91346], [98.70363, 10.91615], [98.70655, 10.91283], [98.71681, 10.94221], [98.71762, 10.96068], [98.71275, 10.97431], [98.72022, 10.98054], [98.69289, 11.00845], [98.69533, 11.02008], [98.71648, 11.03238], [98.72242, 11.04487], [98.70655, 11.09785], [98.68881, 11.09249], [98.67646, 11.10045], [98.65823, 11.13198], [98.70265, 11.14362], [98.72413, 11.15619], [98.73316, 11.17601], [98.73491, 11.21112], [98.75185, 11.21426], [99.00153, 10.95763], [99.00556, 10.95882], [99.04525, 10.94551], [99.05507, 10.94525], [99.06365, 10.95742], [99.07688, 10.99651], [99.09321, 11.01297], [99.1331, 11.03338], [99.15171, 11.04767], [99.17506, 11.08744], [99.20617, 11.10002], [99.21299, 11.10826], [99.24328, 11.19766], [99.25619, 11.21999], [99.28844, 11.25831], [99.30053, 11.28063], [99.31573, 11.32081], [99.32637, 11.33623], [99.3643, 11.37672], [99.3705, 11.39334], [99.37763, 11.4355], [99.38704, 11.45155], [99.41587, 11.48023], [99.42817, 11.4969], [99.43737, 11.51669], [99.44109, 11.53341], [99.44058, 11.59728], [99.44977, 11.61376], [99.4661, 11.62394], [99.5307, 11.63092], [99.54258, 11.64048], [99.60687, 11.72569], [99.61535, 11.74941], [99.63002, 11.81577], [99.62796, 11.82538], [99.611, 11.83018], [99.59178, 11.84228], [99.5614, 11.87292], [99.55406, 11.89504], [99.55736, 11.9156], [99.57287, 11.95591], [99.574, 11.97632], [99.56698, 11.99333], [99.55333, 12.00552], [99.53432, 12.01157], [99.5184, 12.02593], [99.52171, 12.05368], [99.54579, 12.13187], [99.54166, 12.14066], [99.53287, 12.14453], [99.52264, 12.14422], [99.46631, 12.12603], [99.45226, 12.12939], [99.44884, 12.14722], [99.45412, 12.15688], [99.472, 12.17362], [99.47375, 12.18727], [99.45556, 12.22758], [99.45711, 12.25641], [99.45442, 12.26726], [99.4322, 12.29641], [99.42673, 12.30865], [99.42063, 12.38338], [99.41401, 12.40524], [99.39128, 12.44534], [99.38704, 12.46591], [99.4042, 12.50813], [99.4073, 12.55148], [99.40326, 12.57593], [99.39376, 12.58978], [99.3334, 12.62543], [99.30973, 12.65349], [99.27686, 12.66558], [99.26674, 12.70284], [99.2563, 12.70946], [99.23346, 12.71313], [99.22446, 12.71747], [99.21413, 12.73465], [99.21444, 12.77168], [99.21072, 12.79227], [99.17527, 12.83343], [99.16845, 12.8741], [99.15315, 12.91355], [99.15418, 12.9266], [99.16731, 12.95601], [99.16483, 12.97551], [99.15108, 12.99479], [99.09321, 13.03833], [99.08835, 13.05835], [99.10251, 13.10439], [99.1053, 13.12961], [99.1021, 13.17134], [99.11408, 13.18808], [99.1332, 13.19516], [99.17279, 13.19951], [99.18726, 13.21224], [99.19015, 13.2295], [99.17341, 13.28743], [99.17279, 13.30092], [99.18695, 13.32914], [99.18364, 13.35797], [99.18881, 13.40792], [99.18788, 13.42714], [99.15202, 13.58196], [99.14953, 13.66599], [99.15253, 13.71487], [99.14127, 13.73211], [99.10881, 13.7627], [99.10116, 13.77882], [99.0898, 13.82665], [99.09217, 13.86357], [99.09, 13.87011], [99.08029, 13.88156], [99.06106, 13.88802], [99.04763, 13.91499], [99.01621, 13.93794], [99.00711, 13.94964], [98.98479, 13.99059], [98.95296, 14.02803], [98.94531, 14.06914], [98.93528, 14.08539], [98.91771, 14.09638], [98.87234, 14.11247], [98.75369, 14.20012], [98.73106, 14.2235], [98.70698, 14.26998], [98.67039, 14.26792], [98.64424, 14.29567], [98.61448, 14.30515], [98.60145, 14.31365], [98.54771, 14.37768], [98.47815, 14.51651], [98.45283, 14.52805], [98.44549, 14.54203], [98.43134, 14.58784], [98.41821, 14.60756], [98.29749, 14.72125], [98.24334, 14.80512], [98.23538, 14.82455], [98.2391, 14.844], [98.22215, 14.86426], [98.22163, 14.92126], [98.21491, 14.94317], [98.19114, 14.98813], [98.19135, 15.00115], [98.20437, 15.02958], [98.199, 15.05138], [98.1681, 15.0827], [98.16045, 15.10637], [98.165, 15.1258], [98.18577, 15.16078], [98.19073, 15.17918], [98.17791, 15.20879], [98.17719, 15.2206], [98.21543, 15.21886], [98.2329, 15.2268], [98.24768, 15.24093], [98.28302, 15.28997], [98.29512, 15.29261], [98.31785, 15.28899], [98.33604, 15.28217], [98.37025, 15.26191], [98.38524, 15.25625], [98.39227, 15.25824], [98.39475, 15.28008], [98.39206, 15.28584], [98.37749, 15.29646], [98.38369, 15.31028], [98.39909, 15.32178], [98.39692, 15.35573], [98.40343, 15.3601], [98.4394, 15.36759], [98.47454, 15.38348], [98.51546, 15.36346], [98.53024, 15.34772], [98.53355, 15.32596], [98.55991, 15.35532], [98.569, 15.40214], [98.56714, 15.45255], [98.55805, 15.51033], [98.97622, 15.57386], [98.97322, 15.69839], [98.57356, 15.83336], [98.57665, 15.85418], [98.56931, 15.89614], [98.56859, 15.92017], [98.58378, 15.97696], [98.57696, 15.99691], [98.55009, 16.03422], [98.54699, 16.0475], [98.55588, 16.05551], [98.59008, 16.04579], [98.61158, 16.04693], [98.61913, 16.05101], [98.63019, 16.06], [98.64414, 16.07964], [98.65871, 16.11628], [98.67959, 16.12615], [98.69716, 16.12687], [98.75845, 16.11917], [98.77033, 16.11385], [98.78304, 16.10243], [98.79844, 16.10444], [98.80723, 16.11054], [98.83079, 16.1356], [98.83544, 16.14455], [98.83668, 16.18904], [98.84309, 16.20873], [98.88371, 16.25875], [98.90335, 16.36345], [98.90252, 16.38164], [99.32711, 16.45043], [99.39098, 16.57432], [99.33883, 16.71767], [99.32948, 16.72371], [99.2355, 16.64118], [98.88526, 16.40618], [98.86211, 16.42065], [98.8434, 16.43838], [98.83958, 16.47243], [99.09713, 16.79692], [99.07482, 16.88403], [98.99928, 17.00747], [99.01033, 17.17389], [98.96969, 17.30687], [98.82475, 17.38225], [98.53413, 17.76631], [98.2317, 18.13903], [98.28374, 18.26575], [98.18538, 18.56963], [97.75975, 18.62279], [97.75262, 18.66344], [97.74125, 18.70315], [97.73577, 18.76265], [98.17355, 18.80675], [98.32621, 18.8612], [98.28337, 19.18585], [98.3535, 19.26984], [98.26277, 19.66986], [98.30731, 19.68999], [98.34762, 19.69063], [98.39444, 19.68635], [98.4396, 19.68774], [98.47454, 19.70531], [98.4888, 19.7067], [98.51546, 19.68337], [98.53262, 19.67585], [98.53655, 19.6771], [98.538, 19.68389], [98.54833, 19.69265], [98.5907, 19.7041], [98.59835, 19.70908], [98.62378, 19.7375], [98.64135, 19.74495], [98.73013, 19.7573], [98.74925, 19.7635], [98.80785, 19.80654], [98.83792, 19.79344], [98.85188, 19.78404], [98.86449, 19.77321], [98.88371, 19.74546], [98.89932, 19.74861], [98.93508, 19.77347], [98.97383, 19.78807], [98.98768, 19.79936], [99.00091, 19.82101], [99.00877, 19.84592], [98.99936, 19.90773], [99.00143, 19.91788], [99.01352, 19.93496], [99.00587, 19.97235], [99.01683, 20.041], [99.03647, 20.07516], [99.07347, 20.10123], [99.1175, 20.11779], [99.15842, 20.12355], [99.17775, 20.1218], [99.23645, 20.10273], [99.27532, 20.07219], [99.29568, 20.0625], [99.3212, 20.06627], [99.4414, 20.10162], [99.4875, 20.14125], [99.51034, 20.15381], [99.52057, 20.17097], [99.52584, 20.19618], [99.51892, 20.21218], [99.48626, 20.24548], [99.47499, 20.30372], [99.46641, 20.32217], [99.42962, 20.35868], [99.42063, 20.37555], [99.43996, 20.38217], [99.45412, 20.3771], [99.5029, 20.34522], [99.57969, 20.32124], [99.61803, 20.32238], [99.64222, 20.30884], [99.65193, 20.30682], [99.67126, 20.31013], [99.70842, 20.32501], [99.72908, 20.32853], [99.7696, 20.32842], [99.78717, 20.33408], [100.10296, 20.2636], [100.11661, 20.24802], [100.13464, 20.2391], [100.15252, 20.23915], [100.16772, 20.25362], [100.1671, 20.29261], [100.1795, 20.30248], [100.15982, 20.35291], [100.13182, 20.44948], [100.20532, 20.44425], [100.2633, 20.38741], [100.27024, 20.39183], [100.30652, 20.39969], [100.34434, 20.38997], [100.3644, 20.36897], [100.4216, 20.25019], [100.44734, 20.21804], [100.46103, 20.19071], [100.48563, 20.17877], [100.49638, 20.16487], [100.52924, 20.14973], [100.53668, 20.15347], [100.54196, 20.16673], [100.8987, 20.42375], [100.94586, 20.47633], [101.16978, 20.1786], [101.10073, 20.0189], [101.00255, 19.61061], [101.0243, 19.60286], [101.06823, 19.57713], [101.09582, 19.56728], [101.12466, 19.56511], [101.15267, 19.56837], [101.17685, 19.57475], [101.19732, 19.58687], [101.20796, 19.58955], [101.23824, 19.57819], [101.24825, 19.56607], [101.64256, 19.72789], [101.8384, 19.69386], [101.8127, 19.50505], [101.87849, 19.17105], [101.78517, 18.80656], [101.6197, 18.60577], [101.62129, 18.59766], [101.71101, 18.48699], [101.79041, 18.07358], [101.79666, 18.07357], [101.80606, 18.06239], [101.84518, 18.05213], [101.88379, 18.03084], [101.9043, 18.03712], [102.0785, 18.2138], [102.15354, 18.2101], [102.17193, 18.20029], [102.18211, 18.16923], [102.19157, 18.15207], [102.23312, 18.12417], [102.25658, 18.09404], [102.30671, 18.05146], [102.33652, 18.03704], [102.36639, 18.0388], [102.38515, 18.01606], [102.41223, 17.9942], [102.44551, 17.97777], [102.48204, 17.97115], [102.56752, 17.97084], [102.59961, 17.95518], [102.61232, 17.91529], [102.59527, 17.84082], [102.60943, 17.837], [102.66079, 17.81287], [102.68291, 17.81008], [102.68291, 17.81736], [102.67335, 17.83178], [102.66761, 17.85007], [102.67299, 17.86537], [102.68673, 17.87353], [102.72218, 17.8818], [102.73738, 17.89043], [102.77407, 17.92273], [102.83189, 17.95312], [102.83804, 17.96376], [102.85272, 17.97203], [102.9386, 18.00893], [102.95494, 18.01213], [102.97292, 18.00774], [103.00382, 17.98857], [103.02046, 17.98423], [103.03793, 17.99069], [103.05829, 18.01926], [103.06821, 18.02577], [103.07307, 18.03552], [103.0648, 18.09404], [103.06635, 18.11225], [103.07131, 18.12556], [103.07994, 18.13479], [103.09276, 18.14119], [103.08909, 18.13479], [103.11007, 18.14181], [103.12666, 18.15186], [103.13859, 18.16672], [103.15089, 18.2215], [103.1573, 18.23703], [103.1682, 18.24977], [103.1852, 18.25775], [103.27352, 18.27607], [103.28634, 18.28033], [103.29538, 18.28777], [103.29652, 18.2969], [103.29042, 18.30514], [103.24019, 18.33599], [103.23368, 18.34927], [103.23399, 18.35578], [103.24406, 18.38007], [103.26076, 18.4002], [103.28256, 18.41557], [103.30685, 18.42567], [103.39677, 18.44141], [103.46994, 18.42198], [103.49774, 18.42373], [103.5488, 18.41541], [103.60714, 18.4004], [103.63861, 18.37795], [103.69556, 18.35322], [103.7091, 18.34971], [103.76718, 18.34668], [103.8014, 18.33826], [103.83209, 18.32067], [103.85777, 18.28648], [103.87395, 18.28323], [103.88594, 18.287], [103.91002, 18.31532], [103.92929, 18.32759], [103.95126, 18.33299], [103.97544, 18.33067], [104.00004, 18.31844], [104.01864, 18.29912], [104.06841, 18.2154], [104.11094, 18.11455], [104.12236, 18.09528], [104.13569, 18.07967], [104.19812, 18.02557], [104.21088, 18.00862], [104.25511, 17.91498], [104.27031, 17.874], [104.28757, 17.85674], [104.35263, 17.81933], [104.36777, 17.80057], [104.3903, 17.75716], [104.4089, 17.7337], [104.42229, 17.6998], [104.452, 17.66595], [104.4812, 17.64042], [104.63638, 17.56244], [104.65509, 17.55609], [104.70263, 17.5273], [104.71452, 17.51526], [104.75679, 17.44994], [104.78893, 17.42896], [104.81642, 17.37279], [104.81932, 17.36106], [104.81642, 17.30008], [104.81834, 17.24024], [104.80991, 17.17167], [104.74532, 17.0248], [104.74036, 17.00258], [104.74966, 16.9108], [104.7664, 16.86817], [104.76707, 16.85613], [104.75844, 16.82192], [104.75679, 16.79846], [104.77901, 16.70487], [104.75302, 16.6148], [104.74842, 16.57191], [104.7495, 16.54933], [104.75452, 16.52891], [104.76516, 16.51134], [104.78273, 16.49708], [104.83885, 16.46773], [104.85549, 16.45409], [104.87947, 16.42184], [104.89704, 16.37275], [104.90805, 16.35337], [104.94406, 16.33084], [104.97931, 16.29864], [105.01548, 16.27673], [105.02639, 16.25766], [105.02974, 16.23601], [105.02886, 16.19147], [105.03259, 16.16527], [105.04246, 16.14145], [105.05811, 16.12119], [105.0793, 16.10543], [105.23722, 16.0508], [105.28854, 16.04739], [105.40492, 16.01882], [105.42207, 16.00988], [105.42393, 16.00212], [105.41814, 15.99473], [105.38652, 15.98078], [105.36249, 15.95479], [105.36063, 15.91939], [105.37256, 15.88213], [105.41205, 15.79976], [105.423, 15.7839], [105.43566, 15.77165], [105.44796, 15.76488], [105.46238, 15.76281], [105.50341, 15.76617], [105.52542, 15.76348], [105.56852, 15.74938], [105.61291, 15.72147], [105.64092, 15.68199], [105.651, 15.6346], [105.64087, 15.58331], [105.61627, 15.52128], [105.61203, 15.49947], [105.61038, 15.45717], [105.60428, 15.43921], [105.58837, 15.42379], [105.55281, 15.40203], [105.5062, 15.38759], [105.48625, 15.3749], [105.47747, 15.35281], [105.48331, 15.33452], [105.49902, 15.32467], [105.51938, 15.32106], [105.55803, 15.32514], [105.56149, 15.3209], [105.5648, 15.29946], [105.56398, 15.27253], [105.53157, 15.25289], [105.50393, 15.23106], [105.4631, 15.18944], [105.45442, 15.17553], [105.4477, 15.1553], [105.44362, 15.11135], [105.45194, 15.09477], [105.47385, 15.09063], [105.49829, 15.06614], [105.52088, 15.06614], [105.52429, 15.04596], [105.55354, 15.00534], [105.56614, 14.99593], [105.59307, 14.99079], [105.58356, 14.97759], [105.54392, 14.95309], [105.53416, 14.93403], [105.55064, 14.9023], [105.54305, 14.8801], [105.97398, 14.36584], [105.96943, 14.35486], [105.715, 14.40958], [105.62163, 14.35542], [105.53317, 14.16433], [105.50527, 14.14506], [105.49049, 14.13692], [105.47385, 14.13252], [105.45008, 14.11715], [105.42218, 14.10787], [105.39246, 14.10374], [105.36409, 14.10405], [105.33779, 14.10999], [105.30394, 14.15239], [105.27531, 14.16482], [105.25691, 14.18244], [105.23878, 14.20924], [105.31747, 14.27945], [105.19177, 14.37476], [105.18431, 14.34574], [105.15501, 14.33047], [105.13222, 14.28071], [105.10142, 14.23053], [105.04731, 14.21407], [105.02535, 14.22438], [105.00773, 14.24383], [104.97595, 14.30112], [104.9743, 14.30964], [104.97874, 14.3685], [104.97383, 14.38065], [104.89818, 14.39628], [104.86655, 14.41377], [104.83141, 14.41176], [104.78826, 14.43821], [104.77167, 14.43987], [104.75793, 14.43305], [104.72795, 14.40995], [104.71286, 14.40685], [104.7062, 14.41225], [104.70103, 14.43008], [104.69286, 14.43398], [104.68465, 14.43057], [104.66837, 14.40964], [104.65137, 14.40892], [104.62656, 14.41928], [104.61044, 14.41897], [104.59463, 14.41], [104.5628, 14.36848], [104.54285, 14.36039], [104.49262, 14.37401], [104.48197, 14.37122], [104.46198, 14.35711], [104.45262, 14.35693], [104.43918, 14.36142], [104.32539, 14.37763], [104.27124, 14.39907], [104.24747, 14.40109], [104.21915, 14.38287], [104.20127, 14.37799], [104.18918, 14.3823], [104.18349, 14.39142], [104.18256, 14.40036], [104.18566, 14.40398], [104.17703, 14.40421], [104.17326, 14.39602], [104.14845, 14.36962], [104.14091, 14.366], [104.12835, 14.36636], [104.11021, 14.38044], [104.07373, 14.37075], [104.03595, 14.35259], [104.00138, 14.34507], [103.97399, 14.36729], [103.91984, 14.36458], [103.91054, 14.35626], [103.90278, 14.34243], [103.88516, 14.34042], [103.87033, 14.34326], [103.83845, 14.36339], [103.82403, 14.36804], [103.79421, 14.36484], [103.77525, 14.36698], [103.71654, 14.38153], [103.67489, 14.38649], [103.67169, 14.39561], [103.67386, 14.41933], [103.67148, 14.42956], [103.65717, 14.44116], [103.63706, 14.44328], [103.62745, 14.4378], [103.6229, 14.42248], [103.61681, 14.41455], [103.59614, 14.40434], [103.58162, 14.40742], [103.56813, 14.41594], [103.55025, 14.42186], [103.5334, 14.41907], [103.49485, 14.39995], [103.44968, 14.37158], [103.43925, 14.37287], [103.4225, 14.38483], [103.40809, 14.3808], [103.38023, 14.36106], [103.36287, 14.35347], [103.27368, 14.35106], [103.19859, 14.32851], [103.13823, 14.31975], [103.11803, 14.31324], [103.085, 14.29582], [103.00485, 14.22877], [102.9878, 14.219], [102.93406, 14.20097], [102.91861, 14.18549], [102.91401, 14.16934], [102.91127, 14.13211], [102.87623, 14.07131], [102.86977, 14.02062], [102.85499, 14.004], [102.79743, 13.96], [102.77283, 13.93608], [102.75438, 13.90411], [102.72911, 13.83215], [102.70648, 13.80195], [102.70265, 13.7712], [102.69862, 13.7618], [102.67495, 13.7419], [102.57439, 13.69389], [102.54235, 13.66971], [102.54106, 13.6486], [102.5625, 13.62803], [102.59775, 13.60545], [102.57956, 13.60049], [102.53253, 13.57382], [102.5132, 13.56716], [102.45223, 13.56217], [102.3713, 13.56891], [102.33223, 13.5646], [102.31342, 13.54101], [102.31477, 13.53034], [102.32552, 13.51344], [102.33012, 13.49636], [102.33363, 13.40626], [102.32707, 13.34544], [102.3282, 13.27516], [102.38205, 13.13662], [102.40189, 13.103], [102.44727, 13.05081], [102.46318, 13.01928], [102.47316, 13.00613], [102.49016, 12.99608], [102.48664, 12.98479], [102.46882, 12.97339], [102.46721, 12.96947], [102.47889, 12.95363], [102.46628, 12.93792], [102.46484, 12.92753], [102.47409, 12.90526], [102.48334, 12.84379], [102.48974, 12.82309], [102.50432, 12.79974], [102.50664, 12.78752], [102.49527, 12.7461], [102.48272, 12.73522], [102.47796, 12.71964], [102.47925, 12.67711], [102.48638, 12.66119], [102.50178, 12.64977], [102.55863, 12.63122], [102.58855, 12.60983], [102.66482, 12.53422], [102.69676, 12.51309], [102.70482, 12.48033], [102.71841, 12.46591], [102.75061, 12.44901], [102.76208, 12.43609], [102.76513, 12.41635], [102.7565, 12.40224], [102.73066, 12.38007], [102.72007, 12.36121], [102.71505, 12.34219], [102.69221, 12.17848], [102.69996, 12.13874], [102.75123, 12.06097], [102.77107, 12.03735], [102.78714, 12.00263], [102.79712, 11.95297], [102.843, 11.86605], [102.86277, 11.83871], [103.20918, 12.06569], [103.23903, 12.05554], [103.23748, 12.03758], [102.91347, 11.8085], [102.89926, 11.83027], [102.89308, 11.83027], [102.90549, 11.80285], [102.894, 11.79471], [102.9138, 11.76554], [102.92512, 11.7258], [102.92879, 11.6687], [102.95475, 11.66239], [102.96494, 11.609], [102.94279, 11.60325], [102.93727, 11.62173], [102.9136, 11.64591], [102.90603, 11.66621], [102.90675, 11.74144], [102.89332, 11.76968], [102.82545, 11.85814], [102.78347, 11.89229], [102.77704, 11.90254], [102.77703, 11.96743], [102.76694, 12.01179], [102.74968, 12.04027], [102.63186, 12.15205], [102.63015, 12.16135], [102.65358, 12.15917], [102.64137, 12.17548], [102.60452, 12.20393], [102.60572, 12.22126], [102.56186, 12.20209], [102.5573, 12.18374], [102.57162, 12.09097], [102.58594, 12.06025], [102.58236, 12.04927], [102.55389, 12.0568], [102.55015, 12.06119], [102.55047, 12.09097], [102.53224, 12.11359], [102.47364, 12.14899], [102.36646, 12.18594], [102.35035, 12.1957], [102.33619, 12.19758], [102.32447, 12.18034], [102.29571, 12.19016], [102.28648, 12.20254], [102.29038, 12.22126], [102.28346, 12.24136], [102.2654, 12.27147], [102.26321, 12.28953], [102.29005, 12.2829], [102.3152, 12.29125], [102.33627, 12.30744], [102.3519, 12.32368], [102.35987, 12.34707], [102.35206, 12.36725], [102.33725, 12.37612], [102.32447, 12.3653], [102.33839, 12.35716], [102.34506, 12.34479], [102.33077, 12.32786], [102.31023, 12.31624], [102.29168, 12.31807], [102.28354, 12.34138], [102.28614, 12.38569], [102.29225, 12.40689], [102.30405, 12.4274], [102.29786, 12.4274], [102.29152, 12.41958], [102.2767, 12.39256], [102.27004, 12.39257], [102.26353, 12.4173], [102.27003, 12.44038], [102.24241, 12.42626], [102.22827, 12.42774], [102.22218, 12.44037], [102.20574, 12.43578], [102.20102, 12.43354], [102.21062, 12.42768], [102.21435, 12.41965], [102.20851, 12.3994], [102.21461, 12.3994], [102.23585, 12.41372], [102.24707, 12.39301], [102.24269, 12.37214], [102.26302, 12.35699], [102.27345, 12.32616], [102.26481, 12.30623], [102.22829, 12.32368], [102.16684, 12.38573], [102.12437, 12.41055], [102.12599, 12.41991], [102.08705, 12.46493], [102.07195, 12.48851], [102.07813, 12.50924], [102.08595, 12.49836], [102.09864, 12.49559], [102.08546, 12.50434], [102.10564, 12.52289], [102.11232, 12.53726], [102.10475, 12.53726], [102.09295, 12.52338], [102.07815, 12.52973], [102.09864, 12.5434], [102.04785, 12.54232], [102.04332, 12.55052], [102.06446, 12.57075], [102.00929, 12.56452], [102.00929, 12.55707], [102.04322, 12.5235], [102.06445, 12.52292], [102.05746, 12.49722], [102.05697, 12.46836], [102.00896, 12.53408], [101.97348, 12.54145], [101.96078, 12.53727], [101.96078, 12.58063], [101.94988, 12.60635], [101.94597, 12.59569], [101.93426, 12.58373], [101.94776, 12.52975], [101.8996, 12.56974], [101.8926, 12.58372], [101.9131, 12.57758], [101.90943, 12.59422], [101.88576, 12.59806], [101.8778, 12.60537], [101.86524, 12.63215], [101.83025, 12.6728], [101.80836, 12.68793], [101.76612, 12.70588], [101.70444, 12.70791], [101.68637, 12.70213], [101.65983, 12.66011], [101.64212, 12.65133], [101.58106, 12.65265], [101.5735, 12.64981], [101.57105, 12.63216], [101.53907, 12.63175], [101.50904, 12.63898], [101.4651, 12.63231], [101.44288, 12.62482], [101.43328, 12.61542], [101.42887, 12.59688], [101.41814, 12.59566], [101.39291, 12.61172], [101.3235, 12.64216], [101.24887, 12.6601], [101.08774, 12.68061], [101.06666, 12.67626], [101.03207, 12.65698], [100.98862, 12.64936], [100.97771, 12.63923], [100.97445, 12.59806], [100.92613, 12.61913], [100.92613, 12.62539], [100.94077, 12.63638], [100.93458, 12.6529], [100.91765, 12.66258], [100.89959, 12.65267], [100.88868, 12.65876], [100.85796, 12.65267], [100.86687, 12.6603], [100.87143, 12.67377], [100.8511, 12.67378], [100.86459, 12.70112], [100.8375, 12.70812], [100.85484, 12.75226], [100.86793, 12.77113], [100.8921, 12.76252], [100.9157, 12.79365], [100.91993, 12.81094], [100.91326, 12.8404], [100.86867, 12.90624], [100.8646, 12.91958], [100.86818, 12.92902], [100.8921, 12.94806], [100.89959, 12.98223], [100.90821, 12.97744], [100.91879, 12.98241], [100.9336, 13.00275], [100.93312, 13.02643], [100.9114, 13.05704], [100.90577, 13.07441], [100.90154, 13.08063], [100.88138, 13.09118], [100.97305, 13.13767], [101.04778, 13.16344], [101.05325, 13.17001], [101.04696, 13.18041], [100.94371, 13.19787], [100.94451, 13.22004], [100.9336, 13.25601], [100.91246, 13.29385], [100.93239, 13.33811], [100.96534, 13.34854], [100.98129, 13.35904], [100.98715, 13.39615], [100.98512, 13.41771], [100.97089, 13.4372], [100.99578, 13.49616], [100.96318, 13.47133], [100.88923, 13.46825], [100.81398, 13.48603], [100.77133, 13.49117], [100.74977, 13.4999], [100.67986, 13.50924], [100.64967, 13.52026], [100.6102, 13.54751], [100.59205, 13.55451], [100.58961, 13.56196], [100.59669, 13.58267], [100.59783, 13.61225], [100.58692, 13.59203], [100.58318, 13.576], [100.58423, 13.53368], [100.57564, 13.5195], [100.55573, 13.51086], [100.43019, 13.48937], [100.35646, 13.48969], [100.33717, 13.48189], [100.28989, 13.50504], [100.27508, 13.51667], [100.26483, 13.49739], [100.23739, 13.47749], [100.15059, 13.44411], [100.11305, 13.43659], [100.05307, 13.41303], [100.03883, 13.40274], [100.02165, 13.36661], [100.00131, 13.37202], [100.01564, 13.36587], [100.01392, 13.34838], [100.00619, 13.33284], [99.99366, 13.32173], [99.96274, 13.30988], [99.9607, 13.29243], [99.96713, 13.25902], [99.99855, 13.21808], [100.07398, 13.15277], [100.08774, 13.09618], [100.10433, 13.05732], [100.10189, 13.03986], [100.09318, 13.02426], [100.05299, 12.96613], [100.02392, 12.84708], [99.98764, 12.79047], [99.96502, 12.71015], [99.96046, 12.66791], [99.96095, 12.62539], [99.98078, 12.54056], [99.97706, 12.47687], [99.9808, 12.45466], [100.01091, 12.38346], [100.0122, 12.36895], [100.00367, 12.35395], [99.9817, 12.27993], [99.98276, 12.27045], [100.00937, 12.24093], [100.02002, 12.1927], [100.01562, 12.18033], [99.98764, 12.15302], [99.98145, 12.11718], [99.95532, 12.0725], [99.85532, 11.96841], [99.83123, 11.92471], [99.82325, 11.87865], [99.83691, 11.84345], [99.83374, 11.83772], [99.81251, 11.8321], [99.80982, 11.82461], [99.81705, 11.77558], [99.81105, 11.75308], [99.81705, 11.74145], [99.78045, 11.73725], [99.7518, 11.70987], [99.67058, 11.57787], [99.6613, 11.55101], [99.64186, 11.52326], [99.62562, 11.44024], [99.59294, 11.36421], [99.57374, 11.34406], [99.56935, 11.33397], [99.56625, 11.27631], [99.56935, 11.25552], [99.58618, 11.21385], [99.58618, 11.19514], [99.56935, 11.17916], [99.56202, 11.19892], [99.54615, 11.19843], [99.52858, 11.18684], [99.50815, 11.16218], [99.49635, 11.13288], [99.49415, 11.11457], [99.49757, 11.09308], [99.5153, 11.03921], [99.51245, 11.01924], [99.49415, 10.96747], [99.4961, 10.94424], [99.51527, 10.88177], [99.51156, 10.86637], [99.50327, 10.86686], [99.49415, 10.87812], [99.46119, 10.87743], [99.44321, 10.87035], [99.43506, 10.80183], [99.37501, 10.71198], [99.37135, 10.70307], [99.37671, 10.68549], [99.37447, 10.68157], [99.34352, 10.67536], [99.32716, 10.66327], [99.30242, 10.63105], [99.28825, 10.56294], [99.27828, 10.54623], [99.24464, 10.53514], [99.24041, 10.52188], [99.24269, 10.51447], [99.24903, 10.51], [99.2683, 10.50819], [99.24383, 10.47236], [99.24041, 10.45698], [99.24676, 10.44392], [99.28874, 10.41201], [99.28933, 10.38106], [99.28499, 10.36449], [99.27816, 10.35738], [99.25636, 10.35615], [99.23415, 10.34371], [99.2234, 10.36538], [99.20004, 10.37849], [99.18474, 10.37129], [99.16066, 10.36799], [99.15162, 10.35737], [99.15846, 10.30272], [99.16896, 10.28775], [99.22462, 10.23237], [99.2361, 10.22932], [99.25463, 10.23443], [99.2417, 10.21451], [99.20134, 10.21064], [99.19256, 10.19627], [99.18677, 10.17244], [99.15992, 10.12832], [99.15162, 10.10346], [99.15349, 10.07583], [99.17399, 10.04291], [99.17887, 10.02529], [99.17578, 10.0135], [99.16163, 10.00332], [99.15846, 9.99055], [99.16529, 9.94648], [99.16529, 9.86762], [99.17236, 9.8574], [99.17214, 9.85045], [99.15577, 9.83478], [99.1482, 9.81924], [99.14479, 9.78823], [99.14796, 9.7674], [99.16195, 9.72712], [99.17286, 9.66523], [99.18141, 9.64326], [99.21218, 9.59747], [99.22316, 9.54263], [99.26531, 9.46601], [99.32356, 9.39155], [99.29078, 9.39008], [99.28874, 9.37727], [99.25465, 9.35684], [99.23552, 9.33633], [99.23024, 9.31977], [99.23414, 9.27827], [99.25506, 9.23249], [99.30177, 9.2226], [99.35075, 9.21917], [99.37818, 9.19294], [99.47478, 9.201], [99.50172, 9.22028], [99.5215, 9.26992], [99.53582, 9.28167], [99.54819, 9.28314], [99.59352, 9.27485], [99.61012, 9.27798], [99.64112, 9.29468], [99.67237, 9.30219], [99.68947, 9.31585], [99.73374, 9.31216], [99.73952, 9.32049], [99.75253, 9.31978], [99.78159, 9.30842], [99.8034, 9.32264], [99.81544, 9.31118], [99.85352, 9.29466], [99.85304, 9.27399], [99.85963, 9.25776], [99.87778, 9.22647], [99.88599, 9.23328], [99.88648, 9.1579], [99.89145, 9.13833], [99.91626, 9.10199], [99.9194, 9.08672], [99.91944, 9.0384], [99.9331, 9.00056], [99.91944, 8.98005], [99.91944, 8.9558], [99.93115, 8.87897], [99.92628, 8.86335], [99.93921, 8.83246], [99.95924, 8.63764], [99.96713, 8.60566], [99.98414, 8.57941], [100.04077, 8.54555], [100.07594, 8.4704], [100.09212, 8.44643], [100.09848, 8.42646], [100.10434, 8.41767], [100.13851, 8.40094], [100.14422, 8.38882], [100.15756, 8.38573], [100.18629, 8.3972], [100.1771, 8.42622], [100.17506, 8.46646], [100.16481, 8.50137], [100.13114, 8.51455], [100.15064, 8.52292], [100.18063, 8.50136], [100.20834, 8.46967], [100.22053, 8.44855], [100.27148, 8.31708], [100.30291, 8.11856], [100.4402, 7.477], [100.50063, 7.334], [100.56719, 7.22949], [100.5746, 7.20915], [100.57399, 7.19499], [100.54814, 7.19706], [100.49963, 7.24232], [100.47242, 7.25886], [100.44434, 7.25783], [100.42556, 7.26756], [100.43898, 7.29414], [100.42902, 7.32671], [100.42232, 7.36997], [100.40813, 7.3787], [100.41, 7.45832], [100.40602, 7.52765], [100.38951, 7.56618], [100.35893, 7.57861], [100.32556, 7.57448], [100.28973, 7.51836], [100.27255, 7.53127], [100.26882, 7.55744], [100.27557, 7.57696], [100.30958, 7.59772], [100.3235, 7.6164], [100.327, 7.65522], [100.32057, 7.70795], [100.30698, 7.75788], [100.28875, 7.78832], [100.2697, 7.7954], [100.21062, 7.78091], [100.15642, 7.73339], [100.14479, 7.71943], [100.14291, 7.70002], [100.15463, 7.61579], [100.17261, 7.56802], [100.1854, 7.51423], [100.22523, 7.47925], [100.26051, 7.39362], [100.27882, 7.36221], [100.30299, 7.34268], [100.34978, 7.33929], [100.37012, 7.3327], [100.37866, 7.31134], [100.38494, 7.2663], [100.39381, 7.25853], [100.41766, 7.25349], [100.42685, 7.24531], [100.40187, 7.23355], [100.39234, 7.22256], [100.39552, 7.21133], [100.41085, 7.19863], [100.42444, 7.17121], [100.43656, 7.16013], [100.45062, 7.15532], [100.46614, 7.15723], [100.4948, 7.13662], [100.51999, 7.13555], [100.55587, 7.1447], [100.58863, 7.17959], [100.58542, 7.22438], [100.76515, 6.98314], [100.78443, 6.96711], [100.82735, 6.9517], [100.84994, 6.96205], [100.89637, 6.91964], [100.94811, 6.88073], [100.99757, 6.85668], [101.19142, 6.86188], [101.23152, 6.88032], [101.24427, 6.90202], [101.27773, 6.89624], [101.29156, 6.8848], [101.31715, 6.87592], [101.35133, 6.87592], [101.34358, 6.89614], [101.3283, 6.91787], [101.26257, 6.94477], [101.29173, 6.95456], [101.32081, 6.94928], [101.38521, 6.90522], [101.48786, 6.87839], [101.55738, 6.84177], [101.6683, 6.65864], [101.77166, 6.50072], [101.80836, 6.46454], [101.90869, 6.40191], [102.02003, 6.29564], [102.15211, 6.20319], [102.16358, 6.1975], [102.18702, 6.20344], [102.19166, 6.21507], [102.18312, 6.22305], [102.16687, 6.21798], [102.17808, 6.23362], [102.19955, 6.2328], [102.31586, 6.19027], [102.33814, 6.17698], [102.3792, 6.13367], [102.37591, 6.11913], [102.07127, 6.12666], [102.06, 6.0948], [102.03344, 6.06839], [101.95939, 6.0116], [101.93474, 5.98173], [101.91975, 5.94026], [101.91929, 5.89757], [101.91293, 5.85931], [101.86921, 5.82386], [101.85474, 5.79766], [101.8255, 5.77983], [101.82022, 5.77373], [101.81227, 5.75254], [101.80048, 5.73991], [101.78415, 5.7381], [101.76286, 5.74955], [101.74002, 5.78236], [101.72679, 5.78647], [101.71475, 5.7829], [101.69661, 5.76626], [101.68669, 5.7612], [101.66592, 5.76559], [101.65036, 5.78265], [101.63078, 5.8284], [101.63408, 5.85559], [101.60515, 5.8661], [101.57931, 5.90633], [101.55791, 5.91135], [101.53466, 5.90602], [101.39265, 5.85109], [101.35756, 5.8284], [101.31896, 5.81009], [101.27969, 5.80303], [101.24899, 5.78699], [101.23359, 5.71942], [101.22502, 5.69921], [101.2123, 5.68152], [101.19685, 5.66681], [101.14998, 5.63865], [101.12218, 5.62989], [101.10544, 5.63764], [101.07877, 5.68777], [101.0598, 5.70957], [101.03733, 5.72459], [101.00839, 5.72567], [100.99862, 5.72955], [100.9672, 5.78102], [100.96529, 5.79241], [100.96772, 5.80412], [101.01531, 5.89835], [101.03185, 5.90892], [101.07112, 5.91985], [101.07877, 5.93817], [101.08745, 5.98969], [101.089, 6.04661], [101.09427, 6.08575], [101.08714, 6.1056], [101.05252, 6.13456], [101.05345, 6.15761], [101.06688, 6.17433], [101.08001, 6.18035], [101.08916, 6.18885], [101.09102, 6.21316], [101.08828, 6.23352], [101.08166, 6.24647], [101.06895, 6.25086], [101.02306, 6.24099], [101.00648, 6.24636], [100.97428, 6.27262], [100.95516, 6.26864], [100.92891, 6.24063], [100.9101, 6.2358], [100.85512, 6.24791], [100.84282, 6.24394], [100.83734, 6.23719], [100.833, 6.23668], [100.82214, 6.25988], [100.82152, 6.28877], [100.82902, 6.31626], [100.81072, 6.35576], [100.80561, 6.4148], [100.79631, 6.43395], [100.77326, 6.44731], [100.7423, 6.45012], [100.73388, 6.45638], [100.72995, 6.4932], [100.71285, 6.49304], [100.64841, 6.44715], [100.63068, 6.44478], [100.61265, 6.44917], [100.57844, 6.46426], [100.51741, 6.48191], [100.49917, 6.4903], [100.46723, 6.51322], [100.45235, 6.51686], [100.42651, 6.51389], [100.40966, 6.51526], [100.38739, 6.52208], [100.34879, 6.54061], [100.3292, 6.55777], [100.31789, 6.57671], [100.28078, 6.68892], [100.27396, 6.69626], [100.26332, 6.70001], [100.24265, 6.70026], [100.2275, 6.68887], [100.21236, 6.68918], [100.18756, 6.70796], [100.1733, 6.70342], [100.16684, 6.69512], [100.15609, 6.62058], [100.15717, 6.60353], [100.1672, 6.56614], [100.1457, 6.53952], [100.14849, 6.50449], [100.14436, 6.47958], [100.12729, 6.44229], [100.11996, 6.46312], [100.10816, 6.47956], [100.09011, 6.48486], [100.10231, 6.51708], [100.10353, 6.53319], [100.09352, 6.54011], [100.08058, 6.53681], [100.06316, 6.50672], [100.02996, 6.53466], [100.00148, 6.56726], [99.99122, 6.59785], [99.98414, 6.6022], [99.96413, 6.59375], [99.96096, 6.59846], [99.96309, 6.60551], [99.97397, 6.62271], [99.96095, 6.66055], [99.93736, 6.66475], [99.92848, 6.69261], [99.89146, 6.72505], [99.86752, 6.7626], [99.85174, 6.77644], [99.82489, 6.76961], [99.80958, 6.8083], [99.79721, 6.82168], [99.71071, 6.85416], [99.68581, 6.87735], [99.68606, 6.91747], [99.69045, 6.93548], [99.71022, 6.93797], [99.71388, 6.94221], [99.7072, 6.961], [99.68093, 6.97362], [99.68621, 7.01337], [99.67922, 7.02676], [99.70563, 7.07525], [99.71681, 7.08198], [99.74806, 7.12604], [99.74057, 7.13711], [99.69288, 7.11613], [99.67759, 7.12329], [99.6719, 7.13541], [99.67237, 7.17072], [99.6211, 7.13704], [99.61411, 7.13668], [99.61085, 7.15086], [99.584, 7.15645], [99.55799, 7.19726], [99.54006, 7.24413], [99.54537, 7.26607], [99.56674, 7.27802], [99.58522, 7.30671], [99.5984, 7.34272], [99.60353, 7.37617], [99.59734, 7.37617], [99.56901, 7.32222], [99.54957, 7.30184], [99.52468, 7.31135], [99.52053, 7.32697], [99.5254, 7.37002], [99.5215, 7.38361], [99.50815, 7.38496], [99.49781, 7.37079], [99.49098, 7.35102], [99.48805, 7.33519], [99.49219, 7.29987], [99.48828, 7.28572], [99.47071, 7.27999], [99.44493, 7.28984], [99.42067, 7.30744], [99.39235, 7.31221], [99.37819, 7.32096], [99.33661, 7.38361], [99.34588, 7.40005], [99.34742, 7.42349], [99.344, 7.46898], [99.32984, 7.5034], [99.2956, 7.50715], [99.30885, 7.52831], [99.29274, 7.62067], [99.26832, 7.61641], [99.24978, 7.62776], [99.24677, 7.63409], [99.25807, 7.63687], [99.26222, 7.64326], [99.25571, 7.65737], [99.24366, 7.67145], [99.21419, 7.68013], [99.19256, 7.70515], [99.15291, 7.73082], [99.13754, 7.74434], [99.13054, 7.76724], [99.12428, 7.76724], [99.12191, 7.73306], [99.11215, 7.70552], [99.09148, 7.69185], [99.05601, 7.69893], [99.03322, 7.72281], [99.02768, 7.78889], [99.01443, 7.81501], [99.056, 7.84736], [99.06227, 7.85936], [99.06959, 7.92487], [99.0503, 7.90547], [99.0407, 7.90185], [99.02809, 7.90376], [99.00026, 7.94257], [98.96779, 7.95621], [98.96047, 7.97639], [98.96388, 7.99828], [98.96046, 8.00678], [98.92946, 8.031], [98.91798, 8.05134], [98.89894, 8.04271], [98.88819, 8.02107], [98.8436, 8.00288], [98.82945, 8.00679], [98.81276, 8.04499], [98.8003, 8.05244], [98.78858, 8.03474], [98.77556, 8.02343], [98.77028, 8.02368], [98.76539, 8.0471], [98.74738, 8.06851], [98.74741, 8.13654], [98.74392, 8.14989], [98.74741, 8.1992], [98.74415, 8.21491], [98.72706, 8.25385], [98.71273, 8.22591], [98.70656, 8.22591], [98.70314, 8.29853], [98.6963, 8.3085], [98.67726, 8.30317], [98.6482, 8.28487], [98.63087, 8.28799], [98.63086, 8.28117], [98.62404, 8.28117], [98.62624, 8.34609], [98.64796, 8.36652], [98.65545, 8.37962], [98.60353, 8.3972], [98.59888, 8.37491], [98.58513, 8.36897], [98.56756, 8.36786], [98.55201, 8.36001], [98.52605, 8.33634], [98.51043, 8.33113], [98.5005, 8.34321], [98.49366, 8.34321], [98.48666, 8.32491]], [[100.48399, 13.95587], [100.49825, 13.95409], [100.51384, 13.96612], [100.51362, 13.9763], [100.49809, 13.98047], [100.45154, 13.97338], [100.40672, 13.95705], [100.3673, 13.93305], [100.33385, 13.90282], [100.32166, 13.88671], [100.32169, 13.87895], [100.32788, 13.87407], [100.34222, 13.87361], [100.39257, 13.91298], [100.4242, 13.93146], [100.48399, 13.95587]]]]}}]}