{"type": "FeatureCollection", "features": [{"type": "Feature", "properties": {"name": "쿠바", "name_en": "Cuba", "period": "1898년 독립", "kind": "국가", "legend": "쿠바(1898)", "map_title": "라틴 아메리카의 독립", "source": "미래엔 세계사 교과서 3권 148쪽", "volume": 3, "page": 148, "coast_snap": "Natural Earth 10m 해안선에 맞춤", "group": "쿠바", "map_folder": "3권_p148_라틴 아메리카의 독립"}, "geometry": {"type": "MultiPolygon", "coordinates": [[[[-80.9174, 19.37672], [-80.93481, 19.35877], [-80.96842, 19.33741], [-81.00102, 19.32201], [-81.0263, 19.31694], [-81.09121, 19.31648], [-81.13641, 19.32193], [-81.16886, 19.33181], [-81.17799, 19.34738], [-81.18785, 19.38626], [-80.97634, 19.39054], [-80.9444, 19.38745], [-80.92013, 19.38151], [-80.9174, 19.37672]]], [[[-82.43277, 21.57533], [-82.41683, 21.5644], [-82.4285, 21.55432], [-82.45799, 21.5666], [-82.46097, 21.57601], [-82.43277, 21.57533]]], [[[-82.27776, 21.58255], [-82.30304, 21.57257], [-82.33596, 21.56702], [-82.32957, 21.57847], [-82.30972, 21.58498], [-82.30077, 21.58128], [-82.29824, 21.58921], [-82.28176, 21.59315], [-82.28657, 21.58845], [-82.27776, 21.58255]]], [[[-81.4545, 21.6518], [-81.4427, 21.65998], [-81.4317, 21.685], [-81.4173, 21.6972], [-81.38575, 21.71605], [-81.37768, 21.71893], [-81.37166, 21.71474], [-81.37213, 21.70558], [-81.41756, 21.66792], [-81.4967, 21.61848], [-81.5277, 21.60587], [-81.56065, 21.60298], [-81.55834, 21.62373], [-81.55138, 21.62758], [-81.52351, 21.62344], [-81.51244, 21.63084], [-81.49352, 21.65704], [-81.46906, 21.64818], [-81.4545, 21.6518]]], [[[-82.96593, 21.59927], [-82.95763, 21.59235], [-82.95653, 21.58218], [-82.96593, 21.56826], [-82.9591, 21.562], [-82.94103, 21.59308], [-82.94612, 21.60464], [-82.9759, 21.60921], [-82.98765, 21.61978], [-83.07333, 21.76033], [-83.08559, 21.80028], [-83.07517, 21.84316], [-83.03283, 21.87434], [-83.01847, 21.89782], [-82.9757, 21.92182], [-82.9591, 21.92512], [-82.99259, 21.93196], [-83.0047, 21.93766], [-82.98949, 21.94842], [-82.85871, 21.9336], [-82.70354, 21.89266], [-82.69018, 21.88182], [-82.68473, 21.86616], [-82.69347, 21.83544], [-82.69254, 21.82404], [-82.67789, 21.80781], [-82.63297, 21.77363], [-82.61954, 21.77431], [-82.60962, 21.76959], [-82.59261, 21.73676], [-82.59246, 21.72884], [-82.60888, 21.69874], [-82.61644, 21.69855], [-82.60954, 21.68159], [-82.61644, 21.66446], [-82.5819, 21.64574], [-82.56803, 21.64394], [-82.57519, 21.6247], [-82.56713, 21.61201], [-82.54078, 21.59552], [-82.57123, 21.55997], [-82.59464, 21.54182], [-82.63146, 21.53075], [-82.75893, 21.47073], [-82.83556, 21.44474], [-82.90624, 21.4375], [-82.91811, 21.4416], [-82.92724, 21.45099], [-82.99258, 21.45215], [-83.03356, 21.46581], [-83.06949, 21.46516], [-83.07851, 21.46923], [-83.11115, 21.50975], [-83.16209, 21.54927], [-83.19179, 21.63031], [-83.18488, 21.63016], [-83.12362, 21.58563], [-83.11701, 21.57172], [-83.08202, 21.55146], [-83.02392, 21.54841], [-82.96923, 21.59125], [-82.96593, 21.59927]]], [[[-82.52161, 21.7113], [-82.53001, 21.71187], [-82.54015, 21.72102], [-82.5548, 21.71378], [-82.5708, 21.71606], [-82.56119, 21.72134], [-82.56111, 21.72679], [-82.56813, 21.73261], [-82.56575, 21.74636], [-82.57587, 21.76177], [-82.55476, 21.74815], [-82.55777, 21.73566], [-82.54932, 21.74444], [-82.54247, 21.73493], [-82.53059, 21.73565], [-82.52161, 21.7113]]], [[[-83.19653, 21.81069], [-83.18404, 21.78054], [-83.1842, 21.77337], [-83.20591, 21.80879], [-83.20604, 21.82533], [-83.19653, 21.81069]]], [[[-81.81754, 21.87815], [-81.81677, 21.87422], [-81.8397, 21.86861], [-81.83254, 21.8786], [-81.81754, 21.87815]]], [[[-82.6151, 21.89493], [-82.60862, 21.89771], [-82.58907, 21.88654], [-82.59683, 21.87325], [-82.60239, 21.8752], [-82.59496, 21.88679], [-82.60554, 21.88755], [-82.6151, 21.89493]]], [[[-82.66806, 21.94912], [-82.64517, 21.95452], [-82.60775, 21.93869], [-82.5912, 21.92667], [-82.6029, 21.92195], [-82.63011, 21.92073], [-82.65786, 21.93208], [-82.66806, 21.94912]]], [[[-83.43314, 21.9393], [-83.43641, 21.9422], [-83.38223, 21.95554], [-83.34909, 21.94859], [-83.43314, 21.9393]]], [[[-83.59238, 21.9601], [-83.60779, 21.9665], [-83.59781, 21.97174], [-83.54536, 21.96124], [-83.59238, 21.9601]]], [[[-81.38573, 22.02945], [-81.36555, 22.03339], [-81.36205, 22.04104], [-81.367, 22.05869], [-81.35729, 22.05443], [-81.35221, 22.0663], [-81.34195, 22.03718], [-81.3308, 22.03058], [-81.3168, 22.03529], [-81.30803, 22.03161], [-81.34602, 22.01969], [-81.35757, 22.02851], [-81.38874, 22.02311], [-81.45546, 22.07132], [-81.45161, 22.07574], [-81.43141, 22.06896], [-81.42398, 22.05565], [-81.40478, 22.04169], [-81.39615, 22.04367], [-81.39184, 22.03254], [-81.38573, 22.02945]]], [[[-81.58886, 22.06458], [-81.58885, 22.07269], [-81.58272, 22.07648], [-81.55627, 22.06598], [-81.5494, 22.05841], [-81.54704, 22.04459], [-81.58185, 22.05061], [-81.58886, 22.06458]]], [[[-84.39529, 22.40449], [-84.38065, 22.40704], [-84.37846, 22.39981], [-84.38275, 22.3942], [-84.39106, 22.39549], [-84.40764, 22.38795], [-84.44687, 22.40241], [-84.44188, 22.4042], [-84.43716, 22.41705], [-84.43245, 22.42042], [-84.43114, 22.41515], [-84.39529, 22.40449]]], [[[-82.36947, 22.504], [-82.37041, 22.47269], [-82.38145, 22.47729], [-82.37538, 22.50161], [-82.36947, 22.504]]], [[[-82.6896, 22.57312], [-82.6985, 22.58535], [-82.68651, 22.59673], [-82.67904, 22.58096], [-82.6896, 22.57312]]], [[[-82.52744, 22.56347], [-82.5283, 22.64003], [-82.52457, 22.64084], [-82.51444, 22.62504], [-82.50773, 22.59008], [-82.52286, 22.55933], [-82.52744, 22.56347]]], [[[-83.77737, 22.81102], [-83.80053, 22.80528], [-83.80875, 22.79943], [-83.81067, 22.78759], [-83.81866, 22.7804], [-83.8163, 22.79084], [-83.80466, 22.80712], [-83.78771, 22.81695], [-83.76347, 22.8113], [-83.76249, 22.80679], [-83.77106, 22.80188], [-83.76993, 22.80842], [-83.77737, 22.81102]]], [[[-78.33313, 20.55463], [-78.32615, 20.53531], [-78.32837, 20.52132], [-78.33898, 20.51802], [-78.36897, 20.53653], [-78.39659, 20.54646], [-78.40978, 20.57363], [-78.46343, 20.60245], [-78.44921, 20.61293], [-78.43351, 20.60951], [-78.38418, 20.56216], [-78.36726, 20.55463], [-78.36448, 20.57021], [-78.3553, 20.57342], [-78.34359, 20.56732], [-78.33313, 20.55463]]], [[[-78.60097, 20.64526], [-78.61339, 20.65793], [-78.60883, 20.66061], [-78.57994, 20.654], [-78.58169, 20.66159], [-78.57829, 20.64843], [-78.58569, 20.64363], [-78.60097, 20.64526]]], [[[-78.39349, 20.64501], [-78.38793, 20.6496], [-78.39357, 20.65367], [-78.38484, 20.66457], [-78.37865, 20.65082], [-78.372, 20.65029], [-78.37667, 20.64233], [-78.38671, 20.64091], [-78.39349, 20.64501]]], [[[-78.62976, 20.65883], [-78.63118, 20.65315], [-78.64647, 20.6523], [-78.65614, 20.65852], [-78.65174, 20.66487], [-78.62976, 20.65883]]], [[[-78.49576, 20.70124], [-78.51183, 20.69116], [-78.54538, 20.70425], [-78.53319, 20.71278], [-78.50077, 20.71965], [-78.48397, 20.73215], [-78.47647, 20.72598], [-78.4558, 20.73175], [-78.43617, 20.72597], [-78.44913, 20.71163], [-78.49576, 20.70124]]], [[[-78.80704, 20.75722], [-78.78597, 20.74896], [-78.75086, 20.72598], [-78.76806, 20.71224], [-78.79234, 20.71992], [-78.8148, 20.73746], [-78.82655, 20.75323], [-78.80704, 20.75722]]], [[[-78.66159, 20.75621], [-78.65953, 20.76434], [-78.64323, 20.77349], [-78.6455, 20.76158], [-78.63619, 20.7654], [-78.64107, 20.73201], [-78.64708, 20.7327], [-78.66159, 20.75621]]], [[[-78.49193, 20.74247], [-78.5075, 20.77726], [-78.48959, 20.75473], [-78.49193, 20.74247]]], [[[-78.87662, 20.80922], [-78.85856, 20.79954], [-78.84705, 20.77315], [-78.85448, 20.77315], [-78.87149, 20.78486], [-78.90124, 20.78817], [-78.91245, 20.80822], [-78.87662, 20.80922]]], [[[-78.63662, 20.83812], [-78.63077, 20.8414], [-78.62158, 20.83331], [-78.6215, 20.82206], [-78.62608, 20.8208], [-78.63134, 20.82611], [-78.63662, 20.83812]]], [[[-78.72902, 21.11137], [-78.71589, 21.09888], [-78.70439, 21.08113], [-78.71296, 21.0926], [-78.72455, 21.09411], [-78.74379, 21.10769], [-78.72902, 21.11137]]], [[[-79.38888, 21.12323], [-79.35733, 21.12758], [-79.33208, 21.11329], [-79.30902, 21.09079], [-79.33001, 21.09017], [-79.33853, 21.09984], [-79.34679, 21.10126], [-79.35412, 21.09591], [-79.38888, 21.12323]]], [[[-84.84822, 21.92109], [-84.86459, 21.93195], [-84.84756, 21.94061], [-84.83239, 21.94057], [-84.82292, 21.93089], [-84.82299, 21.91083], [-84.74107, 21.9518], [-84.66845, 21.97187], [-84.58332, 22.00751], [-84.52135, 22.04803], [-84.49593, 22.04734], [-84.48967, 22.04279], [-84.49405, 22.03498], [-84.46264, 22.02204], [-84.43932, 22.02814], [-84.41665, 22.04099], [-84.38732, 22.04803], [-84.35583, 22.03408], [-84.34167, 22.02167], [-84.33096, 22.00458], [-84.30382, 22.0229], [-84.28856, 22.0207], [-84.27432, 22.076], [-84.30835, 22.03683], [-84.32212, 22.04805], [-84.33019, 22.09333], [-84.34999, 22.10261], [-84.3358, 22.13056], [-84.35463, 22.1326], [-84.39281, 22.14851], [-84.40533, 22.15791], [-84.42927, 22.20173], [-84.44565, 22.20503], [-84.42447, 22.22915], [-84.41535, 22.24738], [-84.40539, 22.3085], [-84.39101, 22.35276], [-84.37392, 22.38069], [-84.35314, 22.38719], [-84.34259, 22.41107], [-84.32108, 22.44034], [-84.3065, 22.45563], [-84.28856, 22.46577], [-84.28856, 22.47321], [-84.30904, 22.47322], [-84.29181, 22.48626], [-84.24901, 22.49356], [-84.2303, 22.50361], [-84.20453, 22.54704], [-84.12845, 22.54263], [-84.05432, 22.52432], [-83.98594, 22.49308], [-83.90294, 22.43068], [-83.89557, 22.432], [-83.83023, 22.47939], [-83.82727, 22.49049], [-83.84948, 22.52147], [-83.88198, 22.58499], [-83.90076, 22.65403], [-83.90439, 22.72673], [-83.89757, 22.7202], [-83.88804, 22.74143], [-83.87279, 22.75079], [-83.81265, 22.75674], [-83.74399, 22.789], [-83.70913, 22.80068], [-83.69252, 22.80212], [-83.66894, 22.79491], [-83.65111, 22.79682], [-83.63004, 22.80834], [-83.63004, 22.81582], [-83.64436, 22.80834], [-83.64623, 22.81538], [-83.65117, 22.81583], [-83.62987, 22.82831], [-83.6079, 22.83437], [-83.55801, 22.83625], [-83.54132, 22.87384], [-83.53519, 22.87692], [-83.49354, 22.87725], [-83.50036, 22.86359], [-83.48082, 22.86026], [-83.46911, 22.87059], [-83.4525, 22.89776], [-83.43757, 22.90346], [-83.39729, 22.88409], [-83.40437, 22.87376], [-83.39346, 22.8769], [-83.36937, 22.89399], [-83.34857, 22.93195], [-83.32965, 22.95107], [-83.29817, 22.96332], [-83.24529, 22.9944], [-83.22281, 22.97758], [-83.2149, 22.9797], [-83.19547, 22.99868], [-83.17838, 22.98666], [-83.17821, 22.98031], [-83.18737, 22.97382], [-83.19123, 22.96186], [-83.18932, 22.94782], [-83.18163, 22.93529], [-83.16942, 22.93012], [-83.14342, 22.95303], [-83.16168, 22.96695], [-83.16033, 22.98011], [-83.14582, 22.99139], [-83.12384, 23.00006], [-83.08194, 23.00764], [-83.05551, 23.02117], [-83.02058, 23.00764], [-83.00202, 23.01922], [-82.99278, 23.01449], [-82.98633, 23.00409], [-83.00284, 22.99946], [-83.00691, 22.99396], [-83.0028, 22.98359], [-82.99669, 22.98017], [-82.98888, 22.98363], [-82.97962, 22.99395], [-82.98168, 22.97419], [-82.96422, 22.97289], [-82.94245, 22.98631], [-82.91759, 23.03245], [-82.88516, 23.0331], [-82.84936, 23.02778], [-82.80329, 23.03879], [-82.71272, 23.0349], [-82.61998, 23.04613], [-82.59602, 23.05536], [-82.57551, 23.05402], [-82.53209, 23.07708], [-82.51, 23.08332], [-82.48977, 23.1037], [-82.46768, 23.10855], [-82.43829, 23.12737], [-82.32281, 23.10527], [-82.20663, 23.07669], [-82.16128, 23.0624], [-82.05008, 23.00788], [-81.78011, 22.94801], [-81.74171, 22.93604], [-81.68091, 22.90785], [-81.6335, 22.90368], [-81.55688, 22.88539], [-81.48512, 22.85269], [-81.40456, 22.80075], [-81.31644, 22.7659], [-81.23915, 22.77365], [-81.10361, 22.76594], [-81.03861, 22.75661], [-80.96645, 22.73352], [-80.90683, 22.7016], [-80.9857, 22.69893], [-81.05475, 22.68], [-81.0965, 22.67462], [-81.19292, 22.67605], [-81.26342, 22.68893], [-81.27184, 22.6799], [-81.26249, 22.64455], [-81.25346, 22.63815], [-81.19466, 22.64272], [-81.11218, 22.63463], [-81.06457, 22.62356], [-80.99999, 22.59865], [-80.95589, 22.57389], [-80.89244, 22.52611], [-80.81756, 22.43854], [-80.80866, 22.43964], [-80.77029, 22.47155], [-80.70683, 22.50869], [-80.67184, 22.52305], [-80.59907, 22.54168], [-80.50129, 22.55288], [-80.45193, 22.53626], [-80.39911, 22.51049], [-80.33975, 22.51288], [-80.30096, 22.50988], [-80.25296, 22.482], [-80.17981, 22.42298], [-80.09774, 22.34013], [-80.05582, 22.28249], [-80.03954, 22.25112], [-80.0146, 22.1806], [-79.91606, 22.1496], [-79.8601, 22.12185], [-79.85645, 22.06311], [-79.85947, 22.02777], [-79.86629, 21.99245], [-79.8887, 21.92935], [-79.88187, 21.91907], [-79.67691, 21.90748], [-79.58819, 21.90901], [-79.48686, 21.92749], [-79.22062, 21.99344], [-79.12143, 22.01327], [-79.07962, 22.00423], [-79.01052, 21.9726], [-79.00308, 21.97438], [-78.96521, 22.00796], [-78.94335, 22.00722], [-78.98914, 22.03176], [-79.11311, 22.01794], [-79.12929, 22.05067], [-79.15053, 22.11866], [-79.15714, 22.18876], [-79.14894, 22.25916], [-79.12593, 22.32712], [-79.09193, 22.38519], [-79.062, 22.38666], [-79.00528, 22.40427], [-78.82868, 22.38833], [-78.78186, 22.3906], [-78.75764, 22.32233], [-78.74462, 22.32916], [-78.73461, 22.31623], [-78.72533, 22.32421], [-78.70987, 22.3559], [-78.72265, 22.37271], [-78.73777, 22.38378], [-78.73777, 22.3906], [-78.70808, 22.3869], [-78.67614, 22.357], [-78.56689, 22.32102], [-78.5244, 22.28327], [-78.48396, 22.26032], [-78.39989, 22.24405], [-78.38151, 22.24664], [-78.3815, 22.21931], [-78.36726, 22.22674], [-78.3439, 22.18891], [-78.30142, 22.1638], [-78.27164, 22.16404], [-78.22191, 22.14704], [-78.17236, 22.14361], [-78.16366, 22.13934], [-78.15559, 22.10952], [-78.12172, 22.10785], [-78.12829, 22.10261], [-78.11779, 22.09345], [-78.07982, 22.08218], [-78.06506, 22.08697], [-78.05558, 22.07745], [-78.04231, 22.05117], [-78.01782, 22.02753], [-77.99324, 21.97968], [-77.98522, 21.97004], [-77.96134, 21.95823], [-77.91557, 21.91442], [-77.88805, 21.86986], [-77.87605, 21.87153], [-77.87035, 21.88154], [-77.86558, 21.95624], [-77.86009, 21.96612], [-77.84911, 21.97052], [-77.80614, 21.96613], [-77.81502, 21.95577], [-77.847, 21.95038], [-77.85391, 21.94184], [-77.84854, 21.91059], [-77.82201, 21.88028], [-77.8133, 21.87645], [-77.78873, 21.87668], [-77.77795, 21.87002], [-77.76089, 21.8133], [-77.75158, 21.80463], [-77.70446, 21.78925], [-77.68977, 21.79587], [-77.66466, 21.78116], [-77.60387, 21.78973], [-77.58642, 21.7879], [-77.52497, 21.75381], [-77.52439, 21.76764], [-77.51659, 21.77459], [-77.49084, 21.78114], [-77.48925, 21.77123], [-77.47745, 21.76637], [-77.46288, 21.76683], [-77.46969, 21.78114], [-77.45564, 21.77684], [-77.422, 21.74641], [-77.43635, 21.74463], [-77.45254, 21.75068], [-77.45604, 21.73334], [-77.45373, 21.71503], [-77.43029, 21.65762], [-77.3872, 21.65012], [-77.35676, 21.63654], [-77.34716, 21.63862], [-77.33654, 21.65013], [-77.34288, 21.66755], [-77.35241, 21.67951], [-77.3784, 21.69051], [-77.38902, 21.70368], [-77.41169, 21.76341], [-77.44237, 21.77774], [-77.4482, 21.79965], [-77.45914, 21.80927], [-77.47655, 21.80098], [-77.49083, 21.81525], [-77.50439, 21.80355], [-77.51853, 21.81185], [-77.54548, 21.84317], [-77.58307, 21.87328], [-77.59366, 21.88874], [-77.60049, 21.89045], [-77.61431, 21.8842], [-77.60582, 21.90127], [-77.58991, 21.91925], [-77.57164, 21.9308], [-77.55602, 21.92853], [-77.52124, 21.90118], [-77.50756, 21.86245], [-77.39703, 21.789], [-77.33007, 21.76633], [-77.26773, 21.71752], [-77.25431, 21.71283], [-77.18065, 21.66425], [-77.15184, 21.66006], [-77.13396, 21.66444], [-77.14171, 21.64557], [-77.12028, 21.61603], [-77.12377, 21.59618], [-77.14782, 21.57197], [-77.15441, 21.5546], [-77.18541, 21.58186], [-77.26602, 21.61424], [-77.28478, 21.61603], [-77.29378, 21.6025], [-77.33316, 21.62344], [-77.35619, 21.62165], [-77.36425, 21.61176], [-77.36095, 21.60077], [-77.33801, 21.59295], [-77.31273, 21.5751], [-77.27477, 21.57509], [-77.25513, 21.56744], [-77.25, 21.55085], [-77.25715, 21.53444], [-77.27477, 21.52668], [-77.27758, 21.51846], [-77.25805, 21.47639], [-77.2085, 21.47605], [-77.21646, 21.4584], [-77.16186, 21.48013], [-77.15307, 21.49527], [-77.14074, 21.54841], [-77.11547, 21.59321], [-77.10727, 21.60295], [-77.08829, 21.60617], [-77.06976, 21.59557], [-76.94677, 21.45905], [-76.89371, 21.43163], [-76.83845, 21.42059], [-76.82544, 21.4112], [-76.83227, 21.39753], [-76.81177, 21.39752], [-76.81762, 21.3769], [-76.82555, 21.36664], [-76.87316, 21.36107], [-76.88744, 21.35566], [-76.89745, 21.3461], [-76.90119, 21.33202], [-76.88728, 21.30736], [-76.83617, 21.33245], [-76.8391, 21.30756], [-76.82946, 21.31411], [-76.81859, 21.34854], [-76.82541, 21.34854], [-76.81143, 21.36807], [-76.80557, 21.39008], [-76.74413, 21.37027], [-76.73058, 21.37493], [-76.70934, 21.36278], [-76.65608, 21.34954], [-76.64249, 21.33551], [-76.6366, 21.32136], [-76.64391, 21.31501], [-76.71618, 21.28766], [-76.71231, 21.30264], [-76.72151, 21.31147], [-76.73144, 21.31192], [-76.73469, 21.28555], [-76.68542, 21.27004], [-76.65331, 21.2519], [-76.61315, 21.24673], [-76.61315, 21.25292], [-76.64147, 21.26463], [-76.65403, 21.28775], [-76.65354, 21.29413], [-76.6343, 21.30133], [-76.61677, 21.30181], [-76.59293, 21.29481], [-76.5708, 21.28241], [-76.55793, 21.26659], [-76.55167, 21.26659], [-76.55165, 21.28765], [-76.54492, 21.28765], [-76.54842, 21.24763], [-76.55989, 21.23453], [-76.61315, 21.23237], [-76.61315, 21.22557], [-76.5927, 21.22557], [-76.60631, 21.21874], [-76.59826, 21.20588], [-76.56534, 21.21197], [-76.54674, 21.18781], [-76.53746, 21.18464], [-76.5255, 21.1916], [-76.51455, 21.20526], [-76.49706, 21.20515], [-76.45612, 21.22557], [-76.51695, 21.23925], [-76.52903, 21.25264], [-76.53238, 21.26862], [-76.52553, 21.28204], [-76.50731, 21.28766], [-76.38756, 21.28432], [-76.36303, 21.27708], [-76.34879, 21.26606], [-76.31653, 21.25421], [-76.27587, 21.22504], [-76.16967, 21.18715], [-76.13782, 21.16722], [-76.13001, 21.13556], [-76.13073, 21.11416], [-76.11677, 21.0915], [-76.10985, 21.09223], [-76.08401, 21.11044], [-76.07244, 21.11293], [-76.05806, 21.10945], [-76.04116, 21.09682], [-76.03718, 21.07477], [-76.03091, 21.07477], [-76.02355, 21.08904], [-76.01671, 21.07368], [-76.00817, 21.0703], [-76.00219, 21.07807], [-76.00303, 21.09588], [-75.95531, 21.09589], [-75.92465, 21.1157], [-75.89044, 21.10783], [-75.88195, 21.09028], [-75.87352, 21.08877], [-75.86828, 21.09308], [-75.87336, 21.10211], [-75.82176, 21.13686], [-75.80127, 21.12929], [-75.79402, 21.11904], [-75.73248, 21.12328], [-75.70401, 21.11896], [-75.68433, 21.10309], [-75.67536, 21.06859], [-75.6359, 21.07635], [-75.61316, 21.06256], [-75.57849, 21.01337], [-75.59896, 20.97237], [-75.62011, 20.95124], [-75.62626, 20.92418], [-75.63476, 20.9127], [-75.66515, 20.89008], [-75.68153, 20.89045], [-75.6964, 20.92487], [-75.70887, 20.91772], [-75.72362, 20.92341], [-75.7355, 20.91771], [-75.72142, 20.91445], [-75.7157, 20.90352], [-75.74401, 20.90156], [-75.7434, 20.88935], [-75.72183, 20.85505], [-75.71569, 20.85505], [-75.70449, 20.87083], [-75.67813, 20.87824], [-75.62634, 20.87676], [-75.58467, 20.85669], [-75.57849, 20.85195], [-75.57331, 20.82754], [-75.56493, 20.82148], [-75.55121, 20.82131], [-75.55907, 20.79767], [-75.57315, 20.79768], [-75.61017, 20.81656], [-75.62011, 20.83584], [-75.6306, 20.84308], [-75.70474, 20.82869], [-75.77025, 20.83584], [-75.76502, 20.82444], [-75.76633, 20.8118], [-75.77648, 20.78742], [-75.77661, 20.7687], [-75.78392, 20.7464], [-75.76305, 20.71601], [-75.72452, 20.6955], [-75.70885, 20.69058], [-75.69102, 20.72288], [-75.64318, 20.76073], [-75.63312, 20.78057], [-75.61731, 20.76862], [-75.60775, 20.75316], [-75.60571, 20.73599], [-75.61262, 20.71849], [-75.58682, 20.72149], [-75.57752, 20.71844], [-75.58357, 20.69823], [-75.55114, 20.68439], [-75.5567, 20.70643], [-75.49779, 20.69343], [-75.48221, 20.71166], [-75.47606, 20.71166], [-75.44811, 20.69115], [-75.44066, 20.71166], [-75.45718, 20.71796], [-75.47605, 20.71849], [-75.46361, 20.73407], [-75.43969, 20.74062], [-75.4139, 20.74115], [-75.39395, 20.73888], [-75.35604, 20.71991], [-75.34925, 20.70849], [-75.37304, 20.70425], [-75.35936, 20.67756], [-75.35261, 20.67756], [-75.34578, 20.69112], [-75.33723, 20.66966], [-75.31282, 20.66474], [-75.25634, 20.67072], [-75.31159, 20.69945], [-75.33125, 20.70441], [-75.31871, 20.7171], [-75.2943, 20.72312], [-75.26798, 20.72332], [-75.2495, 20.71849], [-75.25633, 20.72597], [-75.19456, 20.71569], [-75.18197, 20.70912], [-75.17859, 20.70222], [-75.1949, 20.69798], [-75.1949, 20.69115], [-75.16698, 20.68439], [-75.16076, 20.69113], [-75.14908, 20.68309], [-75.11535, 20.68658], [-75.10611, 20.66327], [-75.0987, 20.68438], [-75.08039, 20.67365], [-75.07193, 20.67324], [-75.06456, 20.67756], [-75.07875, 20.69114], [-74.99836, 20.70074], [-74.95109, 20.68357], [-74.94075, 20.6684], [-74.90005, 20.67072], [-74.8509, 20.63459], [-74.77184, 20.62579], [-74.75122, 20.61956], [-74.7356, 20.60928], [-74.74987, 20.60244], [-74.73559, 20.57856], [-74.73257, 20.56485], [-74.70983, 20.55223], [-74.6735, 20.54095], [-74.66999, 20.52766], [-74.60522, 20.48574], [-74.5548, 20.41446], [-74.49498, 20.35517], [-74.45027, 20.34308], [-74.42342, 20.32757], [-74.40112, 20.30727], [-74.39297, 20.28653], [-74.38557, 20.28653], [-74.37218, 20.30051], [-74.31041, 20.29393], [-74.25719, 20.31964], [-74.23595, 20.32122], [-74.22375, 20.31744], [-74.15967, 20.27341], [-74.14766, 20.25933], [-74.13959, 20.24213], [-74.13289, 20.20458], [-74.14197, 20.18261], [-74.18407, 20.16266], [-74.19808, 20.14888], [-74.22509, 20.13569], [-74.2303, 20.13032], [-74.23596, 20.09468], [-74.26741, 20.06831], [-74.30451, 20.06934], [-74.34659, 20.07958], [-74.39297, 20.08104], [-74.45562, 20.06873], [-74.49836, 20.06562], [-74.58048, 20.04765], [-74.61865, 20.05452], [-74.65019, 20.04217], [-74.71312, 20.0518], [-74.81298, 20.03726], [-74.838, 20.02643], [-74.88781, 19.98409], [-74.94733, 19.97595], [-74.95552, 19.96781], [-74.96157, 19.94701], [-74.97787, 19.92304], [-75.01009, 19.91158], [-75.04566, 19.90761], [-75.05104, 19.91937], [-75.05823, 19.92297], [-75.06352, 19.9216], [-75.06634, 19.90487], [-75.09178, 19.89715], [-75.16191, 19.89115], [-75.16437, 19.91371], [-75.11786, 19.94407], [-75.10439, 19.94276], [-75.10104, 19.95315], [-75.11676, 19.96705], [-75.12985, 19.95563], [-75.13963, 19.96499], [-75.12975, 19.98114], [-75.11505, 19.99061], [-75.10208, 19.9929], [-75.09013, 20.01414], [-75.08486, 20.02589], [-75.0908, 20.03547], [-75.09244, 20.06122], [-75.11279, 20.05748], [-75.1358, 20.02131], [-75.15433, 20.03117], [-75.16942, 20.02558], [-75.17736, 20.00397], [-75.17406, 19.99348], [-75.15807, 19.99136], [-75.15331, 19.99915], [-75.14701, 19.98427], [-75.15913, 19.97777], [-75.17121, 19.95752], [-75.15675, 19.93891], [-75.18396, 19.93359], [-75.19604, 19.92191], [-75.20895, 19.92925], [-75.21811, 19.92401], [-75.21786, 19.91946], [-75.20575, 19.91154], [-75.19224, 19.90997], [-75.19102, 19.90633], [-75.28487, 19.88824], [-75.38329, 19.88248], [-75.44441, 19.89671], [-75.46182, 19.88248], [-75.5209, 19.87963], [-75.55085, 19.88517], [-75.57164, 19.89671], [-75.60472, 19.89205], [-75.72183, 19.95751], [-75.81549, 19.95753], [-75.89379, 19.97183], [-75.93212, 19.96768], [-75.98009, 19.95239], [-76.11205, 19.98249], [-76.20226, 19.99234], [-76.24816, 19.99063], [-76.32771, 19.97023], [-76.36578, 19.96504], [-76.46028, 19.9621], [-76.5244, 19.94392], [-76.6516, 19.95112], [-76.78108, 19.94074], [-76.80175, 19.93074], [-76.86644, 19.93769], [-76.88182, 19.93138], [-76.91437, 19.90653], [-76.95913, 19.89105], [-77.08804, 19.88545], [-77.11343, 19.88932], [-77.1634, 19.90811], [-77.18895, 19.91258], [-77.20304, 19.9029], [-77.22728, 19.91108], [-77.23717, 19.90689], [-77.24377, 19.89673], [-77.26915, 19.90453], [-77.29825, 19.90668], [-77.32409, 19.90029], [-77.34, 19.88247], [-77.31274, 19.88246], [-77.31274, 19.87565], [-77.33047, 19.87482], [-77.35878, 19.86445], [-77.46996, 19.85956], [-77.53369, 19.84488], [-77.56933, 19.84151], [-77.61148, 19.84463], [-77.67325, 19.82894], [-77.70604, 19.83003], [-77.73072, 19.84502], [-77.7372, 19.8557], [-77.73598, 19.87417], [-77.71736, 19.90721], [-77.71617, 19.91656], [-77.69612, 19.91999], [-77.68212, 19.92959], [-77.66832, 19.94391], [-77.67136, 19.95478], [-77.66673, 19.96246], [-77.64786, 19.97866], [-77.62042, 20.02032], [-77.57274, 20.0611], [-77.5747, 20.06981], [-77.58811, 20.08247], [-77.58641, 20.08852], [-77.55102, 20.07978], [-77.54108, 20.08876], [-77.52188, 20.09455], [-77.49697, 20.12945], [-77.43664, 20.16242], [-77.42023, 20.18503], [-77.40135, 20.19806], [-77.30086, 20.24265], [-77.28136, 20.24555], [-77.26647, 20.25324], [-77.25071, 20.28929], [-77.23631, 20.30076], [-77.22331, 20.30076], [-77.22899, 20.28913], [-77.22297, 20.28339], [-77.19542, 20.28653], [-77.17121, 20.30728], [-77.16184, 20.33832], [-77.11343, 20.36848], [-77.11025, 20.41641], [-77.09582, 20.43016], [-77.08243, 20.46528], [-77.11343, 20.51244], [-77.15014, 20.53791], [-77.19567, 20.55215], [-77.18921, 20.54098], [-77.19543, 20.53414], [-77.22948, 20.55293], [-77.23989, 20.56306], [-77.24375, 20.58535], [-77.24038, 20.5921], [-77.21646, 20.60244], [-77.19542, 20.62979], [-77.19542, 20.63654], [-77.23168, 20.65827], [-77.25105, 20.66209], [-77.25805, 20.6434], [-77.27818, 20.66206], [-77.31485, 20.70905], [-77.34313, 20.71849], [-77.40319, 20.70917], [-77.42935, 20.69843], [-77.44237, 20.68441], [-77.45767, 20.68989], [-77.49362, 20.67748], [-77.52196, 20.68033], [-77.57274, 20.69798], [-77.62051, 20.67757], [-77.64928, 20.69257], [-77.68648, 20.69202], [-77.71272, 20.70112], [-77.72964, 20.698], [-77.77843, 20.70076], [-77.79556, 20.70589], [-77.82213, 20.72305], [-77.87751, 20.73216], [-77.89924, 20.72728], [-77.92688, 20.70491], [-77.94205, 20.698], [-78.00707, 20.6962], [-78.0409, 20.70444], [-78.05191, 20.72598], [-78.0594, 20.72598], [-78.06554, 20.71168], [-78.09838, 20.74811], [-78.13206, 20.7574], [-78.14392, 20.76808], [-78.16177, 20.80044], [-78.19079, 20.82762], [-78.21105, 20.8395], [-78.22692, 20.83894], [-78.23766, 20.83341], [-78.24372, 20.85505], [-78.26196, 20.87799], [-78.27204, 20.90111], [-78.34268, 20.94941], [-78.35635, 20.95303], [-78.39147, 20.95125], [-78.40391, 20.95796], [-78.42992, 20.9997], [-78.47899, 21.03758], [-78.48803, 21.03874], [-78.49473, 21.04792], [-78.50084, 21.08184], [-78.50438, 21.14712], [-78.51228, 21.17512], [-78.53819, 21.23164], [-78.53172, 21.26038], [-78.52257, 21.25031], [-78.51146, 21.24885], [-78.5021, 21.25556], [-78.4982, 21.26996], [-78.50552, 21.28022], [-78.53799, 21.29036], [-78.54539, 21.2976], [-78.5633, 21.38345], [-78.58209, 21.41389], [-78.59244, 21.46182], [-78.60782, 21.49372], [-78.62816, 21.52106], [-78.66535, 21.55117], [-78.74645, 21.56826], [-78.75108, 21.57551], [-78.74461, 21.58929], [-78.72061, 21.58124], [-78.6931, 21.58186], [-78.68912, 21.58641], [-78.70678, 21.61262], [-78.74462, 21.63654], [-78.76651, 21.63972], [-78.78556, 21.63033], [-78.83159, 21.62037], [-78.87841, 21.61603], [-78.88903, 21.60969], [-78.89898, 21.5955], [-78.95995, 21.59955], [-78.97057, 21.59554], [-78.97737, 21.60297], [-79.01256, 21.59013], [-79.07555, 21.58609], [-79.12839, 21.56194], [-79.16926, 21.55171], [-79.20911, 21.54851], [-79.24942, 21.55196], [-79.32958, 21.57368], [-79.36465, 21.59927], [-79.45007, 21.59552], [-79.472, 21.60191], [-79.49131, 21.61604], [-79.51529, 21.64859], [-79.52221, 21.63004], [-79.5297, 21.62345], [-79.53966, 21.62198], [-79.56493, 21.63789], [-79.61367, 21.65132], [-79.62179, 21.65783], [-79.63927, 21.68773], [-79.65209, 21.69172], [-79.72273, 21.69344], [-79.79011, 21.71161], [-79.81579, 21.71125], [-79.83386, 21.67769], [-79.85081, 21.68009], [-79.89536, 21.69856], [-79.89536, 21.70538], [-79.87487, 21.71284], [-79.87487, 21.71906], [-79.89036, 21.7224], [-79.89538, 21.76], [-79.91235, 21.74837], [-79.93023, 21.74331], [-79.97144, 21.74637], [-80.00365, 21.75581], [-80.01269, 21.75381], [-80.01537, 21.74673], [-80.00902, 21.73994], [-79.99098, 21.73334], [-80.00325, 21.72091], [-80.02179, 21.7292], [-80.0388, 21.74715], [-80.05533, 21.8037], [-80.06725, 21.81704], [-80.18822, 21.84847], [-80.21768, 21.87149], [-80.26992, 21.88704], [-80.30096, 21.91187], [-80.40975, 22.02055], [-80.41674, 22.0412], [-80.43703, 22.04115], [-80.4481, 22.05029], [-80.45091, 22.0685], [-80.41934, 22.06664], [-80.40217, 22.07168], [-80.38878, 22.08218], [-80.40989, 22.076], [-80.39615, 22.10139], [-80.39631, 22.10952], [-80.40429, 22.11262], [-80.42535, 22.11006], [-80.42418, 22.12311], [-80.44392, 22.12321], [-80.45652, 22.13045], [-80.45774, 22.14276], [-80.44343, 22.1579], [-80.46746, 22.17179], [-80.48445, 22.19204], [-80.49129, 22.18184], [-80.50357, 22.17822], [-80.53283, 22.18578], [-80.53824, 22.16445], [-80.5288, 22.15086], [-80.49866, 22.13055], [-80.47095, 22.08927], [-80.46467, 22.06476], [-80.47078, 22.04122], [-80.51374, 22.05634], [-80.63777, 22.05305], [-80.7611, 22.0611], [-80.90552, 22.04615], [-80.99209, 22.05428], [-81.04918, 22.07844], [-81.08844, 22.08585], [-81.10366, 22.0959], [-81.11362, 22.11103], [-81.1429, 22.17133], [-81.1361, 22.22988], [-81.16714, 22.27082], [-81.19396, 22.28156], [-81.20519, 22.27806], [-81.21182, 22.26777], [-81.19758, 22.21225], [-81.19689, 22.09152], [-81.20471, 22.0603], [-81.22548, 22.06168], [-81.21125, 22.08348], [-81.21544, 22.11498], [-81.22981, 22.14395], [-81.23912, 22.15107], [-81.27331, 22.1374], [-81.27954, 22.10261], [-81.29133, 22.09757], [-81.31428, 22.10952], [-81.32152, 22.10472], [-81.3256, 22.09171], [-81.33788, 22.08903], [-81.37409, 22.10416], [-81.39611, 22.17072], [-81.43407, 22.18578], [-81.48239, 22.18584], [-81.52351, 22.20502], [-81.54589, 22.18888], [-81.5712, 22.17838], [-81.58117, 22.19204], [-81.63956, 22.21271], [-81.65148, 22.21296], [-81.65686, 22.20198], [-81.66684, 22.19789], [-81.71173, 22.19914], [-81.732, 22.20502], [-81.73462, 22.19278], [-81.74086, 22.18971], [-81.75992, 22.19204], [-81.75253, 22.17838], [-81.80992, 22.18379], [-81.82445, 22.18892], [-81.84967, 22.215], [-81.86238, 22.24356], [-81.87971, 22.2604], [-82.02108, 22.31318], [-82.05997, 22.33731], [-82.08824, 22.34224], [-82.10562, 22.37018], [-82.1376, 22.37215], [-82.1543, 22.37976], [-82.16396, 22.39688], [-82.15837, 22.41253], [-82.14658, 22.42203], [-82.11873, 22.43181], [-82.00363, 22.42815], [-81.96608, 22.43711], [-81.93947, 22.43322], [-81.89058, 22.43854], [-81.84114, 22.43076], [-81.78964, 22.43832], [-81.75007, 22.454], [-81.73884, 22.45209], [-81.7285, 22.45721], [-81.70873, 22.45718], [-81.6835, 22.4636], [-81.65156, 22.48783], [-81.65129, 22.53384], [-81.64326, 22.57274], [-81.67263, 22.57769], [-81.75339, 22.63804], [-81.8775, 22.67973], [-81.99254, 22.6717], [-82.09879, 22.65493], [-82.13097, 22.66787], [-82.19885, 22.68577], [-82.27484, 22.68562], [-82.33902, 22.67867], [-82.39158, 22.68842], [-82.45736, 22.68039], [-82.51, 22.69229], [-82.55093, 22.67867], [-82.59742, 22.68801], [-82.63294, 22.6802], [-82.73843, 22.70637], [-82.75988, 22.70596], [-82.78067, 22.69611], [-82.79088, 22.67988], [-82.7946, 22.64082], [-82.8007, 22.62275], [-82.81542, 22.61344], [-82.84923, 22.60293], [-82.92126, 22.5483], [-82.95938, 22.54206], [-83.0587, 22.48945], [-83.08609, 22.4628], [-83.14319, 22.36128], [-83.1667, 22.33969], [-83.19933, 22.33602], [-83.23225, 22.34479], [-83.26012, 22.34223], [-83.2618, 22.32198], [-83.2858, 22.3227], [-83.28744, 22.30191], [-83.3236, 22.28022], [-83.3358, 22.26777], [-83.34925, 22.23217], [-83.36316, 22.21931], [-83.36791, 22.22557], [-83.36848, 22.21389], [-83.37556, 22.207], [-83.38115, 22.21715], [-83.39822, 22.21928], [-83.399, 22.20284], [-83.41548, 22.1861], [-83.46532, 22.18209], [-83.51696, 22.18823], [-83.56113, 22.20503], [-83.55285, 22.21345], [-83.55549, 22.22362], [-83.56859, 22.24665], [-83.57543, 22.24665], [-83.5896, 22.21992], [-83.61438, 22.19576], [-83.64363, 22.1783], [-83.67078, 22.17159], [-83.66478, 22.18578], [-83.78065, 22.1715], [-83.78751, 22.18236], [-83.78771, 22.19204], [-83.79914, 22.18879], [-83.81103, 22.17476], [-83.82555, 22.17155], [-83.90323, 22.17569], [-83.92545, 22.17154], [-83.96646, 22.13398], [-83.98009, 22.08902], [-83.97479, 22.08224], [-83.97266, 22.06169], [-83.984, 22.07054], [-83.99498, 22.06826], [-84.00178, 22.05756], [-84.0006, 22.0412], [-83.99303, 22.02798], [-83.98322, 22.0231], [-83.95899, 22.03496], [-83.96468, 22.01334], [-83.99926, 21.98949], [-84.00744, 21.96918], [-83.99304, 21.95136], [-84.00712, 21.93314], [-84.0292, 21.91996], [-84.04161, 21.91768], [-84.06041, 21.92195], [-84.09822, 21.94074], [-84.12043, 21.94501], [-84.14216, 21.94033], [-84.19921, 21.91085], [-84.24014, 21.91083], [-84.27392, 21.89322], [-84.30516, 21.88451], [-84.42306, 21.79245], [-84.46618, 21.77046], [-84.50837, 21.76684], [-84.52134, 21.78657], [-84.48131, 21.86518], [-84.47354, 21.90461], [-84.49617, 21.93378], [-84.53604, 21.94017], [-84.58056, 21.9339], [-84.65998, 21.91206], [-84.69872, 21.89484], [-84.79972, 21.83211], [-84.83992, 21.82291], [-84.88341, 21.82356], [-84.92558, 21.83589], [-84.93911, 21.8461], [-84.94725, 21.86034], [-84.9496, 21.87678], [-84.94262, 21.90024], [-84.92455, 21.91721], [-84.90355, 21.89362], [-84.87759, 21.89033], [-84.8605, 21.89704], [-84.84874, 21.90839], [-84.84822, 21.92109]]], [[[-78.32905, 22.22769], [-78.34108, 22.23347], [-78.34137, 22.24746], [-78.32424, 22.26324], [-78.30444, 22.2658], [-78.3195, 22.23428], [-78.33109, 22.22135], [-78.33741, 22.21985], [-78.32905, 22.22769]]], [[[-78.24371, 22.34663], [-78.2442, 22.35911], [-78.23961, 22.36692], [-78.2307, 22.36335], [-78.23046, 22.38076], [-78.24633, 22.40062], [-78.26977, 22.41014], [-78.29214, 22.39689], [-78.29723, 22.40204], [-78.31259, 22.40429], [-78.29873, 22.42039], [-78.27904, 22.42544], [-78.24372, 22.42475], [-78.21157, 22.43658], [-78.19762, 22.4372], [-78.18969, 22.42475], [-78.16975, 22.43504], [-78.1442, 22.42894], [-78.11888, 22.41361], [-78.09059, 22.38422], [-78.07556, 22.35407], [-78.06705, 22.31045], [-78.04572, 22.28824], [-78.01098, 22.2814], [-78.02766, 22.26603], [-78.05134, 22.27214], [-78.10033, 22.30191], [-78.17153, 22.31075], [-78.1965, 22.32917], [-78.17536, 22.34162], [-78.18488, 22.35822], [-78.20519, 22.36799], [-78.21642, 22.3596], [-78.22156, 22.33992], [-78.22814, 22.33345], [-78.23745, 22.33601], [-78.24371, 22.34663]]], [[[-78.46642, 22.52985], [-78.43683, 22.5554], [-78.41906, 22.56195], [-78.39635, 22.55979], [-78.35205, 22.54303], [-78.34059, 22.52848], [-78.35359, 22.53461], [-78.34911, 22.52114], [-78.28238, 22.45763], [-78.27848, 22.44868], [-78.2815, 22.43879], [-78.30336, 22.44462], [-78.42991, 22.41862], [-78.41954, 22.44586], [-78.40197, 22.44526], [-78.40461, 22.4643], [-78.41283, 22.46882], [-78.44589, 22.45455], [-78.47277, 22.45116], [-78.51805, 22.4521], [-78.54084, 22.45849], [-78.56823, 22.4763], [-78.60981, 22.48355], [-78.63861, 22.49213], [-78.65598, 22.50312], [-78.64159, 22.51415], [-78.65697, 22.52998], [-78.69358, 22.50753], [-78.69619, 22.54143], [-78.68318, 22.53461], [-78.67953, 22.55448], [-78.64127, 22.55336], [-78.59713, 22.54491], [-78.57523, 22.53202], [-78.54442, 22.52839], [-78.46642, 22.52985]]], [[[-78.85033, 22.48884], [-78.87006, 22.49084], [-78.87367, 22.49555], [-78.86241, 22.50714], [-78.84245, 22.50527], [-78.82821, 22.48066], [-78.83282, 22.47734], [-78.84145, 22.47965], [-78.85033, 22.48884]]], [[[-78.75699, 22.51855], [-78.76597, 22.5188], [-78.76813, 22.54165], [-78.73888, 22.541], [-78.73542, 22.55124], [-78.72827, 22.54791], [-78.73877, 22.52433], [-78.75699, 22.51855]]], [[[-77.87895, 20.57182], [-77.87846, 20.56518], [-77.89077, 20.55696], [-77.892, 20.56814], [-77.90473, 20.57331], [-77.89322, 20.57578], [-77.87895, 20.57182]]], [[[-78.09846, 20.66992], [-78.10297, 20.6711], [-78.10748, 20.67766], [-78.09139, 20.68211], [-78.09846, 20.66992]]], [[[-74.90038, 20.6739], [-74.91644, 20.68684], [-74.92025, 20.6938], [-74.90149, 20.68756], [-74.90038, 20.6739]]], [[[-75.57774, 20.76952], [-75.57846, 20.78742], [-75.52916, 20.79579], [-75.51732, 20.79429], [-75.50804, 20.78634], [-75.48218, 20.73779], [-75.50084, 20.73795], [-75.55182, 20.74902], [-75.56753, 20.75679], [-75.57774, 20.76952]]], [[[-77.75144, 21.89891], [-77.73832, 21.90123], [-77.73144, 21.89195], [-77.72481, 21.89369], [-77.72363, 21.88459], [-77.73013, 21.88049], [-77.75038, 21.89135], [-77.75144, 21.89891]]], [[[-77.85391, 22.02753], [-77.8601, 22.02753], [-77.87047, 22.01319], [-77.88659, 22.00923], [-77.90184, 22.01521], [-77.91723, 22.04316], [-77.93447, 22.05614], [-77.94712, 22.07282], [-77.94205, 22.09585], [-77.94943, 22.1026], [-77.93017, 22.10211], [-77.88805, 22.076], [-77.87169, 22.07563], [-77.83966, 22.09584], [-77.8225, 22.10052], [-77.8085, 22.09954], [-77.78521, 22.08912], [-77.76769, 22.06851], [-77.73721, 22.08217], [-77.68261, 22.05427], [-77.66144, 22.06931], [-77.65173, 22.07025], [-77.62659, 22.04206], [-77.62708, 22.01619], [-77.64867, 21.97114], [-77.63421, 21.94502], [-77.66153, 21.94013], [-77.6826, 21.92513], [-77.67789, 21.94302], [-77.68432, 21.95116], [-77.69506, 21.94806], [-77.70311, 21.93195], [-77.69544, 21.91519], [-77.70312, 21.91085], [-77.71251, 21.91678], [-77.73912, 21.95722], [-77.75154, 21.96613], [-77.76578, 21.95979], [-77.78726, 21.96407], [-77.82252, 21.9831], [-77.82509, 21.99185], [-77.81237, 22.02411], [-77.81713, 22.03132], [-77.84708, 22.0412], [-77.84009, 22.02399], [-77.84707, 22.00705], [-77.85391, 22.02753]]], [[[-77.89488, 22.10262], [-77.90855, 22.12312], [-77.91283, 22.14322], [-77.93395, 22.15021], [-77.95075, 22.14216], [-77.94206, 22.11689], [-77.95468, 22.12215], [-77.99024, 22.14194], [-78.00414, 22.16226], [-78.03617, 22.18362], [-78.04571, 22.19887], [-78.02945, 22.20454], [-78.01647, 22.21743], [-78.00475, 22.25007], [-78.00333, 22.28636], [-78.01779, 22.31487], [-77.98718, 22.30779], [-77.97485, 22.29868], [-77.96997, 22.28482], [-77.9934, 22.25312], [-77.98742, 22.23672], [-77.97863, 22.23322], [-77.95397, 22.23651], [-77.94205, 22.23297], [-77.92341, 22.20637], [-77.90856, 22.20502], [-77.92162, 22.21247], [-77.90234, 22.23296], [-77.89485, 22.22085], [-77.88488, 22.21479], [-77.87507, 22.21629], [-77.86759, 22.22673], [-77.85962, 22.20962], [-77.90233, 22.19204], [-77.89078, 22.18915], [-77.86758, 22.17154], [-77.83642, 22.1642], [-77.82601, 22.1579], [-77.84851, 22.11604], [-77.86342, 22.0992], [-77.87442, 22.10952], [-77.89488, 22.10262]]], [[[-78.07022, 22.16512], [-78.08876, 22.17682], [-78.09633, 22.19488], [-78.06863, 22.17487], [-78.07095, 22.17121], [-78.06575, 22.1706], [-78.05884, 22.1773], [-78.06055, 22.16841], [-78.07022, 22.16512]]], [[[-77.84706, 22.26032], [-77.83959, 22.27375], [-77.8507, 22.2888], [-77.88066, 22.30874], [-77.85611, 22.31243], [-77.83438, 22.29601], [-77.81844, 22.27114], [-77.80573, 22.22822], [-77.75774, 22.17838], [-77.78172, 22.17781], [-77.80696, 22.20243], [-77.84706, 22.26032]]], [[[-77.9276, 22.26907], [-77.90845, 22.27309], [-77.93447, 22.25033], [-77.94415, 22.26529], [-77.9396, 22.27309], [-77.9276, 22.26907]]], [[[-77.91181, 22.32128], [-77.93775, 22.34528], [-77.93698, 22.35353], [-77.90235, 22.32452], [-77.89587, 22.31328], [-77.89783, 22.30562], [-77.90461, 22.30489], [-77.90912, 22.30936], [-77.91181, 22.32128]]], [[[-78.14035, 22.44256], [-78.15115, 22.46874], [-78.15502, 22.46857], [-78.16694, 22.44534], [-78.1904, 22.45034], [-78.17068, 22.46597], [-78.16316, 22.47991], [-78.1399, 22.46002], [-78.13257, 22.44668], [-78.13371, 22.43884], [-78.14035, 22.44256]]]]}}]}