{"type": "FeatureCollection", "features": [{"type": "Feature", "properties": {"map_title": "6세기경 교역로의 변화", "source": "미래엔 세계사 교과서 1권 42쪽", "volume": 1, "page": 42, "name": "종래의 교역로 1", "category": "교역로", "period": "6세기 이전", "legend": "종래의 교역로"}, "geometry": {"type": "LineString", "coordinates": [[63.95514, 47.73835], [63.90074, 47.44358], [63.83119, 47.16742], [63.74949, 46.90477], [63.65852, 46.65016], [63.35849, 45.87505], [63.25859, 45.59125], [63.15246, 45.23567], [63.05742, 44.84869], [62.97067, 44.43393], [62.88949, 43.99538], [62.65377, 42.58577], [62.57005, 42.1046], [62.44866, 41.29487], [62.36485, 40.44202], [62.31386, 39.55463], [62.29064, 38.6409], [62.28979, 37.7082], [62.30561, 36.76295], [62.34203, 35.49235], [62.38924, 34.13264], [62.40498, 33.50387], [62.39942, 32.96057], [62.36105, 32.49296], [62.27811, 32.09253], [62.13794, 31.75277], [61.92585, 31.4702], [61.77632, 31.35505], [61.62369, 31.24575], [61.48681, 31.14868], [61.34704, 31.05669], [61.22549, 30.93527], [61.10113, 30.81931], [60.99172, 30.68016], [60.87941, 30.54686], [60.77839, 30.39665], [60.67425, 30.25257], [60.57745, 30.0977], [60.47721, 29.94909], [60.38012, 29.79551], [60.17723, 29.5008], [60.07107, 29.35897], [59.95944, 29.22202], [59.84326, 29.08906], [59.61288, 28.88229], [59.34536, 28.70471], [59.04265, 28.53997], [58.33649, 28.18704], [57.93587, 27.97222], [57.50749, 27.71787], [57.05966, 27.4179], [56.66395, 27.10722], [56.27044, 26.76417], [55.88819, 26.46018], [55.49058, 26.22872], [55.04477, 26.07008], [54.61126, 26.0227], [54.23742, 26.12353], [53.90686, 26.37621], [53.578, 26.6603], [52.98958, 26.77483], [52.66175, 26.82919], [52.36024, 26.91021], [52.10144, 27.05093], [51.8809, 27.23078], [51.70624, 27.45895], [51.57029, 27.72128], [51.46878, 28.0011], [51.34051, 28.24938], [51.03967, 28.663], [50.77579, 29.09419], [50.56651, 29.50633], [50.16993, 29.82313], [49.63136, 30.03359], [49.20285, 30.26996], [48.95343, 30.54474], [48.71931, 30.83232], [48.4411, 31.11688], [48.13658, 31.3837], [47.69567, 31.70907], [47.22345, 32.00897], [46.72782, 32.29292], [45.69581, 32.85906], [45.17557, 33.16518], [44.66472, 33.50213], [44.17361, 33.88065], [43.42063, 34.51844], [43.07789, 34.79688], [42.73221, 35.05562], [42.3638, 35.30011], [41.95285, 35.53606], [41.4802, 35.76948], [40.9285, 36.0068], [40.42534, 36.19088], [39.93118, 36.37702], [39.44747, 36.52157], [38.97713, 36.66693], [38.07443, 36.87295], [37.22458, 36.98764], [36.81643, 36.99936], [36.42668, 37.00435], [36.0446, 36.96597], [35.68269, 36.91913], [35.32946, 36.82787], [34.99694, 36.7212], [34.67613, 36.54929], [34.37409, 36.33084], [33.94369, 36.04593], [33.63881, 35.93611], [33.31191, 35.86594], [32.96646, 35.79914], [32.67743, 35.71022], [32.47463, 35.58861], [32.28323, 35.32527], [32.07096, 35.31027], [31.22208, 35.63823], [30.35785, 36.03443], [29.81415, 36.2046], [29.05518, 36.07974], [28.82785, 36.06075], [28.60577, 36.03553], [28.38734, 35.99954], [28.17441, 35.98252], [27.95327, 35.96751], [27.71234, 35.97062], [27.45516, 36.03723], [27.16911, 36.13687], [26.86817, 36.25507], [26.58641, 36.42083], [26.33806, 36.54933], [26.12451, 36.63432], [25.94644, 36.75961], [25.7621, 36.88125], [25.56446, 37.00527], [25.39942, 37.19355], [25.02978, 37.59809], [24.88925, 37.86039], [24.5956, 38.3496], [24.59693, 38.70577], [24.6953, 39.08433], [24.94244, 39.44663], [25.15567, 39.80356], [25.35317, 40.09937], [25.56084, 40.38013], [25.85912, 40.58483], [26.18902, 40.7531], [26.58017, 40.85306], [26.9773, 40.97871], [27.39431, 41.0693], [27.81514, 41.16985], [28.21686, 41.1932], [28.59134, 41.17188], [28.89224, 41.02206], [29.16007, 40.83623]]}}, {"type": "Feature", "properties": {"map_title": "6세기경 교역로의 변화", "source": "미래엔 세계사 교과서 1권 42쪽", "volume": 1, "page": 42, "name": "종래의 교역로 2", "category": "교역로", "period": "6세기 이전", "legend": "종래의 교역로"}, "geometry": {"type": "LineString", "coordinates": [[36.45132, 37.10457], [36.08216, 36.80237], [35.71555, 36.4925], [35.27053, 36.01721], [34.80528, 35.54796], [34.54952, 35.33155], [34.28945, 35.14884], [34.1085, 35.02723], [34.04412, 34.97968], [34.02325, 34.91309], [34.005, 34.72181], [33.95699, 34.36329], [33.88964, 33.90602], [33.81057, 33.40157], [33.72014, 32.87654], [33.61811, 32.35342], [33.49886, 31.86787], [33.36386, 31.43039], [33.20432, 31.08691], [32.90416, 30.80964], [32.5981, 30.63513], [32.19108, 30.91804], [31.79374, 31.18085], [31.40685, 31.3425], [31.03314, 31.4343], [30.68299, 31.46954], [30.38519, 31.42078], [30.14216, 31.32954], [29.98678, 31.24375], [29.87907, 31.31372], [29.56326, 31.72199], [29.11276, 32.32097], [28.61403, 32.95119], [28.12092, 33.50469], [27.65867, 33.92161], [27.22546, 34.17894], [26.81277, 34.2559], [26.63159, 34.42683], [26.45409, 34.61022], [26.27882, 34.78328], [26.10795, 34.91148], [25.94583, 34.95385], [25.76907, 34.95556], [25.56102, 34.94599], [25.31883, 34.92177], [25.08196, 34.87512], [24.86417, 34.80911], [24.66442, 34.73174], [24.47763, 34.65277], [24.29657, 34.58289], [24.11368, 34.53406], [23.92268, 34.51957], [23.71955, 34.55388], [23.39455, 34.70183], [23.12241, 34.9063], [22.86778, 35.14859], [22.60994, 35.41572], [22.33211, 35.69266], [22.01853, 35.95141], [21.65593, 36.14138], [21.22484, 36.21032], [20.80508, 36.18512], [20.02618, 36.07888], [19.65908, 36.05039], [19.30228, 36.06763], [18.95173, 36.14929], [18.60192, 36.31119], [18.24499, 36.56638], [17.95117, 36.86873], [17.75455, 37.18371], [17.63111, 37.50653], [17.55381, 37.83394], [17.493, 38.16306], [17.41706, 38.49044], [17.29424, 38.81113], [17.0976, 39.1191], [16.94779, 39.2785], [16.77727, 39.41821], [16.59265, 39.54407], [16.39853, 39.66056], [16.19788, 39.77041], [15.99279, 39.87507], [15.78522, 39.97553], [15.23781, 40.2293], [14.90873, 40.37668], [14.58628, 40.5164], [13.94949, 40.78129], [12.97597, 41.17477]]}}, {"type": "Feature", "properties": {"map_title": "6세기경 교역로의 변화", "source": "미래엔 세계사 교과서 1권 42쪽", "volume": 1, "page": 42, "name": "종래의 교역로 3", "category": "교역로", "period": "6세기 이전", "legend": "종래의 교역로"}, "geometry": {"type": "LineString", "coordinates": [[14.67011, 43.7499], [15.34571, 43.39193], [15.80306, 43.15895], [16.03657, 43.04633], [16.2735, 42.93729], [16.51694, 42.83328], [16.76766, 42.73588], [17.02828, 42.64628], [17.30145, 42.56705], [17.58816, 42.49827], [18.19664, 42.38461], [18.50395, 42.31162], [18.79204, 42.15836], [19.05555, 41.89329], [19.12677, 41.52644], [19.15395, 41.16863], [19.21947, 40.86517], [19.32656, 40.60199], [19.45897, 40.35801], [19.60907, 40.11419], [19.99087, 39.54169], [20.17764, 39.19231], [20.32402, 38.82736], [20.42947, 38.49406], [20.48671, 38.29583], [20.57846, 38.10969], [20.70956, 37.91667], [20.83743, 37.71792], [20.98168, 37.5193], [21.12619, 37.32855], [21.31725, 37.16415], [21.52181, 37.00576], [21.78887, 36.84913], [22.79238, 36.03429], [23.06564, 35.84251], [23.31639, 35.68607], [23.59807, 35.5918], [24.06045, 35.66152], [24.59143, 35.87944], [25.06068, 36.16908], [25.39416, 36.51143], [25.56716, 36.88804]]}}, {"type": "Feature", "properties": {"map_title": "6세기경 교역로의 변화", "source": "미래엔 세계사 교과서 1권 42쪽", "volume": 1, "page": 42, "name": "새로운 교역로 1", "category": "교역로", "period": "6세기경", "legend": "새로운 교역로"}, "geometry": {"type": "LineString", "coordinates": [[56.55899, 27.02264], [56.47837, 26.7027], [56.47038, 26.34327], [56.50439, 25.5638], [56.62082, 25.14307], [56.97735, 24.70029], [57.35847, 24.2777], [57.68085, 23.95062], [58.18785, 23.68954], [58.55604, 23.56443], [58.82161, 23.36373], [59.16006, 23.14092], [59.65205, 22.93899], [60.07496, 22.67536], [60.35749, 22.32536], [60.45724, 21.86712], [60.3954, 21.52215], [60.24121, 21.20038], [60.01324, 20.89629], [59.72469, 20.60324], [59.38744, 20.31378], [59.01455, 20.0205], [58.62316, 19.71852], [58.24264, 19.41289], [57.9962, 19.19192], [57.86032, 19.04692], [57.81669, 18.96296], [57.76022, 18.89199], [57.6559, 18.72913], [57.51005, 18.47797], [57.33758, 18.19414], [57.14863, 17.89328], [56.72729, 17.28517], [56.25567, 16.69903], [55.99422, 16.43333], [55.7273, 16.1697], [55.43276, 15.94761], [55.1351, 15.73036], [54.31478, 15.19814], [53.56861, 14.63504], [53.21047, 14.33751], [52.83463, 14.03176], [52.43268, 13.69577], [51.99604, 13.31979], [51.53382, 12.9032], [51.06659, 12.46781], [50.61929, 12.12095], [50.22903, 11.926], [49.86784, 11.77158], [49.53048, 11.59429], [49.15909, 11.47212], [48.81146, 11.30289], [48.36362, 11.04809], [47.92472, 10.86001], [47.47072, 10.77686], [46.95351, 10.91274], [46.37341, 11.27214], [45.78815, 11.72086], [45.24184, 12.25562], [45.06991, 12.59034], [45.03912, 12.83976]]}}, {"type": "Feature", "properties": {"map_title": "6세기경 교역로의 변화", "source": "미래엔 세계사 교과서 1권 42쪽", "volume": 1, "page": 42, "name": "새로운 교역로 2", "category": "교역로", "period": "6세기경", "legend": "새로운 교역로"}, "geometry": {"type": "LineString", "coordinates": [[33.34658, 31.52495], [33.352, 31.03763], [33.33866, 30.68014], [33.37056, 30.37263], [33.44236, 30.06443], [33.59493, 29.75253], [33.79175, 29.42318], [34.30401, 28.73866], [34.59059, 28.39098], [34.87088, 28.03573], [35.49305, 27.34986], [35.8606, 27.03114], [36.25274, 26.72064], [36.72259, 26.44468], [37.73081, 25.91221], [38.25474, 25.65777], [38.69625, 25.35172], [39.12871, 25.05776], [39.44805, 24.71335], [39.67702, 24.35096], [39.71142, 23.91343], [39.72808, 23.47039], [39.70756, 23.15652], [39.71056, 22.84254], [39.77721, 22.20292], [39.85136, 21.87641], [39.97573, 21.54848], [40.24844, 21.06391], [40.59415, 20.5868], [40.90381, 20.13636], [41.20687, 19.68191], [41.44569, 19.26962], [41.65533, 18.83481], [41.81952, 18.33631], [41.94341, 17.77863], [42.05313, 17.22693], [42.16273, 16.76016], [42.30021, 16.35604], [42.49171, 15.96613], [42.78633, 15.44655], [43.065, 14.88848], [43.32426, 14.3131], [43.55642, 13.75816], [43.73072, 13.2893], [43.77221, 12.92869], [43.6836, 12.48074], [43.56515, 12.00046], [43.51277, 11.7283], [43.56062, 11.54093], [43.83401, 11.4578], [44.22302, 11.47604], [44.57787, 11.61703], [44.81525, 11.89885], [44.94866, 12.27978], [45.03118, 12.69145], [45.03286, 12.90087], [45.02447, 13.0863]]}}, {"type": "Feature", "properties": {"map_title": "6세기경 교역로의 변화", "source": "미래엔 세계사 교과서 1권 42쪽", "volume": 1, "page": 42, "name": "새로운 교역로 3", "category": "교역로", "period": "6세기경", "legend": "새로운 교역로"}, "geometry": {"type": "LineString", "coordinates": [[30.65972, 31.35388], [30.72613, 31.17023], [30.82426, 30.96124], [30.9625, 30.73484], [31.12846, 30.49227], [31.33157, 30.23919], [31.56006, 29.97558], [31.82012, 29.7059], [32.09834, 29.42847], [32.69564, 28.85933], [32.99207, 28.56815], [33.26085, 28.26771], [33.49144, 27.96238], [33.68972, 27.65019], [33.86913, 27.34176], [34.03035, 27.03289], [34.15095, 26.7902], [34.26183, 26.55689], [34.57048, 25.88568], [34.68897, 25.66289], [34.84191, 25.43921], [35.0299, 25.21019], [35.45166, 24.68516], [35.81201, 24.10906], [36.08064, 23.43753], [36.30938, 22.81169], [36.55677, 22.45258], [36.78528, 22.20475], [37.11601, 21.94116], [37.78443, 21.62033], [38.05547, 21.51558], [38.19974, 21.464], [38.3477, 21.41494], [38.49745, 21.36986], [38.64689, 21.33025], [38.79359, 21.2975], [38.93473, 21.27296], [39.11495, 21.25541], [39.27424, 21.25525], [39.41811, 21.26846], [39.55363, 21.29096], [39.82624, 21.3462], [39.98043, 21.37032], [40.14955, 21.38593]]}}, {"type": "Feature", "properties": {"map_title": "6세기경 교역로의 변화", "source": "미래엔 세계사 교과서 1권 42쪽", "volume": 1, "page": 42, "name": "헤지라(메카→메디나)", "category": "이동로", "period": "622", "legend": "헤지라(622)"}, "geometry": {"type": "LineString", "coordinates": [[40.27486, 21.34323], [40.50948, 21.42373], [40.71058, 21.59945], [40.8705, 21.86086], [40.98198, 22.19774], [41.0364, 22.59908], [41.023, 23.05367], [40.9273, 23.55001], [40.72422, 24.07446]]}}]}