{"type": "FeatureCollection", "features": [{"type": "Feature", "properties": {"map_title": "6세기경 교역로의 변화", "source": "미래엔 세계사 교과서 1권 42쪽", "volume": 1, "page": 42, "name": "사산 왕조 페르시아", "name_en": "Sasanian Empire", "period": "6세기경", "kind": "국가", "legend": "사산 왕조 페르시아(지도 글자)", "coast_snap": "Natural Earth 10m 해안선에 맞춤", "border_snap": "현대 국경(Natural Earth 10m)에 맞춘 구간 약 684 km"}, "geometry": {"type": "MultiPolygon", "coordinates": [[[[53.29882, 26.79072], [53.22283, 26.79956], [53.19004, 26.81502], [53.14944, 26.84789], [53.17807, 26.85687], [53.26246, 26.83365], [53.33741, 26.82867], [53.36068, 26.82049], [53.38199, 26.80313], [53.36752, 26.79964], [53.32911, 26.80256], [53.29882, 26.79072]]], [[[48.33593, 29.42059], [48.31687, 29.42701], [48.26925, 29.4297], [48.27016, 29.45613], [48.2811, 29.47109], [48.29851, 29.47312], [48.35384, 29.45741], [48.38899, 29.42487], [48.39945, 29.39764], [48.39735, 29.38751], [48.37302, 29.39393], [48.33593, 29.42059]]], [[[48.08516, 29.87988], [48.09507, 29.89471], [48.10922, 29.89361], [48.13356, 29.87987], [48.1587, 29.87922], [48.16652, 29.88593], [48.16083, 29.90155], [48.1937, 29.91645], [48.19744, 29.92536], [48.18133, 29.93513], [48.16993, 29.93647], [48.15675, 29.93115], [48.14724, 29.93513], [48.14045, 29.95195], [48.14039, 29.96979], [48.12274, 29.96968], [48.11672, 29.97407], [48.13356, 29.98968], [48.16212, 29.99566], [48.18889, 29.98335], [48.34436, 29.79076], [48.35952, 29.75425], [48.3527, 29.70979], [48.33369, 29.67911], [48.30306, 29.64521], [48.26647, 29.6161], [48.22901, 29.59993], [48.18564, 29.60412], [48.16163, 29.62971], [48.12645, 29.70277], [48.08513, 29.76781], [48.07374, 29.77969], [48.05373, 29.79003], [48.04609, 29.80044], [48.10955, 29.83332], [48.11329, 29.8391], [48.11915, 29.8736], [48.08516, 29.87988]]], [[[48.10919, 30.02798], [48.10612, 30.01765], [48.07887, 30.00406], [48.05835, 29.98356], [48.02347, 29.96999], [48.01077, 29.98046], [48.0093, 29.98688], [48.0547, 30.02448], [48.10919, 30.02798]]], [[[49.00847, 30.46593], [49.0115, 30.49881], [49.02915, 30.50198], [49.03533, 30.49816], [49.03981, 30.50263], [49.06217, 30.50125], [49.05804, 30.49018], [49.06421, 30.4646], [49.04013, 30.46556], [49.03842, 30.46971], [49.02931, 30.45779], [49.02678, 30.46621], [49.02182, 30.46149], [49.00847, 30.46593]]], [[[36.94481, 37.67285], [36.88471, 37.72195], [36.82951, 37.77467], [36.78211, 37.83061], [36.74629, 37.88806], [36.72448, 37.94679], [36.71752, 38.00149], [36.71965, 38.06087], [36.72904, 38.12163], [36.7629, 38.24427], [36.8991, 38.58728], [36.95146, 38.70246], [37.02357, 38.81515], [37.18848, 38.99736], [37.25729, 39.08665], [37.3081, 39.18371], [37.32399, 39.23628], [37.33379, 39.30072], [37.33419, 39.44185], [37.291, 39.86605], [37.2599, 40.08459], [37.24418, 40.22997], [37.24231, 40.29754], [37.24648, 40.35953], [37.26365, 40.42084], [37.29481, 40.46662], [37.33734, 40.49911], [37.38829, 40.52016], [37.4441, 40.53193], [37.50245, 40.53698], [37.61441, 40.53762], [37.68939, 40.5447], [37.84892, 40.58135], [37.94181, 40.61101], [37.94318, 40.61939], [37.93475, 40.62495], [37.86157, 40.62501], [37.7653, 40.63863], [37.73233, 40.69451], [37.7194, 40.72833], [37.70685, 40.7984], [37.71259, 40.86845], [37.73611, 40.9358], [37.79954, 41.04601], [37.86765, 41.01574], [37.89576, 40.98212], [37.93475, 40.99509], [37.98143, 40.99025], [38.10222, 40.9597], [38.1613, 40.95209], [38.20143, 40.94135], [38.22413, 40.94115], [38.26832, 40.95037], [38.28736, 40.9472], [38.3309, 40.91787], [38.35125, 40.91787], [38.38933, 40.9269], [38.45232, 40.91673], [38.46372, 40.92376], [38.5394, 40.92691], [38.59157, 40.96255], [38.63706, 40.97601], [38.64947, 40.97515], [38.67791, 40.94864], [38.71762, 40.95478], [38.74334, 40.97247], [38.75514, 40.97529], [38.78371, 41.00177], [38.87582, 41.01895], [38.90838, 41.03766], [38.9275, 41.04262], [39.04176, 41.0434], [39.12233, 41.05728], [39.15651, 41.07769], [39.16831, 41.07973], [39.21971, 41.07297], [39.25074, 41.05305], [39.2732, 41.05044], [39.31724, 41.06805], [39.34913, 41.07396], [39.40284, 41.09813], [39.41823, 41.11], [39.43019, 41.11248], [39.49292, 41.10101], [39.53256, 41.06464], [39.59205, 41.02509], [39.63006, 41.00849], [39.66969, 41.00263], [39.72999, 41.01715], [39.75709, 41.00235], [39.79916, 41.0003], [39.85874, 40.96426], [39.89568, 40.95478], [39.91215, 40.96384], [39.97495, 40.98028], [39.99936, 40.98211], [40.05681, 40.94135], [40.0857, 40.92646], [40.12599, 40.92064], [40.19557, 40.93635], [40.23146, 40.94685], [40.25466, 40.95867], [40.30104, 40.96845], [40.46486, 41.05043], [40.49968, 41.03876], [40.52914, 41.03628], [40.55738, 41.04247], [40.62616, 41.08217], [40.67067, 41.08796], [40.69825, 41.09813], [40.75759, 41.15834], [40.82749, 41.19793], [40.85375, 41.19932], [40.89682, 41.18757], [40.92205, 41.19062], [40.96013, 41.21074], [41.02027, 41.2237], [41.04274, 41.23249], [41.12136, 41.28554], [41.19077, 41.29572], [41.28501, 41.35381], [41.34226, 41.37243], [41.39039, 41.37934], [41.40895, 41.39033], [41.42416, 41.40786], [41.43818, 41.45135], [41.50709, 41.49543], [41.58609, 41.60248], [41.61558, 41.63248], [41.67604, 41.66218], [41.69289, 41.69229], [41.73976, 41.74991], [41.74393, 41.77863], [41.77182, 41.81257], [41.77394, 41.90693], [41.75571, 42.00641], [41.68491, 42.09894], [41.66408, 42.11396], [41.64918, 42.21223], [41.5962, 42.34943], [41.55487, 42.38984], [41.51615, 42.56756], [41.60386, 42.60715], [41.69353, 42.63047], [41.78777, 42.64032], [41.83605, 42.64002], [41.92965, 42.62913], [41.99794, 42.61147], [42.01554, 42.52835], [42.0487, 42.47547], [42.06714, 42.43267], [42.07932, 42.42783], [42.19582, 42.4685], [42.29719, 42.51796], [42.35425, 42.53867], [42.47058, 42.5651], [42.77172, 42.60958], [42.83913, 42.63164], [42.96335, 42.68247], [43.03131, 42.70098], [43.10021, 42.70911], [43.20291, 42.92499], [43.51743, 42.86046], [43.58626, 42.83563], [43.603, 42.8248], [43.64434, 42.78858], [43.66284, 42.77984], [43.75596, 42.76313], [43.80061, 42.74646], [43.81178, 42.71727], [43.78873, 42.69308], [43.75379, 42.67466], [43.72568, 42.6544], [43.72258, 42.62487], [43.75111, 42.59874], [43.79617, 42.58983], [43.845, 42.58704], [43.88536, 42.57921], [43.92081, 42.55911], [43.93973, 42.55221], [43.95843, 42.55441], [43.97321, 42.56399], [44.0115, 42.60032], [44.05507, 42.61531], [44.15082, 42.61867], [44.19738, 42.6291], [44.21688, 42.6438], [44.43688, 42.48492], [44.96883, 42.15287], [45.3123, 41.91903], [45.40614, 41.86292], [45.78902, 41.65295], [45.87831, 41.59644], [46.18701, 41.63047], [46.19277, 41.61017], [46.21969, 41.5933], [46.22848, 41.59873], [46.24005, 41.6155], [46.2539, 41.61591], [46.27839, 41.57839], [46.28785, 41.53214], [46.29674, 41.51039], [46.31395, 41.49375], [46.36624, 41.46657], [46.39828, 41.45871], [46.4451, 41.42595], [46.54246, 41.39499], [46.59155, 41.37293], [46.60737, 41.34502], [46.62287, 41.34962], [46.63103, 41.34554], [46.6885, 41.28436], [46.6948, 41.26978], [46.68343, 41.26947], [46.67465, 41.26167], [46.66948, 41.22989], [46.64447, 41.20798], [46.63476, 41.18105], [46.62111, 41.1146], [47.01064, 41.0068], [47.20082, 40.96065], [47.73525, 40.85307], [47.94101, 40.7828], [48.01287, 40.76385], [48.08081, 40.75199], [48.20499, 40.74414], [48.31487, 40.75018], [48.40946, 40.76236], [48.54171, 40.62267], [48.57712, 40.56049], [48.59619, 40.50813], [48.57719, 40.51647], [48.48801, 40.58762], [48.43183, 40.59312], [48.38818, 40.58454], [48.37119, 40.56459], [48.34796, 40.51227], [48.31568, 40.41546], [48.30378, 40.36185], [48.31578, 40.33248], [48.39148, 40.19945], [48.45321, 39.99633], [48.52158, 39.88248], [48.54942, 39.72016], [48.56212, 39.67814], [48.68006, 39.51561], [48.70711, 39.46867], [48.70728, 39.46422], [48.65975, 39.502], [48.64393, 39.49851], [48.64813, 39.46988], [48.69906, 39.32423], [48.70769, 39.31818], [48.77533, 39.31362], [48.82029, 39.30599], [48.90463, 39.28107], [48.94477, 39.26357], [49.01608, 39.22062], [49.04753, 39.19512], [49.07592, 39.16697], [49.12139, 39.1083], [49.06863, 39.11141], [49.05893, 39.1728], [49.04119, 39.18439], [49.02223, 39.18822], [48.96762, 39.18382], [48.94956, 39.15127], [48.94694, 39.12752], [48.93482, 39.12442], [48.93637, 39.05313], [48.95263, 39.03164], [48.94852, 39.00706], [48.92181, 38.9357], [48.89868, 38.89306], [48.86793, 38.86385], [48.8318, 38.87116], [48.83473, 38.81928], [48.86314, 38.75646], [48.8772, 38.34642], [48.8659, 38.31688], [48.87288, 38.29556], [48.87485, 38.24274], [48.89371, 38.20579], [48.90772, 38.08348], [48.94905, 37.96686], [48.94117, 37.94774], [48.94451, 37.90339], [48.98746, 37.84247], [48.98316, 37.81599], [48.99366, 37.77676], [49.0145, 37.73916], [49.0652, 37.67886], [49.1325, 37.62336], [49.20558, 37.58169], [49.36687, 37.51496], [49.44174, 37.49486], [49.82618, 37.45356], [49.86744, 37.45856], [49.90155, 37.4697], [49.93377, 37.47442], [49.96946, 37.4597], [49.94313, 37.46162], [49.93531, 37.45356], [50.01873, 37.42772], [50.14838, 37.40395], [50.19564, 37.38934], [50.22729, 37.36542], [50.22332, 37.32933], [50.24513, 37.27928], [50.26884, 37.24664], [50.29225, 37.19282], [50.32228, 37.15327], [50.35719, 37.12653], [50.42944, 37.08294], [50.47885, 37.03498], [50.51368, 37.02313], [50.62403, 36.96328], [50.65869, 36.95432], [50.70314, 36.91844], [50.86056, 36.84968], [51.00473, 36.76765], [51.08863, 36.73701], [51.36762, 36.69261], [51.54607, 36.65095], [51.73124, 36.62419], [51.90903, 36.58271], [52.09409, 36.60252], [52.25885, 36.651], [52.43066, 36.68515], [52.77931, 36.74038], [53.11594, 36.82229], [53.44746, 36.88188], [53.49266, 36.8879], [53.88592, 36.90583], [53.95777, 36.91962], [54.00651, 36.9526], [54.00423, 36.91463], [53.9476, 36.89876], [53.87648, 36.89167], [53.8182, 36.87524], [53.77711, 36.88373], [53.719, 36.87069], [53.66041, 36.8769], [53.60914, 36.8769], [53.61695, 36.86567], [53.63103, 36.86196], [53.66379, 36.86323], [53.636, 36.857], [53.66017, 36.8312], [53.70102, 36.8166], [53.85645, 36.80547], [53.88917, 36.79361], [54.01433, 36.82111], [54.02621, 36.82909], [54.03305, 36.84577], [54.03354, 36.94912], [54.02809, 36.96621], [53.99441, 36.97916], [53.99726, 36.99372], [54.02003, 37.02774], [53.99628, 37.05732], [53.98043, 37.09379], [53.95802, 37.17853], [53.92324, 37.25782], [53.89967, 37.46841], [53.88982, 37.50812], [53.86529, 37.56712], [53.86061, 37.61131], [53.82489, 37.74486], [53.80715, 38.03174], [53.8589, 38.20649], [53.855, 38.23371], [53.86647, 38.26508], [53.86305, 38.38141], [53.84811, 38.41267], [53.82828, 38.5039], [53.83619, 38.60643], [53.86294, 38.67917], [53.90984, 38.7377], [53.92693, 38.77367], [53.91702, 38.80353], [53.93198, 38.81306], [53.94567, 38.8515], [53.98276, 38.916], [53.97292, 38.91341], [53.97137, 38.93427], [53.95802, 38.94452], [53.9232, 38.95434], [53.917, 38.96735], [53.89667, 38.9742], [53.87094, 39.02839], [53.85971, 39.03522], [53.82081, 39.0363], [53.78736, 39.04247], [53.76727, 39.03101], [53.74781, 39.05443], [53.72185, 39.1114], [53.71217, 39.10432], [53.73211, 39.05672], [53.71601, 39.06343], [53.70152, 39.07852], [53.69467, 39.09711], [53.70533, 39.12421], [53.69801, 39.15233], [53.73211, 39.1728], [53.70242, 39.17512], [53.70217, 39.19623], [53.72462, 39.24168], [53.67628, 39.21621], [53.66, 39.20039], [53.67407, 39.1933], [53.68377, 39.08346], [53.63601, 39.13866], [53.62338, 39.19164], [53.60175, 39.19331], [53.61036, 39.22191], [53.60857, 39.23579], [53.59832, 39.24169], [53.56765, 39.19333], [53.564, 39.2167], [53.56865, 39.24602], [53.58814, 39.30317], [53.56083, 39.28268], [53.58131, 39.33047], [53.55398, 39.32369], [53.56495, 39.34516], [53.56202, 39.35334], [53.54981, 39.34833], [53.53346, 39.33049], [53.52613, 39.33788], [53.51482, 39.33272], [53.47145, 39.33047], [53.4522, 39.31808], [53.44338, 39.3188], [53.4441, 39.33788], [53.43727, 39.33788], [53.41878, 39.31807], [53.40512, 39.31128], [53.3897, 39.31063], [53.40317, 39.33788], [53.37517, 39.33788], [53.36159, 39.33048], [53.34791, 39.34414], [53.30909, 39.33077], [53.29332, 39.33048], [53.29689, 39.34907], [53.26466, 39.35286], [53.23862, 39.36465], [53.21852, 39.36384], [53.14991, 39.34414], [53.19774, 39.32367], [53.17953, 39.30126], [53.17026, 39.27216], [53.18408, 39.21381], [53.18148, 39.18936], [53.17188, 39.17749], [53.16148, 39.1796], [53.13689, 39.32144], [53.08873, 39.38325], [53.08523, 39.40046], [53.0949, 39.42004], [53.13282, 39.45059], [53.14537, 39.48395], [53.16554, 39.49673], [53.17823, 39.51569], [53.2145, 39.59326], [53.24172, 39.63629], [53.2759, 39.66485], [53.3137, 39.65884], [53.27735, 39.63923], [53.24855, 39.6079], [53.23519, 39.57071], [53.21127, 39.5502], [53.21697, 39.52505], [53.25408, 39.52119], [53.36354, 39.53806], [53.42677, 39.53595], [53.44678, 39.53058], [53.47828, 39.48872], [53.4922, 39.48078], [53.55054, 39.4745], [53.56788, 39.46772], [53.57716, 39.46784], [53.58131, 39.47793], [53.5774, 39.49527], [53.56082, 39.50178], [53.57375, 39.52728], [53.5861, 39.52386], [53.61541, 39.49494], [53.63445, 39.49531], [53.66359, 39.51731], [53.68377, 39.52219], [53.71599, 39.50926], [53.72462, 39.50861], [53.73618, 39.51789], [53.73316, 39.52798], [53.7116, 39.5434], [53.64715, 39.55826], [53.62919, 39.5707], [53.65463, 39.5821], [53.65553, 39.59292], [53.63307, 39.61831], [53.57163, 39.61641], [53.56446, 39.65266], [53.54566, 39.67487], [53.53346, 39.68049], [53.53971, 39.63216], [53.53347, 39.63216], [53.49708, 39.67646], [53.47104, 39.69636], [53.4441, 39.70108], [53.45775, 39.67311], [53.42986, 39.68671], [53.43043, 39.66771], [53.44922, 39.64858], [53.45092, 39.63217], [53.41677, 39.64998], [53.41286, 39.6857], [53.42986, 39.76252], [53.41822, 39.75739], [53.39373, 39.75747], [53.38202, 39.76252], [53.38202, 39.76927], [53.41521, 39.78205], [53.46734, 39.83847], [53.49928, 39.86555], [53.48506, 39.8854], [53.53712, 39.89631], [53.53696, 39.90375], [53.52615, 39.91267], [53.56707, 39.94953], [53.57447, 39.96792], [53.56081, 39.96109], [53.54363, 39.97431], [53.49159, 39.97483], [53.47495, 39.97924], [53.43727, 40.00267], [53.40211, 40.00678], [53.36891, 39.99527], [53.32683, 39.95869], [53.28272, 39.94002], [53.23757, 39.95776], [53.17237, 39.99746], [53.15528, 39.99238], [53.12546, 39.97473], [53.05358, 39.96793], [53.06511, 39.98404], [53.08172, 39.99527], [53.01246, 39.97802], [52.97457, 39.97438], [52.94371, 39.9816], [52.9275, 40.01118], [52.91358, 40.02167], [52.89601, 40.00886], [52.89584, 39.99828], [52.92001, 39.9643], [52.93019, 39.89594], [52.97485, 39.85187], [53.01254, 39.79727], [53.05355, 39.76927], [53.05354, 39.76253], [53.00587, 39.78295], [53.04687, 39.74824], [53.04005, 39.74203], [52.9949, 39.78023], [52.96632, 39.83295], [52.95265, 39.8465], [52.91703, 39.85853], [52.90522, 39.87477], [52.89283, 39.93423], [52.88412, 39.94489], [52.78759, 40.00455], [52.75328, 40.03197], [52.73847, 40.05362], [52.74618, 40.09722], [52.76832, 40.1538], [52.75807, 40.17251], [52.73099, 40.20067], [52.74342, 40.20954], [52.73894, 40.21939], [52.7178, 40.23543], [52.69909, 40.27365], [52.70204, 40.31261], [52.73655, 40.48439], [52.75018, 40.51747], [52.77248, 40.55072], [52.83253, 40.61457], [52.86313, 40.65811], [52.86818, 40.69416], [52.85922, 40.70002], [52.83319, 40.70491], [52.82766, 40.7115], [52.83758, 40.73908], [52.83255, 40.74555], [52.86818, 40.75556], [52.86883, 40.77578], [52.86206, 40.79056], [52.88564, 40.8657], [52.92335, 40.94115], [52.93133, 40.97565], [52.91707, 41.04466], [52.91652, 41.08514], [52.96118, 41.06098], [52.96549, 41.04938], [52.95818, 41.01626], [52.96844, 40.99702], [53.01204, 40.95477], [53.04005, 40.88593], [53.07447, 40.86542], [53.09978, 40.86518], [53.12186, 40.87222], [53.10628, 40.85831], [53.06471, 40.84398], [53.07081, 40.82787], [53.10205, 40.80394], [53.10743, 40.77391], [53.11891, 40.76984], [53.1823, 40.76846], [53.2046, 40.77607], [53.24977, 40.81256], [53.26586, 40.81703], [53.24488, 40.77497], [53.25603, 40.76895], [53.33082, 40.77607], [53.33953, 40.78083], [53.3445, 40.81391], [53.36997, 40.83518], [53.382, 40.83128], [53.37517, 40.7978], [53.3838, 40.77831], [53.39869, 40.76276], [53.4183, 40.75243], [53.44694, 40.74652], [53.46127, 40.73688], [53.48308, 40.73705], [53.54168, 40.76162], [53.55535, 40.7735], [53.56271, 40.85276], [53.58742, 40.89158], [53.60548, 40.89337], [53.62467, 40.88702], [53.63893, 40.87202], [53.65698, 40.86542], [53.64959, 40.84492], [53.65512, 40.82388], [53.67065, 40.81077], [53.64959, 40.78351], [53.67644, 40.7259], [53.69117, 40.70783], [53.71948, 40.6983], [53.7246, 40.68793], [53.70476, 40.65009], [53.72104, 40.62568], [53.75953, 40.62568], [53.80486, 40.63263], [53.86264, 40.62617], [53.8948, 40.65305], [53.94777, 40.67364], [53.98536, 40.66059], [54.01075, 40.65786], [54.08033, 40.67609], [54.08814, 40.6822], [54.09522, 40.69782], [54.05424, 40.71527], [54.11207, 40.71345], [54.14137, 40.71686], [54.17107, 40.72967], [54.23218, 40.72833], [54.23502, 40.72573], [54.21754, 40.69025], [54.2527, 40.67658], [54.40358, 40.67365], [54.36266, 40.68793], [54.37518, 40.7009], [54.41489, 40.70873], [54.43043, 40.72142], [54.31821, 40.72163], [54.31057, 40.73066], [54.30388, 40.77009], [54.28502, 40.79743], [54.26874, 40.84015], [54.27328, 40.87226], [54.24831, 40.87499], [54.25002, 40.8906], [54.27328, 40.89338], [54.31252, 40.92389], [54.33171, 40.92689], [54.3603, 40.91714], [54.42115, 40.87987], [54.43783, 40.8797], [54.46582, 40.86595], [54.46875, 40.85163], [54.43784, 40.81704], [54.47495, 40.80988], [54.59067, 40.82673], [54.6399, 40.83877], [54.65757, 40.862], [54.709, 40.885], [54.74659, 40.93269], [54.76002, 40.96503], [54.74684, 40.99567], [54.69011, 41.05923], [54.678, 41.06465], [54.678, 41.07086], [54.70053, 41.06829], [54.72438, 41.05927], [54.76743, 41.03677], [54.72021, 41.08025], [54.72006, 41.09221], [54.72926, 41.10098], [54.7326, 41.09813], [54.71608, 41.11518], [54.65936, 41.12447], [54.63642, 41.13297], [54.63502, 41.16267], [54.60043, 41.19233], [54.4004, 41.30903], [54.29498, 41.34736], [54.25807, 41.37596], [54.19078, 41.4073], [54.14479, 41.45978], [54.10866, 41.46549], [54.07375, 41.48825], [54.04137, 41.53458], [54.03029, 41.56949], [54.02556, 41.69522], [54.00856, 41.76484], [53.9922, 41.79707], [53.94461, 41.85835], [53.9323, 41.88426], [53.90286, 41.8933], [53.89884, 41.90513], [53.91017, 41.93427], [53.90285, 41.97211], [53.917, 42.0069], [53.90691, 42.06293], [53.89666, 42.07884], [53.86557, 42.10175], [53.8187, 42.12442], [53.76791, 42.13614], [53.72462, 42.12606], [53.68181, 42.14395], [53.37517, 42.10554], [53.31658, 42.08227], [53.29672, 42.07885], [53.21974, 42.08146], [53.16383, 42.1037], [53.12192, 42.08999], [53.06039, 42.04414], [52.9603, 41.98436], [52.93702, 41.95539], [52.82145, 41.76488], [52.78207, 41.72553], [52.76922, 41.6756], [52.77247, 41.66055], [52.78468, 41.66307], [52.8157, 41.69382], [52.83082, 41.70147], [52.88085, 41.6978], [52.90381, 41.68976], [52.9165, 41.67422], [52.91536, 41.6608], [52.89601, 41.62954], [52.90282, 41.58875], [52.89891, 41.56599], [52.83269, 41.43749], [52.81349, 41.37934], [52.8372, 41.30313], [52.844, 41.24018], [52.90385, 41.14041], [52.90966, 41.12271], [52.90429, 41.102], [52.88307, 41.0725], [52.88232, 41.05045], [52.87551, 41.05045], [52.84833, 41.07771], [52.8545, 41.11933], [52.85108, 41.16332], [52.83383, 41.20124], [52.8135, 41.22175], [52.81349, 41.26264], [52.78956, 41.331], [52.77712, 41.33955], [52.761, 41.37759], [52.72341, 41.39424], [52.71583, 41.42642], [52.69361, 41.44452], [52.64626, 41.45821], [52.61166, 41.49238], [52.57538, 41.50874], [52.5622, 41.51948], [52.56025, 41.54385], [52.58774, 41.58271], [52.58759, 41.61616], [52.59555, 41.64004], [52.58075, 41.65372], [52.56913, 41.67881], [52.58284, 41.69239], [52.48845, 41.78753], [52.76466, 41.99377], [52.97871, 42.12663], [53.13508, 42.16784], [53.19172, 42.19303], [53.41227, 42.25817], [54.04717, 42.3454], [54.12262, 42.3376], [54.19528, 42.31806], [54.73829, 42.04821], [54.90707, 41.93214], [54.93084, 41.90923], [54.94076, 41.88961], [54.93497, 41.83373], [54.94024, 41.8136], [54.95068, 41.79556], [55.10003, 41.64415], [55.22839, 41.47282], [55.25919, 41.44465], [55.29412, 41.4215], [55.35676, 41.38905], [55.37257, 41.37556], [55.41267, 41.30792], [55.42952, 41.29081], [55.45029, 41.27888], [55.29193, 41.08627], [55.39427, 40.9318], [55.61841, 40.66571], [55.88519, 40.39203], [56.17657, 40.12239], [56.4757, 39.86699], [56.76492, 39.63666], [57.0274, 39.44172], [57.24649, 39.29253], [57.64566, 39.0843], [58.03436, 38.9752], [58.41466, 38.94674], [58.78269, 38.98172], [59.13715, 39.06056], [59.47877, 39.16367], [59.80884, 39.27127], [60.18226, 39.37706], [60.29124, 39.41692], [60.34313, 39.4461], [60.39004, 39.48304], [60.43134, 39.52969], [60.46571, 39.5877], [60.49939, 39.68984], [60.53643, 39.92543], [60.57999, 40.03766], [60.657, 40.14283], [60.75789, 40.2344], [60.85738, 40.29658], [60.87398, 40.30693], [60.99683, 40.35487], [61.11798, 40.37259], [61.22864, 40.35459], [61.32121, 40.29552], [61.37012, 40.23792], [61.41314, 40.17156], [61.45087, 40.09811], [61.4843, 40.01832], [61.5397, 39.84785], [61.58418, 39.67227], [61.63377, 39.4118], [61.66087, 39.31139], [61.67867, 39.26546], [61.71334, 39.19873], [61.81429, 39.03903], [62.0104, 38.69611], [62.10347, 38.54935], [62.20181, 38.41559], [62.25405, 38.35974], [62.30922, 38.3136], [62.56313, 38.14334], [62.74213, 38.04337], [62.818, 37.98683], [62.88992, 37.90878], [62.92775, 37.8571], [63.02926, 37.70123], [63.07116, 37.62461], [63.10932, 37.5317], [63.14133, 37.43331], [63.38679, 36.56965], [63.51291, 36.14773], [63.58659, 35.93128], [63.70302, 35.61552], [63.77407, 35.39973], [63.91532, 34.86374], [63.93535, 34.77172], [63.94262, 34.70581], [63.94537, 34.59632], [63.94119, 34.49208], [63.88835, 33.99933], [63.87703, 33.51092], [63.86313, 33.32854], [63.80895, 32.83616], [63.799, 32.67808], [63.79178, 32.35464], [63.80142, 32.02405], [63.81253, 31.85658], [63.83885, 31.58111], [63.94138, 30.75373], [63.96976, 30.48611], [63.98863, 30.22664], [63.99411, 29.97736], [63.98233, 29.74135], [63.96896, 29.62914], [63.9311, 29.41988], [63.86331, 29.12357], [63.82397, 28.92309], [63.79378, 28.65652], [63.78452, 28.37836], [63.7924, 28.09395], [63.81354, 27.80591], [63.84392, 27.51891], [63.96167, 26.58465], [63.98185, 26.35154], [63.98888, 26.13301], [63.98586, 26.02952], [63.9776, 25.92948], [63.95954, 25.81102], [63.96868, 25.80307], [64.05048, 25.80879], [64.06411, 25.80154], [64.09596, 25.7802], [64.15101, 25.7306], [64.1949, 25.67161], [64.25761, 25.55365], [64.27706, 25.48548], [64.28153, 25.4162], [64.27817, 25.38133], [64.2581, 25.30632], [64.24464, 25.3166], [64.18393, 25.31868], [64.0945, 25.33589], [64.09475, 25.34992], [64.10694, 25.38544], [64.08352, 25.40351], [64.07961, 25.4162], [64.08376, 25.42674], [64.10621, 25.43325], [64.14088, 25.42886], [64.15089, 25.43212], [64.15528, 25.44693], [64.15073, 25.4514], [64.12729, 25.45376], [64.05649, 25.44173], [64.04542, 25.45034], [63.98959, 25.42544], [63.97657, 25.41279], [63.99708, 25.41962], [64.00424, 25.40205], [64.01173, 25.39728], [64.03517, 25.41619], [64.04883, 25.41648], [64.07959, 25.36498], [64.06674, 25.34627], [64.05974, 25.34456], [63.98733, 25.33833], [63.96974, 25.34447], [63.94387, 25.33495], [63.90659, 25.34122], [63.80494, 25.37499], [63.7378, 25.38532], [63.66993, 25.38361], [63.60467, 25.37442], [63.57252, 25.36498], [63.53761, 25.34447], [63.51051, 25.3166], [63.49577, 25.29141], [63.4852, 25.28434], [63.46949, 25.28925], [63.4817, 25.26016], [63.51872, 25.22085], [63.51172, 25.20027], [63.5005, 25.19368], [63.46877, 25.19906], [63.41114, 25.22248], [63.37696, 25.22777], [63.30789, 25.2204], [63.17848, 25.25804], [63.14405, 25.26093], [63.11313, 25.25511], [63.05095, 25.2242], [63.02784, 25.22037], [62.9421, 25.22783], [62.77052, 25.26191], [62.60496, 25.266], [62.47718, 25.25906], [62.46502, 25.23725], [62.46762, 25.22354], [62.48941, 25.21418], [62.46949, 25.20674], [62.44435, 25.21393], [62.41383, 25.20653], [62.3659, 25.17939], [62.34311, 25.15546], [62.33619, 25.13984], [62.33912, 25.12474], [62.35199, 25.11283], [62.38723, 25.10157], [62.38104, 25.08758], [62.29022, 25.09], [62.25608, 25.09863], [62.29079, 25.12474], [62.31528, 25.13019], [62.31813, 25.14183], [62.29748, 25.18513], [62.25422, 25.21203], [62.19181, 25.22008], [62.14519, 25.21841], [62.08003, 25.19715], [62.05899, 25.16164], [62.07308, 25.15057], [62.07783, 25.12771], [62.09716, 25.10713], [62.07555, 25.10076], [61.9295, 25.10956], [61.88111, 25.10301], [61.85743, 25.06684], [61.84733, 25.03792], [61.83522, 25.0384], [61.79047, 25.01778], [61.75487, 25.01348], [61.72956, 25.02179], [61.72008, 25.03744], [61.72577, 25.0589], [61.73585, 25.06952], [61.72854, 25.08308], [61.73234, 25.09142], [61.76002, 25.11538], [61.76678, 25.14565], [61.78012, 25.16254], [61.7837, 25.17316], [61.77955, 25.19107], [61.74952, 25.17318], [61.69418, 25.20051], [61.6242, 25.20441], [61.61243, 25.20052], [61.58823, 25.2021], [61.57976, 25.23347], [61.55445, 25.2541], [61.54469, 25.24828], [61.53728, 25.22036], [61.55833, 25.20052], [61.50424, 25.20881], [61.4826, 25.19367], [61.50642, 25.18672], [61.52407, 25.17297], [61.50318, 25.14525], [61.4974, 25.12544], [61.48951, 25.11861], [61.42058, 25.09687], [61.43505, 25.08771], [61.41171, 25.05942], [61.24353, 25.11189], [61.18508, 25.12326], [61.18548, 25.13961], [61.17027, 25.16444], [61.03061, 25.20978], [60.86688, 25.23458], [60.72771, 25.26439], [60.63327, 25.27507], [60.61697, 25.28319], [60.63233, 25.29609], [60.60811, 25.3278], [60.60157, 25.40595], [60.5652, 25.43862], [60.54965, 25.44693], [60.51417, 25.44733], [60.44565, 25.42817], [60.42848, 25.41962], [60.39527, 25.37788], [60.40203, 25.34467], [60.43766, 25.33392], [60.45219, 25.31739], [60.44109, 25.3166], [60.47005, 25.30308], [60.46724, 25.29029], [60.36256, 25.33055], [60.31923, 25.32986], [60.29031, 25.35131], [60.30397, 25.37116], [60.27125, 25.37958], [60.23504, 25.378], [60.20151, 25.37116], [60.19256, 25.36201], [60.19256, 25.35615], [60.21596, 25.33828], [60.2092, 25.3197], [60.18198, 25.3199], [60.16188, 25.33198], [60.11671, 25.33984], [60.09791, 25.35814], [60.08204, 25.36595], [59.94082, 25.35491], [59.9038, 25.32987], [59.8617, 25.34307], [59.81987, 25.3792], [59.77487, 25.38987], [59.61427, 25.38377], [59.538, 25.39976], [59.49044, 25.44347], [59.4539, 25.46161], [59.19532, 25.42292], [59.13835, 25.39852], [59.1172, 25.3942], [59.09409, 25.4064], [59.0669, 25.39852], [59.0436, 25.39967], [59.00756, 25.40965], [58.99432, 25.41963], [58.94809, 25.48652], [58.92351, 25.51337], [58.88445, 25.52949], [58.84962, 25.52881], [58.84056, 25.53281], [58.82521, 25.56037], [58.81373, 25.56363], [58.72804, 25.56363], [58.5464, 25.59366], [58.48414, 25.58468], [58.43051, 25.58797], [58.41181, 25.59602], [58.41896, 25.61201], [58.3576, 25.60456], [58.32105, 25.58081], [58.30592, 25.57731], [58.2907, 25.58373], [58.26075, 25.56575], [58.25197, 25.56685], [58.2483, 25.57388], [58.20728, 25.54931], [58.17063, 25.54412], [58.07309, 25.56363], [58.04609, 25.57512], [58.02419, 25.60188], [57.99431, 25.65917], [57.96323, 25.69318], [57.9253, 25.70132], [57.88404, 25.69164], [57.84352, 25.67284], [57.78744, 25.63545], [57.77175, 25.63558], [57.7759, 25.67967], [57.78305, 25.69977], [57.77125, 25.73046], [57.75563, 25.74274], [57.70973, 25.74852], [57.63185, 25.73494], [57.58717, 25.74852], [57.54582, 25.74179], [57.52096, 25.74354], [57.4525, 25.76289], [57.45997, 25.76903], [57.32645, 25.77699], [57.31154, 25.78413], [57.30438, 25.79975], [57.29868, 25.8487], [57.27456, 25.89911], [57.25359, 25.95897], [57.21974, 25.99502], [57.19859, 25.99503], [57.16677, 26.083], [57.16458, 26.09492], [57.17092, 26.11562], [57.202, 26.14623], [57.2129, 26.16625], [57.19923, 26.19819], [57.13308, 26.26374], [57.13844, 26.29043], [57.13105, 26.29662], [57.11817, 26.36433], [57.10711, 26.38227], [57.08791, 26.399], [57.08043, 26.41505], [57.07635, 26.44745], [57.09343, 26.57221], [57.09002, 26.6188], [57.02491, 26.85098], [57.01124, 26.86888], [56.97731, 26.89534], [56.96532, 26.91094], [56.96648, 26.92723], [56.92558, 26.95513], [56.94011, 26.95429], [56.97332, 26.96882], [56.96488, 26.97564], [56.96357, 26.98505], [56.97332, 27.003], [56.93238, 26.98934], [56.92311, 26.99141], [56.89088, 27.01703], [56.87135, 27.00846], [56.8655, 27.01188], [56.86346, 27.03026], [56.8506, 27.02767], [56.84377, 27.03291], [56.8441, 27.04022], [56.85841, 27.04743], [56.88461, 27.07062], [56.88461, 27.07807], [56.85532, 27.0817], [56.8314, 27.09614], [56.81521, 27.11701], [56.80885, 27.13955], [56.7972, 27.12935], [56.7847, 27.1254], [56.75734, 27.12524], [56.74237, 27.12959], [56.7256, 27.14883], [56.71608, 27.15314], [56.61232, 27.15425], [56.58969, 27.16063], [56.58285, 27.15316], [56.5586, 27.16519], [56.43676, 27.17882], [56.38412, 27.1975], [56.35304, 27.20161], [56.29119, 27.19847], [56.25961, 27.19123], [56.21518, 27.16788], [56.12371, 27.16063], [56.09889, 27.14102], [56.0935, 27.12556], [55.98732, 27.06635], [55.93907, 27.02661], [55.84213, 27.00972], [55.79835, 27.00975], [55.76368, 26.99617], [55.72633, 26.99618], [55.68482, 27.003], [55.66586, 26.99543], [55.60857, 26.95368], [55.55445, 26.89989], [55.58236, 26.91355], [55.58642, 26.88907], [55.5804, 26.85912], [55.55445, 26.81054], [55.52173, 26.78458], [55.48406, 26.76753], [55.44202, 26.75992], [55.39731, 26.76216], [55.31674, 26.7871], [55.27084, 26.79255], [55.23292, 26.77644], [55.2059, 26.72639], [55.16212, 26.71914], [55.10328, 26.70132], [55.03809, 26.64904], [54.93067, 26.57266], [54.82203, 26.51577], [54.80152, 26.49824], [54.79128, 26.4959], [54.74968, 26.50894], [54.66383, 26.50203], [54.61997, 26.50826], [54.60289, 26.531], [54.59059, 26.55996], [54.56129, 26.58466], [54.51661, 26.59251], [54.42563, 26.58935], [54.38963, 26.60504], [54.33774, 26.69343], [54.30812, 26.71499], [54.28688, 26.71866], [54.24731, 26.71083], [54.15062, 26.70818], [54.05394, 26.73157], [54.03452, 26.74531], [54.0158, 26.74946], [53.99513, 26.74559], [53.92937, 26.71801], [53.84278, 26.70211], [53.82081, 26.70133], [53.77613, 26.71426], [53.75172, 26.71605], [53.72828, 26.70475], [53.7163, 26.70849], [53.66383, 26.74909], [53.5884, 26.78892], [53.49135, 26.85453], [53.47724, 26.87011], [53.47152, 26.8894], [53.46909, 26.9372], [53.46111, 26.9571], [53.4441, 26.97565], [53.41212, 26.99356], [53.07203, 27.09687], [53.02866, 27.10408], [52.9922, 27.14696], [52.93264, 27.16036], [52.92336, 27.17024], [52.91472, 27.19196], [52.8943, 27.20307], [52.84832, 27.21528], [52.76775, 27.27973], [52.73219, 27.30134], [52.60134, 27.35294], [52.58075, 27.37226], [52.57924, 27.39294], [52.58856, 27.4055], [52.60524, 27.41204], [52.66652, 27.41535], [52.67897, 27.42528], [52.6701, 27.44863], [52.65414, 27.46088], [52.61354, 27.47469], [52.59841, 27.48583], [52.56764, 27.54072], [52.49252, 27.60944], [52.45965, 27.63264], [52.42311, 27.64663], [52.2447, 27.68147], [52.20721, 27.69824], [52.0892, 27.7954], [52.05258, 27.81737], [52.01124, 27.83271], [51.96372, 27.83845], [51.8943, 27.83089], [51.85963, 27.84589], [51.82386, 27.8436], [51.7228, 27.82513], [51.68357, 27.83056], [51.58514, 27.84932], [51.57032, 27.87763], [51.49643, 27.89305], [51.47511, 27.91349], [51.45208, 27.94751], [51.42816, 27.96115], [51.4204, 27.93321], [51.39988, 27.93172], [51.38027, 27.99142], [51.36062, 28.01638], [51.34522, 28.05267], [51.30265, 28.11124], [51.30708, 28.12135], [51.34687, 28.18314], [51.39889, 28.23616], [51.42923, 28.25918], [51.49728, 28.29693], [51.58714, 28.32529], [51.59195, 28.33542], [51.55664, 28.4194], [51.50822, 28.61017], [51.48422, 28.68699], [51.46652, 28.72164], [51.39174, 28.77289], [51.35996, 28.81611], [51.33951, 28.85311], [51.34056, 28.86567], [51.38671, 28.86909], [51.39497, 28.87584], [51.38717, 28.90704], [51.36704, 28.9522], [51.32194, 29.02378], [51.29429, 29.03794], [51.22197, 29.05585], [51.19638, 29.07499], [51.17694, 29.12462], [51.1434, 29.25575], [51.12307, 29.30572], [51.08564, 29.35743], [51.02839, 29.4244], [50.88578, 29.57203], [50.7855, 29.66325], [50.5904, 29.81906], [50.5805, 29.81836], [50.53892, 29.78749], [50.4693, 29.75132], [50.39348, 29.72776], [50.35007, 29.72056], [50.31348, 29.76379], [50.24383, 29.86685], [50.18385, 29.90315], [50.14138, 29.94258], [50.13398, 29.98354], [50.14967, 29.98518], [50.15333, 29.99103], [50.13398, 30.00406], [50.14479, 30.03791], [50.12185, 30.09455], [50.1277, 30.12067], [50.09774, 30.14876], [50.07342, 30.19575], [50.05885, 30.20458], [50.0241, 30.21625], [49.98829, 30.21992], [49.95102, 30.21503], [49.91456, 30.20392], [49.60095, 30.0302], [49.56446, 30.01684], [49.53224, 30.02294], [49.50409, 30.05866], [49.50123, 30.12006], [49.48365, 30.1518], [49.46909, 30.16169], [49.42823, 30.16852], [49.38396, 30.1617], [49.34995, 30.17528], [49.32928, 30.17227], [49.29159, 30.15847], [49.27125, 30.15486], [49.24513, 30.15649], [49.2357, 30.16511], [49.23707, 30.20637], [49.21601, 30.22379], [49.2212, 30.26455], [49.20916, 30.27147], [49.19287, 30.23775], [49.17847, 30.22591], [49.16139, 30.22379], [49.14333, 30.23355], [49.12403, 30.25641], [49.08351, 30.26485], [49.01735, 30.2983], [49.00368, 30.3094], [48.99708, 30.34162], [48.9795, 30.36176], [48.9533, 30.37352], [48.92117, 30.38077], [48.93181, 30.39716], [48.94831, 30.401], [49.01075, 30.39594], [49.06202, 30.4081], [49.08236, 30.40378], [49.12338, 30.38508], [49.17643, 30.37274], [49.20289, 30.34663], [49.22772, 30.38922], [49.25717, 30.42186], [49.26384, 30.44965], [49.24318, 30.44604], [49.22829, 30.45442], [49.21902, 30.4698], [49.21119, 30.50633], [49.16824, 30.47702], [49.17506, 30.49746], [49.16676, 30.50878], [49.13405, 30.49747], [49.11012, 30.51797], [49.08937, 30.51115], [49.03435, 30.51927], [49.01734, 30.51114], [48.98146, 30.51561], [48.95297, 30.50019], [48.94565, 30.47972], [48.97267, 30.46947], [49.0044, 30.46402], [49.02947, 30.45026], [49.03727, 30.43252], [49.01734, 30.41494], [48.94646, 30.42158], [48.93482, 30.41865], [48.88014, 30.37458], [48.86736, 30.3581], [48.86232, 30.34561], [48.87369, 30.33665], [48.85963, 30.31623], [48.86704, 30.29475], [48.92114, 30.25043], [48.93596, 30.21041], [48.94163, 30.16538], [48.92799, 30.12067], [48.93481, 30.07997], [48.92863, 30.06023], [48.91528, 30.04219], [48.89722, 30.02946], [48.87672, 30.02449], [48.80885, 30.03144], [48.79135, 30.02449], [48.77198, 30.03238], [48.702, 30.03194], [48.65952, 30.05223], [48.64332, 30.05541], [48.64064, 30.03807], [48.65893, 30.00727], [48.66162, 29.99348], [48.65137, 29.97501], [48.63379, 29.96305], [48.61085, 29.95703], [48.53745, 29.96304], [48.53745, 29.96988], [48.53077, 29.9562], [48.55494, 29.95649], [48.55924, 29.9466], [48.54688, 29.93473], [48.52029, 29.92892], [48.41159, 29.93851], [48.33547, 29.96142], [48.29957, 29.98452], [48.26466, 29.99397], [48.20924, 30.02448], [48.16578, 30.03754], [48.11915, 30.04499], [48.07634, 30.04564], [48.03826, 30.03685], [47.96901, 30.00407], [47.95167, 30.08832], [47.93482, 30.10708], [47.9485, 30.06232], [47.94093, 30.02652], [47.9485, 30.01765], [47.94801, 29.99404], [47.97532, 29.94232], [47.98268, 29.86066], [47.99562, 29.8277], [48.02174, 29.77973], [48.05242, 29.74299], [48.07887, 29.74395], [48.11915, 29.65453], [48.1613, 29.60162], [48.18082, 29.56242], [48.17675, 29.54192], [48.1543, 29.53917], [48.11323, 29.5548], [48.09255, 29.56583], [48.08595, 29.57502], [48.02386, 29.58481], [47.96553, 29.5763], [47.91061, 29.5318], [47.84926, 29.50198], [47.80704, 29.46762], [47.76386, 29.41294], [47.71839, 29.3942], [47.70472, 29.36363], [47.727, 29.36193], [47.79174, 29.37248], [47.8373, 29.38749], [47.85113, 29.3802], [47.82261, 29.36343], [47.81643, 29.33756], [47.84093, 29.32293], [47.8579, 29.32303], [47.89919, 29.33525], [47.9054, 29.35926], [47.9202, 29.36486], [47.93933, 29.35943], [47.95937, 29.37244], [47.96989, 29.38723], [47.98574, 29.39375], [48.02524, 29.35489], [48.06327, 29.34337], [48.10025, 29.34994], [48.09207, 29.28723], [48.09538, 29.25775], [48.10613, 29.21353], [48.12843, 29.17389], [48.13376, 29.15377], [48.15846, 29.01728], [48.17604, 28.98379], [48.22592, 28.91828], [48.24098, 28.90567], [48.27946, 28.89443], [48.28239, 28.87938], [48.27687, 28.83959], [48.28517, 28.81989], [48.32879, 28.75996], [48.39355, 28.74339], [48.3838, 28.72801], [48.37965, 28.71035], [48.38671, 28.67513], [48.36622, 28.68871], [48.36598, 28.67573], [48.37988, 28.66767], [48.3677, 28.65673], [48.35271, 28.66144], [48.35182, 28.64053], [48.36101, 28.63556], [48.37468, 28.64167], [48.38672, 28.65399], [48.39356, 28.59565], [48.40528, 28.56989], [48.45639, 28.51846], [48.49463, 28.50014], [48.49845, 28.49308], [48.50765, 28.44916], [48.50782, 28.41572], [48.49903, 28.39338], [48.47608, 28.40078], [48.46876, 28.38711], [48.50489, 28.38964], [48.51734, 28.39899], [48.52394, 28.41444], [48.53548, 28.40761], [48.51783, 28.35419], [48.52223, 28.31883], [48.53492, 28.29881], [48.61841, 28.21727], [48.62353, 28.20527], [48.60174, 28.16739], [48.60084, 28.14777], [48.60646, 28.12645], [48.65478, 28.06159], [48.65211, 28.04609], [48.663, 28.04024], [48.59854, 28.02072], [48.5593, 28.014], [48.37185, 27.99277], [48.29243, 27.99089], [48.22615, 28.00039], [48.1983, 28.0965], [48.16473, 28.14672], [48.11717, 28.20488], [48.08385, 28.26893], [48.07488, 28.30003], [48.06823, 28.5372], [47.66813, 28.5335], [47.65981, 28.56004], [47.6411, 28.57725], [47.59682, 28.60882], [47.58167, 28.63148], [47.56803, 28.66099], [47.55842, 28.69148], [47.55699, 28.71158], [47.29797, 28.70974], [46.67362, 29.21882], [46.37273, 29.45533], [45.95, 29.77346], [45.32391, 30.22574], [45.08362, 30.39371], [44.39873, 30.8599], [43.98394, 31.12453], [43.50076, 31.41141], [43.10566, 31.63451], [42.7518, 31.82408], [42.16457, 32.13443], [41.32216, 32.57297], [40.72655, 32.87869], [40.09013, 33.19944], [39.86779, 33.31747], [39.65199, 33.44161], [39.45059, 33.57151], [39.26973, 33.70775], [39.11633, 33.85042], [38.91471, 34.17796], [38.89928, 34.49923], [39.02132, 34.81564], [39.23086, 35.12853], [39.47771, 35.43899], [39.71198, 35.74733], [39.88529, 36.05439], [39.95009, 36.36054], [39.97114, 36.67127], [39.96265, 36.79228], [39.947, 36.84822], [39.90112, 36.91484], [39.82854, 36.96768], [39.7325, 37.01206], [39.62337, 37.04851], [39.28573, 37.13405], [39.19351, 37.16171], [38.98364, 37.2349], [38.87891, 37.26196], [38.76297, 37.27839], [38.44847, 37.28718], [38.32502, 37.29912], [37.91842, 37.37924], [37.79625, 37.42584], [37.74319, 37.4348], [37.69273, 37.42917], [37.67041, 37.41735], [37.64644, 37.39625], [37.62668, 37.38779], [37.54668, 37.38031], [37.47547, 37.38452], [37.41026, 37.39877], [37.35038, 37.42105], [37.29422, 37.44922], [37.00748, 37.62746], [36.94481, 37.67285]], [[51.80454, 36.16741], [51.86268, 36.13529], [51.8851, 36.12801], [51.8997, 36.12962], [51.90691, 36.14091], [51.90167, 36.16345], [51.86896, 36.22255], [51.71686, 36.25235], [51.70617, 36.24913], [51.70395, 36.24166], [51.71003, 36.23412], [51.80454, 36.16741]], [[48.66148, 39.3307], [48.59544, 39.38103], [48.58439, 39.37793], [48.5779, 39.36401], [48.57518, 39.31214], [48.58748, 39.30753], [48.65537, 39.31663], [48.6635, 39.32325], [48.66148, 39.3307]]], [[[53.09799, 38.76923], [53.10204, 38.75508], [53.09475, 38.75508], [53.09213, 38.7788], [53.063, 38.86469], [53.03846, 38.91673], [53.03785, 38.97016], [53.02641, 39.0396], [53.02997, 39.06135], [53.04018, 39.08079], [53.05792, 39.09447], [53.08171, 39.09771], [53.08789, 39.08345], [53.05885, 39.06708], [53.05397, 39.0268], [53.07944, 38.86347], [53.10205, 38.78172], [53.09799, 38.76923]]], [[[49.05442, 39.00102], [49.0652, 39.01511], [49.11012, 39.02196], [49.1255, 39.02814], [49.13868, 39.04344], [49.14707, 39.06874], [49.17697, 39.00713], [49.11882, 38.97534], [49.07928, 38.96334], [49.05154, 38.98103], [49.05442, 39.00102]]], [[[53.46292, 39.5738], [53.47979, 39.59318], [53.49187, 39.59795], [53.50864, 39.58552], [53.51294, 39.59119], [53.5193, 39.56387], [53.53971, 39.53962], [53.52219, 39.51629], [53.50619, 39.50862], [53.49188, 39.50862], [53.46292, 39.5738]]], [[[49.44874, 40.83129], [49.47104, 40.83575], [49.53881, 40.78807], [49.511, 40.70954], [49.51075, 40.68793], [49.53891, 40.654], [49.55665, 40.64118], [49.58961, 40.62519], [49.6526, 40.6192], [49.70411, 40.58808], [49.72381, 40.58076], [49.77393, 40.57562], [49.81674, 40.56538], [49.85865, 40.56664], [49.91424, 40.58428], [49.93816, 40.58746], [50.05201, 40.58429], [50.07252, 40.55695], [50.10939, 40.52709], [50.12965, 40.51846], [50.16676, 40.51238], [50.27149, 40.41884], [50.36264, 40.34803], [50.37078, 40.28262], [50.39107, 40.23521], [50.38786, 40.22117], [50.34791, 40.2744], [50.32309, 40.29658], [50.27369, 40.32734], [50.22999, 40.34276], [50.1277, 40.35895], [50.0936, 40.35152], [50.05519, 40.35151], [50.03761, 40.34577], [50.00375, 40.32422], [49.98374, 40.32422], [49.95582, 40.35151], [49.91961, 40.35815], [49.8934, 40.36904], [49.84034, 40.33784], [49.84716, 40.31416], [49.81901, 40.29207], [49.77833, 40.27583], [49.71192, 40.26435], [49.65365, 40.23844], [49.57716, 40.21674], [49.55926, 40.20669], [49.49252, 40.154], [49.49041, 40.13239], [49.49658, 40.09456], [49.44264, 40.07844], [49.43263, 40.06297], [49.43507, 40.04279], [49.44874, 40.02253], [49.47958, 39.99913], [49.48388, 39.98868], [49.4354, 39.95767], [49.42368, 39.93549], [49.42823, 39.90644], [49.44311, 39.87336], [49.43847, 39.86177], [49.41652, 39.84374], [49.42138, 39.81025], [49.40089, 39.79662], [49.39479, 39.78246], [49.40087, 39.76927], [49.39633, 39.75617], [49.40203, 39.7425], [49.4248, 39.71808], [49.42358, 39.70955], [49.38396, 39.69013], [49.33725, 39.64643], [49.31804, 39.62141], [49.31901, 39.6042], [49.2957, 39.56142], [49.19633, 39.72014], [49.14612, 39.8246], [49.08489, 39.98429], [49.03507, 40.14277], [49.01443, 40.22555], [49.09505, 40.34556], [49.1733, 40.42426], [49.09338, 40.52035], [49.07098, 40.55795], [49.05003, 40.6104], [48.9959, 40.65971], [49.00833, 40.7189], [49.04023, 40.78595], [49.06244, 40.81714], [49.11803, 40.87345], [49.18801, 40.92092], [49.28465, 40.96164], [49.36285, 40.89447], [49.38201, 40.86664], [49.44874, 40.83129]]], [[[56.27995, 26.22308], [56.29183, 26.21185], [56.29493, 26.19424], [56.30192, 26.2053], [56.32911, 26.20108], [56.3563, 26.21913], [56.36671, 26.22145], [56.40414, 26.21475], [56.40691, 26.22313], [56.39454, 26.23916], [56.36785, 26.24409], [56.34685, 26.23859], [56.31959, 26.21792], [56.30845, 26.22151], [56.31594, 26.29041], [56.34522, 26.26923], [56.35841, 26.26496], [56.36378, 26.27953], [56.34783, 26.29743], [56.32229, 26.30964], [56.32652, 26.31891], [56.344, 26.32392], [56.35629, 26.33759], [56.36183, 26.34951], [56.36379, 26.38596], [56.36996, 26.38596], [56.38364, 26.35871], [56.40414, 26.37229], [56.41162, 26.36493], [56.4065, 26.3548], [56.41163, 26.34504], [56.42108, 26.35211], [56.43898, 26.33759], [56.46217, 26.33186], [56.48732, 26.33137], [56.47984, 26.35187], [56.50098, 26.3587], [56.51106, 26.33348], [56.50895, 26.32373], [56.46957, 26.32392], [56.45281, 26.31834], [56.40626, 26.2849], [56.40722, 26.27912], [56.39861, 26.2687], [56.4323, 26.23945], [56.44581, 26.23518], [56.46535, 26.24725], [56.47624, 26.24916], [56.4873, 26.23517], [56.46875, 26.20552], [56.45965, 26.20211], [56.4533, 26.2215], [56.43198, 26.2215], [56.43685, 26.20527], [56.43198, 26.19424], [56.4729, 26.164], [56.47981, 26.14583], [56.45737, 26.14843], [56.43898, 26.1601], [56.42457, 26.15381], [56.41245, 26.15844], [56.40497, 26.1706], [56.40414, 26.18675], [56.37746, 26.17375], [56.37892, 26.19253], [56.39112, 26.20108], [56.36842, 26.20454], [56.3436, 26.19139], [56.32879, 26.17284], [56.33594, 26.1601], [56.32976, 26.13711], [56.33595, 26.11164], [56.35291, 26.14248], [56.36378, 26.14581], [56.37012, 26.13947], [56.37109, 26.12783], [56.36378, 26.10488], [56.38331, 26.09748], [56.47297, 26.09861], [56.44922, 26.07356], [56.38917, 26.04711], [56.38014, 26.03824], [56.38364, 26.02228], [56.40886, 26.03436], [56.42285, 26.02313], [56.42334, 26.00463], [56.4004, 25.99047], [56.42213, 25.95661], [56.45327, 25.94717], [56.44264, 25.93928], [56.43897, 25.92611], [56.40789, 25.93741], [56.39332, 25.93586], [56.38364, 25.92609], [56.39941, 25.90233], [56.39257, 25.88045], [56.36378, 25.83796], [56.36377, 25.80687], [56.34401, 25.78954], [56.31639, 25.74974], [56.30177, 25.74178], [56.30177, 25.76289], [56.27377, 25.70913], [56.26661, 25.67259], [56.27906, 25.62743], [56.3003, 25.61616], [56.34001, 25.60455], [56.34806, 25.59289], [56.36996, 25.5257], [56.36378, 25.43325], [56.3678, 25.3935], [56.32833, 25.45109], [56.29092, 25.5277], [56.26585, 25.60501], [56.2477, 25.68661], [56.23016, 25.8628], [56.23834, 25.93178], [56.258, 25.99239], [56.23397, 26.05017], [56.20719, 26.13467], [56.19888, 26.1986], [56.20295, 26.26028], [56.20846, 26.26187], [56.20826, 26.24405], [56.21989, 26.22773], [56.21241, 26.20783], [56.2199, 26.20783], [56.2295, 26.21678], [56.25554, 26.21809], [56.26686, 26.22747], [56.27995, 26.22308]]], [[[55.3095, 26.28297], [55.32031, 26.27834], [55.32259, 26.25406], [55.313, 26.24849], [55.29494, 26.2502], [55.2864, 26.26512], [55.28998, 26.27293], [55.3095, 26.28297]]], [[[54.50685, 26.32122], [54.51644, 26.31939], [54.5389, 26.30271], [54.54736, 26.29043], [54.52637, 26.25195], [54.50929, 26.25423], [54.49221, 26.26557], [54.48814, 26.29804], [54.49824, 26.3172], [54.50685, 26.32122]]], [[[53.92311, 26.50654], [53.90286, 26.5362], [53.91286, 26.55019], [53.92759, 26.56011], [53.94549, 26.56508], [53.96463, 26.56413], [54.03304, 26.55043], [54.03647, 26.52676], [54.05045, 26.51776], [54.05241, 26.50581], [54.04802, 26.49385], [54.03687, 26.48844], [53.95542, 26.49259], [53.92311, 26.50654]]], [[[55.85321, 26.62104], [55.85576, 26.6446], [55.86835, 26.66644], [55.88454, 26.67767], [55.89429, 26.67942], [55.90202, 26.66885], [55.90397, 26.64525], [55.88965, 26.62377], [55.86931, 26.61303], [55.85321, 26.62104]]], [[[53.62893, 26.6911], [53.65121, 26.68382], [53.65909, 26.66904], [53.64625, 26.65718], [53.62868, 26.65934], [53.61139, 26.66721], [53.60126, 26.67959], [53.60923, 26.69049], [53.62893, 26.6911]]], [[[55.74684, 26.78327], [55.77418, 26.79694], [55.76679, 26.81053], [55.78207, 26.82616], [55.78566, 26.84496], [55.78102, 26.88964], [55.7732, 26.90672], [55.73261, 26.9409], [55.75799, 26.95404], [55.89772, 26.90681], [55.93556, 26.91478], [56.04103, 26.97565], [56.17319, 27.00233], [56.21241, 27.00299], [56.25738, 26.98882], [56.27946, 26.97382], [56.28735, 26.95536], [56.25521, 26.9388], [56.19353, 26.92455], [56.1714, 26.90681], [56.1372, 26.84468], [56.09588, 26.80687], [56.08097, 26.78549], [56.04282, 26.76813], [55.9764, 26.71159], [55.94703, 26.69629], [55.92401, 26.70503], [55.87664, 26.74291], [55.80982, 26.71206], [55.77271, 26.68839], [55.70582, 26.69452], [55.68556, 26.6905], [55.66424, 26.68154], [55.61035, 26.64693], [55.55445, 26.62564], [55.50294, 26.59488], [55.44117, 26.58861], [55.39731, 26.57783], [55.36948, 26.56412], [55.33961, 26.569], [55.33073, 26.55363], [55.29835, 26.54366], [55.29055, 26.5485], [55.28062, 26.58466], [55.28924, 26.61359], [55.27379, 26.6498], [55.28468, 26.66021], [55.33188, 26.64533], [55.34279, 26.6498], [55.3519, 26.64745], [55.40503, 26.67409], [55.57423, 26.72069], [55.64063, 26.76065], [55.70582, 26.78326], [55.74684, 26.78327]]], [[[56.40414, 26.89304], [56.40918, 26.86225], [56.37915, 26.8387], [56.34099, 26.82763], [56.32229, 26.83442], [56.32684, 26.86107], [56.341, 26.87915], [56.36655, 26.88978], [56.40414, 26.89304]]], [[[56.47299, 27.10601], [56.50464, 27.08893], [56.50841, 27.07415], [56.50472, 27.06168], [56.49528, 27.05232], [56.46616, 27.04394], [56.43459, 27.05484], [56.43687, 27.08002], [56.45526, 27.10258], [56.47299, 27.10601]]]]}}]}