{"type": "FeatureCollection", "features": [{"type": "Feature", "properties": {"map_title": "그리스·페르시아 전쟁", "source": "미래엔 세계사 교과서 1권 45쪽", "volume": 1, "page": 45, "name": "마케도니아(페르시아의 동맹국)", "name_en": "Macedon", "period": "기원전 492–479", "kind": "국가", "legend": "페르시아의 동맹국", "coast_snap": "Natural Earth 10m 해안선에 맞춤", "border_snap": "현대 국경(Natural Earth 10m)에 맞춘 구간 약 288 km"}, "geometry": {"type": "MultiPolygon", "coordinates": [[[[23.40346, 40.18982], [23.39187, 40.19557], [23.36558, 40.2205], [23.40011, 40.19816], [23.40346, 40.18982]]], [[[23.51494, 40.46531], [23.56564, 40.44989], [23.64277, 40.41168], [23.67728, 40.38844], [23.72312, 40.34825], [23.69972, 40.32636], [23.69361, 40.30923], [23.71144, 40.26113], [23.72364, 40.24909], [23.75765, 40.23167], [23.76433, 40.2154], [23.77858, 40.2027], [23.83742, 40.18377], [23.87007, 40.1269], [23.88263, 40.09264], [23.89063, 40.05803], [23.89344, 39.99245], [23.86086, 40.00581], [23.85621, 40.01675], [23.8449, 40.02412], [23.83523, 40.02582], [23.82407, 40.02192], [23.82664, 40.00892], [23.78526, 40.06699], [23.7933, 40.09382], [23.77834, 40.10164], [23.7645, 40.12617], [23.67547, 40.21792], [23.64177, 40.23542], [23.62273, 40.23965], [23.5403, 40.24479], [23.48414, 40.2696], [23.43849, 40.2792], [23.39829, 40.27774], [23.365, 40.2617], [23.34002, 40.22731], [23.33766, 40.20844], [23.36362, 40.15046], [23.40083, 40.14383], [23.46925, 40.06708], [23.49887, 40.0423], [23.60271, 39.99848], [23.67025, 39.98606], [23.67596, 39.96109], [23.69728, 39.9405], [23.74787, 39.93048], [23.73998, 39.92318], [23.70314, 39.91268], [23.61647, 39.92333], [23.47096, 39.97162], [23.44654, 39.97476], [23.36063, 39.9611], [23.3816, 40.00267], [23.36069, 40.03263], [23.35271, 40.05707], [23.31659, 40.08886], [23.30593, 40.10448], [23.31959, 40.13679], [23.32455, 40.17495], [23.31861, 40.21052], [23.29908, 40.23542], [23.25864, 40.25312], [23.19956, 40.26627], [23.16619, 40.27985], [23.15502, 40.27765], [23.18161, 40.27181], [23.26717, 40.23982], [23.19894, 40.25641], [23.17388, 40.26907], [23.13388, 40.27255], [23.11695, 40.28601], [23.14171, 40.28057], [23.08684, 40.30903], [23.02916, 40.32576], [23.01092, 40.35122], [22.95231, 40.38234], [22.93635, 40.3863], [22.88822, 40.38631], [22.89772, 40.40205], [22.88966, 40.41836], [22.86022, 40.4477], [22.86744, 40.44945], [22.8672, 40.45392], [22.83092, 40.48579], [22.82164, 40.50214], [22.84352, 40.50917], [22.94158, 40.51716], [22.98316, 40.55268], [22.9769, 40.57062], [22.94176, 40.58735], [22.94956, 40.60541], [22.93377, 40.63093], [22.91049, 40.6446], [22.88307, 40.64728], [22.85402, 40.63947], [22.86108, 40.62055], [22.85864, 40.60529], [22.85058, 40.59342], [22.81592, 40.57063], [22.79567, 40.5708], [22.77833, 40.57807], [22.75856, 40.56778], [22.74594, 40.55524], [22.74252, 40.54035], [22.75032, 40.52278], [22.73666, 40.52961], [22.73665, 40.51534], [22.73048, 40.51534], [22.73048, 40.52277], [22.72316, 40.52277], [22.71871, 40.511], [22.68898, 40.52278], [22.68849, 40.52749], [22.67351, 40.52684], [22.65773, 40.51667], [22.65626, 40.50454], [22.67527, 40.49617], [22.65968, 40.49291], [22.65072, 40.47282], [22.6268, 40.48188], [22.60288, 40.48127], [22.57911, 40.46821], [22.60376, 40.44399], [22.60872, 40.42817], [22.60646, 40.41356], [22.63999, 40.38369], [22.65836, 40.37945], [22.66113, 40.36905], [22.62013, 40.30938], [22.59034, 40.24164], [22.59082, 40.23017], [22.5525, 40.16657], [22.54965, 40.14387], [22.56777, 40.1103], [22.57291, 40.08771], [22.5713, 40.05427], [22.58765, 40.0449], [22.60027, 40.0163], [22.66717, 39.97435], [22.69092, 39.96816], [22.69858, 39.96088], [22.70785, 39.96136], [22.71013, 39.93378], [22.73048, 39.8854], [22.77866, 39.84984], [22.80132, 39.84016], [22.85026, 39.79051], [22.86466, 39.75347], [22.87176, 39.71581], [22.90176, 39.65903], [22.92365, 39.60329], [22.85327, 39.5764], [22.81144, 39.56554], [22.63603, 39.54035], [22.54532, 39.54093], [22.45331, 39.5558], [22.42585, 39.60939], [22.35765, 39.66855], [22.30454, 39.73691], [22.24411, 39.78353], [22.23536, 39.78599], [21.98549, 39.7336], [21.37342, 39.59128], [21.23698, 39.56845], [21.09183, 39.55685], [21.08859, 39.61999], [21.06856, 39.64978], [20.95755, 39.65199], [20.92615, 40.06977], [20.90899, 40.09455], [20.99022, 40.05575], [21.08393, 40.03861], [21.06725, 40.03319], [21.0497, 39.99857], [21.06665, 39.67958], [21.08572, 39.6501], [21.0953, 39.64747], [21.23815, 39.65964], [21.39643, 39.68534], [21.4188, 39.69705], [21.44278, 39.74022], [21.4243, 39.80293], [21.39195, 39.83834], [21.37251, 39.83872], [21.38424, 39.89792], [21.37427, 39.94922], [21.34545, 39.98593], [21.3366, 39.9902], [21.22578, 39.99857], [21.19777, 40.03282], [21.14111, 40.04214], [21.1826, 40.07889], [21.26164, 40.40571], [21.2599, 40.55438], [21.27103, 40.57716], [21.27053, 40.62258], [21.25357, 40.64318], [21.24569, 40.69328], [21.26095, 40.86082], [21.29537, 40.86087], [21.32927, 40.86629], [21.34488, 40.87306], [21.38126, 40.9005], [21.40493, 40.90862], [21.42942, 40.90898], [21.50952, 40.9005], [21.55365, 40.87043], [21.58156, 40.86629], [21.62372, 40.8944], [21.64884, 40.8958], [21.6569, 40.91823], [21.68511, 40.92799], [21.737, 40.91916], [21.76552, 40.92391], [21.77813, 40.93373], [21.78371, 40.96417], [21.79364, 40.97357], [21.83126, 40.99352], [21.845, 41.01238], [21.88066, 41.03843], [21.8943, 41.05383], [21.8972, 41.08127], [21.90123, 41.09078], [21.90908, 41.09749], [21.9651, 41.12436], [22.02907, 41.13858], [22.04819, 41.15186], [22.05553, 41.14989], [22.06277, 41.13718], [22.10338, 41.12152], [22.12437, 41.12721], [22.16033, 41.15191], [22.18317, 41.15992], [22.20581, 41.16142], [22.30265, 41.1455], [22.30875, 41.12498], [22.31505, 41.12442], [22.32342, 41.1285], [22.38016, 41.1317], [22.42181, 41.11465], [22.45148, 41.11367], [22.50067, 41.12214], [22.54925, 41.11852], [22.57126, 41.11951], [22.59018, 41.12514], [22.60733, 41.13599], [22.62449, 41.15263], [22.62935, 41.17707], [22.64454, 41.18023], [22.65612, 41.17806], [22.6741, 41.15661], [22.69188, 41.14457], [22.7049, 41.13966], [22.71575, 41.1456], [22.96511, 41.00186], [23.02928, 40.99262], [23.17786, 41.10574], [23.05723, 40.98919], [23.06813, 40.98217], [23.11486, 40.96959], [23.20032, 40.92958], [23.26763, 40.88814], [23.27988, 40.89177], [23.31553, 40.93635], [23.35387, 40.88741], [23.38726, 40.82222], [23.40339, 40.75336], [23.4017, 40.68343], [23.39419, 40.64889], [23.3789, 40.61241], [23.43894, 40.56503], [23.4969, 40.49542], [23.51494, 40.46531]]], [[[23.44141, 40.79475], [23.47099, 40.78628], [23.42145, 40.78389], [23.44141, 40.79475]]], [[[23.2583, 41.18365], [23.30129, 41.23526], [23.30846, 41.2343], [23.2583, 41.18365]]]]}}]}