{"type": "FeatureCollection", "features": [{"type": "Feature", "properties": {"map_title": "그리스·페르시아 전쟁", "source": "미래엔 세계사 교과서 1권 45쪽", "volume": 1, "page": 45, "name": "사르디스", "name_en": "Sardis", "category": "수도", "year": null, "coord_source": "실제 위치", "map_lon": 28.03999, "map_lat": 38.49, "legend": "사르디스"}, "geometry": {"type": "Point", "coordinates": [28.04, 38.49]}}, {"type": "Feature", "properties": {"map_title": "그리스·페르시아 전쟁", "source": "미래엔 세계사 교과서 1권 45쪽", "volume": 1, "page": 45, "name": "로도스", "name_en": "Rhodes", "category": "도시", "year": null, "coord_source": "실제 위치", "map_lon": 28.21993, "map_lat": 36.42984, "legend": "로도스"}, "geometry": {"type": "Point", "coordinates": [28.22, 36.43]}}, {"type": "Feature", "properties": {"map_title": "그리스·페르시아 전쟁", "source": "미래엔 세계사 교과서 1권 45쪽", "volume": 1, "page": 45, "name": "밀레토스", "name_en": "Miletus", "category": "도시", "year": null, "coord_source": "실제 위치", "map_lon": 27.2799, "map_lat": 37.52982, "legend": "밀레토스"}, "geometry": {"type": "Point", "coordinates": [27.28, 37.53]}}, {"type": "Feature", "properties": {"map_title": "그리스·페르시아 전쟁", "source": "미래엔 세계사 교과서 1권 45쪽", "volume": 1, "page": 45, "name": "페르가몬", "name_en": "Pergamon", "category": "도시", "year": null, "coord_source": "실제 위치", "map_lon": 27.17891, "map_lat": 39.11975, "legend": "페르가몬"}, "geometry": {"type": "Point", "coordinates": [27.18, 39.12]}}, {"type": "Feature", "properties": {"map_title": "그리스·페르시아 전쟁", "source": "미래엔 세계사 교과서 1권 45쪽", "volume": 1, "page": 45, "name": "트로이", "name_en": "Troy", "category": "유적", "year": null, "coord_source": "실제 위치", "map_lon": 26.24006, "map_lat": 39.96001, "legend": "트로이"}, "geometry": {"type": "Point", "coordinates": [26.24, 39.96]}}, {"type": "Feature", "properties": {"map_title": "그리스·페르시아 전쟁", "source": "미래엔 세계사 교과서 1권 45쪽", "volume": 1, "page": 45, "name": "테르마", "name_en": "Therma", "category": "도시", "year": null, "coord_source": "실제 위치", "map_lon": 22.93999, "map_lat": 40.63996, "legend": "테르마"}, "geometry": {"type": "Point", "coordinates": [22.94, 40.64]}}, {"type": "Feature", "properties": {"map_title": "그리스·페르시아 전쟁", "source": "미래엔 세계사 교과서 1권 45쪽", "volume": 1, "page": 45, "name": "아테네", "name_en": "Athens", "category": "도시", "year": null, "coord_source": "실제 위치", "map_lon": 23.73037, "map_lat": 37.9801, "legend": "아테네"}, "geometry": {"type": "Point", "coordinates": [23.73, 37.98]}}, {"type": "Feature", "properties": {"map_title": "그리스·페르시아 전쟁", "source": "미래엔 세계사 교과서 1권 45쪽", "volume": 1, "page": 45, "name": "테베", "name_en": "Thebes", "category": "도시", "year": null, "coord_source": "실제 위치", "map_lon": 23.31997, "map_lat": 38.32002, "legend": "테베"}, "geometry": {"type": "Point", "coordinates": [23.32, 38.32]}}, {"type": "Feature", "properties": {"map_title": "그리스·페르시아 전쟁", "source": "미래엔 세계사 교과서 1권 45쪽", "volume": 1, "page": 45, "name": "스파르타", "name_en": "Sparta", "category": "도시", "year": null, "coord_source": "실제 위치", "map_lon": 22.42969, "map_lat": 37.06981, "legend": "스파르타"}, "geometry": {"type": "Point", "coordinates": [22.43, 37.07]}}, {"type": "Feature", "properties": {"map_title": "그리스·페르시아 전쟁", "source": "미래엔 세계사 교과서 1권 45쪽", "volume": 1, "page": 45, "name": "올림포스산", "name_en": "Mount Olympus", "category": "기타", "year": null, "coord_source": "실제 위치", "map_lon": 22.36002, "map_lat": 40.09, "legend": "올림포스산"}, "geometry": {"type": "Point", "coordinates": [22.36, 40.09]}}, {"type": "Feature", "properties": {"map_title": "그리스·페르시아 전쟁", "source": "미래엔 세계사 교과서 1권 45쪽", "volume": 1, "page": 45, "name": "테르모필레 전투", "name_en": "Battle of Thermopylae", "category": "격전지", "year": -480, "coord_source": "실제 위치", "map_lon": 22.53998, "map_lat": 38.80001, "legend": "테르모필레 전투(기원전 480)"}, "geometry": {"type": "Point", "coordinates": [22.54, 38.8]}}, {"type": "Feature", "properties": {"map_title": "그리스·페르시아 전쟁", "source": "미래엔 세계사 교과서 1권 45쪽", "volume": 1, "page": 45, "name": "마라톤 전투", "name_en": "Battle of Marathon", "category": "격전지", "year": -490, "coord_source": "실제 위치", "map_lon": 23.96971, "map_lat": 38.14996, "legend": "마라톤 전투(기원전 490)"}, "geometry": {"type": "Point", "coordinates": [23.97, 38.15]}}, {"type": "Feature", "properties": {"map_title": "그리스·페르시아 전쟁", "source": "미래엔 세계사 교과서 1권 45쪽", "volume": 1, "page": 45, "name": "살라미스 해전", "name_en": "Battle of Salamis", "category": "격전지", "year": -480, "coord_source": "실제 위치", "map_lon": 22.93972, "map_lat": 38.07132, "legend": "살라미스 해전(기원전 480)"}, "geometry": {"type": "Point", "coordinates": [23.52, 37.95]}}, {"type": "Feature", "properties": {"map_title": "그리스·페르시아 전쟁", "source": "미래엔 세계사 교과서 1권 45쪽", "volume": 1, "page": 45, "name": "델포이", "name_en": "Delphi", "category": "격전지", "year": null, "coord_source": "실제 위치", "map_lon": 22.49993, "map_lat": 38.4797, "legend": "델포이(격전 기호)"}, "geometry": {"type": "Point", "coordinates": [22.5, 38.48]}}, {"type": "Feature", "properties": {"map_title": "그리스·페르시아 전쟁", "source": "미래엔 세계사 교과서 1권 45쪽", "volume": 1, "page": 45, "name": "미칼레곶", "name_en": "Battle of Mycale", "category": "격전지", "year": -479, "coord_source": "실제 위치", "map_lon": 26.89527, "map_lat": 37.78403, "legend": "미칼레곶(격전 기호)"}, "geometry": {"type": "Point", "coordinates": [27.15, 37.66]}}, {"type": "Feature", "properties": {"map_title": "그리스·페르시아 전쟁", "source": "미래엔 세계사 교과서 1권 45쪽", "volume": 1, "page": 45, "name": "라디", "name_en": "Battle of Lade", "category": "격전지", "year": -494, "coord_source": "실제 위치", "map_lon": 26.74551, "map_lat": 37.69404, "legend": "라디(격전 기호)"}, "geometry": {"type": "Point", "coordinates": [27.25, 37.48]}}, {"type": "Feature", "properties": {"map_title": "그리스·페르시아 전쟁", "source": "미래엔 세계사 교과서 1권 45쪽", "volume": 1, "page": 45, "name": "격전지(이름 표기 없음, 에우보이아 북단)", "name_en": "", "category": "격전지", "year": null, "coord_source": "지도 판독", "map_lon": 23.30556, "map_lat": 39.17236, "legend": "격전 기호"}, "geometry": {"type": "Point", "coordinates": [23.30556, 39.17236]}}, {"type": "Feature", "properties": {"map_title": "그리스·페르시아 전쟁", "source": "미래엔 세계사 교과서 1권 45쪽", "volume": 1, "page": 45, "name": "격전지(이름 표기 없음, 아테네 서쪽 1)", "name_en": "", "category": "격전지", "year": null, "coord_source": "지도 판독", "map_lon": 22.9367, "map_lat": 38.22302, "legend": "격전 기호"}, "geometry": {"type": "Point", "coordinates": [22.9367, 38.22302]}}, {"type": "Feature", "properties": {"map_title": "그리스·페르시아 전쟁", "source": "미래엔 세계사 교과서 1권 45쪽", "volume": 1, "page": 45, "name": "격전지(이름 표기 없음, 아테네 서쪽 2)", "name_en": "", "category": "격전지", "year": null, "coord_source": "지도 판독", "map_lon": 22.70459, "map_lat": 38.20438, "legend": "격전 기호"}, "geometry": {"type": "Point", "coordinates": [22.70459, 38.20438]}}]}