{"type": "FeatureCollection", "features": [{"type": "Feature", "properties": {"map_title": "나폴레옹 시대의 유럽 정세", "source": "미래엔 세계사 교과서 3권 142쪽", "volume": 3, "page": 142, "name": "프랑스 제국령", "name_en": "French Empire", "period": "1812년경", "kind": "국가", "legend": "프랑스 제국령", "coast_snap": "Natural Earth 10m 해안선에 맞춤", "border_snap": "현대 국경(Natural Earth 10m)에 맞춘 구간 약 2540 km", "group": "프랑스 제국령", "map_folder": "3권_p142_나폴레옹 시대의 유럽 정세"}, "geometry": {"type": "MultiPolygon", "coordinates": [[[[-1.24764, 46.00176], [-1.23364, 45.99168], [-1.23046, 45.9582], [-1.21941, 45.95075], [-1.22435, 45.93504], [-1.18518, 45.91595], [-1.17611, 45.89875], [-1.19458, 45.83007], [-1.20922, 45.81417], [-1.22686, 45.81978], [-1.26036, 45.88182], [-1.319, 45.92813], [-1.34034, 45.93881], [-1.37816, 45.97579], [-1.37165, 45.99531], [-1.40491, 46.05316], [-1.37389, 46.05023], [-1.33992, 46.03782], [-1.28515, 46.00165], [-1.27383, 45.99763], [-1.24764, 46.00176]]], [[[-1.3081, 46.20692], [-1.28475, 46.19643], [-1.26594, 46.18115], [-1.25416, 46.16243], [-1.2814, 46.15621], [-1.29068, 46.16132], [-1.33608, 46.16723], [-1.43285, 46.21084], [-1.48892, 46.20337], [-1.50425, 46.20768], [-1.5558, 46.24556], [-1.5558, 46.25177], [-1.49841, 46.26186], [-1.4801, 46.25921], [-1.4679, 46.2499], [-1.47387, 46.2381], [-1.50797, 46.24555], [-1.49055, 46.22443], [-1.46418, 46.22492], [-1.41114, 46.23809], [-1.41114, 46.23127], [-1.42536, 46.23127], [-1.42536, 46.22382], [-1.40876, 46.21825], [-1.3081, 46.20692]]], [[[-2.29137, 46.7036], [-2.3714, 46.7043], [-2.38291, 46.72264], [-2.37514, 46.73163], [-2.3568, 46.73378], [-2.29821, 46.72015], [-2.2797, 46.71027], [-2.26898, 46.69743], [-2.29137, 46.7036]]], [[[-2.13771, 46.92341], [-2.14256, 46.90987], [-2.15907, 46.9165], [-2.19481, 46.96186], [-2.2202, 46.97386], [-2.2473, 46.96431], [-2.26315, 46.97981], [-2.27868, 47.01813], [-2.29562, 47.03318], [-2.23823, 47.0353], [-2.22045, 47.03318], [-2.20004, 47.02435], [-2.2001, 46.98542], [-2.14486, 46.95746], [-2.13771, 46.92341]]], [[[-3.26206, 47.38324], [-3.24931, 47.39521], [-3.17651, 47.37148], [-3.11465, 47.33149], [-3.10269, 47.32734], [-3.07275, 47.3283], [-3.06283, 47.32062], [-3.06702, 47.30195], [-3.09362, 47.29663], [-3.1717, 47.30159], [-3.22345, 47.31217], [-3.24069, 47.32049], [-3.23762, 47.33637], [-3.26206, 47.38324]]], [[[-4.76657, 48.5144], [-4.66998, 48.55441], [-4.6083, 48.57265], [-4.58983, 48.56574], [-4.57726, 48.56818], [-4.58761, 48.57761], [-4.55142, 48.58523], [-4.45255, 48.59628], [-4.37195, 48.59607], [-4.26044, 48.6183], [-4.17136, 48.62667], [-4.16369, 48.63146], [-4.1286, 48.69902], [-4.10872, 48.69814], [-4.09069, 48.69111], [-4.07926, 48.69692], [-4.07022, 48.68488], [-4.06404, 48.68488], [-4.05329, 48.69554], [-4.05653, 48.71214], [-3.97399, 48.7328], [-3.96778, 48.72956], [-3.97273, 48.70771], [-3.96102, 48.70473], [-3.96776, 48.69111], [-3.95103, 48.67931], [-3.95474, 48.65754], [-3.91224, 48.68111], [-3.89203, 48.67804], [-3.90632, 48.6706], [-3.90632, 48.66437], [-3.85171, 48.62962], [-3.84431, 48.63646], [-3.85172, 48.64326], [-3.84431, 48.65009], [-3.85788, 48.68487], [-3.85172, 48.68488], [-3.83747, 48.6706], [-3.83713, 48.70726], [-3.82925, 48.71844], [-3.81696, 48.71214], [-3.81011, 48.73319], [-3.79711, 48.72118], [-3.77843, 48.71735], [-3.73193, 48.71897], [-3.68664, 48.69855], [-3.63819, 48.70473], [-3.63854, 48.68781], [-3.614, 48.68268], [-3.58479, 48.68281], [-3.57055, 48.68797], [-3.58449, 48.72618], [-3.58046, 48.73321], [-3.52831, 48.73949], [-3.54284, 48.74567], [-3.57737, 48.77424], [-3.58152, 48.79059], [-3.57139, 48.79905], [-3.54259, 48.80781], [-3.51528, 48.84194], [-3.49983, 48.83698], [-3.46813, 48.83567], [-3.43358, 48.82221], [-3.41978, 48.82143], [-3.43334, 48.80781], [-3.39761, 48.80732], [-3.37181, 48.82249], [-3.27578, 48.84934], [-3.25951, 48.84772], [-3.22972, 48.87225], [-3.21362, 48.86981], [-3.20716, 48.85541], [-3.21496, 48.81786], [-3.2279, 48.80781], [-3.22053, 48.79413], [-3.20873, 48.81635], [-3.14537, 48.86236], [-3.135, 48.8592], [-3.12362, 48.86831], [-3.08623, 48.84824], [-3.09073, 48.83568], [-3.07707, 48.82826], [-3.09752, 48.79413], [-3.12548, 48.7674], [-3.12548, 48.75996], [-3.11803, 48.75996], [-3.06551, 48.82395], [-3.0363, 48.82042], [-3.02073, 48.8274], [-3.00819, 48.82144], [-3.0157, 48.8146], [-3.00939, 48.81371], [-3.00818, 48.80781], [-3.04239, 48.79413], [-3.04239, 48.78791], [-3.00365, 48.77387], [-2.95296, 48.77227], [-2.93311, 48.76739], [-2.93311, 48.74633], [-2.94669, 48.73949], [-2.94668, 48.73322], [-2.91366, 48.71626], [-2.89208, 48.69477], [-2.82699, 48.65753], [-2.8115, 48.61479], [-2.81298, 48.59858], [-2.77107, 48.57917], [-2.71404, 48.56073], [-2.72104, 48.54463], [-2.73449, 48.534], [-2.71314, 48.53009], [-2.68236, 48.50902], [-2.67613, 48.54022], [-2.63634, 48.5388], [-2.62002, 48.54361], [-2.5691, 48.58885], [-2.47362, 48.62596], [-2.45954, 48.63646], [-2.45954, 48.64326], [-2.48742, 48.65009], [-2.44286, 48.65907], [-2.42106, 48.65696], [-2.41226, 48.64326], [-2.38622, 48.65009], [-2.32999, 48.68036], [-2.31608, 48.69853], [-2.30533, 48.67963], [-2.28199, 48.67803], [-2.28199, 48.67061], [-2.33031, 48.62962], [-2.31265, 48.62018], [-2.27358, 48.64263], [-2.25097, 48.65008], [-2.23729, 48.61591], [-2.22595, 48.61236], [-2.21924, 48.60366], [-2.21369, 48.58186], [-2.19555, 48.59345], [-2.1926, 48.61583], [-2.18297, 48.58877], [-2.17406, 48.58295], [-2.15909, 48.58869], [-2.15909, 48.59544], [-2.17211, 48.60171], [-2.1608, 48.61314], [-2.14929, 48.61888], [-2.13703, 48.61799], [-2.12434, 48.60912], [-2.14483, 48.63645], [-2.1002, 48.6469], [-2.05237, 48.65008], [-2.02872, 48.6197], [-2.02204, 48.59894], [-2.00089, 48.58869], [-2.00829, 48.57502], [-1.98249, 48.54898], [-1.97639, 48.53563], [-1.9803, 48.51358], [-1.93936, 48.534], [-1.96727, 48.54706], [-1.9619, 48.55492], [-1.97663, 48.5727], [-1.9803, 48.58869], [-1.9735, 48.58869], [-1.95295, 48.57502], [-1.96939, 48.59276], [-1.99112, 48.59544], [-2.00048, 48.6013], [-2.02872, 48.64326], [-2.01812, 48.66034], [-1.9877, 48.67377], [-1.9859, 48.68789], [-1.93936, 48.69111], [-1.94561, 48.69854], [-1.84377, 48.71213], [-1.84691, 48.70344], [-1.83635, 48.69111], [-1.86119, 48.66421], [-1.86095, 48.64085], [-1.83821, 48.62377], [-1.79601, 48.61591], [-1.72281, 48.6153], [-1.64395, 48.62344], [-1.5797, 48.64325], [-1.50056, 48.63646], [-1.39314, 48.65241], [-1.35656, 48.64326], [-1.3723, 48.66059], [-1.3946, 48.66828], [-1.43285, 48.6706], [-1.44326, 48.66284], [-1.4558, 48.68342], [-1.50266, 48.69551], [-1.51647, 48.72516], [-1.5536, 48.74714], [-1.56206, 48.77082], [-1.56676, 48.82217], [-1.57885, 48.83784], [-1.60292, 48.84195], [-1.60292, 48.84934], [-1.57852, 48.86262], [-1.56369, 48.9221], [-1.55703, 48.93231], [-1.54841, 48.92381], [-1.54279, 48.93525], [-1.54703, 48.94969], [-1.55898, 48.95182], [-1.56304, 48.95759], [-1.54577, 49.03034], [-1.53234, 49.03514], [-1.50797, 49.02753], [-1.50797, 49.03368], [-1.52725, 49.03978], [-1.54971, 49.03978], [-1.56843, 49.03266], [-1.57946, 49.01319], [-1.59356, 49.029], [-1.59595, 49.06101], [-1.58934, 49.0821], [-1.60341, 49.08398], [-1.60772, 49.10273], [-1.59592, 49.12848], [-1.56949, 49.14354], [-1.58178, 49.14985], [-1.58946, 49.14375], [-1.60441, 49.17802], [-1.61042, 49.21589], [-1.60265, 49.22541], [-1.58446, 49.22626], [-1.54841, 49.21931], [-1.54841, 49.22549], [-1.59529, 49.23786], [-1.61685, 49.23823], [-1.62466, 49.21932], [-1.64052, 49.23152], [-1.65709, 49.26838], [-1.67184, 49.2801], [-1.65819, 49.28754], [-1.69919, 49.31377], [-1.70664, 49.32917], [-1.68619, 49.32917], [-1.69913, 49.35586], [-1.70665, 49.35586], [-1.71475, 49.33854], [-1.77549, 49.37011], [-1.76797, 49.38373], [-1.80679, 49.37687], [-1.81646, 49.38374], [-1.81941, 49.45205], [-1.83819, 49.47582], [-1.84374, 49.4936], [-1.88466, 49.53091], [-1.87839, 49.54486], [-1.85017, 49.56171], [-1.84374, 49.57185], [-1.83951, 49.61978], [-1.8695, 49.66169], [-1.94561, 49.67797], [-1.9352, 49.7241], [-1.90836, 49.72638], [-1.8673, 49.71271], [-1.83943, 49.71539], [-1.82463, 49.70844], [-1.81648, 49.69164], [-1.70776, 49.68015], [-1.63305, 49.66352], [-1.61719, 49.66428], [-1.61392, 49.65225], [-1.60668, 49.65005], [-1.57286, 49.66428], [-1.5404, 49.65778], [-1.51146, 49.66254], [-1.45596, 49.7021], [-1.40949, 49.71156], [-1.39095, 49.71268], [-1.26307, 49.69549], [-1.22779, 49.6241], [-1.25333, 49.61225], [-1.26404, 49.58927], [-1.2862, 49.58894], [-1.30142, 49.58177], [-1.30626, 49.55809], [-1.26159, 49.49315], [-1.1853, 49.43036], [-1.17582, 49.41543], [-1.17228, 49.39313], [-1.18517, 49.3664], [-1.182, 49.35619], [-1.15173, 49.36269], [-1.12287, 49.34544], [-1.10342, 49.34903], [-1.11374, 49.36579], [-1.10634, 49.37946], [-1.08958, 49.39154], [-1.07225, 49.39679], [-0.94042, 49.39227], [-0.82213, 49.3627], [-0.65118, 49.35588], [-0.58336, 49.34589], [-0.54694, 49.35894], [-0.47948, 49.34276], [-0.41113, 49.34275], [-0.36343, 49.32502], [-0.31311, 49.31732], [-0.21947, 49.2801], [-0.19407, 49.29522], [-0.03384, 49.32005], [0.01287, 49.33462], [0.0403, 49.3504], [0.06308, 49.35448], [0.09597, 49.38373], [0.16237, 49.41518], [0.41131, 49.45205], [0.45729, 49.46743], [0.49318, 49.4936], [0.42213, 49.46442], [0.33961, 49.45673], [0.25685, 49.46407], [0.18531, 49.47997], [0.12474, 49.48571], [0.10443, 49.49361], [0.09278, 49.50926], [0.07864, 49.51554], [0.0797, 49.54218], [0.13087, 49.6035], [0.17093, 49.69163], [0.18589, 49.70318], [0.23586, 49.72931], [0.24676, 49.72944], [0.25712, 49.73599], [0.38746, 49.77505], [0.39794, 49.78449], [0.59696, 49.85731], [0.67482, 49.87579], [0.76092, 49.87507], [1.17262, 49.96101], [1.19696, 49.97357], [1.2212, 49.97899], [1.261, 50.00751], [1.39129, 50.07518], [1.45582, 50.1236], [1.48684, 50.18504], [1.52102, 50.21466], [1.55535, 50.21771], [1.65431, 50.18659], [1.67254, 50.19253], [1.67254, 50.19937], [1.65528, 50.20051], [1.64456, 50.21239], [1.66505, 50.21239], [1.66505, 50.21979], [1.62526, 50.22444], [1.61005, 50.23225], [1.59392, 50.25629], [1.55113, 50.26969], [1.54153, 50.2779], [1.55169, 50.34928], [1.57204, 50.37567], [1.61036, 50.37067], [1.61036, 50.3769], [1.5552, 50.40478], [1.5735, 50.44538], [1.57929, 50.53314], [1.61036, 50.54816], [1.58336, 50.5747], [1.57797, 50.58841], [1.56269, 50.69896], [1.60564, 50.79002], [1.5806, 50.8688], [1.60512, 50.88113], [1.65333, 50.88911], [1.72984, 50.9439], [1.92106, 50.99668], [1.9393, 50.99445], [1.97349, 51.00714], [2.13404, 51.01997], [2.31649, 51.05907], [2.38445, 51.05532], [2.46607, 51.06879], [2.54201, 51.09686], [2.57993, 51.1048], [2.71602, 51.16963], [2.9236, 51.24649], [3.12485, 51.32965], [3.51092, 51.40795], [3.52573, 51.41559], [3.54135, 51.41672], [3.60467, 51.39106], [3.70215, 51.37359], [3.73422, 51.35578], [3.75554, 51.35008], [3.79591, 51.35007], [3.83399, 51.34325], [3.85817, 51.34545], [3.95582, 51.37177], [3.96925, 51.38166], [3.97464, 51.40159], [3.98415, 51.41046], [4.02936, 51.40408], [4.04345, 51.3985], [4.07016, 51.37055], [4.10547, 51.36611], [4.12192, 51.35936], [4.15651, 51.35757], [4.18003, 51.37742], [4.19955, 51.37603], [4.24106, 51.35659], [4.25611, 51.32844], [4.30299, 51.29609], [4.30812, 51.28364], [4.29672, 51.26756], [4.31642, 51.27684], [4.33082, 51.29609], [4.28932, 51.30915], [4.28305, 51.35008], [4.25697, 51.37269], [4.24899, 51.38442], [4.24488, 51.4145], [4.23471, 51.41901], [4.22298, 51.4095], [4.20102, 51.40535], [4.1111, 51.40698], [4.07017, 51.41902], [4.01515, 51.44892], [3.95704, 51.4558], [3.94313, 51.45038], [3.9021, 51.40494], [3.82716, 51.39107], [3.78907, 51.41218], [3.72878, 51.43082], [3.68971, 51.45429], [3.674, 51.45539], [3.63258, 51.44572], [3.61004, 51.44506], [3.53542, 51.45922], [3.4948, 51.50092], [3.46174, 51.51917], [3.45104, 51.52974], [3.44705, 51.54596], [3.45754, 51.55507], [3.5604, 51.59462], [3.82857, 51.61272], [3.85074, 51.61082], [3.88216, 51.59609], [3.90575, 51.56925], [3.87159, 51.55557], [3.87159, 51.54938], [3.96729, 51.54311], [4.01587, 51.53082], [4.05713, 51.50836], [4.09002, 51.45824], [4.10483, 51.4457], [4.12875, 51.44135], [4.18083, 51.44586], [4.20045, 51.43952], [4.28321, 51.4477], [4.29672, 51.47053], [4.28858, 51.49213], [4.26775, 51.50829], [4.23976, 51.5185], [4.19468, 51.5236], [4.15333, 51.53506], [4.09132, 51.53507], [4.06695, 51.54418], [3.98816, 51.59027], [4.06811, 51.61065], [4.15724, 51.6079], [4.18336, 51.60293], [4.20729, 51.59028], [4.20265, 51.60912], [4.18995, 51.61668], [4.136, 51.62043], [4.11802, 51.63069], [4.11295, 51.63947], [4.11264, 51.6708], [4.14256, 51.68406], [4.17693, 51.68586], [4.14112, 51.70393], [4.07155, 51.7172], [4.05716, 51.7303], [4.05079, 51.7635], [4.03395, 51.78425], [3.98146, 51.81], [3.96218, 51.80114], [3.87194, 51.78827], [3.86233, 51.81606], [3.89138, 51.82826], [3.95411, 51.84016], [3.96267, 51.84735], [4.01531, 51.84362], [4.04762, 51.83369], [4.07765, 51.84357], [4.03199, 51.88224], [4.03201, 51.89606], [4.04347, 51.90868], [4.01004, 51.98013], [4.01543, 51.98742], [4.02248, 51.99436], [4.06902, 51.98794], [4.10768, 51.99189], [4.14186, 52.0056], [4.28468, 52.11294], [4.40691, 52.22346], [4.50815, 52.33637], [4.56861, 52.44526], [4.57734, 52.48094], [4.59693, 52.50658], [4.63929, 52.70049], [4.66938, 52.79637], [4.71168, 52.8631], [4.7265, 52.93855], [4.73391, 52.95889], [4.74546, 52.96759], [4.80698, 52.96182], [4.8169, 52.96758], [4.82437, 52.96015], [4.80942, 52.92959], [4.83277, 52.91132], [4.87379, 52.90396], [4.9131, 52.90558], [4.97829, 52.93569], [5.03891, 52.94351], [5.07814, 52.95401], [5.31249, 53.0827], [5.3589, 53.08934], [5.37924, 53.09736], [5.39975, 53.12206], [5.42697, 53.19002], [5.44746, 53.22089], [5.50395, 53.25687], [5.54103, 53.26659], [5.59157, 53.30279], [5.65968, 53.31196], [5.6946, 53.33005], [5.85475, 53.3688], [5.89081, 53.38425], [5.91375, 53.3854], [5.98081, 53.40606], [6.27393, 53.41266], [6.31153, 53.39899], [6.34556, 53.41266], [6.49487, 53.43875], [6.73023, 53.46063], [6.82911, 53.45058], [6.86685, 53.43427], [6.90056, 53.35179], [6.93001, 53.34007], [6.94858, 53.32608], [7.02003, 53.30614], [7.03777, 53.30963], [7.05828, 53.30195], [7.08544, 53.30963], [7.08544, 53.30281], [7.0735, 53.29564], [7.08074, 53.26679], [7.1111, 53.25633], [7.19459, 53.24502], [7.21583, 53.2556], [7.23357, 53.27363], [7.23699, 53.28555], [7.22952, 53.29657], [7.25477, 53.31954], [7.29152, 53.32392], [7.36655, 53.3028], [7.34254, 53.32404], [7.30291, 53.33275], [7.07521, 53.3376], [7.03827, 53.34859], [7.02363, 53.37641], [7.02333, 53.45068], [7.05975, 53.5217], [7.11964, 53.5163], [7.14177, 53.53718], [7.13999, 53.54979], [7.13111, 53.55695], [7.08889, 53.57372], [7.08698, 53.58703], [7.2261, 53.66648], [7.30503, 53.68479], [7.45883, 53.69512], [7.48024, 53.68203], [7.50392, 53.67866], [7.65162, 53.69699], [7.95143, 53.7219], [8.03141, 53.70807], [8.02491, 53.67255], [8.05291, 53.6363], [8.09409, 53.60472], [8.1276, 53.59076], [8.11915, 53.57193], [8.15674, 53.56366], [8.16796, 53.55321], [8.16487, 53.53523], [8.15516, 53.5259], [8.11573, 53.51074], [8.07634, 53.50861], [8.05877, 53.50202], [8.077, 53.4687], [8.09978, 53.44741], [8.12387, 53.454], [8.15234, 53.44977], [8.18668, 53.4295], [8.20533, 53.41071], [8.2365, 53.40672], [8.25945, 53.4123], [8.29282, 53.4405], [8.31512, 53.47492], [8.32049, 53.50922], [8.29152, 53.52936], [8.25221, 53.52311], [8.23123, 53.52522], [8.24889, 53.59027], [8.27069, 53.61285], [8.32969, 53.61802], [8.34847, 53.61285], [8.38771, 53.57714], [8.42807, 53.56476], [8.51343, 53.55475], [8.55209, 53.54361], [8.55209, 53.5362], [8.5062, 53.50796], [8.49, 53.4864], [8.48504, 53.40119], [8.4909, 53.37645], [8.5044, 53.35806], [8.49757, 53.47476], [8.51287, 53.49649], [8.55665, 53.51822], [8.56577, 53.5467], [8.50846, 53.6249], [8.4871, 53.66694], [8.48611, 53.70042], [8.57327, 53.85765], [8.60712, 53.88153], [8.65187, 53.89247], [8.68457, 53.88848], [8.74464, 53.85415], [8.78248, 53.84247], [8.86069, 53.831], [8.90358, 53.83173], [8.97625, 53.84242], [9.01629, 53.84052], [9.03502, 53.85357], [9.11452, 53.86513], [9.19361, 53.86469], [9.2107, 53.87196], [9.22429, 53.86591], [9.27467, 53.86514], [9.30535, 53.84455], [9.40268, 53.74242], [9.48469, 53.69009], [9.49838, 53.65986], [9.56707, 53.5996], [9.60092, 53.58633], [9.63722, 53.581], [9.69662, 53.55663], [9.81902, 53.54035], [9.83204, 53.54361], [9.81959, 53.55663], [9.78207, 53.56973], [9.69239, 53.57591], [9.65577, 53.58462], [9.58367, 53.61245], [9.55079, 53.63459], [9.53224, 53.71117], [9.46023, 53.73543], [9.43582, 53.74869], [9.41237, 53.77891], [9.39668, 53.81102], [9.39519, 53.831], [9.35875, 53.83956], [9.29558, 53.87189], [9.25782, 53.88556], [9.22047, 53.89077], [9.09344, 53.89249], [9.02996, 53.90713], [9.00782, 53.8925], [8.98503, 53.89696], [8.94949, 53.91292], [8.91584, 53.93763], [8.83337, 54.03644], [8.87184, 54.04693], [8.89063, 54.04779], [8.97535, 54.02408], [8.99724, 54.03022], [9.01303, 54.06098], [9.01832, 54.09789], [8.97448, 54.12808], [8.97731, 54.1457], [8.95289, 54.15009], [8.91798, 54.14631], [8.8607, 54.1252], [8.81285, 54.18049], [8.84669, 54.23355], [8.83963, 54.25556], [8.92205, 54.27424], [8.96315, 54.31761], [8.94028, 54.31501], [8.90259, 54.29585], [8.88114, 54.29029], [8.88795, 54.30394], [8.77504, 54.29029], [8.73894, 54.29389], [8.67848, 54.2692], [8.65188, 54.27486], [8.6234, 54.29012], [8.60273, 54.31208], [8.59989, 54.33787], [8.61403, 54.34837], [8.64137, 54.35566], [8.69557, 54.35859], [8.69557, 54.36542], [8.65064, 54.378], [8.63479, 54.36543], [8.62625, 54.37641], [8.6291, 54.38744], [8.64845, 54.40639], [8.66977, 54.40082], [8.75083, 54.4138], [8.86069, 54.4138], [8.88608, 54.41779], [8.94948, 54.44733], [9.00473, 54.46589], [9.01157, 54.50633], [8.98609, 54.52928], [8.8962, 54.5882], [9.05516, 54.57796], [9.21593, 54.5755], [9.38249, 54.55662], [9.47977, 54.61063], [9.59076, 54.65309], [9.76488, 54.73164], [9.84512, 54.75879], [9.89536, 54.76948], [9.89451, 54.77406], [9.9326, 54.78488], [9.97045, 54.76264], [9.98414, 54.7285], [10.01821, 54.70124], [10.00538, 54.69551], [9.97047, 54.70124], [9.9463, 54.68765], [9.93238, 54.68525], [9.92945, 54.6739], [9.99632, 54.67878], [10.0114, 54.66706], [10.03353, 54.67291], [10.03905, 54.66681], [10.03191, 54.65278], [10.03758, 54.61886], [10.02694, 54.56021], [10.01026, 54.53419], [9.96557, 54.50618], [9.92495, 54.49304], [9.8401, 54.48212], [9.8401, 54.47529], [9.88331, 54.4621], [10.12432, 54.4957], [10.14367, 54.49171], [10.20384, 54.461], [10.18393, 54.44937], [10.19703, 54.4101], [10.19125, 54.39671], [10.15933, 54.37546], [10.14178, 54.37226], [10.14826, 54.36518], [10.14177, 54.35859], [10.15553, 54.34341], [10.14178, 54.32441], [10.16375, 54.32917], [10.18035, 54.34113], [10.22439, 54.4138], [10.27215, 54.42007], [10.3069, 54.4411], [10.31837, 54.44329], [10.36117, 54.44101], [10.44337, 54.4064], [10.60107, 54.36541], [10.6902, 54.31623], [10.73129, 54.31021], [10.77711, 54.31513], [10.8108, 54.32738], [10.86822, 54.3587], [10.93532, 54.37953], [11.01879, 54.38588], [11.01879, 54.3791], [10.97584, 54.3784], [10.99317, 54.37385], [11.01051, 54.37718], [11.03395, 54.36762], [11.10418, 54.39288], [11.13548, 54.38589], [11.08773, 54.35176], [11.06658, 54.35859], [11.0774, 54.34223], [11.09448, 54.28352], [11.08709, 54.2709], [11.09448, 54.22508], [11.09016, 54.208], [11.06656, 54.18391], [10.95045, 54.13947], [10.91031, 54.10921], [10.89322, 54.10267], [10.83611, 54.09001], [10.82228, 54.09736], [10.80543, 54.09488], [10.75262, 54.05012], [10.75262, 54.04389], [10.78045, 54.00995], [10.79965, 54.00056], [10.82691, 53.99543], [10.87548, 53.99542], [10.88738, 53.96393], [10.90211, 53.96137], [10.92262, 53.96137], [10.9647, 53.98541], [11.00026, 53.9916], [11.05382, 54.00852], [11.17506, 54.018], [11.19075, 54.01032], [11.20436, 53.98924], [11.21326, 53.98779], [11.04447, 53.83235], [10.97186, 53.7764], [10.88317, 53.73015], [10.83267, 53.71071], [10.72546, 53.68155], [10.62902, 53.66648], [10.62232, 53.65974], [10.62539, 53.64025], [10.55992, 53.66134], [10.45836, 53.70322], [10.36386, 53.74863], [10.34469, 53.74691], [10.34185, 53.73775], [10.38495, 53.68847], [10.42153, 53.62056], [10.43469, 53.54965], [10.42404, 53.47856], [10.39011, 53.41009], [10.33433, 53.34692], [10.25897, 53.29153], [10.16702, 53.24606], [10.06263, 53.21242], [9.99115, 53.19663], [9.87042, 53.18271], [9.74832, 53.18373], [9.50985, 53.21515], [9.26782, 53.28125], [8.64044, 53.01357], [8.33622, 52.88842], [8.02156, 52.77106], [7.69423, 52.66671], [7.50898, 52.61738], [7.40063, 52.59309], [7.03665, 52.64738], [7.01847, 52.62599], [6.96772, 52.63666], [6.91842, 52.63219], [6.8654, 52.64196], [6.77052, 52.64103], [6.73703, 52.6347], [6.70179, 52.61912], [6.71016, 52.60865], [6.70365, 52.59139], [6.70396, 52.58307], [6.74375, 52.55971], [6.68825, 52.54258], [6.67172, 52.54168], [6.68401, 52.52599], [6.68898, 52.49052], [6.69507, 52.47561], [6.71481, 52.46155], [6.74117, 52.45367], [6.82034, 52.44683], [6.87201, 52.43473], [6.90023, 52.43192], [6.95149, 52.43747], [6.9733, 52.45137], [7.03417, 52.39078], [7.04823, 52.36507], [7.03976, 52.32862], [7.01247, 52.28495], [7.01185, 52.26663], [7.02074, 52.24526], [7.02911, 52.23578], [7.02632, 52.23064], [6.98188, 52.214], [6.94767, 52.18281], [6.92772, 52.17191], [6.88483, 52.16033], [6.8654, 52.1478], [6.84328, 52.12], [6.83067, 52.11289], [6.76587, 52.1084], [6.74985, 52.10287], [6.7329, 52.09199], [6.7114, 52.06729], [6.67988, 52.06047], [6.67296, 52.05005], [6.67502, 52.03481], [6.77817, 52.00127], [6.80918, 51.97954], [6.81073, 51.96058], [6.78985, 51.95114], [6.76701, 51.92551], [6.74375, 51.90833], [6.94852, 51.71535], [7.0687, 51.59667], [7.46492, 51.23014], [7.57268, 51.12193], [7.67305, 51.01168], [7.76581, 50.89745], [7.84795, 50.77998], [7.91725, 50.65876], [7.96952, 50.53686], [8.00278, 50.41436], [8.01594, 50.29928], [8.01436, 50.17509], [8.00017, 50.04995], [7.94405, 49.79855], [7.86542, 49.55604], [7.77829, 49.32159], [7.76854, 49.28794], [7.47611, 49.15152], [7.48273, 49.13705], [7.47105, 49.12832], [7.4851, 49.11871], [7.52086, 49.08367], [7.54267, 49.07458], [7.58639, 49.06956], [7.60861, 49.06197], [7.62566, 49.043], [7.63497, 49.03778], [7.64881, 49.03572], [7.68509, 49.0428], [7.72695, 49.03566], [7.77366, 49.04812], [7.85686, 49.03225], [7.9319, 49.03484], [8.09044, 48.97918], [8.18873, 48.96575], [8.2003, 48.95856], [8.17932, 48.9427], [8.14811, 48.90373], [8.10274, 48.82131], [8.09034, 48.80751], [8.04755, 48.79103], [8.03877, 48.79077], [8.02729, 48.78002], [8.02295, 48.76509], [8.01727, 48.76183], [7.97014, 48.75728], [7.96487, 48.74834], [7.96363, 48.72928], [7.95918, 48.72137], [7.89593, 48.67651], [7.88063, 48.66773], [7.85242, 48.65868], [7.81025, 48.61502], [7.80178, 48.58236], [7.80167, 48.54758], [7.81346, 48.52634], [7.81346, 48.51947], [7.77646, 48.49818], [7.77129, 48.48911], [7.76922, 48.47007], [7.75072, 48.44441], [7.73832, 48.40661], [7.73718, 48.39348], [7.74038, 48.38144], [7.75196, 48.35534], [7.75072, 48.34137], [7.73697, 48.32666], [7.70245, 48.31119], [7.68716, 48.25292], [7.67662, 48.2384], [7.61336, 48.17921], [7.60675, 48.16698], [7.60479, 48.15257], [7.58567, 48.12972], [7.57895, 48.11448], [7.57264, 48.09497], [7.57574, 48.05371], [7.61895, 48.00265], [7.62112, 47.97144], [7.61161, 47.9594], [7.58494, 47.94041], [7.57957, 47.92705], [7.57895, 47.90633], [7.55786, 47.87853], [7.56417, 47.85041], [7.562, 47.83923], [7.54288, 47.82943], [7.52862, 47.79703], [7.52593, 47.78316], [7.18892, 47.77508], [7.14569, 47.76615], [7.03521, 47.75427], [7.00761, 47.74647], [6.98177, 47.73259], [6.97316, 47.72428], [7.00978, 47.49925], [6.9733, 47.48909], [6.97578, 47.47796], [6.99097, 47.45222], [6.98343, 47.4438], [6.95232, 47.42884], [6.92607, 47.42486], [6.92452, 47.406], [6.89878, 47.39571], [6.884, 47.38259], [6.8716, 47.36696], [6.86664, 47.35417], [6.53724, 47.32964], [6.52497, 47.3243], [6.46769, 47.22735], [6.44388, 47.20796], [6.38832, 47.17855], [6.49111, 46.96339], [6.5987, 46.98654], [6.66541, 47.02129], [6.91314, 46.81906], [7.01157, 46.69062], [7.0419, 46.66381], [7.1053, 46.62237], [7.12643, 46.60079], [7.13613, 46.56433], [7.12543, 46.49067], [7.13378, 46.4682], [7.14911, 46.45019], [7.18427, 46.42623], [7.21245, 46.41377], [7.38997, 46.37258], [7.404, 46.32253], [7.41719, 46.30229], [7.44753, 46.28235], [7.47847, 46.27735], [7.56069, 46.30049], [7.64403, 46.30757], [7.66134, 46.31297], [7.68252, 46.33205], [7.69561, 46.37414], [7.71056, 46.38902], [7.73504, 46.40075], [7.76066, 46.40642], [7.8246, 46.40919], [8.08734, 46.2718], [8.10687, 46.28555], [8.12847, 46.29247], [8.17188, 46.29919], [8.19255, 46.30916], [8.24175, 46.35412], [8.27007, 46.36404], [8.29146, 46.37836], [8.29746, 46.38751], [8.29704, 46.39763], [8.2866, 46.40536], [8.29498, 46.41805], [8.31627, 46.43365], [8.34345, 46.44388], [8.39609, 46.45172], [8.31486, 46.67401], [8.25477, 46.71965], [8.23875, 46.73705], [8.22772, 46.75775], [8.22785, 46.78214], [8.23655, 46.79176], [8.26312, 46.80385], [8.36286, 46.82452], [8.37571, 46.83428], [8.39336, 46.86089], [8.50294, 46.94532], [8.53162, 46.96087], [8.56247, 46.9697], [8.60821, 46.97306], [8.70149, 46.96096], [8.99147, 46.87041], [9.14262, 46.84076], [9.32476, 46.82644], [9.37609, 46.81507], [9.4273, 46.79595], [9.45991, 46.76921], [9.47667, 46.72556], [9.43465, 46.49833], [9.43785, 46.49205], [9.44436, 46.37528], [9.4826, 46.35681], [9.50255, 46.32074], [9.51526, 46.3086], [9.53645, 46.29862], [9.5597, 46.29273], [9.66552, 46.29188], [9.67124, 46.06144], [9.68042, 46.04601], [9.78621, 45.91229], [9.83998, 45.82707], [9.85794, 45.80904], [9.88215, 45.79737], [9.90893, 45.79378], [9.99836, 45.80774], [10.13869, 45.82167], [10.28039, 45.82363], [10.35293, 45.8198], [10.661, 45.78287], [10.83198, 45.75129], [10.91429, 45.72934], [10.99278, 45.70162], [11.08411, 45.65554], [11.13325, 45.6177], [11.1924, 45.56125], [11.21572, 45.53054], [11.23052, 45.49327], [11.25067, 45.3478], [11.24297, 45.32599], [11.21395, 45.28553], [11.12454, 45.2278], [11.04163, 45.15617], [10.94509, 45.11221], [10.72571, 44.92954], [10.44189, 44.67293], [10.25374, 44.47406], [10.03921, 44.58716], [9.87749, 44.65813], [9.85219, 44.6612], [9.83459, 44.65848], [9.7989, 44.63719], [9.78326, 44.63334], [9.77142, 44.64285], [9.75457, 44.67273], [9.73584, 44.68846], [9.6474, 44.71659], [9.53103, 44.74494], [9.41215, 44.7662], [9.32619, 44.77128], [9.28363, 44.76359], [9.22559, 44.73643], [9.2249, 44.72371], [9.27272, 44.71168], [9.35255, 44.70246], [9.40058, 44.69196], [9.49039, 44.66121], [9.51611, 44.60341], [9.52439, 44.5686], [9.52642, 44.49768], [9.505, 44.41336], [9.45792, 44.33381], [9.39181, 44.26639], [9.37453, 44.2718], [9.36769, 44.29442], [9.26308, 44.33626], [9.23064, 44.3537], [9.21371, 44.33344], [9.21069, 44.30534], [9.16506, 44.31831], [9.14667, 44.32856], [9.14861, 44.34003], [9.13006, 44.36335], [9.10206, 44.37397], [9.00123, 44.38728], [8.92368, 44.41157], [8.86873, 44.40973], [8.84567, 44.41343], [8.827, 44.42845], [8.76238, 44.43212], [8.73715, 44.42878], [8.67855, 44.39469], [8.65512, 44.39468], [8.59376, 44.36275], [8.56479, 44.35716], [8.54029, 44.34004], [8.46607, 44.30427], [8.44451, 44.28388], [8.4497, 44.26435], [8.43538, 44.24043], [8.41188, 44.22704], [8.4065, 44.21503], [8.4082, 44.19351], [8.39427, 44.18226], [8.31349, 44.16047], [8.28468, 44.14826], [8.25652, 44.12836], [8.23316, 44.10358], [8.22998, 44.0725], [8.21631, 44.04524], [8.16912, 44.00666], [8.15268, 43.98322], [8.16797, 43.9565], [8.14471, 43.95258], [8.11524, 43.92769], [8.0892, 43.91987], [8.06771, 43.89668], [8.03142, 43.88752], [7.95972, 43.85286], [7.78582, 43.82197], [7.73631, 43.7982], [7.695, 43.79122], [7.57203, 43.79133], [7.54378, 43.78449], [7.50229, 43.79222], [7.47641, 43.78449], [7.4764, 43.76464], [7.45434, 43.75712], [7.40431, 43.71798], [7.36575, 43.72273], [7.35318, 43.71569], [7.3423, 43.70783], [7.33052, 43.68643], [7.30117, 43.68765], [7.28025, 43.69333], [7.25727, 43.69165], [7.22851, 43.6742], [7.2318, 43.66347], [7.2038, 43.64438], [7.19668, 43.65692], [7.17765, 43.66011], [7.15162, 43.65477], [7.13657, 43.64118], [7.12615, 43.60583], [7.1389, 43.55403], [7.12552, 43.54778], [7.11294, 43.56454], [7.08843, 43.56867], [7.03721, 43.53627], [7.03063, 43.54789], [6.9756, 43.54695], [6.9452, 43.52725], [6.94089, 43.51246], [6.95429, 43.50011], [6.92508, 43.47276], [6.92036, 43.44902], [6.89824, 43.438], [6.89402, 43.42764], [6.87107, 43.42609], [6.86296, 43.43936], [6.8561, 43.42873], [6.86012, 43.41588], [6.84667, 43.41259], [6.81884, 43.41607], [6.78306, 43.40865], [6.77297, 43.41845], [6.75709, 43.42269], [6.7465, 43.41791], [6.73115, 43.40785], [6.73281, 43.38208], [6.71778, 43.36689], [6.71782, 43.35061], [6.67457, 43.34638], [6.66108, 43.32215], [6.62462, 43.29592], [6.59724, 43.28401], [6.59089, 43.2689], [6.61167, 43.26429], [6.67236, 43.27619], [6.69336, 43.27296], [6.698, 43.26546], [6.68553, 43.24823], [6.66836, 43.23954], [6.6654, 43.22129], [6.67957, 43.20142], [6.64065, 43.18194], [6.60987, 43.17342], [6.59947, 43.175], [6.59327, 43.18773], [6.53991, 43.1822], [6.5267, 43.16057], [6.50568, 43.15098], [6.47916, 43.15606], [6.42202, 43.15234], [6.40168, 43.14694], [6.37854, 43.13608], [6.36608, 43.11864], [6.37535, 43.09085], [6.34226, 43.09077], [6.32569, 43.10419], [6.28037, 43.11867], [6.25347, 43.12087], [6.2197, 43.11655], [6.17866, 43.10286], [6.16293, 43.0926], [6.15317, 43.07197], [6.15289, 43.05602], [6.11243, 43.09133], [6.06206, 43.15493], [6.00259, 43.24774], [5.9768, 43.31576], [5.96961, 43.38613], [5.98138, 43.45616], [5.99498, 43.49157], [6.0162, 43.49046], [6.02453, 43.49865], [6.00995, 43.59799], [5.98986, 43.62338], [5.96403, 43.63578], [5.92279, 43.63793], [5.76706, 43.61454], [5.70435, 43.61483], [5.67337, 43.6356], [5.62465, 43.69326], [5.60292, 43.70403], [5.57771, 43.70697], [5.55991, 43.70341], [5.54012, 43.69171], [5.48523, 43.62248], [5.4685, 43.61417], [5.43321, 43.61401], [5.37161, 43.62943], [5.31625, 43.65053], [5.21874, 43.71803], [5.17693, 43.737], [5.10128, 43.74495], [4.93257, 43.74104], [4.86845, 43.74495], [4.82462, 43.75573], [4.7357, 43.82859], [4.7171, 43.83512], [4.68992, 43.83415], [4.68416, 43.82297], [4.72346, 43.7706], [4.75333, 43.7039], [4.76479, 43.63382], [4.76334, 43.59807], [4.7429, 43.5214], [4.72584, 43.55679], [4.71192, 43.57152], [4.69459, 43.57909], [4.69459, 43.5729], [4.72877, 43.5279], [4.72875, 43.49187], [4.71092, 43.46292], [4.62303, 43.35475], [4.59234, 43.3599], [4.5663, 43.3711], [4.56556, 43.38795], [4.5857, 43.40424], [4.58804, 43.41689], [4.57959, 43.43007], [4.55521, 43.44327], [4.51303, 43.4558], [4.40942, 43.44775], [4.1819, 43.46373], [4.13283, 43.48705], [4.11722, 43.51048], [4.13282, 43.53278], [4.10532, 43.55187], [4.04745, 43.55614], [3.9909, 43.55085], [3.9393, 43.53254], [3.73991, 43.41284], [3.62216, 43.37491], [3.58969, 43.35488], [3.51335, 43.28108], [3.49236, 43.27433], [3.4524, 43.28876], [3.38543, 43.28392], [3.31772, 43.26309], [3.24431, 43.21943], [3.22095, 43.19522], [3.17872, 43.16523], [3.15446, 43.13529], [3.11402, 43.10631], [3.0704, 43.02692], [3.03899, 42.94278], [3.04184, 42.93281], [3.05468, 42.9271], [3.05607, 42.90731], [3.04046, 42.79019], [3.04329, 42.72459], [3.03761, 42.68321], [3.05185, 42.55488], [3.06609, 42.54206], [3.13737, 42.52492], [3.14591, 42.51496], [3.14308, 42.49213], [3.17586, 42.45648], [3.18151, 42.43532], [3.17018, 42.39659], [3.17449, 42.3638], [3.18735, 42.34951], [3.20419, 42.33959], [3.24984, 42.3432], [3.26303, 42.32921], [3.28061, 42.33685], [3.29371, 42.33498], [3.3177, 42.32298], [3.29404, 42.28803], [3.28702, 42.26293], [3.26303, 42.23987], [3.24716, 42.24571], [3.21014, 42.23974], [3.17873, 42.24971], [3.17018, 42.25967], [3.15162, 42.25682], [3.1303, 42.23973], [3.11883, 42.21833], [3.11623, 42.15972], [3.00548, 42.1503], [2.91037, 42.15773], [2.86518, 42.16511], [2.66219, 42.33902], [2.63543, 42.33788], [2.56742, 42.35264], [2.54809, 42.35225], [2.54034, 42.34698], [2.53197, 42.33078], [2.52525, 42.32589], [2.51481, 42.32566], [2.46489, 42.34062], [2.44557, 42.35196], [2.42986, 42.36754], [2.42252, 42.38369], [2.37549, 42.38933], [2.31731, 42.40961], [2.27741, 42.42863], [2.24029, 42.4248], [2.15588, 42.59027], [2.14191, 42.58827], [1.85789, 42.49921], [1.81514, 42.68879], [1.76358, 42.76726], [1.74465, 42.7807], [1.70913, 42.78632], [1.52981, 42.75667], [1.51046, 42.78439], [1.34258, 42.70866], [1.31912, 42.71336], [1.19593, 42.71365], [1.16254, 42.70569], [1.15149, 42.70672], [1.13433, 42.71597], [1.10673, 42.75961], [1.08906, 42.77132], [1.06818, 42.77612], [0.98292, 42.78036], [0.95026, 42.79612], [0.92111, 42.78437], [0.91036, 42.78767], [0.88576, 42.80424], [0.8561, 42.81276], [0.8129, 42.83162], [0.77631, 42.83245], [0.72433, 42.84529], [0.67937, 42.84511], [0.65632, 42.83842], [0.65157, 42.82405], [0.65374, 42.80269], [0.63968, 42.77468], [0.65074, 42.76339], [0.6433, 42.75907], [0.63348, 42.74478], [0.64764, 42.74104], [0.65963, 42.7299], [0.66645, 42.71476], [0.66542, 42.69866], [0.65673, 42.68799], [0.64361, 42.68448], [0.60816, 42.68799], [0.48351, 42.6853], [0.46693, 42.69044], [0.40928, 42.68225], [0.38928, 42.68515], [0.3844, 42.68858], [0.38182, 42.70011], [0.35417, 42.7175], [0.33603, 42.71269], [0.31831, 42.69954], [0.29024, 42.67029], [0.27539, 42.66869], [0.25981, 42.68238], [0.23836, 42.71037], [0.22239, 42.7162], [0.16917, 42.72646], [0.15294, 42.7246], [0.13418, 42.71522], [0.07284, 42.70848], [-0.00431, 42.68752], [-0.03893, 42.68515], [-0.07841, 42.69667], [-0.09575, 42.71068], [-0.11903, 42.71685], [-0.12311, 42.73036], [-0.14572, 42.74589], [-0.15779, 42.7607], [-0.16363, 42.77798], [-0.16141, 42.79535], [-0.20835, 42.78387], [-0.23515, 42.78623], [-0.24703, 42.80483], [-0.30742, 42.83183], [-0.32279, 42.8425], [-0.33517, 42.82496], [-0.343, 42.82274], [-0.35168, 42.82925], [-0.42392, 42.79067], [-0.45446, 42.78891], [-0.50841, 42.80749], [-0.53389, 42.80801], [-0.53565, 42.78421], [-0.56903, 42.77264], [-0.57869, 42.77734], [-0.57714, 42.78979], [-0.58293, 42.79584], [-0.61017, 42.79909], [-0.60949, 42.81145], [-0.6483, 42.84979], [-0.70039, 42.87643], [-0.73011, 42.87751], [-0.74029, 42.8848], [-0.74587, 42.89392], [-0.74091, 42.9109], [-0.75966, 42.9465], [-0.78643, 42.95327], [-0.86353, 42.94307], [-0.94322, 42.9479], [-0.98146, 42.95704], [-1.01629, 42.97624], [-1.02848, 42.9867], [-1.0797, 42.9934], [-1.11241, 43.00825], [-1.14993, 43.00572], [-1.18253, 43.02528], [-1.2169, 43.03926], [-1.27488, 43.04683], [-1.29369, 43.0552], [-1.31059, 43.06949], [-1.31508, 43.08288], [-1.30697, 43.09598], [-1.28604, 43.10918], [-1.30862, 43.11357], [-1.33105, 43.10734], [-1.34826, 43.09308], [-1.35518, 43.07303], [-1.35761, 43.04683], [-1.36614, 43.03332], [-1.38314, 43.02921], [-1.43502, 43.03572], [-1.45714, 43.04507], [-1.47528, 43.06014], [-1.48784, 43.08182], [-1.42577, 43.13528], [-1.41053, 43.1669], [-1.39968, 43.20674], [-1.4035, 43.24333], [-1.43223, 43.26501], [-1.20484, 43.43622], [-1.18495, 43.50199], [-1.17363, 43.61855], [-1.11987, 43.96343], [-1.1291, 43.96975], [-1.24008, 43.9788], [-1.34943, 44.00683], [-1.25414, 44.44245], [-1.2473, 44.50454], [-1.25722, 44.55605], [-1.23078, 44.58356], [-1.20627, 44.64789], [-1.18651, 44.66546], [-1.16145, 44.66615], [-1.10021, 44.65534], [-1.06501, 44.65913], [-1.04475, 44.66942], [-1.04442, 44.68464], [-1.06914, 44.70319], [-1.05549, 44.70319], [-1.0653, 44.71748], [-1.14086, 44.76813], [-1.17223, 44.77827], [-1.23363, 44.70685], [-1.26035, 44.62748], [-1.19948, 45.12062], [-1.15787, 45.27912], [-1.13994, 45.49006], [-1.08526, 45.56903], [-1.06916, 45.5733], [-1.05859, 45.56964], [-1.06233, 45.53242], [-1.03995, 45.50727], [-0.97297, 45.47053], [-0.91528, 45.45041], [-0.79447, 45.35565], [-0.7662, 45.32607], [-0.73863, 45.23848], [-0.71597, 45.13451], [-0.6822, 45.07648], [-0.64818, 45.04491], [-0.60985, 45.01846], [-0.56896, 44.99799], [-0.55919, 44.97614], [-0.55651, 44.91852], [-0.54817, 44.90229], [-0.53466, 44.89496], [-0.54845, 44.94953], [-0.53897, 44.97651], [-0.55036, 44.9982], [-0.59616, 45.02463], [-0.53942, 45.01952], [-0.49376, 44.99799], [-0.51895, 45.02945], [-0.60238, 45.05357], [-0.63776, 45.07307], [-0.65587, 45.09892], [-0.66875, 45.13111], [-0.70665, 45.32241], [-0.71972, 45.36107], [-0.75304, 45.42406], [-0.79548, 45.47712], [-0.84179, 45.51455], [-0.9835, 45.58699], [-0.99087, 45.61005], [-1.03025, 45.62288], [-1.08381, 45.66039], [-1.149, 45.67876], [-1.1942, 45.71019], [-1.22936, 45.70479], [-1.24729, 45.70991], [-1.23028, 45.79242], [-1.16381, 45.80669], [-1.14427, 45.8061], [-1.08056, 45.7534], [-1.05724, 45.74022], [-0.98717, 45.71735], [-1.00963, 45.73518], [-1.09948, 45.78604], [-1.12536, 45.80768], [-1.13659, 45.84325], [-1.1517, 45.86815], [-1.11229, 45.89576], [-1.09703, 45.90228], [-1.07335, 45.90436], [-1.07042, 45.92634], [-1.08973, 45.95075], [-1.06916, 45.96434], [-1.08555, 45.972], [-1.0964, 45.9852], [-1.11072, 46.01835], [-1.08975, 46.0082], [-1.07299, 46.00747], [-1.05972, 46.01577], [-1.04869, 46.0388], [-1.06517, 46.05158], [-1.0842, 46.05655], [-1.09703, 46.10155], [-1.129, 46.1158], [-1.11701, 46.12824], [-1.15207, 46.14387], [-1.15172, 46.1562], [-1.20018, 46.15914], [-1.20969, 46.16617], [-1.21079, 46.17454], [-1.18517, 46.19717], [-1.19052, 46.21629], [-1.17958, 46.22947], [-1.11075, 46.25922], [-1.10265, 46.27196], [-1.11075, 46.30268], [-1.13248, 46.32412], [-1.17724, 46.32616], [-1.21434, 46.3107], [-1.21322, 46.27913], [-1.24009, 46.28426], [-1.27741, 46.31952], [-1.30345, 46.32389], [-1.37023, 46.35419], [-1.42333, 46.34248], [-1.44871, 46.34342], [-1.46548, 46.38996], [-1.48143, 46.40819], [-1.50446, 46.41934], [-1.59878, 46.42504], [-1.62562, 46.43114], [-1.61718, 46.44355], [-1.63345, 46.45429], [-1.68675, 46.46089], [-1.72029, 46.48127], [-1.76113, 46.49202], [-1.78917, 46.53295], [-1.78173, 46.49543], [-1.78601, 46.49097], [-1.79539, 46.49454], [-1.80478, 46.50361], [-1.82699, 46.57676], [-1.82266, 46.59439], [-1.83868, 46.59907], [-1.85741, 46.63532], [-1.89975, 46.66625], [-1.9099, 46.6918], [-1.92317, 46.69916], [-1.95644, 46.7043], [-1.99462, 46.75202], [-2.05028, 46.79206], [-2.11875, 46.81998], [-2.13005, 46.85489], [-2.12866, 46.89364], [-2.12198, 46.90371], [-2.09634, 46.91649], [-2.10215, 46.93065], [-2.04922, 46.95746], [-2.00843, 47.02615], [-1.99071, 47.03539], [-1.99258, 47.05231], [-2.00377, 47.07001], [-2.03002, 47.09211], [-2.09016, 47.11518], [-2.20547, 47.12911], [-2.24109, 47.14248], [-2.20539, 47.16119], [-2.16519, 47.16787], [-2.15868, 47.2045], [-2.17208, 47.23548], [-2.16038, 47.27135], [-2.15167, 47.27968], [-2.12767, 47.2868], [-2.03563, 47.29328], [-2.01456, 47.3001], [-1.99913, 47.28856], [-1.94787, 47.27936], [-1.93248, 47.27969], [-1.93934, 47.28644], [-1.91706, 47.28417], [-1.89844, 47.27343], [-1.91885, 47.27342], [-1.91885, 47.26602], [-1.87784, 47.24551], [-1.83625, 47.23994], [-1.80394, 47.21898], [-1.78099, 47.21198], [-1.72704, 47.21076], [-1.74722, 47.21992], [-1.78824, 47.22557], [-1.83593, 47.25975], [-1.90563, 47.29393], [-1.94956, 47.30018], [-1.97216, 47.31216], [-2.01012, 47.31973], [-2.1481, 47.31322], [-2.17955, 47.30012], [-2.2063, 47.27343], [-2.23607, 47.26748], [-2.25944, 47.25162], [-2.27839, 47.24642], [-2.31606, 47.25166], [-2.35534, 47.2801], [-2.37141, 47.28644], [-2.4049, 47.28644], [-2.41283, 47.28172], [-2.41919, 47.26603], [-2.44839, 47.2666], [-2.54197, 47.30012], [-2.54197, 47.30694], [-2.51904, 47.30462], [-2.47606, 47.29068], [-2.45336, 47.29328], [-2.43619, 47.30703], [-2.44538, 47.32038], [-2.48062, 47.34789], [-2.49425, 47.34174], [-2.48893, 47.33043], [-2.49426, 47.32064], [-2.50168, 47.32063], [-2.50333, 47.3496], [-2.5148, 47.36494], [-2.55636, 47.38325], [-2.47679, 47.41566], [-2.43905, 47.40997], [-2.4464, 47.40253], [-2.43904, 47.39631], [-2.39501, 47.41698], [-2.39184, 47.42365], [-2.44813, 47.43061], [-2.43904, 47.44477], [-2.4889, 47.45918], [-2.48062, 47.47822], [-2.49472, 47.4912], [-2.48363, 47.49794], [-2.36392, 47.50617], [-2.38012, 47.50922], [-2.42536, 47.50617], [-2.51749, 47.52839], [-2.56323, 47.51986], [-2.6007, 47.51984], [-2.62169, 47.51343], [-2.63197, 47.51985], [-2.59935, 47.52912], [-2.57681, 47.55394], [-2.59227, 47.54365], [-2.63825, 47.54027], [-2.62393, 47.53718], [-2.61779, 47.52668], [-2.64332, 47.52648], [-2.66552, 47.53351], [-2.66712, 47.5096], [-2.68074, 47.50423], [-2.71402, 47.5124], [-2.78317, 47.49939], [-2.81684, 47.49919], [-2.83018, 47.50362], [-2.86897, 47.54218], [-2.89292, 47.54768], [-2.89208, 47.55394], [-2.90922, 47.55842], [-2.89256, 47.56658], [-2.86532, 47.56662], [-2.85058, 47.54654], [-2.83243, 47.55401], [-2.8164, 47.54654], [-2.80955, 47.56759], [-2.79402, 47.55512], [-2.76867, 47.54955], [-2.74144, 47.55134], [-2.7202, 47.56078], [-2.72763, 47.56761], [-2.68863, 47.6044], [-2.68399, 47.62299], [-2.70653, 47.64273], [-2.69563, 47.62336], [-2.71402, 47.61603], [-2.69978, 47.6092], [-2.70861, 47.60228], [-2.7202, 47.60176], [-2.77535, 47.62909], [-2.73449, 47.62226], [-2.74633, 47.63386], [-2.78913, 47.64273], [-2.77538, 47.63654], [-2.79606, 47.62988], [-2.84773, 47.62617], [-2.86678, 47.60717], [-2.91941, 47.59554], [-2.91267, 47.6092], [-2.93993, 47.60175], [-2.94481, 47.62409], [-2.9331, 47.63654], [-2.9475, 47.63691], [-2.958, 47.64216], [-2.96719, 47.6638], [-2.97468, 47.6638], [-2.96361, 47.60261], [-2.93311, 47.57445], [-2.93993, 47.5608], [-2.95295, 47.57445], [-2.96129, 47.57056], [-2.9945, 47.59553], [-2.9886, 47.58226], [-2.99422, 47.57609], [-3.00341, 47.5787], [-3.01179, 47.60716], [-3.01822, 47.60566], [-3.02172, 47.59455], [-3.0157, 47.58125], [-3.03549, 47.58325], [-3.04239, 47.58808], [-3.07418, 47.57646], [-3.08975, 47.57552], [-3.10375, 47.58124], [-3.09073, 47.58808], [-3.11205, 47.59919], [-3.12328, 47.59878], [-3.1317, 47.58808], [-3.11803, 47.58124], [-3.1289, 47.54759], [-3.12328, 47.51899], [-3.10676, 47.4958], [-3.08458, 47.47823], [-3.11913, 47.48261], [-3.13169, 47.47823], [-3.14536, 47.5161], [-3.1317, 47.55744], [-3.14118, 47.59805], [-3.16649, 47.62226], [-3.19667, 47.6335], [-3.20057, 47.6396], [-3.18635, 47.68061], [-3.1112, 47.70417], [-3.11803, 47.73212], [-3.13915, 47.72469], [-3.13915, 47.75259], [-3.14538, 47.75259], [-3.15318, 47.74202], [-3.17736, 47.74852], [-3.19319, 47.7464], [-3.16967, 47.73542], [-3.15911, 47.71101], [-3.1665, 47.70419], [-3.17838, 47.71003], [-3.19328, 47.69993], [-3.20739, 47.69733], [-3.19319, 47.68374], [-3.20714, 47.67915], [-3.21508, 47.66059], [-3.22419, 47.65641], [-3.26207, 47.68374], [-3.33153, 47.69672], [-3.35823, 47.69734], [-3.3402, 47.7023], [-3.32242, 47.701], [-3.28262, 47.69115], [-3.28262, 47.69733], [-3.29845, 47.70384], [-3.35827, 47.71104], [-3.35827, 47.71845], [-3.34512, 47.72126], [-3.34057, 47.73949], [-3.31729, 47.73896], [-3.2954, 47.77302], [-3.28262, 47.77993], [-3.28262, 47.78734], [-3.33178, 47.75251], [-3.38317, 47.73705], [-3.36925, 47.7298], [-3.36449, 47.71845], [-3.44644, 47.70459], [-3.46067, 47.7076], [-3.49464, 47.73876], [-3.52831, 47.77993], [-3.53964, 47.77375], [-3.62515, 47.77994], [-3.64904, 47.79361], [-3.68692, 47.79231], [-3.70615, 47.79695], [-3.71459, 47.81061], [-3.72321, 47.81338], [-3.77538, 47.79362], [-3.78991, 47.80321], [-3.8517, 47.80102], [-3.87222, 47.82832], [-3.88659, 47.83769], [-3.88585, 47.85505], [-3.91318, 47.86246], [-3.91633, 47.87336], [-3.93513, 47.88788], [-3.96182, 47.89997], [-3.98827, 47.90347], [-3.97925, 47.883], [-3.9865, 47.86791], [-4.00891, 47.85128], [-4.0292, 47.85505], [-4.01122, 47.85594], [-4.00194, 47.86929], [-4.03156, 47.86372], [-4.03669, 47.85506], [-4.06493, 47.8708], [-4.10656, 47.88011], [-4.12914, 47.90762], [-4.13219, 47.9239], [-4.14273, 47.91201], [-4.13683, 47.89692], [-4.1112, 47.87547], [-4.11119, 47.86932], [-4.13362, 47.8662], [-4.15274, 47.85505], [-4.17162, 47.87702], [-4.18562, 47.87442], [-4.18847, 47.86213], [-4.1739, 47.85505], [-4.18004, 47.84199], [-4.15274, 47.84177], [-4.15276, 47.83446], [-4.18522, 47.81339], [-4.22517, 47.80245], [-4.3718, 47.80721], [-4.3718, 47.83445], [-4.34765, 47.83832], [-4.34732, 47.86294], [-4.37198, 47.91584], [-4.43464, 47.97565], [-4.53327, 48.02631], [-4.57201, 48.00594], [-4.60196, 48.02558], [-4.65298, 48.02633], [-4.72811, 48.0406], [-4.70079, 48.07476], [-4.6837, 48.06733], [-4.36193, 48.1157], [-4.30476, 48.10407], [-4.28991, 48.10822], [-4.28539, 48.11538], [-4.27571, 48.14362], [-4.29443, 48.16727], [-4.30236, 48.19636], [-4.31583, 48.20551], [-4.36611, 48.21516], [-4.37926, 48.23237], [-4.40437, 48.22615], [-4.45763, 48.24897], [-4.48546, 48.24262], [-4.53166, 48.1831], [-4.55746, 48.17721], [-4.54377, 48.20506], [-4.56361, 48.23237], [-4.55865, 48.2442], [-4.54719, 48.25259], [-4.55407, 48.26276], [-4.62631, 48.26656], [-4.62632, 48.28705], [-4.61538, 48.29107], [-4.58788, 48.28705], [-4.57519, 48.29002], [-4.57715, 48.30772], [-4.55947, 48.33869], [-4.54672, 48.34682], [-4.53016, 48.34161], [-4.5432, 48.30467], [-4.51553, 48.29584], [-4.42651, 48.30002], [-4.38899, 48.28706], [-4.3297, 48.29701], [-4.26262, 48.30003], [-4.27522, 48.29401], [-4.28991, 48.29385], [-4.26936, 48.2884], [-4.18749, 48.30004], [-4.18749, 48.30752], [-4.21882, 48.30606], [-4.23055, 48.30991], [-4.23473, 48.32172], [-4.24397, 48.31391], [-4.25772, 48.31135], [-4.27016, 48.31469], [-4.27571, 48.32486], [-4.32467, 48.32173], [-4.2694, 48.36274], [-4.28629, 48.36254], [-4.32469, 48.34847], [-4.3247, 48.35529], [-4.31729, 48.35529], [-4.31729, 48.36274], [-4.3247, 48.36274], [-4.3377, 48.34847], [-4.35261, 48.35273], [-4.38419, 48.33813], [-4.4066, 48.33541], [-4.39916, 48.34162], [-4.40661, 48.34846], [-4.42651, 48.33887], [-4.45371, 48.33541], [-4.45371, 48.34162], [-4.39634, 48.3879], [-4.28991, 48.43159], [-4.35896, 48.41112], [-4.4265, 48.40371], [-4.52063, 48.36833], [-4.61859, 48.34848], [-4.69054, 48.36274], [-4.69568, 48.34496], [-4.7045, 48.34163], [-4.76807, 48.34533], [-4.78334, 48.3764], [-4.76476, 48.37763], [-4.76635, 48.39045], [-4.78333, 48.41739], [-4.78488, 48.43592], [-4.77984, 48.4549], [-4.76805, 48.46865], [-4.74926, 48.4726], [-4.74926, 48.47883], [-4.77463, 48.49128], [-4.76657, 48.5144]]], [[[-2.02454, 49.17134], [-2.0967, 49.18358], [-2.13793, 49.20563], [-2.15294, 49.19994], [-2.1687, 49.1783], [-2.2001, 49.19196], [-2.23361, 49.18453], [-2.22647, 49.206], [-2.242, 49.2482], [-2.2411, 49.26023], [-2.22936, 49.26299], [-2.19628, 49.2534], [-2.17235, 49.25625], [-2.15168, 49.26702], [-2.11067, 49.2534], [-2.10356, 49.25828], [-2.08268, 49.26023], [-2.06786, 49.25068], [-2.02068, 49.23525], [-2.02196, 49.22549], [-2.00831, 49.21247], [-2.02098, 49.20075], [-2.02454, 49.17134]]], [[[-2.37546, 49.43545], [-2.36376, 49.44683], [-2.35442, 49.4278], [-2.37353, 49.41158], [-2.37806, 49.41275], [-2.37546, 49.43545]]], [[[-2.66934, 49.4309], [-2.67334, 49.43371], [-2.66289, 49.4438], [-2.65185, 49.44522], [-2.65655, 49.45941], [-2.65025, 49.46368], [-2.62462, 49.46572], [-2.58022, 49.49359], [-2.51822, 49.51552], [-2.50172, 49.50666], [-2.52212, 49.47997], [-2.5341, 49.43623], [-2.55179, 49.42682], [-2.57311, 49.43089], [-2.66934, 49.4309]]], [[[-2.44784, 49.48394], [-2.44524, 49.4746], [-2.45335, 49.46218], [-2.45373, 49.48167], [-2.44784, 49.48394]]], [[[-2.98921, 49.52585], [-2.93441, 49.48907], [-2.99855, 49.42138], [-3.02036, 49.40844], [-3.04932, 49.40466], [-3.01898, 49.43456], [-3.0116, 49.45085], [-3.01009, 49.46796], [-3.01726, 49.48947], [-3.02893, 49.50286], [-3.05196, 49.51744], [-3.07368, 49.52628], [-3.0469, 49.54373], [-3.03351, 49.54494], [-3.019, 49.54146], [-2.98921, 49.52585]]], [[[-2.21686, 49.70304], [-2.22621, 49.70783], [-2.21848, 49.71869], [-2.17832, 49.73094], [-2.17033, 49.72874], [-2.17034, 49.72322], [-2.18791, 49.71065], [-2.21686, 49.70304]]], [[[0.36937, 51.80024], [0.46353, 51.84571], [0.62746, 51.89747], [0.86376, 51.95947], [1.16391, 52.01814], [1.21437, 51.99144], [1.27076, 51.98151], [1.27101, 51.95645], [1.25074, 51.95962], [1.20574, 51.95344], [1.16529, 51.96703], [1.0691, 51.95344], [1.09547, 51.94575], [1.26205, 51.93915], [1.28198, 51.94659], [1.27848, 51.92793], [1.19956, 51.87767], [1.22788, 51.86738], [1.26442, 51.864], [1.28662, 51.88164], [1.28824, 51.86058], [1.27636, 51.8448], [1.21902, 51.81174], [1.16781, 51.79024], [1.13542, 51.78173], [1.06544, 51.77531], [1.04665, 51.77705], [0.97983, 51.84357], [0.97706, 51.82461], [0.96233, 51.81396], [0.92514, 51.80256], [0.88697, 51.78213], [0.8737, 51.74731], [0.8357, 51.73371], [0.79176, 51.74116], [0.7671, 51.73945], [0.69858, 51.72004], [0.74927, 51.70847], [0.76075, 51.69269], [0.78908, 51.71014], [0.85304, 51.7189], [0.88356, 51.72687], [0.91237, 51.74151], [0.93027, 51.74344], [0.94555, 51.7337], [0.93816, 51.70637], [0.95181, 51.67841], [0.938, 51.6645], [0.93471, 51.63587], [0.91147, 51.62385], [0.93849, 51.62499], [0.95181, 51.61701], [0.92422, 51.58817], [0.87303, 51.55937], [0.81625, 51.53718], [0.77157, 51.52833], [0.69207, 51.53632], [0.65056, 51.53579], [0.62337, 51.52205], [0.58229, 51.51655], [0.56886, 51.50838], [0.55274, 51.51797], [0.45607, 51.50556], [0.44166, 51.47704], [0.42848, 51.46711], [0.38453, 51.45311], [0.44842, 51.45995], [0.46954, 51.48039], [0.53484, 51.49167], [0.69483, 51.47703], [0.70964, 51.47035], [0.72314, 51.44671], [0.71314, 51.44124], [0.69239, 51.43953], [0.64096, 51.44416], [0.60938, 51.42513], [0.57276, 51.41958], [0.55453, 51.41218], [0.57651, 51.39362], [0.67188, 51.39105], [0.7129, 51.38422], [0.70039, 51.40982], [0.70535, 51.41949], [0.72641, 51.41901], [0.73927, 51.38793], [0.76442, 51.36441], [0.97722, 51.34919], [1.10093, 51.37322], [1.42383, 51.39206], [1.44823, 51.38287], [1.43536, 51.34349], [1.41862, 51.32967], [1.38299, 51.32978], [1.37762, 51.32624], [1.38063, 51.30476], [1.40428, 51.26138], [1.41308, 51.22175], [1.40478, 51.18354], [1.38421, 51.1515], [1.35718, 51.13102], [1.29038, 51.11652], [1.26294, 51.10327], [1.21811, 51.10098], [1.19173, 51.0825], [1.17221, 51.07739], [1.08717, 51.07298], [1.0276, 51.04165], [0.96648, 50.98273], [0.97981, 50.91816], [0.94516, 50.90938], [0.80226, 50.9392], [0.76246, 50.93089], [0.66439, 50.87031], [0.62455, 50.85881], [0.40748, 50.82933], [0.36524, 50.819], [0.34228, 50.79516], [0.30812, 50.78095], [0.271, 50.74739], [0.2336, 50.74704], [0.16831, 50.75983], [0.12209, 50.76082], [0.09555, 50.77505], [0.03452, 50.78096], [-0.17317, 50.82901], [-0.20181, 50.83078], [-0.12383, 50.86339], [0.00153, 50.98406], [0.06081, 51.02484], [0.08765, 51.11085], [0.14001, 51.1908], [0.13618, 51.24834], [0.15703, 51.33503], [0.14127, 51.41457], [0.14639, 51.4787], [0.21542, 51.65258], [0.2358, 51.68478], [0.2903, 51.74407], [0.36937, 51.80024]]], [[[0.93245, 51.39769], [0.94213, 51.383], [0.93636, 51.37105], [0.91147, 51.36441], [0.79477, 51.37055], [0.77508, 51.37531], [0.7339, 51.41218], [0.74684, 51.43964], [0.76728, 51.44787], [0.90098, 51.41734], [0.93245, 51.39769]]], [[[3.68671, 51.6927], [3.68948, 51.72504], [3.72585, 51.73972], [3.81422, 51.74822], [3.84376, 51.74282], [3.96175, 51.73809], [4.03663, 51.68586], [4.07837, 51.67861], [4.09734, 51.67023], [4.09938, 51.65412], [4.08907, 51.64406], [4.05516, 51.63271], [3.9776, 51.62329], [3.92311, 51.63248], [3.90156, 51.642], [3.88559, 51.66836], [3.83059, 51.68587], [3.80925, 51.69953], [3.79591, 51.70014], [3.76538, 51.67842], [3.72055, 51.67683], [3.70005, 51.68062], [3.68671, 51.6927]]], [[[1.42825, 52.07754], [1.61277, 52.15616], [1.58227, 52.0815], [1.50367, 52.06098], [1.48682, 52.04903], [1.47202, 52.05622], [1.46366, 52.03496], [1.3435, 51.94287], [1.33229, 51.9401], [1.26442, 51.99437], [1.23487, 52.00031], [1.18912, 52.02315], [1.42825, 52.07754]]], [[[4.89326, 53.07633], [4.86545, 53.05039], [4.81813, 53.02676], [4.79565, 53.00032], [4.76197, 52.99434], [4.72683, 53.00309], [4.70771, 53.02847], [4.7251, 53.07143], [4.75849, 53.10846], [4.80567, 53.133], [4.85435, 53.18772], [4.88574, 53.1867], [4.89209, 53.17573], [4.88575, 53.1662], [4.91015, 53.13459], [4.9099, 53.11885], [4.89259, 53.11103], [4.89259, 53.1048], [4.91298, 53.10459], [4.89326, 53.07633]]], [[[5.10481, 53.30281], [5.07814, 53.3028], [5.03647, 53.29181], [4.91016, 53.21248], [4.87894, 53.2209], [4.92124, 53.25372], [4.9862, 53.28982], [5.05446, 53.31378], [5.10481, 53.30963], [5.10481, 53.30281]]], [[[5.17987, 53.35311], [5.16768, 53.36823], [5.1789, 53.38544], [5.22953, 53.3961], [5.25018, 53.40643], [5.40724, 53.42255], [5.43703, 53.43646], [5.58526, 53.45358], [5.56166, 53.43424], [5.5337, 53.42838], [5.47543, 53.42695], [5.48168, 53.41267], [5.46859, 53.40853], [5.42701, 53.40644], [5.20834, 53.3527], [5.17987, 53.35311]]], [[[4.87837, 53.84573], [4.83758, 53.84038], [4.79282, 53.84344], [4.7541, 53.85528], [4.73317, 53.87076], [4.73171, 53.88628], [4.74726, 53.90175], [4.77092, 53.91358], [4.80144, 53.92294], [4.83826, 53.9293], [4.87204, 53.93037], [4.90043, 53.92567], [4.93457, 53.90883], [4.94509, 53.89054], [4.93638, 53.87269], [4.91272, 53.85713], [4.87837, 53.84573]]], [[[6.21527, 43.01476], [6.23339, 43.01558], [6.24188, 43.02564], [6.25099, 43.01729], [6.25219, 43.00264], [6.24458, 43.00011], [6.21527, 43.01476]]], [[[6.50155, 43.05588], [6.50659, 43.05162], [6.50578, 43.04618], [6.49016, 43.0443], [6.4817, 43.03832], [6.46647, 43.01936], [6.43297, 43.00968], [6.43467, 43.0272], [6.45533, 43.03278], [6.47267, 43.05068], [6.50155, 43.05588]]], [[[7.07281, 43.5159], [7.03669, 43.51647], [7.03241, 43.52249], [7.04896, 43.52409], [7.07281, 43.5159]]], [[[5.91382, 53.47385], [5.95456, 53.46109], [5.85564, 53.44743], [5.75278, 53.44741], [5.67896, 53.43013], [5.65359, 53.43375], [5.6361, 53.44868], [5.64196, 53.46336], [5.65857, 53.47172], [5.674, 53.46792], [5.91382, 53.47385]]], [[[6.33871, 53.50864], [6.3387, 53.50203], [6.15317, 53.46882], [6.13331, 53.45362], [6.12715, 53.46308], [6.13331, 53.46792], [6.12283, 53.48163], [6.14797, 53.49485], [6.1851, 53.50479], [6.31043, 53.51413], [6.33871, 53.50864]]], [[[6.57051, 53.53812], [6.58359, 53.54807], [6.60602, 53.54775], [6.5857, 53.53336], [6.57051, 53.53812]]], [[[6.51004, 53.54361], [6.49609, 53.53627], [6.46032, 53.5435], [6.44306, 53.55], [6.44119, 53.55662], [6.45509, 53.55808], [6.51004, 53.54361]]], [[[6.74733, 53.61834], [6.78467, 53.62005], [6.79808, 53.60445], [6.72242, 53.59077], [6.72242, 53.58462], [6.74218, 53.57835], [6.75649, 53.56291], [6.72608, 53.57714], [6.69508, 53.57031], [6.67711, 53.57564], [6.66336, 53.58735], [6.65954, 53.5991], [6.74733, 53.61834]]], [[[6.92178, 53.64195], [6.89372, 53.62321], [6.86599, 53.63378], [6.86852, 53.64787], [6.89519, 53.65143], [6.92178, 53.64195]]], [[[6.91082, 53.68365], [7.04705, 53.69415], [7.08539, 53.687], [6.87387, 53.67277], [6.91082, 53.68365]]], [[[7.13319, 53.70808], [7.17897, 53.72406], [7.23025, 53.72917], [7.34619, 53.72796], [7.34669, 53.72323], [7.29574, 53.71101], [7.17397, 53.70143], [7.13319, 53.70808]]], [[[8.15089, 53.71431], [8.13071, 53.71845], [8.12014, 53.71432], [8.13267, 53.73403], [8.15236, 53.73915], [8.17481, 53.737], [8.19593, 53.72798], [8.17172, 53.72557], [8.15089, 53.71431]]], [[[7.38307, 53.73484], [7.42289, 53.73407], [7.43554, 53.72797], [7.43237, 53.72407], [7.42124, 53.72115], [7.3666, 53.72798], [7.38307, 53.73484]]], [[[7.60661, 53.76259], [7.6267, 53.75527], [7.62719, 53.75093], [7.5477, 53.75043], [7.51393, 53.74551], [7.51123, 53.72798], [7.48195, 53.72713], [7.47301, 53.73188], [7.46959, 53.74535], [7.47463, 53.75682], [7.487, 53.76141], [7.60661, 53.76259]]], [[[7.81282, 53.77636], [7.79859, 53.77635], [7.74821, 53.76095], [7.7195, 53.75992], [7.695, 53.76952], [7.67709, 53.75781], [7.66092, 53.76211], [7.6863, 53.78098], [7.72793, 53.78652], [7.81282, 53.78314], [7.81282, 53.77636]]], [[[7.85891, 53.79091], [7.91407, 53.79534], [7.9555, 53.78292], [7.87526, 53.7884], [7.87378, 53.77637], [7.85452, 53.78458], [7.85891, 53.79091]]], [[[8.68612, 54.04224], [8.67345, 54.04471], [8.66273, 54.05375], [8.65889, 54.06428], [8.66626, 54.0762], [8.68196, 54.08042], [8.68295, 54.06611], [8.69286, 54.05679], [8.68612, 54.04224]]], [[[7.90414, 54.18043], [7.89919, 54.17818], [7.87993, 54.19391], [7.89453, 54.19464], [7.90414, 54.18043]]], [[[8.9192, 54.53045], [8.96312, 54.52367], [8.95686, 54.50943], [8.9113, 54.4755], [8.88794, 54.46846], [8.84411, 54.46658], [8.82392, 54.47086], [8.81286, 54.48212], [8.82374, 54.48554], [8.82553, 54.4912], [8.81286, 54.50194], [8.84451, 54.51971], [8.87965, 54.52911], [8.9192, 54.53045]]], [[[8.66976, 54.50191], [8.64128, 54.49239], [8.61854, 54.49277], [8.5959, 54.51366], [8.60208, 54.52976], [8.63484, 54.54271], [8.69889, 54.55857], [8.69287, 54.52326], [8.66976, 54.50191]]], [[[9.72082, 42.89827], [9.74073, 42.91137], [9.82419, 42.98727], [9.84744, 42.98713], [9.87455, 42.98175], [9.96931, 42.95328], [9.99319, 42.94889], [10.02377, 42.95279], [10.07319, 42.97256], [10.08593, 42.9829], [10.09492, 42.99656], [10.10415, 43.02647], [10.10956, 43.06516], [10.1086, 43.1485], [10.09834, 43.26562], [10.17459, 43.24167], [10.20425, 43.22248], [10.21385, 43.20476], [10.22395, 43.16184], [10.22616, 43.11391], [10.2221, 43.05312], [10.20963, 43.0103], [10.16924, 42.9103], [10.16398, 42.87035], [10.16933, 42.85456], [10.17897, 42.84185], [10.26473, 42.76865], [10.27237, 42.75617], [10.27761, 42.73564], [10.28255, 42.67883], [10.28111, 42.53589], [10.29787, 42.39346], [10.2959, 42.33785], [10.28941, 42.31577], [10.2761, 42.29798], [10.25611, 42.28109], [10.15619, 42.21419], [10.13495, 42.19474], [10.12555, 42.18037], [10.117, 42.14843], [10.11389, 42.10678], [10.11995, 41.92553], [10.11704, 41.88719], [10.10868, 41.85292], [10.10083, 41.84348], [10.0866, 41.83506], [10.00209, 41.80449], [9.98723, 41.79637], [9.97508, 41.78469], [9.96469, 41.76057], [9.95548, 41.69446], [9.94664, 41.66705], [9.88821, 41.57119], [9.85377, 41.53687], [9.83302, 41.52505], [9.79862, 41.60278], [9.79117, 41.61375], [9.77662, 41.62549], [9.72956, 41.64312], [9.57289, 41.68099], [9.54224, 41.69529], [9.51655, 41.71596], [9.48617, 41.75278], [9.47819, 41.77696], [9.4838, 41.78944], [9.51983, 41.8243], [9.52801, 41.83796], [9.5308, 41.85779], [9.52404, 41.87661], [9.51333, 41.88826], [9.49881, 41.89662], [9.40583, 41.91212], [9.38595, 41.91944], [9.376, 41.93025], [9.3777, 41.94843], [9.38947, 41.96826], [9.45077, 42.03532], [9.45701, 42.04945], [9.45817, 42.06435], [9.45416, 42.07876], [9.44532, 42.09143], [9.4221, 42.10582], [9.39916, 42.1094], [9.34812, 42.10641], [9.3296, 42.10861], [9.3189, 42.11619], [9.31748, 42.13238], [9.32527, 42.15146], [9.39354, 42.24169], [9.40191, 42.2592], [9.40359, 42.27518], [9.39949, 42.29074], [9.38883, 42.30638], [9.30835, 42.37909], [9.29273, 42.39704], [9.2855, 42.41173], [9.28637, 42.42471], [9.29354, 42.4382], [9.33345, 42.48734], [9.33905, 42.50236], [9.33934, 42.51801], [9.33431, 42.53295], [9.32437, 42.54587], [9.27795, 42.57369], [9.26863, 42.58219], [9.26567, 42.59099], [9.27013, 42.6011], [9.28033, 42.61113], [9.34691, 42.65124], [9.36944, 42.67074], [9.38328, 42.6995], [9.41067, 42.78242], [9.42149, 42.80099], [9.43414, 42.81383], [9.49432, 42.83236], [9.63086, 42.86383], [9.68366, 42.88135], [9.72082, 42.89827]]], [[[11.01038, 43.31765], [11.02759, 43.22347], [11.09879, 43.18128], [11.13652, 43.1523], [11.20067, 43.08441], [11.23314, 43.03312], [11.27263, 43.01183], [11.30906, 43.02335], [11.33063, 43.0252], [11.3546, 43.02102], [11.35591, 42.94997], [11.40588, 42.89877], [11.44124, 42.87226], [11.43594, 42.84856], [11.40645, 42.78094], [11.36028, 42.7196], [11.33079, 42.69119], [11.29809, 42.66538], [11.22379, 42.62165], [11.18191, 42.60368], [11.11129, 42.58213], [11.09742, 42.60688], [11.08092, 42.61271], [11.07781, 42.63223], [11.00572, 42.66792], [10.99, 42.71027], [10.94361, 42.74299], [10.89088, 42.7639], [10.73132, 42.80443], [10.75538, 42.81916], [10.7649, 42.83527], [10.76565, 42.8771], [10.77768, 42.89472], [10.76352, 42.91828], [10.68141, 42.94904], [10.6325, 42.95848], [10.58326, 42.9597], [10.53907, 42.94912], [10.54654, 42.93476], [10.51857, 42.92529], [10.49954, 42.9405], [10.47778, 42.9902], [10.5027, 43.00556], [10.5171, 43.02391], [10.53907, 43.07941], [10.5357, 43.11289], [10.54656, 43.14712], [10.53798, 43.16628], [10.56841, 43.19541], [10.63742, 43.24412], [10.71868, 43.28226], [10.80922, 43.30813], [10.9044, 43.32041], [11.01038, 43.31765]]], [[[16.76857, 42.97224], [16.82407, 42.9621], [16.86885, 42.9621], [16.78261, 42.94788], [16.66716, 42.94625], [16.7068, 42.9621], [16.7068, 42.96955], [16.63171, 42.98261], [16.65301, 42.99238], [16.72047, 42.99005], [16.76857, 42.97224]]], [[[17.02336, 43.0485], [17.05567, 43.02896], [17.07325, 43.02416], [17.17394, 43.02945], [17.08516, 43.00145], [17.04894, 42.99422], [17.02753, 43.00358], [17.01793, 43.01382], [17.02817, 43.02416], [17.02817, 43.03099], [17.01882, 43.03409], [17.00167, 43.05149], [17.02336, 43.0485]]], [[[16.71306, 43.09771], [16.73795, 43.09235], [16.73852, 43.08683], [16.71973, 43.08187], [16.68042, 43.08371], [16.66002, 43.08947], [16.68222, 43.09955], [16.69776, 43.09573], [16.71306, 43.09771]]], [[[16.56275, 43.22898], [16.58326, 43.21597], [16.61612, 43.22354], [16.65951, 43.21596], [16.69311, 43.18866], [16.6936, 43.18401], [16.68629, 43.18183], [16.72771, 43.16462], [16.84815, 43.16234], [16.86443, 43.16884], [16.87843, 43.15884], [16.89674, 43.15477], [16.95875, 43.1524], [17.01856, 43.14086], [17.10942, 43.14377], [17.15494, 43.14035], [17.19332, 43.12727], [16.67018, 43.12549], [16.55983, 43.14298], [16.47535, 43.16649], [16.44517, 43.17081], [16.42726, 43.17988], [16.37161, 43.19551], [16.3761, 43.20006], [16.39145, 43.20233], [16.40398, 43.19717], [16.41529, 43.19847], [16.43979, 43.20977], [16.44606, 43.20234], [16.4603, 43.21595], [16.4603, 43.20978], [16.49643, 43.21807], [16.55494, 43.18793], [16.58326, 43.18867], [16.52055, 43.22898], [16.56275, 43.22898]]], [[[12.03533, 45.02599], [12.13408, 45.02293], [12.23082, 45.00609], [12.38939, 44.96618], [12.51471, 44.92687], [12.5127, 44.92232], [12.49903, 44.92145], [12.4873, 44.86225], [12.44459, 44.82052], [12.424, 44.85464], [12.43922, 44.87759], [12.44304, 44.89008], [12.43832, 44.90111], [12.42693, 44.90498], [12.40691, 44.8913], [12.3921, 44.86839], [12.39161, 44.85883], [12.41652, 44.85114], [12.41586, 44.84357], [12.39674, 44.83348], [12.39674, 44.82665], [12.424, 44.82049], [12.41617, 44.8033], [12.39795, 44.79378], [12.37567, 44.79223], [12.30299, 44.84292], [12.29233, 44.84325], [12.26637, 44.82665], [12.26637, 44.8205], [12.28002, 44.8205], [12.25359, 44.75129], [12.24659, 44.71161], [12.2527, 44.6684], [12.28577, 44.60292], [12.28004, 44.53189], [12.2837, 44.48762], [12.31821, 44.36115], [12.34211, 44.32949], [12.35027, 44.28815], [12.36883, 44.25068], [12.38998, 44.22272], [12.41717, 44.19546], [12.45801, 44.1664], [12.47877, 44.13935], [12.54737, 44.09345], [12.57422, 44.08559], [12.63136, 44.0301], [12.69158, 43.99063], [12.75611, 43.97187], [12.80396, 43.96685], [12.86215, 43.93537], [12.92887, 43.91583], [12.94728, 43.89761], [13.25327, 43.70319], [13.38981, 43.64459], [13.39967, 43.63565], [13.44662, 43.62371], [13.4734, 43.61201], [13.50441, 43.63275], [13.51611, 43.63173], [13.52101, 43.62271], [13.54321, 43.61322], [13.57887, 43.5729], [13.59791, 43.56952], [13.61556, 43.56048], [13.62451, 43.54719], [13.61695, 43.53132], [13.76027, 43.26374], [13.78027, 43.23652], [13.79078, 43.19208], [13.83487, 43.1271], [13.8487, 43.09145], [13.86541, 43.00731], [13.94467, 42.79828], [14.00123, 42.69843], [14.03781, 42.65501], [13.98206, 42.62204], [13.89806, 42.58841], [13.80744, 42.56755], [13.71427, 42.55989], [13.70548, 42.5531], [13.72381, 42.45718], [13.84552, 42.05882], [13.86157, 41.95288], [13.86276, 41.90739], [13.85305, 41.80675], [13.82823, 41.69523], [13.762, 41.49905], [13.71069, 41.4869], [13.59086, 41.44589], [13.56576, 41.44237], [13.54695, 41.44516], [13.5304, 41.45694], [13.51835, 41.47561], [13.48819, 41.58477], [13.47405, 41.60295], [13.44995, 41.60896], [13.3867, 41.60829], [13.32514, 41.62122], [13.27192, 41.60486], [13.19083, 41.71882], [13.1597, 41.748], [13.13498, 41.75417], [13.05664, 41.75518], [13.03381, 41.76138], [13.02005, 41.78818], [13.0032, 41.87642], [12.98332, 41.90057], [12.92316, 41.93153], [12.84152, 41.96111], [12.82289, 41.96297], [12.77264, 41.95234], [12.75936, 41.95412], [12.72548, 42.00469], [12.62942, 42.18922], [12.59277, 42.23139], [12.53807, 42.27175], [12.47226, 42.31179], [12.3665, 42.36279], [12.30261, 42.37211], [12.22518, 42.37328], [12.13455, 42.34458], [12.11378, 42.34897], [12.09093, 42.36312], [12.06178, 42.39275], [12.05759, 42.41099], [12.0828, 42.43076], [12.16778, 42.46842], [12.18305, 42.48531], [12.19022, 42.50628], [12.18821, 42.52892], [12.18005, 42.54623], [12.13, 42.61037], [12.01746, 42.72478], [11.92481, 42.79774], [11.87219, 42.82013], [11.74807, 42.85789], [11.70511, 42.8831], [11.70081, 42.89441], [11.70426, 42.9077], [11.74011, 42.96101], [11.74321, 42.98961], [11.72495, 43.021], [11.66958, 43.0618], [11.5976, 43.09792], [11.56151, 43.10517], [11.52603, 43.09843], [11.44671, 43.06205], [11.42408, 43.06121], [11.42184, 43.1416], [11.45985, 43.35577], [11.44925, 43.41145], [11.39145, 43.49142], [11.30114, 43.58225], [11.19504, 43.64364], [11.16954, 43.66431], [11.13899, 43.73387], [11.07213, 43.96091], [11.04031, 44.04137], [10.98162, 44.11818], [10.87158, 44.229], [10.97373, 44.29389], [11.34209, 44.55821], [11.4207, 44.60901], [11.49398, 44.64757], [11.56114, 44.66949], [11.7398, 44.69325], [11.76881, 44.89207], [11.77956, 44.92514], [11.80687, 44.97674], [11.88949, 45.00472], [11.98518, 45.02225], [12.03533, 45.02599]]], [[[16.79615, 43.34638], [16.81625, 43.34024], [16.83033, 43.34637], [16.85817, 43.32518], [16.88509, 43.32196], [16.89233, 43.3122], [16.87939, 43.29379], [16.87232, 43.288], [16.86443, 43.29169], [16.8459, 43.27333], [16.81285, 43.26776], [16.62827, 43.26375], [16.56398, 43.27009], [16.50075, 43.28426], [16.4219, 43.31758], [16.40582, 43.33267], [16.42628, 43.32518], [16.42678, 43.33148], [16.43979, 43.33271], [16.43492, 43.34642], [16.45346, 43.35318], [16.4263, 43.3941], [16.44703, 43.39483], [16.49391, 43.38231], [16.688, 43.37696], [16.80981, 43.35317], [16.80982, 43.34638], [16.79615, 43.34638]]], [[[16.21323, 43.39411], [16.20054, 43.40684], [16.20559, 43.4129], [16.27731, 43.41182], [16.29818, 43.40363], [16.30275, 43.38727], [16.32984, 43.3897], [16.39143, 43.34638], [16.37598, 43.33345], [16.34895, 43.33863], [16.28175, 43.36937], [16.23227, 43.38447], [16.20706, 43.38728], [16.20641, 43.39181], [16.21323, 43.39411]]], [[[16.13754, 43.44973], [16.13755, 43.45851], [16.14942, 43.459], [16.16536, 43.44973], [16.1704, 43.43607], [16.1648, 43.43302], [16.14812, 43.43537], [16.14144, 43.4294], [16.11501, 43.42944], [16.12575, 43.45058], [16.13754, 43.44973]]], [[[16.21145, 43.49006], [16.21205, 43.49564], [16.2435, 43.49494], [16.25221, 43.49994], [16.24807, 43.50828], [16.26442, 43.51287], [16.31031, 43.50775], [16.37523, 43.49017], [16.37077, 43.48433], [16.33363, 43.48141], [16.28199, 43.48794], [16.24643, 43.48144], [16.21145, 43.49006]]], [[[15.88547, 44.34903], [15.86177, 44.34408], [15.84093, 44.3468], [15.82297, 44.356], [15.7938, 44.38666], [15.74201, 44.45628], [15.66484, 44.52357], [15.60032, 44.55979], [15.5851, 44.58119], [15.58787, 44.61293], [15.6138, 44.65145], [15.66864, 44.6464], [15.69273, 44.63685], [15.75203, 44.58342], [15.76543, 44.52365], [15.79645, 44.48466], [15.86906, 44.43694], [15.88498, 44.42125], [15.9027, 44.37423], [15.8984, 44.35967], [15.88547, 44.34903]]], [[[14.74, 45.04434], [14.79992, 45.005], [14.81493, 44.97749], [14.78468, 44.96932], [14.76092, 44.97748], [14.74724, 44.97004], [14.74724, 44.96381], [14.76074, 44.95514], [14.75655, 44.94864], [14.74177, 44.94472], [14.70364, 44.94806], [14.65789, 44.97004], [14.62893, 44.97818], [14.6238, 45.00122], [14.62631, 45.03726], [14.62086, 45.0456], [14.60328, 45.03897], [14.60328, 45.03217], [14.61695, 45.02464], [14.59031, 45.0233], [14.51026, 45.03223], [14.48537, 45.03804], [14.46014, 45.0524], [14.42508, 45.08735], [14.44159, 45.09979], [14.46266, 45.10102], [14.46707, 45.12408], [14.47608, 45.12825], [14.51401, 45.12906], [14.53012, 45.13483], [14.52127, 45.14883], [14.53956, 45.1704], [14.53689, 45.20172], [14.54803, 45.21027], [14.54981, 45.22142], [14.54379, 45.23575], [14.53438, 45.23754], [14.54885, 45.24871], [14.56332, 45.24973], [14.59585, 45.23754], [14.5822, 45.23753], [14.62377, 45.17549], [14.59742, 45.16645], [14.61256, 45.15925], [14.64373, 45.15681], [14.66528, 45.1618], [14.6709, 45.14346], [14.65895, 45.10834], [14.66529, 45.08735], [14.67807, 45.07746], [14.69597, 45.07343], [14.74047, 45.07305], [14.74, 45.04434]]], [[[14.31398, 45.17249], [14.33188, 45.17584], [14.35593, 45.16933], [14.36397, 45.15783], [14.36279, 45.09589], [14.30195, 45.16376], [14.31398, 45.17249]]], [[[15.70617, 45.23712], [15.66882, 45.16418], [15.64122, 45.17695], [15.62943, 45.18682], [15.61758, 45.22006], [15.62666, 45.26166], [15.63711, 45.27894], [15.66187, 45.29795], [15.67993, 45.29321], [15.70851, 45.26526], [15.72295, 45.25863], [15.70617, 45.23712]]], [[[15.95297, 43.65086], [15.94486, 43.66287], [15.99225, 43.72435], [16.05379, 43.78445], [16.15689, 43.85294], [16.19204, 43.86883], [16.35738, 44.06217], [16.32689, 44.08237], [16.31221, 44.1], [16.28999, 44.13912], [16.27552, 44.15736], [16.23211, 44.191], [16.21579, 44.20816], [16.19708, 44.25115], [16.18757, 44.28241], [16.18664, 44.29761], [16.18953, 44.30851], [16.20318, 44.33306], [16.20586, 44.3498], [16.20287, 44.35977], [16.17134, 44.37709], [16.14199, 44.38076], [16.13827, 44.3776], [16.13879, 44.38541], [16.15388, 44.39357], [16.15987, 44.4007], [16.15966, 44.4161], [16.12835, 44.48431], [16.11646, 44.52147], [16.10489, 44.53237], [16.0837, 44.53491], [16.04732, 44.52333], [16.02665, 44.52519], [16.00608, 44.541], [16.01394, 44.55702], [16.03047, 44.57222], [16.03492, 44.58539], [16.04474, 44.58937], [16.03616, 44.61531], [16.0283, 44.62472], [15.97911, 44.63438], [15.96898, 44.63924], [15.95565, 44.65319], [15.9481, 44.6781], [15.93735, 44.68895], [15.91306, 44.68451], [15.90542, 44.69014], [15.8956, 44.71856], [15.88878, 44.72425], [15.87627, 44.72482], [15.85643, 44.70358], [15.80568, 44.69665], [15.797, 44.70327], [15.78284, 44.72259], [15.75369, 44.73929], [15.71731, 44.78647], [15.71607, 44.80321], [15.73065, 44.81701], [15.76868, 44.82734], [15.77344, 44.84502], [15.76403, 44.86403], [15.73426, 44.90212], [15.73085, 44.92723], [15.73881, 44.94485], [15.76362, 44.97555], [15.76744, 44.99322], [15.75555, 45.02356], [15.75597, 45.04221], [15.77943, 45.08536], [15.78377, 45.10092], [15.78098, 45.16799], [15.79235, 45.1898], [15.8248, 45.21099], [15.87886, 45.21724], [15.86713, 45.45737], [15.88066, 45.48899], [15.89, 45.57444], [15.88579, 45.62613], [15.87477, 45.66696], [15.86316, 45.68601], [15.83893, 45.70883], [15.81078, 45.7156], [15.78006, 45.70862], [15.75362, 45.68946], [15.73992, 45.66829], [15.73567, 45.63956], [15.75287, 45.59003], [15.71642, 45.5262], [15.71547, 45.50398], [15.7309, 45.45313], [15.7237, 45.43122], [15.70636, 45.41336], [15.67113, 45.39554], [15.62772, 45.40127], [15.57679, 45.41561], [15.52783, 45.4467], [15.50355, 45.45065], [15.46623, 45.43835], [15.43643, 45.40541], [15.42985, 45.37627], [15.43744, 45.25254], [15.40398, 45.11392], [15.4156, 45.02377], [15.4076, 45.01174], [15.37032, 44.98168], [15.35697, 44.94892], [15.36208, 44.92417], [15.38537, 44.89993], [15.39551, 44.87989], [15.39639, 44.86638], [15.38702, 44.84309], [15.37238, 44.83149], [15.35873, 44.82926], [15.34088, 44.83399], [15.30881, 44.85454], [15.26311, 44.89798], [15.1925, 44.94128], [15.1842, 44.95498], [15.18374, 44.96834], [15.19315, 44.98964], [15.21684, 45.00885], [15.27339, 45.01796], [15.29056, 45.02541], [15.30859, 45.03866], [15.32782, 45.0651], [15.35633, 45.1433], [15.3577, 45.16543], [15.35217, 45.17995], [15.29872, 45.22979], [15.28889, 45.23039], [15.28141, 45.22584], [15.25129, 45.1607], [15.2289, 45.12865], [15.2025, 45.09868], [15.13847, 45.04522], [15.10057, 45.02162], [15.01758, 44.98355], [14.9209, 44.95669], [14.91432, 44.98143], [14.84254, 45.10554], [14.76597, 45.13736], [14.6579, 45.19661], [14.6067, 45.24437], [14.57604, 45.26226], [14.56863, 45.27595], [14.5822, 45.28535], [14.53435, 45.31269], [14.55543, 45.29588], [14.5433, 45.28385], [14.53306, 45.28389], [14.51051, 45.29975], [14.40235, 45.33861], [14.32976, 45.35399], [14.31153, 45.34398], [14.29078, 45.3205], [14.27198, 45.29011], [14.25688, 45.24557], [14.24567, 45.28934], [14.28926, 45.47992], [14.3268, 45.4749], [14.3728, 45.47785], [14.41124, 45.49319], [14.46892, 45.52559], [14.48214, 45.54244], [14.49227, 45.58342], [14.49858, 45.59618], [14.54364, 45.63644], [14.55615, 45.6567], [14.5639, 45.66269], [14.58095, 45.66781], [14.50398, 45.89168], [14.48872, 45.95462], [14.4758, 45.97581], [14.44189, 46.0082], [14.43393, 46.03983], [14.45287, 46.06191], [14.513, 46.09626], [14.5391, 46.14527], [14.54679, 46.15322], [14.54033, 46.37864], [14.5271, 46.38823], [14.51584, 46.40536], [14.50219, 46.41836], [14.46767, 46.41267], [14.45093, 46.41448], [14.42003, 46.42435], [14.40649, 46.43934], [14.39584, 46.44099], [14.36215, 46.43588], [14.14986, 46.44006], [14.13726, 46.44244], [14.07999, 46.47631], [14.21996, 46.68758], [14.20943, 46.73146], [14.22765, 46.81594], [14.2637, 46.91929], [14.33584, 47.06744], [14.3524, 47.11345], [14.36302, 47.16226], [14.36424, 47.21373], [14.35373, 47.2589], [14.32195, 47.31561], [14.27918, 47.35641], [14.14793, 47.40451], [13.8879, 47.4569], [13.40728, 47.54133], [13.07205, 47.62242], [13.07484, 47.64665], [13.07205, 47.65947], [13.06409, 47.67399], [13.03226, 47.70662], [13.01986, 47.71293], [13.00435, 47.71461], [12.96404, 47.70536], [12.90834, 47.71236], [12.89201, 47.72355], [12.91723, 47.75016], [12.92126, 47.76954], [12.92674, 47.77739], [12.99123, 47.84711], [12.96498, 47.87196], [12.93108, 47.92488], [12.88601, 47.95289], [12.86204, 47.96255], [12.85398, 47.97048], [12.8456, 47.99314], [12.83062, 48.01547], [12.76023, 48.06487], [12.75093, 48.07474], [12.73698, 48.09996], [12.73894, 48.11345], [12.74504, 48.12063], [12.76406, 48.12376], [12.78235, 48.14202], [12.82214, 48.16068], [12.86255, 48.19665], [12.87764, 48.20205], [12.93304, 48.20926], [12.9317, 48.21163], [12.97945, 48.23202], [13.03278, 48.26357], [13.13644, 48.29106], [13.27421, 48.3071], [13.43754, 48.10956], [13.61252, 48.11546], [13.75777, 48.11158], [14.37926, 48.04522], [14.60797, 48.01067], [14.75468, 47.977], [14.88667, 47.93315], [14.95296, 47.90367], [15.04178, 47.85218], [15.1219, 47.79003], [15.18855, 47.72483], [15.36571, 47.51786], [15.43034, 47.45206], [15.49886, 47.39505], [15.57863, 47.34752], [15.75889, 47.28418], [15.83705, 47.24728], [15.99135, 47.13655], [16.2749, 47.00432], [16.28854, 47.00558], [16.32586, 47.00044], [16.36658, 47.00382], [16.38776, 47.00204], [16.41557, 46.98943], [16.42476, 46.9931], [16.48636, 46.99855], [16.48192, 47.00938], [16.46755, 47.01842], [16.42466, 47.02408], [16.43717, 47.03178], [16.48192, 47.04421], [16.49318, 47.04915], [16.49722, 47.05462], [16.83871, 47.00783], [16.9563, 47.00145], [17.05047, 46.98424], [17.09726, 46.9707], [17.17744, 46.93299], [17.20611, 46.90886], [17.22806, 46.87874], [17.24194, 46.84597], [17.26865, 46.69862], [17.29849, 46.6294], [17.5211, 46.33697], [17.58471, 46.23705], [17.51146, 46.22723], [17.23661, 46.09113], [17.20859, 46.11657], [17.19733, 46.12116], [17.1162, 46.12313], [17.10121, 46.12819], [17.04354, 46.16049], [16.81632, 45.99277], [16.82502, 45.97807], [16.84011, 45.92947], [16.86708, 45.67881], [16.8776, 45.63015], [16.91992, 45.53291], [16.92947, 45.51698], [16.92437, 45.28452], [16.93264, 45.27879], [16.9407, 45.25776], [16.94153, 45.24122], [16.94732, 45.23569], [16.96799, 45.23729], [16.96117, 45.25093], [16.97594, 45.24716], [16.99868, 45.2314], [17.0083, 45.24417], [17.01357, 45.23057], [17.0083, 45.21616], [17.0363, 45.23047], [17.05573, 45.20045], [17.09842, 45.17766], [17.1871, 45.14856], [17.24133, 44.9232], [17.28946, 44.86073], [17.35548, 44.78789], [17.42525, 44.72086], [17.62602, 44.5531], [17.67237, 44.49625], [17.71399, 44.42919], [17.7483, 44.35755], [17.79739, 44.20593], [17.82134, 44.05881], [17.82416, 43.91238], [17.82856, 43.87815], [17.84054, 43.84869], [17.86289, 43.82658], [17.89825, 43.81234], [18.02525, 43.79648], [18.06701, 43.77432], [18.08297, 43.74081], [18.07564, 43.69557], [18.04688, 43.64238], [18.00069, 43.58264], [17.86873, 43.44851], [17.70685, 43.43842], [17.68337, 43.44375], [17.63032, 43.47784], [17.59994, 43.48865], [17.5637, 43.49301], [17.4736, 43.49213], [17.46437, 43.4886], [17.46213, 43.48118], [17.46745, 43.4756], [17.58178, 43.43042], [17.6336, 43.402], [17.62585, 43.33575], [17.5991, 43.26749], [17.55494, 43.20476], [17.49499, 43.1495], [17.42208, 43.10408], [17.36513, 43.0795], [17.31625, 43.12727], [17.17238, 43.18184], [17.11395, 43.21321], [17.10027, 43.23168], [17.07351, 43.23897], [17.05635, 43.25699], [17.04949, 43.27802], [17.02818, 43.28425], [16.93393, 43.3736], [16.88063, 43.40595], [16.75245, 43.41951], [16.69386, 43.4383], [16.62583, 43.44905], [16.53485, 43.49714], [16.52467, 43.51081], [16.5044, 43.50399], [16.46656, 43.51081], [16.39146, 43.51082], [16.39146, 43.51764], [16.43426, 43.52188], [16.4734, 43.53815], [16.4568, 43.54588], [16.43385, 43.54975], [16.33676, 43.55117], [16.29959, 43.53822], [16.23959, 43.52657], [16.11769, 43.52448], [16.11769, 43.51765], [16.15073, 43.51138], [16.16487, 43.50409], [16.17235, 43.4897], [16.11085, 43.48969], [16.11283, 43.47893], [16.06617, 43.48969], [16.03957, 43.4908], [16.01401, 43.50397], [16.00782, 43.50397], [16.00782, 43.49715], [15.99578, 43.50336], [15.97348, 43.50313], [15.96632, 43.51081], [15.96437, 43.50391], [15.9595, 43.50398], [15.96129, 43.51503], [15.98365, 43.52106], [15.98699, 43.52729], [15.98227, 43.5373], [15.98732, 43.54491], [15.95949, 43.53817], [15.95623, 43.54792], [15.94809, 43.55288], [15.92534, 43.55858], [15.94191, 43.56], [15.94418, 43.56672], [15.9354, 43.57294], [15.91799, 43.57291], [15.91799, 43.57908], [15.93214, 43.58658], [15.918, 43.59333], [15.9253, 43.59956], [15.918, 43.60639], [15.9253, 43.61384], [15.92986, 43.63421], [15.96632, 43.63373], [15.96632, 43.64118], [15.93588, 43.6459], [15.95297, 43.65086]], [[17.2534, 43.81653], [17.32732, 43.82631], [17.34182, 43.82151], [17.34094, 43.80791], [17.32031, 43.78311], [17.28956, 43.76492], [17.22779, 43.76578], [17.16362, 43.74849], [17.12629, 43.73164], [17.12471, 43.71977], [17.22902, 43.66381], [17.26063, 43.67757], [17.30579, 43.6776], [17.33557, 43.67604], [17.42854, 43.6577], [17.52354, 43.65989], [17.55477, 43.65695], [17.5761, 43.64929], [17.58881, 43.63377], [17.58632, 43.58662], [17.59072, 43.57116], [17.60129, 43.56188], [17.61813, 43.55859], [17.67173, 43.57215], [17.7129, 43.59162], [17.75819, 43.62343], [17.775, 43.64351], [17.78612, 43.67817], [17.77938, 43.7024], [17.75924, 43.72522], [17.61864, 43.8228], [17.47423, 43.89238], [17.37227, 43.96557], [17.28856, 43.99092], [17.25579, 44.00538], [17.23014, 44.02441], [17.19019, 44.06526], [17.16679, 44.0685], [17.10105, 44.05084], [17.07309, 44.04808], [17.053, 44.05609], [17.03615, 44.08736], [17.01338, 44.09433], [16.96016, 44.07751], [16.85034, 44.05193], [16.82528, 44.03614], [16.80487, 44.01136], [16.79651, 43.98989], [16.79587, 43.97378], [16.80871, 43.95225], [16.82429, 43.94748], [16.9498, 43.94488], [16.96892, 43.93883], [16.97561, 43.92669], [16.97212, 43.91637], [16.68451, 43.82929], [16.69824, 43.78808], [16.7126, 43.77152], [16.82381, 43.70731], [16.93361, 43.62571], [17.17421, 43.78859], [17.2534, 43.81653]]], [[[11.0325, 54.44734], [11.02573, 54.45881], [11.00849, 54.45467], [11.00573, 54.46845], [11.03355, 54.50864], [11.07294, 54.53118], [11.12126, 54.53595], [11.20654, 54.51446], [11.23999, 54.49555], [11.31419, 54.41382], [11.18849, 54.42617], [11.17018, 54.42007], [11.17902, 54.41422], [11.11265, 54.41524], [11.10135, 54.42349], [11.09864, 54.45165], [11.05812, 54.45527], [11.0325, 54.44734]]], [[[10.65642, 54.80366], [10.63209, 54.82343], [10.60752, 54.83525], [10.76728, 54.80275], [10.73144, 54.74025], [10.69387, 54.73531], [10.68191, 54.74482], [10.65642, 54.80366]]], [[[10.46066, 54.84426], [10.44012, 54.8415], [10.40626, 54.8247], [10.37049, 54.83899], [10.46066, 54.84426]]]]}}]}