{"type": "FeatureCollection", "features": [{"type": "Feature", "properties": {"name": "비옥한 초승달 지대", "name_en": "Fertile Crescent", "period": "", "kind": "기타", "legend": "비옥한 초승달 지대", "map_title": "메소포타미아 문명의 영역", "source": "미래엔 세계사 교과서 1권 16쪽", "volume": 1, "page": 16, "coast_snap": "Natural Earth 10m 해안선에 맞춤", "border_snap": "현대 국경(Natural Earth 10m)에 맞춘 구간 약 366 km"}, "geometry": {"type": "MultiPolygon", "coordinates": [[[[48.10955, 29.83332], [48.11329, 29.8391], [48.11915, 29.8736], [48.08516, 29.87988], [48.09507, 29.89471], [48.10922, 29.89361], [48.13356, 29.87987], [48.1587, 29.87922], [48.16652, 29.88593], [48.16083, 29.90155], [48.1937, 29.91645], [48.19744, 29.92536], [48.18133, 29.93513], [48.16993, 29.93647], [48.15675, 29.93115], [48.14724, 29.93513], [48.14045, 29.95195], [48.14039, 29.96979], [48.12274, 29.96968], [48.11672, 29.97407], [48.12105, 29.98152], [48.14796, 29.99493], [48.17552, 29.99196], [48.18889, 29.98335], [48.34436, 29.79076], [48.34883, 29.78016], [48.30013, 29.73291], [48.24054, 29.68761], [48.20304, 29.66592], [48.1543, 29.64499], [48.12672, 29.70234], [48.07374, 29.77969], [48.05373, 29.79003], [48.04609, 29.80044], [48.10955, 29.83332]]], [[[48.02347, 29.96999], [48.01077, 29.98046], [48.0093, 29.98688], [48.0547, 30.02448], [48.10919, 30.02798], [48.10619, 30.01786], [48.07887, 30.00406], [48.05835, 29.98356], [48.02347, 29.96999]]], [[[34.30162, 31.40769], [34.3484, 31.43765], [34.36818, 31.46816], [34.44337, 31.53457], [34.47877, 31.57827], [34.48952, 31.6004], [34.51393, 31.62714], [34.60963, 31.76553], [34.69313, 31.92631], [34.71193, 31.95161], [34.74334, 32.03986], [34.74335, 32.06036], [34.75701, 32.0666], [34.83766, 32.28071], [34.9041, 32.56042], [34.90984, 32.57026], [34.92091, 32.62824], [34.91914, 32.64297], [34.94207, 32.72451], [34.94753, 32.81415], [34.9555, 32.83418], [34.97047, 32.84137], [35.00343, 32.82754], [35.02768, 32.82661], [35.06707, 32.86685], [35.0796, 32.90583], [35.07781, 32.91787], [35.06545, 32.92309], [35.07154, 32.93793], [35.07843, 32.99858], [35.0962, 33.05036], [35.09215, 33.06769], [35.10646, 33.08076], [35.09963, 33.08759], [35.10524, 33.08902], [35.10646, 33.09504], [35.10046, 33.09567], [35.09963, 33.10126], [35.12532, 33.13237], [35.14763, 33.14033], [35.16782, 33.17015], [35.16181, 33.17694], [35.17107, 33.17658], [35.17465, 33.17015], [35.20476, 33.2248], [35.20916, 33.25463], [35.18834, 33.28001], [35.20973, 33.2934], [35.22478, 33.312], [35.24366, 33.3557], [35.25051, 33.40973], [35.27508, 33.44497], [35.27102, 33.4575], [35.32301, 33.49091], [35.34913, 33.51386], [35.36258, 33.55657], [35.40064, 33.64313], [35.3944, 33.64997], [35.40992, 33.66128], [35.42165, 33.70233], [35.43849, 33.71137], [35.43795, 33.7236], [35.47731, 33.8039], [35.48325, 33.87246], [35.47048, 33.90209], [35.47585, 33.90997], [35.48658, 33.91298], [35.51734, 33.90253], [35.57203, 33.90998], [35.59311, 33.94477], [35.59197, 33.95043], [35.58572, 33.95092], [35.6134, 33.99296], [35.63673, 33.99531], [35.64088, 33.99942], [35.64039, 34.00853], [35.62722, 34.01985], [35.62698, 34.04426], [35.64332, 34.08808], [35.64772, 34.11913], [35.63033, 34.15304], [35.62722, 34.20112], [35.64772, 34.22215], [35.65296, 34.28459], [35.66522, 34.31134], [35.68873, 34.3283], [35.70582, 34.3166], [35.75075, 34.38979], [35.80616, 34.41498], [35.82358, 34.43452], [35.80544, 34.45869], [35.80544, 34.4649], [35.82398, 34.46084], [35.90333, 34.47797], [35.98317, 34.53864], [35.98878, 34.55272], [35.98683, 34.6208], [35.93118, 34.74096], [35.92897, 34.79072], [35.90847, 34.82177], [35.86689, 34.92422], [35.8729, 34.92691], [35.88136, 34.94497], [35.87356, 34.95832], [35.87892, 34.97016], [35.87356, 34.97883], [35.89536, 35.00678], [35.90056, 35.02192], [35.88788, 35.06135], [35.88788, 35.1092], [35.9411, 35.18037], [35.96241, 35.19794], [35.9533, 35.2248], [35.91531, 35.28791], [35.92897, 35.32148], [35.91671, 35.40306], [35.91896, 35.41767], [35.86061, 35.47907], [35.8301, 35.49348], [35.81837, 35.50894], [35.78126, 35.49959], [35.77053, 35.50422], [35.77809, 35.54116], [35.73709, 35.56168], [35.74334, 35.5821], [35.72341, 35.57593], [35.72341, 35.58209], [35.76336, 35.59829], [35.77849, 35.61274], [35.78435, 35.63056], [35.77118, 35.66779], [35.77663, 35.67511], [35.80006, 35.68146], [35.84034, 35.74746], [35.83595, 35.78998], [35.81186, 35.8354], [35.79862, 35.84967], [35.84685, 35.84724], [35.87086, 35.85179], [35.88103, 35.86668], [35.88528, 35.88597], [35.96608, 35.99363], [35.97674, 36.00096], [35.97543, 36.0185], [35.94842, 36.08784], [35.85234, 36.21336], [35.84099, 36.24453], [35.79861, 36.28169], [35.78738, 36.30427], [35.78873, 36.32002], [35.82448, 36.36106], [35.85678, 36.36978], [35.87356, 36.39769], [35.90846, 36.41816], [35.91872, 36.44818], [35.9424, 36.46433], [35.99025, 36.47964], [36.04494, 36.53765], [36.05543, 36.53828], [36.18914, 36.60399], [36.21119, 36.6424], [36.21559, 36.67048], [36.2025, 36.69937], [36.20249, 36.76919], [36.18897, 36.80174], [36.12989, 36.86929], [36.09547, 36.89712], [36.0586, 36.91844], [36.02027, 36.92634], [35.98504, 36.9156], [35.95086, 36.89102], [35.8938, 36.83491], [35.85385, 36.81582], [35.80543, 36.7751], [35.7671, 36.76774], [35.69815, 36.76517], [35.78357, 36.81755], [35.92105, 36.88856], [35.96759, 36.93812], [35.99935, 36.96369], [36.10441, 37.02811], [36.18025, 37.06418], [36.26282, 37.0875], [36.30614, 37.09422], [36.39476, 37.09728], [36.48906, 37.08459], [36.57835, 36.98018], [36.62717, 36.89082], [36.64124, 36.88714], [37.68768, 37.44796], [38.17856, 37.68573], [38.45068, 37.79157], [38.73965, 37.87199], [39.04295, 37.93028], [39.35459, 37.96923], [39.67059, 37.99248], [39.98755, 38.00385], [40.60574, 38.00672], [40.80857, 37.98955], [41.03022, 37.9429], [41.26337, 37.87171], [41.49848, 37.7815], [41.7277, 37.67719], [41.94223, 37.56397], [42.13411, 37.44649], [42.29492, 37.32947], [42.47882, 37.17002], [42.65117, 37.00049], [42.81321, 36.82321], [42.96628, 36.64048], [43.27347, 36.23741], [43.51797, 35.90127], [43.67621, 35.66961], [43.81765, 35.43406], [43.94638, 35.19611], [44.29846, 34.48458], [44.41842, 34.25475], [44.75794, 33.66654], [44.82898, 33.55557], [44.90567, 33.45389], [44.99102, 33.3638], [45.08858, 33.287], [45.20035, 33.22626], [45.48661, 33.10303], [45.65433, 33.02572], [45.7633, 32.96933], [45.86892, 32.90769], [45.97081, 32.83949], [46.0694, 32.76295], [46.11741, 32.71895], [46.20727, 32.61832], [46.34507, 32.44726], [46.62101, 32.14823], [46.74915, 31.99974], [46.91573, 31.79596], [47.29884, 31.30499], [47.41897, 31.14456], [47.59108, 30.90868], [47.70762, 30.74477], [47.74731, 30.68355], [48.01322, 30.66677], [48.01359, 30.46388], [48.11942, 30.4508], [48.14092, 30.44192], [48.15766, 30.42631], [48.17048, 30.40667], [48.17947, 30.38486], [48.18768, 30.34084], [48.19208, 30.33128], [48.20009, 30.32394], [48.22298, 30.3181], [48.27166, 30.32384], [48.29636, 30.31975], [48.30571, 30.31283], [48.32602, 30.28348], [48.35816, 30.2518], [48.39702, 30.221], [48.4087, 30.20234], [48.41062, 30.19154], [48.40803, 30.1809], [48.38328, 30.15646], [48.38111, 30.14534], [48.38307, 30.13842], [48.39558, 30.11522], [48.42395, 30.08364], [48.44219, 30.03393], [48.44426, 30.02091], [48.45314, 30.00143], [48.46431, 29.98913], [48.42652, 29.93715], [48.41188, 29.93844], [48.33571, 29.96134], [48.29957, 29.98452], [48.26466, 29.99397], [48.20924, 30.02448], [48.16578, 30.03754], [48.11915, 30.04499], [48.07634, 30.04564], [48.03826, 30.03685], [47.96901, 30.00407], [47.95167, 30.08832], [47.93482, 30.10708], [47.9485, 30.06232], [47.94093, 30.02652], [47.9485, 30.01765], [47.94801, 29.99404], [47.97532, 29.94232], [47.98268, 29.86066], [47.99562, 29.8277], [48.02174, 29.77973], [48.05242, 29.74299], [48.07887, 29.74395], [48.09604, 29.69916], [48.13259, 29.63765], [48.07467, 29.62324], [47.99623, 29.61548], [47.95603, 29.61658], [47.87788, 29.6287], [47.8042, 29.65342], [47.73678, 29.69013], [47.70071, 29.71714], [47.63176, 29.78311], [47.57067, 29.82906], [47.56179, 29.86209], [47.55683, 30.09828], [47.47434, 30.09826], [47.45677, 30.32803], [47.01573, 30.57745], [46.84007, 30.67094], [46.68914, 30.73961], [46.56599, 30.77805], [46.46874, 30.78459], [46.39055, 30.75978], [46.26628, 30.67898], [46.18857, 30.61472], [46.15205, 30.57818], [46.12181, 30.53795], [46.10299, 30.49479], [45.97653, 30.54318], [45.85274, 30.60396], [45.5929, 30.75452], [45.09389, 31.07366], [44.91491, 31.19371], [44.74656, 31.32036], [44.58639, 31.45152], [43.97843, 31.9833], [43.81842, 32.11165], [43.3059, 32.4882], [42.94459, 32.73307], [42.56926, 32.97036], [42.22253, 33.1762], [41.9092, 33.35295], [41.58985, 33.5255], [40.95348, 33.8542], [40.63382, 34.02547], [40.47817, 34.2251], [40.22044, 34.09601], [40.0675, 34.28871], [40.01411, 34.30859], [39.85445, 34.35481], [39.70399, 34.39084], [39.4023, 34.45683], [39.2507, 34.48406], [39.09896, 34.5055], [38.94723, 34.51974], [38.79478, 34.52535], [38.6433, 34.52084], [38.40204, 34.49056], [38.16998, 34.43477], [37.94644, 34.35732], [37.73095, 34.26213], [37.52297, 34.15302], [37.22419, 33.97102], [36.93691, 33.77969], [36.71444, 33.6234], [36.50352, 33.45747], [36.37307, 33.33629], [36.28168, 33.23758], [36.11665, 33.02748], [35.81599, 32.58542], [35.73872, 32.4774], [35.62544, 32.33239], [35.50516, 32.1919], [35.34094, 32.01356], [35.22202, 31.87918], [35.22656, 31.86725], [35.22746, 31.85031], [35.23335, 31.84261], [35.24998, 31.84437], [35.25723, 31.83859], [35.25157, 31.83128], [35.26494, 31.82627], [35.25587, 31.81222], [35.2629, 31.78968], [35.2527, 31.76965], [35.25315, 31.76252], [35.25972, 31.75694], [35.26281, 31.74862], [35.25247, 31.73805], [35.24242, 31.71085], [35.23797, 31.70933], [35.22415, 31.71916], [35.21939, 31.71512], [35.20526, 31.72319], [35.17942, 31.7201], [35.16673, 31.73205], [35.15436, 31.73343], [35.14895, 31.73735], [35.12574, 31.7331], [35.11423, 31.71769], [35.05923, 31.6768], [34.97361, 31.63037], [34.95531, 31.61187], [34.93733, 31.582], [34.92679, 31.49441], [34.88173, 31.42987], [34.86715, 31.39643], [34.87883, 31.36284], [34.67436, 31.21258], [34.58267, 31.12701], [34.54429, 31.12308], [34.36639, 31.12105], [34.28472, 31.13425], [34.20769, 31.16098], [34.13827, 31.20021], [34.08144, 31.24831], [34.22267, 31.32665], [34.28142, 31.3767], [34.30162, 31.40769]]], [[[35.62622, 36.71039], [35.63404, 36.69937], [35.63908, 36.72049], [35.65121, 36.73003], [35.66481, 36.71239], [35.69606, 36.72393], [35.70913, 36.71987], [35.65016, 36.69782], [35.62257, 36.68073], [35.6067, 36.65778], [35.60865, 36.64688], [35.62208, 36.65424], [35.66676, 36.69611], [35.69554, 36.7062], [35.65797, 36.6752], [35.63315, 36.63093], [35.63134, 36.60717], [35.62376, 36.60265], [35.59855, 36.59144], [35.55714, 36.58748], [35.54467, 36.58952], [35.51562, 36.61158], [35.54915, 36.64753], [35.61008, 36.6977], [35.61687, 36.69623], [35.62622, 36.71039]]]]}}, {"type": "Feature", "properties": {"name": "수메르인의 초기 정착지", "name_en": "Early Sumerian settlements", "period": "기원전 3500년경", "kind": "문명", "legend": "수메르인의 초기 정착지", "map_title": "메소포타미아 문명의 영역", "source": "미래엔 세계사 교과서 1권 16쪽", "volume": 1, "page": 16, "coast_snap": "Natural Earth 10m 해안선에 맞춤"}, "geometry": {"type": "Polygon", "coordinates": [[[46.89516, 31.04877], [47.1552, 30.77466], [47.39518, 30.50242], [47.59236, 30.25132], [47.01563, 30.57751], [46.84037, 30.6708], [46.6885, 30.7399], [46.56465, 30.77847], [46.46759, 30.78472], [46.39148, 30.76029], [46.36664, 30.74666], [46.24756, 30.83794], [46.1397, 30.94227], [46.02539, 31.06495], [45.90662, 31.19953], [45.58017, 31.5876], [45.47847, 31.69506], [45.42618, 31.73871], [45.20961, 31.89168], [45.14118, 31.95072], [45.08711, 32.01444], [45.05503, 32.08328], [45.0524, 32.15789], [45.07247, 32.21661], [45.10486, 32.25908], [45.14576, 32.28771], [45.19165, 32.30473], [45.23924, 32.31234], [45.32738, 32.30772], [45.4059, 32.28457], [45.48734, 32.24363], [45.72651, 32.07801], [45.93226, 31.95606], [46.03435, 31.88479], [46.17117, 31.76283], [46.89516, 31.04877]]]}}, {"type": "Feature", "properties": {"name": "바빌로니아 왕국", "name_en": "Old Babylonian Kingdom", "period": "기원전 18세기(함무라비 왕 시기)", "kind": "국가", "legend": "바빌로니아 왕국의 영역", "map_title": "메소포타미아 문명의 영역", "source": "미래엔 세계사 교과서 1권 16쪽", "volume": 1, "page": 16, "coast_snap": "Natural Earth 10m 해안선에 맞춤", "border_snap": "현대 국경(Natural Earth 10m)에 맞춘 구간 약 558 km"}, "geometry": {"type": "MultiPolygon", "coordinates": [[[[48.04609, 29.80044], [48.10955, 29.83332], [48.11329, 29.8391], [48.11915, 29.8736], [48.08516, 29.87988], [48.09507, 29.89471], [48.10922, 29.89361], [48.13356, 29.87987], [48.1587, 29.87922], [48.16651, 29.88593], [48.16083, 29.90155], [48.1937, 29.91645], [48.19744, 29.92536], [48.18133, 29.93513], [48.16993, 29.93647], [48.15675, 29.93115], [48.14724, 29.93513], [48.14045, 29.95195], [48.14039, 29.96979], [48.12274, 29.96968], [48.11672, 29.97407], [48.13356, 29.98968], [48.16212, 29.99566], [48.18889, 29.98335], [48.34436, 29.79076], [48.35952, 29.75425], [48.3527, 29.70979], [48.33369, 29.67911], [48.30306, 29.64521], [48.26647, 29.6161], [48.22901, 29.59993], [48.18564, 29.60412], [48.16163, 29.62971], [48.12645, 29.70277], [48.08513, 29.76781], [48.07374, 29.77969], [48.05373, 29.79003], [48.04609, 29.80044]]], [[[48.02347, 29.96999], [48.01077, 29.98046], [48.0093, 29.98688], [48.0547, 30.02448], [48.10919, 30.02798], [48.10619, 30.01786], [48.07887, 30.00406], [48.05835, 29.98356], [48.02347, 29.96999]]], [[[48.94042, 30.37657], [48.92117, 30.38077], [48.92834, 30.39182], [48.94042, 30.37657]]], [[[38.21601, 36.21052], [38.31188, 36.33741], [38.44391, 36.44293], [38.57124, 36.50274], [38.71116, 36.69976], [38.72501, 36.69394], [38.79539, 36.68665], [38.95796, 36.6929], [38.97998, 36.69817], [39.03217, 36.70117], [39.18586, 36.65952], [39.2396, 36.66128], [39.76525, 36.74215], [39.84774, 36.76712], [39.96282, 36.55978], [40.12333, 36.52962], [40.34215, 36.48034], [41.20994, 36.25653], [41.42806, 36.20661], [41.64744, 36.16419], [41.86844, 36.13184], [42.09151, 36.11206], [42.3176, 36.10558], [42.65845, 36.10446], [42.88587, 36.09599], [42.99922, 36.08598], [43.12912, 36.06822], [43.2579, 36.04413], [43.50953, 35.98078], [43.75487, 35.90234], [43.9938, 35.8156], [44.2441, 35.71695], [44.48249, 35.60609], [44.59284, 35.54415], [44.69579, 35.47631], [44.78987, 35.40141], [44.87267, 35.31911], [44.93885, 35.23507], [44.99435, 35.14558], [45.04069, 35.05167], [45.07931, 34.95488], [45.11221, 34.85584], [45.18968, 34.58003], [45.42028, 34.44873], [45.41705, 34.44436], [45.44795, 34.36209], [45.46077, 34.34046], [45.47927, 34.32915], [45.49922, 34.3424], [45.52154, 34.3425], [45.54221, 34.3316], [45.55756, 34.31196], [45.56304, 34.28928], [45.56102, 34.2646], [45.54769, 34.21649], [45.52867, 34.18856], [45.52666, 34.17931], [45.54454, 34.15063], [45.54454, 34.13949], [45.53436, 34.1282], [45.45488, 34.06986], [45.43519, 34.02214], [45.41995, 33.99426], [45.40175, 33.98162], [45.38036, 33.97356], [45.40103, 33.94945], [45.42372, 33.93878], [45.44971, 33.93739], [45.47927, 33.94118], [45.48578, 33.93865], [45.57477, 33.80393], [45.61673, 33.76869], [45.63513, 33.71417], [45.64515, 33.69792], [45.67399, 33.66903], [45.72112, 33.64076], [45.72799, 33.62565], [45.72773, 33.5901], [45.73455, 33.58312], [45.75202, 33.58676], [45.76845, 33.59591], [45.79754, 33.61932], [45.81579, 33.6258], [45.86436, 33.62642], [45.88596, 33.63092], [45.88204, 33.6002], [45.89971, 33.58516], [45.9209, 33.57299], [45.92792, 33.55087], [45.91563, 33.53581], [45.86819, 33.51157], [45.85258, 33.49436], [45.86974, 33.48212], [45.8994, 33.4763], [45.92968, 33.47951], [45.95314, 33.49659], [45.96327, 33.49656], [45.97443, 33.4908], [46.00802, 33.45566], [46.01939, 33.4384], [46.02745, 33.41951], [46.03107, 33.38251], [46.03624, 33.36794], [46.06973, 33.34086], [46.10952, 33.29371], [46.1553, 33.26022], [46.16419, 33.24335], [46.15768, 33.20568], [46.16212, 33.19637], [46.1737, 33.19022], [46.17432, 33.18118], [46.16719, 33.16834], [46.12647, 33.13178], [46.10538, 33.11839], [46.0504, 33.11511], [46.0303, 33.10568], [46.02931, 33.09351], [46.04327, 33.08346], [46.08719, 33.07922], [46.106, 33.0725], [46.12042, 33.06168], [46.12616, 33.04798], [46.11949, 33.03101], [46.07572, 32.9945], [46.09701, 32.95432], [46.15556, 32.94835], [46.27343, 32.95949], [46.37963, 32.93176], [46.47931, 32.89179], [46.50732, 32.86802], [46.60442, 32.82069], [46.65036, 32.78937], [46.71589, 32.75601], [46.75733, 32.7162], [47.0584, 32.49448], [47.09059, 32.47456], [47.12103, 32.46104], [47.15255, 32.45518], [47.1878, 32.45838], [47.25126, 32.48546], [47.26531, 32.48468], [47.32195, 32.46823], [47.34334, 32.45869], [47.38412, 32.41257], [47.41083, 32.39528], [47.41641, 32.38797], [47.68476, 32.4572], [47.82245, 32.41322], [47.93887, 32.36756], [48.05155, 32.31491], [48.15957, 32.25296], [48.26194, 32.17933], [48.3807, 32.06694], [48.4795, 31.94073], [48.5608, 31.80172], [48.62482, 31.6545], [48.6734, 31.50078], [48.70735, 31.34379], [48.7273, 31.18794], [48.734, 31.03539], [48.72635, 30.87729], [48.70555, 30.7056], [48.67755, 30.54093], [48.68352, 30.53408], [48.76319, 30.51043], [48.83335, 30.47508], [48.86567, 30.45269], [48.91749, 30.40469], [48.88014, 30.37458], [48.86736, 30.3581], [48.86232, 30.34561], [48.87369, 30.33665], [48.85963, 30.31623], [48.86703, 30.29475], [48.92114, 30.25043], [48.93608, 30.2098], [48.94162, 30.16484], [48.92799, 30.12067], [48.93481, 30.07974], [48.92855, 30.06001], [48.91544, 30.04238], [48.89722, 30.02946], [48.87672, 30.02449], [48.80885, 30.03144], [48.79135, 30.02449], [48.77198, 30.03238], [48.702, 30.03194], [48.65952, 30.05223], [48.64332, 30.05541], [48.64064, 30.03807], [48.65893, 30.00727], [48.66162, 29.99348], [48.65137, 29.97501], [48.63379, 29.96305], [48.61085, 29.95703], [48.53745, 29.96304], [48.53745, 29.96988], [48.53077, 29.9562], [48.55494, 29.95649], [48.55924, 29.9466], [48.54688, 29.93473], [48.52029, 29.92892], [48.41159, 29.93851], [48.33547, 29.96142], [48.29957, 29.98452], [48.26466, 29.99397], [48.20924, 30.02448], [48.16578, 30.03754], [48.11915, 30.04499], [48.07634, 30.04564], [48.03826, 30.03685], [47.96901, 30.00407], [47.95167, 30.08832], [47.93482, 30.10708], [47.9485, 30.06232], [47.94093, 30.02652], [47.9485, 30.01765], [47.94801, 29.99405], [47.97532, 29.94232], [47.98268, 29.86066], [47.99562, 29.8277], [48.02174, 29.77973], [48.05242, 29.74299], [48.07887, 29.74395], [48.11915, 29.65453], [48.16129, 29.60162], [48.18087, 29.562], [48.17675, 29.54192], [48.15452, 29.5391], [48.09211, 29.56662], [48.08595, 29.57502], [48.02386, 29.58481], [47.96553, 29.5763], [47.95113, 29.5655], [47.91192, 29.56673], [47.83585, 29.5786], [47.74116, 29.60841], [47.68295, 29.63245], [47.58498, 29.68133], [47.51688, 29.72392], [47.57675, 29.7726], [47.57973, 29.77916], [47.56808, 29.84942], [47.56305, 29.86241], [47.55776, 30.09828], [47.41579, 30.09822], [47.35822, 30.09212], [47.33946, 30.08539], [47.22718, 30.29396], [47.03839, 30.38947], [46.83702, 30.47977], [46.74671, 30.51444], [46.59042, 30.5611], [46.45905, 30.58216], [46.34128, 30.58504], [46.16608, 30.57513], [46.0822, 30.58203], [45.99489, 30.59958], [45.9048, 30.62633], [45.81283, 30.6609], [45.71989, 30.70189], [45.62573, 30.74843], [45.43698, 30.85286], [45.27763, 30.95161], [45.12685, 31.05537], [44.98305, 31.16259], [44.44919, 31.59152], [44.12298, 31.83774], [43.80012, 32.08671], [43.35604, 32.41096], [43.12377, 32.56944], [42.88497, 32.72513], [42.39097, 33.02797], [41.42082, 33.57793], [41.1926, 33.71625], [40.97427, 33.86671], [40.77277, 34.03313], [40.59507, 34.21934], [40.44828, 34.42885], [40.33898, 34.66615], [40.29303, 34.78327], [40.23913, 34.89117], [40.17613, 34.98871], [40.10128, 35.07714], [40.01219, 35.15606], [39.91013, 35.2226], [39.79188, 35.27771], [39.65352, 35.3215], [39.50071, 35.35018], [39.34532, 35.36454], [39.03003, 35.3764], [38.87489, 35.38679], [38.72481, 35.40869], [38.58086, 35.44865], [38.44521, 35.51313], [38.28842, 35.63667], [38.19207, 35.77528], [38.15123, 35.92201], [38.16087, 36.06958], [38.21601, 36.21052]]]]}}]}