{"type": "FeatureCollection", "features": [{"type": "Feature", "properties": {"name": "바빌론", "name_en": "Babylon", "category": "수도", "year": "", "coord_source": "실제 위치", "map_lon": 44.42, "map_lat": 32.54002, "legend": "바빌론", "map_title": "메소포타미아 문명의 영역", "source": "미래엔 세계사 교과서 1권 16쪽", "volume": 1, "page": 16}, "geometry": {"type": "Point", "coordinates": [44.4209, 32.5364]}}, {"type": "Feature", "properties": {"name": "우르", "name_en": "Ur", "category": "도시", "year": "", "coord_source": "실제 위치", "map_lon": 46.09991, "map_lat": 30.96005, "legend": "우르", "map_title": "메소포타미아 문명의 영역", "source": "미래엔 세계사 교과서 1권 16쪽", "volume": 1, "page": 16}, "geometry": {"type": "Point", "coordinates": [46.103, 30.9626]}}, {"type": "Feature", "properties": {"name": "라가시", "name_en": "Lagash", "category": "도시", "year": "", "coord_source": "실제 위치", "map_lon": 46.40024, "map_lat": 31.40981, "legend": "라가시", "map_title": "메소포타미아 문명의 영역", "source": "미래엔 세계사 교과서 1권 16쪽", "volume": 1, "page": 16}, "geometry": {"type": "Point", "coordinates": [46.4058, 31.4106]}}]}