{"type": "FeatureCollection", "features": [{"type": "Feature", "properties": {"name": "프랑스령 서아프리카", "name_en": "French West Africa", "period": "1913년경", "kind": "식민지", "legend": "(프랑스령)", "map_title": "제국주의 열강의 아프리카 분할(1913년경)", "source": "미래엔 세계사 교과서 3권 156쪽", "volume": 3, "page": 156, "note": "프랑스령 · 지도에 이름 표기 없음 — 색과 위치로 이름을 붙임", "coast_snap": "Natural Earth 10m 해안선에 맞춤", "border_snap": "현대 국경(Natural Earth 10m)에 맞춘 구간 약 4400 km", "group": "프랑스령 서아프리카", "map_folder": "3권_p156_제국주의 열강의 아프리카 분할(1913년경)"}, "geometry": {"type": "MultiPolygon", "coordinates": [[[[-16.01472, 11.82404], [-16.02934, 11.76938], [-16.04141, 11.75513], [-16.05167, 11.76219], [-16.08361, 11.75512], [-16.09625, 11.76293], [-16.12116, 11.79979], [-16.1328, 11.80549], [-16.15477, 11.80778], [-16.1655, 11.87124], [-16.14785, 11.87726], [-16.08784, 11.87205], [-16.03523, 11.89297], [-16.03697, 11.89923], [-15.99487, 11.8991], [-15.9856, 11.88743], [-15.9891, 11.86152], [-16.01472, 11.82404]]], [[[-16.31339, 19.70466], [-16.3316, 19.68799], [-16.39439, 19.6001], [-16.39768, 19.59993], [-16.39261, 19.61735], [-16.35839, 19.67765], [-16.32091, 19.72849], [-16.30956, 19.73077], [-16.30164, 19.72257], [-16.31339, 19.70466]]], [[[-16.47716, 19.7315], [-16.46961, 19.72996], [-16.47155, 19.69965], [-16.48424, 19.67773], [-16.49184, 19.68407], [-16.49689, 19.70551], [-16.49092, 19.72518], [-16.47716, 19.7315]]], [[[-16.33683, 19.8557], [-16.36706, 19.7211], [-16.39234, 19.65836], [-16.43249, 19.60128], [-16.45294, 19.62922], [-16.45018, 19.65648], [-16.46398, 19.68464], [-16.45714, 19.70336], [-16.42626, 19.74897], [-16.42628, 19.78666], [-16.41819, 19.8056], [-16.40538, 19.8211], [-16.39094, 19.82611], [-16.3778, 19.81354], [-16.35838, 19.85317], [-16.34594, 19.86834], [-16.33683, 19.8557]]], [[[-16.53935, 19.93068], [-16.51945, 19.93707], [-16.51697, 19.91255], [-16.53875, 19.90788], [-16.53935, 19.93068]]], [[[-16.46123, 20.61358], [-16.45068, 20.61253], [-16.44641, 20.60732], [-16.44812, 20.57454], [-16.45417, 20.57112], [-16.46726, 20.57625], [-16.47422, 20.59418], [-16.4691, 20.60907], [-16.46123, 20.61358]]], [[[-17.01586, 21.03124], [-17.00841, 21.01337], [-16.99717, 21.01828], [-17.00439, 20.93244], [-17.0086, 20.92386], [-17.04125, 20.91136], [-17.04943, 20.90351], [-17.05012, 20.89476], [-17.03577, 20.87677], [-17.02792, 20.85405], [-17.03855, 20.7995], [-17.04695, 20.77782], [-17.05687, 20.76693], [-17.06835, 20.79247], [-17.1002, 20.8376], [-17.10463, 20.86249], [-17.09263, 20.89896], [-17.09035, 20.96205], [-17.06786, 21.03091], [-17.06172, 21.07531], [-16.98532, 21.0699], [-17.01586, 21.03124]]], [[[-12.62141, 7.63971], [-12.6007, 7.63816], [-12.58133, 7.63016], [-12.59585, 7.61274], [-12.58605, 7.60761], [-12.54752, 7.60894], [-12.52966, 7.60382], [-12.51518, 7.59468], [-12.49301, 7.56802], [-12.50438, 7.56102], [-12.49914, 7.52021], [-12.50183, 7.50239], [-12.52644, 7.46556], [-12.52745, 7.44969], [-12.51888, 7.41657], [-12.51965, 7.40412], [-12.53256, 7.39245], [-12.54967, 7.38965], [-12.56578, 7.39566], [-12.57484, 7.41034], [-12.55443, 7.41035], [-12.58556, 7.45991], [-12.60554, 7.47866], [-12.73157, 7.51124], [-12.76439, 7.52798], [-12.84948, 7.54074], [-12.93474, 7.56351], [-12.95011, 7.57579], [-12.9143, 7.58442], [-12.9103, 7.59808], [-12.89805, 7.61073], [-12.84497, 7.62248], [-12.73567, 7.62255], [-12.68114, 7.63466], [-12.62141, 7.63971]]], [[[-15.69976, 11.30575], [-15.65845, 11.30267], [-15.66153, 11.28461], [-15.65649, 11.25169], [-15.65845, 11.2338], [-15.66344, 11.2299], [-15.67882, 11.25414], [-15.69319, 11.25552], [-15.69319, 11.24803], [-15.6857, 11.24803], [-15.6857, 11.2412], [-15.69865, 11.22086], [-15.70621, 11.21452], [-15.71451, 11.22492], [-15.7268, 11.22077], [-15.72034, 11.19562], [-15.7268, 11.16611], [-15.7342, 11.17915], [-15.75402, 11.17915], [-15.76383, 11.16793], [-15.7733, 11.17309], [-15.78196, 11.20026], [-15.75951, 11.22187], [-15.77512, 11.22753], [-15.77513, 11.23379], [-15.75402, 11.25552], [-15.75401, 11.27594], [-15.73668, 11.27554], [-15.72353, 11.29901], [-15.69976, 11.30575]]], [[[-15.88062, 11.28073], [-15.85708, 11.30267], [-15.83117, 11.30295], [-15.82593, 11.29285], [-15.83654, 11.25552], [-15.83756, 11.21402], [-15.84484, 11.20344], [-15.88682, 11.26789], [-15.88062, 11.28073]]], [[[-15.65803, 11.4877], [-15.65161, 11.48821], [-15.65844, 11.47394], [-15.65277, 11.46586], [-15.67955, 11.44043], [-15.6857, 11.45352], [-15.69319, 11.45352], [-15.70467, 11.4427], [-15.72085, 11.4427], [-15.73509, 11.44987], [-15.74038, 11.46035], [-15.73546, 11.46942], [-15.71369, 11.46776], [-15.70051, 11.48339], [-15.69318, 11.50188], [-15.6857, 11.49445], [-15.66527, 11.50872], [-15.66007, 11.50186], [-15.66527, 11.49445], [-15.65803, 11.4877]]], [[[-15.9309, 11.57868], [-15.92243, 11.57803], [-15.91844, 11.59123], [-15.90609, 11.57843], [-15.90929, 11.5517], [-15.89803, 11.54287], [-15.91039, 11.52269], [-15.91344, 11.49836], [-15.9088, 11.47386], [-15.89804, 11.45352], [-15.92717, 11.44137], [-15.92663, 11.46187], [-15.93171, 11.46849], [-16.00363, 11.48098], [-16.04404, 11.49338], [-16.02625, 11.51227], [-16.02213, 11.51215], [-16.01149, 11.54997], [-16.00132, 11.56903], [-15.97492, 11.58344], [-15.95226, 11.60675], [-15.93961, 11.60492], [-15.93839, 11.58906], [-15.9309, 11.57868]]], [[[-15.56969, 11.54971], [-15.56969, 11.54287], [-15.54842, 11.53514], [-15.55224, 11.51952], [-15.56631, 11.5105], [-15.57584, 11.52241], [-15.58736, 11.51938], [-15.61693, 11.52582], [-15.62173, 11.52246], [-15.63027, 11.52901], [-15.63295, 11.53823], [-15.60741, 11.55012], [-15.58568, 11.57753], [-15.56224, 11.57697], [-15.56028, 11.59219], [-15.52871, 11.62481], [-15.51183, 11.62043], [-15.47351, 11.63226], [-15.47395, 11.6186], [-15.48493, 11.60708], [-15.48778, 11.59467], [-15.47266, 11.57343], [-15.47168, 11.56616], [-15.49083, 11.56339], [-15.5034, 11.56518], [-15.51207, 11.57148], [-15.52131, 11.57022], [-15.54235, 11.54972], [-15.56969, 11.54971]]], [[[-16.94769, 15.1581], [-16.87824, 15.2331], [-16.73932, 15.47214], [-16.66967, 15.56184], [-16.53429, 15.78437], [-16.54234, 15.80883], [-16.52733, 15.97736], [-16.5392, 16.26724], [-16.52927, 16.33271], [-16.4945, 16.4016], [-16.48614, 16.45172], [-16.46715, 16.49286], [-16.46718, 16.60025], [-16.45926, 16.64373], [-16.37921, 16.84083], [-16.35782, 16.87466], [-16.34308, 16.94229], [-16.32599, 16.97524], [-16.27807, 17.04072], [-16.19254, 17.21931], [-16.18667, 17.24384], [-16.1726, 17.26236], [-16.07897, 17.54483], [-16.04898, 17.66718], [-16.0414, 17.8001], [-16.02416, 17.96015], [-16.03523, 18.14142], [-16.06941, 18.48404], [-16.08056, 18.51972], [-16.13197, 18.62865], [-16.15567, 18.75251], [-16.17295, 18.79312], [-16.16397, 18.81684], [-16.1656, 18.84418], [-16.20458, 18.98273], [-16.23892, 19.06102], [-16.28279, 19.13044], [-16.36828, 19.2215], [-16.38646, 19.2246], [-16.41185, 19.23924], [-16.45091, 19.2502], [-16.46718, 19.25927], [-16.50475, 19.35], [-16.53546, 19.3808], [-16.52184, 19.39642], [-16.46373, 19.38154], [-16.40779, 19.38923], [-16.3592, 19.41584], [-16.32323, 19.45791], [-16.2849, 19.52928], [-16.28588, 19.54271], [-16.29914, 19.54702], [-16.30728, 19.54361], [-16.36291, 19.48583], [-16.39144, 19.46409], [-16.35049, 19.54662], [-16.36465, 19.53925], [-16.40518, 19.50715], [-16.42626, 19.48249], [-16.43419, 19.45954], [-16.42895, 19.44172], [-16.43994, 19.41324], [-16.45483, 19.40828], [-16.46507, 19.41255], [-16.46885, 19.43122], [-16.46718, 19.46405], [-16.45774, 19.47967], [-16.43163, 19.50593], [-16.42251, 19.54385], [-16.38463, 19.57392], [-16.28913, 19.71113], [-16.27082, 19.7259], [-16.26426, 19.76284], [-16.2338, 19.79365], [-16.23595, 19.8133], [-16.24802, 19.82783], [-16.23518, 19.84243], [-16.23379, 19.86196], [-16.25487, 19.84831], [-16.25779, 19.86416], [-16.24348, 19.88874], [-16.24804, 19.9029], [-16.26651, 19.91372], [-16.27916, 19.90522], [-16.28914, 19.88248], [-16.30557, 19.87304], [-16.31272, 19.87764], [-16.31329, 19.88971], [-16.29796, 19.92251], [-16.23908, 19.97919], [-16.22248, 20.00357], [-16.21398, 20.03327], [-16.21837, 20.05793], [-16.26112, 20.13568], [-16.23961, 20.13813], [-16.21166, 20.1756], [-16.1997, 20.21516], [-16.20226, 20.2333], [-16.23762, 20.28998], [-16.26748, 20.29825], [-16.27514, 20.31704], [-16.29506, 20.33056], [-16.32323, 20.39639], [-16.34788, 20.41755], [-16.35048, 20.42743], [-16.338, 20.43549], [-16.33996, 20.44107], [-16.39118, 20.56948], [-16.40103, 20.58324], [-16.41567, 20.58878], [-16.42389, 20.60127], [-16.42956, 20.64423], [-16.44668, 20.63655], [-16.46718, 20.64961], [-16.46716, 20.65706], [-16.40868, 20.67504], [-16.42935, 20.67756], [-16.46467, 20.67194], [-16.48082, 20.67513], [-16.49448, 20.69115], [-16.48705, 20.69798], [-16.50133, 20.72598], [-16.52929, 20.73896], [-16.53628, 20.69538], [-16.52844, 20.59862], [-16.54235, 20.56088], [-16.55248, 20.5764], [-16.59885, 20.61093], [-16.62116, 20.64647], [-16.67267, 20.67756], [-16.67344, 20.68895], [-16.65901, 20.69798], [-16.67113, 20.73713], [-16.71019, 20.77001], [-16.71369, 20.79621], [-16.73411, 20.82152], [-16.74543, 20.8686], [-16.76887, 20.90663], [-16.77505, 20.93765], [-16.78869, 20.92399], [-16.8032, 20.93745], [-16.81664, 20.98603], [-16.84026, 21.00935], [-16.84238, 21.01747], [-16.77632, 20.96755], [-16.75164, 20.94169], [-16.69656, 20.86693], [-16.68181, 20.85871], [-16.59705, 20.83935], [-16.46477, 20.82872], [-16.19057, 20.83466], [-16.15301, 20.83169], [-16.11546, 20.8252], [-16.05276, 20.80557], [-16.03016, 20.73074], [-16.02528, 20.67589], [-15.97579, 20.55001], [-15.92446, 20.49844], [-14.34326, 20.67417], [-14.20083, 20.91879], [-14.1947, 21.33329], [-14.12148, 21.3333], [-14.12666, 21.76893], [-14.45991, 22.0401], [-14.43992, 22.08015], [-14.37984, 22.1202], [-14.31005, 22.19051], [-14.22019, 22.30965], [-14.20996, 22.37019], [-14.1899, 22.45026], [-14.1899, 22.58991], [-14.16991, 22.75985], [-14.15108, 22.82953], [-13.71629, 22.74232], [-13.62625, 22.83506], [-13.60835, 22.84108], [-13.16152, 22.77297], [-13.15229, 22.82], [-13.11989, 22.88354], [-13.01525, 23.018], [-12.75575, 23.18374], [-13.00217, 23.52677], [-12.98483, 23.70021], [-13.31001, 23.98055], [-13.22996, 24.0899], [-13.1201, 24.29986], [-13.06003, 24.40048], [-12.99018, 24.4698], [-12.91014, 24.51959], [-12.70994, 24.62997], [-12.62984, 24.67976], [-12.56003, 24.73053], [-12.8232, 25.06718], [-12.74874, 25.69022], [-12.61347, 25.71439], [-12.17293, 25.62762], [-12.12985, 25.73055], [-12.10544, 25.81215], [-12.01531, 25.80593], [-12.01531, 25.9949], [-9.74988, 25.99496], [-9.75219, 26.41077], [-9.74883, 26.44617], [-9.81318, 26.85016], [-9.73436, 26.86043], [-9.56884, 26.99029], [-9.48631, 27.04988], [-9.41206, 27.08796], [-9.35201, 27.09773], [-9.20747, 27.09969], [-9.08345, 27.08992], [-9.0472, 27.08993], [-8.68163, 26.7563], [-8.68108, 26.28786], [-8.21692, 26.27463], [-7.72376, 25.97654], [-7.06406, 25.58683], [-6.73499, 25.3888], [-6.59311, 24.99413], [-5.40783, 24.99477], [-5.38923, 24.58068], [-4.33263, 23.96787], [-3.23776, 23.28479], [-2.04226, 22.54855], [-1.0177, 21.90585], [0.11739, 21.20936], [0.15032, 20.88131], [0.15447, 20.87469], [0.98466, 20.34061], [1.24561, 20.24711], [1.64923, 20.41209], [1.65915, 20.39752], [1.77811, 20.30429], [1.7992, 20.29489], [1.85501, 20.29484], [1.87061, 20.28354], [1.88033, 20.26305], [1.88384, 20.24414], [1.89139, 20.23179], [1.9134, 20.23109], [1.92425, 20.23613], [1.9412, 20.25112], [1.95526, 20.25491], [1.96715, 20.25342], [1.9934, 20.23595], [2.05634, 20.21505], [2.07122, 20.21326], [2.09747, 20.22419], [2.13819, 20.26073], [2.16135, 20.27494], [2.18243, 20.2785], [2.20083, 20.27391], [2.21819, 20.26409], [2.27958, 20.21794], [2.31648, 20.18016], [2.34821, 20.13764], [2.38872, 20.06741], [2.4004, 20.05655], [2.45931, 20.03878], [2.49538, 20.0201], [2.35541, 19.61871], [2.34963, 19.06842], [2.35619, 19.05975], [2.67032, 19.11153], [3.10333, 19.14551], [3.10413, 19.13553], [3.12087, 19.11281], [3.13875, 19.09604], [3.17979, 19.07], [3.22598, 19.05106], [3.28489, 18.99574], [3.31838, 18.97771], [3.35869, 18.97685], [3.43972, 18.99564], [4.23505, 19.14348], [5.35012, 19.35726], [5.28082, 19.76366], [6.06961, 20.44785], [7.04758, 21.27324], [7.77344, 21.74836], [8.50408, 22.22024], [9.73681, 22.91675], [10.03451, 23.0825], [10.60225, 23.39163], [11.32402, 23.77966], [11.72858, 23.96572], [11.90268, 23.64085], [12.10862, 23.48612], [13.48226, 23.17967], [13.59956, 23.11903], [13.97464, 22.81015], [14.27837, 23.11053], [14.60826, 23.26605], [14.81267, 22.91124], [14.62599, 22.81695], [15.05201, 22.61941], [15.17202, 21.99339], [15.1804, 21.50727], [15.18453, 21.4912], [15.20024, 21.47647], [15.24747, 21.45326], [15.26659, 21.44066], [15.30101, 21.40133], [15.60931, 20.95066], [15.569, 20.9289], [15.5443, 20.8903], [15.53603, 20.84405], [15.5442, 20.79899], [15.57024, 20.75191], [15.58812, 20.73279], [15.66946, 20.67187], [15.95399, 20.37457], [15.96815, 20.35282], [15.97032, 20.33633], [15.96298, 20.31923], [15.76723, 19.98204], [15.73602, 19.90354], [15.47195, 16.91675], [15.46555, 16.89468], [15.45242, 16.87623], [14.36897, 15.74963], [13.83392, 15.0196], [13.76053, 14.86636], [13.75516, 14.84721], [13.75392, 14.82594], [13.75795, 14.80553], [13.77201, 14.76287], [13.77325, 14.74251], [13.76436, 14.71908], [13.74916, 14.71125], [13.70999, 14.70512], [13.66809, 14.66288], [13.64473, 14.64425], [13.66033, 14.62373], [13.66674, 14.58552], [13.6656, 14.56689], [13.65785, 14.54872], [13.62426, 14.52131], [13.58437, 14.51382], [13.54386, 14.51056], [13.48226, 14.48359], [13.44949, 14.43904], [13.44918, 14.38013], [13.48226, 14.25978], [13.55269, 13.94696], [13.36683, 13.71413], [13.32992, 13.70942], [13.32072, 13.70229], [13.32123, 13.68511], [13.26615, 13.63803], [13.25385, 13.61891], [13.26005, 13.60214], [13.25726, 13.59424], [13.23948, 13.59158], [13.23018, 13.57775], [13.23225, 13.57289], [13.2464, 13.57109], [13.22811, 13.54804], [13.20393, 13.53938], [13.17695, 13.53447], [13.15018, 13.52266], [13.15587, 13.54078], [13.1537, 13.54876], [13.14398, 13.55062], [13.1384, 13.54654], [13.13096, 13.52982], [13.12352, 13.52266], [13.12352, 13.53695], [13.10709, 13.53155], [13.08828, 13.5306], [13.07701, 13.53468], [13.08249, 13.54439], [13.08249, 13.55062], [13.05489, 13.54837], [13.02926, 13.53918], [12.93934, 13.49507], [12.91175, 13.4899], [12.88384, 13.496], [12.87971, 13.47969], [12.87061, 13.47887], [12.8423, 13.48913], [12.8423, 13.48168], [12.85759, 13.47533], [12.8702, 13.46125], [12.82927, 13.42029], [12.82927, 13.40662], [12.81501, 13.40662], [12.79455, 13.39606], [12.80519, 13.37298], [12.79114, 13.37185], [12.77739, 13.3867], [12.76654, 13.36567], [12.7408, 13.33482], [12.72437, 13.32229], [12.69006, 13.31198], [12.68313, 13.28893], [12.67435, 13.28371], [12.65916, 13.28661], [12.63001, 13.31038], [12.6268, 13.28826], [12.62019, 13.28144], [12.60613, 13.27423], [12.60272, 13.27999], [12.56107, 13.24276], [12.55818, 13.22653], [12.53833, 13.19336], [12.55425, 13.18754], [12.54795, 13.16545], [12.53451, 13.14592], [12.50433, 13.13961], [12.49978, 13.13597], [12.49121, 13.08264], [12.48666, 13.07081], [12.47271, 13.06416], [12.41431, 13.07763], [12.35158, 13.0798], [12.33525, 13.08447], [12.32574, 13.07882], [12.30104, 13.09812], [12.29153, 13.09682], [12.27716, 13.08447], [12.2692, 13.08587], [12.26321, 13.10186], [12.20141, 13.12543], [12.18476, 13.12209], [12.16378, 13.10796], [12.11645, 13.10285], [12.05764, 13.11677], [12.038, 13.12636], [11.99191, 13.16209], [11.8528, 13.24539], [11.74231, 13.28945], [11.44, 13.36443], [10.953, 13.3619], [10.77131, 13.3827], [10.67499, 13.3751], [10.16153, 13.2672], [10.11977, 13.2501], [9.93012, 13.14597], [9.91245, 13.1292], [9.89974, 13.08432], [9.89178, 13.07623], [9.87204, 13.07256], [9.85281, 13.06044], [9.81933, 13.02921], [9.64073, 12.82253], [9.61149, 12.80294], [9.5903, 12.80139], [9.37791, 12.82578], [9.35982, 12.82459], [9.30649, 12.80984], [9.26939, 12.80979], [8.94279, 12.8472], [8.67935, 12.92358], [8.64265, 12.94435], [8.6255, 12.96479], [8.59677, 13.0114], [8.57723, 13.03244], [8.53351, 13.06463], [8.50964, 13.07592], [8.48267, 13.08155], [8.44597, 13.07871], [8.419, 13.0667], [8.40515, 13.07086], [8.29797, 13.16462], [8.25984, 13.20522], [8.20144, 13.22638], [8.16765, 13.25237], [8.14005, 13.26911], [8.10512, 13.29965], [8.07752, 13.31002], [7.824, 13.34528], [7.78968, 13.34198], [7.75558, 13.32715], [7.39198, 13.11253], [7.36067, 13.10264], [7.3248, 13.10285], [7.22052, 13.12158], [7.1982, 13.11739], [7.13742, 13.04724], [7.09009, 13.00639], [7.06869, 12.99608], [7.04492, 12.99221], [6.97051, 12.99184], [6.93713, 12.99541], [6.90664, 13.00686], [6.87418, 13.0305], [6.83791, 13.06349], [6.77869, 13.13029], [6.67254, 13.32118], [6.5093, 13.49605], [6.36894, 13.62628], [6.30218, 13.66384], [6.22983, 13.67919], [6.21061, 13.67526], [6.15283, 13.64356], [6.1424, 13.64082], [6.12038, 13.65408], [5.55432, 13.87342], [5.52176, 13.88029], [5.37407, 13.85525], [5.34627, 13.84156], [5.3348, 13.8267], [5.31805, 13.78994], [5.3042, 13.77394], [5.27351, 13.75252], [5.22762, 13.74133], [5.08437, 13.74753], [4.98319, 13.72968], [4.92511, 13.73309], [4.90237, 13.74299], [4.87984, 13.76402], [4.85689, 13.7741], [4.82485, 13.77074], [4.50673, 13.69467], [4.45257, 13.67377], [4.40576, 13.64124], [4.31477, 13.55619], [4.61154, 13.25417], [5.34497, 12.58377], [5.61296, 12.32538], [5.7387, 12.18902], [5.85458, 12.04659], [5.95621, 11.89857], [6.04067, 11.74344], [6.09898, 11.59733], [6.12699, 11.49672], [6.14538, 11.39363], [6.15695, 11.24431], [6.16874, 10.76352], [6.18035, 10.57141], [6.21402, 10.33374], [6.28353, 9.98363], [6.31876, 9.7477], [6.35777, 8.97185], [6.3602, 8.8413], [6.35096, 8.71768], [6.33255, 8.59919], [6.30745, 8.48374], [6.21704, 8.13463], [6.19013, 8.01033], [6.09997, 7.47351], [6.07037, 7.33781], [6.03376, 7.20679], [5.98841, 7.08432], [5.93184, 6.97203], [5.83166, 6.81706], [5.77988, 6.74764], [5.66867, 6.61854], [5.60785, 6.55672], [5.45038, 6.41203], [5.32929, 6.27856], [5.28172, 6.24107], [5.25048, 6.22645], [5.25082, 6.16377], [5.24089, 6.09421], [5.21752, 6.02757], [5.20085, 5.99594], [5.15914, 5.93914], [5.10752, 5.89192], [5.04732, 5.8555], [5.01126, 5.84063], [4.88592, 6.00654], [4.86549, 6.02562], [4.82619, 6.04256], [4.80796, 6.06306], [4.78273, 6.10253], [4.74781, 6.13886], [4.71705, 6.16364], [4.60874, 6.23177], [4.54737, 6.28905], [4.50904, 6.31354], [4.40553, 6.35887], [4.12582, 6.41035], [3.87029, 6.43163], [3.44385, 6.41036], [3.42116, 6.41402], [3.38494, 6.44452], [3.40105, 6.45098], [3.41285, 6.44453], [3.42848, 6.45871], [3.43424, 6.45335], [3.4402, 6.42341], [3.47536, 6.45554], [3.48121, 6.45477], [3.48463, 6.44685], [3.49244, 6.44648], [3.54135, 6.45482], [3.55681, 6.46296], [3.57057, 6.47871], [3.57082, 6.50934], [3.58082, 6.51283], [3.62135, 6.51284], [3.68678, 6.53106], [3.70021, 6.52709], [3.74269, 6.5478], [3.75685, 6.56379], [3.76223, 6.58514], [3.85792, 6.6022], [3.844, 6.61083], [3.83058, 6.60904], [3.77369, 6.62238], [3.71746, 6.60114], [3.66361, 6.57014], [3.61524, 6.5544], [3.58668, 6.55288], [3.55137, 6.53411], [3.51531, 6.5271], [3.50025, 6.53392], [3.48805, 6.53328], [3.47853, 6.54145], [3.47333, 6.56663], [3.48121, 6.6022], [3.45192, 6.58177], [3.42994, 6.55782], [3.40235, 6.55215], [3.39861, 6.54385], [3.40594, 6.51263], [3.38123, 6.46183], [3.3698, 6.45002], [3.38948, 6.42], [3.38452, 6.3977], [3.32618, 6.39143], [3.2142, 6.39671], [3.08237, 6.3815], [2.92775, 6.38911], [2.30698, 6.33149], [2.22658, 6.31364], [1.88453, 6.27481], [1.61914, 6.21378], [1.42954, 6.18195], [1.27101, 6.13373], [1.19978, 6.10262], [1.1784, 6.09797], [1.13307, 6.07363], [1.09881, 6.04702], [1.04803, 5.99266], [1.01173, 5.92626], [0.99519, 5.83912], [0.98657, 5.82075], [0.95484, 5.79109], [0.91415, 5.77706], [0.72348, 5.75545], [0.36492, 5.78148], [0.32195, 5.7792], [0.28598, 5.76887], [0.27589, 5.76017], [0.25172, 5.7591], [0.22437, 5.74263], [0.1574, 5.72456], [0.11459, 5.68867], [0.07569, 5.67756], [0.03451, 5.62837], [-0.04503, 5.60163], [-0.0686, 5.58122], [-0.09325, 5.57665], [-0.30765, 5.50746], [-0.3531, 5.50169], [-0.37157, 5.49274], [-0.44506, 5.43138], [-0.45813, 5.40474], [-0.47175, 5.39072], [-0.50744, 5.36885], [-0.58935, 5.35151], [-0.61287, 5.33203], [-0.62926, 5.32679], [-0.63777, 5.34089], [-0.68953, 5.30476], [-0.7023, 5.29999], [-0.76073, 5.25218], [-0.7845, 5.22428], [-0.79955, 5.21484], [-0.8741, 5.20402], [-0.89684, 5.20503], [-0.91149, 5.218], [-0.91829, 5.20943], [-0.92754, 5.20619], [-0.97677, 5.19832], [-0.98839, 5.19881], [-0.99706, 5.21678], [-1.01733, 5.20442], [-1.04979, 5.19868], [-1.15412, 5.15388], [-1.17389, 5.13043], [-1.23364, 5.10075], [-1.25433, 5.0965], [-1.31924, 5.09455], [-1.36401, 5.07344], [-1.40494, 5.07343], [-1.45971, 5.04976], [-1.52929, 5.03986], [-1.55187, 5.0314], [-1.56949, 5.0188], [-1.58385, 5.02538], [-1.60147, 5.02668], [-1.61848, 5.02245], [-1.63085, 5.01264], [-1.63244, 5.00454], [-1.62549, 4.98949], [-1.63385, 4.97463], [-1.71882, 4.92768], [-1.74767, 4.8959], [-1.74862, 4.87719], [-1.83544, 4.85513], [-1.9121, 4.82087], [-1.96747, 4.75804], [-2.06384, 4.7382], [-2.09658, 4.73848], [-2.10393, 4.74527], [-2.10798, 4.77558], [-2.15537, 4.78609], [-2.15437, 4.79068], [-2.16373, 4.80052], [-2.20629, 4.83446], [-2.23704, 4.8492], [-2.25276, 4.87914], [-2.3566, 4.91962], [-2.52605, 4.9545], [-2.69042, 5.0102], [-2.82109, 5.02012], [-2.96472, 5.04527], [-3.10375, 5.08771], [-3.16381, 5.10155], [-3.26207, 5.111], [-3.27634, 5.11811], [-3.27233, 5.13239], [-3.23412, 5.16347], [-3.20739, 5.15664], [-3.20032, 5.15179], [-3.19319, 5.13614], [-3.1634, 5.12547], [-3.15514, 5.12786], [-3.1317, 5.10814], [-3.11832, 5.107], [-3.08764, 5.11497], [-3.0161, 5.11445], [-2.9945, 5.10814], [-2.97094, 5.08088], [-2.92634, 5.09455], [-2.92901, 5.12201], [-2.90123, 5.1336], [-2.86531, 5.13931], [-2.8437, 5.14912], [-2.84618, 5.17699], [-2.87938, 5.18134], [-2.94669, 5.17707], [-2.93848, 5.15693], [-2.94352, 5.13679], [-2.958, 5.12117], [-2.97777, 5.11499], [-3.04608, 5.14401], [-3.06282, 5.15664], [-3.08276, 5.15108], [-3.12238, 5.14997], [-3.13914, 5.14233], [-3.16246, 5.18415], [-3.1809, 5.20319], [-3.20506, 5.21866], [-3.19414, 5.23461], [-3.17272, 5.25218], [-3.16502, 5.29588], [-3.15908, 5.30743], [-3.12792, 5.3249], [-3.12776, 5.35961], [-3.13443, 5.36677], [-3.16275, 5.36884], [-3.18977, 5.35465], [-3.22053, 5.36205], [-3.26207, 5.34089], [-3.24695, 5.29759], [-3.25431, 5.28361], [-3.28262, 5.28018], [-3.2782, 5.26545], [-3.28942, 5.25218], [-3.27306, 5.24116], [-3.24097, 5.2385], [-3.24097, 5.23168], [-3.27579, 5.22549], [-3.29198, 5.21052], [-3.30306, 5.19014], [-3.31359, 5.19725], [-3.32071, 5.19351], [-3.319, 5.1848], [-3.30306, 5.17707], [-3.30899, 5.16376], [-3.30309, 5.15571], [-3.2758, 5.14911], [-3.31217, 5.11995], [-3.37804, 5.1232], [-3.63199, 5.17707], [-3.71037, 5.18619], [-3.72141, 5.19384], [-3.71727, 5.21019], [-3.7189, 5.21703], [-3.72887, 5.22549], [-3.72142, 5.23851], [-3.73965, 5.21711], [-3.74804, 5.19014], [-3.78685, 5.19896], [-3.8275, 5.19759], [-3.88585, 5.22549], [-3.9558, 5.23457], [-3.98705, 5.24396], [-4.00193, 5.2665], [-3.98339, 5.26032], [-3.96231, 5.26244], [-3.94384, 5.2718], [-3.93298, 5.28692], [-3.91128, 5.26187], [-3.9029, 5.25898], [-3.89367, 5.26748], [-3.89952, 5.28692], [-3.85119, 5.26976], [-3.83394, 5.27278], [-3.77538, 5.24478], [-3.7822, 5.26651], [-3.73982, 5.2624], [-3.72887, 5.26651], [-3.71569, 5.28229], [-3.73477, 5.29853], [-3.74184, 5.31054], [-3.7589, 5.3662], [-3.77815, 5.37279], [-3.78897, 5.36886], [-3.80492, 5.37596], [-3.8133, 5.37442], [-3.81697, 5.36547], [-3.81404, 5.35981], [-3.79272, 5.34462], [-3.75235, 5.29458], [-3.73502, 5.28693], [-3.74397, 5.27399], [-3.77627, 5.27904], [-3.7965, 5.27269], [-3.80899, 5.28779], [-3.84431, 5.29317], [-3.86668, 5.30362], [-3.87589, 5.31345], [-3.87841, 5.32665], [-3.892, 5.31364], [-3.89883, 5.32966], [-3.89953, 5.34837], [-3.90632, 5.34837], [-3.91255, 5.32231], [-3.92097, 5.31624], [-3.93297, 5.32046], [-3.95165, 5.31293], [-3.9746, 5.32046], [-4.00935, 5.31362], [-3.99962, 5.30463], [-3.984, 5.30093], [-3.95474, 5.30744], [-3.94055, 5.29315], [-3.97102, 5.27302], [-3.98908, 5.26911], [-4.0609, 5.29955], [-4.07022, 5.29658], [-4.07852, 5.28779], [-4.12548, 5.30744], [-4.16015, 5.2934], [-4.1739, 5.29999], [-4.17968, 5.29418], [-4.18619, 5.29409], [-4.20055, 5.30744], [-4.24104, 5.28393], [-4.25575, 5.28694], [-4.24893, 5.30744], [-4.27457, 5.3124], [-4.28563, 5.31053], [-4.29735, 5.30001], [-4.31383, 5.31122], [-4.32144, 5.31098], [-4.32764, 5.29524], [-4.35131, 5.27271], [-4.37047, 5.28921], [-4.3924, 5.29999], [-4.42381, 5.28157], [-4.4339, 5.29316], [-4.4265, 5.29999], [-4.46353, 5.29825], [-4.47769, 5.29133], [-4.48168, 5.27269], [-4.47216, 5.27749], [-4.46378, 5.2761], [-4.45374, 5.25899], [-4.47277, 5.26337], [-4.54377, 5.26652], [-4.56363, 5.29999], [-4.56969, 5.28254], [-4.55749, 5.27269], [-4.55749, 5.26652], [-4.58918, 5.25658], [-4.61213, 5.23852], [-4.6306, 5.25056], [-4.65197, 5.24917], [-4.68029, 5.23169], [-4.68716, 5.23169], [-4.71447, 5.25218], [-4.70279, 5.25738], [-4.66731, 5.25218], [-4.6726, 5.26805], [-4.68716, 5.27276], [-4.68716, 5.28018], [-4.6704, 5.2919], [-4.66731, 5.31363], [-4.67345, 5.31362], [-4.68578, 5.29059], [-4.70251, 5.27832], [-4.74926, 5.27269], [-4.72216, 5.25227], [-4.74218, 5.23458], [-4.80382, 5.20441], [-4.81005, 5.18993], [-4.80858, 5.18049], [-4.78336, 5.17032], [-4.74767, 5.17235], [-4.73746, 5.17935], [-4.74241, 5.19757], [-4.70474, 5.21132], [-4.69538, 5.20018], [-4.68716, 5.19758], [-4.65453, 5.20941], [-4.60854, 5.21117], [-4.59887, 5.20916], [-4.58479, 5.19758], [-4.55956, 5.19697], [-4.53637, 5.20441], [-4.55883, 5.20417], [-4.56834, 5.20872], [-4.57102, 5.218], [-4.56493, 5.2232], [-4.53036, 5.23162], [-4.53014, 5.218], [-4.52269, 5.218], [-4.5006, 5.22869], [-4.44164, 5.22504], [-4.41284, 5.2385], [-4.40807, 5.22362], [-4.38556, 5.25217], [-4.36726, 5.25168], [-4.33776, 5.24087], [-4.32469, 5.25217], [-4.30582, 5.24457], [-4.22521, 5.26236], [-4.19957, 5.27683], [-4.18383, 5.28018], [-4.06046, 5.28335], [-4.02922, 5.2727], [-4.04857, 5.26618], [-4.07022, 5.26651], [-3.99578, 5.23168], [-4.62051, 5.18073], [-4.78436, 5.14401], [-4.87536, 5.13622], [-4.89265, 5.12866], [-4.91519, 5.13638], [-4.98199, 5.13615], [-4.982, 5.14232], [-4.96898, 5.14232], [-4.96898, 5.14912], [-4.99717, 5.14894], [-5.00376, 5.16059], [-5.00328, 5.17878], [-5.00991, 5.19757], [-4.99706, 5.2128], [-5.00976, 5.21605], [-5.08214, 5.2036], [-5.11229, 5.1833], [-5.12902, 5.1977], [-5.15787, 5.21223], [-5.1914, 5.21922], [-5.22159, 5.21117], [-5.23583, 5.22549], [-5.24205, 5.22549], [-5.25304, 5.21411], [-5.28991, 5.22773], [-5.31094, 5.2255], [-5.32152, 5.23021], [-5.32726, 5.22606], [-5.3282, 5.21646], [-5.32398, 5.20442], [-5.33829, 5.21117], [-5.33829, 5.19758], [-5.33007, 5.1999], [-5.32396, 5.19013], [-5.29736, 5.19757], [-5.29749, 5.18998], [-5.30501, 5.18164], [-5.33829, 5.16348], [-5.33829, 5.18329], [-5.35936, 5.12865], [-5.39289, 5.17707], [-5.40038, 5.17707], [-5.40039, 5.16348], [-5.41393, 5.17032], [-5.399, 5.142], [-5.3579, 5.12352], [-5.30883, 5.11815], [-5.2694, 5.12865], [-5.28547, 5.14077], [-5.32014, 5.13765], [-5.33828, 5.14233], [-5.33829, 5.14912], [-5.31257, 5.15257], [-5.28307, 5.17706], [-5.23546, 5.16132], [-5.22159, 5.1703], [-5.19713, 5.16014], [-5.18692, 5.16425], [-5.18065, 5.17707], [-5.19896, 5.17438], [-5.21378, 5.19302], [-5.22841, 5.19758], [-5.22841, 5.20441], [-5.21475, 5.19758], [-5.18139, 5.20234], [-5.12076, 5.16698], [-5.09496, 5.17373], [-5.08092, 5.18476], [-5.0332, 5.18329], [-5.01488, 5.14008], [-5.00246, 5.12866], [-5.25536, 5.12104], [-5.2943, 5.10604], [-5.49545, 5.09529], [-5.52481, 5.09981], [-5.55053, 5.11498], [-5.57844, 5.09455], [-5.55057, 5.08771], [-5.63008, 5.06327], [-5.85131, 5.02998], [-5.97143, 4.99262], [-5.98843, 4.98387], [-5.9956, 4.97477], [-6.00744, 4.97525], [-6.05972, 4.9558], [-6.13858, 4.91524], [-6.41222, 4.82388], [-6.42077, 4.81713], [-6.42663, 4.802], [-6.44152, 4.79394], [-6.58385, 4.7604], [-6.62682, 4.7246], [-6.75333, 4.68734], [-6.85367, 4.68061], [-6.87951, 4.66793], [-6.90315, 4.66201], [-6.91417, 4.65571], [-6.94214, 4.62158], [-6.99587, 4.5766], [-7.05806, 4.5391], [-7.09919, 4.52653], [-7.17345, 4.51879], [-7.23282, 4.49331], [-7.24523, 4.48493], [-7.25525, 4.46553], [-7.28816, 4.46052], [-7.30603, 4.44547], [-7.35985, 4.41608], [-7.43872, 4.35099], [-7.45678, 4.34407], [-7.52432, 4.35468], [-7.59325, 4.34724], [-7.64444, 4.36152], [-7.71272, 4.36153], [-7.72101, 4.3647], [-7.73323, 4.38203], [-7.74971, 4.38333], [-7.80101, 4.40632], [-7.81232, 4.41609], [-7.83287, 4.45222], [-7.8629, 4.46138], [-7.88683, 4.48017], [-7.91454, 4.48653], [-7.94201, 4.50487], [-8.00316, 4.52351], [-8.0375, 4.52877], [-8.10033, 4.55329], [-8.22181, 4.56803], [-8.25731, 4.57999], [-8.3002, 4.62727], [-8.43854, 4.67618], [-8.54996, 4.75487], [-8.60753, 4.78693], [-8.74734, 4.83786], [-8.77814, 4.85433], [-8.8483, 4.91356], [-8.87434, 4.93012], [-8.93611, 4.95539], [-8.96708, 4.9602], [-9.01459, 4.97836], [-9.03196, 4.99145], [-9.02579, 4.99893], [-9.06982, 5.01107], [-9.10496, 5.03157], [-9.16226, 5.08088], [-9.21275, 5.10742], [-9.24397, 5.13056], [-9.27871, 5.14575], [-9.29197, 5.16348], [-9.27896, 5.16348], [-9.29214, 5.18163], [-9.35407, 5.21118], [-9.47081, 5.32047], [-9.48852, 5.37165], [-9.49747, 5.38939], [-9.50805, 5.3996], [-9.54182, 5.41983], [-9.59365, 5.43034], [-9.59495, 5.44001], [-9.58308, 5.4549], [-9.58072, 5.4645], [-9.59699, 5.48835], [-9.69676, 5.54639], [-9.84211, 5.68545], [-9.97951, 5.79797], [-10.01521, 5.83812], [-10.03994, 5.85433], [-10.04905, 5.87177], [-10.04479, 5.88447], [-10.04621, 5.89643], [-10.05553, 5.91177], [-10.07128, 5.92479], [-10.11513, 5.94342], [-10.18569, 5.9991], [-10.22655, 6.04361], [-10.2799, 6.07697], [-10.29817, 6.08491], [-10.336, 6.09224], [-10.35366, 6.10237], [-10.36411, 6.11567], [-10.36147, 6.12921], [-10.34447, 6.12271], [-10.33357, 6.13605], [-10.35363, 6.14061], [-10.39562, 6.17699], [-10.42813, 6.19701], [-10.44469, 6.20384], [-10.46394, 6.20498], [-10.46394, 6.1975], [-10.41218, 6.17105], [-10.38939, 6.15217], [-10.38197, 6.12926], [-10.39713, 6.14785], [-10.4567, 6.17748], [-10.65941, 6.2275], [-10.78831, 6.29296], [-10.80784, 6.31086], [-10.80036, 6.32781], [-10.79035, 6.31391], [-10.77237, 6.30736], [-10.78905, 6.33495], [-10.79234, 6.35903], [-10.78233, 6.38141], [-10.75939, 6.4042], [-10.78409, 6.40127], [-10.80036, 6.38989], [-10.82433, 6.43773], [-10.85733, 6.47285], [-10.8959, 6.49901], [-11.05362, 6.58417], [-11.23291, 6.64804], [-11.35317, 6.70117], [-11.37486, 6.72688], [-11.37571, 6.76667], [-11.36828, 6.81135], [-11.38195, 6.83682], [-11.38561, 6.84178], [-11.40458, 6.84718], [-11.44088, 6.87312], [-11.47619, 6.91942], [-11.49279, 6.93277], [-11.53409, 6.94221], [-11.58799, 6.97895], [-11.57429, 6.98261], [-11.56749, 6.99262], [-11.59553, 6.99331], [-11.62213, 6.9858], [-11.63122, 7.00825], [-11.69815, 7.06704], [-11.83959, 7.14899], [-12.07379, 7.23361], [-12.31485, 7.32901], [-12.50656, 7.38984], [-12.47618, 7.4151], [-12.4398, 7.41648], [-12.36946, 7.38984], [-12.37589, 7.40502], [-12.40103, 7.41254], [-12.41723, 7.43081], [-12.44652, 7.43911], [-12.46426, 7.42963], [-12.48932, 7.44526], [-12.49241, 7.4536], [-12.47088, 7.491], [-12.42833, 7.53358], [-12.41039, 7.52765], [-12.3994, 7.53286], [-12.36266, 7.53441], [-12.33874, 7.54066], [-12.31481, 7.52766], [-12.29507, 7.53311], [-12.25886, 7.55238], [-12.23225, 7.5537], [-12.23842, 7.56801], [-12.20177, 7.576], [-12.1881, 7.58308], [-12.18383, 7.60273], [-12.218, 7.59591], [-12.22545, 7.60895], [-12.25626, 7.60517], [-12.26278, 7.59065], [-12.26928, 7.58638], [-12.29866, 7.57601], [-12.32771, 7.57319], [-12.40355, 7.54751], [-12.44107, 7.55371], [-12.46354, 7.56193], [-12.47631, 7.6022], [-12.49298, 7.6164], [-12.48522, 7.633], [-12.4855, 7.65054], [-12.50036, 7.63912], [-12.51964, 7.64427], [-12.51965, 7.63009], [-12.54392, 7.65355], [-12.53139, 7.68708], [-12.493, 7.73992], [-12.47126, 7.72626], [-12.465, 7.7331], [-12.47178, 7.75995], [-12.46593, 7.77058], [-12.45197, 7.77408], [-12.47216, 7.78766], [-12.49014, 7.77192], [-12.51964, 7.72626], [-12.56949, 7.69555], [-12.60187, 7.6838], [-12.61644, 7.69522], [-12.71116, 7.71188], [-12.77806, 7.75581], [-12.78722, 7.77428], [-12.7905, 7.79238], [-12.78751, 7.80459], [-12.75984, 7.82185], [-12.7779, 7.819], [-12.82872, 7.7983], [-12.87588, 7.82869], [-12.89859, 7.86571], [-12.92462, 7.87495], [-12.95908, 7.91119], [-12.93944, 7.91511], [-12.9053, 7.9342], [-12.88671, 7.93853], [-12.871, 7.9365], [-12.82128, 7.91743], [-12.88841, 7.97529], [-12.90526, 8.02408], [-12.91176, 8.03067], [-12.89526, 8.07939], [-12.87589, 8.10301], [-12.90806, 8.10742], [-12.92149, 8.11995], [-12.94481, 8.1645], [-12.98106, 8.18623], [-12.98506, 8.21696], [-12.97208, 8.25385], [-12.99961, 8.24014], [-13.0677, 8.23334], [-13.09044, 8.2246], [-13.14273, 8.18976], [-13.15771, 8.1713], [-13.16392, 8.1713], [-13.16393, 8.22964], [-13.1688, 8.26281], [-13.16393, 8.27436], [-13.17564, 8.28377], [-13.21028, 8.33906], [-13.22386, 8.34566], [-13.23103, 8.36384], [-13.26365, 8.40169], [-13.27416, 8.42088], [-13.28676, 8.42451], [-13.26854, 8.4499], [-13.26696, 8.46271], [-13.28676, 8.50022], [-13.25951, 8.49339], [-13.25268, 8.49753], [-13.24584, 8.48656], [-13.22867, 8.49372], [-13.19299, 8.48777], [-13.17757, 8.47914], [-13.165, 8.46515], [-13.1444, 8.43122], [-13.11002, 8.41323], [-13.06037, 8.37271], [-13.03356, 8.3767], [-13.03356, 8.38353], [-13.05626, 8.39118], [-13.06382, 8.39916], [-13.06769, 8.41088], [-13.05407, 8.41088], [-13.05407, 8.41767], [-13.11093, 8.43382], [-13.12559, 8.44904], [-13.11611, 8.47296], [-13.06151, 8.50023], [-13.03995, 8.52675], [-13.02672, 8.5207], [-13.02415, 8.54319], [-13.01305, 8.5617], [-12.90722, 8.54804], [-12.8697, 8.56916], [-12.88805, 8.57307], [-12.92808, 8.57218], [-12.93111, 8.58285], [-12.91194, 8.60684], [-12.87589, 8.68521], [-12.90087, 8.65485], [-12.9169, 8.62763], [-12.93644, 8.60701], [-12.97208, 8.59644], [-13.01806, 8.60017], [-13.04394, 8.58471], [-13.0616, 8.58322], [-13.07847, 8.58902], [-13.08876, 8.60268], [-13.06627, 8.60684], [-13.04433, 8.63336], [-13.02672, 8.64423], [-13.02672, 8.65107], [-13.04108, 8.65429], [-13.04784, 8.66474], [-13.05407, 8.66474], [-13.06355, 8.63394], [-13.07063, 8.62198], [-13.08194, 8.61693], [-13.09818, 8.62204], [-13.13036, 8.6579], [-13.14061, 8.65225], [-13.14843, 8.65339], [-13.1577, 8.67097], [-13.16259, 8.654], [-13.15429, 8.64305], [-13.12293, 8.63057], [-13.13659, 8.62376], [-13.10905, 8.60333], [-13.1075, 8.581], [-13.12215, 8.55956], [-13.14342, 8.54182], [-13.13927, 8.5247], [-13.14412, 8.51741], [-13.15429, 8.51456], [-13.16868, 8.52547], [-13.19515, 8.56936], [-13.21691, 8.63255], [-13.24119, 8.67219], [-13.24021, 8.71938], [-13.23522, 8.71992], [-13.24021, 8.82583], [-13.21226, 8.85711], [-13.20092, 8.8598], [-13.18497, 8.84349], [-13.10814, 8.84406], [-13.07185, 8.85554], [-13.04308, 8.85834], [-12.98571, 8.85712], [-13.02697, 8.8697], [-13.04109, 8.86123], [-13.05822, 8.86115], [-13.08878, 8.87018], [-13.1156, 8.86242], [-13.13014, 8.86405], [-13.13976, 8.88142], [-13.15769, 8.88447], [-13.15843, 8.89228], [-13.14265, 8.91673], [-13.12263, 8.92601], [-13.0751, 8.93163], [-13.0751, 8.93911], [-13.09252, 8.94465], [-13.15771, 8.92546], [-13.18098, 8.92305], [-13.20612, 8.92838], [-13.22573, 8.94254], [-13.23282, 8.96638], [-13.23998, 8.95978], [-13.24022, 8.95211], [-13.25487, 8.96638], [-13.26049, 8.96528], [-13.26696, 8.95211], [-13.28843, 8.96947], [-13.28502, 9.01703], [-13.30108, 9.03531], [-13.3011, 9.04149], [-13.3216, 9.05663], [-13.32578, 9.06778], [-13.32217, 9.08307], [-13.30065, 9.08462], [-13.30109, 9.09613], [-13.27379, 9.12401], [-13.24301, 9.16978], [-13.22594, 9.17927], [-13.20824, 9.18008], [-13.17614, 9.17365], [-13.1577, 9.17927], [-13.1577, 9.18549], [-13.24706, 9.186], [-13.25951, 9.19636], [-13.24584, 9.21345], [-13.24584, 9.22647], [-13.23282, 9.2674], [-13.25487, 9.24482], [-13.28063, 9.16504], [-13.31529, 9.18208], [-13.32216, 9.19294], [-13.31359, 9.19794], [-13.31468, 9.2333], [-13.30793, 9.25031], [-13.32216, 9.26122], [-13.32534, 9.31102], [-13.31867, 9.32948], [-13.3011, 9.31586], [-13.3011, 9.35684], [-13.30793, 9.35684], [-13.32217, 9.3454], [-13.34577, 9.34317], [-13.35285, 9.33877], [-13.36792, 9.28218], [-13.3745, 9.27279], [-13.40778, 9.28702], [-13.41197, 9.2934], [-13.40412, 9.30842], [-13.42381, 9.33292], [-13.43081, 9.35204], [-13.43198, 9.37108], [-13.42515, 9.38987], [-13.40331, 9.41816], [-13.39664, 9.43936], [-13.40412, 9.43936], [-13.42838, 9.42073], [-13.4654, 9.41817], [-13.49917, 9.42879], [-13.51404, 9.44982], [-13.52073, 9.49512], [-13.49324, 9.53486], [-13.48668, 9.56908], [-13.49352, 9.56908], [-13.52904, 9.50568], [-13.54747, 9.5002], [-13.56138, 9.50899], [-13.57526, 9.52725], [-13.58551, 9.54914], [-13.58845, 9.56908], [-13.61901, 9.55638], [-13.67797, 9.52271], [-13.7058, 9.51447], [-13.7146, 9.50758], [-13.7224, 9.50582], [-13.72621, 9.51106], [-13.7241, 9.51951], [-13.7058, 9.52806], [-13.65266, 9.59715], [-13.6258, 9.64728], [-13.62319, 9.72736], [-13.60489, 9.73737], [-13.59544, 9.75502], [-13.56652, 9.77106], [-13.56111, 9.78824], [-13.59428, 9.77424], [-13.60391, 9.78005], [-13.64778, 9.83149], [-13.65119, 9.84284], [-13.66478, 9.83662], [-13.65381, 9.80524], [-13.65055, 9.77701], [-13.66129, 9.75455], [-13.69213, 9.7404], [-13.72891, 9.7441], [-13.74717, 9.76777], [-13.74982, 9.79987], [-13.73989, 9.82916], [-13.69831, 9.88076], [-13.682, 9.91348], [-13.68529, 9.94648], [-13.69396, 9.9538], [-13.70201, 9.91171], [-13.71276, 9.90518], [-13.7325, 9.87678], [-13.74669, 9.87075], [-13.74544, 9.86653], [-13.74975, 9.86348], [-13.78466, 9.85026], [-13.8274, 9.85531], [-13.84284, 9.86079], [-13.8861, 9.91218], [-13.92764, 9.93595], [-13.94538, 9.96695], [-13.97948, 9.97436], [-14.00674, 10.00104], [-14.04295, 10.01286], [-14.05833, 10.0253], [-14.06187, 10.05011], [-14.04612, 10.07949], [-14.02033, 10.09443], [-13.99376, 10.07616], [-14.02819, 10.1166], [-14.03409, 10.114], [-14.04161, 10.10131], [-14.05675, 10.1066], [-14.06834, 10.11811], [-14.06549, 10.12457], [-14.04381, 10.13325], [-13.99991, 10.19969], [-14.01452, 10.19278], [-14.04484, 10.16207], [-14.08934, 10.13825], [-14.09229, 10.0686], [-14.11324, 10.05112], [-14.13028, 10.04891], [-14.15337, 10.05581], [-14.17047, 10.07079], [-14.17979, 10.09028], [-14.17877, 10.11031], [-14.13817, 10.14448], [-14.12365, 10.16258], [-14.13777, 10.17919], [-14.14167, 10.16454], [-14.15315, 10.15633], [-14.18493, 10.15192], [-14.1825, 10.12953], [-14.20019, 10.11275], [-14.2224, 10.10612], [-14.23338, 10.11401], [-14.25059, 10.14053], [-14.2538, 10.15536], [-14.24006, 10.17512], [-14.24389, 10.18232], [-14.24926, 10.18427], [-14.25902, 10.17959], [-14.27013, 10.15975], [-14.29209, 10.17179], [-14.35237, 10.22622], [-14.3627, 10.23119], [-14.3767, 10.23444], [-14.41857, 10.22798], [-14.43196, 10.23444], [-14.45254, 10.2146], [-14.46248, 10.225], [-14.46613, 10.27204], [-14.45824, 10.30427], [-14.46304, 10.33002], [-14.5371, 10.40346], [-14.54799, 10.42561], [-14.55051, 10.47211], [-14.54552, 10.49502], [-14.53502, 10.5082], [-14.55142, 10.50678], [-14.58284, 10.48087], [-14.61351, 10.47339], [-14.62897, 10.47627], [-14.63744, 10.48774], [-14.64428, 10.48774], [-14.6512, 10.4751], [-14.65761, 10.47944], [-14.6647, 10.51162], [-14.66116, 10.54244], [-14.65046, 10.57025], [-14.63939, 10.56664], [-14.59642, 10.60375], [-14.62059, 10.60433], [-14.62864, 10.61726], [-14.61521, 10.69131], [-14.60728, 10.70538], [-14.59024, 10.69937], [-14.58828, 10.7143], [-14.56851, 10.73102], [-14.55548, 10.7757], [-14.53132, 10.82347], [-14.51744, 10.82905], [-14.50967, 10.84248], [-14.50837, 10.85847], [-14.51391, 10.87189], [-14.50023, 10.8911], [-14.51993, 10.8854], [-14.52135, 10.85082], [-14.57348, 10.81241], [-14.5904, 10.78726], [-14.61597, 10.72802], [-14.62955, 10.70669], [-14.65787, 10.67268], [-14.68611, 10.64819], [-14.69981, 10.64315], [-14.70571, 10.65526], [-14.70376, 10.67059], [-14.69811, 10.68183], [-14.67833, 10.6931], [-14.69176, 10.69449], [-14.70571, 10.68635], [-14.71934, 10.69937], [-14.69908, 10.75625], [-14.68838, 10.77196], [-14.66128, 10.79279], [-14.65136, 10.80996], [-14.6647, 10.81664], [-14.67797, 10.79963], [-14.72313, 10.76512], [-14.73477, 10.74811], [-14.74646, 10.71077], [-14.76032, 10.69938], [-14.77001, 10.71882], [-14.79282, 10.74503], [-14.79506, 10.76824], [-14.78161, 10.76777], [-14.77001, 10.77692], [-14.75414, 10.80296], [-14.74047, 10.87189], [-14.7589, 10.85847], [-14.77258, 10.8365], [-14.8087, 10.82348], [-14.80906, 10.84561], [-14.80126, 10.86445], [-14.80796, 10.88247], [-14.79507, 10.89859], [-14.81387, 10.90035], [-14.81972, 10.91202], [-14.81675, 10.92719], [-14.8087, 10.93959], [-14.79613, 10.94757], [-14.74356, 10.96003], [-14.73176, 10.96646], [-14.71631, 11.00094], [-14.69945, 11.00552], [-14.68077, 11.02748], [-14.6647, 11.03579], [-14.67724, 11.04759], [-14.68517, 11.06367], [-14.69495, 11.03852], [-14.7268, 11.02582], [-14.73082, 11.00585], [-14.74153, 10.98909], [-14.75683, 10.9812], [-14.77457, 10.98798], [-14.78458, 10.98112], [-14.80125, 10.98055], [-14.79548, 10.9997], [-14.80126, 11.01191], [-14.81066, 11.01447], [-14.8435, 10.96749], [-14.87462, 10.9733], [-14.89444, 11.03026], [-14.91857, 11.02896], [-14.90148, 11.01166], [-14.89879, 10.99323], [-14.91113, 10.96004], [-14.93196, 10.97565], [-14.95958, 10.98054], [-14.91458, 10.9425], [-14.91113, 10.92593], [-14.9209, 10.90767], [-14.93996, 10.889], [-14.95812, 10.87622], [-14.97322, 10.87885], [-14.98005, 10.87499], [-14.97323, 10.85419], [-14.97321, 10.82005], [-14.95019, 10.80377], [-14.94758, 10.78783], [-14.95959, 10.76827], [-14.97753, 10.77704], [-15.0139, 10.78263], [-15.03171, 10.79294], [-15.06931, 10.83696], [-15.07944, 10.85871], [-15.08111, 10.87824], [-15.07432, 10.89687], [-15.0589, 10.91595], [-15.02782, 10.92935], [-15.0148, 10.96003], [-15.01928, 10.9597], [-15.02098, 10.96748], [-15.0601, 10.94027], [-15.0852, 10.92765], [-15.09674, 10.92936], [-15.09397, 10.94253], [-15.06945, 10.96003], [-15.04833, 10.98798], [-15.04833, 10.99482], [-15.05578, 10.99482], [-15.06509, 10.97736], [-15.08308, 10.96748], [-15.10582, 10.96944], [-15.11399, 10.97517], [-15.11717, 10.98428], [-15.09934, 11.05768], [-15.09332, 11.06988], [-15.08275, 11.07543], [-15.06574, 11.11456], [-15.0421, 11.11831], [-15.0421, 11.13881], [-15.00056, 11.14224], [-15.00756, 11.15737], [-15.02097, 11.16609], [-15.00768, 11.18008], [-14.99975, 11.19896], [-15.00088, 11.21678], [-15.0148, 11.22753], [-15.02385, 11.20149], [-15.03873, 11.18261], [-15.05871, 11.17085], [-15.08308, 11.16608], [-15.07751, 11.15005], [-15.08187, 11.14021], [-15.09178, 11.13814], [-15.1029, 11.14566], [-15.11035, 11.12517], [-15.12462, 11.13198], [-15.12508, 11.11274], [-15.13086, 11.10367], [-15.15478, 11.08698], [-15.20691, 11.00959], [-15.21789, 10.99918], [-15.23013, 10.99483], [-15.25844, 11.01362], [-15.26992, 11.02847], [-15.2711, 11.03921], [-15.23021, 11.06184], [-15.21959, 11.06989], [-15.21451, 11.08145], [-15.20661, 11.12515], [-15.21736, 11.20942], [-15.20661, 11.23379], [-15.22912, 11.23037], [-15.23497, 11.21556], [-15.22509, 11.16397], [-15.22618, 11.13983], [-15.23352, 11.12256], [-15.25935, 11.13264], [-15.29497, 11.13205], [-15.32262, 11.14566], [-15.35822, 11.14424], [-15.36636, 11.16649], [-15.37353, 11.17377], [-15.39468, 11.17916], [-15.40952, 11.18961], [-15.41307, 11.214], [-15.41006, 11.2792], [-15.42614, 11.28676], [-15.41884, 11.32713], [-15.38857, 11.36993], [-15.37792, 11.37835], [-15.35131, 11.36762], [-15.33975, 11.36538], [-15.3297, 11.36848], [-15.31558, 11.38207], [-15.2954, 11.39082], [-15.27318, 11.41999], [-15.26806, 11.43301], [-15.32307, 11.38915], [-15.34313, 11.37836], [-15.35847, 11.38735], [-15.36165, 11.39935], [-15.35674, 11.42963], [-15.33104, 11.46263], [-15.33629, 11.46776], [-15.35338, 11.46332], [-15.36644, 11.45075], [-15.38419, 11.40474], [-15.42634, 11.3852], [-15.44075, 11.35615], [-15.44946, 11.34708], [-15.49429, 11.3339], [-15.50267, 11.33666], [-15.50706, 11.3579], [-15.50392, 11.36879], [-15.48102, 11.41937], [-15.45303, 11.46035], [-15.47052, 11.4611], [-15.4767, 11.46797], [-15.47349, 11.49444], [-15.45678, 11.48908], [-15.43871, 11.50188], [-15.43248, 11.48078], [-15.42064, 11.50527], [-15.41234, 11.50771], [-15.40526, 11.49445], [-15.39782, 11.49445], [-15.40136, 11.51337], [-15.412, 11.52924], [-15.4073, 11.53001], [-15.40526, 11.53602], [-15.35436, 11.52505], [-15.34887, 11.52827], [-15.35675, 11.54287], [-15.34996, 11.56337], [-15.34313, 11.56338], [-15.33507, 11.55244], [-15.30956, 11.55385], [-15.30899, 11.53604], [-15.28987, 11.54279], [-15.2904, 11.55634], [-15.30211, 11.57172], [-15.31648, 11.58381], [-15.33628, 11.57699], [-15.33628, 11.5838], [-15.31452, 11.59125], [-15.29475, 11.60491], [-15.27477, 11.57811], [-15.25845, 11.57026], [-15.2401, 11.57697], [-15.25227, 11.5788], [-15.25377, 11.60493], [-15.27724, 11.61165], [-15.2811, 11.62481], [-15.2401, 11.61176], [-15.22648, 11.61858], [-15.23388, 11.59125], [-15.20914, 11.57396], [-15.20165, 11.57543], [-15.19229, 11.59125], [-15.21276, 11.62173], [-15.19444, 11.6428], [-15.18615, 11.64589], [-15.14844, 11.6288], [-15.14395, 11.59809], [-15.12462, 11.60493], [-15.13084, 11.61859], [-15.11566, 11.61763], [-15.10554, 11.61225], [-15.08992, 11.59127], [-15.14395, 11.58381], [-15.13703, 11.57465], [-15.12463, 11.57021], [-15.1289, 11.55443], [-15.12328, 11.54548], [-15.11474, 11.54633], [-15.10508, 11.5729], [-15.0445, 11.57543], [-15.02375, 11.58267], [-15.01578, 11.58918], [-15.00731, 11.61176], [-15.03918, 11.59907], [-15.07995, 11.59797], [-15.08104, 11.61286], [-15.062, 11.6186], [-15.06614, 11.633], [-15.062, 11.6459], [-15.07335, 11.64851], [-15.08239, 11.64326], [-15.08992, 11.6186], [-15.10363, 11.63398], [-15.11229, 11.63866], [-15.12461, 11.63851], [-15.12462, 11.6459], [-15.10289, 11.66641], [-15.11034, 11.68684], [-15.11718, 11.68684], [-15.13085, 11.65274], [-15.14281, 11.6499], [-15.15787, 11.65835], [-15.17185, 11.65958], [-15.16147, 11.67484], [-15.13516, 11.68952], [-15.13085, 11.70795], [-15.14867, 11.69452], [-15.17186, 11.70112], [-15.17577, 11.68448], [-15.19229, 11.68008], [-15.18933, 11.66548], [-15.19669, 11.66154], [-15.20689, 11.66682], [-15.21276, 11.68008], [-15.2282, 11.65872], [-15.23631, 11.6643], [-15.23134, 11.68131], [-15.20661, 11.69367], [-15.21909, 11.70816], [-15.21275, 11.72784], [-15.18615, 11.72163], [-15.19054, 11.73542], [-15.19945, 11.74453], [-15.22647, 11.75511], [-15.24144, 11.7121], [-15.24011, 11.69367], [-15.25048, 11.68952], [-15.25935, 11.67683], [-15.26806, 11.67326], [-15.27416, 11.67658], [-15.26122, 11.70112], [-15.27293, 11.70621], [-15.27501, 11.71849], [-15.26806, 11.74836], [-15.28409, 11.73412], [-15.28857, 11.7111], [-15.32262, 11.70795], [-15.30899, 11.70112], [-15.30899, 11.69367], [-15.28596, 11.67877], [-15.28112, 11.66983], [-15.28503, 11.65645], [-15.29393, 11.65316], [-15.30339, 11.65731], [-15.30899, 11.66641], [-15.32262, 11.63231], [-15.33642, 11.68439], [-15.34997, 11.68008], [-15.34313, 11.66642], [-15.35676, 11.66641], [-15.35285, 11.64008], [-15.34805, 11.62881], [-15.33631, 11.6186], [-15.34313, 11.60494], [-15.37157, 11.62971], [-15.39159, 11.65957], [-15.39468, 11.64191], [-15.3711, 11.59127], [-15.39159, 11.59809], [-15.39607, 11.58463], [-15.40452, 11.58447], [-15.41161, 11.59463], [-15.41202, 11.61176], [-15.41885, 11.61176], [-15.42589, 11.59243], [-15.42635, 11.57023], [-15.43871, 11.57697], [-15.43872, 11.55713], [-15.44912, 11.5638], [-15.46886, 11.60578], [-15.45303, 11.62173], [-15.42846, 11.67048], [-15.42634, 11.69367], [-15.45886, 11.663], [-15.47614, 11.65438], [-15.49395, 11.66641], [-15.48917, 11.67503], [-15.48778, 11.70795], [-15.50089, 11.70856], [-15.50894, 11.70454], [-15.53807, 11.67623], [-15.54234, 11.68342], [-15.55125, 11.71638], [-15.55137, 11.73314], [-15.53287, 11.76032], [-15.51788, 11.79266], [-15.48033, 11.83026], [-15.46312, 11.83999], [-15.45738, 11.86465], [-15.43871, 11.88543], [-15.43249, 11.88543], [-15.41885, 11.87124], [-15.41025, 11.88404], [-15.39761, 11.88544], [-15.37475, 11.88474], [-15.31273, 11.87124], [-15.1892, 11.87124], [-15.16185, 11.89296], [-15.13561, 11.89916], [-15.08991, 11.94012], [-15.06697, 11.94012], [-15.06292, 11.92479], [-15.08715, 11.87035], [-15.08641, 11.8454], [-15.0797, 11.82087], [-15.06945, 11.80362], [-15.05012, 11.79499], [-15.00256, 11.78351], [-14.98241, 11.75414], [-14.95914, 11.74893], [-14.9359, 11.753], [-14.9254, 11.76944], [-14.9514, 11.76065], [-14.99682, 11.81037], [-15.02655, 11.81397], [-15.04669, 11.82348], [-15.06574, 11.84789], [-15.07022, 11.86073], [-15.0421, 11.89606], [-15.02305, 11.95107], [-14.99376, 11.95722], [-14.99401, 11.96369], [-15.00723, 11.97834], [-15.01757, 11.98151], [-15.04662, 11.97648], [-15.0797, 11.98794], [-15.14078, 11.96117], [-15.19229, 11.91341], [-15.21508, 11.90962], [-15.27424, 11.92646], [-15.31306, 11.93282], [-15.35851, 11.9632], [-15.38097, 11.96821], [-15.40441, 11.96723], [-15.42634, 11.96117], [-15.45645, 11.94014], [-15.48913, 11.94058], [-15.49738, 11.937], [-15.52872, 11.90596], [-15.55541, 11.89297], [-15.59326, 11.84456], [-15.61327, 11.83902], [-15.67956, 11.80363], [-15.74425, 11.79194], [-15.81103, 11.75328], [-15.83038, 11.74837], [-15.80993, 11.82954], [-15.79149, 11.86322], [-15.7672, 11.86469], [-15.75398, 11.85859], [-15.7342, 11.85814], [-15.7342, 11.86498], [-15.75304, 11.86612], [-15.77636, 11.88569], [-15.79556, 11.88544], [-15.81159, 11.87368], [-15.81778, 11.83759], [-15.85018, 11.77534], [-15.86046, 11.76945], [-15.88003, 11.77437], [-15.8841, 11.7871], [-15.87755, 11.82404], [-15.89428, 11.81623], [-15.89875, 11.78018], [-15.90552, 11.76196], [-15.93375, 11.75088], [-15.95897, 11.73482], [-15.96694, 11.74836], [-15.96954, 11.76826], [-15.9464, 11.82404], [-15.93199, 11.87958], [-15.92186, 11.89691], [-15.89782, 11.90957], [-15.89121, 11.9339], [-15.86523, 11.97236], [-15.84308, 11.98936], [-15.82177, 11.99787], [-15.79947, 12.00336], [-15.78197, 12.00283], [-15.76757, 11.97875], [-15.72053, 11.96743], [-15.70629, 12.00829], [-15.71369, 12.01582], [-15.74279, 11.99495], [-15.76146, 11.99531], [-15.78197, 12.01582], [-15.79076, 12.01838], [-15.83707, 12.01387], [-15.84996, 12.01749], [-15.85709, 12.02949], [-15.86388, 12.02949], [-15.87101, 12.01301], [-15.88956, 12.0026], [-15.93277, 11.99531], [-15.92595, 11.98111], [-15.93297, 11.97923], [-15.93278, 11.97485], [-15.9464, 11.98363], [-15.94474, 11.95307], [-15.96789, 11.927], [-15.9816, 11.9213], [-16.05565, 11.92023], [-16.09325, 11.90595], [-16.11327, 11.88825], [-16.12458, 11.88544], [-16.13427, 11.88886], [-16.15876, 11.9134], [-16.18341, 11.90795], [-16.21519, 11.91382], [-16.24303, 11.92545], [-16.25486, 11.937], [-16.27538, 11.98111], [-16.32323, 11.99531], [-16.33799, 12.017], [-16.34529, 12.06184], [-16.35517, 12.08758], [-16.3572, 12.10134], [-16.33006, 12.15916], [-16.31956, 12.17169], [-16.28283, 12.19398], [-16.27746, 12.17328], [-16.26989, 12.17133], [-16.26114, 12.18033], [-16.26863, 12.21421], [-16.25739, 12.23016], [-16.14843, 12.29068], [-16.13199, 12.30386], [-16.10411, 12.33796], [-16.06314, 12.35102], [-16.08975, 12.352], [-16.10753, 12.34467], [-16.13512, 12.31379], [-16.15539, 12.30004], [-16.22761, 12.2827], [-16.27196, 12.25235], [-16.30582, 12.21444], [-16.32457, 12.22217], [-16.31566, 12.26317], [-16.3164, 12.2827], [-16.33434, 12.24811], [-16.34042, 12.21166], [-16.35022, 12.19722], [-16.36535, 12.19234], [-16.38463, 12.20083], [-16.39147, 12.19401], [-16.40575, 12.20767], [-16.40778, 12.19443], [-16.41548, 12.18861], [-16.44327, 12.18716], [-16.45763, 12.17196], [-16.4663, 12.18391], [-16.4912, 12.18977], [-16.50063, 12.19661], [-16.50817, 12.21784], [-16.53816, 12.24965], [-16.53893, 12.25605], [-16.57641, 12.2827], [-16.60374, 12.27653], [-16.62426, 12.30386], [-16.66149, 12.33234], [-16.67268, 12.33796], [-16.68757, 12.33796], [-16.72106, 12.32369], [-16.73512, 12.34544], [-16.74413, 12.37885], [-16.79873, 12.4309], [-16.80296, 12.44379], [-16.80291, 12.48567], [-16.78135, 12.52293], [-16.73168, 12.55206], [-16.67882, 12.55024], [-16.63467, 12.5795], [-16.61802, 12.60544], [-16.57974, 12.63278], [-16.56136, 12.6118], [-16.54719, 12.57388], [-16.53331, 12.56533], [-16.5327, 12.58085], [-16.5226, 12.59291], [-16.50475, 12.59804], [-16.4851, 12.59373], [-16.45157, 12.57502], [-16.42146, 12.56688], [-16.38834, 12.55158], [-16.37096, 12.55024], [-16.35131, 12.55952], [-16.32726, 12.58869], [-16.30956, 12.59805], [-16.28628, 12.59707], [-16.24669, 12.58796], [-16.21223, 12.60635], [-16.19286, 12.57758], [-16.1147, 12.60617], [-16.05761, 12.6162], [-16.02954, 12.63295], [-16.00789, 12.63214], [-15.99052, 12.62296], [-15.93961, 12.58063], [-15.86389, 12.57757], [-15.84, 12.55707], [-15.80553, 12.56452], [-15.76879, 12.59259], [-15.74787, 12.58373], [-15.72961, 12.59149], [-15.71593, 12.58177], [-15.69946, 12.58372], [-15.67956, 12.55024], [-15.66592, 12.54019], [-15.63341, 12.53954], [-15.58772, 12.55801], [-15.53868, 12.61542], [-15.50984, 12.63581], [-15.50707, 12.64956], [-15.52986, 12.66576], [-15.52131, 12.67377], [-15.54019, 12.72687], [-15.54345, 12.75804], [-15.5349, 12.78303], [-15.52335, 12.78986], [-15.48034, 12.79047], [-15.46642, 12.79645], [-15.45694, 12.80366], [-15.44616, 12.82461], [-15.42561, 12.805], [-15.40681, 12.79971], [-15.39403, 12.81025], [-15.39159, 12.8382], [-15.40705, 12.82234], [-15.45303, 12.83145], [-15.49279, 12.80713], [-15.53588, 12.80134], [-15.54947, 12.79434], [-15.55541, 12.77961], [-15.55541, 12.72158], [-15.5441, 12.68407], [-15.54257, 12.64918], [-15.57753, 12.61236], [-15.64102, 12.55949], [-15.6529, 12.55891], [-15.67211, 12.57075], [-15.66641, 12.60065], [-15.69677, 12.61416], [-15.76769, 12.62539], [-15.81583, 12.59538], [-15.83348, 12.59127], [-15.8485, 12.60855], [-15.86046, 12.61172], [-15.88975, 12.60013], [-15.91331, 12.60123], [-15.95327, 12.6254], [-15.95271, 12.64374], [-15.98118, 12.65266], [-16.00109, 12.68745], [-16.01316, 12.6962], [-16.02212, 12.72899], [-16.02831, 12.72899], [-16.02978, 12.71747], [-16.04515, 12.6905], [-16.04891, 12.65641], [-16.07682, 12.63899], [-16.11775, 12.63215], [-16.15502, 12.61173], [-16.18981, 12.61913], [-16.22761, 12.61913], [-16.26863, 12.60546], [-16.31298, 12.61172], [-16.32384, 12.60957], [-16.34679, 12.59805], [-16.36197, 12.57123], [-16.37096, 12.56452], [-16.41198, 12.57758], [-16.445, 12.59604], [-16.46067, 12.60888], [-16.46719, 12.62226], [-16.48956, 12.63183], [-16.4945, 12.63898], [-16.49283, 12.64891], [-16.47728, 12.66413], [-16.46719, 12.66633], [-16.46719, 12.67377], [-16.48257, 12.67414], [-16.4923, 12.68171], [-16.50133, 12.70791], [-16.50818, 12.6254], [-16.51569, 12.6254], [-16.52892, 12.64277], [-16.56565, 12.6739], [-16.57022, 12.69359], [-16.59879, 12.66402], [-16.61461, 12.66011], [-16.62657, 12.66255], [-16.63467, 12.66938], [-16.63793, 12.69359], [-16.62377, 12.71971], [-16.60383, 12.73932], [-16.59073, 12.76203], [-16.59691, 12.79731], [-16.60375, 12.76252], [-16.63842, 12.7285], [-16.65103, 12.70527], [-16.65225, 12.68403], [-16.6451, 12.64859], [-16.64722, 12.63224], [-16.67732, 12.61957], [-16.72106, 12.58373], [-16.75482, 12.57232], [-16.77309, 12.58296], [-16.78086, 12.60883], [-16.78253, 12.64273], [-16.77708, 12.67804], [-16.76122, 12.7132], [-16.73547, 12.73289], [-16.70055, 12.72158], [-16.69896, 12.7364], [-16.71325, 12.7473], [-16.73396, 12.75137], [-16.75154, 12.74543], [-16.78356, 12.7126], [-16.7962, 12.71532], [-16.78824, 12.73208], [-16.7962, 12.74885], [-16.77448, 12.77855], [-16.77013, 12.79336], [-16.77505, 12.81094], [-16.78254, 12.81094], [-16.79406, 12.795], [-16.80027, 12.79882], [-16.80296, 12.81403], [-16.79454, 12.83877], [-16.75886, 12.89077], [-16.75524, 12.90347], [-16.76206, 12.95116], [-16.74779, 13.04027], [-16.75365, 13.06501], [-16.76887, 13.07783], [-16.78432, 13.083], [-16.78672, 13.09007], [-16.7755, 13.11274], [-16.77733, 13.12783], [-16.79673, 13.17723], [-16.79503, 13.23591], [-16.80297, 13.26219], [-16.82013, 13.28153], [-16.82444, 13.29458], [-16.81664, 13.31061], [-16.82969, 13.33853], [-16.82071, 13.34911], [-16.80996, 13.37986], [-16.76293, 13.40498], [-16.70445, 13.4754], [-16.67883, 13.49614], [-16.67113, 13.47866], [-16.65225, 13.46825], [-16.63463, 13.47735], [-16.61685, 13.47816], [-16.6014, 13.47222], [-16.59088, 13.46152], [-16.58533, 13.44335], [-16.61278, 13.43915], [-16.62426, 13.42723], [-16.60872, 13.41372], [-16.59554, 13.38507], [-16.58838, 13.35529], [-16.59073, 13.33853], [-16.54577, 13.29011], [-16.49493, 13.28784], [-16.48083, 13.28387], [-16.4497, 13.26407], [-16.42935, 13.26219], [-16.41967, 13.25556], [-16.41393, 13.23998], [-16.41348, 13.22207], [-16.41942, 13.2082], [-16.39975, 13.22431], [-16.39086, 13.2248], [-16.3778, 13.21503], [-16.40575, 13.24604], [-16.40827, 13.25873], [-16.41527, 13.26704], [-16.43993, 13.2696], [-16.43992, 13.27642], [-16.41051, 13.27587], [-16.38464, 13.28387], [-16.37475, 13.26386], [-16.36327, 13.2683], [-16.3495, 13.28226], [-16.31481, 13.29556], [-16.27794, 13.31947], [-16.25818, 13.32484], [-16.23013, 13.31639], [-16.2259, 13.29658], [-16.23021, 13.27363], [-16.22761, 13.25601], [-16.20971, 13.25117], [-16.18545, 13.25829], [-16.15128, 13.27644], [-16.15127, 13.28388], [-16.17252, 13.27928], [-16.19929, 13.2591], [-16.20355, 13.26516], [-16.21076, 13.3133], [-16.22203, 13.31977], [-16.22713, 13.33388], [-16.22442, 13.36029], [-16.21634, 13.37256], [-16.17618, 13.40542], [-16.1612, 13.42869], [-16.13512, 13.42048], [-15.99486, 13.41303], [-15.941, 13.42547], [-15.89122, 13.42723], [-15.87133, 13.4409], [-15.84952, 13.44221], [-15.78502, 13.43476], [-15.76447, 13.43692], [-15.70621, 13.45458], [-15.66869, 13.47572], [-15.65893, 13.47239], [-15.64468, 13.45791], [-15.62084, 13.45482], [-15.6009, 13.46044], [-15.58959, 13.46825], [-15.56505, 13.5025], [-15.55541, 13.50921], [-15.54345, 13.50967], [-15.5004, 13.48819], [-15.47004, 13.49616], [-15.45108, 13.49091], [-15.41885, 13.45458], [-15.38443, 13.44351], [-15.34057, 13.44082], [-15.3048, 13.45531], [-15.29475, 13.49616], [-15.30215, 13.49616], [-15.30407, 13.48115], [-15.32185, 13.45824], [-15.33287, 13.45458], [-15.35167, 13.45673], [-15.41576, 13.47321], [-15.46524, 13.51016], [-15.49083, 13.503], [-15.51789, 13.51667], [-15.55614, 13.52831], [-15.57584, 13.5229], [-15.61067, 13.48934], [-15.62775, 13.48852], [-15.65465, 13.50096], [-15.67211, 13.503], [-15.69017, 13.49897], [-15.73421, 13.47575], [-15.77014, 13.46505], [-16.08999, 13.44052], [-16.14159, 13.45458], [-16.16039, 13.45059], [-16.20653, 13.42048], [-16.24858, 13.37887], [-16.28059, 13.35978], [-16.28914, 13.36594], [-16.2849, 13.39533], [-16.28913, 13.40681], [-16.30602, 13.39167], [-16.3081, 13.38337], [-16.30211, 13.37202], [-16.3164, 13.36587], [-16.3164, 13.35904], [-16.30214, 13.35277], [-16.32214, 13.3428], [-16.35621, 13.33795], [-16.41179, 13.33851], [-16.48949, 13.35712], [-16.52182, 13.35905], [-16.50353, 13.39256], [-16.50353, 13.41694], [-16.51976, 13.45132], [-16.55654, 13.48558], [-16.54914, 13.56387], [-16.5764, 13.61225], [-16.57576, 13.6401], [-16.55867, 13.65591], [-16.53352, 13.66861], [-16.50817, 13.68797], [-16.52929, 13.701], [-16.50723, 13.7281], [-16.5089, 13.74022], [-16.52929, 13.74262], [-16.5266, 13.72663], [-16.53148, 13.70726], [-16.54211, 13.69368], [-16.55655, 13.69477], [-16.56372, 13.67378], [-16.57925, 13.65957], [-16.59887, 13.65421], [-16.61802, 13.66007], [-16.63556, 13.67805], [-16.63999, 13.69648], [-16.62709, 13.77045], [-16.58251, 13.82469], [-16.5764, 13.8388], [-16.54914, 13.82453], [-16.55654, 13.84564], [-16.52185, 13.85178], [-16.52013, 13.83202], [-16.51293, 13.8133], [-16.50158, 13.80199], [-16.48705, 13.80463], [-16.4946, 13.82746], [-16.5006, 13.87271], [-16.51568, 13.87979], [-16.48705, 14.00263], [-16.51806, 13.95185], [-16.52604, 13.91026], [-16.53621, 13.88573], [-16.54943, 13.8693], [-16.57022, 13.87295], [-16.58024, 13.85953], [-16.63793, 13.84565], [-16.64867, 13.83686], [-16.65902, 13.81087], [-16.68252, 13.79409], [-16.70006, 13.76904], [-16.71018, 13.77364], [-16.71532, 13.80634], [-16.7372, 13.81965], [-16.74236, 13.8392], [-16.74106, 13.86042], [-16.73412, 13.87295], [-16.74445, 13.90217], [-16.74681, 13.95136], [-16.73721, 13.96767], [-16.7025, 13.98996], [-16.64632, 13.98297], [-16.63679, 13.97491], [-16.63793, 13.96166], [-16.6129, 13.98871], [-16.59899, 13.9968], [-16.5764, 13.98896], [-16.57676, 14.01097], [-16.56892, 14.02082], [-16.54235, 14.03734], [-16.56835, 14.03034], [-16.58096, 14.03279], [-16.59072, 14.04361], [-16.54552, 14.07099], [-16.48931, 14.12808], [-16.45702, 14.13736], [-16.44147, 14.15655], [-16.42935, 14.16096], [-16.40469, 14.14541], [-16.36473, 14.16779], [-16.42772, 14.17011], [-16.45473, 14.18017], [-16.45295, 14.20185], [-16.46874, 14.19383], [-16.4746, 14.17939], [-16.47151, 14.16425], [-16.46037, 14.15411], [-16.47277, 14.14737], [-16.50475, 14.15412], [-16.51317, 14.15103], [-16.52193, 14.12601], [-16.55655, 14.07152], [-16.58845, 14.06196], [-16.60033, 14.05418], [-16.63155, 14.01023], [-16.65393, 14.00283], [-16.69701, 14.01423], [-16.72105, 14.01631], [-16.69685, 14.06468], [-16.68, 14.0694], [-16.65225, 14.09951], [-16.66564, 14.09565], [-16.67858, 14.07612], [-16.7279, 14.06468], [-16.71614, 14.05132], [-16.71711, 14.04239], [-16.73412, 14.02314], [-16.73972, 14.00095], [-16.76887, 13.96166], [-16.77343, 13.93358], [-16.76888, 13.83882], [-16.77504, 13.83882], [-16.781, 14.03075], [-16.786, 14.05972], [-16.80256, 14.10786], [-16.82079, 14.14346], [-16.8297, 14.15412], [-16.8688, 14.16577], [-16.87872, 14.17455], [-16.89892, 14.25996], [-16.92589, 14.29125], [-16.94545, 14.30142], [-16.94698, 14.31477], [-16.93957, 14.35586], [-16.94445, 14.37238], [-16.95653, 14.39012], [-16.98794, 14.42105], [-17.05947, 14.45393], [-17.07033, 14.46526], [-17.11147, 14.53023], [-17.13785, 14.59903], [-17.17821, 14.65314], [-17.22411, 14.69042], [-17.24376, 14.69929], [-17.28164, 14.70727], [-17.32404, 14.72892], [-17.33056, 14.73631], [-17.41739, 14.7377], [-17.43981, 14.72207], [-17.43139, 14.71247], [-17.41936, 14.70896], [-17.42684, 14.69441], [-17.43981, 14.68846], [-17.42684, 14.67487], [-17.43981, 14.65377], [-17.45294, 14.66206], [-17.53602, 14.75739], [-17.37096, 14.80028], [-17.3223, 14.83888], [-17.17296, 14.90082], [-17.13866, 14.92772], [-16.97973, 15.11188], [-16.94769, 15.1581]]]]}}]}