{"type": "FeatureCollection", "features": [{"type": "Feature", "properties": {"map_title": "알렉산드로스의 정복 활동", "source": "미래엔 세계사 교과서 1권 46쪽", "volume": 1, "page": 46, "name": "알렉산드로스의 원정로 1", "category": "정복·원정로", "period": "기원전 334–324", "legend": "알렉산드로스의 원정로"}, "geometry": {"type": "LineString", "coordinates": [[35.18788, 33.25158], [35.29111, 33.39323], [35.42697, 33.53444], [35.72762, 33.8269], [35.87406, 33.98452], [36.00689, 34.15536], [36.1199, 34.34249], [36.21196, 34.54412], [36.2786, 34.73249], [36.33271, 34.9292], [36.37356, 35.1317], [36.40076, 35.33797], [36.41439, 35.54644], [36.41498, 35.75582], [36.40326, 35.96488], [36.38001, 36.17241], [36.33042, 36.54752], [36.2976, 36.73662], [36.27824, 36.81573], [36.25565, 36.87922]]}}, {"type": "Feature", "properties": {"map_title": "알렉산드로스의 정복 활동", "source": "미래엔 세계사 교과서 1권 46쪽", "volume": 1, "page": 46, "name": "알렉산드로스의 원정로 2", "category": "정복·원정로", "period": "기원전 334–324", "legend": "알렉산드로스의 원정로"}, "geometry": {"type": "LineString", "coordinates": [[22.412, 40.59701], [22.83391, 40.81744], [23.24648, 40.97851], [23.64183, 41.09212], [24.03666, 41.16194], [24.44369, 41.19165], [24.83474, 41.18621], [25.2134, 41.1266], [25.59619, 40.99447], [25.89425, 40.84269], [26.18442, 40.67251], [26.46088, 40.48839], [26.70657, 40.27126], [26.91769, 40.01885], [27.09458, 39.73507], [27.23782, 39.42774], [27.3469, 39.10711], [27.38222, 38.93899], [27.39759, 38.76887], [27.39892, 38.59827], [27.38372, 38.26254], [27.37991, 38.10139], [27.38793, 37.94836], [27.41553, 37.80759], [27.45437, 37.68684], [27.47833, 37.63059], [27.50734, 37.57741], [27.54309, 37.52757], [27.58725, 37.48132], [27.6415, 37.43906], [27.70748, 37.40124], [27.81738, 37.35897], [27.91558, 37.34254], [28.00599, 37.34568], [28.09256, 37.36202], [28.26996, 37.40877], [28.3685, 37.42609], [28.47876, 37.43019], [28.61563, 37.4076], [28.73483, 37.35723], [28.84177, 37.28707], [29.04032, 37.1207], [29.14274, 37.04171], [29.25499, 36.97721], [29.38373, 36.9359], [29.49351, 36.92395], [29.59419, 36.93051], [29.68574, 36.95344], [29.76801, 36.99064], [29.84074, 37.04013], [29.90367, 37.09993], [29.95663, 37.16809], [29.99954, 37.24256], [30.03828, 37.34799], [30.04814, 37.44103], [30.03571, 37.52535], [30.00736, 37.60488], [29.92791, 37.76616], [29.88913, 37.85637], [29.85914, 37.95878], [29.85251, 38.06679], [29.87771, 38.15688], [29.92593, 38.23458], [29.98844, 38.30551], [30.05655, 38.3754], [30.1216, 38.4501], [30.17493, 38.53563], [30.208, 38.63823], [30.20865, 38.74473], [30.17933, 38.84648], [30.13118, 38.94518], [30.02242, 39.14001], [29.98357, 39.23939], [29.96936, 39.34225], [29.99033, 39.4501], [30.04271, 39.53704], [30.12674, 39.62036], [30.23384, 39.69889], [30.35552, 39.77151], [30.48335, 39.83738], [30.72318, 39.94734], [30.94558, 40.05396], [31.08111, 40.11384], [31.22291, 40.16827], [31.36926, 40.21453], [31.51825, 40.25027], [31.66799, 40.27328], [31.81679, 40.28131], [31.96333, 40.27182], [32.12933, 40.23851], [32.24181, 40.19007], [32.31371, 40.12613], [32.35702, 40.04737], [32.3833, 39.95503], [32.43075, 39.73569], [32.47504, 39.61192], [32.53859, 39.49768], [32.60578, 39.42538], [32.6777, 39.38456], [32.75576, 39.36479], [32.93666, 39.34657], [33.04299, 39.32706], [33.1625, 39.2863], [33.29223, 39.21466], [33.37646, 39.13475], [33.42461, 39.04668], [33.4458, 38.95085], [33.44898, 38.84769], [33.43709, 38.62062], [33.44022, 38.49694], [33.51694, 38.10137], [33.66201, 37.8168], [33.86381, 37.62565], [34.10754, 37.51355], [34.37663, 37.46325], [34.65774, 37.44892], [34.94232, 37.44165], [35.21999, 37.42921], [35.29136, 37.42203], [35.37134, 37.40778], [35.45585, 37.38828], [35.62308, 37.34121], [35.76661, 37.2908], [35.82354, 37.26362]]}}, {"type": "Feature", "properties": {"map_title": "알렉산드로스의 정복 활동", "source": "미래엔 세계사 교과서 1권 46쪽", "volume": 1, "page": 46, "name": "알렉산드로스의 원정로 3", "category": "정복·원정로", "period": "기원전 334–324", "legend": "알렉산드로스의 원정로"}, "geometry": {"type": "LineString", "coordinates": [[41.34025, 36.6302], [41.95483, 36.64893], [42.20499, 36.66139], [42.42179, 36.67955], [42.59051, 36.69011], [42.76405, 36.69209], [42.93698, 36.68042], [43.10376, 36.64989], [43.25876, 36.59528], [43.39658, 36.51149], [43.5121, 36.39372], [43.65813, 36.12878], [43.74477, 35.82355], [43.78901, 35.49003], [43.80731, 35.14059], [43.82393, 34.44298], [43.84658, 34.11878], [43.8926, 33.82663], [43.94109, 33.6027], [44.00448, 33.33418], [44.08988, 33.0412], [44.20338, 32.744], [44.35105, 32.46342], [44.53635, 32.21888], [44.75557, 32.02522], [45.00765, 31.89921], [45.16536, 31.86365], [45.30872, 31.85898], [45.44079, 31.87844], [45.56483, 31.91531], [45.9231, 32.063], [46.05002, 32.10189]]}}, {"type": "Feature", "properties": {"map_title": "알렉산드로스의 정복 활동", "source": "미래엔 세계사 교과서 1권 46쪽", "volume": 1, "page": 46, "name": "알렉산드로스의 원정로 4", "category": "정복·원정로", "period": "기원전 334–324", "legend": "알렉산드로스의 원정로"}, "geometry": {"type": "LineString", "coordinates": [[35.05461, 33.22526], [35.09612, 33.3152], [35.14551, 33.36183], [35.199, 33.37459], [35.25499, 33.36244], [35.38298, 33.29798], [35.46121, 33.26257], [35.55329, 33.23632], [35.86521, 33.23941], [36.18344, 33.35266], [36.48407, 33.56233], [36.74549, 33.85149], [36.9542, 34.19609], [37.10757, 34.56536], [37.21129, 34.92607], [37.27368, 35.2465], [37.29116, 35.39271], [37.32278, 35.87815], [37.33689, 36.0378], [37.3583, 36.18777], [37.39012, 36.32336], [37.43512, 36.44027], [37.56247, 36.59505], [37.74612, 36.68439], [37.97018, 36.71591], [38.2188, 36.69631], [38.47618, 36.63169], [38.72637, 36.52748], [38.95319, 36.3884], [39.14029, 36.21858], [39.22381, 36.11426], [39.38748, 35.88801], [39.47309, 35.7829], [39.56469, 35.69447], [39.66482, 35.63131], [39.77608, 35.60198], [39.90126, 35.61506], [40.07064, 35.70675], [40.17541, 35.85022], [40.23973, 36.02453], [40.28785, 36.20931], [40.34361, 36.3845], [40.43049, 36.53055], [40.57185, 36.62843], [40.79157, 36.65971], [41.12033, 36.64865]]}}, {"type": "Feature", "properties": {"map_title": "알렉산드로스의 정복 활동", "source": "미래엔 세계사 교과서 1권 46쪽", "volume": 1, "page": 46, "name": "알렉산드로스의 원정로 5", "category": "정복·원정로", "period": "기원전 334–324", "legend": "알렉산드로스의 원정로"}, "geometry": {"type": "LineString", "coordinates": [[53.98869, 29.85192], [53.76131, 29.79417], [53.53322, 29.77794], [53.30337, 29.7962], [53.07063, 29.84205], [52.83279, 29.90895], [52.33734, 30.07586], [51.77696, 30.25559], [51.47736, 30.3642], [51.18124, 30.48323], [50.886, 30.61274], [50.59012, 30.75303], [50.29427, 30.90356], [50.0007, 31.06213], [49.71088, 31.2257], [49.51664, 31.34057], [48.88373, 31.73114], [48.43046, 31.99878], [48.20451, 32.12399], [47.98654, 32.23798], [47.68063, 32.36348], [47.40223, 32.4205], [47.14278, 32.4228], [46.89306, 32.38306], [46.64368, 32.31394], [46.10977, 32.13978], [45.80888, 32.06144]]}}, {"type": "Feature", "properties": {"map_title": "알렉산드로스의 정복 활동", "source": "미래엔 세계사 교과서 1권 46쪽", "volume": 1, "page": 46, "name": "알렉산드로스의 원정로 6", "category": "정복·원정로", "period": "기원전 334–324", "legend": "알렉산드로스의 원정로"}, "geometry": {"type": "LineString", "coordinates": [[48.39983, 34.79398], [48.61469, 34.61686], [48.83377, 34.44192], [49.05484, 34.26993], [49.28052, 34.10468], [49.51442, 33.9504], [49.76063, 33.81134], [50.02355, 33.69179], [50.30808, 33.59607], [50.69509, 33.49495], [50.85911, 33.44845], [51.01035, 33.39438], [51.15388, 33.32477], [51.29483, 33.23156], [51.43839, 33.10661], [51.58989, 32.94179], [51.75502, 32.73563], [51.91132, 32.52485], [52.0615, 32.31118], [52.50117, 31.66951], [52.65249, 31.46086], [52.81041, 31.2576], [52.94435, 31.09842], [53.08361, 30.94223], [53.50613, 30.48881], [53.63987, 30.34155], [53.76589, 30.19549], [54.13295, 29.72824], [54.25858, 29.57343], [54.88064, 28.8321]]}}, {"type": "Feature", "properties": {"map_title": "알렉산드로스의 정복 활동", "source": "미래엔 세계사 교과서 1권 46쪽", "volume": 1, "page": 46, "name": "알렉산드로스의 원정로 7", "category": "정복·원정로", "period": "기원전 334–324", "legend": "알렉산드로스의 원정로"}, "geometry": {"type": "LineString", "coordinates": [[69.22273, 39.79053], [68.98455, 39.84701], [68.68335, 39.89181], [68.3423, 39.91315], [67.98304, 39.89866], [67.62638, 39.8356], [67.29324, 39.71122], [67.00309, 39.51249], [66.77699, 39.22723], [66.40747, 38.56085], [66.22095, 38.18928], [66.06934, 37.822], [65.97773, 37.48104], [65.96828, 37.18749], [66.06034, 36.96142], [66.27205, 36.82199], [66.38297, 36.79608], [66.62772, 36.76538], [66.74879, 36.74468], [66.86108, 36.71006], [66.95917, 36.65396], [67.03516, 36.56811], [67.08196, 36.44455], [67.08483, 36.33105], [67.06153, 36.20191], [67.02796, 36.06693], [66.99954, 35.93578], [66.99128, 35.81798], [67.01798, 35.723], [67.09463, 35.66031], [67.23681, 35.63945], [67.32764, 35.65266], [67.41289, 35.68369], [67.65855, 35.81043], [67.74472, 35.83941], [67.83672, 35.84945], [67.93688, 35.83321], [68.12252, 35.66065], [68.06513, 35.36279], [67.82161, 34.97411], [67.45004, 34.52873], [67.00587, 34.05978], [66.53888, 33.59882], [66.09289, 33.17609], [65.70713, 32.82112]]}}, {"type": "Feature", "properties": {"map_title": "알렉산드로스의 정복 활동", "source": "미래엔 세계사 교과서 1권 46쪽", "volume": 1, "page": 46, "name": "알렉산드로스의 원정로 8", "category": "정복·원정로", "period": "기원전 334–324", "legend": "알렉산드로스의 원정로"}, "geometry": {"type": "LineString", "coordinates": [[61.64677, 34.17678], [61.70317, 34.09029], [61.76701, 34.01056], [61.83583, 33.93539], [62.04811, 33.7158], [62.11308, 33.6375], [62.17142, 33.55319], [62.24516, 33.39543], [62.27265, 33.24315], [62.26346, 33.09125], [62.22697, 32.93473], [62.10957, 32.58814], [62.04756, 32.38852], [61.99614, 32.16527], [61.97134, 31.92621], [61.97106, 31.60356], [62.00492, 31.23956], [62.07951, 30.8752], [62.19842, 30.54976], [62.36304, 30.30079], [62.57426, 30.1646], [62.83501, 30.17703], [62.97802, 30.2586], [63.09219, 30.38412], [63.18787, 30.54097], [63.36312, 30.89743], [63.4612, 31.07058], [63.5778, 31.22209], [63.72101, 31.33792], [63.8392, 31.40182], [63.95695, 31.45747], [64.18907, 31.56005], [64.30263, 31.61507], [64.41408, 31.678], [64.52319, 31.75294], [64.62982, 31.84402], [65.23471, 32.44332], [65.3414, 32.54205], [65.6484, 32.80798]]}}, {"type": "Feature", "properties": {"map_title": "알렉산드로스의 정복 활동", "source": "미래엔 세계사 교과서 1권 46쪽", "volume": 1, "page": 46, "name": "알렉산드로스의 원정로 9", "category": "정복·원정로", "period": "기원전 334–324", "legend": "알렉산드로스의 원정로"}, "geometry": {"type": "LineString", "coordinates": [[59.18902, 36.26287], [59.51597, 36.27306], [60.2791, 36.31226], [60.68353, 36.32727], [61.08188, 36.33003], [61.45821, 36.31388], [61.79687, 36.27236], [62.08278, 36.19937], [62.37229, 36.06228], [62.51541, 35.91908], [62.53889, 35.77285], [62.46684, 35.62583], [62.32155, 35.47969], [62.12429, 35.33597], [61.89585, 35.19618], [61.65694, 35.06201], [61.45817, 34.93088], [61.33613, 34.80231], [61.28073, 34.67639], [61.28161, 34.55308], [61.3283, 34.43231], [61.41045, 34.31393], [61.51785, 34.19791], [61.64062, 34.08421]]}}, {"type": "Feature", "properties": {"map_title": "알렉산드로스의 정복 활동", "source": "미래엔 세계사 교과서 1권 46쪽", "volume": 1, "page": 46, "name": "알렉산드로스의 원정로 10", "category": "정복·원정로", "period": "기원전 334–324", "legend": "알렉산드로스의 원정로"}, "geometry": {"type": "LineString", "coordinates": [[59.29371, 36.296], [59.1744, 36.2557], [59.02111, 36.2844], [58.84508, 36.36374], [58.65803, 36.47556], [58.47232, 36.60194], [58.15718, 36.82703], [58.05487, 36.89001], [57.82143, 36.99643], [57.57836, 37.09247], [57.32678, 37.17686], [57.06793, 37.24827], [56.80307, 37.3054], [56.5335, 37.34697], [56.26052, 37.37173], [55.98546, 37.37841], [55.7821, 37.36325], [55.58181, 37.32406], [55.38532, 37.26453], [55.19333, 37.18854], [55.00642, 37.10019], [54.82509, 37.00388], [54.4802, 36.80604], [54.15377, 36.62482], [53.82557, 36.48328], [53.48661, 36.40652], [53.13462, 36.38671], [52.7739, 36.3832], [52.4083, 36.36219], [52.03583, 36.34867], [51.65758, 36.39493]]}}, {"type": "Feature", "properties": {"map_title": "알렉산드로스의 정복 활동", "source": "미래엔 세계사 교과서 1권 46쪽", "volume": 1, "page": 46, "name": "알렉산드로스의 원정로 11", "category": "정복·원정로", "period": "기원전 334–324", "legend": "알렉산드로스의 원정로"}, "geometry": {"type": "LineString", "coordinates": [[46.15776, 34.10558], [46.27126, 34.15019], [46.40673, 34.18008], [46.55705, 34.19784], [46.71537, 34.20615], [46.8752, 34.20777], [47.30213, 34.20417], [47.63083, 34.23635], [47.88891, 34.30996], [48.0979, 34.42358], [48.27954, 34.57459], [48.66786, 34.98528], [48.92271, 35.23608], [49.23349, 35.49614], [49.43185, 35.62825], [49.63833, 35.7335], [49.84881, 35.81181], [50.05919, 35.8638], [50.26587, 35.89126], [50.46657, 35.89735], [50.66059, 35.88657], [50.84869, 35.86432], [51.03302, 35.82655], [51.21451, 35.77256], [51.77719, 35.58183], [51.97615, 35.52429], [52.18189, 35.47699], [52.39501, 35.44469], [52.52647, 35.43593], [52.64344, 35.43812], [52.75029, 35.4487], [53.05551, 35.50194], [53.16761, 35.51656], [53.29259, 35.5244]]}}, {"type": "Feature", "properties": {"map_title": "알렉산드로스의 정복 활동", "source": "미래엔 세계사 교과서 1권 46쪽", "volume": 1, "page": 46, "name": "알렉산드로스의 원정로 12", "category": "정복·원정로", "period": "기원전 334–324", "legend": "알렉산드로스의 원정로"}, "geometry": {"type": "LineString", "coordinates": [[44.39969, 32.47206], [44.40839, 32.59715], [44.43087, 32.72823], [44.46556, 32.86232], [44.51127, 32.9967], [44.56693, 33.12867], [44.63141, 33.25556], [44.70364, 33.37468], [44.78246, 33.48334], [44.83362, 33.54455], [44.94875, 33.66569], [45.07586, 33.78163], [45.20895, 33.88813], [45.27584, 33.93649], [45.3804, 34.002], [45.48507, 34.05414], [45.5898, 34.09406], [45.69457, 34.12291], [45.79941, 34.14184], [45.9044, 34.15202], [46.0096, 34.15463], [46.11513, 34.15083]]}}, {"type": "Feature", "properties": {"map_title": "알렉산드로스의 정복 활동", "source": "미래엔 세계사 교과서 1권 46쪽", "volume": 1, "page": 46, "name": "알렉산드로스의 원정로 13", "category": "정복·원정로", "period": "기원전 334–324", "legend": "알렉산드로스의 원정로"}, "geometry": {"type": "LineString", "coordinates": [[66.93238, 36.79972], [67.03968, 36.97373], [67.16723, 37.16068], [67.31133, 37.35257], [67.46811, 37.54132], [67.63373, 37.71882], [67.80467, 37.87711], [67.97793, 38.00833], [68.15117, 38.10489], [68.31293, 38.16062], [68.45869, 38.17932], [68.58907, 38.16466], [68.70448, 38.12027], [68.80511, 38.04968], [68.89094, 37.95637], [68.96186, 37.84375], [69.01761, 37.7152]]}}, {"type": "Feature", "properties": {"map_title": "알렉산드로스의 정복 활동", "source": "미래엔 세계사 교과서 1권 46쪽", "volume": 1, "page": 46, "name": "알렉산드로스의 원정로 14", "category": "정복·원정로", "period": "기원전 334–324", "legend": "알렉산드로스의 원정로"}, "geometry": {"type": "LineString", "coordinates": [[67.92636, 34.93105], [67.86145, 34.65131], [67.90596, 34.38075], [68.03695, 34.1248], [68.23177, 33.88871], [68.46766, 33.6775], [68.72145, 33.49621], [68.9695, 33.34984], [69.18766, 33.2436], [69.4756, 33.13249], [69.77493, 33.04119], [70.08404, 32.9672], [70.40134, 32.90808], [70.72524, 32.86139], [71.05415, 32.8248], [71.38647, 32.79591], [71.72058, 32.77237], [72.08204, 32.72724], [72.3978, 32.64336], [72.67526, 32.52374], [72.92211, 32.37141], [73.14618, 32.18941], [73.3554, 31.98075], [73.55781, 31.74844], [73.76146, 31.49546], [73.89466, 31.31536], [74.01631, 31.12846], [74.12701, 30.93572], [74.22736, 30.73808], [74.31796, 30.53651], [74.39936, 30.33194], [74.47212, 30.12531], [74.53677, 29.91753]]}}, {"type": "Feature", "properties": {"map_title": "알렉산드로스의 정복 활동", "source": "미래엔 세계사 교과서 1권 46쪽", "volume": 1, "page": 46, "name": "알렉산드로스의 원정로 15", "category": "정복·원정로", "period": "기원전 334–324", "legend": "알렉산드로스의 원정로"}, "geometry": {"type": "LineString", "coordinates": [[56.8658, 27.5771], [57.11009, 27.53938], [58.03782, 27.41719], [58.35479, 27.37079], [58.65264, 27.32102], [58.91789, 27.26989], [59.1362, 27.22054], [59.19468, 27.21856], [59.39982, 27.22195], [59.45817, 27.2194]]}}, {"type": "Feature", "properties": {"map_title": "알렉산드로스의 정복 활동", "source": "미래엔 세계사 교과서 1권 46쪽", "volume": 1, "page": 46, "name": "알렉산드로스의 원정로 16", "category": "정복·원정로", "period": "기원전 334–324", "legend": "알렉산드로스의 원정로"}, "geometry": {"type": "LineString", "coordinates": [[68.55895, 26.52336], [68.27118, 26.3391], [68.1352, 26.24649], [68.00486, 26.15329], [67.88051, 26.05926], [67.76252, 25.96421], [67.65135, 25.86792], [67.5475, 25.77018], [67.41456, 25.62404], [67.30208, 25.48674], [67.19591, 25.37382], [67.08084, 25.30122], [66.94076, 25.28535], [66.75839, 25.34233], [66.51439, 25.48329], [66.19, 25.70246], [65.87608, 25.89711], [65.56384, 26.05278], [65.25684, 26.16949], [64.9539, 26.25033], [64.65442, 26.29367], [64.36033, 26.29225], [64.07534, 26.23609], [63.80352, 26.11564], [63.61201, 26.01454], [63.39299, 25.92549], [63.14726, 25.85419], [62.87765, 25.80576], [62.58808, 25.78798], [62.28668, 25.80981], [61.98591, 25.87793], [61.69316, 25.99966], [61.53078, 26.10473], [61.39392, 26.22757], [61.2723, 26.36143], [61.15636, 26.49916], [61.03666, 26.63317], [60.9038, 26.75558], [60.74824, 26.85836], [60.56028, 26.9335], [60.36791, 26.98161], [60.17252, 27.02034], [59.70598, 27.0971], [59.4971, 27.13488]]}}, {"type": "Feature", "properties": {"map_title": "알렉산드로스의 정복 활동", "source": "미래엔 세계사 교과서 1권 46쪽", "volume": 1, "page": 46, "name": "알렉산드로스의 원정로 17", "category": "정복·원정로", "period": "기원전 334–324", "legend": "알렉산드로스의 원정로"}, "geometry": {"type": "LineString", "coordinates": [[70.94901, 28.63337], [70.85787, 28.5001], [70.76475, 28.34849], [70.48201, 27.85189], [70.3883, 27.69469], [70.29502, 27.55252], [70.20183, 27.43179], [70.11614, 27.34586], [70.02201, 27.27309], [69.92094, 27.21103], [69.81448, 27.15724], [69.70426, 27.10931], [69.36735, 26.97673], [69.30262, 26.94263], [69.01144, 26.77658], [68.32435, 26.37459]]}}, {"type": "Feature", "properties": {"map_title": "알렉산드로스의 정복 활동", "source": "미래엔 세계사 교과서 1권 46쪽", "volume": 1, "page": 46, "name": "알렉산드로스의 원정로 18", "category": "정복·원정로", "period": "기원전 334–324", "legend": "알렉산드로스의 원정로"}, "geometry": {"type": "LineString", "coordinates": [[73.91462, 31.28181], [73.73884, 31.06193], [73.55304, 30.8548], [73.41765, 30.7187], [73.19148, 30.51056], [72.95609, 30.31143], [72.71434, 30.11935], [71.98013, 29.56615], [71.74226, 29.38308], [71.5128, 29.19753], [71.37831, 29.08245], [71.24874, 28.96532], [71.12481, 28.84574], [71.00722, 28.72332]]}}, {"type": "Feature", "properties": {"map_title": "알렉산드로스의 정복 활동", "source": "미래엔 세계사 교과서 1권 46쪽", "volume": 1, "page": 46, "name": "알렉산드로스의 원정로 19", "category": "정복·원정로", "period": "기원전 334–324", "legend": "알렉산드로스의 원정로"}, "geometry": {"type": "LineString", "coordinates": [[56.93099, 27.5485], [56.78829, 27.61585], [56.2356, 27.84418], [56.10098, 27.90691], [55.96711, 27.97826], [55.83333, 28.06137], [55.55888, 28.2504], [55.42942, 28.3449], [55.30386, 28.44196], [55.18131, 28.54362], [55.06097, 28.65206], [54.94205, 28.76955], [54.82383, 28.8985]]}}, {"type": "Feature", "properties": {"map_title": "알렉산드로스의 정복 활동", "source": "미래엔 세계사 교과서 1권 46쪽", "volume": 1, "page": 46, "name": "알렉산드로스의 원정로 20", "category": "정복·원정로", "period": "기원전 334–324", "legend": "알렉산드로스의 원정로"}, "geometry": {"type": "LineString", "coordinates": [[56.9991, 27.56785], [57.01887, 27.3975], [57.04667, 27.23804], [57.08672, 27.08723], [57.14263, 26.94299], [57.21664, 26.80328], [57.30903, 26.66619], [57.4207, 26.5311], [57.55437, 26.39921]]}}, {"type": "Feature", "properties": {"map_title": "알렉산드로스의 정복 활동", "source": "미래엔 세계사 교과서 1권 46쪽", "volume": 1, "page": 46, "name": "알렉산드로스의 원정로 21", "category": "정복·원정로", "period": "기원전 334–324", "legend": "알렉산드로스의 원정로"}, "geometry": {"type": "LineString", "coordinates": [[71.31906, 32.77745], [71.2247, 32.91978], [71.1385, 33.08445], [71.06055, 33.26534], [70.99078, 33.45628], [70.92895, 33.65099], [70.87467, 33.84317], [70.7861, 34.19415]]}}, {"type": "Feature", "properties": {"map_title": "알렉산드로스의 정복 활동", "source": "미래엔 세계사 교과서 1권 46쪽", "volume": 1, "page": 46, "name": "알렉산드로스의 원정로 22", "category": "정복·원정로", "period": "기원전 334–324", "legend": "알렉산드로스의 원정로"}, "geometry": {"type": "LineString", "coordinates": [[29.86575, 31.21396], [29.55589, 31.11316], [29.14511, 30.9646], [29.01537, 30.92097], [28.8986, 30.88644], [28.74717, 30.85093], [28.61721, 30.8302], [28.50173, 30.82104], [28.39414, 30.82058], [28.28841, 30.82647], [28.17908, 30.83695], [27.71029, 30.89337], [27.53927, 30.90332], [27.41095, 30.89072], [27.32087, 30.85527], [27.26638, 30.7993], [27.24607, 30.72596], [27.25931, 30.63842], [27.30581, 30.53957], [27.33861, 30.4902], [27.3759, 30.44082], [27.54091, 30.24033], [27.57864, 30.18832], [27.61193, 30.13504], [27.65477, 30.0492], [27.70103, 29.93228], [27.72376, 29.89794], [27.75919, 29.87681], [27.81709, 29.86648], [27.90748, 29.86454], [28.04064, 29.86872], [28.22696, 29.88531], [28.41123, 29.918], [28.59381, 29.96409], [28.77497, 30.02066], [28.9549, 30.08458], [29.31125, 30.22009], [29.48749, 30.28341], [30.01955, 30.46487], [30.15036, 30.50508], [30.2804, 30.54085], [30.40969, 30.5712], [30.53814, 30.5955]]}}, {"type": "Feature", "properties": {"map_title": "알렉산드로스의 정복 활동", "source": "미래엔 세계사 교과서 1권 46쪽", "volume": 1, "page": 46, "name": "알렉산드로스의 원정로 23", "category": "정복·원정로", "period": "기원전 334–324", "legend": "알렉산드로스의 원정로"}, "geometry": {"type": "LineString", "coordinates": [[34.1571, 30.9385], [34.0284, 30.86311], [33.92654, 30.8124], [33.77855, 30.75119], [33.66116, 30.71152], [33.54039, 30.67749], [33.41749, 30.64881], [33.29386, 30.6251], [33.17098, 30.60588], [32.93347, 30.57878], [32.7005, 30.56427], [32.19664, 30.56456], [31.97608, 30.57404], [31.21471, 30.64147], [30.95878, 30.65242], [30.72016, 30.64469]]}}, {"type": "Feature", "properties": {"map_title": "알렉산드로스의 정복 활동", "source": "미래엔 세계사 교과서 1권 46쪽", "volume": 1, "page": 46, "name": "알렉산드로스의 원정로 24", "category": "정복·원정로", "period": "기원전 334–324", "legend": "알렉산드로스의 원정로"}, "geometry": {"type": "LineString", "coordinates": [[35.25387, 33.31368], [35.22736, 33.21708], [35.22033, 33.11881], [35.21737, 32.91894], [35.20892, 32.81757], [35.19326, 32.71519], [35.14805, 32.50654], [35.12068, 32.30051], [35.10682, 32.05592], [35.07156, 31.80377], [35.00626, 31.56082], [34.91118, 31.33993], [34.78118, 31.15724], [34.6033, 31.0341], [34.36042, 30.99525]]}}, {"type": "Feature", "properties": {"map_title": "알렉산드로스의 정복 활동", "source": "미래엔 세계사 교과서 1권 46쪽", "volume": 1, "page": 46, "name": "알렉산드로스의 원정로 25", "category": "정복·원정로", "period": "기원전 334–324", "legend": "알렉산드로스의 원정로"}, "geometry": {"type": "LineString", "coordinates": [[54.86452, 36.96452], [54.76253, 36.60706], [54.61433, 36.30398], [54.42948, 36.05426], [54.21771, 35.85316], [53.98786, 35.69723], [53.74712, 35.58757], [53.50129, 35.52988], [53.25543, 35.53278]]}}]}