{"type": "FeatureCollection", "features": [{"type": "Feature", "properties": {"name": "베르데 곶", "name_en": "Cape Verde", "category": "기타", "year": null, "coord_source": "실제 위치", "map_lon": -17.96806, "map_lat": 15.73081, "legend": "베르데 곶", "map_title": "새로운 탐험의 항로를 개척한 사람들", "source": "미래엔 세계사 교과서 2권 87쪽", "volume": 2, "page": 87}, "geometry": {"type": "Point", "coordinates": [-17.45, 14.72]}}, {"type": "Feature", "properties": {"name": "희망봉", "name_en": "Cape of Good Hope", "category": "기타", "year": null, "coord_source": "실제 위치", "map_lon": 18.38197, "map_lat": -34.44045, "legend": "희망봉", "map_title": "새로운 탐험의 항로를 개척한 사람들", "source": "미래엔 세계사 교과서 2권 87쪽", "volume": 2, "page": 87}, "geometry": {"type": "Point", "coordinates": [18.47, -34.36]}}, {"type": "Feature", "properties": {"name": "캘리컷(코지코드)", "name_en": "Calicut (Kozhikode)", "category": "항구", "year": null, "coord_source": "실제 위치", "map_lon": 78.13309, "map_lat": 8.93476, "legend": "캘리컷(코지코드)", "map_title": "새로운 탐험의 항로를 개척한 사람들", "source": "미래엔 세계사 교과서 2권 87쪽", "volume": 2, "page": 87}, "geometry": {"type": "Point", "coordinates": [75.78, 11.25]}}, {"type": "Feature", "properties": {"name": "산살바도르섬", "name_en": "San Salvador Island", "category": "기타", "year": null, "coord_source": "실제 위치", "map_lon": -74.94045, "map_lat": 23.62061, "legend": "산살바도르섬", "map_title": "새로운 탐험의 항로를 개척한 사람들", "source": "미래엔 세계사 교과서 2권 87쪽", "volume": 2, "page": 87}, "geometry": {"type": "Point", "coordinates": [-74.5, 24.05]}}, {"type": "Feature", "properties": {"name": "포르투갈", "name_en": "Portugal", "category": "기타", "year": null, "coord_source": "지도 판독", "map_lon": -10.43128, "map_lat": 34.34415, "legend": "포르투갈(출항지 기호)", "map_title": "새로운 탐험의 항로를 개척한 사람들", "source": "미래엔 세계사 교과서 2권 87쪽", "volume": 2, "page": 87}, "geometry": {"type": "Point", "coordinates": [-10.43128, 34.34415]}}, {"type": "Feature", "properties": {"name": "에스파냐", "name_en": "Spain", "category": "기타", "year": null, "coord_source": "지도 판독", "map_lon": -8.34909, "map_lat": 34.82806, "legend": "에스파냐(출항지 기호)", "map_title": "새로운 탐험의 항로를 개척한 사람들", "source": "미래엔 세계사 교과서 2권 87쪽", "volume": 2, "page": 87}, "geometry": {"type": "Point", "coordinates": [-8.34909, 34.82806]}}]}